{"type":"FeatureCollection","features":[{"type":"Feature","properties":{"name":"unnamed","time":"2008-05-31T16:30:34Z","coordTimes":["2008-05-31T16:30:34Z","2008-05-31T16:30:38Z","2008-05-31T16:30:40Z","2008-05-31T16:30:45Z","2008-05-31T16:30:55Z","2008-05-31T16:30:57Z","2008-05-31T16:31:04Z","2008-05-31T16:31:10Z","2008-05-31T16:31:15Z","2008-05-31T16:31:26Z","2008-05-31T16:31:30Z","2008-05-31T16:31:38Z","2008-05-31T16:31:42Z","2008-05-31T16:31:52Z","2008-05-31T16:32:03Z","2008-05-31T16:32:13Z","2008-05-31T16:32:17Z","2008-05-31T16:32:28Z","2008-05-31T16:32:32Z","2008-05-31T16:32:35Z","2008-05-31T16:32:46Z","2008-05-31T16:32:48Z","2008-05-31T16:32:52Z","2008-05-31T16:32:57Z","2008-05-31T16:33:09Z","2008-05-31T16:33:15Z","2008-05-31T16:33:24Z","2008-05-31T16:33:36Z","2008-05-31T16:33:43Z","2008-05-31T16:33:54Z","2008-05-31T16:34:05Z","2008-05-31T16:34:13Z","2008-05-31T16:34:24Z","2008-05-31T16:34:38Z","2008-05-31T16:34:43Z","2008-05-31T16:35:03Z","2008-05-31T16:38:01Z","2008-05-31T16:38:03Z","2008-05-31T16:38:06Z","2008-05-31T16:38:10Z","2008-05-31T16:38:15Z","2008-05-31T16:38:21Z","2008-05-31T16:38:25Z","2008-05-31T16:38:30Z","2008-05-31T16:38:33Z","2008-05-31T16:38:43Z","2008-05-31T16:38:51Z","2008-05-31T16:38:58Z","2008-05-31T16:39:04Z","2008-05-31T16:39:09Z","2008-05-31T16:39:15Z","2008-05-31T16:39:22Z","2008-05-31T16:39:29Z","2008-05-31T16:39:35Z","2008-05-31T16:39:42Z","2008-05-31T16:39:50Z","2008-05-31T16:39:58Z","2008-05-31T16:40:07Z","2008-05-31T16:40:13Z","2008-05-31T16:40:19Z","2008-05-31T16:40:26Z","2008-05-31T16:40:31Z","2008-05-31T16:40:37Z","2008-05-31T16:40:46Z","2008-05-31T16:42:54Z","2008-05-31T16:42:59Z","2008-05-31T16:43:06Z","2008-05-31T16:43:12Z","2008-05-31T16:43:14Z","2008-05-31T16:43:20Z","2008-05-31T16:43:40Z","2008-05-31T16:43:44Z","2008-05-31T16:43:51Z","2008-05-31T16:43:53Z","2008-05-31T16:43:56Z","2008-05-31T16:44:03Z","2008-05-31T16:44:28Z","2008-05-31T16:45:56Z","2008-05-31T16:46:08Z","2008-05-31T16:46:41Z","2008-05-31T16:47:32Z","2008-05-31T16:49:56Z","2008-05-31T16:50:40Z","2008-05-31T16:51:13Z","2008-05-31T16:52:28Z","2008-05-31T16:52:51Z","2008-05-31T16:53:58Z","2008-05-31T16:54:16Z","2008-05-31T16:54:39Z","2008-05-31T16:55:38Z","2008-05-31T16:55:59Z","2008-05-31T16:56:38Z","2008-05-31T16:57:44Z","2008-05-31T16:58:12Z","2008-05-31T16:58:34Z","2008-05-31T17:01:11Z","2008-05-31T17:01:25Z","2008-05-31T17:02:02Z","2008-05-31T17:04:01Z","2008-05-31T17:04:11Z","2008-05-31T17:05:19Z","2008-05-31T17:05:24Z","2008-05-31T17:05:39Z","2008-05-31T17:05:41Z","2008-05-31T17:05:46Z","2008-05-31T17:06:26Z","2008-05-31T17:08:18Z","2008-05-31T17:08:23Z","2008-05-31T17:08:25Z","2008-05-31T17:08:32Z","2008-05-31T17:08:37Z","2008-05-31T17:08:54Z","2008-05-31T17:09:02Z","2008-05-31T17:09:11Z","2008-05-31T17:09:20Z","2008-05-31T17:09:24Z","2008-05-31T17:09:26Z","2008-05-31T17:09:30Z","2008-05-31T17:09:36Z","2008-05-31T17:09:44Z","2008-05-31T17:09:57Z","2008-05-31T17:10:03Z","2008-05-31T17:10:19Z","2008-05-31T17:10:30Z","2008-05-31T17:10:39Z","2008-05-31T17:10:58Z","2008-05-31T17:11:05Z","2008-05-31T17:11:10Z","2008-05-31T17:11:19Z","2008-05-31T17:11:28Z","2008-05-31T17:11:41Z","2008-05-31T17:11:53Z","2008-05-31T17:12:12Z","2008-05-31T17:12:26Z","2008-05-31T17:12:38Z","2008-05-31T17:12:48Z","2008-05-31T17:12:59Z","2008-05-31T17:13:12Z","2008-05-31T17:13:26Z","2008-05-31T17:13:43Z","2008-05-31T17:13:55Z","2008-05-31T17:14:39Z","2008-05-31T17:14:59Z","2008-05-31T17:15:20Z","2008-05-31T17:16:00Z","2008-05-31T17:16:26Z","2008-05-31T17:16:56Z","2008-05-31T17:17:32Z","2008-05-31T17:18:46Z","2008-05-31T17:19:19Z","2008-05-31T17:20:00Z","2008-05-31T17:20:46Z","2008-05-31T17:21:27Z","2008-05-31T17:21:46Z","2008-05-31T17:22:05Z","2008-05-31T17:22:28Z","2008-05-31T17:22:53Z","2008-05-31T17:23:27Z","2008-05-31T17:23:46Z","2008-05-31T17:24:05Z","2008-05-31T17:24:44Z","2008-05-31T17:32:11Z","2008-05-31T17:34:56Z","2008-05-31T17:35:39Z","2008-05-31T17:37:33Z","2008-05-31T17:38:11Z","2008-05-31T17:43:32Z","2008-05-31T17:44:10Z","2008-05-31T17:44:28Z","2008-05-31T17:45:46Z","2008-05-31T17:46:00Z","2008-05-31T17:46:29Z","2008-05-31T17:46:50Z","2008-05-31T17:47:52Z","2008-05-31T17:48:31Z","2008-05-31T17:48:57Z","2008-05-31T17:49:19Z","2008-05-31T17:50:24Z","2008-05-31T17:51:46Z","2008-05-31T17:52:05Z","2008-05-31T17:53:48Z","2008-05-31T17:54:05Z","2008-05-31T17:55:37Z","2008-05-31T17:56:11Z","2008-05-31T17:56:51Z","2008-05-31T17:59:35Z","2008-05-31T18:00:42Z","2008-05-31T18:01:07Z","2008-05-31T18:01:55Z","2008-05-31T18:02:48Z","2008-05-31T18:03:13Z","2008-05-31T18:04:00Z","2008-05-31T18:05:04Z","2008-05-31T18:05:31Z","2008-05-31T18:05:55Z","2008-05-31T18:06:35Z","2008-05-31T18:11:29Z","2008-05-31T18:12:26Z","2008-05-31T18:12:47Z","2008-05-31T18:14:30Z","2008-05-31T18:14:47Z","2008-05-31T18:15:02Z","2008-05-31T18:15:05Z","2008-05-31T18:15:11Z","2008-05-31T18:15:14Z","2008-05-31T18:15:28Z","2008-05-31T18:15:42Z","2008-05-31T18:16:03Z","2008-05-31T18:16:09Z","2008-05-31T18:16:19Z","2008-05-31T18:16:31Z","2008-05-31T18:16:40Z","2008-05-31T18:16:55Z","2008-05-31T18:17:03Z","2008-05-31T18:17:07Z","2008-05-31T18:17:12Z","2008-05-31T18:17:24Z","2008-05-31T18:17:27Z","2008-05-31T18:17:37Z","2008-05-31T18:17:48Z","2008-05-31T18:17:57Z","2008-05-31T18:18:01Z","2008-05-31T18:18:03Z","2008-05-31T18:18:11Z"],"type":"marche","month":"2008-05-01"},"geometry":{"type":"LineString","coordinates":[[4.314845,50.047639,241.43],[4.314888,50.047816,241.43],[4.314836,50.047934,241.43],[4.315116,50.048206,241.91],[4.316119,50.048549,244.31],[4.316324,50.048581,244.79],[4.317127,50.048805,245.27],[4.317406,50.048964,245.75],[4.31739,50.049135,245.27],[4.317342,50.049373,244.79],[4.31722,50.049481,244.31],[4.317116,50.049828,242.87],[4.317059,50.049974,240.47],[4.31709,50.05028,238.06],[4.317588,50.050482,239.51],[4.31784,50.050141,241.91],[4.318036,50.050126,242.39],[4.319087,50.05025,242.39],[4.319208,50.050138,243.35],[4.319217,50.050006,243.83],[4.319163,50.049545,245.27],[4.319152,50.049515,245.27],[4.318903,50.049449,245.75],[4.318297,50.049405,245.75],[4.317038,50.049419,244.79],[4.31661,50.049352,244.31],[4.316464,50.049416,244.31],[4.316456,50.049361,244.31],[4.316464,50.049305,244.31],[4.316433,50.04925,244.79],[4.316448,50.049242,244.31],[4.315766,50.049382,244.31],[4.315028,50.049154,243.83],[4.314992,50.048986,243.83],[4.314978,50.049019,243.83],[4.314927,50.04901,243.35],[4.31481,50.048932,243.35],[4.314775,50.048923,243.35],[4.314744,50.048851,243.35],[4.314549,50.048701,242.39],[4.314304,50.048601,240.47],[4.314061,50.048564,239.51],[4.314182,50.048446,239.99],[4.314334,50.048256,239.99],[4.314372,50.04815,239.99],[4.314624,50.047905,240.95],[4.314499,50.047771,241.43],[4.314707,50.047624,241.91],[4.314883,50.047683,241.91],[4.314754,50.047728,241.91],[4.314477,50.047681,241.43],[4.314726,50.047588,241.91],[4.315121,50.047603,242.39],[4.315509,50.047681,243.83],[4.316265,50.04759,245.27],[4.316867,50.047349,246.23],[4.317101,50.047247,247.2],[4.317474,50.046835,249.12],[4.318009,50.046877,250.08],[4.318609,50.047106,249.6],[4.318734,50.047443,249.12],[4.318571,50.047592,248.16],[4.318124,50.047651,247.68],[4.317941,50.047611,248.16],[4.317877,50.047561,246.72],[4.317466,50.047377,246.23],[4.317358,50.047122,246.23],[4.317359,50.047083,247.2],[4.317442,50.046999,247.68],[4.317949,50.046926,249.12],[4.320143,50.047697,249.6],[4.320537,50.047814,249.12],[4.320884,50.04778,249.6],[4.320966,50.047701,250.08],[4.32113,50.047568,250.56],[4.321354,50.047524,250.56],[4.32125,50.047622,251.04],[4.321274,50.047679,251.04],[4.321231,50.047703,250.08],[4.321316,50.047783,250.08],[4.321331,50.047823,249.6],[4.321414,50.047776,249.12],[4.321476,50.047821,248.64],[4.321464,50.047832,248.64],[4.321564,50.047886,248.64],[4.321533,50.047957,248.64],[4.321452,50.047924,248.64],[4.321389,50.047855,248.64],[4.321409,50.047918,248.64],[4.32132,50.047922,248.64],[4.321251,50.047871,248.64],[4.321218,50.047988,248.64],[4.321239,50.048068,248.64],[4.321164,50.048005,248.64],[4.321234,50.047956,248.64],[4.321217,50.047779,247.68],[4.321272,50.04769,248.16],[4.321236,50.047887,248.16],[4.321266,50.047897,247.68],[4.321188,50.047731,247.68],[4.32128,50.047663,248.16],[4.321248,50.04772,248.16],[4.321061,50.047833,247.68],[4.321062,50.047809,247.2],[4.321103,50.047747,248.16],[4.321253,50.047641,247.68],[4.321238,50.047705,247.2],[4.321013,50.047753,247.2],[4.320918,50.047816,246.72],[4.320508,50.047878,246.23],[4.319979,50.04772,245.75],[4.319156,50.047413,244.79],[4.318795,50.047368,244.31],[4.318425,50.04774,242.87],[4.318196,50.048002,242.39],[4.318365,50.048143,242.87],[4.318541,50.048232,242.87],[4.318894,50.048365,242.87],[4.319379,50.048617,242.39],[4.319567,50.048992,241.91],[4.319291,50.049352,240.47],[4.318771,50.049301,240.47],[4.317155,50.049356,239.51],[4.316248,50.049221,238.54],[4.315916,50.049156,238.06],[4.315946,50.049111,238.06],[4.316122,50.049195,238.54],[4.316172,50.049168,238.54],[4.316173,50.049248,239.51],[4.316128,50.049323,239.51],[4.316111,50.049263,239.51],[4.316109,50.049148,239.51],[4.316093,50.04912,239.51],[4.316037,50.049146,239.51],[4.316127,50.049067,239.99],[4.31614,50.049079,240.47],[4.316093,50.049129,240.47],[4.316065,50.049098,240.47],[4.315976,50.049204,240.47],[4.315979,50.049162,240.47],[4.31592,50.049128,239.99],[4.315484,50.049234,239.99],[4.315257,50.049168,239.51],[4.315129,50.048995,239.51],[4.314731,50.049002,239.51],[4.314458,50.049037,239.02],[4.31413,50.048981,239.51],[4.313963,50.049027,239.02],[4.313941,50.048933,239.51],[4.313823,50.048944,239.02],[4.313924,50.048996,239.51],[4.313987,50.049058,239.99],[4.314081,50.049057,239.99],[4.314221,50.049035,240.47],[4.314435,50.049072,240.47],[4.31451,50.04911,240.47],[4.314817,50.049053,240.47],[4.314967,50.049079,240.95],[4.315129,50.049091,240.95],[4.315179,50.049134,240.95],[4.315164,50.049135,239.99],[4.315212,50.049086,240.47],[4.31508,50.049251,240.47],[4.315175,50.049151,239.99],[4.315145,50.049201,239.99],[4.315179,50.049137,239.51],[4.315105,50.049198,239.02],[4.315035,50.049211,239.02],[4.314989,50.049264,239.02],[4.315122,50.049149,239.02],[4.315033,50.049216,239.02],[4.315097,50.049188,239.02],[4.315274,50.048983,239.02],[4.315167,50.049124,239.02],[4.315106,50.049174,239.02],[4.315228,50.049096,239.02],[4.315333,50.04898,239.02],[4.315139,50.049201,239.02],[4.315044,50.049273,239.02],[4.315158,50.049182,239.02],[4.315086,50.049195,238.54],[4.315313,50.048979,238.54],[4.315584,50.048788,238.06],[4.315433,50.048846,238.06],[4.315275,50.04904,238.06],[4.315076,50.049338,238.06],[4.315328,50.048883,238.06],[4.315463,50.048851,238.06],[4.315326,50.049016,238.54],[4.315016,50.049319,239.02],[4.31486,50.0495,239.02],[4.315091,50.04926,239.02],[4.315131,50.049145,239.51],[4.315209,50.049017,239.51],[4.315168,50.049068,239.51],[4.315059,50.049164,239.99],[4.315052,50.049193,241.91],[4.315102,50.0492,241.43],[4.31508,50.049179,241.91],[4.315493,50.049219,242.39],[4.315541,50.049233,241.91],[4.315537,50.04927,242.39],[4.315577,50.049314,242.87],[4.315697,50.049363,241.91],[4.315761,50.049361,241.91],[4.31599,50.049392,242.87],[4.315953,50.04941,241.91],[4.31605,50.04944,242.39],[4.316062,50.049453,241.91],[4.316172,50.04946,242.39],[4.316084,50.049292,242.39],[4.316042,50.049275,242.39],[4.316006,50.049391,242.39],[4.315968,50.049389,242.39],[4.315832,50.049282,242.87],[4.315477,50.049051,241.91],[4.31486,50.049039,240.95],[4.314731,50.049049,240.95],[4.314062,50.048792,238.06],[4.313945,50.048735,237.58],[4.314276,50.048388,238.06],[4.31437,50.048229,238.06],[4.314468,50.048143,238.06],[4.314389,50.047797,239.02]]}}]}