<?xml version="1.0" encoding="UTF-8"?>
<gpx version="1.1" creator="GPSBabel - https://www.gpsbabel.org" xmlns="http://www.topografix.com/GPX/1/1" xmlns:xsi="http://www.w3.org/2001/XMLSchema-instance" xmlns:gpxtpx="http://www.garmin.com/xmlschemas/TrackPointExtension/v1" xmlns:gpxx="http://www.garmin.com/xmlschemas/GpxExtensions/v3" xmlns:gpxpx="http://www.garmin.com/xmlschemas/PowerExtension/v1" xmlns:gpx_style="http://www.topografix.com/GPX/gpx_style/0/2">
  <metadata>
    <name>gps4cam trip started at 2019-03-03 13-25 decoded at 2019-03-10 21-34-18</name>
    <link href="http://gps4cam.com">
      <text>gps4cam</text>
    </link>
    <time>2025-09-17T13:22:58.376Z</time>
    <bounds minlat="-4.338681657" minlon="39.568091757" maxlat="-4.334199664" maxlon="39.569537322"/>
  </metadata>
  <trk>
    <name>gps4cam trip started at: 2019-03-03T12:25:19Z</name>
    <trkseg>
      <trkpt lat="-4.337764287" lon="39.568410250">
        <time>2019-03-03T12:25:19Z</time>
      </trkpt>
      <trkpt lat="-4.337930513" lon="39.568427321">
        <time>2019-03-03T12:25:24Z</time>
      </trkpt>
      <trkpt lat="-4.337689738" lon="39.568307533">
        <time>2019-03-03T12:25:26Z</time>
      </trkpt>
      <trkpt lat="-4.337737515" lon="39.568237486">
        <time>2019-03-03T12:26:13Z</time>
      </trkpt>
      <trkpt lat="-4.337602505" lon="39.568137334">
        <time>2019-03-03T12:26:39Z</time>
      </trkpt>
      <trkpt lat="-4.337468447" lon="39.568091757">
        <time>2019-03-03T12:26:52Z</time>
      </trkpt>
      <trkpt lat="-4.337345950" lon="39.568155592">
        <time>2019-03-03T12:27:02Z</time>
      </trkpt>
      <trkpt lat="-4.337208241" lon="39.568156075">
        <time>2019-03-03T12:27:30Z</time>
      </trkpt>
      <trkpt lat="-4.337007201" lon="39.568356264">
        <time>2019-03-03T12:28:00Z</time>
      </trkpt>
      <trkpt lat="-4.336945444" lon="39.568497268">
        <time>2019-03-03T12:28:12Z</time>
      </trkpt>
      <trkpt lat="-4.336887443" lon="39.568768453">
        <time>2019-03-03T12:28:42Z</time>
      </trkpt>
      <trkpt lat="-4.336883620" lon="39.568911019">
        <time>2019-03-03T12:28:56Z</time>
      </trkpt>
      <trkpt lat="-4.336682912" lon="39.569279065">
        <time>2019-03-03T12:29:41Z</time>
      </trkpt>
      <trkpt lat="-4.336600216" lon="39.569390131">
        <time>2019-03-03T12:31:02Z</time>
      </trkpt>
      <trkpt lat="-4.336470815" lon="39.569441192">
        <time>2019-03-03T12:31:21Z</time>
      </trkpt>
      <trkpt lat="-4.336336082" lon="39.569420774">
        <time>2019-03-03T12:31:41Z</time>
      </trkpt>
      <trkpt lat="-4.336207302" lon="39.569358556">
        <time>2019-03-03T12:32:30Z</time>
      </trkpt>
      <trkpt lat="-4.335919928" lon="39.569355004">
        <time>2019-03-03T12:34:14Z</time>
      </trkpt>
      <trkpt lat="-4.335361912" lon="39.569264428">
        <time>2019-03-03T12:35:37Z</time>
      </trkpt>
      <trkpt lat="-4.335286345" lon="39.569379882">
        <time>2019-03-03T12:36:01Z</time>
      </trkpt>
      <trkpt lat="-4.335182379" lon="39.569293156">
        <time>2019-03-03T12:38:15Z</time>
      </trkpt>
      <trkpt lat="-4.335046522" lon="39.569314670">
        <time>2019-03-03T12:38:30Z</time>
      </trkpt>
      <trkpt lat="-4.334850483" lon="39.569418483">
        <time>2019-03-03T12:39:09Z</time>
      </trkpt>
      <trkpt lat="-4.334900442" lon="39.569537322">
        <time>2019-03-03T12:39:34Z</time>
      </trkpt>
      <trkpt lat="-4.334833472" lon="39.569422221">
        <time>2019-03-03T12:40:10Z</time>
      </trkpt>
      <trkpt lat="-4.334786264" lon="39.569290868">
        <time>2019-03-03T12:40:34Z</time>
      </trkpt>
      <trkpt lat="-4.334507818" lon="39.569224614">
        <time>2019-03-03T12:41:09Z</time>
      </trkpt>
      <trkpt lat="-4.334417992" lon="39.569331291">
        <time>2019-03-03T12:41:51Z</time>
      </trkpt>
      <trkpt lat="-4.334260972" lon="39.569331254">
        <time>2019-03-03T12:42:52Z</time>
      </trkpt>
      <trkpt lat="-4.334199664" lon="39.569455484">
        <time>2019-03-03T12:44:13Z</time>
      </trkpt>
      <trkpt lat="-4.334271924" lon="39.569193076">
        <time>2019-03-03T12:46:33Z</time>
      </trkpt>
      <trkpt lat="-4.334219887" lon="39.569061593">
        <time>2019-03-03T12:47:59Z</time>
      </trkpt>
      <trkpt lat="-4.334276367" lon="39.568937232">
        <time>2019-03-03T12:48:32Z</time>
      </trkpt>
      <trkpt lat="-4.334268008" lon="39.568798534">
        <time>2019-03-03T12:48:52Z</time>
      </trkpt>
      <trkpt lat="-4.334293443" lon="39.568660748">
        <time>2019-03-03T12:49:12Z</time>
      </trkpt>
      <trkpt lat="-4.334417395" lon="39.568722837">
        <time>2019-03-03T12:49:43Z</time>
      </trkpt>
      <trkpt lat="-4.334457249" lon="39.568858188">
        <time>2019-03-03T12:50:02Z</time>
      </trkpt>
      <trkpt lat="-4.334548583" lon="39.568965554">
        <time>2019-03-03T12:50:48Z</time>
      </trkpt>
      <trkpt lat="-4.334696781" lon="39.569204534">
        <time>2019-03-03T12:52:45Z</time>
      </trkpt>
      <trkpt lat="-4.334833815" lon="39.569229209">
        <time>2019-03-03T12:56:15Z</time>
      </trkpt>
      <trkpt lat="-4.334974274" lon="39.569216212">
        <time>2019-03-03T12:56:37Z</time>
      </trkpt>
      <trkpt lat="-4.335246662" lon="39.569148026">
        <time>2019-03-03T12:58:09Z</time>
      </trkpt>
      <trkpt lat="-4.335378643" lon="39.569180958">
        <time>2019-03-03T12:59:02Z</time>
      </trkpt>
      <trkpt lat="-4.335523706" lon="39.569176477">
        <time>2019-03-03T12:59:27Z</time>
      </trkpt>
      <trkpt lat="-4.335661189" lon="39.569184380">
        <time>2019-03-03T12:59:44Z</time>
      </trkpt>
      <trkpt lat="-4.335788289" lon="39.569129062">
        <time>2019-03-03T13:01:53Z</time>
      </trkpt>
      <trkpt lat="-4.335928524" lon="39.569124451">
        <time>2019-03-03T13:04:46Z</time>
      </trkpt>
      <trkpt lat="-4.336066907" lon="39.569098809">
        <time>2019-03-03T13:07:06Z</time>
      </trkpt>
      <trkpt lat="-4.336092277" lon="39.569233770">
        <time>2019-03-03T13:07:58Z</time>
      </trkpt>
      <trkpt lat="-4.336182102" lon="39.569127092">
        <time>2019-03-03T13:08:58Z</time>
      </trkpt>
      <trkpt lat="-4.336320485" lon="39.569101450">
        <time>2019-03-03T13:09:15Z</time>
      </trkpt>
      <trkpt lat="-4.336465098" lon="39.569113742">
        <time>2019-03-03T13:09:35Z</time>
      </trkpt>
      <trkpt lat="-4.336748319" lon="39.569092005">
        <time>2019-03-03T13:10:12Z</time>
      </trkpt>
      <trkpt lat="-4.336840446" lon="39.568989586">
        <time>2019-03-03T13:10:35Z</time>
      </trkpt>
      <trkpt lat="-4.336904280" lon="39.568861226">
        <time>2019-03-03T13:11:47Z</time>
      </trkpt>
      <trkpt lat="-4.336971487" lon="39.568607074">
        <time>2019-03-03T13:12:16Z</time>
      </trkpt>
      <trkpt lat="-4.336996922" lon="39.568469287">
        <time>2019-03-03T13:12:32Z</time>
      </trkpt>
      <trkpt lat="-4.337129419" lon="39.568212698">
        <time>2019-03-03T13:13:04Z</time>
      </trkpt>
      <trkpt lat="-4.337221546" lon="39.568110279">
        <time>2019-03-03T13:13:18Z</time>
      </trkpt>
      <trkpt lat="-4.337361556" lon="39.568114055">
        <time>2019-03-03T13:13:39Z</time>
      </trkpt>
      <trkpt lat="-4.337502016" lon="39.568101058">
        <time>2019-03-03T13:13:57Z</time>
      </trkpt>
      <trkpt lat="-4.337618389" lon="39.568175531">
        <time>2019-03-03T13:14:13Z</time>
      </trkpt>
      <trkpt lat="-4.337757499" lon="39.568212852">
        <time>2019-03-03T13:14:30Z</time>
      </trkpt>
      <trkpt lat="-4.337881227" lon="39.568283327">
        <time>2019-03-03T13:14:47Z</time>
      </trkpt>
      <trkpt lat="-4.337894414" lon="39.568422156">
        <time>2019-03-03T13:15:08Z</time>
      </trkpt>
      <trkpt lat="-4.337978394" lon="39.568533520">
        <time>2019-03-03T13:15:30Z</time>
      </trkpt>
      <trkpt lat="-4.337881664" lon="39.568627423">
        <time>2019-03-03T13:16:03Z</time>
      </trkpt>
      <trkpt lat="-4.337885486" lon="39.568484857">
        <time>2019-03-03T13:18:02Z</time>
      </trkpt>
      <trkpt lat="-4.338023869" lon="39.568459216">
        <time>2019-03-03T13:18:37Z</time>
      </trkpt>
      <trkpt lat="-4.338155797" lon="39.568404027">
        <time>2019-03-03T13:19:37Z</time>
      </trkpt>
      <trkpt lat="-4.338289801" lon="39.568361483">
        <time>2019-03-03T13:19:49Z</time>
      </trkpt>
      <trkpt lat="-4.338681657" lon="39.568162242">
        <time>2019-03-03T13:20:37Z</time>
      </trkpt>
      <trkpt lat="-4.338555178" lon="39.568104281">
        <time>2019-03-03T13:21:49Z</time>
      </trkpt>
      <trkpt lat="-4.338587836" lon="39.568507993">
        <time>2019-03-03T13:22:27Z</time>
      </trkpt>
    </trkseg>
  </trk>
</gpx>
