{"type":"FeatureCollection","features":[{"type":"Feature","properties":{"name":"Tennis en soirée","type":"tennis","time":"2024-09-18T18:00:29Z","coordTimes":["2024-09-18T18:00:29Z","2024-09-18T18:01:13Z","2024-09-18T18:01:14Z","2024-09-18T18:01:16Z","2024-09-18T18:01:17Z","2024-09-18T18:01:21Z","2024-09-18T18:01:24Z","2024-09-18T18:01:32Z","2024-09-18T18:01:33Z","2024-09-18T18:01:35Z","2024-09-18T18:01:37Z","2024-09-18T18:01:38Z","2024-09-18T18:01:39Z","2024-09-18T18:01:40Z","2024-09-18T18:01:41Z","2024-09-18T18:01:42Z","2024-09-18T18:01:43Z","2024-09-18T18:01:44Z","2024-09-18T18:01:46Z","2024-09-18T18:01:47Z","2024-09-18T18:01:49Z","2024-09-18T18:01:52Z","2024-09-18T18:01:53Z","2024-09-18T18:01:54Z","2024-09-18T18:01:57Z","2024-09-18T18:01:58Z","2024-09-18T18:01:59Z","2024-09-18T18:02:00Z","2024-09-18T18:02:04Z","2024-09-18T18:02:06Z","2024-09-18T18:02:07Z","2024-09-18T18:02:09Z","2024-09-18T18:02:10Z","2024-09-18T18:02:11Z","2024-09-18T18:02:13Z","2024-09-18T18:02:14Z","2024-09-18T18:02:15Z","2024-09-18T18:02:16Z","2024-09-18T18:02:18Z","2024-09-18T18:02:20Z","2024-09-18T18:02:21Z","2024-09-18T18:02:23Z","2024-09-18T18:02:25Z","2024-09-18T18:02:26Z","2024-09-18T18:02:28Z","2024-09-18T18:02:29Z","2024-09-18T18:02:30Z","2024-09-18T18:02:31Z","2024-09-18T18:02:33Z","2024-09-18T18:02:34Z","2024-09-18T18:02:35Z","2024-09-18T18:02:36Z","2024-09-18T18:02:37Z","2024-09-18T18:02:38Z","2024-09-18T18:02:39Z","2024-09-18T18:02:40Z","2024-09-18T18:02:46Z","2024-09-18T18:02:48Z","2024-09-18T18:02:51Z","2024-09-18T18:02:53Z","2024-09-18T18:02:57Z","2024-09-18T18:02:58Z","2024-09-18T18:03:00Z","2024-09-18T18:03:01Z","2024-09-18T18:03:03Z","2024-09-18T18:03:04Z","2024-09-18T18:03:06Z","2024-09-18T18:03:08Z","2024-09-18T18:03:11Z","2024-09-18T18:03:12Z","2024-09-18T18:03:13Z","2024-09-18T18:03:14Z","2024-09-18T18:03:15Z","2024-09-18T18:03:16Z","2024-09-18T18:03:17Z","2024-09-18T18:03:18Z","2024-09-18T18:03:19Z","2024-09-18T18:03:24Z","2024-09-18T18:03:26Z","2024-09-18T18:03:28Z","2024-09-18T18:03:29Z","2024-09-18T18:03:30Z","2024-09-18T18:03:34Z","2024-09-18T18:03:35Z","2024-09-18T18:03:37Z","2024-09-18T18:03:38Z","2024-09-18T18:03:42Z","2024-09-18T18:03:43Z","2024-09-18T18:03:44Z","2024-09-18T18:03:45Z","2024-09-18T18:03:46Z","2024-09-18T18:03:47Z","2024-09-18T18:03:48Z","2024-09-18T18:03:50Z","2024-09-18T18:03:51Z","2024-09-18T18:03:53Z","2024-09-18T18:03:54Z","2024-09-18T18:03:55Z","2024-09-18T18:03:56Z","2024-09-18T18:03:57Z","2024-09-18T18:03:59Z","2024-09-18T18:04:00Z","2024-09-18T18:04:01Z","2024-09-18T18:04:02Z","2024-09-18T18:04:03Z","2024-09-18T18:04:04Z","2024-09-18T18:04:06Z","2024-09-18T18:04:07Z","2024-09-18T18:04:08Z","2024-09-18T18:04:09Z","2024-09-18T18:04:11Z","2024-09-18T18:04:12Z","2024-09-18T18:04:14Z","2024-09-18T18:04:15Z","2024-09-18T18:04:17Z","2024-09-18T18:04:18Z","2024-09-18T18:04:20Z","2024-09-18T18:04:21Z","2024-09-18T18:04:22Z","2024-09-18T18:04:23Z","2024-09-18T18:04:24Z","2024-09-18T18:04:26Z","2024-09-18T18:04:27Z","2024-09-18T18:04:30Z","2024-09-18T18:04:31Z","2024-09-18T18:04:33Z","2024-09-18T18:04:34Z","2024-09-18T18:04:35Z","2024-09-18T18:04:36Z","2024-09-18T18:04:37Z","2024-09-18T18:04:38Z","2024-09-18T18:04:40Z","2024-09-18T18:04:41Z","2024-09-18T18:04:44Z","2024-09-18T18:04:45Z","2024-09-18T18:04:46Z","2024-09-18T18:04:49Z","2024-09-18T18:04:50Z","2024-09-18T18:04:52Z","2024-09-18T18:04:56Z","2024-09-18T18:04:57Z","2024-09-18T18:04:58Z","2024-09-18T18:04:59Z","2024-09-18T18:05:00Z","2024-09-18T18:05:01Z","2024-09-18T18:05:02Z","2024-09-18T18:05:04Z","2024-09-18T18:05:08Z","2024-09-18T18:05:09Z","2024-09-18T18:05:10Z","2024-09-18T18:05:11Z","2024-09-18T18:05:12Z","2024-09-18T18:05:15Z","2024-09-18T18:05:16Z","2024-09-18T18:05:17Z","2024-09-18T18:05:19Z","2024-09-18T18:05:21Z","2024-09-18T18:05:23Z","2024-09-18T18:05:26Z","2024-09-18T18:05:27Z","2024-09-18T18:05:28Z","2024-09-18T18:05:29Z","2024-09-18T18:05:30Z","2024-09-18T18:05:31Z","2024-09-18T18:05:33Z","2024-09-18T18:05:35Z","2024-09-18T18:05:37Z","2024-09-18T18:05:38Z","2024-09-18T18:05:41Z","2024-09-18T18:05:42Z","2024-09-18T18:05:44Z","2024-09-18T18:05:45Z","2024-09-18T18:05:46Z","2024-09-18T18:05:48Z","2024-09-18T18:05:49Z","2024-09-18T18:05:51Z","2024-09-18T18:05:53Z","2024-09-18T18:05:54Z","2024-09-18T18:05:56Z","2024-09-18T18:05:57Z","2024-09-18T18:06:00Z","2024-09-18T18:06:01Z","2024-09-18T18:06:02Z","2024-09-18T18:06:04Z","2024-09-18T18:06:05Z","2024-09-18T18:06:06Z","2024-09-18T18:06:08Z","2024-09-18T18:06:13Z","2024-09-18T18:06:14Z","2024-09-18T18:06:15Z","2024-09-18T18:06:16Z","2024-09-18T18:06:18Z","2024-09-18T18:06:22Z","2024-09-18T18:06:25Z","2024-09-18T18:06:28Z","2024-09-18T18:06:31Z","2024-09-18T18:06:33Z","2024-09-18T18:06:34Z","2024-09-18T18:06:35Z","2024-09-18T18:06:36Z","2024-09-18T18:06:38Z","2024-09-18T18:06:39Z","2024-09-18T18:06:40Z","2024-09-18T18:06:42Z","2024-09-18T18:06:43Z","2024-09-18T18:06:44Z","2024-09-18T18:06:46Z","2024-09-18T18:06:47Z","2024-09-18T18:06:49Z","2024-09-18T18:06:52Z","2024-09-18T18:06:53Z","2024-09-18T18:06:55Z","2024-09-18T18:06:57Z","2024-09-18T18:07:00Z","2024-09-18T18:07:01Z","2024-09-18T18:07:02Z","2024-09-18T18:07:03Z","2024-09-18T18:07:05Z","2024-09-18T18:07:07Z","2024-09-18T18:07:09Z","2024-09-18T18:07:11Z","2024-09-18T18:07:12Z","2024-09-18T18:07:13Z","2024-09-18T18:07:14Z","2024-09-18T18:07:15Z","2024-09-18T18:07:16Z","2024-09-18T18:07:19Z","2024-09-18T18:07:21Z","2024-09-18T18:07:24Z","2024-09-18T18:07:25Z","2024-09-18T18:07:26Z","2024-09-18T18:07:31Z","2024-09-18T18:07:34Z","2024-09-18T18:07:35Z","2024-09-18T18:07:36Z","2024-09-18T18:07:38Z","2024-09-18T18:07:40Z","2024-09-18T18:07:41Z","2024-09-18T18:07:42Z","2024-09-18T18:07:43Z","2024-09-18T18:07:44Z","2024-09-18T18:07:46Z","2024-09-18T18:07:48Z","2024-09-18T18:07:51Z","2024-09-18T18:07:53Z","2024-09-18T18:07:54Z","2024-09-18T18:07:56Z","2024-09-18T18:08:00Z","2024-09-18T18:08:02Z","2024-09-18T18:08:05Z","2024-09-18T18:08:06Z","2024-09-18T18:08:07Z","2024-09-18T18:08:08Z","2024-09-18T18:08:09Z","2024-09-18T18:08:10Z","2024-09-18T18:08:13Z","2024-09-18T18:08:14Z","2024-09-18T18:08:15Z","2024-09-18T18:08:16Z","2024-09-18T18:08:17Z","2024-09-18T18:08:18Z","2024-09-18T18:08:19Z","2024-09-18T18:08:22Z","2024-09-18T18:08:23Z","2024-09-18T18:08:25Z","2024-09-18T18:08:27Z","2024-09-18T18:08:28Z","2024-09-18T18:08:31Z","2024-09-18T18:08:32Z","2024-09-18T18:08:33Z","2024-09-18T18:08:35Z","2024-09-18T18:08:36Z","2024-09-18T18:08:38Z","2024-09-18T18:08:40Z","2024-09-18T18:08:42Z","2024-09-18T18:08:44Z","2024-09-18T18:08:46Z","2024-09-18T18:08:47Z","2024-09-18T18:08:48Z","2024-09-18T18:08:49Z","2024-09-18T18:08:50Z","2024-09-18T18:08:52Z","2024-09-18T18:08:53Z","2024-09-18T18:08:56Z","2024-09-18T18:08:57Z","2024-09-18T18:08:58Z","2024-09-18T18:09:01Z","2024-09-18T18:09:03Z","2024-09-18T18:09:04Z","2024-09-18T18:09:08Z","2024-09-18T18:09:09Z","2024-09-18T18:09:12Z","2024-09-18T18:09:16Z","2024-09-18T18:09:17Z","2024-09-18T18:09:19Z","2024-09-18T18:09:24Z","2024-09-18T18:09:25Z","2024-09-18T18:09:28Z","2024-09-18T18:09:30Z","2024-09-18T18:09:32Z","2024-09-18T18:09:34Z","2024-09-18T18:09:37Z","2024-09-18T18:09:38Z","2024-09-18T18:09:40Z","2024-09-18T18:09:41Z","2024-09-18T18:09:42Z","2024-09-18T18:09:44Z","2024-09-18T18:09:45Z","2024-09-18T18:09:47Z","2024-09-18T18:09:49Z","2024-09-18T18:09:51Z","2024-09-18T18:09:52Z","2024-09-18T18:09:54Z","2024-09-18T18:09:55Z","2024-09-18T18:09:57Z","2024-09-18T18:10:00Z","2024-09-18T18:10:01Z","2024-09-18T18:10:02Z","2024-09-18T18:10:03Z","2024-09-18T18:10:05Z","2024-09-18T18:10:06Z","2024-09-18T18:10:07Z","2024-09-18T18:10:08Z","2024-09-18T18:10:10Z","2024-09-18T18:10:11Z","2024-09-18T18:10:13Z","2024-09-18T18:10:14Z","2024-09-18T18:10:16Z","2024-09-18T18:10:17Z","2024-09-18T18:10:20Z","2024-09-18T18:10:25Z","2024-09-18T18:10:26Z","2024-09-18T18:10:28Z","2024-09-18T18:10:29Z","2024-09-18T18:10:31Z","2024-09-18T18:10:32Z","2024-09-18T18:10:35Z","2024-09-18T18:10:37Z","2024-09-18T18:10:38Z","2024-09-18T18:10:41Z","2024-09-18T18:10:42Z","2024-09-18T18:10:43Z","2024-09-18T18:10:45Z","2024-09-18T18:10:46Z","2024-09-18T18:10:47Z","2024-09-18T18:10:49Z","2024-09-18T18:10:50Z","2024-09-18T18:10:53Z","2024-09-18T18:10:54Z","2024-09-18T18:10:56Z","2024-09-18T18:10:59Z","2024-09-18T18:11:02Z","2024-09-18T18:11:04Z","2024-09-18T18:11:07Z","2024-09-18T18:11:08Z","2024-09-18T18:11:09Z","2024-09-18T18:11:13Z","2024-09-18T18:11:16Z","2024-09-18T18:11:18Z","2024-09-18T18:11:19Z","2024-09-18T18:11:25Z","2024-09-18T18:11:27Z","2024-09-18T18:11:30Z","2024-09-18T18:11:32Z","2024-09-18T18:11:35Z","2024-09-18T18:11:37Z","2024-09-18T18:11:39Z","2024-09-18T18:11:42Z","2024-09-18T18:11:43Z","2024-09-18T18:11:44Z","2024-09-18T18:11:45Z","2024-09-18T18:11:46Z","2024-09-18T18:11:48Z","2024-09-18T18:11:52Z","2024-09-18T18:11:53Z","2024-09-18T18:11:56Z","2024-09-18T18:11:58Z","2024-09-18T18:12:02Z","2024-09-18T18:12:05Z","2024-09-18T18:12:08Z","2024-09-18T18:12:10Z","2024-09-18T18:12:11Z","2024-09-18T18:12:13Z","2024-09-18T18:12:16Z","2024-09-18T18:12:17Z","2024-09-18T18:12:18Z","2024-09-18T18:12:19Z","2024-09-18T18:12:21Z","2024-09-18T18:12:24Z","2024-09-18T18:12:32Z","2024-09-18T18:12:35Z","2024-09-18T18:12:36Z","2024-09-18T18:12:38Z","2024-09-18T18:12:39Z","2024-09-18T18:12:40Z","2024-09-18T18:12:41Z","2024-09-18T18:12:42Z","2024-09-18T18:12:43Z","2024-09-18T18:12:44Z","2024-09-18T18:12:46Z","2024-09-18T18:12:47Z","2024-09-18T18:12:49Z","2024-09-18T18:12:50Z","2024-09-18T18:12:53Z","2024-09-18T18:12:55Z","2024-09-18T18:12:59Z","2024-09-18T18:13:04Z","2024-09-18T18:13:06Z","2024-09-18T18:13:09Z","2024-09-18T18:13:10Z","2024-09-18T18:13:14Z","2024-09-18T18:13:18Z","2024-09-18T18:13:20Z","2024-09-18T18:13:24Z","2024-09-18T18:13:28Z","2024-09-18T18:13:29Z","2024-09-18T18:13:34Z","2024-09-18T18:13:35Z","2024-09-18T18:13:36Z","2024-09-18T18:13:38Z","2024-09-18T18:13:39Z","2024-09-18T18:13:41Z","2024-09-18T18:13:42Z","2024-09-18T18:13:49Z","2024-09-18T18:13:50Z","2024-09-18T18:13:51Z","2024-09-18T18:13:52Z","2024-09-18T18:13:53Z","2024-09-18T18:13:55Z","2024-09-18T18:13:57Z","2024-09-18T18:13:58Z","2024-09-18T18:14:00Z","2024-09-18T18:14:02Z","2024-09-18T18:14:04Z","2024-09-18T18:14:07Z","2024-09-18T18:14:09Z","2024-09-18T18:14:11Z","2024-09-18T18:14:13Z","2024-09-18T18:14:16Z","2024-09-18T18:14:17Z","2024-09-18T18:14:19Z","2024-09-18T18:14:21Z","2024-09-18T18:14:22Z","2024-09-18T18:14:27Z","2024-09-18T18:14:28Z","2024-09-18T18:14:30Z","2024-09-18T18:14:32Z","2024-09-18T18:14:36Z","2024-09-18T18:14:39Z","2024-09-18T18:14:41Z","2024-09-18T18:14:43Z","2024-09-18T18:14:48Z","2024-09-18T18:14:50Z","2024-09-18T18:14:51Z","2024-09-18T18:14:52Z","2024-09-18T18:14:55Z","2024-09-18T18:14:57Z","2024-09-18T18:14:58Z","2024-09-18T18:14:59Z","2024-09-18T18:15:00Z","2024-09-18T18:15:01Z","2024-09-18T18:15:02Z","2024-09-18T18:15:07Z","2024-09-18T18:15:09Z","2024-09-18T18:15:13Z","2024-09-18T18:15:17Z","2024-09-18T18:15:18Z","2024-09-18T18:15:23Z","2024-09-18T18:15:32Z","2024-09-18T18:15:33Z","2024-09-18T18:15:35Z","2024-09-18T18:15:37Z","2024-09-18T18:15:38Z","2024-09-18T18:15:40Z","2024-09-18T18:15:43Z","2024-09-18T18:15:44Z","2024-09-18T18:15:47Z","2024-09-18T18:15:49Z","2024-09-18T18:15:52Z","2024-09-18T18:15:54Z","2024-09-18T18:15:56Z","2024-09-18T18:15:57Z","2024-09-18T18:15:59Z","2024-09-18T18:16:00Z","2024-09-18T18:16:03Z","2024-09-18T18:16:04Z","2024-09-18T18:16:06Z","2024-09-18T18:16:08Z","2024-09-18T18:16:10Z","2024-09-18T18:16:14Z","2024-09-18T18:16:17Z","2024-09-18T18:16:18Z","2024-09-18T18:16:19Z","2024-09-18T18:16:21Z","2024-09-18T18:16:24Z","2024-09-18T18:16:25Z","2024-09-18T18:16:28Z","2024-09-18T18:16:34Z","2024-09-18T18:16:36Z","2024-09-18T18:16:37Z","2024-09-18T18:16:38Z","2024-09-18T18:16:39Z","2024-09-18T18:16:41Z","2024-09-18T18:16:42Z","2024-09-18T18:16:44Z","2024-09-18T18:16:46Z","2024-09-18T18:16:48Z","2024-09-18T18:16:50Z","2024-09-18T18:16:51Z","2024-09-18T18:16:53Z","2024-09-18T18:16:54Z","2024-09-18T18:16:57Z","2024-09-18T18:16:58Z","2024-09-18T18:16:59Z","2024-09-18T18:17:01Z","2024-09-18T18:17:03Z","2024-09-18T18:17:06Z","2024-09-18T18:17:07Z","2024-09-18T18:17:08Z","2024-09-18T18:17:09Z","2024-09-18T18:17:11Z","2024-09-18T18:17:12Z","2024-09-18T18:17:14Z","2024-09-18T18:17:15Z","2024-09-18T18:17:17Z","2024-09-18T18:17:18Z","2024-09-18T18:17:22Z","2024-09-18T18:17:24Z","2024-09-18T18:17:26Z","2024-09-18T18:17:29Z","2024-09-18T18:17:31Z","2024-09-18T18:17:40Z","2024-09-18T18:17:41Z","2024-09-18T18:17:43Z","2024-09-18T18:17:45Z","2024-09-18T18:17:48Z","2024-09-18T18:17:56Z","2024-09-18T18:17:58Z","2024-09-18T18:18:00Z","2024-09-18T18:18:01Z","2024-09-18T18:18:02Z","2024-09-18T18:18:04Z","2024-09-18T18:18:08Z","2024-09-18T18:18:09Z","2024-09-18T18:18:10Z","2024-09-18T18:18:12Z","2024-09-18T18:18:15Z","2024-09-18T18:18:16Z","2024-09-18T18:18:17Z","2024-09-18T18:18:18Z","2024-09-18T18:18:21Z","2024-09-18T18:18:22Z","2024-09-18T18:18:24Z","2024-09-18T18:18:27Z","2024-09-18T18:18:29Z","2024-09-18T18:18:32Z","2024-09-18T18:18:33Z","2024-09-18T18:18:34Z","2024-09-18T18:18:41Z","2024-09-18T18:18:43Z","2024-09-18T18:18:44Z","2024-09-18T18:18:47Z","2024-09-18T18:18:49Z","2024-09-18T18:18:55Z","2024-09-18T18:18:56Z","2024-09-18T18:18:57Z","2024-09-18T18:19:01Z","2024-09-18T18:19:02Z","2024-09-18T18:19:03Z","2024-09-18T18:19:05Z","2024-09-18T18:19:06Z","2024-09-18T18:19:08Z","2024-09-18T18:19:11Z","2024-09-18T18:19:17Z","2024-09-18T18:19:19Z","2024-09-18T18:19:21Z","2024-09-18T18:19:22Z","2024-09-18T18:19:25Z","2024-09-18T18:19:27Z","2024-09-18T18:19:32Z","2024-09-18T18:19:33Z","2024-09-18T18:19:36Z","2024-09-18T18:19:39Z","2024-09-18T18:19:41Z","2024-09-18T18:19:43Z","2024-09-18T18:19:46Z","2024-09-18T18:19:48Z","2024-09-18T18:19:50Z","2024-09-18T18:19:54Z","2024-09-18T18:19:55Z","2024-09-18T18:19:56Z","2024-09-18T18:19:57Z","2024-09-18T18:20:01Z","2024-09-18T18:20:03Z","2024-09-18T18:20:04Z","2024-09-18T18:20:09Z","2024-09-18T18:20:11Z","2024-09-18T18:20:13Z","2024-09-18T18:20:14Z","2024-09-18T18:20:16Z","2024-09-18T18:20:22Z","2024-09-18T18:20:24Z","2024-09-18T18:20:25Z","2024-09-18T18:20:26Z","2024-09-18T18:20:29Z","2024-09-18T18:20:31Z","2024-09-18T18:20:32Z","2024-09-18T18:20:35Z","2024-09-18T18:20:37Z","2024-09-18T18:20:39Z","2024-09-18T18:20:40Z","2024-09-18T18:20:44Z","2024-09-18T18:20:46Z","2024-09-18T18:20:47Z","2024-09-18T18:20:50Z","2024-09-18T18:20:51Z","2024-09-18T18:20:55Z","2024-09-18T18:20:59Z","2024-09-18T18:21:01Z","2024-09-18T18:21:07Z","2024-09-18T18:21:10Z","2024-09-18T18:21:13Z","2024-09-18T18:21:27Z","2024-09-18T18:21:28Z","2024-09-18T18:21:30Z","2024-09-18T18:21:34Z","2024-09-18T18:21:36Z","2024-09-18T18:21:38Z","2024-09-18T18:21:39Z","2024-09-18T18:21:44Z","2024-09-18T18:21:48Z","2024-09-18T18:21:49Z","2024-09-18T18:21:51Z","2024-09-18T18:21:53Z","2024-09-18T18:21:56Z","2024-09-18T18:21:59Z","2024-09-18T18:22:02Z","2024-09-18T18:22:03Z","2024-09-18T18:22:10Z","2024-09-18T18:22:13Z","2024-09-18T18:22:15Z","2024-09-18T18:22:16Z","2024-09-18T18:22:20Z","2024-09-18T18:22:24Z","2024-09-18T18:22:26Z","2024-09-18T18:22:31Z","2024-09-18T18:22:32Z","2024-09-18T18:22:33Z","2024-09-18T18:22:34Z","2024-09-18T18:22:35Z","2024-09-18T18:22:37Z","2024-09-18T18:22:38Z","2024-09-18T18:22:40Z","2024-09-18T18:22:41Z","2024-09-18T18:22:43Z","2024-09-18T18:22:45Z","2024-09-18T18:22:47Z","2024-09-18T18:22:48Z","2024-09-18T18:22:52Z","2024-09-18T18:22:55Z","2024-09-18T18:22:57Z","2024-09-18T18:23:03Z","2024-09-18T18:23:16Z","2024-09-18T18:23:20Z","2024-09-18T18:23:23Z","2024-09-18T18:23:25Z","2024-09-18T18:23:29Z","2024-09-18T18:23:30Z","2024-09-18T18:23:34Z","2024-09-18T18:23:38Z","2024-09-18T18:23:39Z","2024-09-18T18:23:44Z","2024-09-18T18:23:46Z","2024-09-18T18:23:48Z","2024-09-18T18:23:53Z","2024-09-18T18:23:54Z","2024-09-18T18:23:56Z","2024-09-18T18:23:57Z","2024-09-18T18:23:58Z","2024-09-18T18:24:00Z","2024-09-18T18:24:01Z","2024-09-18T18:24:03Z","2024-09-18T18:24:04Z","2024-09-18T18:24:07Z","2024-09-18T18:24:09Z","2024-09-18T18:24:10Z","2024-09-18T18:24:11Z","2024-09-18T18:24:12Z","2024-09-18T18:24:14Z","2024-09-18T18:24:17Z","2024-09-18T18:24:18Z","2024-09-18T18:24:19Z","2024-09-18T18:24:20Z","2024-09-18T18:24:21Z","2024-09-18T18:24:23Z","2024-09-18T18:24:24Z","2024-09-18T18:24:25Z","2024-09-18T18:24:26Z","2024-09-18T18:24:27Z","2024-09-18T18:24:29Z","2024-09-18T18:24:31Z","2024-09-18T18:24:35Z","2024-09-18T18:24:38Z","2024-09-18T18:24:39Z","2024-09-18T18:24:42Z","2024-09-18T18:24:43Z","2024-09-18T18:24:45Z","2024-09-18T18:24:46Z","2024-09-18T18:24:47Z","2024-09-18T18:24:48Z","2024-09-18T18:24:49Z","2024-09-18T18:24:51Z","2024-09-18T18:24:53Z","2024-09-18T18:24:55Z","2024-09-18T18:24:59Z","2024-09-18T18:25:00Z","2024-09-18T18:25:01Z","2024-09-18T18:25:06Z","2024-09-18T18:25:09Z","2024-09-18T18:25:10Z","2024-09-18T18:25:13Z","2024-09-18T18:25:14Z","2024-09-18T18:25:16Z","2024-09-18T18:25:19Z","2024-09-18T18:25:23Z","2024-09-18T18:25:26Z","2024-09-18T18:25:29Z","2024-09-18T18:25:33Z","2024-09-18T18:25:35Z","2024-09-18T18:25:37Z","2024-09-18T18:25:41Z","2024-09-18T18:25:43Z","2024-09-18T18:25:46Z","2024-09-18T18:25:47Z","2024-09-18T18:25:48Z","2024-09-18T18:25:51Z","2024-09-18T18:25:53Z","2024-09-18T18:25:54Z","2024-09-18T18:25:55Z","2024-09-18T18:25:56Z","2024-09-18T18:25:57Z","2024-09-18T18:25:59Z","2024-09-18T18:26:00Z","2024-09-18T18:26:01Z","2024-09-18T18:26:02Z","2024-09-18T18:26:04Z","2024-09-18T18:26:07Z","2024-09-18T18:26:08Z","2024-09-18T18:26:10Z","2024-09-18T18:26:12Z","2024-09-18T18:26:13Z","2024-09-18T18:26:14Z","2024-09-18T18:26:15Z","2024-09-18T18:26:16Z","2024-09-18T18:26:17Z","2024-09-18T18:26:18Z","2024-09-18T18:26:19Z","2024-09-18T18:26:21Z","2024-09-18T18:26:24Z","2024-09-18T18:26:28Z","2024-09-18T18:26:29Z","2024-09-18T18:26:30Z","2024-09-18T18:26:31Z","2024-09-18T18:26:33Z","2024-09-18T18:26:34Z","2024-09-18T18:26:39Z","2024-09-18T18:26:42Z","2024-09-18T18:26:43Z","2024-09-18T18:26:46Z","2024-09-18T18:26:47Z","2024-09-18T18:26:48Z","2024-09-18T18:26:53Z","2024-09-18T18:26:57Z","2024-09-18T18:26:58Z","2024-09-18T18:26:59Z","2024-09-18T18:27:00Z","2024-09-18T18:27:02Z","2024-09-18T18:27:05Z","2024-09-18T18:27:07Z","2024-09-18T18:27:10Z","2024-09-18T18:27:11Z","2024-09-18T18:27:17Z","2024-09-18T18:27:19Z","2024-09-18T18:27:20Z","2024-09-18T18:27:21Z","2024-09-18T18:27:22Z","2024-09-18T18:27:26Z","2024-09-18T18:27:27Z","2024-09-18T18:27:31Z","2024-09-18T18:27:32Z","2024-09-18T18:27:33Z","2024-09-18T18:27:35Z","2024-09-18T18:27:37Z","2024-09-18T18:27:41Z","2024-09-18T18:27:46Z","2024-09-18T18:27:49Z","2024-09-18T18:27:53Z","2024-09-18T18:27:54Z","2024-09-18T18:27:55Z","2024-09-18T18:27:58Z","2024-09-18T18:28:00Z","2024-09-18T18:28:04Z","2024-09-18T18:28:06Z","2024-09-18T18:28:07Z","2024-09-18T18:28:15Z","2024-09-18T18:28:20Z","2024-09-18T18:28:21Z","2024-09-18T18:28:22Z","2024-09-18T18:28:24Z","2024-09-18T18:28:25Z","2024-09-18T18:28:29Z","2024-09-18T18:28:31Z","2024-09-18T18:28:32Z","2024-09-18T18:28:36Z","2024-09-18T18:28:38Z","2024-09-18T18:28:40Z","2024-09-18T18:28:41Z","2024-09-18T18:28:43Z","2024-09-18T18:28:44Z","2024-09-18T18:28:45Z","2024-09-18T18:28:47Z","2024-09-18T18:28:48Z","2024-09-18T18:28:51Z","2024-09-18T18:28:52Z","2024-09-18T18:28:53Z","2024-09-18T18:28:54Z","2024-09-18T18:28:55Z","2024-09-18T18:28:57Z","2024-09-18T18:28:59Z","2024-09-18T18:29:02Z","2024-09-18T18:29:07Z","2024-09-18T18:29:10Z","2024-09-18T18:29:13Z","2024-09-18T18:29:14Z","2024-09-18T18:29:17Z","2024-09-18T18:29:18Z","2024-09-18T18:29:25Z","2024-09-18T18:29:26Z","2024-09-18T18:29:27Z","2024-09-18T18:29:28Z","2024-09-18T18:29:29Z","2024-09-18T18:29:30Z","2024-09-18T18:29:32Z","2024-09-18T18:29:33Z","2024-09-18T18:29:36Z","2024-09-18T18:29:37Z","2024-09-18T18:29:38Z","2024-09-18T18:29:39Z","2024-09-18T18:29:40Z","2024-09-18T18:29:42Z","2024-09-18T18:29:43Z","2024-09-18T18:29:46Z","2024-09-18T18:29:47Z","2024-09-18T18:29:51Z","2024-09-18T18:29:52Z","2024-09-18T18:29:55Z","2024-09-18T18:29:57Z","2024-09-18T18:30:02Z","2024-09-18T18:30:08Z","2024-09-18T18:30:10Z","2024-09-18T18:30:11Z","2024-09-18T18:30:12Z","2024-09-18T18:30:13Z","2024-09-18T18:30:15Z","2024-09-18T18:30:16Z","2024-09-18T18:30:17Z","2024-09-18T18:30:19Z","2024-09-18T18:30:21Z","2024-09-18T18:30:22Z","2024-09-18T18:30:28Z","2024-09-18T18:30:30Z","2024-09-18T18:30:33Z","2024-09-18T18:30:36Z","2024-09-18T18:30:39Z","2024-09-18T18:30:41Z","2024-09-18T18:30:43Z","2024-09-18T18:30:44Z","2024-09-18T18:30:45Z","2024-09-18T18:30:47Z","2024-09-18T18:30:48Z","2024-09-18T18:30:49Z","2024-09-18T18:30:52Z","2024-09-18T18:30:53Z","2024-09-18T18:30:58Z","2024-09-18T18:31:00Z","2024-09-18T18:31:06Z","2024-09-18T18:31:13Z","2024-09-18T18:31:14Z","2024-09-18T18:31:15Z","2024-09-18T18:31:16Z","2024-09-18T18:31:17Z","2024-09-18T18:31:18Z","2024-09-18T18:31:21Z","2024-09-18T18:31:25Z","2024-09-18T18:31:26Z","2024-09-18T18:31:27Z","2024-09-18T18:31:28Z","2024-09-18T18:31:30Z","2024-09-18T18:31:33Z","2024-09-18T18:31:35Z","2024-09-18T18:31:36Z","2024-09-18T18:31:37Z","2024-09-18T18:31:40Z","2024-09-18T18:31:41Z","2024-09-18T18:31:42Z","2024-09-18T18:31:43Z","2024-09-18T18:31:44Z","2024-09-18T18:31:47Z","2024-09-18T18:31:48Z","2024-09-18T18:31:49Z","2024-09-18T18:31:50Z","2024-09-18T18:31:52Z","2024-09-18T18:31:58Z","2024-09-18T18:31:59Z","2024-09-18T18:32:01Z","2024-09-18T18:32:03Z","2024-09-18T18:32:06Z","2024-09-18T18:32:07Z","2024-09-18T18:32:08Z","2024-09-18T18:32:12Z","2024-09-18T18:32:14Z","2024-09-18T18:32:15Z","2024-09-18T18:32:16Z","2024-09-18T18:32:17Z","2024-09-18T18:32:18Z","2024-09-18T18:32:19Z","2024-09-18T18:32:20Z","2024-09-18T18:32:22Z","2024-09-18T18:32:23Z","2024-09-18T18:32:27Z","2024-09-18T18:32:28Z","2024-09-18T18:32:29Z","2024-09-18T18:32:32Z","2024-09-18T18:32:33Z","2024-09-18T18:32:35Z","2024-09-18T18:32:36Z","2024-09-18T18:32:37Z","2024-09-18T18:32:38Z","2024-09-18T18:32:39Z","2024-09-18T18:32:40Z","2024-09-18T18:32:43Z","2024-09-18T18:32:48Z","2024-09-18T18:32:52Z","2024-09-18T18:32:53Z","2024-09-18T18:32:54Z","2024-09-18T18:32:56Z","2024-09-18T18:33:00Z","2024-09-18T18:33:01Z","2024-09-18T18:33:03Z","2024-09-18T18:33:04Z","2024-09-18T18:33:05Z","2024-09-18T18:33:06Z","2024-09-18T18:33:09Z","2024-09-18T18:33:15Z","2024-09-18T18:33:16Z","2024-09-18T18:33:17Z","2024-09-18T18:33:19Z","2024-09-18T18:33:22Z","2024-09-18T18:33:24Z","2024-09-18T18:33:25Z","2024-09-18T18:33:28Z","2024-09-18T18:33:29Z","2024-09-18T18:33:30Z","2024-09-18T18:33:32Z","2024-09-18T18:33:34Z","2024-09-18T18:33:37Z","2024-09-18T18:33:40Z","2024-09-18T18:33:44Z","2024-09-18T18:33:45Z","2024-09-18T18:33:47Z","2024-09-18T18:33:49Z","2024-09-18T18:33:51Z","2024-09-18T18:33:52Z","2024-09-18T18:33:53Z","2024-09-18T18:33:55Z","2024-09-18T18:33:57Z","2024-09-18T18:34:02Z","2024-09-18T18:34:05Z","2024-09-18T18:34:06Z","2024-09-18T18:34:08Z","2024-09-18T18:34:09Z","2024-09-18T18:34:10Z","2024-09-18T18:34:11Z","2024-09-18T18:34:12Z","2024-09-18T18:34:14Z","2024-09-18T18:34:15Z","2024-09-18T18:34:16Z","2024-09-18T18:34:17Z","2024-09-18T18:34:18Z","2024-09-18T18:34:20Z","2024-09-18T18:34:25Z","2024-09-18T18:34:30Z","2024-09-18T18:34:31Z","2024-09-18T18:34:32Z","2024-09-18T18:34:33Z","2024-09-18T18:34:34Z","2024-09-18T18:34:35Z","2024-09-18T18:34:37Z","2024-09-18T18:34:38Z","2024-09-18T18:34:41Z","2024-09-18T18:34:42Z","2024-09-18T18:34:43Z","2024-09-18T18:34:44Z","2024-09-18T18:34:45Z","2024-09-18T18:34:46Z","2024-09-18T18:34:51Z","2024-09-18T18:34:52Z","2024-09-18T18:34:58Z","2024-09-18T18:35:04Z","2024-09-18T18:35:06Z","2024-09-18T18:35:08Z","2024-09-18T18:35:10Z","2024-09-18T18:35:15Z","2024-09-18T18:35:17Z","2024-09-18T18:35:18Z","2024-09-18T18:35:21Z","2024-09-18T18:35:22Z","2024-09-18T18:35:29Z","2024-09-18T18:35:31Z","2024-09-18T18:35:32Z","2024-09-18T18:35:34Z","2024-09-18T18:35:35Z","2024-09-18T18:35:37Z","2024-09-18T18:35:39Z","2024-09-18T18:35:41Z","2024-09-18T18:35:47Z","2024-09-18T18:35:54Z","2024-09-18T18:35:56Z","2024-09-18T18:35:58Z","2024-09-18T18:35:59Z","2024-09-18T18:36:01Z","2024-09-18T18:36:03Z","2024-09-18T18:36:05Z","2024-09-18T18:36:06Z","2024-09-18T18:36:08Z","2024-09-18T18:36:10Z","2024-09-18T18:36:12Z","2024-09-18T18:36:15Z","2024-09-18T18:36:17Z","2024-09-18T18:36:18Z","2024-09-18T18:36:19Z","2024-09-18T18:36:24Z","2024-09-18T18:36:27Z","2024-09-18T18:36:28Z","2024-09-18T18:36:29Z","2024-09-18T18:36:30Z","2024-09-18T18:36:34Z","2024-09-18T18:36:35Z","2024-09-18T18:36:36Z","2024-09-18T18:36:37Z","2024-09-18T18:36:40Z","2024-09-18T18:36:41Z","2024-09-18T18:36:43Z","2024-09-18T18:36:44Z","2024-09-18T18:36:45Z","2024-09-18T18:36:46Z","2024-09-18T18:36:48Z","2024-09-18T18:36:49Z","2024-09-18T18:36:50Z","2024-09-18T18:36:51Z","2024-09-18T18:36:53Z","2024-09-18T18:36:55Z","2024-09-18T18:36:57Z","2024-09-18T18:37:06Z","2024-09-18T18:37:07Z","2024-09-18T18:37:09Z","2024-09-18T18:37:11Z","2024-09-18T18:37:15Z","2024-09-18T18:37:21Z","2024-09-18T18:37:22Z","2024-09-18T18:37:24Z","2024-09-18T18:37:25Z","2024-09-18T18:37:29Z","2024-09-18T18:37:30Z","2024-09-18T18:37:31Z","2024-09-18T18:37:32Z","2024-09-18T18:37:34Z","2024-09-18T18:37:36Z","2024-09-18T18:37:37Z","2024-09-18T18:37:38Z","2024-09-18T18:37:41Z","2024-09-18T18:37:43Z","2024-09-18T18:37:44Z","2024-09-18T18:37:47Z","2024-09-18T18:37:49Z","2024-09-18T18:37:51Z","2024-09-18T18:37:54Z","2024-09-18T18:37:55Z","2024-09-18T18:37:59Z","2024-09-18T18:38:01Z","2024-09-18T18:38:12Z","2024-09-18T18:38:13Z","2024-09-18T18:38:14Z","2024-09-18T18:38:15Z","2024-09-18T18:38:16Z","2024-09-18T18:38:17Z","2024-09-18T18:38:19Z","2024-09-18T18:38:20Z","2024-09-18T18:38:25Z","2024-09-18T18:38:28Z","2024-09-18T18:38:30Z","2024-09-18T18:38:32Z","2024-09-18T18:38:34Z","2024-09-18T18:40:56Z","2024-09-18T18:40:59Z","2024-09-18T18:41:01Z","2024-09-18T18:41:03Z","2024-09-18T18:41:04Z","2024-09-18T18:41:06Z","2024-09-18T18:41:08Z","2024-09-18T18:41:11Z","2024-09-18T18:41:12Z","2024-09-18T18:41:28Z","2024-09-18T18:42:49Z","2024-09-18T18:43:37Z","2024-09-18T18:47:33Z","2024-09-18T18:47:42Z","2024-09-18T18:47:50Z","2024-09-18T18:49:00Z","2024-09-18T18:49:26Z","2024-09-18T18:49:30Z","2024-09-18T18:49:34Z","2024-09-18T18:49:35Z","2024-09-18T18:49:36Z","2024-09-18T18:49:40Z","2024-09-18T18:49:41Z","2024-09-18T18:49:43Z","2024-09-18T18:49:49Z","2024-09-18T18:49:51Z","2024-09-18T18:49:57Z","2024-09-18T18:49:58Z","2024-09-18T18:50:01Z","2024-09-18T18:50:07Z","2024-09-18T18:50:08Z","2024-09-18T18:50:09Z","2024-09-18T18:50:13Z","2024-09-18T18:50:16Z","2024-09-18T18:50:17Z","2024-09-18T18:50:18Z","2024-09-18T18:50:19Z","2024-09-18T18:50:20Z","2024-09-18T18:50:21Z","2024-09-18T18:50:25Z","2024-09-18T18:50:26Z","2024-09-18T18:50:27Z","2024-09-18T18:50:29Z","2024-09-18T18:50:30Z","2024-09-18T18:50:31Z","2024-09-18T18:50:32Z","2024-09-18T18:50:33Z","2024-09-18T18:50:34Z","2024-09-18T18:50:36Z","2024-09-18T18:50:37Z","2024-09-18T18:50:40Z","2024-09-18T18:50:42Z","2024-09-18T18:50:44Z","2024-09-18T18:50:45Z","2024-09-18T18:50:46Z","2024-09-18T18:50:48Z","2024-09-18T18:50:55Z","2024-09-18T18:50:57Z","2024-09-18T18:50:58Z","2024-09-18T18:50:59Z","2024-09-18T18:51:00Z","2024-09-18T18:51:07Z","2024-09-18T18:51:10Z","2024-09-18T18:51:12Z","2024-09-18T18:51:14Z","2024-09-18T18:51:16Z","2024-09-18T18:51:19Z","2024-09-18T18:51:22Z","2024-09-18T18:51:26Z","2024-09-18T18:51:29Z","2024-09-18T18:51:30Z","2024-09-18T18:51:37Z","2024-09-18T18:51:41Z","2024-09-18T18:51:42Z","2024-09-18T18:51:43Z","2024-09-18T18:51:49Z","2024-09-18T18:51:51Z","2024-09-18T18:51:52Z","2024-09-18T18:51:58Z","2024-09-18T18:52:05Z","2024-09-18T18:52:07Z","2024-09-18T18:52:10Z","2024-09-18T18:52:13Z","2024-09-18T18:52:14Z","2024-09-18T18:52:15Z","2024-09-18T18:52:16Z","2024-09-18T18:52:19Z","2024-09-18T18:52:20Z","2024-09-18T18:52:22Z","2024-09-18T18:52:24Z","2024-09-18T18:52:27Z","2024-09-18T18:52:29Z","2024-09-18T18:52:35Z","2024-09-18T18:52:38Z","2024-09-18T18:52:43Z","2024-09-18T18:52:44Z","2024-09-18T18:52:45Z","2024-09-18T18:52:47Z","2024-09-18T18:52:48Z","2024-09-18T18:52:51Z","2024-09-18T18:52:54Z","2024-09-18T18:52:56Z","2024-09-18T18:52:57Z","2024-09-18T18:53:00Z","2024-09-18T18:53:04Z","2024-09-18T18:53:05Z","2024-09-18T18:53:08Z","2024-09-18T18:53:09Z","2024-09-18T18:53:11Z","2024-09-18T18:53:12Z","2024-09-18T18:53:13Z","2024-09-18T18:53:14Z","2024-09-18T18:53:16Z","2024-09-18T18:53:17Z","2024-09-18T18:53:19Z","2024-09-18T18:53:20Z","2024-09-18T18:53:24Z","2024-09-18T18:53:27Z","2024-09-18T18:53:28Z","2024-09-18T18:53:29Z","2024-09-18T18:53:32Z","2024-09-18T18:53:34Z","2024-09-18T18:53:37Z","2024-09-18T18:53:42Z","2024-09-18T18:53:44Z","2024-09-18T18:53:46Z","2024-09-18T18:53:47Z","2024-09-18T18:53:49Z","2024-09-18T18:53:50Z","2024-09-18T18:53:51Z","2024-09-18T18:53:53Z","2024-09-18T18:53:54Z","2024-09-18T18:53:55Z","2024-09-18T18:53:56Z","2024-09-18T18:53:58Z","2024-09-18T18:53:59Z","2024-09-18T18:54:00Z","2024-09-18T18:54:04Z","2024-09-18T18:54:05Z","2024-09-18T18:54:10Z","2024-09-18T18:54:11Z","2024-09-18T18:54:14Z","2024-09-18T18:54:18Z","2024-09-18T18:54:19Z","2024-09-18T18:54:20Z","2024-09-18T18:54:22Z","2024-09-18T18:54:23Z","2024-09-18T18:54:28Z","2024-09-18T18:54:32Z","2024-09-18T18:54:33Z","2024-09-18T18:54:34Z","2024-09-18T18:54:38Z","2024-09-18T18:54:39Z","2024-09-18T18:54:43Z","2024-09-18T18:54:47Z","2024-09-18T18:54:48Z","2024-09-18T18:54:53Z","2024-09-18T18:54:54Z","2024-09-18T18:54:57Z","2024-09-18T18:55:01Z","2024-09-18T18:55:03Z","2024-09-18T18:55:04Z","2024-09-18T18:55:05Z","2024-09-18T18:55:07Z","2024-09-18T18:55:17Z","2024-09-18T18:55:18Z","2024-09-18T18:55:19Z","2024-09-18T18:55:20Z","2024-09-18T18:55:22Z","2024-09-18T18:55:23Z","2024-09-18T18:55:25Z","2024-09-18T18:55:26Z","2024-09-18T18:55:28Z","2024-09-18T18:55:29Z","2024-09-18T18:55:31Z","2024-09-18T18:55:32Z","2024-09-18T18:55:35Z","2024-09-18T18:55:36Z","2024-09-18T18:55:38Z","2024-09-18T18:55:39Z","2024-09-18T18:55:42Z","2024-09-18T18:55:49Z","2024-09-18T18:55:50Z","2024-09-18T18:55:52Z","2024-09-18T18:56:01Z","2024-09-18T18:56:02Z","2024-09-18T18:56:05Z","2024-09-18T18:56:07Z","2024-09-18T18:56:09Z","2024-09-18T18:56:12Z","2024-09-18T18:56:14Z","2024-09-18T18:56:15Z","2024-09-18T18:56:17Z","2024-09-18T18:56:19Z","2024-09-18T18:56:22Z","2024-09-18T18:56:23Z","2024-09-18T18:56:24Z","2024-09-18T18:56:26Z","2024-09-18T18:56:28Z","2024-09-18T18:56:30Z","2024-09-18T18:56:31Z","2024-09-18T18:56:34Z","2024-09-18T18:56:35Z","2024-09-18T18:56:36Z","2024-09-18T18:56:41Z","2024-09-18T18:56:45Z","2024-09-18T18:56:46Z","2024-09-18T18:56:48Z","2024-09-18T18:56:50Z","2024-09-18T18:56:52Z","2024-09-18T18:56:54Z","2024-09-18T18:56:57Z","2024-09-18T18:57:00Z","2024-09-18T18:57:01Z","2024-09-18T18:57:02Z","2024-09-18T18:57:05Z","2024-09-18T18:57:07Z","2024-09-18T18:57:08Z","2024-09-18T18:57:11Z","2024-09-18T18:57:15Z","2024-09-18T18:57:16Z","2024-09-18T18:57:17Z","2024-09-18T18:57:20Z","2024-09-18T18:57:21Z","2024-09-18T18:57:24Z","2024-09-18T18:57:28Z","2024-09-18T18:57:29Z","2024-09-18T18:57:34Z","2024-09-18T18:57:35Z","2024-09-18T18:57:40Z","2024-09-18T18:57:44Z","2024-09-18T18:57:45Z","2024-09-18T18:57:46Z","2024-09-18T18:57:48Z","2024-09-18T18:57:53Z","2024-09-18T18:57:55Z","2024-09-18T18:57:56Z","2024-09-18T18:57:58Z","2024-09-18T18:57:59Z","2024-09-18T18:58:00Z","2024-09-18T18:58:04Z","2024-09-18T18:58:07Z","2024-09-18T18:58:08Z","2024-09-18T18:58:10Z","2024-09-18T18:58:12Z","2024-09-18T18:58:15Z","2024-09-18T18:58:19Z","2024-09-18T18:58:24Z","2024-09-18T18:58:26Z","2024-09-18T18:58:27Z","2024-09-18T18:58:29Z","2024-09-18T18:58:32Z","2024-09-18T18:58:35Z","2024-09-18T18:58:37Z","2024-09-18T18:58:39Z","2024-09-18T18:58:40Z","2024-09-18T18:58:43Z","2024-09-18T18:58:44Z","2024-09-18T18:58:45Z","2024-09-18T18:58:47Z","2024-09-18T18:58:50Z","2024-09-18T18:58:56Z","2024-09-18T18:58:57Z","2024-09-18T18:58:58Z","2024-09-18T18:58:59Z","2024-09-18T18:59:00Z","2024-09-18T18:59:01Z","2024-09-18T18:59:02Z","2024-09-18T18:59:03Z","2024-09-18T18:59:04Z","2024-09-18T18:59:09Z","2024-09-18T18:59:10Z","2024-09-18T18:59:12Z","2024-09-18T18:59:13Z","2024-09-18T18:59:16Z","2024-09-18T18:59:20Z","2024-09-18T18:59:23Z","2024-09-18T18:59:25Z","2024-09-18T18:59:26Z","2024-09-18T18:59:54Z","2024-09-18T18:59:58Z","2024-09-18T19:00:10Z","2024-09-18T19:00:15Z","2024-09-18T19:00:20Z","2024-09-18T19:00:23Z","2024-09-18T19:01:22Z","2024-09-18T19:01:24Z","2024-09-18T19:01:26Z","2024-09-18T19:01:30Z","2024-09-18T19:01:34Z","2024-09-18T19:01:41Z","2024-09-18T19:01:49Z","2024-09-18T19:01:54Z","2024-09-18T19:01:55Z","2024-09-18T19:01:59Z","2024-09-18T19:02:01Z","2024-09-18T19:02:02Z","2024-09-18T19:02:06Z","2024-09-18T19:02:09Z","2024-09-18T19:02:13Z","2024-09-18T19:02:15Z","2024-09-18T19:02:20Z","2024-09-18T19:02:21Z","2024-09-18T19:02:22Z","2024-09-18T19:02:24Z","2024-09-18T19:02:31Z","2024-09-18T19:02:32Z","2024-09-18T19:02:34Z","2024-09-18T19:02:36Z","2024-09-18T19:02:37Z","2024-09-18T19:02:41Z","2024-09-18T19:02:43Z","2024-09-18T19:02:45Z","2024-09-18T19:02:46Z","2024-09-18T19:02:47Z","2024-09-18T19:02:50Z","2024-09-18T19:02:52Z","2024-09-18T19:02:54Z","2024-09-18T19:03:00Z","2024-09-18T19:03:06Z","2024-09-18T19:03:09Z","2024-09-18T19:03:12Z","2024-09-18T19:03:13Z","2024-09-18T19:03:14Z","2024-09-18T19:03:15Z","2024-09-18T19:03:16Z","2024-09-18T19:03:17Z","2024-09-18T19:03:19Z","2024-09-18T19:03:32Z","2024-09-18T19:03:33Z","2024-09-18T19:03:34Z","2024-09-18T19:03:38Z","2024-09-18T19:03:39Z","2024-09-18T19:03:40Z","2024-09-18T19:03:42Z","2024-09-18T19:03:43Z","2024-09-18T19:03:44Z","2024-09-18T19:03:45Z","2024-09-18T19:03:47Z","2024-09-18T19:03:50Z","2024-09-18T19:03:53Z","2024-09-18T19:03:54Z","2024-09-18T19:03:56Z","2024-09-18T19:03:57Z","2024-09-18T19:03:58Z","2024-09-18T19:04:00Z","2024-09-18T19:04:02Z","2024-09-18T19:04:03Z","2024-09-18T19:04:05Z","2024-09-18T19:04:10Z","2024-09-18T19:04:12Z","2024-09-18T19:04:18Z","2024-09-18T19:04:19Z","2024-09-18T19:04:23Z","2024-09-18T19:04:27Z","2024-09-18T19:04:28Z","2024-09-18T19:04:32Z","2024-09-18T19:04:35Z","2024-09-18T19:04:36Z","2024-09-18T19:04:38Z","2024-09-18T19:04:39Z","2024-09-18T19:04:40Z","2024-09-18T19:04:41Z","2024-09-18T19:04:43Z","2024-09-18T19:04:46Z","2024-09-18T19:04:48Z","2024-09-18T19:04:56Z","2024-09-18T19:05:01Z","2024-09-18T19:05:03Z","2024-09-18T19:05:05Z","2024-09-18T19:05:14Z","2024-09-18T19:05:26Z","2024-09-18T19:05:34Z","2024-09-18T19:05:35Z","2024-09-18T19:05:38Z","2024-09-18T19:05:39Z","2024-09-18T19:05:48Z","2024-09-18T19:06:07Z","2024-09-18T19:06:14Z","2024-09-18T19:06:16Z","2024-09-18T19:06:52Z","2024-09-18T19:06:55Z","2024-09-18T19:07:14Z","2024-09-18T19:08:15Z","2024-09-18T19:08:18Z","2024-09-18T19:08:19Z","2024-09-18T19:08:21Z","2024-09-18T19:08:24Z","2024-09-18T19:08:28Z","2024-09-18T19:08:30Z","2024-09-18T19:08:34Z","2024-09-18T19:08:35Z","2024-09-18T19:08:36Z","2024-09-18T19:08:37Z","2024-09-18T19:08:39Z","2024-09-18T19:08:42Z","2024-09-18T19:08:47Z","2024-09-18T19:08:48Z","2024-09-18T19:08:49Z","2024-09-18T19:08:50Z","2024-09-18T19:08:55Z","2024-09-18T19:09:00Z","2024-09-18T19:09:02Z","2024-09-18T19:09:04Z","2024-09-18T19:09:09Z","2024-09-18T19:09:10Z","2024-09-18T19:09:11Z","2024-09-18T19:09:12Z","2024-09-18T19:09:13Z","2024-09-18T19:09:14Z","2024-09-18T19:09:16Z","2024-09-18T19:09:17Z","2024-09-18T19:09:20Z","2024-09-18T19:09:21Z","2024-09-18T19:09:23Z","2024-09-18T19:09:26Z","2024-09-18T19:09:27Z","2024-09-18T19:09:31Z","2024-09-18T19:09:37Z","2024-09-18T19:09:38Z","2024-09-18T19:09:40Z","2024-09-18T19:09:41Z","2024-09-18T19:09:42Z","2024-09-18T19:09:43Z","2024-09-18T19:09:45Z","2024-09-18T19:09:46Z","2024-09-18T19:09:48Z","2024-09-18T19:10:06Z","2024-09-18T19:10:07Z","2024-09-18T19:10:09Z","2024-09-18T19:10:10Z","2024-09-18T19:10:11Z","2024-09-18T19:10:12Z","2024-09-18T19:10:13Z","2024-09-18T19:10:14Z","2024-09-18T19:10:15Z","2024-09-18T19:10:16Z","2024-09-18T19:10:19Z","2024-09-18T19:10:21Z","2024-09-18T19:10:24Z","2024-09-18T19:10:27Z","2024-09-18T19:10:34Z","2024-09-18T19:10:42Z","2024-09-18T19:10:47Z","2024-09-18T19:11:09Z","2024-09-18T19:11:14Z","2024-09-18T19:11:15Z","2024-09-18T19:11:39Z","2024-09-18T19:12:30Z","2024-09-18T19:12:33Z","2024-09-18T19:12:38Z","2024-09-18T19:12:40Z","2024-09-18T19:12:41Z","2024-09-18T19:12:42Z","2024-09-18T19:12:45Z","2024-09-18T19:12:47Z","2024-09-18T19:12:48Z","2024-09-18T19:12:51Z","2024-09-18T19:12:54Z","2024-09-18T19:12:59Z","2024-09-18T19:13:01Z","2024-09-18T19:13:04Z","2024-09-18T19:13:05Z","2024-09-18T19:13:06Z","2024-09-18T19:13:10Z","2024-09-18T19:13:14Z","2024-09-18T19:13:16Z","2024-09-18T19:13:22Z","2024-09-18T19:13:25Z","2024-09-18T19:13:26Z","2024-09-18T19:13:27Z","2024-09-18T19:13:31Z","2024-09-18T19:13:34Z","2024-09-18T19:13:37Z","2024-09-18T19:13:38Z","2024-09-18T19:13:40Z","2024-09-18T19:13:43Z","2024-09-18T19:13:44Z","2024-09-18T19:13:45Z","2024-09-18T19:13:46Z","2024-09-18T19:13:47Z","2024-09-18T19:13:48Z","2024-09-18T19:13:51Z","2024-09-18T19:13:53Z","2024-09-18T19:13:57Z","2024-09-18T19:13:58Z","2024-09-18T19:14:00Z","2024-09-18T19:14:01Z","2024-09-18T19:14:02Z","2024-09-18T19:14:05Z","2024-09-18T19:14:06Z","2024-09-18T19:14:07Z","2024-09-18T19:14:10Z","2024-09-18T19:14:13Z","2024-09-18T19:14:15Z","2024-09-18T19:14:16Z","2024-09-18T19:14:20Z","2024-09-18T19:14:24Z","2024-09-18T19:14:25Z","2024-09-18T19:14:27Z","2024-09-18T19:14:31Z","2024-09-18T19:14:34Z","2024-09-18T19:14:36Z","2024-09-18T19:14:37Z","2024-09-18T19:14:40Z","2024-09-18T19:14:42Z","2024-09-18T19:14:47Z","2024-09-18T19:14:49Z","2024-09-18T19:14:50Z","2024-09-18T19:14:51Z","2024-09-18T19:14:54Z","2024-09-18T19:14:55Z","2024-09-18T19:14:57Z","2024-09-18T19:14:58Z","2024-09-18T19:15:03Z","2024-09-18T19:15:05Z","2024-09-18T19:15:07Z","2024-09-18T19:16:50Z","2024-09-18T19:16:52Z","2024-09-18T19:16:53Z","2024-09-18T19:16:56Z","2024-09-18T19:16:58Z","2024-09-18T19:17:00Z","2024-09-18T19:17:01Z","2024-09-18T19:17:04Z","2024-09-18T19:17:06Z","2024-09-18T19:17:07Z","2024-09-18T19:17:10Z","2024-09-18T19:17:11Z","2024-09-18T19:17:12Z","2024-09-18T19:17:13Z","2024-09-18T19:17:14Z","2024-09-18T19:17:15Z","2024-09-18T19:17:17Z","2024-09-18T19:17:18Z","2024-09-18T19:17:19Z","2024-09-18T19:17:21Z","2024-09-18T19:17:26Z","2024-09-18T19:17:28Z","2024-09-18T19:17:29Z","2024-09-18T19:17:32Z","2024-09-18T19:17:34Z","2024-09-18T19:17:35Z","2024-09-18T19:17:36Z","2024-09-18T19:17:38Z","2024-09-18T19:17:39Z","2024-09-18T19:17:41Z","2024-09-18T19:17:42Z","2024-09-18T19:17:46Z","2024-09-18T19:17:48Z","2024-09-18T19:17:51Z","2024-09-18T19:17:54Z","2024-09-18T19:17:57Z","2024-09-18T19:17:59Z","2024-09-18T19:18:06Z","2024-09-18T19:18:08Z","2024-09-18T19:18:22Z","2024-09-18T19:18:24Z","2024-09-18T19:18:37Z","2024-09-18T19:18:38Z","2024-09-18T19:19:10Z","2024-09-18T19:19:55Z","2024-09-18T19:20:01Z","2024-09-18T19:20:07Z","2024-09-18T19:20:09Z","2024-09-18T19:20:15Z","2024-09-18T19:20:19Z","2024-09-18T19:20:22Z","2024-09-18T19:20:23Z","2024-09-18T19:20:25Z","2024-09-18T19:20:35Z","2024-09-18T19:20:36Z","2024-09-18T19:20:37Z","2024-09-18T19:20:38Z","2024-09-18T19:20:39Z","2024-09-18T19:20:40Z","2024-09-18T19:20:41Z","2024-09-18T19:20:43Z","2024-09-18T19:20:44Z","2024-09-18T19:20:47Z","2024-09-18T19:20:49Z","2024-09-18T19:20:51Z","2024-09-18T19:20:54Z","2024-09-18T19:20:55Z","2024-09-18T19:21:02Z","2024-09-18T19:21:04Z","2024-09-18T19:21:07Z","2024-09-18T19:21:11Z","2024-09-18T19:21:14Z","2024-09-18T19:21:15Z","2024-09-18T19:21:16Z","2024-09-18T19:21:17Z","2024-09-18T19:21:19Z","2024-09-18T19:21:20Z","2024-09-18T19:21:21Z","2024-09-18T19:21:22Z","2024-09-18T19:21:25Z","2024-09-18T19:21:28Z","2024-09-18T19:21:30Z","2024-09-18T19:21:40Z","2024-09-18T19:21:41Z","2024-09-18T19:21:42Z","2024-09-18T19:21:43Z","2024-09-18T19:21:44Z","2024-09-18T19:21:45Z","2024-09-18T19:21:50Z","2024-09-18T19:21:51Z","2024-09-18T19:21:54Z","2024-09-18T19:21:55Z","2024-09-18T19:21:58Z","2024-09-18T19:22:00Z","2024-09-18T19:22:01Z","2024-09-18T19:22:02Z","2024-09-18T19:22:05Z","2024-09-18T19:22:07Z","2024-09-18T19:22:08Z","2024-09-18T19:22:10Z","2024-09-18T19:22:11Z","2024-09-18T19:22:12Z","2024-09-18T19:22:13Z","2024-09-18T19:22:15Z","2024-09-18T19:22:21Z","2024-09-18T19:22:23Z","2024-09-18T19:22:25Z","2024-09-18T19:22:26Z","2024-09-18T19:22:27Z","2024-09-18T19:22:29Z","2024-09-18T19:22:30Z","2024-09-18T19:22:31Z","2024-09-18T19:22:32Z","2024-09-18T19:22:34Z","2024-09-18T19:22:35Z","2024-09-18T19:22:39Z","2024-09-18T19:22:41Z","2024-09-18T19:22:43Z","2024-09-18T19:22:46Z","2024-09-18T19:22:49Z","2024-09-18T19:22:50Z","2024-09-18T19:22:52Z","2024-09-18T19:22:53Z","2024-09-18T19:23:01Z","2024-09-18T19:23:02Z","2024-09-18T19:23:06Z","2024-09-18T19:23:07Z","2024-09-18T19:23:08Z","2024-09-18T19:23:10Z","2024-09-18T19:23:11Z","2024-09-18T19:23:21Z","2024-09-18T19:23:35Z","2024-09-18T19:23:37Z","2024-09-18T19:23:39Z","2024-09-18T19:23:40Z","2024-09-18T19:23:42Z","2024-09-18T19:23:46Z","2024-09-18T19:23:50Z","2024-09-18T19:23:52Z","2024-09-18T19:23:54Z","2024-09-18T19:23:55Z","2024-09-18T19:23:56Z","2024-09-18T19:23:58Z","2024-09-18T19:24:00Z","2024-09-18T19:24:03Z","2024-09-18T19:24:06Z","2024-09-18T19:24:08Z","2024-09-18T19:24:09Z","2024-09-18T19:24:10Z","2024-09-18T19:24:11Z","2024-09-18T19:24:13Z","2024-09-18T19:24:14Z","2024-09-18T19:24:19Z","2024-09-18T19:24:20Z","2024-09-18T19:24:21Z","2024-09-18T19:24:24Z","2024-09-18T19:24:25Z","2024-09-18T19:24:27Z","2024-09-18T19:24:31Z","2024-09-18T19:24:33Z","2024-09-18T19:24:38Z","2024-09-18T19:24:40Z","2024-09-18T19:24:41Z","2024-09-18T19:24:47Z","2024-09-18T19:24:48Z","2024-09-18T19:24:49Z","2024-09-18T19:24:52Z","2024-09-18T19:24:54Z","2024-09-18T19:24:56Z","2024-09-18T19:24:58Z","2024-09-18T19:25:04Z","2024-09-18T19:25:06Z","2024-09-18T19:25:07Z","2024-09-18T19:25:08Z","2024-09-18T19:25:09Z","2024-09-18T19:25:11Z","2024-09-18T19:25:14Z","2024-09-18T19:25:15Z","2024-09-18T19:25:16Z","2024-09-18T19:25:19Z","2024-09-18T19:25:20Z","2024-09-18T19:25:21Z","2024-09-18T19:25:22Z","2024-09-18T19:25:24Z","2024-09-18T19:25:25Z","2024-09-18T19:25:26Z","2024-09-18T19:25:27Z","2024-09-18T19:25:28Z","2024-09-18T19:25:29Z","2024-09-18T19:25:30Z","2024-09-18T19:25:34Z","2024-09-18T19:25:37Z","2024-09-18T19:25:38Z","2024-09-18T19:25:39Z","2024-09-18T19:25:41Z","2024-09-18T19:25:42Z","2024-09-18T19:25:45Z","2024-09-18T19:25:46Z","2024-09-18T19:25:47Z","2024-09-18T19:25:48Z","2024-09-18T19:25:49Z","2024-09-18T19:25:51Z","2024-09-18T19:25:53Z","2024-09-18T19:25:54Z","2024-09-18T19:26:01Z","2024-09-18T19:26:02Z","2024-09-18T19:26:03Z","2024-09-18T19:26:04Z","2024-09-18T19:26:05Z","2024-09-18T19:26:06Z","2024-09-18T19:26:10Z","2024-09-18T19:26:12Z","2024-09-18T19:26:13Z","2024-09-18T19:26:15Z","2024-09-18T19:26:18Z","2024-09-18T19:26:19Z","2024-09-18T19:26:22Z","2024-09-18T19:26:38Z","2024-09-18T19:26:39Z","2024-09-18T19:26:40Z","2024-09-18T19:26:42Z","2024-09-18T19:26:44Z","2024-09-18T19:26:46Z","2024-09-18T19:26:49Z","2024-09-18T19:26:50Z","2024-09-18T19:26:51Z","2024-09-18T19:26:53Z","2024-09-18T19:26:57Z","2024-09-18T19:26:59Z","2024-09-18T19:27:01Z","2024-09-18T19:27:03Z","2024-09-18T19:27:07Z","2024-09-18T19:27:10Z","2024-09-18T19:27:11Z","2024-09-18T19:27:13Z","2024-09-18T19:27:16Z","2024-09-18T19:27:17Z","2024-09-18T19:27:18Z","2024-09-18T19:27:19Z","2024-09-18T19:27:21Z","2024-09-18T19:27:25Z","2024-09-18T19:27:31Z","2024-09-18T19:27:35Z","2024-09-18T19:27:36Z","2024-09-18T19:27:39Z","2024-09-18T19:27:40Z","2024-09-18T19:27:43Z","2024-09-18T19:27:44Z","2024-09-18T19:27:45Z","2024-09-18T19:27:48Z","2024-09-18T19:27:57Z","2024-09-18T19:27:58Z","2024-09-18T19:27:59Z","2024-09-18T19:28:02Z","2024-09-18T19:28:05Z","2024-09-18T19:28:07Z","2024-09-18T19:28:12Z"],"heartRates":[98,90,90,90,90,95,95,90,90,90,90,90,90,90,90,90,90,98,98,98,103,103,103,103,105,105,105,106,106,106,106,106,106,106,107,107,107,107,110,110,114,114,114,114,114,114,114,114,114,121,121,121,121,121,122,122,124,124,124,124,122,122,122,121,121,121,119,119,119,122,122,122,124,124,124,124,124,126,126,128,128,129,129,129,129,129,134,135,135,135,135,135,135,134,134,134,134,134,134,134,134,134,134,134,134,136,137,137,137,137,137,137,142,142,142,145,146,146,146,146,146,146,146,143,143,143,143,143,143,143,142,142,142,146,147,147,147,147,147,148,148,148,148,148,148,148,148,149,149,149,149,149,149,149,149,149,149,150,150,150,150,150,150,150,150,150,147,147,147,147,146,146,146,146,146,147,147,147,147,147,147,147,147,147,147,147,144,144,144,144,144,142,140,140,142,142,142,144,144,144,144,145,145,146,146,146,146,146,146,144,144,144,143,143,143,143,143,146,146,146,147,147,147,147,147,147,146,147,147,147,146,146,146,146,146,146,146,146,148,148,148,148,149,149,149,149,150,150,150,149,149,149,149,149,149,149,148,148,148,148,148,149,149,149,149,151,151,151,151,151,150,150,150,147,147,147,147,147,145,145,145,144,144,144,144,144,142,142,142,141,141,142,142,145,145,144,144,144,141,141,141,141,141,143,143,143,142,142,141,141,141,141,139,139,139,139,140,140,140,140,140,139,139,139,139,139,139,139,139,142,144,144,144,142,142,142,142,142,142,141,141,141,140,140,140,140,140,140,133,133,131,132,132,132,132,129,129,129,130,130,129,128,128,128,128,128,124,124,124,124,124,124,124,126,126,125,125,125,122,122,122,125,125,125,125,125,125,125,125,121,121,121,121,121,121,121,121,121,119,119,119,119,119,121,121,122,120,120,119,120,120,124,124,120,119,119,119,119,119,119,119,119,119,120,120,120,120,120,119,119,119,119,118,118,119,119,119,120,121,121,121,122,122,122,122,122,122,122,122,122,122,122,122,122,121,121,121,121,119,118,118,118,119,119,119,121,121,121,121,121,121,121,121,122,122,125,124,124,122,122,122,122,122,122,122,122,122,122,122,130,130,130,130,130,130,130,127,128,128,128,128,129,128,128,128,129,129,129,129,129,124,124,124,124,126,126,126,126,126,121,120,120,120,118,118,118,118,119,119,119,117,114,114,115,116,116,116,116,115,115,115,115,115,119,118,118,118,118,118,118,118,118,117,116,116,116,117,117,117,115,115,116,116,122,122,122,120,120,120,120,120,119,119,118,118,118,118,118,118,118,117,117,117,117,117,117,117,117,117,117,117,117,121,121,121,122,122,122,124,124,124,121,121,121,121,121,121,125,125,121,121,119,119,119,119,119,120,120,120,121,121,121,122,122,122,124,124,125,125,124,120,120,119,119,119,121,118,118,117,118,118,118,125,126,126,126,126,126,125,125,125,125,124,124,124,124,125,125,125,126,126,125,122,129,128,128,128,128,122,121,121,113,113,113,113,113,113,113,113,113,113,116,116,119,119,119,119,122,122,126,126,126,130,130,130,130,130,132,132,132,132,132,139,139,140,140,140,140,140,140,140,140,140,146,148,148,148,148,148,148,144,144,144,142,142,142,139,139,139,139,137,137,135,135,135,135,132,132,132,132,132,132,132,132,132,131,131,131,131,131,131,131,131,131,131,131,131,133,133,133,141,141,141,141,140,139,139,139,139,139,139,139,138,138,138,138,138,138,138,148,148,150,150,150,150,150,146,146,146,146,146,145,145,145,146,146,146,145,145,145,145,150,150,150,147,145,145,145,145,145,145,145,145,148,148,148,148,148,141,141,141,141,141,141,141,141,142,142,142,142,153,153,153,153,150,150,150,150,150,150,150,150,150,150,150,150,150,150,150,151,151,151,154,154,154,156,156,152,152,148,148,148,148,148,148,148,148,148,148,148,148,148,145,143,143,143,141,141,141,141,141,142,142,142,149,149,149,149,149,149,149,149,147,143,143,143,143,143,143,139,139,139,139,139,139,139,139,139,139,144,144,144,146,144,144,143,143,143,143,143,143,143,143,143,143,143,140,140,140,140,149,149,149,149,157,157,157,157,159,159,158,156,156,155,155,156,156,156,156,156,155,155,155,165,165,165,167,166,166,165,165,165,165,164,164,164,169,169,169,169,169,170,170,170,170,170,165,164,163,163,163,163,163,163,163,163,163,163,166,166,165,165,162,162,162,162,162,162,162,162,162,162,162,162,162,166,166,166,166,166,161,161,159,159,159,159,159,159,158,158,158,158,153,153,152,152,148,148,148,148,147,147,148,148,148,148,148,152,152,152,153,152,152,152,152,152,152,152,152,152,152,152,153,153,153,153,153,156,156,156,158,160,160,165,165,163,163,161,161,161,161,161,161,161,161,161,163,163,163,163,163,163,159,159,159,159,159,159,158,158,154,154,154,152,152,152,152,152,154,147,147,147,141,122,124,124,124,127,127,127,127,127,128,112,111,107,109,109,106,105,105,110,110,110,115,115,115,116,116,115,115,116,118,118,118,118,118,118,118,118,118,118,118,118,118,118,118,118,118,127,127,127,127,129,129,129,129,126,126,125,126,126,125,125,128,128,128,128,128,129,128,128,128,128,128,128,128,133,135,134,134,131,131,131,131,131,131,131,131,135,135,138,138,138,138,142,141,141,141,141,144,144,144,144,144,144,144,144,144,144,144,144,142,142,142,142,142,142,144,144,144,147,147,147,147,147,144,141,141,141,141,141,141,141,141,141,141,141,141,141,142,142,142,142,142,141,141,141,142,142,145,146,146,144,144,144,144,144,144,144,144,144,146,146,146,146,146,142,138,138,138,138,138,138,140,140,140,139,139,139,139,143,143,142,138,138,138,141,141,143,143,143,147,147,147,147,147,147,147,147,147,147,147,147,147,147,147,147,141,141,141,141,141,141,140,140,142,142,143,143,143,143,142,142,142,141,141,141,139,139,137,137,137,136,136,136,133,131,130,130,130,130,130,130,130,130,130,130,139,139,139,137,137,139,139,139,143,143,143,141,141,141,142,142,142,142,142,144,144,144,144,144,144,154,154,154,159,159,159,153,153,153,146,144,143,135,131,131,119,119,119,121,115,115,118,121,121,122,122,122,120,119,119,119,119,119,119,119,126,126,130,130,130,132,132,132,132,132,127,127,127,125,126,126,126,126,126,126,126,126,134,143,143,143,146,146,146,148,148,148,148,148,153,155,155,155,155,155,157,157,157,155,153,152,151,151,151,152,152,151,148,148,148,148,148,144,144,144,144,135,132,131,130,128,131,131,131,130,130,127,119,122,122,122,122,120,120,120,120,120,121,119,119,119,119,119,119,127,127,139,139,141,141,140,139,139,139,136,136,136,136,136,136,136,136,136,136,140,140,140,142,141,141,141,141,141,141,141,137,137,141,141,141,141,141,141,141,142,142,144,144,147,147,147,140,138,136,130,130,129,121,121,121,121,128,128,128,127,127,127,127,129,132,132,135,135,135,133,132,132,133,133,133,133,133,141,143,143,142,142,142,142,142,142,142,145,146,146,146,145,145,145,145,145,145,148,148,148,148,153,155,155,155,155,154,152,152,152,151,150,150,150,150,157,157,157,159,159,160,158,134,134,134,132,132,132,132,124,122,122,125,125,125,125,125,125,134,134,134,134,144,144,145,145,145,144,144,144,144,144,144,149,153,153,157,157,155,155,148,144,144,138,138,121,115,118,118,121,120,120,118,118,118,117,117,117,117,117,117,117,120,120,120,126,126,129,129,129,129,129,126,126,126,126,126,126,128,128,128,128,135,135,132,132,133,133,133,133,133,133,135,135,131,131,131,131,129,129,126,126,126,126,126,126,129,131,131,131,131,131,131,131,131,131,131,140,140,144,144,146,146,146,146,141,141,141,141,141,141,141,141,132,132,131,133,133,131,131,131,126,126,126,126,126,127,126,126,126,126,126,126,132,135,135,135,136,136,136,137,137,140,142,142,137,137,137,137,137,137,134,134,135,135,135,135,135,139,139,139,139,137,137,137,137,137,137,137,137,138,138,141,141,141,144,144,144,142,142,142,142,142,142,142,142,143,143,143,143,143,143,150,150,150,153,154,154,151,148,148,148,148,149,150,150,150,151,151,151,157,157,157,157,155,155,155,155,155,155,155,156,156,156,156,156,150,150,149,149,149,149,142,142,142,142,136,136,136],"month":"2024-09-01"},"geometry":{"type":"LineString","coordinates":[[2.481038,48.713631,37.5],[2.481044,48.713582,37.5],[2.481061,48.713585,37.5],[2.481049,48.713606,37.5],[2.481025,48.713617,37.5],[2.481,48.713673,37.5],[2.480921,48.713673,37.5],[2.480867,48.713595,37.5],[2.480878,48.713598,37.5],[2.480868,48.713612,37.5],[2.480883,48.713662,37.5],[2.48086,48.713672,37.5],[2.480825,48.713657,37.5],[2.480805,48.713658,37.5],[2.48086,48.71367,37.5],[2.480868,48.713679,37.5],[2.480857,48.713681,37.5],[2.480879,48.713672,37.5],[2.480838,48.71367,37.5],[2.480826,48.713679,37.5],[2.480892,48.713684,37.5],[2.48092,48.713693,37.5],[2.480906,48.713682,37.5],[2.480916,48.713678,37.5],[2.480901,48.713678,37.5],[2.480904,48.713666,37.5],[2.480878,48.713669,37.5],[2.480857,48.713697,37.5],[2.480906,48.713702,37.5],[2.480874,48.71369,37.5],[2.480871,48.713695,37.5],[2.480849,48.71369,37.5],[2.48086,48.7137,37.5],[2.480887,48.7137,37.5],[2.480885,48.713682,37.5],[2.480928,48.713685,37.5],[2.48094,48.713695,37.5],[2.480921,48.713703,37.5],[2.480914,48.713721,37.5],[2.480895,48.713718,37.5],[2.480891,48.713704,37.5],[2.480932,48.713631,37.5],[2.480975,48.713616,37.5],[2.481001,48.713636,37.5],[2.480981,48.71368,37.5],[2.480947,48.713686,37.5],[2.480935,48.713695,37.5],[2.480922,48.713687,37.5],[2.480905,48.713715,37.5],[2.480887,48.713715,37.5],[2.480933,48.713709,37.5],[2.480958,48.713685,37.5],[2.480983,48.713685,37.5],[2.480944,48.713677,37.5],[2.480944,48.713663,37.5],[2.480929,48.713657,37.5],[2.480963,48.713598,37.6],[2.480951,48.713573,37.6],[2.480878,48.713622,37.6],[2.480915,48.713631,37.6],[2.480949,48.713684,37.6],[2.480953,48.713674,37.6],[2.480934,48.713685,37.6],[2.480948,48.713676,37.6],[2.480965,48.713707,37.6],[2.480965,48.713696,37.6],[2.480922,48.71368,37.6],[2.480964,48.713708,37.6],[2.480944,48.71369,37.6],[2.480927,48.71371,37.6],[2.480947,48.713721,37.6],[2.48093,48.713709,37.6],[2.480949,48.713679,37.6],[2.480983,48.713655,37.6],[2.481041,48.713632,37.6],[2.480957,48.713679,37.6],[2.480931,48.713656,37.6],[2.480919,48.713606,37.6],[2.480897,48.713665,37.6],[2.480869,48.713655,37.6],[2.480905,48.713668,37.6],[2.480874,48.713654,37.6],[2.481006,48.713679,37.6],[2.481003,48.713689,37.6],[2.480949,48.713699,37.6],[2.48093,48.713695,37.6],[2.480918,48.713724,37.6],[2.480922,48.713718,37.6],[2.480886,48.713712,37.6],[2.480876,48.713701,37.6],[2.480916,48.713693,37.6],[2.480946,48.713695,37.6],[2.480944,48.713676,37.6],[2.480899,48.713714,37.6],[2.480904,48.713706,37.6],[2.480955,48.7137,37.6],[2.480951,48.713708,37.6],[2.480928,48.713709,37.6],[2.480903,48.713698,37.6],[2.480899,48.713679,37.6],[2.480865,48.713635,37.6],[2.480874,48.713615,37.6],[2.480902,48.713628,37.6],[2.480934,48.713663,37.6],[2.480923,48.713671,37.6],[2.480916,48.713664,37.6],[2.48088,48.713672,37.6],[2.480873,48.713665,37.6],[2.480898,48.71367,37.6],[2.480915,48.713647,37.6],[2.480891,48.713663,37.6],[2.480913,48.713667,37.6],[2.48091,48.713696,37.6],[2.480873,48.713709,37.6],[2.48088,48.713708,37.6],[2.480868,48.713722,37.6],[2.48087,48.7137,37.6],[2.480861,48.713701,37.6],[2.480875,48.7137,37.6],[2.480874,48.713708,37.6],[2.480897,48.713702,37.6],[2.480884,48.713697,37.6],[2.480891,48.71371,37.6],[2.480936,48.713681,37.6],[2.480897,48.713685,37.6],[2.480906,48.713664,37.6],[2.480909,48.713669,37.6],[2.480915,48.713664,37.6],[2.480907,48.713658,37.6],[2.480912,48.713662,37.6],[2.480895,48.713667,37.6],[2.480907,48.71368,37.6],[2.480893,48.713677,37.6],[2.480923,48.713669,37.6],[2.480923,48.713683,37.6],[2.480905,48.71369,37.6],[2.48089,48.713644,37.6],[2.480879,48.713641,37.6],[2.480906,48.713709,37.6],[2.48094,48.713688,37.6],[2.480952,48.713698,37.6],[2.480936,48.713699,37.6],[2.480925,48.713684,37.6],[2.480913,48.713697,37.6],[2.480866,48.713702,37.6],[2.480882,48.713696,37.6],[2.480951,48.713702,37.6],[2.480866,48.713674,37.6],[2.480886,48.713666,37.6],[2.480896,48.713676,37.6],[2.480901,48.713672,37.6],[2.480882,48.713676,37.6],[2.480928,48.713665,37.6],[2.480894,48.713672,37.6],[2.480879,48.713668,37.6],[2.480904,48.713688,37.6],[2.480889,48.71369,37.6],[2.480893,48.713679,37.6],[2.480905,48.713701,37.6],[2.480893,48.713696,37.6],[2.480878,48.713702,37.6],[2.480894,48.713686,37.6],[2.480881,48.713691,37.6],[2.480878,48.713685,37.6],[2.480902,48.713682,37.6],[2.480857,48.713679,37.6],[2.48089,48.713696,37.6],[2.480901,48.713712,37.6],[2.480884,48.713677,37.6],[2.480908,48.713661,37.6],[2.480897,48.713663,37.6],[2.480903,48.713654,37.6],[2.48092,48.713673,37.6],[2.48093,48.713655,37.6],[2.480965,48.713663,37.6],[2.48091,48.713672,37.6],[2.480876,48.71365,37.6],[2.480881,48.713641,37.6],[2.48092,48.713661,37.6],[2.480919,48.713676,37.6],[2.480843,48.713692,37.6],[2.480816,48.71368,37.6],[2.480835,48.713666,37.6],[2.480952,48.713652,37.6],[2.48096,48.713664,37.6],[2.480947,48.713671,37.6],[2.480915,48.713661,37.6],[2.480917,48.713584,37.6],[2.480907,48.713577,37.6],[2.480891,48.71358,37.6],[2.480881,48.713564,37.6],[2.480939,48.713578,37.6],[2.480966,48.713564,37.6],[2.480897,48.713638,37.6],[2.480898,48.713684,37.6],[2.480861,48.713698,37.6],[2.480896,48.71369,37.6],[2.480909,48.713679,37.6],[2.480909,48.713691,37.6],[2.480897,48.713693,37.6],[2.480913,48.713697,37.6],[2.480899,48.713692,37.6],[2.480907,48.71369,37.6],[2.480914,48.7137,37.6],[2.480927,48.713684,37.6],[2.480925,48.713694,37.6],[2.48091,48.713695,37.6],[2.480917,48.713687,37.6],[2.480938,48.71371,37.6],[2.480891,48.71369,37.6],[2.480895,48.713699,37.6],[2.480932,48.713673,37.6],[2.48091,48.713645,37.6],[2.48089,48.713699,37.6],[2.480886,48.713693,37.6],[2.48088,48.713709,37.6],[2.480862,48.713688,37.6],[2.480899,48.713704,37.6],[2.480901,48.713677,37.6],[2.480873,48.713674,37.6],[2.48089,48.713683,37.6],[2.480883,48.71368,37.6],[2.480892,48.713676,37.6],[2.480891,48.713681,37.6],[2.480903,48.713681,37.6],[2.480875,48.713657,37.6],[2.480909,48.713651,37.6],[2.480836,48.713631,37.6],[2.480868,48.713578,37.6],[2.480846,48.713583,37.6],[2.480826,48.713606,37.6],[2.480874,48.713673,37.6],[2.480896,48.713683,37.6],[2.480906,48.713677,37.6],[2.480884,48.713689,37.6],[2.480883,48.713658,37.6],[2.480845,48.713601,37.6],[2.480864,48.713617,37.6],[2.480864,48.713632,37.6],[2.480833,48.713622,37.6],[2.48082,48.713606,37.6],[2.480845,48.713603,37.6],[2.480868,48.713571,37.6],[2.480926,48.713558,37.6],[2.480973,48.713585,37.6],[2.48098,48.713607,37.6],[2.480963,48.713641,37.6],[2.480916,48.71366,37.6],[2.480915,48.713689,37.6],[2.480959,48.713687,37.6],[2.480937,48.713685,37.6],[2.480925,48.713669,37.6],[2.480884,48.713672,37.6],[2.480857,48.713653,37.6],[2.480862,48.713671,37.6],[2.480933,48.713699,37.6],[2.480929,48.713694,37.6],[2.48094,48.713694,37.6],[2.480911,48.713683,37.6],[2.480917,48.713663,37.6],[2.480936,48.71365,37.6],[2.480946,48.713654,37.6],[2.480899,48.713701,37.6],[2.480925,48.713695,37.6],[2.480934,48.713685,37.6],[2.480897,48.713695,37.6],[2.480903,48.713689,37.6],[2.480883,48.713697,37.6],[2.4809,48.713696,37.6],[2.4809,48.71368,37.6],[2.4809,48.713685,37.6],[2.480897,48.713676,37.6],[2.48088,48.713674,37.6],[2.480883,48.713683,37.6],[2.480911,48.71368,37.6],[2.480903,48.713692,37.6],[2.480895,48.713683,37.6],[2.480861,48.713682,37.6],[2.480876,48.713701,37.6],[2.480892,48.713693,37.6],[2.480882,48.71369,37.6],[2.480913,48.713678,37.6],[2.480921,48.713688,37.6],[2.48088,48.713687,37.6],[2.480869,48.713699,37.6],[2.480839,48.713696,37.6],[2.480919,48.713681,37.6],[2.480867,48.713681,37.6],[2.480844,48.713667,37.6],[2.480871,48.713706,37.7],[2.480866,48.713692,37.6],[2.480893,48.713707,37.7],[2.480899,48.713649,37.5],[2.480884,48.713638,37.5],[2.480869,48.713601,37.4],[2.480932,48.713558,37.2],[2.480933,48.713566,37.3],[2.481025,48.713585,37.2],[2.480978,48.713627,37.4],[2.48097,48.713653,37.5],[2.48094,48.713676,37.6],[2.480894,48.713692,37.6],[2.480894,48.713698,37.6],[2.480901,48.713688,37.6],[2.480902,48.713696,37.6],[2.480901,48.713678,37.6],[2.480886,48.713662,37.6],[2.4809,48.713666,37.5],[2.480877,48.713671,37.6],[2.480893,48.713679,37.6],[2.48087,48.713704,37.7],[2.480882,48.71369,37.6],[2.480948,48.713682,37.6],[2.480943,48.713678,37.6],[2.480918,48.713712,37.7],[2.480934,48.713712,37.7],[2.480897,48.713705,37.7],[2.480905,48.713695,37.6],[2.480921,48.7137,37.6],[2.480981,48.713682,37.5],[2.480948,48.713673,37.5],[2.480951,48.713656,37.5],[2.480918,48.713672,37.5],[2.480887,48.7137,37.6],[2.480846,48.713705,37.7],[2.480875,48.713711,37.7],[2.480908,48.713698,37.6],[2.480868,48.713697,37.6],[2.480863,48.713686,37.6],[2.480885,48.713667,37.6],[2.480888,48.713684,37.6],[2.480885,48.71366,37.6],[2.48093,48.713652,37.5],[2.48095,48.71366,37.5],[2.480922,48.713679,37.6],[2.480914,48.713696,37.6],[2.480854,48.7137,37.6],[2.480934,48.713692,37.6],[2.480959,48.713679,37.6],[2.48094,48.713698,37.6],[2.480914,48.713695,37.6],[2.480921,48.713693,37.6],[2.480911,48.713674,37.5],[2.480919,48.713667,37.5],[2.480925,48.713672,37.5],[2.480884,48.713676,37.6],[2.480892,48.713683,37.6],[2.480918,48.713652,37.5],[2.480907,48.71366,37.5],[2.480878,48.713658,37.6],[2.480905,48.71367,37.5],[2.48089,48.713632,37.5],[2.480904,48.713618,37.4],[2.480969,48.713631,37.4],[2.480957,48.713623,37.4],[2.480959,48.713605,37.4],[2.481007,48.713558,37.2],[2.481018,48.713581,37.3],[2.481001,48.713592,37.3],[2.481014,48.713585,37.3],[2.48097,48.7135,37.1],[2.48097,48.713481,37.1],[2.481012,48.713464,37],[2.481017,48.713475,37],[2.481028,48.713464,37],[2.481029,48.713477,37],[2.481065,48.713482,37],[2.481033,48.713501,37],[2.481028,48.713522,37.1],[2.481013,48.713517,37.1],[2.481016,48.713495,37.1],[2.481056,48.713488,37],[2.481033,48.713494,37],[2.481026,48.713513,37.1],[2.481032,48.7135,37],[2.48099,48.713498,37.1],[2.481024,48.713517,37.1],[2.481019,48.713526,37.1],[2.481023,48.713508,37.1],[2.481021,48.713513,37.1],[2.481015,48.713496,37.1],[2.48105,48.713483,37],[2.481021,48.713495,37.1],[2.481012,48.713491,37.1],[2.481016,48.71351,37.1],[2.48101,48.713492,37.1],[2.481023,48.713493,37],[2.481016,48.713502,37.1],[2.481012,48.713496,37.1],[2.481055,48.713483,37],[2.481054,48.713472,37],[2.481077,48.71347,37],[2.481049,48.713469,37],[2.481043,48.713478,37],[2.481018,48.713475,37],[2.481003,48.713491,37.1],[2.481027,48.713494,37],[2.481024,48.713502,37],[2.481014,48.713502,37.1],[2.481031,48.713498,37],[2.481057,48.713473,37],[2.481016,48.713489,37.1],[2.481006,48.713485,37.1],[2.481029,48.713457,37],[2.481039,48.713465,37],[2.481032,48.713494,37],[2.481014,48.713496,37.1],[2.481015,48.713501,37.1],[2.481021,48.71348,37.1],[2.481009,48.713467,37],[2.481013,48.713485,37.1],[2.481038,48.713489,37],[2.481021,48.713495,37.1],[2.481052,48.713491,37],[2.481099,48.713507,37.1],[2.481114,48.713505,37],[2.481008,48.713529,37.1],[2.480997,48.713542,37.2],[2.481007,48.713558,37.2],[2.481003,48.713589,37.3],[2.480994,48.71359,37.3],[2.480995,48.71356,37.2],[2.481018,48.71355,37.2],[2.480985,48.71347,37],[2.480997,48.713474,37],[2.481021,48.713462,37],[2.481034,48.713466,37],[2.481044,48.713461,37],[2.481022,48.713493,37],[2.481009,48.713476,37],[2.481014,48.713486,37.1],[2.480996,48.71349,37.1],[2.481016,48.713488,37.1],[2.481028,48.713474,37],[2.481044,48.713484,37],[2.48103,48.713486,37],[2.481045,48.713471,37],[2.481048,48.713481,37],[2.481024,48.713479,37],[2.481041,48.713486,37],[2.481064,48.713477,37],[2.481056,48.713489,37],[2.481048,48.713488,37],[2.481027,48.713509,37.1],[2.481027,48.713528,37.1],[2.481027,48.7135,37],[2.481023,48.713511,37.1],[2.481039,48.713484,37],[2.481022,48.713478,37],[2.481022,48.713488,37],[2.481042,48.713462,37],[2.48101,48.713489,37.1],[2.481031,48.713478,37],[2.481018,48.713487,37.1],[2.481038,48.713489,37],[2.481005,48.713512,37.1],[2.481019,48.713498,37.1],[2.481052,48.713505,37],[2.481042,48.713523,37.1],[2.481026,48.713506,37.1],[2.481015,48.71351,37.1],[2.481024,48.713515,37.1],[2.480977,48.713568,37.3],[2.480948,48.71358,37.3],[2.480993,48.713515,37.1],[2.481025,48.713489,37],[2.481012,48.713479,37.1],[2.481027,48.713457,37],[2.481039,48.713492,37],[2.481058,48.713471,37],[2.481011,48.713488,37.1],[2.480959,48.713475,37],[2.480981,48.713468,37],[2.481016,48.713469,37],[2.481031,48.713481,37],[2.481039,48.713479,37],[2.481034,48.713465,37],[2.481023,48.713471,37],[2.481024,48.713489,37],[2.481018,48.713485,37.1],[2.481017,48.713502,37.1],[2.480976,48.713498,37.1],[2.480976,48.713517,37.1],[2.481005,48.713498,37.1],[2.48104,48.713526,37.1],[2.481053,48.713515,37.1],[2.481017,48.713506,37.1],[2.480995,48.713509,37.1],[2.48102,48.713503,37.1],[2.481027,48.713477,37],[2.481058,48.713465,37],[2.481038,48.713474,37],[2.481054,48.713472,37],[2.481048,48.713486,37],[2.481035,48.713481,37],[2.48104,48.713471,37],[2.48104,48.713498,37],[2.481051,48.713484,37],[2.481046,48.713495,37],[2.481021,48.713485,37.1],[2.481041,48.713487,37],[2.481033,48.713488,37],[2.481029,48.713474,37],[2.481051,48.713467,37],[2.481044,48.713492,37],[2.481052,48.713495,37],[2.48106,48.713486,37],[2.481052,48.713498,37],[2.481058,48.713483,37],[2.481048,48.713493,37],[2.481051,48.713476,37],[2.481025,48.713494,37],[2.480999,48.713494,37.1],[2.481003,48.71349,37.1],[2.481004,48.713509,37.1],[2.48102,48.713504,37.1],[2.481003,48.7135,37.1],[2.481013,48.713498,37.1],[2.481019,48.713478,37.1],[2.481032,48.71348,37],[2.481014,48.713505,37.1],[2.481007,48.713501,37.1],[2.481023,48.7135,37],[2.481048,48.713482,37],[2.481035,48.713483,37],[2.481044,48.713472,37],[2.481031,48.713507,37.1],[2.481041,48.713497,37],[2.481012,48.713503,37.1],[2.481024,48.713497,37],[2.481015,48.713508,37.1],[2.481022,48.713498,37],[2.48102,48.713504,37.1],[2.481002,48.713491,37.1],[2.481003,48.713478,37.1],[2.481017,48.713476,37],[2.481024,48.713466,37],[2.481039,48.713465,37],[2.481034,48.713474,37],[2.481053,48.713472,37],[2.481041,48.71346,37],[2.481026,48.713475,37],[2.481069,48.713469,37],[2.481042,48.713481,37],[2.48103,48.713498,37],[2.481035,48.713492,37],[2.480996,48.713492,37.1],[2.481028,48.713487,37],[2.481037,48.713492,37],[2.481029,48.713489,37],[2.481031,48.713498,37],[2.481045,48.713489,37],[2.481039,48.713472,37],[2.481027,48.713474,37],[2.48105,48.713459,37],[2.481031,48.713494,37],[2.481037,48.713486,37],[2.481038,48.713491,37],[2.48105,48.713475,37],[2.481061,48.713479,37],[2.481055,48.713476,37],[2.481084,48.713452,37],[2.481045,48.713467,37],[2.481027,48.7135,37],[2.481062,48.713514,37.1],[2.481055,48.71352,37.1],[2.481041,48.713474,37],[2.48104,48.713479,37],[2.48104,48.713473,37],[2.481028,48.713485,37],[2.481018,48.713481,37.1],[2.481045,48.713489,37],[2.481032,48.713494,37],[2.481027,48.713481,37],[2.481016,48.713484,37.1],[2.481028,48.713485,37],[2.481015,48.713491,37.1],[2.481038,48.713476,37],[2.481026,48.713477,37],[2.481083,48.713451,37],[2.48108,48.713445,36.9],[2.481034,48.713457,37],[2.481035,48.713445,36.9],[2.481026,48.713452,37],[2.481036,48.713477,37],[2.480997,48.713488,37.1],[2.481003,48.713494,37.1],[2.481016,48.713487,37.1],[2.481013,48.713461,37],[2.481039,48.713474,37],[2.481032,48.713481,37],[2.481019,48.713476,37],[2.481005,48.713495,37.1],[2.481032,48.713445,36.9],[2.481019,48.713449,37],[2.481021,48.713481,37.1],[2.481034,48.713465,37],[2.481023,48.713471,37],[2.481042,48.713456,37],[2.481019,48.713467,37],[2.481039,48.713484,37],[2.480995,48.713486,37.1],[2.480981,48.713473,37],[2.480999,48.713462,37],[2.481012,48.713436,36.9],[2.481055,48.71344,36.9],[2.481054,48.713457,37],[2.481025,48.713495,37],[2.481027,48.713513,37.1],[2.481066,48.713538,37.1],[2.48105,48.713535,37.2],[2.481069,48.713489,37],[2.481048,48.713477,37],[2.481067,48.713477,37],[2.481031,48.713497,37],[2.481024,48.71351,37.1],[2.48105,48.713467,37],[2.481029,48.713474,37],[2.481031,48.713486,37],[2.481066,48.713452,37],[2.481051,48.713474,37],[2.481045,48.713468,37],[2.481034,48.713483,37],[2.481036,48.713474,37],[2.481026,48.713475,37],[2.481028,48.713489,37],[2.481058,48.713478,37],[2.481024,48.71348,37],[2.481026,48.71349,37],[2.481047,48.71347,37],[2.481045,48.71349,37],[2.481075,48.713494,37],[2.481087,48.713481,37],[2.48103,48.713465,37],[2.481047,48.71347,37],[2.481058,48.713453,37],[2.481043,48.713487,37],[2.48107,48.713466,37],[2.481041,48.713525,37.1],[2.480979,48.713585,37.3],[2.48102,48.71355,37.2],[2.481013,48.713532,37.1],[2.480964,48.7135,37.1],[2.480951,48.713452,37],[2.480967,48.713421,37],[2.480997,48.713473,37],[2.481018,48.713475,37],[2.481027,48.713487,37],[2.481019,48.713479,37.1],[2.480995,48.713488,37.1],[2.480983,48.713484,37.1],[2.480998,48.713483,37.1],[2.480981,48.713481,37.1],[2.480989,48.713477,37],[2.48098,48.713483,37.1],[2.481049,48.713481,37],[2.481005,48.713472,37],[2.481003,48.713465,37],[2.481067,48.713523,37.1],[2.481084,48.7135,37],[2.481121,48.713493,37],[2.481133,48.713501,37],[2.481049,48.713506,37.1],[2.480993,48.713479,37.1],[2.480971,48.713446,37],[2.480956,48.713443,37],[2.480984,48.713468,37],[2.48098,48.713485,37.1],[2.481033,48.713509,37.1],[2.481014,48.713563,37.3],[2.481005,48.713552,37.2],[2.480909,48.713541,37.2],[2.480885,48.713513,37.2],[2.4809,48.713475,37],[2.480954,48.713448,37],[2.480981,48.713459,37],[2.480993,48.713478,37.1],[2.481001,48.713473,37],[2.480967,48.713465,37],[2.481007,48.713465,37],[2.480997,48.713474,37],[2.481008,48.713478,37.1],[2.480974,48.713497,37.1],[2.481097,48.713501,37],[2.481037,48.713479,37],[2.481009,48.713478,37.1],[2.481017,48.713465,37],[2.481045,48.713458,37],[2.481024,48.713472,37],[2.481027,48.713484,37],[2.481035,48.713481,37],[2.481016,48.713488,37.1],[2.481009,48.713477,37],[2.481017,48.713461,37],[2.480979,48.713485,37.1],[2.481033,48.713483,37],[2.481038,48.713493,37],[2.481016,48.713469,37],[2.480991,48.713461,37],[2.481007,48.713462,37],[2.480973,48.713463,37],[2.48101,48.71345,37],[2.480993,48.713474,37],[2.481013,48.713473,37],[2.480995,48.713474,37],[2.481003,48.713467,37],[2.481005,48.713488,37.1],[2.481016,48.713476,37],[2.480989,48.713472,37],[2.480967,48.713481,37.1],[2.480949,48.713515,37.1],[2.480954,48.713548,37.2],[2.480944,48.713531,37.1],[2.48097,48.713527,37.1],[2.480923,48.713579,37.3],[2.48091,48.713582,37.3],[2.48093,48.713563,37.3],[2.480997,48.713536,37.2],[2.480993,48.713529,37.1],[2.48098,48.71353,37.1],[2.480991,48.713554,37.2],[2.480985,48.713571,37.3],[2.480958,48.713581,37.3],[2.480958,48.713592,37.4],[2.480955,48.713579,37.3],[2.48097,48.713568,37.3],[2.48095,48.713528,37.1],[2.480969,48.713473,37],[2.480964,48.713438,37],[2.480994,48.713444,36.9],[2.480997,48.713469,37],[2.481011,48.713474,37],[2.48104,48.713462,37],[2.481048,48.713482,37],[2.481008,48.713483,37.1],[2.48102,48.713468,37],[2.481035,48.713466,37],[2.481028,48.713469,37],[2.481031,48.713462,37],[2.48105,48.713463,37],[2.481038,48.713463,37],[2.481064,48.713412,36.9],[2.481126,48.713379,36.8],[2.481186,48.713393,36.8],[2.481193,48.713434,36.9],[2.481059,48.713442,36.9],[2.481073,48.713449,37],[2.481058,48.713449,37],[2.481058,48.713462,37],[2.48104,48.713452,37],[2.481009,48.713456,37],[2.481006,48.713463,37],[2.481039,48.71345,37],[2.481045,48.713436,36.9],[2.481018,48.71345,37],[2.481053,48.713473,37],[2.481047,48.713477,37],[2.481006,48.713461,37],[2.480967,48.713475,37],[2.480917,48.713476,37],[2.480922,48.713483,37.1],[2.48092,48.713475,37],[2.480934,48.713466,37],[2.480928,48.713472,37],[2.480942,48.713471,37],[2.480938,48.713465,37],[2.481,48.713469,37],[2.481005,48.713475,37],[2.481052,48.713475,37],[2.481058,48.713469,37],[2.481048,48.713466,37],[2.48104,48.713484,37],[2.480963,48.71348,37.1],[2.480956,48.713487,37.1],[2.480963,48.713478,37.1],[2.480992,48.71349,37.1],[2.481026,48.71349,37],[2.48101,48.713527,37.1],[2.481031,48.713557,37.2],[2.481,48.713588,37.3],[2.481017,48.713592,37.3],[2.480957,48.713498,37.1],[2.480891,48.713478,37.1],[2.480907,48.713484,37.1],[2.480927,48.713471,37],[2.48095,48.713472,37],[2.480965,48.713461,37],[2.48098,48.713467,37],[2.48099,48.713421,36.9],[2.481031,48.713378,36.8],[2.481088,48.713379,36.8],[2.481189,48.713295,36.7],[2.480969,48.713398,36.9],[2.481042,48.713461,37],[2.481046,48.713482,37],[2.48105,48.713454,37],[2.480951,48.713472,37],[2.480983,48.713471,37],[2.480983,48.713492,37.1],[2.481002,48.713479,37.1],[2.480945,48.713485,37.1],[2.480894,48.71346,37],[2.48094,48.713449,37],[2.480958,48.713453,37],[2.480966,48.713468,37],[2.480903,48.7135,37.1],[2.480869,48.713547,37.3],[2.480817,48.713589,37.4],[2.481078,48.713475,37],[2.481035,48.713471,37],[2.480948,48.713487,37.1],[2.480989,48.713487,37.1],[2.481011,48.713475,37],[2.481005,48.71352,37.1],[2.480985,48.713546,37.2],[2.480994,48.713511,37.1],[2.481002,48.713513,37.1],[2.481011,48.713479,37.1],[2.481032,48.713459,37],[2.481069,48.71347,37],[2.481041,48.713474,37],[2.481045,48.713486,37],[2.481028,48.713489,37],[2.481049,48.713505,37],[2.481104,48.7135,37],[2.481176,48.71352,37],[2.481242,48.713552,37.1],[2.480965,48.713444,37],[2.481003,48.713463,37],[2.480992,48.713481,37.1],[2.481018,48.713436,36.9],[2.480959,48.713406,36.9],[2.480962,48.713435,37],[2.480982,48.713454,37],[2.480987,48.71348,37.1],[2.480972,48.713479,37.1],[2.481008,48.713459,37],[2.481011,48.713446,36.9],[2.480946,48.713436,37],[2.480897,48.713402,36.9],[2.480891,48.713383,36.9],[2.480952,48.713413,36.9],[2.480948,48.713437,37],[2.480972,48.713437,37],[2.480959,48.713444,37],[2.480979,48.713449,37],[2.480951,48.713467,37],[2.480922,48.713448,37],[2.480947,48.713448,37],[2.481031,48.713484,37],[2.481061,48.713486,37],[2.480932,48.713455,37],[2.480947,48.71345,37],[2.480888,48.713423,37],[2.480889,48.71343,37],[2.48097,48.713441,37],[2.480996,48.713433,36.9],[2.481087,48.713441,36.9],[2.481019,48.713487,37.1],[2.481025,48.713477,37],[2.481036,48.713485,37],[2.481044,48.713482,37],[2.481031,48.713479,37],[2.481041,48.713419,36.9],[2.481101,48.713339,36.8],[2.481019,48.713466,37],[2.481039,48.713485,37],[2.481013,48.713469,37],[2.48102,48.713471,37],[2.481014,48.713568,37.3],[2.481033,48.71359,37.2],[2.480942,48.713581,37.3],[2.480912,48.713557,37.2],[2.480893,48.713506,37.2],[2.480905,48.713468,37],[2.480946,48.713442,37],[2.480952,48.71343,37],[2.480974,48.713429,37],[2.480964,48.713449,37],[2.480984,48.713454,37],[2.480973,48.713453,37],[2.481002,48.71346,37],[2.481002,48.713468,37],[2.481064,48.713471,37],[2.48106,48.713461,37],[2.481054,48.713481,37],[2.480987,48.713495,37.1],[2.480989,48.713505,37.1],[2.48097,48.713525,37.1],[2.480938,48.713533,37.1],[2.480946,48.713544,37.2],[2.480964,48.713547,37.2],[2.48097,48.71358,37.3],[2.480969,48.713521,37.1],[2.480955,48.713525,37.1],[2.480942,48.713518,37.1],[2.480967,48.713514,37.1],[2.480985,48.713495,37.1],[2.480975,48.713461,37],[2.48098,48.71347,37],[2.480974,48.713462,37],[2.480988,48.713465,37],[2.480859,48.713406,36.9],[2.480785,48.713342,36.9],[2.480725,48.713315,36.8],[2.480711,48.713246,36.7],[2.480643,48.71316,36.7],[2.480972,48.713463,37],[2.480924,48.713474,37],[2.480946,48.713478,37.1],[2.480977,48.713467,37],[2.48101,48.713482,37.1],[2.48102,48.713576,37.3],[2.481003,48.713555,37.2],[2.481005,48.713492,37.1],[2.480987,48.713473,37],[2.480969,48.713418,36.9],[2.480981,48.713411,36.9],[2.481,48.713415,36.9],[2.481029,48.713479,37],[2.481033,48.713468,37],[2.481036,48.713474,37],[2.481043,48.713468,37],[2.481019,48.713468,37],[2.480953,48.713447,37],[2.480969,48.713493,37.1],[2.481012,48.71347,37],[2.481166,48.713438,36.9],[2.481245,48.713459,36.9],[2.481108,48.713438,36.9],[2.481093,48.713424,36.9],[2.481074,48.71342,36.9],[2.481067,48.713433,36.9],[2.481072,48.713428,36.9],[2.481082,48.713441,36.9],[2.481059,48.713449,37],[2.481049,48.713435,36.9],[2.481015,48.713433,36.9],[2.481009,48.71344,36.9],[2.481032,48.71346,37],[2.481065,48.713527,37.1],[2.480974,48.713475,37],[2.480919,48.713463,37],[2.480927,48.713457,37],[2.480918,48.713452,37],[2.480933,48.713444,37],[2.480929,48.713471,37],[2.480924,48.713466,37],[2.480948,48.713475,37],[2.480982,48.71351,37.1],[2.481032,48.713536,37.2],[2.480977,48.713566,37.3],[2.480944,48.713504,37.1],[2.481002,48.713444,36.9],[2.481031,48.713453,37],[2.481045,48.71347,37],[2.481054,48.713468,37],[2.481048,48.713495,37],[2.481033,48.713495,37],[2.481044,48.713501,37],[2.480959,48.713499,37.1],[2.480967,48.713526,37.1],[2.48095,48.713552,37.2],[2.480965,48.713518,37.1],[2.481029,48.713486,37],[2.481032,48.713527,37.1],[2.480995,48.713515,37.1],[2.48098,48.71347,37],[2.480967,48.713472,37],[2.480967,48.713454,37],[2.481004,48.713429,36.9],[2.480968,48.713458,37],[2.480935,48.713456,37],[2.480927,48.713463,37],[2.480934,48.713479,37.1],[2.48096,48.713477,37],[2.480963,48.713465,37],[2.480973,48.713479,37.1],[2.480962,48.713487,37.1],[2.480975,48.713364,36.9],[2.480979,48.713451,37],[2.480979,48.713439,36.9],[2.480999,48.71345,37],[2.481028,48.713453,37],[2.48104,48.71347,37],[2.481031,48.713475,37],[2.481029,48.713456,37],[2.481044,48.713453,37],[2.481043,48.71346,37],[2.481046,48.713448,36.9],[2.481065,48.713464,37],[2.481033,48.713487,37],[2.481024,48.713472,37],[2.481037,48.71346,37],[2.481041,48.713472,37],[2.481056,48.713475,37],[2.481032,48.713471,37],[2.480972,48.713489,37.1],[2.481008,48.713495,37.1],[2.480966,48.713492,37.1],[2.480962,48.713477,37],[2.480994,48.713483,37.1],[2.480985,48.7135,37.1],[2.480936,48.713537,37.2],[2.480907,48.713582,37.3],[2.481002,48.713599,37.3],[2.48097,48.713601,37.4],[2.480913,48.713557,37.2],[2.480902,48.713454,37],[2.480916,48.713447,37],[2.480926,48.713463,37],[2.480941,48.713466,37],[2.480925,48.713486,37.1],[2.480929,48.713479,37.1],[2.480934,48.713485,37.1],[2.480903,48.713476,37],[2.480908,48.713495,37.1],[2.481017,48.713464,37],[2.481031,48.713473,37],[2.481031,48.713464,37],[2.481019,48.713471,37],[2.481,48.713464,37],[2.481039,48.713482,37],[2.481019,48.71348,37.1],[2.48104,48.713472,37],[2.481033,48.713465,37],[2.481033,48.713493,37],[2.481018,48.713498,37.1],[2.480919,48.713483,37.1],[2.480894,48.713471,37],[2.480962,48.713477,37],[2.480923,48.713498,37.1],[2.480908,48.713489,37.1],[2.480925,48.71348,37.1],[2.480886,48.713472,37.1],[2.480917,48.713493,37.1],[2.480912,48.713501,37.1],[2.480966,48.713515,37.1],[2.48097,48.713491,37.1],[2.480986,48.713491,37.1],[2.480987,48.713481,37.1],[2.480944,48.713443,37],[2.480962,48.713463,37],[2.48098,48.713464,37],[2.480975,48.713458,37],[2.480975,48.713465,37],[2.48095,48.713388,36.9],[2.480946,48.713448,37],[2.480935,48.713444,37],[2.480956,48.713448,37],[2.480948,48.713464,37],[2.480977,48.713475,37],[2.481054,48.713474,37],[2.481004,48.713492,37.1],[2.480955,48.713498,37.1],[2.480986,48.713491,37.1],[2.481032,48.7135,37],[2.480983,48.713493,37.1],[2.480978,48.713479,37.1],[2.481009,48.713476,37],[2.480944,48.713483,37.1],[2.480856,48.713504,37.1],[2.480915,48.71354,37.2],[2.481085,48.713551,37.1],[2.481072,48.713548,37.1],[2.481048,48.713513,37.1],[2.481012,48.713496,37.1],[2.480974,48.713464,37],[2.481022,48.713471,37],[2.481023,48.713477,37],[2.481031,48.713402,36.9],[2.481073,48.713319,36.7],[2.481027,48.71352,37.1],[2.48102,48.713509,37.1],[2.481012,48.713511,37.1],[2.481013,48.713495,37.1],[2.480989,48.713466,37],[2.481015,48.713473,37],[2.481027,48.713488,37],[2.481058,48.713496,37],[2.480982,48.713475,37],[2.481044,48.713483,37],[2.481033,48.713478,37],[2.481043,48.713445,36.9],[2.481044,48.713463,37],[2.481032,48.713457,37],[2.480982,48.713467,37],[2.480945,48.713459,37],[2.480909,48.713475,37],[2.480921,48.71346,37],[2.48094,48.713486,37.1],[2.48093,48.713486,37.1],[2.480939,48.713476,37],[2.480961,48.713471,37],[2.480949,48.713468,37],[2.480976,48.713483,37.1],[2.480977,48.713496,37.1],[2.48099,48.713501,37.1],[2.481025,48.713554,37.2],[2.481052,48.713571,37.2],[2.481074,48.713566,37.2],[2.481101,48.713574,37.2],[2.481103,48.713591,37.3],[2.480925,48.713615,37.4],[2.480897,48.713626,37.5],[2.48087,48.713611,37.4],[2.480839,48.713609,37.4],[2.480826,48.713598,37.4],[2.480822,48.713576,37.4],[2.480831,48.713578,37.4],[2.480836,48.71357,37.4],[2.480836,48.713576,37.4],[2.4809,48.713566,37.3],[2.480924,48.713542,37.2],[2.4809,48.713548,37.2],[2.480889,48.713559,37.3],[2.480903,48.71355,37.2],[2.48089,48.713559,37.3],[2.480934,48.713538,37.2],[2.480898,48.713549,37.2],[2.480905,48.713553,37.2],[2.480924,48.713539,37.2],[2.480913,48.713534,37.2],[2.480915,48.71352,37.2],[2.480978,48.713536,37.2],[2.480988,48.71353,37.1],[2.481037,48.713533,37.1],[2.481121,48.713568,37.2],[2.481105,48.713583,37.2],[2.481066,48.713594,37.3],[2.481068,48.713604,37.3],[2.481053,48.7136,37.3],[2.481006,48.713543,37.2],[2.48101,48.713521,37.1],[2.480996,48.713506,37.1],[2.481008,48.713454,37],[2.481031,48.713473,37],[2.481008,48.713459,37],[2.481017,48.713442,36.9],[2.481069,48.713403,36.9],[2.481096,48.713397,36.9],[2.481059,48.713442,36.9],[2.481115,48.713406,36.9],[2.481091,48.713428,36.9],[2.48104,48.71345,37],[2.481044,48.713419,36.9],[2.48107,48.713456,37],[2.481047,48.713498,37],[2.481015,48.713514,37.1],[2.481002,48.713532,37.1],[2.481011,48.71354,37.2],[2.481004,48.713575,37.3],[2.480987,48.713596,37.3],[2.48102,48.713575,37.3],[2.481028,48.713557,37.2],[2.481028,48.713578,37.2],[2.481028,48.713564,37.2],[2.481015,48.713557,37.2],[2.480999,48.713518,37.1],[2.481058,48.713456,37],[2.481045,48.71347,37],[2.481038,48.713466,37],[2.481064,48.713467,37],[2.481044,48.713466,37],[2.48101,48.713477,37],[2.480971,48.713507,37.1],[2.480973,48.713545,37.2],[2.48095,48.713566,37.3],[2.480977,48.713572,37.3],[2.480896,48.713562,37.2],[2.480854,48.713534,37.3],[2.480907,48.713468,37],[2.480956,48.713446,37],[2.480977,48.713428,37],[2.481089,48.713241,36.7],[2.480962,48.713445,37],[2.480982,48.71345,37],[2.481009,48.713474,37],[2.481039,48.713579,37.2],[2.480998,48.713588,37.3],[2.480985,48.713567,37.3],[2.481001,48.713476,37],[2.481079,48.713413,36.9],[2.481206,48.71329,36.7],[2.481055,48.71348,37],[2.480986,48.713475,37],[2.481026,48.713484,37],[2.481052,48.713469,37],[2.481017,48.713475,37],[2.480972,48.713444,37],[2.480949,48.713446,37],[2.480919,48.713417,36.9],[2.480908,48.713436,37],[2.480853,48.713432,37],[2.480919,48.713429,37],[2.480952,48.713462,37],[2.480958,48.713451,37],[2.480939,48.713473,37],[2.480934,48.713462,37],[2.480938,48.71348,37.1],[2.481021,48.713472,37],[2.481008,48.713467,37],[2.480965,48.713482,37.1],[2.480959,48.713532,37.1],[2.480936,48.713558,37.2],[2.480937,48.713571,37.3],[2.480955,48.713505,37.1],[2.480989,48.713459,37],[2.481003,48.713459,37],[2.481012,48.713472,37],[2.481001,48.713481,37.1],[2.480958,48.713479,37.1],[2.480924,48.713462,37],[2.480934,48.713474,37],[2.480912,48.713478,37.1],[2.480947,48.71348,37.1],[2.480899,48.713492,37.1],[2.480914,48.713471,37],[2.480947,48.713463,37],[2.480911,48.713421,37],[2.480926,48.713448,37],[2.480945,48.713441,37],[2.480958,48.713444,37],[2.480972,48.713432,37],[2.480977,48.713443,37],[2.480947,48.713461,37],[2.480985,48.71344,36.9],[2.480999,48.713443,36.9],[2.480956,48.713445,37],[2.480966,48.713442,37],[2.480978,48.713451,37],[2.480979,48.713468,37],[2.48096,48.713469,37],[2.481009,48.71337,36.8],[2.481026,48.713294,36.7],[2.481009,48.713449,37],[2.480989,48.713439,36.9],[2.480953,48.713441,37],[2.480971,48.713456,37],[2.480965,48.713464,37],[2.48091,48.713476,37],[2.480872,48.713463,37.1],[2.480987,48.713417,36.9],[2.480982,48.713425,36.9],[2.481007,48.713452,37],[2.481034,48.71346,37],[2.481023,48.713454,37],[2.481009,48.713467,37],[2.481051,48.713471,37],[2.481067,48.713455,37],[2.481052,48.713412,36.9],[2.481092,48.713434,36.9],[2.481078,48.713432,36.9],[2.481087,48.713439,36.9],[2.481048,48.713474,37],[2.481054,48.713481,37],[2.480951,48.713485,37.1],[2.480942,48.713466,37],[2.480951,48.713465,37],[2.480944,48.713495,37.1],[2.480921,48.713512,37.2],[2.480987,48.7135,37.1],[2.480987,48.713494,37.1],[2.481019,48.7135,37.1],[2.481016,48.713507,37.1],[2.481019,48.713499,37.1],[2.481036,48.713498,37],[2.481022,48.713505,37],[2.481008,48.713493,37.1],[2.481018,48.713484,37.1],[2.481005,48.713484,37.1],[2.481022,48.713499,37],[2.481021,48.713492,37.1],[2.481014,48.713509,37.1],[2.480989,48.713489,37.1],[2.480981,48.713494,37.1],[2.481002,48.713486,37.1],[2.481086,48.71351,37.1],[2.481094,48.713519,37.1],[2.481034,48.713557,37.2],[2.481018,48.713552,37.2],[2.480971,48.713564,37.3],[2.480963,48.713573,37.3],[2.480985,48.713542,37.2],[2.481005,48.713484,37.1],[2.480994,48.71348,37.1],[2.480955,48.713494,37.1],[2.481005,48.713367,36.8],[2.481041,48.713307,36.7],[2.480987,48.713505,37.1],[2.481012,48.713515,37.1],[2.481006,48.713541,37.2],[2.480983,48.713492,37.1],[2.481018,48.713475,37],[2.481016,48.713465,37],[2.481004,48.713466,37],[2.481027,48.713471,37],[2.481159,48.71342,36.8],[2.481021,48.713463,37],[2.481029,48.713456,37],[2.481039,48.713459,37],[2.481008,48.713458,37],[2.48102,48.713449,37],[2.481049,48.71345,37],[2.481065,48.71342,36.9],[2.481086,48.713414,36.9],[2.48111,48.713425,36.9],[2.481028,48.71347,37],[2.480964,48.713432,37],[2.480958,48.713436,37],[2.480977,48.713446,37],[2.480971,48.713472,37],[2.480932,48.71347,37],[2.480933,48.713477,37],[2.48094,48.713451,37],[2.480957,48.713452,37],[2.480955,48.713458,37],[2.480964,48.713454,37],[2.480945,48.713461,37],[2.480941,48.713474,37],[2.480928,48.713469,37],[2.480937,48.713493,37.1],[2.480902,48.713481,37.1],[2.480921,48.713497,37.1],[2.480951,48.713482,37.1],[2.48102,48.713476,37],[2.481033,48.713481,37],[2.481064,48.713463,37],[2.481041,48.713488,37],[2.481045,48.713494,37],[2.480996,48.71349,37.1],[2.481016,48.713493,37.1],[2.481083,48.71354,37.1],[2.481007,48.713572,37.3],[2.480994,48.713569,37.3],[2.480987,48.713544,37.2],[2.480966,48.713528,37.1],[2.480951,48.713464,37],[2.480963,48.713431,37],[2.480956,48.713427,37],[2.480915,48.713447,37],[2.48091,48.713459,37],[2.480923,48.713471,37],[2.480961,48.713469,37],[2.480961,48.71332,36.8],[2.480956,48.713447,37],[2.480936,48.713415,36.9],[2.480872,48.713418,36.9],[2.480927,48.713438,37],[2.481021,48.713448,36.9],[2.480983,48.713462,37],[2.480909,48.713454,37],[2.480908,48.713466,37],[2.480865,48.713451,37.1],[2.48086,48.713409,36.9],[2.480967,48.71339,36.9],[2.480999,48.713409,36.9],[2.48097,48.713448,37],[2.480947,48.713455,37],[2.480963,48.713451,37],[2.480958,48.713477,37],[2.480954,48.71347,37],[2.480965,48.71347,37],[2.480985,48.713451,37],[2.480965,48.71348,37.1],[2.48099,48.713481,37.1],[2.480973,48.713469,37],[2.480927,48.713476,37],[2.480934,48.713495,37.1],[2.480954,48.713493,37.1],[2.480968,48.713511,37.1],[2.480953,48.713527,37.1],[2.480953,48.713542,37.2],[2.480966,48.713526,37.1],[2.480958,48.713535,37.2],[2.480946,48.713531,37.1],[2.48096,48.713534,37.2],[2.480907,48.713562,37.2],[2.480857,48.713571,37.3],[2.480924,48.713559,37.2],[2.48094,48.713573,37.3],[2.48093,48.713573,37.3],[2.480928,48.713586,37.3],[2.480934,48.713561,37.2],[2.480944,48.713597,37.4],[2.480946,48.713582,37.3],[2.480934,48.713589,37.3],[2.480922,48.713579,37.3],[2.480931,48.713593,37.4],[2.48097,48.713598,37.4],[2.481005,48.71359,37.3],[2.481056,48.713598,37.3],[2.481045,48.713604,37.3],[2.481064,48.713616,37.3],[2.481082,48.713598,37.3],[2.481043,48.713615,37.3],[2.481036,48.713603,37.3],[2.481063,48.713605,37.3],[2.481055,48.713628,37.4],[2.481035,48.713633,37.4],[2.481005,48.713676,37.5],[2.480952,48.713701,37.6],[2.480872,48.713699,37.6],[2.480851,48.713692,37.6],[2.48087,48.71367,37.6],[2.480867,48.713662,37.6],[2.48084,48.71367,37.6],[2.480853,48.713662,37.6],[2.480859,48.713684,37.6],[2.480898,48.713688,37.6],[2.480933,48.713678,37.6],[2.480921,48.71371,37.7],[2.48091,48.713714,37.7],[2.480933,48.713685,37.6],[2.480948,48.713687,37.6],[2.480946,48.713679,37.6],[2.480949,48.713684,37.6],[2.480946,48.713677,37.6],[2.480978,48.713683,37.6],[2.480961,48.713683,37.6],[2.480947,48.713698,37.6],[2.48092,48.713702,37.6],[2.480933,48.713701,37.6],[2.480932,48.713709,37.7],[2.4809,48.713708,37.7],[2.480891,48.713721,37.7],[2.480918,48.713747,37.7],[2.480929,48.713739,37.7],[2.480921,48.713722,37.7],[2.480927,48.713702,37.6],[2.480934,48.713718,37.7],[2.480803,48.713768,37.9],[2.480731,48.713833,38.1],[2.480858,48.713679,37.6],[2.480963,48.713673,37.5],[2.480968,48.713654,37.5],[2.480949,48.713624,37.4],[2.480927,48.713684,37.6],[2.480887,48.7137,37.6],[2.480818,48.713709,37.7],[2.480777,48.713725,37.8],[2.4808,48.71371,37.8],[2.480847,48.713697,37.7],[2.480871,48.713667,37.6],[2.480885,48.713667,37.6],[2.480894,48.713683,37.6],[2.480904,48.713684,37.6],[2.480896,48.713686,37.6],[2.480899,48.713703,37.6],[2.480892,48.713698,37.6],[2.480909,48.713705,37.7],[2.480894,48.7137,37.6],[2.480885,48.713717,37.7],[2.480894,48.713718,37.7],[2.48088,48.713722,37.7],[2.480887,48.713727,37.7],[2.480895,48.713715,37.7],[2.480884,48.713677,37.6],[2.480893,48.713671,37.6],[2.480977,48.713679,37.6],[2.480962,48.713673,37.5],[2.480961,48.713678,37.6],[2.480949,48.713671,37.5],[2.480938,48.713675,37.5],[2.480928,48.713664,37.5],[2.480914,48.713676,37.6],[2.480922,48.713696,37.6],[2.480911,48.713722,37.7],[2.480896,48.713732,37.7],[2.480909,48.713707,37.7],[2.480958,48.713715,37.6],[2.480959,48.713725,37.6],[2.480975,48.713725,37.6],[2.480964,48.7137,37.6],[2.480971,48.713704,37.6],[2.480952,48.713685,37.6],[2.480956,48.713677,37.6],[2.480949,48.713689,37.6],[2.480937,48.713684,37.6],[2.480939,48.713699,37.6],[2.480941,48.713689,37.6],[2.481017,48.713697,37.5],[2.481032,48.713708,37.6],[2.481005,48.713707,37.6],[2.481008,48.713715,37.6],[2.480999,48.713701,37.5],[2.480976,48.713722,37.6],[2.480926,48.713715,37.7],[2.480922,48.713705,37.7],[2.480889,48.713689,37.6],[2.48085,48.713683,37.7],[2.480856,48.713663,37.6],[2.480903,48.713664,37.5],[2.48091,48.713676,37.6],[2.480942,48.713665,37.5],[2.480966,48.713674,37.5],[2.480972,48.713666,37.5],[2.480944,48.713683,37.6],[2.480895,48.713657,37.5],[2.480879,48.713599,37.4],[2.4809,48.713583,37.3],[2.480916,48.713581,37.3],[2.480948,48.713594,37.4],[2.480942,48.713658,37.5],[2.480975,48.713697,37.6],[2.480962,48.7137,37.6],[2.480968,48.713705,37.6],[2.480931,48.713702,37.6],[2.480961,48.713691,37.6],[2.480986,48.713728,37.6],[2.480981,48.713784,37.7],[2.480969,48.713802,37.8],[2.480935,48.713776,37.8],[2.480949,48.713708,37.6],[2.480921,48.713709,37.7],[2.481023,48.713715,37.6],[2.480992,48.713719,37.6],[2.480912,48.713699,37.6],[2.480912,48.713661,37.5],[2.480898,48.713653,37.5],[2.480883,48.713612,37.4],[2.480905,48.713695,37.6],[2.480884,48.7137,37.6],[2.480897,48.713687,37.6],[2.480887,48.713687,37.6],[2.480879,48.713673,37.6],[2.480937,48.713671,37.5],[2.480915,48.713785,37.8],[2.480948,48.713694,37.6],[2.480986,48.713687,37.5],[2.480935,48.713656,37.5],[2.480952,48.713649,37.5],[2.480916,48.713689,37.6],[2.480885,48.713675,37.6],[2.480827,48.713682,37.7],[2.480739,48.713715,37.8],[2.480777,48.713719,37.8],[2.480848,48.713653,37.6],[2.480847,48.713632,37.5],[2.480835,48.713629,37.5],[2.480888,48.713655,37.6],[2.48092,48.713686,37.6],[2.480971,48.713705,37.6],[2.481015,48.713705,37.6],[2.480964,48.71373,37.6],[2.480957,48.713701,37.6],[2.480983,48.713693,37.5],[2.480963,48.713704,37.6],[2.480977,48.713677,37.6],[2.480976,48.713688,37.6],[2.481007,48.713688,37.5],[2.480948,48.713698,37.6],[2.480863,48.71369,37.6],[2.480906,48.713671,37.5],[2.480919,48.713655,37.5],[2.480896,48.713658,37.5],[2.480895,48.713653,37.5],[2.480884,48.713658,37.6],[2.480897,48.713657,37.5],[2.480901,48.713646,37.5],[2.480993,48.713624,37.4],[2.480943,48.713619,37.4],[2.480874,48.713577,37.3],[2.480876,48.713619,37.5],[2.480899,48.713639,37.5],[2.480897,48.713654,37.5],[2.480915,48.713676,37.6],[2.480909,48.713727,37.7],[2.480967,48.713686,37.6],[2.48095,48.713698,37.6],[2.480925,48.713686,37.6],[2.480868,48.713854,38],[2.480941,48.713703,37.6],[2.48092,48.713686,37.6],[2.480912,48.7137,37.6],[2.480868,48.713699,37.6],[2.480907,48.713697,37.6],[2.480887,48.713696,37.6],[2.480928,48.713688,37.6],[2.480878,48.7137,37.6],[2.480859,48.713719,37.7],[2.480866,48.713725,37.7],[2.480882,48.71371,37.7],[2.480911,48.713712,37.7],[2.480889,48.713718,37.7],[2.480933,48.713718,37.7],[2.480907,48.713702,37.6],[2.480892,48.713678,37.6],[2.480891,48.713689,37.6],[2.480877,48.713688,37.6],[2.480888,48.713683,37.6],[2.480887,48.713672,37.6],[2.480876,48.713687,37.6],[2.480884,48.71369,37.6],[2.480885,48.713674,37.6],[2.480909,48.713683,37.6],[2.480832,48.713675,37.6],[2.480818,48.713685,37.7],[2.480829,48.713674,37.6],[2.480928,48.713686,37.6],[2.480969,48.713679,37.6],[2.480976,48.713669,37.5],[2.480957,48.71368,37.6],[2.48097,48.71367,37.5],[2.480982,48.713677,37.5],[2.480972,48.713698,37.6],[2.480955,48.7137,37.6],[2.480981,48.713683,37.5],[2.480976,48.713676,37.6],[2.480865,48.713694,37.6],[2.480897,48.713683,37.6],[2.480902,48.713662,37.5],[2.480925,48.71366,37.5],[2.480845,48.713686,37.7],[2.480825,48.713706,37.7],[2.480873,48.713688,37.6],[2.480898,48.7137,37.6],[2.480958,48.713692,37.6],[2.480964,48.713679,37.6],[2.481016,48.713704,37.6],[2.480866,48.713689,37.6],[2.480876,48.713701,37.6],[2.480863,48.713711,37.7],[2.48082,48.713674,37.6],[2.480827,48.71367,37.6],[2.480817,48.713668,37.6],[2.480822,48.713673,37.6],[2.480836,48.713664,37.6],[2.48086,48.713662,37.6],[2.480865,48.713671,37.6],[2.48098,48.713685,37.5],[2.480971,48.713684,37.6],[2.481,48.713694,37.5],[2.481011,48.71368,37.5],[2.481064,48.713684,37.5],[2.481053,48.713695,37.5],[2.481009,48.713704,37.6],[2.481003,48.713698,37.5],[2.481011,48.713694,37.5],[2.481003,48.713681,37.5],[2.480943,48.713714,37.6],[2.480904,48.713714,37.7],[2.48089,48.713698,37.6],[2.480947,48.713688,37.6],[2.480932,48.713692,37.6],[2.480938,48.713702,37.6],[2.480929,48.713702,37.6],[2.480926,48.713686,37.6],[2.480946,48.713713,37.6],[2.480927,48.713704,37.7],[2.480938,48.713661,37.5],[2.480881,48.713592,37.4],[2.480885,48.713575,37.3],[2.480959,48.713582,37.3],[2.48101,48.713579,37.3],[2.481053,48.713591,37.3],[2.481036,48.713605,37.3],[2.481029,48.7136,37.3],[2.481012,48.713604,37.3],[2.481023,48.713614,37.3],[2.481022,48.713603,37.3],[2.481004,48.713597,37.3],[2.481015,48.713591,37.3],[2.480955,48.713585,37.3],[2.480949,48.713599,37.4],[2.480976,48.713599,37.4],[2.480988,48.713578,37.3],[2.480985,48.713554,37.2],[2.480955,48.713516,37.1],[2.480964,48.713479,37.1],[2.480987,48.713459,37],[2.480972,48.71346,37],[2.480977,48.713465,37],[2.481014,48.713444,36.9],[2.480991,48.713449,37],[2.480989,48.713427,36.9],[2.481033,48.713392,36.8],[2.481106,48.713383,36.8],[2.481115,48.71336,36.8],[2.481181,48.713324,36.7],[2.480969,48.713462,37],[2.480962,48.713452,37],[2.480967,48.713484,37.1],[2.480955,48.713524,37.1],[2.480969,48.713563,37.3],[2.480952,48.713593,37.4],[2.480943,48.713586,37.3],[2.480974,48.713485,37.1],[2.48096,48.713462,37],[2.480967,48.71345,37],[2.48096,48.713463,37],[2.480988,48.713456,37],[2.481018,48.713463,37],[2.481014,48.71347,37],[2.480976,48.713461,37],[2.480896,48.713458,37],[2.48083,48.713469,37.1],[2.480976,48.713472,37],[2.481006,48.713462,37],[2.481053,48.713479,37],[2.481032,48.713458,37],[2.481042,48.713478,37],[2.480991,48.713523,37.1],[2.480972,48.713525,37.1],[2.480995,48.713518,37.1],[2.480942,48.713529,37.1],[2.480919,48.713516,37.2],[2.480919,48.713525,37.2],[2.480877,48.713455,37.1],[2.480858,48.713442,37],[2.480943,48.713433,37],[2.480958,48.713422,37],[2.481006,48.713411,36.9],[2.481006,48.713405,36.9],[2.48099,48.713414,36.9],[2.480997,48.713424,36.9],[2.480943,48.713447,37],[2.480934,48.713474,37],[2.480955,48.713471,37],[2.480973,48.713455,37],[2.480978,48.713466,37],[2.480954,48.713464,37],[2.48094,48.713492,37.1],[2.481068,48.713627,37.4],[2.480991,48.713448,36.9],[2.481032,48.713445,36.9],[2.481019,48.713452,37],[2.481026,48.71344,36.9],[2.481003,48.713455,37],[2.480947,48.713463,37],[2.480922,48.713503,37.1],[2.480922,48.713523,37.2],[2.480945,48.713522,37.1],[2.480972,48.713488,37.1],[2.480965,48.713488,37.1],[2.480984,48.713518,37.1],[2.480957,48.713491,37.1],[2.480969,48.713511,37.1],[2.480961,48.713533,37.1],[2.480993,48.713569,37.3],[2.480982,48.713568,37.3],[2.480977,48.713556,37.2],[2.480958,48.713549,37.2],[2.480898,48.713451,37],[2.480906,48.713442,37],[2.480925,48.713454,37],[2.48092,48.713462,37],[2.480939,48.713449,37],[2.480984,48.713458,37],[2.48098,48.713452,37],[2.481047,48.713471,37],[2.481023,48.71349,37],[2.480968,48.713483,37.1],[2.480945,48.713471,37],[2.480963,48.713466,37],[2.481036,48.713472,37],[2.48109,48.713437,36.9],[2.481034,48.713429,36.9],[2.48099,48.713435,36.9],[2.480954,48.71345,37],[2.480955,48.713462,37],[2.480944,48.71346,37],[2.480948,48.713482,37.1],[2.480965,48.71349,37.1],[2.480966,48.713472,37],[2.480979,48.713476,37],[2.481012,48.713428,36.9],[2.48112,48.71336,36.8],[2.480999,48.713433,36.9],[2.480993,48.713413,36.9],[2.481021,48.713459,37],[2.481017,48.713471,37],[2.481037,48.713471,37],[2.481007,48.713465,37],[2.480987,48.713472,37],[2.481011,48.713459,37],[2.481027,48.71346,37],[2.48103,48.713478,37],[2.48101,48.713473,37],[2.48107,48.71346,37],[2.480989,48.713421,36.9],[2.480958,48.713428,37],[2.480944,48.713419,36.9],[2.480966,48.713481,37.1],[2.480986,48.713475,37],[2.480984,48.713461,37],[2.481007,48.713463,37],[2.480935,48.713465,37],[2.480946,48.713452,37],[2.480958,48.713462,37],[2.480946,48.713484,37.1],[2.480995,48.713492,37.1],[2.481021,48.71348,37.1],[2.481033,48.713451,37],[2.481008,48.713458,37],[2.481022,48.713474,37],[2.481051,48.713457,37],[2.481053,48.713466,37],[2.481039,48.713468,37],[2.481005,48.713494,37.1],[2.480979,48.713476,37],[2.480967,48.713487,37.1],[2.480977,48.713479,37.1],[2.481003,48.713478,37.1],[2.480991,48.713502,37.1],[2.480969,48.713498,37.1],[2.480986,48.71349,37.1],[2.480971,48.713498,37.1],[2.480978,48.713492,37.1],[2.480975,48.71351,37.1],[2.481001,48.71356,37.2],[2.480983,48.713581,37.3],[2.48096,48.713584,37.3],[2.480945,48.713557,37.2],[2.480944,48.713514,37.1],[2.480933,48.713511,37.2],[2.480929,48.713463,37],[2.480947,48.713453,37],[2.480943,48.713462,37],[2.480936,48.713456,37],[2.48095,48.713459,37],[2.480905,48.713465,37],[2.480968,48.713438,37],[2.48098,48.713441,36.9],[2.481012,48.713505,37.1],[2.481012,48.713547,37.2],[2.480975,48.713532,37.1],[2.480977,48.713509,37.1],[2.480948,48.713511,37.1],[2.481002,48.713503,37.1],[2.481036,48.713544,37.2],[2.481015,48.713509,37.1],[2.481027,48.713521,37.1],[2.481034,48.71356,37.2],[2.481053,48.713589,37.2],[2.481029,48.713591,37.3],[2.481007,48.713533,37.1],[2.481041,48.713374,36.8],[2.481062,48.713348,36.8],[2.481047,48.713396,36.9],[2.481018,48.713438,36.9],[2.481017,48.713456,37],[2.480981,48.713451,37],[2.480965,48.713542,37.2],[2.480941,48.713526,37.1],[2.480943,48.713512,37.1],[2.480935,48.713523,37.2],[2.480896,48.713474,37],[2.480943,48.713474,37],[2.480963,48.713461,37],[2.480928,48.713436,37],[2.480919,48.713469,37],[2.480933,48.713458,37],[2.480933,48.713444,37],[2.480943,48.713472,37],[2.480935,48.71348,37.1],[2.480953,48.713474,37],[2.480947,48.713486,37.1],[2.480986,48.713494,37.1],[2.480979,48.713478,37.1],[2.481023,48.713482,37],[2.481029,48.713456,37],[2.481024,48.713476,37],[2.481032,48.713478,37],[2.481023,48.713493,37],[2.48103,48.713499,37],[2.480942,48.71349,37.1],[2.480901,48.713495,37.1],[2.480908,48.71352,37.2],[2.480938,48.713513,37.1],[2.481075,48.713448,36.9],[2.48109,48.713448,36.9],[2.481079,48.713447,36.9],[2.481064,48.713482,37],[2.481072,48.713517,37.1],[2.481064,48.713544,37.2],[2.481082,48.713601,37.3]]}}]}