<?xml version="1.0" encoding="UTF-8"?>
<gpx version="1.1" creator="GPSBabel - https://www.gpsbabel.org" xmlns="http://www.topografix.com/GPX/1/1" xmlns:xsi="http://www.w3.org/2001/XMLSchema-instance" xmlns:gpxtpx="http://www.garmin.com/xmlschemas/TrackPointExtension/v1" xmlns:gpxx="http://www.garmin.com/xmlschemas/GpxExtensions/v3" xmlns:gpxpx="http://www.garmin.com/xmlschemas/PowerExtension/v1" xmlns:gpx_style="http://www.topografix.com/GPX/gpx_style/0/2">
  <metadata>
    <name>gps4cam trip started at 2019-03-02 05-19 decoded at 2019-03-10 18-48-28</name>
    <link href="http://gps4cam.com">
      <text>gps4cam</text>
    </link>
    <time>2025-09-17T13:22:58.330Z</time>
    <bounds minlat="-4.338772319" minlon="39.567348858" maxlat="-4.334643670" maxlon="39.569309377"/>
  </metadata>
  <trk>
    <name>gps4cam trip started at: 2019-03-02T04:19:23Z</name>
    <trkseg>
      <trkpt lat="-4.336856862" lon="39.568637937">
        <time>2019-03-02T10:29:32Z</time>
      </trkpt>
      <trkpt lat="-4.336666152" lon="39.568813229">
        <time>2019-03-02T10:34:39Z</time>
      </trkpt>
      <trkpt lat="-4.336793808" lon="39.568917378">
        <time>2019-03-02T10:54:37Z</time>
      </trkpt>
      <trkpt lat="-4.337481439" lon="39.569309377">
        <time>2019-03-02T10:59:33Z</time>
      </trkpt>
      <trkpt lat="-4.337469653" lon="39.569208352">
        <time>2019-03-02T11:04:23Z</time>
      </trkpt>
      <trkpt lat="-4.337466227" lon="39.569246025">
        <time>2019-03-02T11:19:23Z</time>
      </trkpt>
      <trkpt lat="-4.337281984" lon="39.569089996">
        <time>2019-03-02T11:24:27Z</time>
      </trkpt>
      <trkpt lat="-4.337356030" lon="39.569121365">
        <time>2019-03-02T11:29:23Z</time>
      </trkpt>
      <trkpt lat="-4.337277156" lon="39.569089866">
        <time>2019-03-02T11:39:23Z</time>
      </trkpt>
      <trkpt lat="-4.337018525" lon="39.569095481">
        <time>2019-03-02T11:44:26Z</time>
      </trkpt>
      <trkpt lat="-4.336944426" lon="39.568975991">
        <time>2019-03-02T11:49:23Z</time>
      </trkpt>
      <trkpt lat="-4.337827480" lon="39.567484991">
        <time>2019-03-02T11:54:25Z</time>
      </trkpt>
      <trkpt lat="-4.337788354" lon="39.567412601">
        <time>2019-03-02T11:59:23Z</time>
      </trkpt>
      <trkpt lat="-4.337685393" lon="39.567468570">
        <time>2019-03-02T12:04:28Z</time>
      </trkpt>
      <trkpt lat="-4.337656478" lon="39.567555909">
        <time>2019-03-02T12:09:26Z</time>
      </trkpt>
      <trkpt lat="-4.337755061" lon="39.567483037">
        <time>2019-03-02T12:14:26Z</time>
      </trkpt>
      <trkpt lat="-4.337889554" lon="39.567872711">
        <time>2019-03-02T12:19:29Z</time>
      </trkpt>
      <trkpt lat="-4.337758658" lon="39.567348858">
        <time>2019-03-02T12:24:25Z</time>
      </trkpt>
      <trkpt lat="-4.338083831" lon="39.568284978">
        <time>2019-03-02T12:29:31Z</time>
      </trkpt>
      <trkpt lat="-4.338533040" lon="39.568649569">
        <time>2019-03-02T12:34:43Z</time>
      </trkpt>
      <trkpt lat="-4.338163432" lon="39.568379441">
        <time>2019-03-02T12:39:36Z</time>
      </trkpt>
      <trkpt lat="-4.338102071" lon="39.568415552">
        <time>2019-03-02T12:49:23Z</time>
      </trkpt>
      <trkpt lat="-4.338117004" lon="39.568399170">
        <time>2019-03-02T12:54:42Z</time>
      </trkpt>
      <trkpt lat="-4.338132612" lon="39.568357629">
        <time>2019-03-02T12:59:46Z</time>
      </trkpt>
      <trkpt lat="-4.338104822" lon="39.568403037">
        <time>2019-03-02T13:04:31Z</time>
      </trkpt>
      <trkpt lat="-4.338471863" lon="39.568228304">
        <time>2019-03-02T13:09:34Z</time>
      </trkpt>
      <trkpt lat="-4.338122956" lon="39.568357369">
        <time>2019-03-02T13:14:23Z</time>
      </trkpt>
      <trkpt lat="-4.338196725" lon="39.568309004">
        <time>2019-03-02T13:19:51Z</time>
      </trkpt>
      <trkpt lat="-4.338772319" lon="39.568194445">
        <time>2019-03-02T13:24:37Z</time>
      </trkpt>
      <trkpt lat="-4.337987206" lon="39.568555123">
        <time>2019-03-02T13:29:25Z</time>
      </trkpt>
      <trkpt lat="-4.338278680" lon="39.568495844">
        <time>2019-03-02T13:39:24Z</time>
      </trkpt>
      <trkpt lat="-4.338216077" lon="39.568758514">
        <time>2019-03-02T13:44:25Z</time>
      </trkpt>
      <trkpt lat="-4.338033461" lon="39.568631901">
        <time>2019-03-02T13:49:31Z</time>
      </trkpt>
      <trkpt lat="-4.338044691" lon="39.568573458">
        <time>2019-03-02T13:54:24Z</time>
      </trkpt>
      <trkpt lat="-4.338207213" lon="39.568548467">
        <time>2019-03-02T13:59:25Z</time>
      </trkpt>
      <trkpt lat="-4.338136197" lon="39.568584318">
        <time>2019-03-02T14:04:25Z</time>
      </trkpt>
      <trkpt lat="-4.338201037" lon="39.568598655">
        <time>2019-03-02T14:09:25Z</time>
      </trkpt>
      <trkpt lat="-4.337909746" lon="39.568200558">
        <time>2019-03-02T14:14:28Z</time>
      </trkpt>
      <trkpt lat="-4.336475745" lon="39.567985649">
        <time>2019-03-02T14:19:26Z</time>
      </trkpt>
      <trkpt lat="-4.336483549" lon="39.567964879">
        <time>2019-03-02T14:24:25Z</time>
      </trkpt>
      <trkpt lat="-4.337126799" lon="39.569110991">
        <time>2019-03-02T14:29:26Z</time>
      </trkpt>
      <trkpt lat="-4.335633170" lon="39.569137856">
        <time>2019-03-02T14:34:25Z</time>
      </trkpt>
      <trkpt lat="-4.334643670" lon="39.569102783">
        <time>2019-03-02T14:39:25Z</time>
      </trkpt>
      <trkpt lat="-4.335794846" lon="39.569234532">
        <time>2019-03-02T14:44:26Z</time>
      </trkpt>
      <trkpt lat="-4.336956312" lon="39.568892392">
        <time>2019-03-02T14:49:24Z</time>
      </trkpt>
      <trkpt lat="-4.337968337" lon="39.568537831">
        <time>2019-03-02T14:54:24Z</time>
      </trkpt>
      <trkpt lat="-4.338023627" lon="39.568728148">
        <time>2019-03-02T14:59:22Z</time>
      </trkpt>
      <trkpt lat="-4.337906183" lon="39.568783728">
        <time>2019-03-02T15:04:24Z</time>
      </trkpt>
      <trkpt lat="-4.338095596" lon="39.568746874">
        <time>2019-03-02T15:09:24Z</time>
      </trkpt>
      <trkpt lat="-4.337998707" lon="39.568576415">
        <time>2019-03-02T15:14:24Z</time>
      </trkpt>
      <trkpt lat="-4.338196942" lon="39.568300618">
        <time>2019-03-02T15:19:23Z</time>
      </trkpt>
      <trkpt lat="-4.338423405" lon="39.568323510">
        <time>2019-03-02T15:24:27Z</time>
      </trkpt>
      <trkpt lat="-4.337605343" lon="39.568561611">
        <time>2019-03-02T15:34:28Z</time>
      </trkpt>
    </trkseg>
  </trk>
</gpx>
