{"type":"FeatureCollection","features":[{"type":"Feature","properties":{"name":"Le plein de cuillères","type":"gravel","time":"2025-07-04T05:51:42Z","coordTimes":["2025-07-04T05:51:42Z","2025-07-04T05:51:47Z","2025-07-04T05:51:56Z","2025-07-04T05:51:58Z","2025-07-04T05:52:07Z","2025-07-04T05:52:11Z","2025-07-04T05:52:12Z","2025-07-04T05:52:17Z","2025-07-04T05:52:25Z","2025-07-04T05:52:27Z","2025-07-04T05:52:32Z","2025-07-04T05:52:34Z","2025-07-04T05:52:40Z","2025-07-04T05:52:49Z","2025-07-04T05:52:52Z","2025-07-04T05:52:55Z","2025-07-04T05:52:56Z","2025-07-04T05:52:57Z","2025-07-04T05:52:58Z","2025-07-04T05:52:59Z","2025-07-04T05:53:02Z","2025-07-04T05:53:03Z","2025-07-04T05:53:11Z","2025-07-04T05:53:12Z","2025-07-04T05:53:15Z","2025-07-04T05:53:17Z","2025-07-04T05:53:27Z","2025-07-04T05:53:29Z","2025-07-04T05:53:34Z","2025-07-04T05:53:36Z","2025-07-04T05:53:40Z","2025-07-04T05:53:45Z","2025-07-04T05:53:46Z","2025-07-04T05:53:48Z","2025-07-04T05:53:54Z","2025-07-04T05:54:01Z","2025-07-04T05:54:05Z","2025-07-04T05:54:08Z","2025-07-04T05:54:09Z","2025-07-04T05:54:12Z","2025-07-04T05:54:14Z","2025-07-04T05:54:17Z","2025-07-04T05:54:18Z","2025-07-04T05:54:19Z","2025-07-04T05:54:21Z","2025-07-04T05:54:22Z","2025-07-04T05:54:23Z","2025-07-04T05:54:25Z","2025-07-04T05:54:27Z","2025-07-04T05:54:29Z","2025-07-04T05:54:41Z","2025-07-04T05:54:48Z","2025-07-04T05:54:53Z","2025-07-04T05:54:56Z","2025-07-04T05:54:59Z","2025-07-04T05:55:10Z","2025-07-04T05:55:16Z","2025-07-04T05:55:18Z","2025-07-04T05:55:29Z","2025-07-04T05:55:30Z","2025-07-04T05:55:31Z","2025-07-04T05:55:33Z","2025-07-04T05:55:34Z","2025-07-04T05:55:35Z","2025-07-04T05:55:37Z","2025-07-04T05:55:56Z","2025-07-04T05:56:00Z","2025-07-04T05:56:14Z","2025-07-04T05:56:23Z","2025-07-04T05:56:34Z","2025-07-04T05:56:43Z","2025-07-04T05:56:48Z","2025-07-04T05:56:49Z","2025-07-04T05:56:51Z","2025-07-04T05:56:52Z","2025-07-04T05:56:54Z","2025-07-04T05:56:59Z","2025-07-04T05:57:01Z","2025-07-04T05:57:05Z","2025-07-04T05:57:08Z","2025-07-04T05:57:09Z","2025-07-04T05:57:10Z","2025-07-04T05:57:13Z","2025-07-04T05:57:17Z","2025-07-04T05:57:33Z","2025-07-04T05:57:36Z","2025-07-04T05:57:39Z","2025-07-04T05:57:46Z","2025-07-04T05:57:50Z","2025-07-04T05:57:58Z","2025-07-04T05:58:00Z","2025-07-04T05:58:04Z","2025-07-04T05:58:05Z","2025-07-04T05:58:06Z","2025-07-04T05:58:07Z","2025-07-04T05:58:08Z","2025-07-04T05:58:09Z","2025-07-04T05:58:12Z","2025-07-04T05:58:18Z","2025-07-04T05:58:21Z","2025-07-04T05:58:23Z","2025-07-04T05:58:25Z","2025-07-04T05:58:33Z","2025-07-04T05:58:35Z","2025-07-04T05:58:37Z","2025-07-04T05:58:40Z","2025-07-04T05:58:41Z","2025-07-04T05:58:44Z","2025-07-04T05:59:01Z","2025-07-04T05:59:04Z","2025-07-04T05:59:06Z","2025-07-04T05:59:15Z","2025-07-04T05:59:17Z","2025-07-04T05:59:19Z","2025-07-04T05:59:29Z","2025-07-04T05:59:33Z","2025-07-04T05:59:36Z","2025-07-04T05:59:45Z","2025-07-04T05:59:47Z","2025-07-04T05:59:57Z","2025-07-04T06:00:02Z","2025-07-04T06:00:05Z","2025-07-04T06:00:17Z","2025-07-04T06:00:22Z","2025-07-04T06:00:24Z","2025-07-04T06:00:48Z","2025-07-04T06:00:58Z","2025-07-04T06:00:59Z","2025-07-04T06:01:10Z","2025-07-04T06:01:13Z","2025-07-04T06:01:19Z","2025-07-04T06:01:33Z","2025-07-04T06:01:34Z","2025-07-04T06:01:39Z","2025-07-04T06:01:43Z","2025-07-04T06:01:51Z","2025-07-04T06:01:55Z","2025-07-04T06:02:05Z","2025-07-04T06:02:07Z","2025-07-04T06:02:14Z","2025-07-04T06:02:17Z","2025-07-04T06:02:19Z","2025-07-04T06:02:38Z","2025-07-04T06:02:42Z","2025-07-04T06:02:45Z","2025-07-04T06:02:54Z","2025-07-04T06:02:55Z","2025-07-04T06:02:56Z","2025-07-04T06:02:57Z","2025-07-04T06:02:58Z","2025-07-04T06:02:59Z","2025-07-04T06:03:01Z","2025-07-04T06:03:14Z","2025-07-04T06:03:16Z","2025-07-04T06:03:19Z","2025-07-04T06:03:22Z","2025-07-04T06:03:27Z","2025-07-04T06:03:34Z","2025-07-04T06:03:40Z","2025-07-04T06:03:51Z","2025-07-04T06:03:56Z","2025-07-04T06:04:00Z","2025-07-04T06:04:02Z","2025-07-04T06:04:05Z","2025-07-04T06:04:12Z","2025-07-04T06:04:20Z","2025-07-04T06:04:22Z","2025-07-04T06:04:26Z","2025-07-04T06:04:29Z","2025-07-04T06:04:34Z","2025-07-04T06:04:51Z","2025-07-04T06:04:54Z","2025-07-04T06:04:56Z","2025-07-04T06:04:59Z","2025-07-04T06:05:06Z","2025-07-04T06:05:48Z","2025-07-04T06:05:56Z","2025-07-04T06:05:58Z","2025-07-04T06:06:03Z","2025-07-04T06:06:06Z","2025-07-04T06:06:08Z","2025-07-04T06:06:17Z","2025-07-04T06:06:45Z","2025-07-04T06:06:49Z","2025-07-04T06:06:51Z","2025-07-04T06:06:59Z","2025-07-04T06:07:01Z","2025-07-04T06:07:04Z","2025-07-04T06:07:11Z","2025-07-04T06:09:36Z","2025-07-04T06:09:38Z","2025-07-04T06:09:41Z","2025-07-04T06:09:42Z","2025-07-04T06:09:46Z","2025-07-04T06:09:57Z","2025-07-04T06:10:08Z","2025-07-04T06:10:10Z","2025-07-04T06:10:13Z","2025-07-04T06:10:16Z","2025-07-04T06:10:22Z","2025-07-04T06:10:23Z","2025-07-04T06:10:33Z","2025-07-04T06:10:38Z","2025-07-04T06:10:43Z","2025-07-04T06:10:47Z","2025-07-04T06:10:49Z","2025-07-04T06:10:51Z","2025-07-04T06:10:53Z","2025-07-04T06:10:56Z","2025-07-04T06:10:58Z","2025-07-04T06:10:59Z","2025-07-04T06:11:00Z","2025-07-04T06:11:01Z","2025-07-04T06:11:02Z","2025-07-04T06:11:03Z","2025-07-04T06:11:05Z","2025-07-04T06:11:11Z","2025-07-04T06:11:14Z","2025-07-04T06:11:26Z","2025-07-04T06:11:28Z","2025-07-04T06:11:31Z","2025-07-04T06:11:33Z","2025-07-04T06:11:36Z","2025-07-04T06:11:38Z","2025-07-04T06:11:40Z","2025-07-04T06:11:41Z","2025-07-04T06:11:44Z","2025-07-04T06:11:46Z","2025-07-04T06:11:49Z","2025-07-04T06:11:52Z","2025-07-04T06:11:59Z","2025-07-04T06:12:09Z","2025-07-04T06:12:11Z","2025-07-04T06:12:12Z","2025-07-04T06:12:15Z","2025-07-04T06:12:17Z","2025-07-04T06:12:19Z","2025-07-04T06:12:25Z","2025-07-04T06:12:26Z","2025-07-04T06:12:27Z","2025-07-04T06:12:36Z","2025-07-04T06:12:39Z","2025-07-04T06:12:46Z","2025-07-04T06:12:47Z","2025-07-04T06:12:55Z","2025-07-04T06:12:57Z","2025-07-04T06:13:04Z","2025-07-04T06:13:06Z","2025-07-04T06:13:09Z","2025-07-04T06:13:10Z","2025-07-04T06:13:14Z","2025-07-04T06:13:17Z","2025-07-04T06:13:21Z","2025-07-04T06:13:23Z","2025-07-04T06:13:24Z","2025-07-04T06:13:27Z","2025-07-04T06:13:34Z","2025-07-04T06:13:38Z","2025-07-04T06:13:44Z","2025-07-04T06:13:47Z","2025-07-04T06:13:51Z","2025-07-04T06:13:53Z","2025-07-04T06:14:01Z","2025-07-04T06:14:03Z","2025-07-04T06:14:10Z","2025-07-04T06:14:17Z","2025-07-04T06:14:26Z","2025-07-04T06:14:29Z","2025-07-04T06:14:30Z","2025-07-04T06:14:31Z","2025-07-04T06:14:33Z","2025-07-04T06:14:39Z","2025-07-04T06:14:42Z","2025-07-04T06:14:43Z","2025-07-04T06:14:51Z","2025-07-04T06:14:55Z","2025-07-04T06:14:57Z","2025-07-04T06:15:01Z","2025-07-04T06:15:03Z","2025-07-04T06:15:04Z","2025-07-04T06:15:05Z","2025-07-04T06:15:07Z","2025-07-04T06:15:12Z","2025-07-04T06:15:14Z","2025-07-04T06:15:17Z","2025-07-04T06:15:24Z","2025-07-04T06:15:30Z","2025-07-04T06:15:32Z","2025-07-04T06:15:35Z","2025-07-04T06:15:38Z","2025-07-04T06:15:40Z","2025-07-04T06:15:46Z","2025-07-04T06:15:48Z","2025-07-04T06:15:52Z","2025-07-04T06:15:53Z","2025-07-04T06:15:54Z","2025-07-04T06:15:57Z","2025-07-04T06:16:00Z","2025-07-04T06:16:02Z","2025-07-04T06:16:04Z","2025-07-04T06:16:06Z","2025-07-04T06:16:09Z","2025-07-04T06:16:13Z","2025-07-04T06:16:18Z","2025-07-04T06:16:21Z","2025-07-04T06:16:27Z","2025-07-04T06:16:30Z","2025-07-04T06:16:33Z","2025-07-04T06:16:34Z","2025-07-04T06:16:35Z","2025-07-04T06:16:41Z","2025-07-04T06:16:43Z","2025-07-04T06:16:45Z","2025-07-04T06:16:52Z","2025-07-04T06:16:54Z","2025-07-04T06:16:57Z","2025-07-04T06:16:59Z","2025-07-04T06:17:03Z","2025-07-04T06:17:04Z","2025-07-04T06:17:08Z","2025-07-04T06:17:09Z","2025-07-04T06:17:13Z","2025-07-04T06:17:18Z","2025-07-04T06:17:20Z","2025-07-04T06:17:22Z","2025-07-04T06:17:31Z","2025-07-04T06:17:39Z","2025-07-04T06:17:41Z","2025-07-04T06:17:47Z","2025-07-04T06:17:50Z","2025-07-04T06:17:51Z","2025-07-04T06:17:56Z","2025-07-04T06:17:57Z","2025-07-04T06:18:04Z","2025-07-04T06:18:08Z","2025-07-04T06:18:15Z","2025-07-04T06:18:16Z","2025-07-04T06:18:20Z","2025-07-04T06:18:36Z","2025-07-04T06:18:38Z","2025-07-04T06:18:43Z","2025-07-04T06:18:56Z","2025-07-04T06:19:15Z","2025-07-04T06:19:17Z","2025-07-04T06:19:20Z","2025-07-04T06:19:22Z","2025-07-04T06:19:27Z","2025-07-04T06:19:28Z","2025-07-04T06:19:34Z","2025-07-04T06:19:38Z","2025-07-04T06:19:39Z","2025-07-04T06:19:40Z","2025-07-04T06:19:41Z","2025-07-04T06:19:43Z","2025-07-04T06:19:45Z","2025-07-04T06:19:48Z","2025-07-04T06:19:51Z","2025-07-04T06:19:55Z","2025-07-04T06:20:01Z","2025-07-04T06:20:02Z","2025-07-04T06:20:08Z","2025-07-04T06:20:11Z","2025-07-04T06:20:12Z","2025-07-04T06:20:15Z","2025-07-04T06:20:16Z","2025-07-04T06:20:22Z","2025-07-04T06:20:32Z","2025-07-04T06:20:34Z","2025-07-04T06:20:35Z","2025-07-04T06:20:37Z","2025-07-04T06:20:38Z","2025-07-04T06:20:41Z","2025-07-04T06:20:43Z","2025-07-04T06:20:44Z","2025-07-04T06:20:50Z","2025-07-04T06:20:54Z","2025-07-04T06:20:55Z","2025-07-04T06:20:57Z","2025-07-04T06:21:01Z","2025-07-04T06:21:02Z","2025-07-04T06:21:05Z","2025-07-04T06:21:08Z","2025-07-04T06:21:10Z","2025-07-04T06:21:11Z","2025-07-04T06:21:15Z","2025-07-04T06:21:17Z","2025-07-04T06:21:19Z","2025-07-04T06:21:24Z","2025-07-04T06:21:27Z","2025-07-04T06:21:31Z","2025-07-04T06:21:33Z","2025-07-04T06:21:37Z","2025-07-04T06:21:38Z","2025-07-04T06:21:40Z","2025-07-04T06:21:43Z","2025-07-04T06:21:46Z","2025-07-04T06:21:49Z","2025-07-04T06:21:57Z","2025-07-04T06:22:05Z","2025-07-04T06:22:07Z","2025-07-04T06:22:14Z","2025-07-04T06:22:18Z","2025-07-04T06:22:20Z","2025-07-04T06:22:21Z","2025-07-04T06:22:23Z","2025-07-04T06:22:28Z","2025-07-04T06:22:30Z","2025-07-04T06:22:33Z","2025-07-04T06:22:35Z","2025-07-04T06:22:37Z","2025-07-04T06:22:40Z","2025-07-04T06:22:44Z","2025-07-04T06:22:46Z","2025-07-04T06:22:49Z","2025-07-04T06:22:51Z","2025-07-04T06:22:53Z","2025-07-04T06:22:58Z","2025-07-04T06:23:00Z","2025-07-04T06:23:02Z","2025-07-04T06:23:03Z","2025-07-04T06:23:10Z","2025-07-04T06:23:12Z","2025-07-04T06:23:14Z","2025-07-04T06:23:17Z","2025-07-04T06:23:22Z","2025-07-04T06:23:27Z","2025-07-04T06:23:33Z","2025-07-04T06:23:34Z","2025-07-04T06:23:41Z","2025-07-04T06:23:44Z","2025-07-04T06:23:49Z","2025-07-04T06:23:51Z","2025-07-04T06:23:55Z","2025-07-04T06:24:00Z","2025-07-04T06:24:01Z","2025-07-04T06:24:02Z","2025-07-04T06:24:05Z","2025-07-04T06:24:07Z","2025-07-04T06:24:09Z","2025-07-04T06:24:12Z","2025-07-04T06:24:13Z","2025-07-04T06:24:17Z","2025-07-04T06:24:20Z","2025-07-04T06:24:21Z","2025-07-04T06:24:23Z","2025-07-04T06:24:25Z","2025-07-04T06:24:27Z","2025-07-04T06:24:39Z","2025-07-04T06:24:41Z","2025-07-04T06:24:51Z","2025-07-04T06:24:55Z","2025-07-04T06:25:00Z","2025-07-04T06:25:02Z","2025-07-04T06:25:04Z","2025-07-04T06:25:07Z","2025-07-04T06:25:09Z","2025-07-04T06:25:11Z","2025-07-04T06:25:12Z","2025-07-04T06:25:15Z","2025-07-04T06:25:17Z","2025-07-04T06:25:19Z","2025-07-04T06:25:20Z","2025-07-04T06:25:21Z","2025-07-04T06:25:24Z","2025-07-04T06:25:27Z","2025-07-04T06:25:29Z","2025-07-04T06:25:34Z","2025-07-04T06:25:39Z","2025-07-04T06:25:41Z","2025-07-04T06:25:43Z","2025-07-04T06:25:48Z","2025-07-04T06:25:51Z","2025-07-04T06:25:52Z","2025-07-04T06:25:53Z","2025-07-04T06:25:54Z","2025-07-04T06:25:57Z","2025-07-04T06:25:58Z","2025-07-04T06:25:59Z","2025-07-04T06:26:00Z","2025-07-04T06:26:02Z","2025-07-04T06:26:05Z","2025-07-04T06:26:07Z","2025-07-04T06:26:12Z","2025-07-04T06:26:14Z","2025-07-04T06:26:15Z","2025-07-04T06:26:17Z","2025-07-04T06:26:19Z","2025-07-04T06:26:21Z","2025-07-04T06:26:23Z","2025-07-04T06:26:24Z","2025-07-04T06:26:25Z","2025-07-04T06:26:27Z","2025-07-04T06:26:28Z","2025-07-04T06:26:39Z","2025-07-04T06:26:42Z","2025-07-04T06:26:44Z","2025-07-04T06:26:59Z","2025-07-04T06:27:04Z","2025-07-04T06:27:07Z","2025-07-04T06:27:09Z","2025-07-04T06:27:10Z","2025-07-04T06:27:12Z","2025-07-04T06:27:13Z","2025-07-04T06:27:14Z","2025-07-04T06:27:15Z","2025-07-04T06:27:16Z","2025-07-04T06:27:17Z","2025-07-04T06:27:18Z","2025-07-04T06:27:21Z","2025-07-04T06:27:22Z","2025-07-04T06:27:23Z","2025-07-04T06:27:25Z","2025-07-04T06:27:30Z","2025-07-04T06:27:35Z","2025-07-04T06:27:36Z","2025-07-04T06:27:38Z","2025-07-04T06:27:40Z","2025-07-04T06:27:42Z","2025-07-04T06:27:43Z","2025-07-04T06:27:44Z","2025-07-04T06:27:45Z","2025-07-04T06:27:46Z","2025-07-04T06:27:50Z","2025-07-04T06:27:52Z","2025-07-04T06:27:53Z","2025-07-04T06:27:55Z","2025-07-04T06:27:57Z","2025-07-04T06:27:58Z","2025-07-04T06:28:03Z","2025-07-04T06:28:06Z","2025-07-04T06:28:09Z","2025-07-04T06:28:11Z","2025-07-04T06:28:14Z","2025-07-04T06:28:18Z","2025-07-04T06:28:24Z","2025-07-04T06:28:27Z","2025-07-04T06:28:38Z","2025-07-04T06:28:44Z","2025-07-04T06:28:46Z","2025-07-04T06:28:49Z","2025-07-04T06:28:54Z","2025-07-04T06:28:56Z","2025-07-04T06:28:57Z","2025-07-04T06:28:59Z","2025-07-04T06:29:02Z","2025-07-04T06:29:03Z","2025-07-04T06:29:05Z","2025-07-04T06:29:07Z","2025-07-04T06:29:11Z","2025-07-04T06:29:14Z","2025-07-04T06:29:19Z","2025-07-04T06:29:23Z","2025-07-04T06:29:27Z","2025-07-04T06:29:29Z","2025-07-04T06:29:30Z","2025-07-04T06:29:35Z","2025-07-04T06:29:37Z","2025-07-04T06:29:58Z","2025-07-04T06:30:04Z","2025-07-04T06:30:12Z","2025-07-04T06:30:19Z","2025-07-04T06:30:22Z","2025-07-04T06:30:26Z","2025-07-04T06:30:29Z","2025-07-04T06:30:31Z","2025-07-04T06:30:33Z","2025-07-04T06:30:34Z","2025-07-04T06:30:35Z","2025-07-04T06:30:36Z","2025-07-04T06:30:37Z","2025-07-04T06:30:41Z","2025-07-04T06:30:43Z","2025-07-04T06:30:45Z","2025-07-04T06:30:47Z","2025-07-04T06:31:04Z","2025-07-04T06:31:07Z","2025-07-04T06:31:08Z","2025-07-04T06:31:11Z","2025-07-04T06:31:17Z","2025-07-04T06:31:22Z","2025-07-04T06:31:27Z","2025-07-04T06:31:30Z","2025-07-04T06:31:33Z","2025-07-04T06:31:40Z","2025-07-04T06:32:05Z","2025-07-04T06:32:07Z","2025-07-04T06:32:09Z","2025-07-04T06:32:10Z","2025-07-04T06:32:12Z","2025-07-04T06:32:14Z","2025-07-04T06:32:17Z","2025-07-04T06:32:20Z","2025-07-04T06:32:22Z","2025-07-04T06:32:23Z","2025-07-04T06:32:24Z","2025-07-04T06:32:26Z","2025-07-04T06:32:28Z","2025-07-04T06:32:29Z","2025-07-04T06:32:30Z","2025-07-04T06:32:35Z","2025-07-04T06:32:36Z","2025-07-04T06:32:39Z","2025-07-04T06:32:40Z","2025-07-04T06:32:44Z","2025-07-04T06:32:46Z","2025-07-04T06:32:47Z","2025-07-04T06:32:49Z","2025-07-04T06:32:50Z","2025-07-04T06:32:51Z","2025-07-04T06:32:54Z","2025-07-04T06:32:55Z","2025-07-04T06:32:57Z","2025-07-04T06:33:00Z","2025-07-04T06:33:03Z","2025-07-04T06:33:05Z","2025-07-04T06:33:09Z","2025-07-04T06:33:11Z","2025-07-04T06:33:13Z","2025-07-04T06:33:14Z","2025-07-04T06:33:18Z","2025-07-04T06:33:19Z","2025-07-04T06:33:20Z","2025-07-04T06:33:22Z","2025-07-04T06:33:25Z","2025-07-04T06:33:27Z","2025-07-04T06:33:28Z","2025-07-04T06:33:31Z","2025-07-04T06:33:33Z","2025-07-04T06:33:36Z","2025-07-04T06:33:41Z","2025-07-04T06:33:44Z","2025-07-04T06:33:46Z","2025-07-04T06:33:48Z","2025-07-04T06:33:49Z","2025-07-04T06:33:53Z","2025-07-04T06:33:57Z","2025-07-04T06:33:58Z","2025-07-04T06:34:00Z","2025-07-04T06:34:01Z","2025-07-04T06:34:05Z","2025-07-04T06:34:06Z","2025-07-04T06:34:07Z","2025-07-04T06:34:09Z","2025-07-04T06:34:11Z","2025-07-04T06:34:14Z","2025-07-04T06:34:16Z","2025-07-04T06:34:19Z","2025-07-04T06:34:21Z","2025-07-04T06:34:25Z","2025-07-04T06:34:31Z","2025-07-04T06:34:34Z","2025-07-04T06:34:37Z","2025-07-04T06:34:41Z","2025-07-04T06:34:45Z","2025-07-04T06:34:49Z","2025-07-04T06:34:53Z","2025-07-04T06:34:55Z","2025-07-04T06:34:57Z","2025-07-04T06:34:58Z","2025-07-04T06:35:01Z","2025-07-04T06:35:03Z","2025-07-04T06:35:05Z","2025-07-04T06:35:06Z","2025-07-04T06:35:09Z","2025-07-04T06:35:11Z","2025-07-04T06:35:13Z","2025-07-04T06:35:15Z","2025-07-04T06:35:16Z","2025-07-04T06:35:17Z","2025-07-04T06:35:18Z","2025-07-04T06:35:19Z","2025-07-04T06:35:20Z","2025-07-04T06:35:21Z","2025-07-04T06:35:24Z","2025-07-04T06:35:28Z","2025-07-04T06:35:33Z","2025-07-04T06:35:34Z","2025-07-04T06:35:35Z","2025-07-04T06:35:37Z","2025-07-04T06:35:38Z","2025-07-04T06:35:41Z","2025-07-04T06:35:44Z","2025-07-04T06:35:46Z","2025-07-04T06:35:51Z","2025-07-04T06:35:53Z","2025-07-04T06:35:59Z","2025-07-04T06:36:00Z","2025-07-04T06:36:03Z","2025-07-04T06:36:05Z","2025-07-04T06:36:07Z","2025-07-04T06:36:12Z","2025-07-04T06:36:14Z","2025-07-04T06:36:16Z","2025-07-04T06:36:17Z","2025-07-04T06:36:18Z","2025-07-04T06:36:19Z","2025-07-04T06:36:21Z","2025-07-04T06:36:23Z","2025-07-04T06:36:25Z","2025-07-04T06:36:27Z","2025-07-04T06:36:30Z","2025-07-04T06:36:31Z","2025-07-04T06:36:32Z","2025-07-04T06:36:36Z","2025-07-04T06:36:38Z","2025-07-04T06:36:39Z","2025-07-04T06:36:41Z","2025-07-04T06:36:46Z","2025-07-04T06:36:48Z","2025-07-04T06:36:51Z","2025-07-04T06:36:54Z","2025-07-04T06:36:57Z","2025-07-04T06:37:00Z","2025-07-04T06:37:04Z","2025-07-04T06:37:07Z","2025-07-04T06:37:09Z","2025-07-04T06:37:11Z","2025-07-04T06:37:12Z","2025-07-04T06:37:17Z","2025-07-04T06:37:19Z","2025-07-04T06:37:21Z","2025-07-04T06:37:24Z","2025-07-04T06:37:26Z","2025-07-04T06:37:28Z","2025-07-04T06:37:29Z","2025-07-04T06:37:31Z","2025-07-04T06:37:33Z","2025-07-04T06:37:35Z","2025-07-04T06:37:40Z","2025-07-04T06:37:42Z","2025-07-04T06:37:44Z","2025-07-04T06:37:45Z","2025-07-04T06:37:46Z","2025-07-04T06:37:48Z","2025-07-04T06:37:50Z","2025-07-04T06:37:52Z","2025-07-04T06:37:56Z","2025-07-04T06:38:03Z","2025-07-04T06:38:05Z","2025-07-04T06:38:11Z","2025-07-04T06:38:13Z","2025-07-04T06:38:16Z","2025-07-04T06:38:20Z","2025-07-04T06:38:22Z","2025-07-04T06:38:26Z","2025-07-04T06:38:27Z","2025-07-04T06:38:33Z","2025-07-04T06:38:36Z","2025-07-04T06:38:37Z","2025-07-04T06:38:42Z","2025-07-04T06:38:43Z","2025-07-04T06:38:44Z","2025-07-04T06:38:48Z","2025-07-04T06:38:51Z","2025-07-04T06:38:52Z","2025-07-04T06:38:54Z","2025-07-04T06:38:56Z","2025-07-04T06:38:58Z","2025-07-04T06:39:00Z","2025-07-04T06:39:02Z","2025-07-04T06:39:06Z","2025-07-04T06:39:08Z","2025-07-04T06:39:10Z","2025-07-04T06:39:11Z","2025-07-04T06:39:14Z","2025-07-04T06:39:15Z","2025-07-04T06:39:20Z","2025-07-04T06:39:22Z","2025-07-04T06:39:25Z","2025-07-04T06:39:26Z","2025-07-04T06:39:27Z","2025-07-04T06:39:31Z","2025-07-04T06:39:33Z","2025-07-04T06:39:35Z","2025-07-04T06:39:38Z","2025-07-04T06:39:51Z","2025-07-04T06:39:54Z","2025-07-04T06:39:57Z","2025-07-04T06:40:06Z","2025-07-04T06:40:10Z","2025-07-04T06:40:14Z","2025-07-04T06:40:18Z","2025-07-04T06:40:23Z","2025-07-04T06:40:25Z","2025-07-04T06:40:27Z","2025-07-04T06:40:33Z","2025-07-04T06:40:37Z","2025-07-04T06:40:39Z","2025-07-04T06:40:45Z","2025-07-04T06:40:47Z","2025-07-04T06:40:49Z","2025-07-04T06:40:51Z","2025-07-04T06:40:53Z","2025-07-04T06:40:56Z","2025-07-04T06:40:57Z","2025-07-04T06:40:59Z","2025-07-04T06:41:02Z","2025-07-04T06:41:08Z","2025-07-04T06:41:12Z","2025-07-04T06:41:14Z","2025-07-04T06:41:15Z","2025-07-04T06:41:16Z","2025-07-04T06:41:20Z","2025-07-04T06:41:22Z","2025-07-04T06:41:24Z","2025-07-04T06:41:27Z","2025-07-04T06:41:28Z","2025-07-04T06:41:30Z","2025-07-04T06:41:34Z","2025-07-04T06:41:36Z","2025-07-04T06:41:37Z","2025-07-04T06:41:42Z","2025-07-04T06:41:43Z","2025-07-04T06:41:46Z","2025-07-04T06:41:48Z","2025-07-04T06:41:49Z","2025-07-04T06:41:52Z","2025-07-04T06:41:56Z","2025-07-04T06:41:57Z","2025-07-04T06:41:59Z","2025-07-04T06:42:01Z","2025-07-04T06:42:05Z","2025-07-04T06:42:08Z","2025-07-04T06:42:09Z","2025-07-04T06:42:10Z","2025-07-04T06:42:16Z","2025-07-04T06:42:17Z","2025-07-04T06:42:20Z","2025-07-04T06:42:26Z","2025-07-04T06:42:30Z","2025-07-04T06:42:32Z","2025-07-04T06:42:38Z","2025-07-04T06:42:41Z","2025-07-04T06:42:44Z","2025-07-04T06:42:47Z","2025-07-04T06:42:51Z","2025-07-04T06:42:56Z","2025-07-04T06:43:03Z","2025-07-04T06:43:05Z","2025-07-04T06:43:06Z","2025-07-04T06:43:07Z","2025-07-04T06:43:12Z","2025-07-04T06:43:14Z","2025-07-04T06:43:16Z","2025-07-04T06:43:17Z","2025-07-04T06:43:18Z","2025-07-04T06:43:20Z","2025-07-04T06:43:22Z","2025-07-04T06:43:23Z","2025-07-04T06:43:27Z","2025-07-04T06:43:31Z","2025-07-04T06:43:33Z","2025-07-04T06:43:35Z","2025-07-04T06:43:37Z","2025-07-04T06:43:42Z","2025-07-04T06:43:47Z","2025-07-04T06:43:49Z","2025-07-04T06:43:50Z","2025-07-04T06:43:53Z","2025-07-04T06:43:56Z","2025-07-04T06:43:59Z","2025-07-04T06:44:01Z","2025-07-04T06:44:03Z","2025-07-04T06:44:06Z","2025-07-04T06:44:09Z","2025-07-04T06:44:10Z","2025-07-04T06:44:12Z","2025-07-04T06:44:20Z","2025-07-04T06:44:22Z","2025-07-04T06:44:27Z","2025-07-04T06:44:30Z","2025-07-04T06:44:33Z","2025-07-04T06:44:36Z","2025-07-04T06:44:38Z","2025-07-04T06:44:40Z","2025-07-04T06:44:44Z","2025-07-04T06:44:48Z","2025-07-04T06:44:50Z","2025-07-04T06:44:55Z","2025-07-04T06:44:57Z","2025-07-04T06:45:02Z","2025-07-04T06:45:05Z","2025-07-04T06:45:08Z","2025-07-04T06:45:25Z","2025-07-04T06:45:31Z","2025-07-04T06:45:32Z","2025-07-04T06:45:37Z","2025-07-04T06:45:42Z","2025-07-04T06:45:45Z","2025-07-04T06:45:49Z","2025-07-04T06:46:01Z","2025-07-04T06:46:05Z","2025-07-04T06:46:10Z","2025-07-04T06:46:13Z","2025-07-04T06:46:15Z","2025-07-04T06:46:18Z","2025-07-04T06:46:24Z","2025-07-04T06:46:32Z","2025-07-04T06:46:38Z","2025-07-04T06:46:41Z","2025-07-04T06:46:44Z","2025-07-04T06:46:45Z","2025-07-04T06:46:46Z","2025-07-04T06:46:48Z","2025-07-04T06:46:49Z","2025-07-04T06:46:51Z","2025-07-04T06:46:54Z","2025-07-04T06:46:55Z","2025-07-04T06:46:56Z","2025-07-04T06:46:58Z","2025-07-04T06:46:59Z","2025-07-04T06:47:01Z","2025-07-04T06:47:03Z","2025-07-04T06:47:08Z","2025-07-04T06:47:35Z","2025-07-04T06:47:38Z","2025-07-04T06:47:51Z","2025-07-04T06:47:58Z","2025-07-04T06:48:04Z","2025-07-04T06:48:08Z","2025-07-04T06:48:23Z","2025-07-04T06:48:31Z","2025-07-04T06:48:35Z","2025-07-04T06:48:38Z","2025-07-04T06:48:41Z","2025-07-04T06:48:43Z","2025-07-04T06:48:48Z","2025-07-04T06:48:50Z","2025-07-04T06:48:53Z","2025-07-04T06:48:57Z","2025-07-04T06:51:15Z","2025-07-04T06:51:21Z","2025-07-04T06:51:26Z","2025-07-04T06:51:38Z","2025-07-04T06:51:42Z","2025-07-04T06:51:45Z","2025-07-04T06:51:49Z","2025-07-04T06:51:55Z","2025-07-04T06:51:57Z","2025-07-04T06:52:01Z","2025-07-04T06:52:02Z","2025-07-04T06:52:10Z","2025-07-04T06:52:14Z","2025-07-04T06:52:17Z","2025-07-04T06:52:20Z","2025-07-04T06:52:22Z","2025-07-04T06:52:24Z","2025-07-04T06:52:29Z","2025-07-04T06:52:30Z","2025-07-04T06:52:36Z","2025-07-04T06:52:48Z","2025-07-04T06:52:50Z","2025-07-04T06:54:34Z","2025-07-04T06:54:48Z","2025-07-04T06:54:50Z","2025-07-04T06:54:55Z","2025-07-04T06:54:56Z","2025-07-04T06:55:01Z","2025-07-04T06:55:03Z","2025-07-04T06:55:11Z","2025-07-04T06:55:12Z","2025-07-04T06:55:13Z","2025-07-04T06:55:15Z","2025-07-04T06:55:18Z","2025-07-04T06:55:20Z","2025-07-04T06:55:22Z","2025-07-04T06:55:23Z","2025-07-04T06:55:24Z","2025-07-04T06:55:25Z","2025-07-04T06:55:30Z","2025-07-04T06:55:32Z","2025-07-04T06:55:36Z","2025-07-04T06:55:40Z","2025-07-04T06:55:43Z","2025-07-04T06:55:45Z","2025-07-04T06:55:47Z","2025-07-04T06:55:50Z","2025-07-04T06:55:54Z","2025-07-04T06:55:56Z","2025-07-04T06:56:02Z","2025-07-04T06:56:06Z","2025-07-04T06:56:08Z","2025-07-04T06:56:10Z","2025-07-04T06:56:12Z","2025-07-04T06:56:13Z","2025-07-04T06:56:21Z","2025-07-04T06:56:25Z","2025-07-04T06:56:28Z","2025-07-04T06:56:30Z","2025-07-04T06:56:33Z","2025-07-04T06:56:35Z","2025-07-04T06:56:36Z","2025-07-04T06:56:40Z","2025-07-04T06:56:42Z","2025-07-04T06:56:44Z","2025-07-04T06:56:50Z","2025-07-04T06:56:53Z","2025-07-04T06:56:54Z","2025-07-04T06:56:57Z","2025-07-04T06:57:03Z","2025-07-04T06:57:05Z","2025-07-04T06:57:07Z","2025-07-04T06:57:08Z","2025-07-04T06:57:09Z","2025-07-04T06:57:14Z","2025-07-04T06:57:16Z","2025-07-04T06:57:18Z","2025-07-04T06:57:22Z","2025-07-04T06:57:24Z","2025-07-04T06:57:28Z","2025-07-04T06:57:30Z","2025-07-04T06:57:31Z","2025-07-04T06:57:32Z","2025-07-04T06:57:36Z","2025-07-04T06:57:38Z","2025-07-04T06:57:41Z","2025-07-04T06:57:42Z","2025-07-04T06:57:45Z","2025-07-04T06:57:51Z","2025-07-04T06:57:54Z","2025-07-04T06:57:59Z","2025-07-04T06:58:04Z","2025-07-04T06:58:05Z","2025-07-04T06:58:06Z","2025-07-04T06:58:10Z","2025-07-04T06:58:14Z","2025-07-04T06:58:16Z","2025-07-04T06:58:18Z","2025-07-04T06:58:19Z","2025-07-04T06:58:20Z","2025-07-04T06:58:22Z","2025-07-04T06:58:26Z","2025-07-04T06:58:31Z","2025-07-04T06:58:32Z","2025-07-04T06:58:38Z","2025-07-04T06:58:42Z","2025-07-04T06:58:44Z","2025-07-04T06:58:51Z","2025-07-04T06:58:52Z","2025-07-04T06:58:55Z","2025-07-04T06:58:58Z","2025-07-04T06:58:59Z","2025-07-04T06:59:00Z","2025-07-04T06:59:03Z","2025-07-04T06:59:05Z","2025-07-04T06:59:08Z","2025-07-04T06:59:10Z","2025-07-04T06:59:13Z","2025-07-04T06:59:14Z","2025-07-04T06:59:16Z","2025-07-04T06:59:18Z","2025-07-04T06:59:20Z","2025-07-04T06:59:22Z","2025-07-04T06:59:25Z","2025-07-04T06:59:27Z","2025-07-04T06:59:29Z","2025-07-04T06:59:34Z","2025-07-04T06:59:35Z","2025-07-04T06:59:38Z","2025-07-04T06:59:40Z","2025-07-04T06:59:44Z","2025-07-04T06:59:45Z","2025-07-04T06:59:47Z","2025-07-04T06:59:50Z","2025-07-04T06:59:52Z","2025-07-04T06:59:53Z","2025-07-04T06:59:57Z","2025-07-04T06:59:59Z","2025-07-04T07:00:07Z","2025-07-04T07:00:09Z","2025-07-04T07:00:13Z","2025-07-04T07:00:17Z","2025-07-04T07:00:25Z","2025-07-04T07:00:33Z","2025-07-04T07:00:34Z","2025-07-04T07:00:35Z","2025-07-04T07:00:40Z","2025-07-04T07:00:42Z","2025-07-04T07:00:50Z","2025-07-04T07:00:52Z","2025-07-04T07:00:57Z","2025-07-04T07:00:59Z","2025-07-04T07:01:05Z","2025-07-04T07:01:07Z","2025-07-04T07:01:10Z","2025-07-04T07:01:12Z","2025-07-04T07:01:16Z","2025-07-04T07:01:21Z","2025-07-04T07:01:23Z","2025-07-04T07:01:28Z","2025-07-04T07:01:32Z","2025-07-04T07:01:41Z","2025-07-04T07:01:43Z","2025-07-04T07:01:44Z","2025-07-04T07:01:50Z","2025-07-04T07:01:52Z","2025-07-04T07:01:57Z","2025-07-04T07:01:58Z","2025-07-04T07:02:00Z","2025-07-04T07:02:01Z","2025-07-04T07:02:07Z","2025-07-04T07:02:09Z","2025-07-04T07:02:11Z","2025-07-04T07:02:12Z","2025-07-04T07:02:17Z","2025-07-04T07:02:18Z","2025-07-04T07:02:19Z","2025-07-04T07:02:20Z","2025-07-04T07:02:21Z","2025-07-04T07:02:23Z","2025-07-04T07:02:24Z","2025-07-04T07:02:26Z","2025-07-04T07:02:28Z","2025-07-04T07:02:31Z","2025-07-04T07:02:34Z","2025-07-04T07:02:36Z","2025-07-04T07:02:39Z","2025-07-04T07:02:41Z","2025-07-04T07:02:44Z","2025-07-04T07:02:47Z","2025-07-04T07:02:49Z","2025-07-04T07:02:51Z","2025-07-04T07:02:54Z","2025-07-04T07:03:00Z","2025-07-04T07:03:02Z","2025-07-04T07:03:03Z","2025-07-04T07:03:09Z","2025-07-04T07:03:11Z","2025-07-04T07:03:12Z","2025-07-04T07:03:14Z","2025-07-04T07:03:16Z","2025-07-04T07:03:18Z","2025-07-04T07:03:22Z","2025-07-04T07:03:23Z","2025-07-04T07:03:27Z","2025-07-04T07:03:29Z","2025-07-04T07:03:32Z","2025-07-04T07:03:34Z","2025-07-04T07:03:38Z","2025-07-04T07:03:39Z","2025-07-04T07:03:42Z","2025-07-04T07:03:44Z","2025-07-04T07:03:46Z","2025-07-04T07:03:49Z","2025-07-04T07:03:50Z","2025-07-04T07:03:52Z","2025-07-04T07:03:55Z","2025-07-04T07:03:56Z","2025-07-04T07:03:57Z","2025-07-04T07:04:03Z","2025-07-04T07:04:05Z","2025-07-04T07:04:07Z","2025-07-04T07:04:09Z","2025-07-04T07:04:14Z","2025-07-04T07:04:16Z","2025-07-04T07:04:17Z","2025-07-04T07:04:18Z","2025-07-04T07:04:19Z","2025-07-04T07:04:21Z","2025-07-04T07:04:23Z","2025-07-04T07:04:26Z","2025-07-04T07:04:32Z","2025-07-04T07:04:33Z","2025-07-04T07:04:38Z","2025-07-04T07:04:39Z","2025-07-04T07:04:43Z","2025-07-04T07:04:44Z","2025-07-04T07:04:46Z","2025-07-04T07:04:47Z","2025-07-04T07:04:50Z","2025-07-04T07:04:53Z","2025-07-04T07:04:54Z","2025-07-04T07:04:56Z","2025-07-04T07:04:57Z","2025-07-04T07:04:59Z","2025-07-04T07:05:02Z","2025-07-04T07:05:04Z","2025-07-04T07:05:13Z","2025-07-04T07:05:15Z","2025-07-04T07:05:18Z","2025-07-04T07:05:20Z","2025-07-04T07:05:28Z","2025-07-04T07:05:34Z","2025-07-04T07:05:38Z","2025-07-04T07:05:44Z","2025-07-04T07:05:45Z","2025-07-04T07:05:47Z","2025-07-04T07:05:50Z","2025-07-04T07:05:54Z","2025-07-04T07:05:58Z","2025-07-04T07:06:03Z","2025-07-04T07:06:09Z","2025-07-04T07:06:14Z","2025-07-04T07:06:16Z","2025-07-04T07:06:22Z","2025-07-04T07:06:26Z","2025-07-04T07:06:33Z","2025-07-04T07:06:45Z","2025-07-04T07:06:49Z","2025-07-04T07:06:50Z","2025-07-04T07:06:58Z","2025-07-04T07:07:00Z","2025-07-04T07:07:01Z","2025-07-04T07:07:02Z","2025-07-04T07:07:03Z","2025-07-04T07:07:06Z","2025-07-04T07:07:11Z","2025-07-04T07:07:13Z","2025-07-04T07:07:23Z","2025-07-04T07:07:26Z","2025-07-04T07:07:31Z","2025-07-04T07:07:32Z","2025-07-04T07:07:40Z","2025-07-04T07:07:44Z","2025-07-04T07:07:47Z","2025-07-04T07:07:50Z","2025-07-04T07:07:55Z","2025-07-04T07:07:58Z","2025-07-04T07:08:00Z","2025-07-04T07:08:03Z","2025-07-04T07:08:06Z","2025-07-04T07:08:11Z","2025-07-04T07:08:22Z","2025-07-04T07:08:24Z","2025-07-04T07:08:28Z","2025-07-04T07:08:29Z","2025-07-04T07:08:39Z","2025-07-04T07:08:44Z","2025-07-04T07:08:47Z","2025-07-04T07:08:48Z","2025-07-04T07:08:49Z","2025-07-04T07:08:52Z","2025-07-04T07:08:54Z","2025-07-04T07:08:55Z","2025-07-04T07:08:56Z","2025-07-04T07:09:02Z","2025-07-04T07:09:09Z","2025-07-04T07:09:11Z","2025-07-04T07:09:25Z","2025-07-04T07:09:28Z","2025-07-04T07:09:29Z","2025-07-04T07:09:30Z","2025-07-04T07:09:32Z","2025-07-04T07:09:35Z","2025-07-04T07:09:37Z","2025-07-04T07:09:40Z","2025-07-04T07:09:44Z","2025-07-04T07:09:47Z","2025-07-04T07:09:51Z","2025-07-04T07:09:56Z","2025-07-04T07:10:01Z","2025-07-04T07:10:03Z","2025-07-04T07:10:06Z","2025-07-04T07:10:07Z","2025-07-04T07:10:08Z","2025-07-04T07:10:10Z","2025-07-04T07:10:14Z","2025-07-04T07:10:19Z","2025-07-04T07:10:20Z","2025-07-04T07:10:22Z","2025-07-04T07:10:25Z","2025-07-04T07:10:27Z","2025-07-04T07:10:37Z","2025-07-04T07:10:38Z","2025-07-04T07:10:39Z","2025-07-04T07:10:41Z","2025-07-04T07:10:43Z","2025-07-04T07:10:47Z","2025-07-04T07:10:48Z","2025-07-04T07:10:52Z","2025-07-04T07:10:54Z","2025-07-04T07:10:56Z","2025-07-04T07:11:00Z","2025-07-04T07:11:10Z","2025-07-04T07:11:17Z","2025-07-04T07:11:21Z","2025-07-04T07:11:23Z","2025-07-04T07:11:26Z","2025-07-04T07:11:38Z","2025-07-04T07:11:39Z","2025-07-04T07:11:40Z","2025-07-04T07:11:41Z","2025-07-04T07:11:43Z","2025-07-04T07:11:45Z","2025-07-04T07:11:47Z","2025-07-04T07:11:52Z","2025-07-04T07:11:58Z","2025-07-04T07:12:05Z","2025-07-04T07:12:07Z","2025-07-04T07:12:16Z","2025-07-04T07:12:21Z","2025-07-04T07:12:23Z","2025-07-04T07:12:27Z","2025-07-04T07:12:30Z","2025-07-04T07:12:33Z","2025-07-04T07:12:35Z","2025-07-04T07:12:38Z","2025-07-04T07:12:39Z","2025-07-04T07:12:41Z","2025-07-04T07:12:44Z","2025-07-04T07:12:48Z","2025-07-04T07:12:54Z","2025-07-04T07:12:56Z","2025-07-04T07:13:00Z","2025-07-04T07:13:02Z","2025-07-04T07:13:03Z","2025-07-04T07:13:04Z","2025-07-04T07:13:06Z","2025-07-04T07:13:07Z","2025-07-04T07:13:09Z","2025-07-04T07:13:10Z","2025-07-04T07:13:11Z","2025-07-04T07:13:13Z","2025-07-04T07:13:15Z","2025-07-04T07:13:17Z","2025-07-04T07:13:23Z","2025-07-04T07:13:24Z","2025-07-04T07:13:27Z","2025-07-04T07:13:31Z","2025-07-04T07:13:36Z","2025-07-04T07:13:38Z","2025-07-04T07:13:45Z","2025-07-04T07:13:47Z","2025-07-04T07:14:00Z","2025-07-04T07:14:01Z","2025-07-04T07:14:14Z","2025-07-04T07:14:17Z","2025-07-04T07:14:21Z","2025-07-04T07:14:23Z","2025-07-04T07:14:26Z","2025-07-04T07:14:30Z","2025-07-04T07:14:32Z","2025-07-04T07:14:35Z","2025-07-04T07:14:36Z","2025-07-04T07:14:38Z","2025-07-04T07:14:40Z","2025-07-04T07:14:44Z","2025-07-04T07:14:47Z","2025-07-04T07:14:51Z","2025-07-04T07:15:00Z","2025-07-04T07:15:06Z","2025-07-04T07:15:08Z","2025-07-04T07:15:09Z","2025-07-04T07:15:20Z","2025-07-04T07:15:22Z"],"heartRates":[108,106,104,105,106,106,106,105,110,110,110,112,112,114,114,115,115,115,115,115,114,114,116,116,119,119,120,120,120,120,121,121,121,121,122,122,120,120,120,122,122,120,120,120,120,120,120,120,121,121,121,121,121,121,121,121,121,121,122,122,122,122,122,122,122,122,122,122,122,122,122,125,125,124,124,124,121,122,122,125,125,125,125,125,122,122,122,124,127,127,127,127,127,127,127,127,128,127,124,124,124,125,125,125,125,126,126,126,128,128,129,129,129,129,128,130,130,130,130,130,131,130,130,130,130,135,135,135,139,139,139,138,138,137,137,129,128,127,127,122,122,122,125,126,126,125,125,125,124,124,124,124,125,124,124,124,124,126,129,128,128,128,126,126,127,128,128,126,126,125,126,124,124,124,122,122,111,112,112,112,112,111,112,112,112,110,110,111,114,114,114,108,108,108,110,110,113,113,115,118,118,121,122,122,122,125,125,125,120,121,121,121,121,121,121,122,124,124,118,118,116,116,117,117,117,117,117,117,117,120,121,121,119,119,119,119,118,120,120,120,120,118,115,115,112,112,112,112,114,113,113,112,111,111,111,110,115,117,119,116,115,115,115,115,115,115,115,115,116,116,116,117,117,117,117,117,118,118,118,118,118,118,118,119,120,121,120,120,120,120,121,121,121,119,119,119,119,119,119,119,119,121,121,122,125,125,125,125,127,127,127,127,128,128,129,132,132,132,132,132,135,134,134,134,134,137,133,125,125,124,124,124,124,125,125,124,124,124,120,120,117,114,112,115,116,116,116,116,124,125,125,127,127,127,127,125,125,125,124,124,124,122,122,122,122,124,124,124,124,124,124,128,128,126,127,127,127,127,128,128,128,128,127,127,127,126,126,125,124,122,122,122,122,122,122,121,121,122,125,125,124,124,122,122,122,119,120,120,120,120,120,120,120,120,120,120,120,120,117,117,115,115,115,115,116,116,119,119,116,116,116,116,117,116,116,116,116,116,111,111,111,112,112,112,112,112,112,119,119,119,120,116,117,117,117,115,114,114,112,112,112,112,112,113,113,113,114,114,114,114,113,113,113,113,113,114,114,114,114,114,114,114,114,114,114,114,114,114,112,112,112,110,110,111,111,111,113,114,114,114,114,116,116,116,116,116,116,116,116,116,116,114,114,114,115,115,115,115,115,115,115,115,113,112,112,114,114,114,113,113,114,115,115,115,114,114,114,116,115,115,114,115,115,115,116,116,118,118,118,118,121,121,122,122,122,119,119,98,100,110,114,114,114,114,114,114,114,114,114,114,112,112,112,112,111,109,109,110,112,117,115,115,121,122,125,125,126,126,126,131,131,129,129,129,129,129,129,131,131,132,132,132,132,134,135,135,135,134,134,134,130,130,130,126,125,125,125,122,122,122,129,129,129,122,122,122,120,120,120,122,125,125,125,125,124,122,122,122,122,119,119,118,118,117,117,113,113,113,115,116,116,116,114,113,113,113,111,111,111,111,111,111,111,111,111,111,110,110,110,110,110,110,110,110,110,111,111,111,111,111,109,109,109,109,112,113,113,113,113,113,112,112,113,113,113,113,113,113,113,113,113,113,113,114,114,114,114,114,114,116,116,119,119,119,119,119,118,118,116,116,116,116,119,119,119,119,119,121,121,121,118,118,118,119,119,119,118,115,118,118,118,115,115,115,114,114,114,114,114,115,115,115,114,114,114,114,114,114,114,114,112,112,112,111,111,111,111,111,111,111,111,112,112,112,112,121,121,120,119,118,118,117,117,117,117,120,122,122,125,125,125,125,125,117,117,117,116,118,118,118,118,118,118,114,114,113,113,114,114,114,114,113,113,113,108,108,107,109,109,109,109,111,111,111,111,110,110,109,109,109,109,112,111,111,112,112,112,107,107,107,107,107,107,107,106,106,106,106,105,105,105,105,106,106,107,107,109,109,109,109,108,107,107,107,108,108,109,109,109,109,107,107,106,106,106,108,108,108,108,108,114,114,113,118,117,117,117,117,117,117,118,118,118,118,116,116,114,114,111,111,107,107,106,106,106,106,106,106,106,106,106,106,106,103,104,104,117,117,116,115,117,122,121,121,119,119,119,118,118,118,118,128,128,127,125,122,122,122,122,122,122,122,122,122,122,122,125,124,124,122,132,132,115,122,124,124,124,127,128,128,128,131,133,133,130,130,130,130,130,130,131,130,136,136,136,136,136,136,136,131,132,132,131,131,131,128,125,125,127,127,125,125,125,125,121,122,122,122,122,122,122,119,119,119,118,118,118,119,119,121,121,121,121,118,118,118,118,118,118,116,115,115,115,115,115,114,114,114,114,115,115,115,116,116,114,114,117,122,122,122,125,125,127,127,129,129,133,133,133,136,136,135,135,135,134,134,134,134,132,132,133,133,133,132,132,132,134,134,133,133,130,130,128,126,126,125,125,124,124,125,125,125,124,124,122,122,125,126,126,127,127,125,125,125,126,126,126,126,126,126,129,129,127,127,127,127,127,126,126,126,126,124,124,124,122,122,124,124,122,122,122,125,125,125,125,125,126,126,126,125,125,124,124,124,125,124,124,122,124,124,124,126,126,126,126,124,124,124,124,124,122,122,122,117,117,117,117,118,118,118,119,118,118,117,117,118,118,120,120,120,120,121,121,121,125,125,125,126,126,126,126,127,126,126,128,128,128,129,131,130,134,134,133,133,134,134,138,137,138,138,138,138,138,138,136,136,135,135,135,135,136,136,137,137,137,137,137,137,137,138,139,139,140,140,139,139,138,137,137,137,137,137,137,137,137,132,133,133,136,136,135,135,135,134,134,134,134,134,135,135,135,135,136,136,136,136,137,138,138,138,136,136,138,138,138,138,137,137,138,138,138,138,138,141,140,140,140,140,140,140,140,140,140,139,139,139,139,135,133,133,130,130,130,131,131,131,131,132,133,133,133,131,131,135,135,135,135,135,135,134,133,133,133,133,129,128,128,122,122,124,124,127,127,129,129,124,124,125,125,125,125,125,125,126,126,126,126,126,126,126,125,125,125,121,121]},"geometry":{"type":"LineString","coordinates":[[2.455202,48.703335,81.7],[2.455198,48.703339,81.7],[2.455279,48.703238,81.8],[2.455329,48.703198,81.8],[2.455581,48.702919,82],[2.455741,48.702768,82.1],[2.45578,48.702721,82.1],[2.456025,48.702494,82.3],[2.456343,48.702162,82.5],[2.45645,48.702078,82.6],[2.456648,48.701873,82.8],[2.456721,48.701822,82.9],[2.456943,48.701589,83],[2.45733,48.701207,83.2],[2.457446,48.701079,83.2],[2.457576,48.700958,83.3],[2.457627,48.700921,83.3],[2.457693,48.700897,83.3],[2.457783,48.700896,83.3],[2.457852,48.700884,83.2],[2.458129,48.700808,83.1],[2.458191,48.700775,83.2],[2.458513,48.700426,83.5],[2.458565,48.700383,83.5],[2.458699,48.700238,83.6],[2.458802,48.700147,83.6],[2.459264,48.699695,84.1],[2.459341,48.699608,84.2],[2.459575,48.699389,84.4],[2.459656,48.6993,84.5],[2.459842,48.699125,84.6],[2.460054,48.698901,84.7],[2.460076,48.698863,84.8],[2.46017,48.698785,84.8],[2.460439,48.698511,84.9],[2.460769,48.698201,84.9],[2.460933,48.698018,84.9],[2.461043,48.697935,84.9],[2.461051,48.697916,84.9],[2.461084,48.697917,84.8],[2.461093,48.697884,84.8],[2.461178,48.697818,84.9],[2.461197,48.69779,84.9],[2.461231,48.697767,84.9],[2.461346,48.697768,84.8],[2.461408,48.697756,84.8],[2.461447,48.697719,84.8],[2.461509,48.697621,84.7],[2.461584,48.697542,84.7],[2.46168,48.697459,84.7],[2.462222,48.696908,84.9],[2.46255,48.696588,85],[2.462783,48.696386,85.1],[2.462897,48.696236,85.2],[2.463044,48.696097,85.2],[2.463536,48.695587,85.5],[2.463833,48.695308,85.4],[2.463925,48.695208,85.5],[2.464463,48.694682,85.7],[2.464485,48.694627,85.8],[2.464451,48.694567,85.8],[2.46432,48.694488,85.9],[2.464273,48.69444,86],[2.464291,48.694387,86],[2.464409,48.694294,85.9],[2.465339,48.693372,85.9],[2.465548,48.693177,86],[2.466244,48.692477,85.8],[2.466675,48.69203,85.7],[2.467251,48.691487,86.1],[2.467675,48.691045,86.3],[2.467902,48.690824,86.5],[2.467938,48.690779,86.6],[2.46797,48.690676,86.7],[2.467957,48.690626,86.7],[2.467897,48.690521,86.8],[2.467804,48.690253,86.8],[2.467758,48.690151,86.8],[2.467686,48.689904,86.7],[2.467578,48.689745,86.7],[2.467614,48.689664,86.8],[2.467573,48.6896,86.8],[2.467519,48.689422,87.1],[2.467415,48.689193,87.3],[2.467087,48.688242,87.6],[2.467009,48.688072,87.6],[2.466958,48.687894,87.7],[2.466808,48.687493,87.9],[2.46674,48.687253,88],[2.46659,48.686822,88.4],[2.466533,48.686732,88.6],[2.466476,48.686568,88.6],[2.466487,48.686534,88.6],[2.466551,48.686515,88.6],[2.466613,48.68651,88.6],[2.466682,48.686487,88.5],[2.466738,48.686457,88.4],[2.466851,48.686345,88.3],[2.467098,48.686151,88],[2.467201,48.686042,87.9],[2.467313,48.685994,87.9],[2.467432,48.685926,87.9],[2.46786,48.68561,87.8],[2.467941,48.685519,87.8],[2.468045,48.685436,87.8],[2.468225,48.685315,87.7],[2.468274,48.68527,87.7],[2.46845,48.685149,87.7],[2.469368,48.684427,87.8],[2.469543,48.684302,87.8],[2.469645,48.684211,87.8],[2.470162,48.683819,87.8],[2.470268,48.683728,87.8],[2.470399,48.683642,87.7],[2.470973,48.683173,87.6],[2.471211,48.683002,87.6],[2.471377,48.682865,87.6],[2.471903,48.68246,87.4],[2.472027,48.682374,87.4],[2.472599,48.681932,87.3],[2.472873,48.681707,87.4],[2.473054,48.681577,87.3],[2.473753,48.681033,87],[2.474055,48.680808,86.9],[2.474168,48.680712,86.9],[2.475581,48.679624,86.5],[2.476173,48.679178,86.3],[2.476226,48.67913,86.3],[2.476868,48.678642,86.3],[2.477022,48.678506,86.3],[2.477379,48.678253,86.2],[2.478155,48.67764,86],[2.478211,48.677607,86],[2.478463,48.677406,86],[2.478673,48.677254,86],[2.479071,48.676934,86],[2.47929,48.676773,85.8],[2.479805,48.676365,85.9],[2.479916,48.676288,85.9],[2.480285,48.675996,86],[2.480447,48.675878,86],[2.480542,48.675791,86],[2.481596,48.674988,86],[2.481823,48.67483,86],[2.481954,48.674717,86],[2.482419,48.674364,86],[2.482434,48.674312,86],[2.482417,48.674256,85.9],[2.482367,48.67421,85.9],[2.482296,48.67417,85.9],[2.48222,48.674142,85.8],[2.482056,48.674107,85.8],[2.481054,48.673839,85.8],[2.480901,48.673791,85.8],[2.480664,48.67374,85.7],[2.480436,48.673671,85.7],[2.480034,48.67357,85.5],[2.479495,48.67342,85.6],[2.479023,48.673301,85.6],[2.47822,48.673083,85.6],[2.477873,48.672999,85.7],[2.477643,48.672922,85.8],[2.477616,48.672905,85.8],[2.477557,48.672898,85.8],[2.477469,48.672867,85.8],[2.477621,48.672917,85.8],[2.477672,48.672906,85.8],[2.477679,48.672883,85.8],[2.4777,48.672871,85.8],[2.477739,48.672826,85.8],[2.477838,48.672762,85.8],[2.477867,48.672752,85.8],[2.477872,48.672768,85.8],[2.477887,48.67276,85.8],[2.477894,48.672712,85.8],[2.477868,48.672644,85.8],[2.477833,48.672692,85.8],[2.477817,48.672692,85.8],[2.477774,48.672746,85.8],[2.477752,48.672756,85.8],[2.477746,48.672771,85.7],[2.477759,48.672788,85.7],[2.477719,48.672807,85.7],[2.477674,48.672813,85.7],[2.477673,48.672834,85.7],[2.477618,48.672908,85.7],[2.477613,48.672901,85.7],[2.477586,48.672918,85.7],[2.477591,48.672902,85.7],[2.477534,48.672869,85.7],[2.477463,48.672856,85.7],[2.477361,48.672822,85.8],[2.477304,48.672813,85.8],[2.477084,48.672749,85.8],[2.476364,48.672579,85.8],[2.475542,48.672361,85.8],[2.475387,48.672339,85.8],[2.475167,48.67227,85.8],[2.474939,48.672216,85.9],[2.474486,48.672089,85.9],[2.474404,48.672074,85.9],[2.473673,48.671865,85.9],[2.473424,48.671804,85.9],[2.473391,48.671809,85.9],[2.473336,48.671772,85.9],[2.473261,48.67176,85.9],[2.473172,48.671735,85.9],[2.473066,48.671716,86],[2.472907,48.671674,86.1],[2.472791,48.671653,86.1],[2.472752,48.671622,86.2],[2.472737,48.671582,86.2],[2.472741,48.671539,86.1],[2.472781,48.6715,86.1],[2.472841,48.671467,86.1],[2.472927,48.671396,86.1],[2.47314,48.671179,86.1],[2.473281,48.671059,86.2],[2.473771,48.670596,86.4],[2.473865,48.670523,86.4],[2.473985,48.670408,86.3],[2.474099,48.670335,86.3],[2.474231,48.670211,86.2],[2.474305,48.670113,86.2],[2.47439,48.670021,86.1],[2.474434,48.66999,86.1],[2.474552,48.669867,86.1],[2.47465,48.669789,86.1],[2.474765,48.669663,86.1],[2.4749,48.669549,86.2],[2.475209,48.669243,86.2],[2.475573,48.668902,86.3],[2.475641,48.668853,86.4],[2.475691,48.668855,86.4],[2.47586,48.668925,86.5],[2.47598,48.668949,86.5],[2.476097,48.668986,86.6],[2.476468,48.669079,86.6],[2.476537,48.669085,86.5],[2.476598,48.669106,86.5],[2.477203,48.669249,86.6],[2.4774,48.669305,86.6],[2.477866,48.66942,86.7],[2.477925,48.669443,86.7],[2.478453,48.669575,86.7],[2.478584,48.6696,86.7],[2.478968,48.6697,86.6],[2.47906,48.669703,86.6],[2.479188,48.669733,86.6],[2.479219,48.669747,86.6],[2.479334,48.66977,86.6],[2.479404,48.669798,86.6],[2.479471,48.669795,86.6],[2.479458,48.669803,86.6],[2.479434,48.669799,86.6],[2.479371,48.669756,86.6],[2.479003,48.669681,86.6],[2.478833,48.669624,86.6],[2.47852,48.669538,86.7],[2.478334,48.669504,86.7],[2.47811,48.669446,86.7],[2.477993,48.669427,86.7],[2.477495,48.669315,86.6],[2.477372,48.669279,86.6],[2.476912,48.669173,86.5],[2.476452,48.669049,86.6],[2.475872,48.668922,86.5],[2.475695,48.668865,86.4],[2.475662,48.668839,86.4],[2.475668,48.668812,86.4],[2.475723,48.668739,86.4],[2.475948,48.668527,86.5],[2.476074,48.668421,86.5],[2.476107,48.66838,86.5],[2.476441,48.668069,86.6],[2.476603,48.667904,86.7],[2.476655,48.667816,86.7],[2.476832,48.667668,86.8],[2.476902,48.667599,86.9],[2.476944,48.66757,86.9],[2.477002,48.667556,86.9],[2.477146,48.667567,87],[2.477493,48.667552,87],[2.477631,48.667536,86.9],[2.477852,48.667536,87],[2.478323,48.667507,87.1],[2.478703,48.667506,87.1],[2.47884,48.667484,87.1],[2.479034,48.66748,87.1],[2.479261,48.667461,87.1],[2.479398,48.667458,87.1],[2.479807,48.66741,87.2],[2.479935,48.667377,87.2],[2.480157,48.667288,87.1],[2.480219,48.667246,87.1],[2.480277,48.667234,87.1],[2.480462,48.667281,87.1],[2.480663,48.66736,87],[2.4808,48.667376,86.9],[2.480946,48.667375,86.9],[2.481059,48.667358,86.9],[2.481263,48.667361,86.9],[2.481522,48.667343,87],[2.481835,48.667306,87.3],[2.482013,48.667315,87.4],[2.482385,48.667316,87.8],[2.482575,48.667284,87.8],[2.482755,48.667267,87.7],[2.482821,48.667274,87.6],[2.482882,48.667268,87.5],[2.48328,48.66728,87],[2.483411,48.667259,86.8],[2.483529,48.667261,86.8],[2.483911,48.66723,86.6],[2.484016,48.667235,86.5],[2.484184,48.667218,86.4],[2.484308,48.667214,86.3],[2.484545,48.667182,86.2],[2.484618,48.667193,86.1],[2.484854,48.667187,85.9],[2.484905,48.667194,85.9],[2.485144,48.66718,85.7],[2.485391,48.667125,85.7],[2.485473,48.667074,85.6],[2.485552,48.667005,85.5],[2.485868,48.666686,85.4],[2.486189,48.666402,85.4],[2.486274,48.666341,85.4],[2.486505,48.666105,85.3],[2.486629,48.666004,85.3],[2.486664,48.665964,85.3],[2.486861,48.665794,85.4],[2.486895,48.665753,85.5],[2.487204,48.6655,85.6],[2.487333,48.66536,85.7],[2.487621,48.665118,85.9],[2.48765,48.665085,86],[2.487815,48.664948,86.3],[2.488313,48.664473,86.5],[2.488343,48.664434,86.5],[2.488407,48.664406,86.5],[2.488502,48.664331,86.4],[2.488461,48.664321,86.4],[2.488456,48.664343,86.4],[2.488484,48.664363,86.4],[2.488509,48.664364,86.3],[2.488539,48.664345,86.3],[2.488547,48.664349,86.3],[2.488505,48.664273,86.3],[2.488514,48.664228,86.3],[2.488551,48.664214,86.3],[2.488572,48.664192,86.3],[2.48857,48.664166,86.3],[2.488592,48.66411,86.3],[2.488649,48.664067,86.2],[2.488796,48.664002,86.2],[2.488906,48.663933,86.2],[2.489021,48.663812,86.1],[2.489235,48.663619,86],[2.489281,48.663595,86],[2.489502,48.663376,86.2],[2.48956,48.663294,86.3],[2.489534,48.663268,86.3],[2.489389,48.663228,86.3],[2.489347,48.663224,86.3],[2.489018,48.663136,86.3],[2.488444,48.663006,86.5],[2.488304,48.662989,86.5],[2.488251,48.662967,86.5],[2.488127,48.662936,86.5],[2.488079,48.662914,86.6],[2.487899,48.662864,86.6],[2.48777,48.662843,86.6],[2.487715,48.662825,86.6],[2.487326,48.662746,86.6],[2.487077,48.662681,86.6],[2.48701,48.66267,86.6],[2.486883,48.662634,86.6],[2.486617,48.662574,86.6],[2.486567,48.662554,86.6],[2.486401,48.662521,86.6],[2.486259,48.662453,86.6],[2.486159,48.662424,86.6],[2.486109,48.66242,86.6],[2.486149,48.662386,86.6],[2.486163,48.662338,86.7],[2.486191,48.662309,86.7],[2.486245,48.662138,86.9],[2.486259,48.662037,87],[2.486333,48.661896,87.2],[2.486376,48.66184,87.3],[2.486406,48.661713,87.4],[2.486425,48.661682,87.5],[2.486438,48.661609,87.5],[2.486474,48.661517,87.5],[2.486482,48.661409,87.4],[2.486533,48.661313,87.3],[2.486702,48.66109,86.8],[2.486963,48.660897,86.2],[2.487016,48.660871,86.1],[2.487268,48.660712,85.7],[2.487451,48.660637,85.6],[2.487529,48.660617,85.5],[2.487579,48.660619,85.5],[2.48768,48.660598,85.5],[2.487903,48.660573,85.8],[2.487995,48.660556,85.9],[2.488139,48.660545,86.1],[2.488232,48.660515,86.4],[2.488333,48.660497,86.5],[2.488454,48.660493,86.6],[2.488634,48.660472,86.7],[2.488727,48.66048,86.8],[2.488836,48.660457,86.9],[2.48893,48.660424,87],[2.489,48.660376,87.1],[2.48905,48.660201,87.4],[2.489098,48.660132,87.5],[2.489123,48.660067,87.6],[2.489148,48.660038,87.6],[2.489208,48.65981,87.6],[2.489239,48.659754,87.5],[2.489246,48.659699,87.5],[2.489317,48.659602,87.2],[2.489347,48.659437,87],[2.48944,48.659277,86.6],[2.489501,48.659094,86.3],[2.489525,48.659056,86.1],[2.489593,48.658826,85.5],[2.489619,48.658774,85.3],[2.489611,48.658704,85],[2.489623,48.658669,84.9],[2.489704,48.658587,84.4],[2.489755,48.658474,84],[2.489754,48.658447,83.9],[2.489736,48.658434,83.9],[2.48976,48.658365,83.7],[2.489799,48.658306,83.6],[2.489816,48.658257,83.5],[2.489858,48.658187,83.5],[2.489856,48.658168,83.5],[2.48989,48.658099,83.4],[2.4899,48.658051,83.4],[2.489913,48.658048,83.4],[2.489918,48.658023,83.4],[2.489902,48.657992,83.4],[2.489888,48.657996,83.4],[2.489887,48.657916,83.4],[2.489913,48.657881,83.4],[2.490023,48.657633,83.6],[2.490064,48.657512,83.7],[2.490142,48.657346,83.7],[2.490151,48.657289,83.6],[2.490125,48.657242,83.6],[2.490214,48.657237,83.6],[2.490293,48.657214,83.5],[2.490362,48.657182,83.5],[2.490402,48.657181,83.5],[2.490546,48.657155,83.4],[2.490613,48.657134,83.4],[2.490703,48.657119,83.3],[2.490761,48.657089,83.3],[2.490809,48.657098,83.3],[2.490943,48.657079,83.3],[2.491073,48.657049,83.2],[2.491154,48.657043,83.2],[2.491394,48.656986,83.2],[2.491645,48.656954,83.3],[2.491746,48.656916,83.3],[2.491862,48.656906,83.4],[2.492118,48.656831,83.5],[2.492287,48.656813,83.6],[2.492341,48.656817,83.7],[2.492386,48.656833,83.7],[2.492424,48.656858,83.8],[2.492496,48.656947,84.2],[2.492542,48.656961,84.4],[2.492602,48.65696,84.4],[2.492653,48.656937,84.5],[2.492698,48.656864,84.5],[2.492713,48.656756,84.6],[2.492749,48.656687,84.6],[2.492792,48.656498,84.2],[2.492793,48.656417,83.9],[2.492769,48.656377,83.8],[2.492688,48.656321,83.7],[2.492565,48.656293,83.8],[2.49247,48.656247,83.9],[2.49244,48.656199,83.9],[2.49241,48.656177,83.8],[2.492369,48.656162,83.8],[2.492314,48.656102,83.7],[2.4923,48.656069,83.7],[2.492044,48.655752,83.6],[2.491942,48.655651,83.5],[2.491881,48.65557,83.6],[2.491331,48.654962,83.7],[2.491144,48.654721,83.7],[2.491031,48.654592,83.7],[2.490967,48.654499,83.8],[2.490924,48.654464,83.8],[2.490885,48.654379,83.8],[2.490854,48.654357,83.8],[2.490802,48.654369,83.8],[2.490774,48.654366,83.8],[2.490784,48.654344,83.7],[2.490819,48.654329,83.7],[2.490863,48.654328,83.7],[2.49089,48.654406,83.6],[2.490929,48.654424,83.6],[2.490986,48.654425,83.5],[2.4911,48.654411,83.4],[2.49143,48.654418,83.3],[2.491745,48.654445,83.2],[2.491783,48.654442,83.2],[2.491789,48.654396,83.2],[2.491815,48.654365,83.2],[2.491857,48.654341,83.2],[2.49188,48.654304,83.1],[2.49186,48.654284,83.1],[2.491836,48.654276,83.1],[2.491836,48.65426,83.1],[2.491889,48.654181,83.1],[2.491853,48.654135,83.1],[2.491847,48.654109,83.1],[2.49188,48.654052,83.1],[2.491868,48.654003,83.1],[2.491875,48.653974,83.1],[2.491849,48.653847,83.1],[2.491858,48.653764,83],[2.49185,48.653689,83],[2.491861,48.65365,82.9],[2.49189,48.653638,82.9],[2.491878,48.653648,82.9],[2.491873,48.653616,82.9],[2.491881,48.653604,82.8],[2.491851,48.653408,82.7],[2.49185,48.653237,82.5],[2.491834,48.653178,82.4],[2.491788,48.653102,82.3],[2.491815,48.652944,82.1],[2.491791,48.652877,82],[2.491763,48.65284,82],[2.491751,48.652785,81.9],[2.491783,48.652687,81.8],[2.491768,48.652655,81.8],[2.491725,48.652605,81.7],[2.491737,48.652546,81.7],[2.491717,48.65243,81.6],[2.491751,48.65237,81.5],[2.491764,48.652293,81.5],[2.491807,48.652219,81.5],[2.49182,48.652136,81.4],[2.491838,48.652131,81.4],[2.491838,48.652136,81.4],[2.491843,48.652119,81.4],[2.491853,48.652121,81.4],[2.491819,48.652082,81.3],[2.491729,48.652076,81.3],[2.491743,48.652027,81.2],[2.491815,48.651997,81.2],[2.491783,48.651997,81.1],[2.491849,48.651978,81.1],[2.491892,48.652002,81.1],[2.491944,48.651999,81.1],[2.491975,48.651954,81.1],[2.491973,48.651917,81],[2.491985,48.651909,81],[2.491985,48.651886,81],[2.492006,48.65186,81.1],[2.49205,48.651748,81.1],[2.492089,48.651702,81.1],[2.49209,48.651677,81.1],[2.492069,48.651671,81.2],[2.4921,48.651617,81.2],[2.492025,48.651641,81.3],[2.491983,48.651637,81.3],[2.491908,48.651643,81.4],[2.491761,48.65164,81.5],[2.491643,48.651624,81.6],[2.491517,48.651632,81.7],[2.49147,48.651618,81.8],[2.491476,48.651609,81.8],[2.491477,48.651621,81.8],[2.491966,48.651729,82.2],[2.492041,48.651736,82.3],[2.492062,48.651729,82.3],[2.492057,48.651719,82.3],[2.492069,48.651696,82.4],[2.492042,48.651647,82.4],[2.491966,48.651583,82.5],[2.491918,48.651526,82.5],[2.491872,48.65151,82.6],[2.491894,48.651472,82.6],[2.491877,48.651454,82.6],[2.491813,48.651459,82.6],[2.491772,48.65144,82.6],[2.491799,48.651426,82.6],[2.491795,48.651399,82.6],[2.491693,48.651319,82.6],[2.491662,48.65131,82.6],[2.49154,48.651303,82.6],[2.491518,48.651295,82.6],[2.491362,48.651306,82.6],[2.49129,48.651337,82.6],[2.491243,48.651341,82.6],[2.491172,48.651335,82.6],[2.491128,48.651349,82.6],[2.491095,48.65135,82.6],[2.491007,48.651373,82.6],[2.490968,48.651364,82.7],[2.490873,48.65137,82.7],[2.49074,48.651359,82.8],[2.490644,48.651333,82.8],[2.490591,48.65136,82.9],[2.490425,48.651342,82.9],[2.490383,48.651331,83],[2.490371,48.651289,83],[2.490394,48.651265,83],[2.490417,48.651184,83.1],[2.490378,48.651173,83.1],[2.490316,48.651174,83.1],[2.49024,48.651192,83.2],[2.490106,48.651178,83.2],[2.490046,48.651153,83.3],[2.490001,48.651147,83.3],[2.489885,48.651152,83.3],[2.489805,48.651131,83.4],[2.489668,48.651124,83.4],[2.489448,48.651088,83.6],[2.48935,48.651063,83.6],[2.489261,48.651057,83.7],[2.489189,48.651061,83.8],[2.489135,48.651055,83.8],[2.488963,48.651064,83.9],[2.488813,48.651103,83.9],[2.488777,48.6511,83.9],[2.488724,48.651075,83.9],[2.48868,48.651079,83.9],[2.488568,48.651129,84],[2.488527,48.651138,84],[2.488489,48.651134,84],[2.488425,48.651098,84],[2.488388,48.651047,84.1],[2.488386,48.650981,84.1],[2.48835,48.650945,84.2],[2.488339,48.650887,84.3],[2.488293,48.65086,84.3],[2.488162,48.650844,84.4],[2.488003,48.650764,84.6],[2.487918,48.650747,84.6],[2.487825,48.650799,84.6],[2.487652,48.650808,84.6],[2.487465,48.650846,84.6],[2.4873,48.650904,84.6],[2.487175,48.650986,84.7],[2.48709,48.651019,84.7],[2.487009,48.651066,84.7],[2.486968,48.651079,84.8],[2.486853,48.651094,84.8],[2.486752,48.651116,84.8],[2.486679,48.6511,84.9],[2.486644,48.651077,84.9],[2.486587,48.650974,85],[2.486588,48.650908,85],[2.486531,48.650865,85.1],[2.486426,48.650863,85.1],[2.486388,48.650879,85.1],[2.486372,48.650896,85.1],[2.486355,48.65089,85.1],[2.486355,48.650873,85.1],[2.486323,48.650856,85.1],[2.486273,48.650846,85],[2.486137,48.650875,85],[2.485974,48.650895,84.9],[2.485824,48.650987,84.9],[2.485786,48.65099,84.9],[2.485723,48.650981,84.9],[2.485639,48.65095,84.9],[2.485597,48.650942,85],[2.485526,48.650868,85],[2.485434,48.650806,85.1],[2.485371,48.6508,85.1],[2.48523,48.650739,85.1],[2.485164,48.650697,85.1],[2.484938,48.650616,85.1],[2.484898,48.650608,85.1],[2.484774,48.650603,85.2],[2.484738,48.650549,85.2],[2.484727,48.650507,85.2],[2.48453,48.650472,85.3],[2.484475,48.650437,85.3],[2.484388,48.650442,85.4],[2.484352,48.650434,85.4],[2.484337,48.65042,85.4],[2.484341,48.650399,85.5],[2.484393,48.650359,85.5],[2.484364,48.650314,85.6],[2.484326,48.650304,85.6],[2.48432,48.650281,85.6],[2.484376,48.650243,85.6],[2.484383,48.650227,85.6],[2.484361,48.650212,85.6],[2.484214,48.650172,85.4],[2.484119,48.650179,85.4],[2.484083,48.65017,85.4],[2.484042,48.650132,85.4],[2.484041,48.649991,85.4],[2.484014,48.649944,85.4],[2.483938,48.649916,85.4],[2.483808,48.649906,85.5],[2.483691,48.649923,85.5],[2.48358,48.649923,85.5],[2.483445,48.649893,85.6],[2.483366,48.649837,85.6],[2.48331,48.649824,85.7],[2.483251,48.649795,85.7],[2.483227,48.649771,85.7],[2.483104,48.649691,85.8],[2.483078,48.64964,85.8],[2.483083,48.649582,85.8],[2.483038,48.649518,85.9],[2.483,48.649486,85.9],[2.482961,48.649434,85.9],[2.482935,48.649414,85.9],[2.482847,48.649378,86],[2.482796,48.649345,86],[2.482721,48.649325,86.1],[2.482579,48.649235,86.1],[2.482556,48.649178,86],[2.482553,48.64913,86],[2.482535,48.649106,86],[2.482496,48.649082,85.9],[2.482416,48.649072,85.9],[2.482354,48.649035,85.9],[2.482274,48.649022,85.9],[2.482152,48.649028,85.9],[2.481905,48.648998,85.9],[2.481835,48.649012,86],[2.481632,48.648975,86],[2.481578,48.648979,86.1],[2.481473,48.648971,86.1],[2.481344,48.648937,86.2],[2.481253,48.648945,86.2],[2.481095,48.648931,86.2],[2.481057,48.648937,86.2],[2.480835,48.648878,86.2],[2.480719,48.648862,86.2],[2.480678,48.648867,86.2],[2.480488,48.648846,86.2],[2.480449,48.648849,86.2],[2.480416,48.64884,86.2],[2.480269,48.648836,86.3],[2.480166,48.648853,86.3],[2.480131,48.648841,86.3],[2.48004,48.648828,86.3],[2.479959,48.648832,86.4],[2.479885,48.648863,86.4],[2.479838,48.648892,86.4],[2.479796,48.648932,86.4],[2.479686,48.648989,86.5],[2.479595,48.649015,86.5],[2.4795,48.649008,86.5],[2.479462,48.648998,86.6],[2.479347,48.648936,86.6],[2.479298,48.648935,86.6],[2.47912,48.648987,86.7],[2.4791,48.649009,86.7],[2.479147,48.649072,86.6],[2.479154,48.649098,86.6],[2.479175,48.649115,86.6],[2.479244,48.649227,86.6],[2.479285,48.649265,86.6],[2.479302,48.6493,86.6],[2.479284,48.649385,86.6],[2.479344,48.649723,86.6],[2.47939,48.649786,86.6],[2.479401,48.649876,86.6],[2.479542,48.650129,86.6],[2.47965,48.650253,86.5],[2.479753,48.65033,86.6],[2.479869,48.650446,86.6],[2.479919,48.650598,86.6],[2.479964,48.650659,86.7],[2.480015,48.650701,86.7],[2.480031,48.650837,86.7],[2.480021,48.650966,86.6],[2.480048,48.651018,86.6],[2.480086,48.651169,86.6],[2.480088,48.651222,86.7],[2.480112,48.651285,86.7],[2.480117,48.651338,86.7],[2.480147,48.65139,86.7],[2.480151,48.651476,86.7],[2.480175,48.651505,86.7],[2.48019,48.651568,86.8],[2.48026,48.651646,86.8],[2.480257,48.651818,86.8],[2.480234,48.651898,86.6],[2.480262,48.651952,86.5],[2.48026,48.651971,86.5],[2.480243,48.65199,86.5],[2.480081,48.652064,86.3],[2.480024,48.652108,86.2],[2.479951,48.652143,86.2],[2.479897,48.652211,86.2],[2.479867,48.652223,86.2],[2.479815,48.652261,86.2],[2.479748,48.652359,86.2],[2.479694,48.652398,86.2],[2.479655,48.652413,86.2],[2.47949,48.652507,86.2],[2.479447,48.652517,86.2],[2.479348,48.652564,86.3],[2.479278,48.652582,86.3],[2.479222,48.652576,86.4],[2.479107,48.65259,86.4],[2.478964,48.652648,86.5],[2.478946,48.652678,86.5],[2.47895,48.652738,86.6],[2.478937,48.652793,86.6],[2.478956,48.652899,86.6],[2.479034,48.652986,86.6],[2.479026,48.653016,86.6],[2.479001,48.653043,86.7],[2.478936,48.653177,86.8],[2.478909,48.65319,86.8],[2.478797,48.653205,86.8],[2.478537,48.65321,86.8],[2.478366,48.653189,86.8],[2.478275,48.653193,86.8],[2.477995,48.653164,87],[2.477888,48.653113,87.1],[2.477765,48.65311,87.1],[2.477645,48.653096,87.1],[2.477486,48.653047,87.1],[2.477286,48.653017,87.1],[2.476958,48.653011,87.3],[2.476861,48.652988,87.4],[2.476816,48.652965,87.4],[2.476772,48.652966,87.5],[2.476544,48.652926,87.7],[2.476478,48.652922,87.7],[2.476373,48.652903,87.8],[2.476318,48.652912,87.8],[2.476282,48.652938,87.8],[2.476234,48.652995,87.8],[2.47617,48.653045,87.8],[2.476156,48.653074,87.7],[2.476015,48.653157,87.7],[2.475914,48.653268,87.6],[2.475842,48.653317,87.6],[2.475756,48.653362,87.6],[2.475688,48.653414,87.6],[2.47556,48.653535,87.6],[2.475351,48.653631,87.7],[2.475278,48.653653,87.7],[2.475255,48.653675,87.7],[2.475146,48.653738,87.7],[2.475049,48.653812,87.6],[2.475004,48.653901,87.6],[2.474963,48.653949,87.5],[2.474952,48.653998,87.5],[2.474897,48.654068,87.5],[2.474834,48.654127,87.6],[2.474803,48.654139,87.6],[2.474711,48.654137,87.6],[2.474496,48.654291,87.4],[2.474426,48.65433,87.3],[2.474305,48.654457,87.2],[2.474215,48.654532,87.2],[2.474168,48.654616,87.2],[2.474153,48.65472,87.2],[2.474077,48.654772,87.2],[2.474074,48.65481,87.2],[2.473985,48.654861,87.3],[2.473825,48.65485,87.3],[2.473735,48.654813,87.3],[2.473449,48.654727,87.3],[2.473325,48.6547,87.3],[2.473009,48.654611,87.2],[2.47281,48.654564,87.2],[2.4726,48.65454,87.2],[2.471389,48.654251,87],[2.470977,48.654164,87.1],[2.470899,48.65414,87.1],[2.470534,48.65406,87],[2.470167,48.653963,86.9],[2.469929,48.653917,86.9],[2.469629,48.653841,86.9],[2.468704,48.653635,86.5],[2.468383,48.65355,86.3],[2.467998,48.653462,86.2],[2.467831,48.653406,86.1],[2.467731,48.65339,85.9],[2.467515,48.653329,85.6],[2.467053,48.653239,85.2],[2.466435,48.653093,84.8],[2.466041,48.652983,84.7],[2.465912,48.652957,84.7],[2.465783,48.652944,84.6],[2.465775,48.652933,84.6],[2.465791,48.652923,84.6],[2.465842,48.652936,84.6],[2.465869,48.652957,84.6],[2.46593,48.652968,84.6],[2.466007,48.653003,84.6],[2.466034,48.652995,84.6],[2.466061,48.653003,84.6],[2.466088,48.653033,84.7],[2.466116,48.653043,84.7],[2.466168,48.653047,84.7],[2.466167,48.653057,84.7],[2.466167,48.653036,84.7],[2.466128,48.653054,84.6],[2.466128,48.653099,84.6],[2.4662,48.653193,84.5],[2.466185,48.653224,84.6],[2.46619,48.653241,84.6],[2.466173,48.653254,84.6],[2.466075,48.653455,84.8],[2.466076,48.653628,84.7],[2.466041,48.653711,84.7],[2.466058,48.653752,84.7],[2.466088,48.653786,84.7],[2.466077,48.653797,84.7],[2.466131,48.653829,84.6],[2.466125,48.653822,84.6],[2.466148,48.653838,84.6],[2.466159,48.653833,84.6],[2.466087,48.654011,84.6],[2.466101,48.654048,84.6],[2.46608,48.654103,84.7],[2.466068,48.65435,84.7],[2.466052,48.654437,84.7],[2.466021,48.654459,84.8],[2.46602,48.654491,84.8],[2.466045,48.654543,84.8],[2.466034,48.654542,84.9],[2.466005,48.65457,84.9],[2.46601,48.654595,84.9],[2.465967,48.654702,85],[2.466006,48.654772,85],[2.466069,48.654832,85],[2.466119,48.654903,85.1],[2.466127,48.654955,85.1],[2.466183,48.655011,85.2],[2.46623,48.655132,85.3],[2.466258,48.655166,85.4],[2.466257,48.655284,85.5],[2.466273,48.655372,85.7],[2.466265,48.65537,85.7],[2.466316,48.655534,85.7],[2.466308,48.655734,85.6],[2.466317,48.65577,85.7],[2.466294,48.655849,85.7],[2.466283,48.655849,85.7],[2.466257,48.655922,85.8],[2.466258,48.655962,85.9],[2.466212,48.656092,86.1],[2.4662,48.656103,86.1],[2.466205,48.656131,86.1],[2.46619,48.656161,86.1],[2.466215,48.656199,86.2],[2.466215,48.65623,86.2],[2.466184,48.656262,86.3],[2.466165,48.656268,86.3],[2.466157,48.656291,86.3],[2.466173,48.656303,86.3],[2.466139,48.656421,86.3],[2.466108,48.656485,86.3],[2.466087,48.65658,86.4],[2.466031,48.656657,86.4],[2.466006,48.656738,86.5],[2.466011,48.656799,86.6],[2.465993,48.656861,86.6],[2.465949,48.65693,86.6],[2.465914,48.657049,86.6],[2.465916,48.65712,86.6],[2.465876,48.657307,86.7],[2.465823,48.657423,86.9],[2.465847,48.657465,86.9],[2.4659,48.657502,86.9],[2.465958,48.657502,86.9],[2.46598,48.657519,87],[2.466323,48.657603,87],[2.466526,48.657636,87.1],[2.466669,48.657687,87.1],[2.466778,48.657705,87.1],[2.46692,48.657758,87.2],[2.467009,48.657778,87.2],[2.467019,48.657801,87.2],[2.466902,48.657927,87.2],[2.466833,48.657973,87.2],[2.466753,48.658004,87.2],[2.466504,48.658164,87.3],[2.466431,48.658265,87.3],[2.466412,48.658313,87.4],[2.466405,48.658436,87.4],[2.466478,48.658667,87.6],[2.466455,48.658746,87.6],[2.466404,48.658796,87.6],[2.466359,48.658818,87.6],[2.46633,48.658843,87.6],[2.466079,48.658992,87.5],[2.465995,48.659067,87.5],[2.465956,48.659153,87.5],[2.465945,48.659327,87.4],[2.465899,48.659404,87.4],[2.465884,48.659578,87.3],[2.465854,48.659657,87.3],[2.465822,48.659697,87.3],[2.465774,48.659733,87.3],[2.465565,48.659824,87.3],[2.465486,48.65988,87.3],[2.465354,48.659937,87.4],[2.465304,48.659967,87.4],[2.465159,48.660008,87.4],[2.464887,48.660132,87.3],[2.464779,48.660222,87.3],[2.464703,48.660403,87.1],[2.464703,48.660565,87],[2.464683,48.660605,86.9],[2.464646,48.660644,86.9],[2.464455,48.660769,87],[2.464319,48.660925,87],[2.46427,48.66101,87],[2.464187,48.66108,87],[2.464131,48.661102,87],[2.464056,48.661113,87],[2.463936,48.661154,87],[2.463825,48.661327,86.9],[2.463677,48.661511,86.8],[2.463669,48.661545,86.8],[2.463574,48.661726,86.7],[2.463424,48.661863,86.7],[2.463395,48.661945,86.7],[2.463229,48.662204,86.8],[2.463216,48.662242,86.8],[2.463123,48.662349,86.8],[2.463078,48.662456,86.8],[2.463051,48.662485,86.8],[2.463001,48.662517,86.8],[2.46296,48.662604,86.8],[2.462961,48.662671,86.9],[2.462902,48.662751,86.9],[2.462896,48.662801,86.9],[2.462831,48.66289,86.9],[2.462825,48.662915,86.9],[2.462783,48.66297,86.8],[2.46271,48.663022,86.8],[2.462663,48.663085,86.8],[2.462653,48.66315,86.8],[2.462586,48.663241,86.8],[2.46253,48.663297,86.9],[2.462508,48.663352,86.9],[2.462441,48.663456,87],[2.462433,48.663489,87],[2.462383,48.663558,87],[2.462332,48.663604,87],[2.462259,48.663716,87],[2.462259,48.663757,87],[2.46224,48.663812,87],[2.462233,48.66392,87],[2.462209,48.663983,87],[2.462178,48.664004,87],[2.46213,48.664112,87],[2.46212,48.664169,87.1],[2.462015,48.664394,87.2],[2.462006,48.664447,87.1],[2.461916,48.664564,87.1],[2.461881,48.664702,87.1],[2.461759,48.664965,87.3],[2.461586,48.665227,87.5],[2.461555,48.665259,87.5],[2.461533,48.6653,87.6],[2.461378,48.665471,87.6],[2.461345,48.665548,87.6],[2.461094,48.665845,87.5],[2.461038,48.665925,87.5],[2.460835,48.666107,87.6],[2.460773,48.666187,87.6],[2.460564,48.666396,87.6],[2.460523,48.666475,87.7],[2.460423,48.666596,87.7],[2.460388,48.666671,87.7],[2.460276,48.66683,87.8],[2.460115,48.667024,87.9],[2.460027,48.667097,87.9],[2.459845,48.667282,87.9],[2.45971,48.667445,87.9],[2.459391,48.667769,88.1],[2.459357,48.667844,88.2],[2.459318,48.667875,88.2],[2.459129,48.668092,88.2],[2.459047,48.668162,88.2],[2.458889,48.668356,88.4],[2.458849,48.668387,88.4],[2.458784,48.66847,88.5],[2.458769,48.668514,88.5],[2.458612,48.668702,88.5],[2.458627,48.668675,88.5],[2.458668,48.66865,88.5],[2.458676,48.66863,88.5],[2.458809,48.668488,88.5],[2.45886,48.668474,88.5],[2.458915,48.66848,88.4],[2.458951,48.668493,88.4],[2.458972,48.668511,88.4],[2.458987,48.668583,88.3],[2.458964,48.668614,88.3],[2.458938,48.668702,88.2],[2.458934,48.668787,88.2],[2.458899,48.668918,88.1],[2.458894,48.669047,88.1],[2.458866,48.669138,88],[2.458957,48.669273,88],[2.458973,48.669353,88],[2.458965,48.669473,87.9],[2.459021,48.669597,87.9],[2.459035,48.669687,87.8],[2.459069,48.669798,87.7],[2.459082,48.669949,87.6],[2.45915,48.670233,87.5],[2.459133,48.670321,87.5],[2.459138,48.67036,87.5],[2.459226,48.670607,87.3],[2.459217,48.670704,87.2],[2.459229,48.670744,87.1],[2.459284,48.670833,87],[2.459302,48.670925,87],[2.459349,48.670994,87],[2.459361,48.671177,87],[2.459377,48.671219,86.9],[2.459405,48.671397,86.8],[2.459403,48.671492,86.8],[2.459437,48.671624,86.9],[2.459478,48.671709,86.9],[2.459494,48.671905,86.9],[2.459512,48.671962,87],[2.459518,48.672071,87],[2.459508,48.672057,87],[2.459524,48.672063,87],[2.459562,48.672021,87],[2.459563,48.67198,87],[2.459523,48.671906,87],[2.459523,48.671805,86.9],[2.459546,48.671775,86.9],[2.459575,48.671774,86.9],[2.45994,48.671857,86.7],[2.460047,48.671892,86.6],[2.460162,48.671917,86.6],[2.460271,48.671966,86.5],[2.460523,48.672054,86.2],[2.460667,48.672094,86.1],[2.460742,48.672107,86],[2.460825,48.672138,86],[2.460904,48.672146,86],[2.461053,48.672188,85.9],[2.461215,48.672209,85.9],[2.461428,48.672284,85.7],[2.461869,48.672405,85.5],[2.461937,48.672438,85.4],[2.462337,48.672537,85.3],[2.462418,48.672564,85.4],[2.462715,48.672632,85.5],[2.4628,48.672639,85.5],[2.46293,48.67268,85.5],[2.462951,48.67267,85.5],[2.462886,48.672673,85.5],[2.462786,48.672615,85.5],[2.462736,48.672615,85.4],[2.46264,48.672631,85.4],[2.462607,48.672668,85.4],[2.462583,48.67275,85.4],[2.462604,48.672885,85.4],[2.462648,48.672969,85.4],[2.462768,48.673381,85.4],[2.462786,48.673492,85.3],[2.462844,48.673653,85.3],[2.462866,48.673768,85.2],[2.463007,48.674212,85.2],[2.463098,48.674542,85.3],[2.463175,48.67476,85.4],[2.463259,48.675094,85.6],[2.463286,48.675146,85.6],[2.463313,48.67525,85.7],[2.463375,48.675416,85.8],[2.463433,48.675653,85.8],[2.463505,48.675869,85.9],[2.463575,48.676169,86],[2.463685,48.676522,86.1],[2.463763,48.676814,86.3],[2.463807,48.676918,86.3],[2.46389,48.677275,86.3],[2.463966,48.677491,86.4],[2.464067,48.677883,86.6],[2.46428,48.678583,86.6],[2.464329,48.67881,86.8],[2.464353,48.678864,86.8],[2.464465,48.679272,87.1],[2.464443,48.679374,87],[2.46447,48.679422,87.1],[2.464519,48.679458,87.1],[2.464546,48.6795,87],[2.464603,48.67965,87],[2.464655,48.679919,87.1],[2.464706,48.680026,87.1],[2.464842,48.680575,87.4],[2.464903,48.680744,87.5],[2.464977,48.681041,87.5],[2.465001,48.681099,87.5],[2.465126,48.681566,87.6],[2.46518,48.681811,87.7],[2.465235,48.68198,87.8],[2.465273,48.682147,87.8],[2.465357,48.68242,87.8],[2.4654,48.682604,87.8],[2.46545,48.682726,87.7],[2.465496,48.682921,87.7],[2.465557,48.683109,87.7],[2.465616,48.68342,87.6],[2.465794,48.68409,87.8],[2.465833,48.684194,87.8],[2.46588,48.68443,87.8],[2.465907,48.684485,87.8],[2.466057,48.685062,87.9],[2.466156,48.685329,87.9],[2.46619,48.685508,87.9],[2.46621,48.685559,88],[2.466212,48.685609,88],[2.466245,48.685745,88.2],[2.46629,48.685825,88.3],[2.466295,48.685875,88.3],[2.466284,48.685918,88.3],[2.466375,48.686218,88.5],[2.466456,48.686603,88.6],[2.466504,48.686699,88.6],[2.466818,48.687494,87.9],[2.466869,48.687663,87.8],[2.466902,48.687716,87.8],[2.466911,48.687774,87.7],[2.466962,48.687886,87.7],[2.467014,48.688057,87.6],[2.467064,48.68817,87.6],[2.46712,48.688345,87.5],[2.467179,48.688581,87.5],[2.467237,48.688754,87.5],[2.467332,48.688987,87.5],[2.467434,48.689297,87.2],[2.46758,48.689598,86.8],[2.467619,48.689748,86.7],[2.467639,48.689963,86.7],[2.467711,48.69004,86.7],[2.467738,48.690082,86.7],[2.467773,48.690208,86.8],[2.467858,48.690421,86.8],[2.467945,48.690704,86.6],[2.467924,48.690769,86.6],[2.467844,48.690875,86.5],[2.467674,48.691017,86.3],[2.467583,48.691122,86.3],[2.467097,48.691613,86],[2.467067,48.691665,86],[2.466995,48.691713,86],[2.466895,48.691797,85.9],[2.4668,48.691904,85.8],[2.466597,48.692071,85.7],[2.466568,48.692113,85.7],[2.466391,48.692275,85.7],[2.46632,48.69237,85.7],[2.466217,48.692465,85.8],[2.466015,48.692691,85.8],[2.465533,48.693149,86],[2.465235,48.69347,86],[2.46505,48.693636,86],[2.464968,48.693729,86],[2.464827,48.693858,86],[2.464295,48.694385,86],[2.464244,48.694403,86],[2.464194,48.694388,86],[2.464159,48.694356,86],[2.4641,48.69435,86.1],[2.464107,48.694385,86.1],[2.464082,48.694428,86],[2.463895,48.694577,86.1],[2.463674,48.69479,86.1],[2.463407,48.695077,86.1],[2.463308,48.695159,86.1],[2.46293,48.695549,86],[2.4627,48.695764,86],[2.462594,48.69585,86],[2.462424,48.696024,85.9],[2.462314,48.696174,85.9],[2.462167,48.696313,85.8],[2.462095,48.69641,85.8],[2.461937,48.696557,85.7],[2.461876,48.6966,85.7],[2.461794,48.696692,85.7],[2.461643,48.696829,85.6],[2.461483,48.69703,85.5],[2.461206,48.697307,85.5],[2.461113,48.697413,85.5],[2.460915,48.697547,85.4],[2.460911,48.697577,85.4],[2.460922,48.697581,85.4],[2.460902,48.697581,85.4],[2.460842,48.69762,85.3],[2.46084,48.697649,85.3],[2.460801,48.6977,85.2],[2.460772,48.69772,85.2],[2.460739,48.697729,85.2],[2.460751,48.697754,85.2],[2.460714,48.697768,85.2],[2.460686,48.697819,85.2],[2.460524,48.697995,85.1],[2.4605,48.698033,85.1],[2.460386,48.698155,85.1],[2.460219,48.698296,85.1],[2.460006,48.698503,85.1],[2.459905,48.698587,85.1],[2.459618,48.698894,85],[2.459522,48.698979,84.9],[2.458923,48.699598,84.4],[2.45887,48.699641,84.3],[2.458231,48.700271,83.7],[2.458097,48.700418,83.6],[2.45789,48.700597,83.5],[2.457806,48.700683,83.4],[2.457683,48.700832,83.3],[2.457472,48.70103,83.2],[2.457378,48.701135,83.2],[2.457228,48.701279,83.2],[2.457167,48.701326,83.2],[2.457077,48.70142,83.1],[2.457,48.701528,83.1],[2.4568,48.701716,82.9],[2.456663,48.701861,82.8],[2.456459,48.702053,82.6],[2.456055,48.702472,82.3],[2.455765,48.702748,82.1],[2.455688,48.702845,82],[2.455632,48.702884,82],[2.455223,48.703285,81.7],[2.455198,48.703322,81.7]]}}]}