{"type":"FeatureCollection","features":[{"type":"Feature","properties":{"name":"Balade déjeunatoire","time":"2025-06-17T10:48:07.983Z","coordTimes":["2025-06-17T10:48:07.983Z","2025-06-17T10:48:16.990Z","2025-06-17T10:48:49.999Z","2025-06-17T10:48:53.999Z","2025-06-17T10:48:57.999Z","2025-06-17T10:49:02.999Z","2025-06-17T10:49:09.999Z","2025-06-17T10:49:16.999Z","2025-06-17T10:49:28.999Z","2025-06-17T10:49:40.999Z","2025-06-17T10:50:03Z","2025-06-17T10:50:20Z","2025-06-17T10:50:25.999Z","2025-06-17T10:50:36.999Z","2025-06-17T10:50:51.999Z","2025-06-17T10:50:53.999Z","2025-06-17T10:51:00.999Z","2025-06-17T10:51:14.999Z","2025-06-17T10:51:20.999Z","2025-06-17T10:51:28.999Z","2025-06-17T10:51:34.999Z","2025-06-17T10:52:00.998Z","2025-06-17T10:52:07.999Z","2025-06-17T10:52:14.999Z","2025-06-17T10:52:22.999Z","2025-06-17T10:52:29.999Z","2025-06-17T10:52:43.999Z","2025-06-17T10:53:29.999Z","2025-06-17T10:53:45.999Z","2025-06-17T10:53:57.999Z","2025-06-17T10:54:02.998Z","2025-06-17T10:54:07.998Z","2025-06-17T10:54:12.999Z","2025-06-17T10:54:21.999Z","2025-06-17T10:54:32.999Z","2025-06-17T10:54:39.999Z","2025-06-17T10:54:54.999Z","2025-06-17T10:55:54.999Z","2025-06-17T10:56:08.998Z","2025-06-17T10:56:14.998Z","2025-06-17T10:56:21.999Z","2025-06-17T10:56:27.999Z","2025-06-17T10:56:34.999Z","2025-06-17T10:57:01.999Z","2025-06-17T11:00:16.999Z","2025-06-17T11:00:35.999Z","2025-06-17T11:00:42.999Z","2025-06-17T11:00:50.999Z","2025-06-17T11:01:10.999Z","2025-06-17T11:01:28Z","2025-06-17T11:01:36Z","2025-06-17T11:01:42.999Z","2025-06-17T11:01:57.999Z","2025-06-17T11:02:05.999Z","2025-06-17T11:02:13.999Z","2025-06-17T11:02:21.999Z","2025-06-17T11:02:29.999Z","2025-06-17T11:02:44.999Z","2025-06-17T11:02:51.999Z","2025-06-17T11:03:03.999Z","2025-06-17T11:03:10.999Z","2025-06-17T11:03:18.999Z","2025-06-17T11:03:27Z","2025-06-17T11:03:35Z","2025-06-17T11:03:42Z","2025-06-17T11:03:49Z","2025-06-17T11:03:57.999Z","2025-06-17T11:05:19.999Z","2025-06-17T11:05:27.999Z","2025-06-17T11:05:41.999Z","2025-06-17T11:06:11.999Z","2025-06-17T11:06:19.999Z","2025-06-17T11:06:27.999Z","2025-06-17T11:06:34.999Z","2025-06-17T11:06:43.999Z","2025-06-17T11:06:49.999Z","2025-06-17T11:07:04.999Z","2025-06-17T11:07:26.998Z","2025-06-17T11:07:34.999Z","2025-06-17T11:07:42.999Z","2025-06-17T11:07:50.999Z","2025-06-17T11:07:58.999Z","2025-06-17T11:08:07.999Z","2025-06-17T11:08:15.999Z","2025-06-17T11:08:22.999Z","2025-06-17T11:08:29.999Z","2025-06-17T11:08:37.999Z","2025-06-17T11:08:45.999Z","2025-06-17T11:08:52.999Z","2025-06-17T11:09:11.999Z","2025-06-17T11:09:28.999Z","2025-06-17T11:09:38.998Z","2025-06-17T11:09:49.999Z","2025-06-17T11:09:57.999Z","2025-06-17T11:10:05.999Z","2025-06-17T11:10:14.999Z","2025-06-17T11:10:21.999Z","2025-06-17T11:10:29.999Z","2025-06-17T11:10:37.999Z","2025-06-17T11:10:53.999Z","2025-06-17T11:11:00.999Z","2025-06-17T11:11:10.999Z","2025-06-17T11:11:24.999Z","2025-06-17T11:11:32.999Z","2025-06-17T11:11:49Z","2025-06-17T11:11:57Z","2025-06-17T11:12:05Z","2025-06-17T11:12:21.999Z","2025-06-17T11:12:30.999Z","2025-06-17T11:12:38.999Z","2025-06-17T11:12:45.999Z","2025-06-17T11:12:52.999Z","2025-06-17T11:13:13.999Z","2025-06-17T11:13:21.999Z","2025-06-17T11:13:30.999Z","2025-06-17T11:14:23Z","2025-06-17T11:14:30.999Z","2025-06-17T11:14:41.999Z","2025-06-17T11:14:53.999Z","2025-06-17T11:15:02.999Z","2025-06-17T11:16:11.999Z","2025-06-17T11:16:18.999Z","2025-06-17T11:16:26.999Z","2025-06-17T11:16:35.999Z","2025-06-17T11:16:46.999Z","2025-06-17T11:16:59.999Z","2025-06-17T11:17:08.999Z","2025-06-17T11:17:24.999Z","2025-06-17T11:17:32.999Z","2025-06-17T11:17:39.999Z","2025-06-17T11:17:52.999Z","2025-06-17T11:18:08.999Z","2025-06-17T11:18:12.999Z","2025-06-17T11:18:19.999Z","2025-06-17T11:18:35.999Z","2025-06-17T11:18:45.999Z","2025-06-17T11:19:02.999Z","2025-06-17T11:19:11.999Z","2025-06-17T11:19:27.999Z","2025-06-17T11:20:21.999Z","2025-06-17T11:20:34.999Z","2025-06-17T11:20:42.999Z","2025-06-17T11:20:48.999Z","2025-06-17T11:20:57.999Z","2025-06-17T11:21:09.999Z","2025-06-17T11:21:58.999Z","2025-06-17T11:22:03.999Z","2025-06-17T11:22:10.999Z","2025-06-17T11:22:17.999Z","2025-06-17T11:22:25.999Z","2025-06-17T11:22:33.999Z","2025-06-17T11:22:41.999Z","2025-06-17T11:22:49.999Z","2025-06-17T11:22:56.999Z","2025-06-17T11:23:03.999Z","2025-06-17T11:23:13.998Z","2025-06-17T11:23:28.998Z","2025-06-17T11:23:43.998Z","2025-06-17T11:24:24.999Z","2025-06-17T11:25:29.998Z","2025-06-17T11:25:38.998Z","2025-06-17T11:25:43.998Z","2025-06-17T11:26:06.998Z","2025-06-17T11:26:30.999Z","2025-06-17T11:26:46.999Z","2025-06-17T11:28:34.998Z","2025-06-17T11:28:41.998Z","2025-06-17T11:28:59.998Z","2025-06-17T11:29:08.998Z","2025-06-17T11:29:16.998Z","2025-06-17T11:29:29.998Z","2025-06-17T11:29:42.998Z","2025-06-17T11:29:47.998Z","2025-06-17T11:29:57.998Z","2025-06-17T11:30:05.998Z","2025-06-17T11:30:10.998Z","2025-06-17T11:30:18.998Z","2025-06-17T11:30:28.998Z","2025-06-17T11:30:34.998Z","2025-06-17T11:30:42.998Z","2025-06-17T11:30:52.998Z","2025-06-17T11:31:08.998Z","2025-06-17T11:31:13.998Z","2025-06-17T11:31:23.998Z","2025-06-17T11:31:56.998Z","2025-06-17T11:32:21.998Z","2025-06-17T11:32:27.998Z","2025-06-17T11:32:33.998Z","2025-06-17T11:32:43.999Z","2025-06-17T11:32:54.999Z","2025-06-17T11:33:18.999Z","2025-06-17T11:33:26.999Z","2025-06-17T11:34:55.998Z","2025-06-17T11:35:04.998Z","2025-06-17T11:35:31.998Z"]},"geometry":{"type":"LineString","coordinates":[[2.326227,48.88274,57.327],[2.326309,48.882824,57.327],[2.326604,48.883179,57.327],[2.326775,48.88322,57.327],[2.326918,48.88322,57.327],[2.327053,48.883209,57.327],[2.327194,48.883239,57.316],[2.327339,48.88325,57.128],[2.327451,48.883187,56.939],[2.327601,48.883007,56.538],[2.327729,48.882727,55.966],[2.327845,48.882558,55.603],[2.327848,48.882457,55.406],[2.327933,48.882269,55.023],[2.328244,48.882194,54.597],[2.328399,48.882222,54.39],[2.328535,48.88221,54.214],[2.328818,48.882139,53.825],[2.328949,48.882183,53.668],[2.329048,48.882115,53.518],[2.329163,48.882065,53.373],[2.329717,48.881931,52.753],[2.329861,48.881949,52.599],[2.33001,48.881929,52.439],[2.330148,48.881883,52.277],[2.330261,48.881813,52.114],[2.330556,48.8818,51.803],[2.331118,48.881705,51.194],[2.331409,48.881634,50.93],[2.331517,48.881573,50.909],[2.331526,48.881472,50.886],[2.331561,48.881374,50.863],[2.331579,48.881278,50.842],[2.331652,48.881199,50.821],[2.33178,48.881163,50.801],[2.331931,48.881163,50.778],[2.332235,48.881132,50.733],[2.333208,48.880912,50.581],[2.333439,48.8808,50.539],[2.33354,48.880732,50.441],[2.333698,48.880734,50.324],[2.333838,48.880749,50.218],[2.333978,48.880739,50.114],[2.334517,48.880624,49.693],[2.335093,48.880379,49.184],[2.335272,48.880207,48.949],[2.335382,48.880136,48.834],[2.335459,48.88006,48.731],[2.335721,48.879843,48.211],[2.335918,48.879704,47.492],[2.336004,48.87963,47.139],[2.336116,48.879567,46.772],[2.336289,48.879409,46.035],[2.33639,48.879335,45.658],[2.336464,48.879255,45.304],[2.336563,48.879182,44.933],[2.336635,48.879097,44.565],[2.336829,48.87895,43.827],[2.336953,48.878894,43.453],[2.337161,48.878761,42.73],[2.33725,48.878686,42.37],[2.337318,48.878607,42.026],[2.337367,48.878523,41.685],[2.337404,48.878428,41.31],[2.337476,48.878349,40.957],[2.337587,48.878293,40.604],[2.33773,48.878324,40.225],[2.337879,48.877999,38.925],[2.338018,48.877971,38.558],[2.338085,48.877782,37.815],[2.338398,48.877445,36.302],[2.338494,48.877372,35.932],[2.338571,48.877285,35.546],[2.338681,48.877228,35.193],[2.338766,48.877146,34.813],[2.338798,48.877054,34.688],[2.338965,48.876889,34.435],[2.338837,48.876858,34.321],[2.338697,48.876884,34.199],[2.338546,48.87689,34.072],[2.338402,48.876867,33.948],[2.338249,48.876874,33.819],[2.338097,48.876862,33.691],[2.337956,48.87684,33.57],[2.337799,48.876829,33.437],[2.337691,48.876774,33.323],[2.337549,48.876756,33.202],[2.337396,48.876726,33.068],[2.337246,48.876741,32.941],[2.337115,48.876774,32.823],[2.336809,48.876759,32.566],[2.336667,48.876723,32.541],[2.336498,48.876709,32.594],[2.336354,48.876728,32.64],[2.336247,48.87679,32.685],[2.336111,48.876826,32.73],[2.335973,48.87682,32.773],[2.335814,48.87683,32.823],[2.335672,48.876865,32.87],[2.335387,48.876887,32.96],[2.33525,48.876881,33.003],[2.33511,48.876851,33.049],[2.334836,48.876879,33.135],[2.334696,48.876904,33.18],[2.334407,48.876904,33.27],[2.334259,48.876887,33.317],[2.334113,48.876891,33.363],[2.333828,48.876881,33.322],[2.333673,48.876864,33.297],[2.333536,48.87684,33.274],[2.333386,48.87684,33.25],[2.333228,48.876817,33.224],[2.332786,48.876853,33.153],[2.332651,48.876835,33.131],[2.332523,48.8768,33.109],[2.332493,48.876612,33.063],[2.332566,48.876528,33.04],[2.332583,48.876436,33.017],[2.332506,48.876353,32.994],[2.3324,48.876287,32.971],[2.332298,48.876361,32.946],[2.332229,48.876439,32.973],[2.332078,48.876456,33.184],[2.331958,48.876406,33.379],[2.331815,48.876454,33.6],[2.331708,48.876511,33.79],[2.331561,48.876502,33.993],[2.331286,48.876509,34.372],[2.331141,48.876524,34.574],[2.331014,48.876558,34.763],[2.330916,48.876631,34.967],[2.330872,48.876728,35.179],[2.330886,48.876822,35.376],[2.330844,48.876913,35.575],[2.330806,48.877106,35.983],[2.330705,48.87717,36.176],[2.330593,48.877346,36.576],[2.330494,48.877426,36.841],[2.330499,48.877614,37.433],[2.330207,48.877966,38.696],[2.330108,48.878042,39.011],[2.33006,48.87814,39.335],[2.330077,48.878232,39.627],[2.329956,48.878289,39.935],[2.329888,48.87837,40.227],[2.329564,48.878905,42.04],[2.329584,48.878998,42.336],[2.329589,48.879089,42.603],[2.329536,48.879181,42.89],[2.329452,48.879254,43.157],[2.329338,48.879323,43.454],[2.329309,48.879411,43.717],[2.329342,48.879511,44.015],[2.329274,48.879601,44.308],[2.329248,48.8797,44.601],[2.329198,48.879788,44.875],[2.329181,48.879883,45.153],[2.329115,48.879965,45.424],[2.32893,48.880122,46.003],[2.3286,48.880852,47.796],[2.328689,48.880924,47.881],[2.328827,48.880963,47.971],[2.329232,48.881107,48.246],[2.32964,48.881213,48.508],[2.329911,48.881263,48.676],[2.329542,48.881061,48.963],[2.329419,48.881006,49.052],[2.32912,48.880985,49.232],[2.328986,48.88094,49.551],[2.32885,48.880924,49.858],[2.328586,48.881016,50.52],[2.328488,48.881082,50.831],[2.328476,48.881198,51.223],[2.32849,48.881403,51.915],[2.328446,48.881514,52.302],[2.328319,48.881557,52.619],[2.32823,48.881628,52.929],[2.328184,48.881725,53.272],[2.328216,48.881818,53.593],[2.328173,48.881905,53.901],[2.328066,48.881979,54.246],[2.327977,48.882173,54.929],[2.327951,48.882276,55.281],[2.327892,48.882361,55.302],[2.327729,48.882726,55.302],[2.327692,48.883005,55.302],[2.327636,48.883096,55.302],[2.327519,48.883186,55.302],[2.327391,48.883229,55.302],[2.327109,48.883219,55.302],[2.326831,48.883178,55.302],[2.326764,48.883097,55.302],[2.326431,48.882912,55.302],[2.326334,48.882826,55.302],[2.326116,48.882558,55.302]]}}]}