{"type":"FeatureCollection","features":[{"type":"Feature","properties":{"name":"Double en détente","type":"tennis","time":"2025-02-12T19:49:54Z","coordTimes":["2025-02-12T19:49:54Z","2025-02-12T19:49:56Z","2025-02-12T19:49:57Z","2025-02-12T19:49:58Z","2025-02-12T19:50:01Z","2025-02-12T19:50:05Z","2025-02-12T19:50:06Z","2025-02-12T19:50:10Z","2025-02-12T19:50:15Z","2025-02-12T19:50:17Z","2025-02-12T19:50:23Z","2025-02-12T19:50:24Z","2025-02-12T19:50:27Z","2025-02-12T19:50:29Z","2025-02-12T19:50:31Z","2025-02-12T19:50:32Z","2025-02-12T19:50:33Z","2025-02-12T19:50:34Z","2025-02-12T19:50:36Z","2025-02-12T19:50:38Z","2025-02-12T19:50:46Z","2025-02-12T19:50:47Z","2025-02-12T19:50:48Z","2025-02-12T19:50:50Z","2025-02-12T19:50:51Z","2025-02-12T19:50:54Z","2025-02-12T19:50:55Z","2025-02-12T19:50:58Z","2025-02-12T19:51:00Z","2025-02-12T19:51:01Z","2025-02-12T19:51:03Z","2025-02-12T19:51:05Z","2025-02-12T19:51:07Z","2025-02-12T19:51:08Z","2025-02-12T19:51:09Z","2025-02-12T19:51:12Z","2025-02-12T19:51:14Z","2025-02-12T19:51:15Z","2025-02-12T19:51:17Z","2025-02-12T19:51:18Z","2025-02-12T19:51:19Z","2025-02-12T19:51:22Z","2025-02-12T19:51:27Z","2025-02-12T19:51:28Z","2025-02-12T19:51:31Z","2025-02-12T19:51:36Z","2025-02-12T19:51:37Z","2025-02-12T19:51:45Z","2025-02-12T19:51:51Z","2025-02-12T19:51:55Z","2025-02-12T19:51:57Z","2025-02-12T19:51:58Z","2025-02-12T19:52:00Z","2025-02-12T19:52:01Z","2025-02-12T19:52:05Z","2025-02-12T19:52:09Z","2025-02-12T19:52:10Z","2025-02-12T19:52:11Z","2025-02-12T19:52:13Z","2025-02-12T19:52:15Z","2025-02-12T19:52:17Z","2025-02-12T19:52:19Z","2025-02-12T19:52:23Z","2025-02-12T19:52:27Z","2025-02-12T19:52:28Z","2025-02-12T19:52:29Z","2025-02-12T19:52:30Z","2025-02-12T19:52:32Z","2025-02-12T19:52:35Z","2025-02-12T19:52:37Z","2025-02-12T19:52:38Z","2025-02-12T19:52:39Z","2025-02-12T19:52:40Z","2025-02-12T19:52:41Z","2025-02-12T19:52:43Z","2025-02-12T19:52:45Z","2025-02-12T19:52:46Z","2025-02-12T19:52:47Z","2025-02-12T19:52:49Z","2025-02-12T19:52:50Z","2025-02-12T19:52:52Z","2025-02-12T19:52:53Z","2025-02-12T19:52:54Z","2025-02-12T19:52:56Z","2025-02-12T19:52:58Z","2025-02-12T19:52:59Z","2025-02-12T19:53:00Z","2025-02-12T19:53:01Z","2025-02-12T19:53:06Z","2025-02-12T19:53:09Z","2025-02-12T19:53:10Z","2025-02-12T19:53:12Z","2025-02-12T19:53:14Z","2025-02-12T19:53:15Z","2025-02-12T19:53:21Z","2025-02-12T19:53:24Z","2025-02-12T19:53:26Z","2025-02-12T19:53:29Z","2025-02-12T19:53:31Z","2025-02-12T19:53:32Z","2025-02-12T19:53:33Z","2025-02-12T19:53:34Z","2025-02-12T19:53:35Z","2025-02-12T19:53:37Z","2025-02-12T19:53:38Z","2025-02-12T19:53:40Z","2025-02-12T19:53:41Z","2025-02-12T19:53:42Z","2025-02-12T19:53:44Z","2025-02-12T19:53:46Z","2025-02-12T19:53:47Z","2025-02-12T19:53:48Z","2025-02-12T19:53:49Z","2025-02-12T19:53:51Z","2025-02-12T19:53:52Z","2025-02-12T19:53:53Z","2025-02-12T19:53:55Z","2025-02-12T19:53:57Z","2025-02-12T19:53:58Z","2025-02-12T19:54:01Z","2025-02-12T19:54:03Z","2025-02-12T19:54:06Z","2025-02-12T19:54:08Z","2025-02-12T19:54:09Z","2025-02-12T19:54:12Z","2025-02-12T19:54:16Z","2025-02-12T19:54:17Z","2025-02-12T19:54:20Z","2025-02-12T19:54:21Z","2025-02-12T19:54:25Z","2025-02-12T19:54:26Z","2025-02-12T19:54:27Z","2025-02-12T19:54:30Z","2025-02-12T19:54:31Z","2025-02-12T19:54:32Z","2025-02-12T19:54:34Z","2025-02-12T19:54:35Z","2025-02-12T19:54:37Z","2025-02-12T19:54:38Z","2025-02-12T19:54:39Z","2025-02-12T19:54:41Z","2025-02-12T19:54:43Z","2025-02-12T19:54:44Z","2025-02-12T19:54:45Z","2025-02-12T19:54:47Z","2025-02-12T19:54:48Z","2025-02-12T19:54:49Z","2025-02-12T19:54:51Z","2025-02-12T19:54:52Z","2025-02-12T19:54:53Z","2025-02-12T19:54:55Z","2025-02-12T19:54:56Z","2025-02-12T19:54:57Z","2025-02-12T19:55:05Z","2025-02-12T19:55:06Z","2025-02-12T19:55:07Z","2025-02-12T19:55:10Z","2025-02-12T19:55:11Z","2025-02-12T19:55:12Z","2025-02-12T19:55:13Z","2025-02-12T19:55:19Z","2025-02-12T19:55:22Z","2025-02-12T19:55:26Z","2025-02-12T19:55:27Z","2025-02-12T19:55:28Z","2025-02-12T19:55:29Z","2025-02-12T19:55:30Z","2025-02-12T19:55:31Z","2025-02-12T19:55:32Z","2025-02-12T19:55:33Z","2025-02-12T19:55:34Z","2025-02-12T19:55:35Z","2025-02-12T19:55:37Z","2025-02-12T19:55:38Z","2025-02-12T19:55:39Z","2025-02-12T19:55:40Z","2025-02-12T19:55:41Z","2025-02-12T19:55:42Z","2025-02-12T19:55:43Z","2025-02-12T19:55:45Z","2025-02-12T19:55:46Z","2025-02-12T19:55:47Z","2025-02-12T19:55:48Z","2025-02-12T19:55:49Z","2025-02-12T19:55:50Z","2025-02-12T19:55:51Z","2025-02-12T19:55:52Z","2025-02-12T19:55:55Z","2025-02-12T19:55:58Z","2025-02-12T19:56:02Z","2025-02-12T19:56:03Z","2025-02-12T19:56:04Z","2025-02-12T19:56:11Z","2025-02-12T19:56:12Z","2025-02-12T19:56:13Z","2025-02-12T19:56:14Z","2025-02-12T19:56:16Z","2025-02-12T19:56:21Z","2025-02-12T19:56:24Z","2025-02-12T19:56:27Z","2025-02-12T19:56:30Z","2025-02-12T19:56:32Z","2025-02-12T19:56:34Z","2025-02-12T19:56:39Z","2025-02-12T19:56:43Z","2025-02-12T19:56:46Z","2025-02-12T19:56:47Z","2025-02-12T19:56:49Z","2025-02-12T19:56:51Z","2025-02-12T19:56:54Z","2025-02-12T19:56:59Z","2025-02-12T19:57:07Z","2025-02-12T19:57:08Z","2025-02-12T19:57:10Z","2025-02-12T19:57:18Z","2025-02-12T19:57:23Z","2025-02-12T19:57:36Z","2025-02-12T19:57:41Z","2025-02-12T19:57:46Z","2025-02-12T19:58:13Z","2025-02-12T19:58:17Z","2025-02-12T19:58:18Z","2025-02-12T19:58:47Z","2025-02-12T19:58:52Z","2025-02-12T19:59:20Z","2025-02-12T19:59:26Z","2025-02-12T19:59:35Z","2025-02-12T19:59:52Z","2025-02-12T20:00:29Z","2025-02-12T20:00:42Z","2025-02-12T20:00:44Z","2025-02-12T20:00:45Z","2025-02-12T20:00:59Z","2025-02-12T20:01:25Z","2025-02-12T20:01:26Z","2025-02-12T20:01:33Z","2025-02-12T20:02:17Z","2025-02-12T20:02:34Z","2025-02-12T20:02:35Z","2025-02-12T20:02:53Z","2025-02-12T20:02:57Z","2025-02-12T20:03:08Z","2025-02-12T20:03:10Z","2025-02-12T20:03:13Z","2025-02-12T20:03:15Z","2025-02-12T20:03:18Z","2025-02-12T20:03:30Z","2025-02-12T20:03:35Z","2025-02-12T20:03:37Z","2025-02-12T20:03:44Z","2025-02-12T20:03:51Z","2025-02-12T20:03:56Z","2025-02-12T20:03:58Z","2025-02-12T20:04:00Z","2025-02-12T20:04:07Z","2025-02-12T20:04:09Z","2025-02-12T20:04:16Z","2025-02-12T20:04:20Z","2025-02-12T20:04:21Z","2025-02-12T20:04:23Z","2025-02-12T20:04:24Z","2025-02-12T20:04:26Z","2025-02-12T20:04:28Z","2025-02-12T20:04:30Z","2025-02-12T20:04:35Z","2025-02-12T20:04:36Z","2025-02-12T20:04:38Z","2025-02-12T20:04:39Z","2025-02-12T20:04:40Z","2025-02-12T20:04:42Z","2025-02-12T20:04:43Z","2025-02-12T20:04:45Z","2025-02-12T20:04:47Z","2025-02-12T20:04:49Z","2025-02-12T20:04:57Z","2025-02-12T20:05:01Z","2025-02-12T20:05:02Z","2025-02-12T20:05:04Z","2025-02-12T20:05:06Z","2025-02-12T20:05:09Z","2025-02-12T20:05:11Z","2025-02-12T20:05:19Z","2025-02-12T20:05:25Z","2025-02-12T20:05:29Z","2025-02-12T20:05:33Z","2025-02-12T20:05:35Z","2025-02-12T20:05:37Z","2025-02-12T20:05:40Z","2025-02-12T20:05:42Z","2025-02-12T20:05:44Z","2025-02-12T20:05:47Z","2025-02-12T20:05:50Z","2025-02-12T20:05:55Z","2025-02-12T20:05:56Z","2025-02-12T20:05:59Z","2025-02-12T20:06:03Z","2025-02-12T20:06:05Z","2025-02-12T20:06:12Z","2025-02-12T20:06:15Z","2025-02-12T20:06:20Z","2025-02-12T20:06:21Z","2025-02-12T20:06:24Z","2025-02-12T20:06:27Z","2025-02-12T20:06:36Z","2025-02-12T20:06:38Z","2025-02-12T20:06:45Z","2025-02-12T20:06:46Z","2025-02-12T20:06:51Z","2025-02-12T20:06:53Z","2025-02-12T20:06:55Z","2025-02-12T20:06:57Z","2025-02-12T20:06:58Z","2025-02-12T20:07:02Z","2025-02-12T20:07:04Z","2025-02-12T20:07:06Z","2025-02-12T20:07:08Z","2025-02-12T20:07:10Z","2025-02-12T20:07:16Z","2025-02-12T20:07:17Z","2025-02-12T20:07:18Z","2025-02-12T20:07:21Z","2025-02-12T20:07:28Z","2025-02-12T20:07:30Z","2025-02-12T20:07:32Z","2025-02-12T20:07:33Z","2025-02-12T20:07:36Z","2025-02-12T20:07:37Z","2025-02-12T20:07:38Z","2025-02-12T20:07:39Z","2025-02-12T20:07:40Z","2025-02-12T20:07:42Z","2025-02-12T20:07:44Z","2025-02-12T20:07:45Z","2025-02-12T20:07:48Z","2025-02-12T20:07:50Z","2025-02-12T20:07:51Z","2025-02-12T20:07:56Z","2025-02-12T20:07:57Z","2025-02-12T20:07:58Z","2025-02-12T20:08:08Z","2025-02-12T20:08:11Z","2025-02-12T20:08:14Z","2025-02-12T20:08:18Z","2025-02-12T20:08:20Z","2025-02-12T20:08:22Z","2025-02-12T20:08:24Z","2025-02-12T20:08:32Z","2025-02-12T20:08:34Z","2025-02-12T20:08:37Z","2025-02-12T20:08:40Z","2025-02-12T20:08:42Z","2025-02-12T20:08:47Z","2025-02-12T20:08:50Z","2025-02-12T20:08:51Z","2025-02-12T20:08:54Z","2025-02-12T20:08:57Z","2025-02-12T20:08:58Z","2025-02-12T20:09:01Z","2025-02-12T20:09:09Z","2025-02-12T20:09:15Z","2025-02-12T20:09:19Z","2025-02-12T20:09:23Z","2025-02-12T20:09:25Z","2025-02-12T20:09:29Z","2025-02-12T20:09:33Z","2025-02-12T20:09:34Z","2025-02-12T20:09:35Z","2025-02-12T20:09:36Z","2025-02-12T20:09:39Z","2025-02-12T20:09:41Z","2025-02-12T20:09:45Z","2025-02-12T20:09:48Z","2025-02-12T20:09:56Z","2025-02-12T20:10:01Z","2025-02-12T20:10:03Z","2025-02-12T20:10:09Z","2025-02-12T20:10:12Z","2025-02-12T20:10:13Z","2025-02-12T20:10:18Z","2025-02-12T20:10:20Z","2025-02-12T20:10:24Z","2025-02-12T20:10:26Z","2025-02-12T20:10:28Z","2025-02-12T20:10:29Z","2025-02-12T20:10:32Z","2025-02-12T20:10:35Z","2025-02-12T20:10:37Z","2025-02-12T20:10:38Z","2025-02-12T20:10:41Z","2025-02-12T20:10:45Z","2025-02-12T20:10:49Z","2025-02-12T20:10:56Z","2025-02-12T20:11:00Z","2025-02-12T20:11:02Z","2025-02-12T20:11:04Z","2025-02-12T20:11:15Z","2025-02-12T20:11:17Z","2025-02-12T20:11:19Z","2025-02-12T20:11:21Z","2025-02-12T20:11:23Z","2025-02-12T20:11:28Z","2025-02-12T20:11:29Z","2025-02-12T20:11:33Z","2025-02-12T20:11:36Z","2025-02-12T20:11:38Z","2025-02-12T20:11:39Z","2025-02-12T20:11:41Z","2025-02-12T20:11:42Z","2025-02-12T20:11:43Z","2025-02-12T20:11:45Z","2025-02-12T20:11:46Z","2025-02-12T20:11:53Z","2025-02-12T20:11:57Z","2025-02-12T20:11:59Z","2025-02-12T20:12:00Z","2025-02-12T20:12:01Z","2025-02-12T20:12:02Z","2025-02-12T20:12:03Z","2025-02-12T20:12:04Z","2025-02-12T20:12:05Z","2025-02-12T20:12:08Z","2025-02-12T20:12:10Z","2025-02-12T20:12:13Z","2025-02-12T20:12:16Z","2025-02-12T20:12:22Z","2025-02-12T20:12:24Z","2025-02-12T20:12:26Z","2025-02-12T20:12:27Z","2025-02-12T20:12:30Z","2025-02-12T20:12:31Z","2025-02-12T20:12:32Z","2025-02-12T20:12:37Z","2025-02-12T20:12:39Z","2025-02-12T20:12:47Z","2025-02-12T20:12:49Z","2025-02-12T20:12:50Z","2025-02-12T20:12:51Z","2025-02-12T20:12:53Z","2025-02-12T20:12:55Z","2025-02-12T20:12:56Z","2025-02-12T20:13:00Z","2025-02-12T20:13:03Z","2025-02-12T20:13:05Z","2025-02-12T20:13:14Z","2025-02-12T20:13:15Z","2025-02-12T20:13:22Z","2025-02-12T20:13:27Z","2025-02-12T20:13:32Z","2025-02-12T20:13:43Z","2025-02-12T20:13:44Z","2025-02-12T20:13:45Z","2025-02-12T20:13:47Z","2025-02-12T20:13:51Z","2025-02-12T20:13:52Z","2025-02-12T20:13:55Z","2025-02-12T20:13:57Z","2025-02-12T20:13:58Z","2025-02-12T20:14:02Z","2025-02-12T20:14:05Z","2025-02-12T20:14:08Z","2025-02-12T20:14:10Z","2025-02-12T20:14:11Z","2025-02-12T20:14:12Z","2025-02-12T20:14:13Z","2025-02-12T20:14:17Z","2025-02-12T20:14:23Z","2025-02-12T20:14:28Z","2025-02-12T20:14:29Z","2025-02-12T20:14:30Z","2025-02-12T20:14:32Z","2025-02-12T20:14:34Z","2025-02-12T20:14:35Z","2025-02-12T20:14:36Z","2025-02-12T20:14:39Z","2025-02-12T20:14:42Z","2025-02-12T20:14:44Z","2025-02-12T20:14:56Z","2025-02-12T20:14:57Z","2025-02-12T20:14:59Z","2025-02-12T20:15:02Z","2025-02-12T20:15:07Z","2025-02-12T20:15:09Z","2025-02-12T20:15:13Z","2025-02-12T20:15:16Z","2025-02-12T20:15:18Z","2025-02-12T20:15:19Z","2025-02-12T20:15:20Z","2025-02-12T20:15:21Z","2025-02-12T20:15:24Z","2025-02-12T20:15:26Z","2025-02-12T20:15:27Z","2025-02-12T20:15:29Z","2025-02-12T20:15:30Z","2025-02-12T20:15:33Z","2025-02-12T20:15:34Z","2025-02-12T20:15:35Z","2025-02-12T20:15:36Z","2025-02-12T20:15:38Z","2025-02-12T20:15:39Z","2025-02-12T20:15:43Z","2025-02-12T20:15:46Z","2025-02-12T20:15:48Z","2025-02-12T20:15:49Z","2025-02-12T20:16:02Z","2025-02-12T20:16:06Z","2025-02-12T20:16:08Z","2025-02-12T20:16:12Z","2025-02-12T20:16:13Z","2025-02-12T20:16:14Z","2025-02-12T20:16:15Z","2025-02-12T20:16:17Z","2025-02-12T20:16:18Z","2025-02-12T20:16:19Z","2025-02-12T20:16:20Z","2025-02-12T20:16:22Z","2025-02-12T20:16:26Z","2025-02-12T20:16:27Z","2025-02-12T20:16:30Z","2025-02-12T20:16:31Z","2025-02-12T20:16:32Z","2025-02-12T20:16:34Z","2025-02-12T20:16:35Z","2025-02-12T20:16:37Z","2025-02-12T20:16:38Z","2025-02-12T20:16:40Z","2025-02-12T20:16:43Z","2025-02-12T20:16:45Z","2025-02-12T20:16:46Z","2025-02-12T20:16:50Z","2025-02-12T20:16:51Z","2025-02-12T20:16:53Z","2025-02-12T20:16:54Z","2025-02-12T20:16:55Z","2025-02-12T20:16:57Z","2025-02-12T20:16:58Z","2025-02-12T20:16:59Z","2025-02-12T20:17:00Z","2025-02-12T20:17:03Z","2025-02-12T20:17:05Z","2025-02-12T20:17:07Z","2025-02-12T20:17:11Z","2025-02-12T20:17:17Z","2025-02-12T20:17:18Z","2025-02-12T20:17:20Z","2025-02-12T20:17:24Z","2025-02-12T20:17:28Z","2025-02-12T20:17:31Z","2025-02-12T20:17:33Z","2025-02-12T20:17:42Z","2025-02-12T20:17:44Z","2025-02-12T20:17:45Z","2025-02-12T20:17:46Z","2025-02-12T20:17:47Z","2025-02-12T20:17:54Z","2025-02-12T20:17:55Z","2025-02-12T20:18:03Z","2025-02-12T20:18:05Z","2025-02-12T20:18:07Z","2025-02-12T20:18:10Z","2025-02-12T20:18:15Z","2025-02-12T20:18:19Z","2025-02-12T20:18:21Z","2025-02-12T20:18:24Z","2025-02-12T20:18:25Z","2025-02-12T20:18:27Z","2025-02-12T20:18:32Z","2025-02-12T20:18:35Z","2025-02-12T20:18:37Z","2025-02-12T20:18:39Z","2025-02-12T20:18:43Z","2025-02-12T20:18:44Z","2025-02-12T20:18:46Z","2025-02-12T20:18:56Z","2025-02-12T20:18:58Z","2025-02-12T20:19:00Z","2025-02-12T20:19:04Z","2025-02-12T20:19:06Z","2025-02-12T20:19:07Z","2025-02-12T20:19:09Z","2025-02-12T20:19:10Z","2025-02-12T20:19:11Z","2025-02-12T20:19:12Z","2025-02-12T20:19:13Z","2025-02-12T20:19:15Z","2025-02-12T20:19:19Z","2025-02-12T20:19:21Z","2025-02-12T20:19:24Z","2025-02-12T20:19:26Z","2025-02-12T20:19:27Z","2025-02-12T20:19:29Z","2025-02-12T20:19:31Z","2025-02-12T20:19:32Z","2025-02-12T20:19:34Z","2025-02-12T20:19:37Z","2025-02-12T20:19:40Z","2025-02-12T20:19:43Z","2025-02-12T20:19:49Z","2025-02-12T20:19:52Z","2025-02-12T20:19:54Z","2025-02-12T20:19:56Z","2025-02-12T20:20:00Z","2025-02-12T20:20:01Z","2025-02-12T20:20:04Z","2025-02-12T20:20:06Z","2025-02-12T20:20:11Z","2025-02-12T20:20:12Z","2025-02-12T20:20:13Z","2025-02-12T20:20:19Z","2025-02-12T20:20:23Z","2025-02-12T20:20:24Z","2025-02-12T20:20:30Z","2025-02-12T20:20:31Z","2025-02-12T20:20:34Z","2025-02-12T20:20:39Z","2025-02-12T20:20:40Z","2025-02-12T20:20:43Z","2025-02-12T20:20:46Z","2025-02-12T20:20:49Z","2025-02-12T20:20:50Z","2025-02-12T20:20:53Z","2025-02-12T20:20:56Z","2025-02-12T20:20:59Z","2025-02-12T20:21:01Z","2025-02-12T20:21:03Z","2025-02-12T20:21:06Z","2025-02-12T20:21:09Z","2025-02-12T20:21:11Z","2025-02-12T20:21:12Z","2025-02-12T20:21:13Z","2025-02-12T20:21:16Z","2025-02-12T20:21:17Z","2025-02-12T20:21:18Z","2025-02-12T20:21:19Z","2025-02-12T20:21:22Z","2025-02-12T20:21:28Z","2025-02-12T20:21:32Z","2025-02-12T20:21:34Z","2025-02-12T20:21:35Z","2025-02-12T20:21:39Z","2025-02-12T20:21:40Z","2025-02-12T20:21:42Z","2025-02-12T20:21:44Z","2025-02-12T20:21:47Z","2025-02-12T20:21:49Z","2025-02-12T20:21:53Z","2025-02-12T20:21:58Z","2025-02-12T20:21:59Z","2025-02-12T20:22:00Z","2025-02-12T20:22:01Z","2025-02-12T20:22:03Z","2025-02-12T20:22:04Z","2025-02-12T20:22:06Z","2025-02-12T20:22:08Z","2025-02-12T20:22:10Z","2025-02-12T20:22:17Z","2025-02-12T20:22:20Z","2025-02-12T20:22:27Z","2025-02-12T20:22:29Z","2025-02-12T20:22:31Z","2025-02-12T20:22:34Z","2025-02-12T20:22:35Z","2025-02-12T20:22:37Z","2025-02-12T20:22:38Z","2025-02-12T20:22:41Z","2025-02-12T20:22:43Z","2025-02-12T20:22:44Z","2025-02-12T20:22:48Z","2025-02-12T20:22:50Z","2025-02-12T20:22:51Z","2025-02-12T20:22:54Z","2025-02-12T20:22:55Z","2025-02-12T20:22:58Z","2025-02-12T20:23:06Z","2025-02-12T20:23:11Z","2025-02-12T20:23:16Z","2025-02-12T20:23:17Z","2025-02-12T20:23:29Z","2025-02-12T20:23:31Z","2025-02-12T20:23:32Z","2025-02-12T20:23:33Z","2025-02-12T20:23:34Z","2025-02-12T20:23:37Z","2025-02-12T20:23:41Z","2025-02-12T20:23:44Z","2025-02-12T20:23:54Z","2025-02-12T20:23:55Z","2025-02-12T20:23:59Z","2025-02-12T20:24:02Z","2025-02-12T20:24:06Z","2025-02-12T20:24:07Z","2025-02-12T20:24:11Z","2025-02-12T20:24:16Z","2025-02-12T20:24:19Z","2025-02-12T20:24:20Z","2025-02-12T20:24:21Z","2025-02-12T20:24:24Z","2025-02-12T20:24:25Z","2025-02-12T20:24:27Z","2025-02-12T20:24:28Z","2025-02-12T20:24:30Z","2025-02-12T20:24:33Z","2025-02-12T20:24:35Z","2025-02-12T20:24:38Z","2025-02-12T20:24:41Z","2025-02-12T20:24:43Z","2025-02-12T20:24:45Z","2025-02-12T20:24:48Z","2025-02-12T20:24:49Z","2025-02-12T20:24:52Z","2025-02-12T20:24:56Z","2025-02-12T20:24:59Z","2025-02-12T20:25:02Z","2025-02-12T20:25:03Z","2025-02-12T20:25:04Z","2025-02-12T20:25:06Z","2025-02-12T20:25:07Z","2025-02-12T20:25:08Z","2025-02-12T20:25:09Z","2025-02-12T20:25:12Z","2025-02-12T20:25:14Z","2025-02-12T20:25:19Z","2025-02-12T20:25:28Z","2025-02-12T20:25:32Z","2025-02-12T20:25:43Z","2025-02-12T20:25:45Z","2025-02-12T20:25:48Z","2025-02-12T20:25:51Z","2025-02-12T20:25:52Z","2025-02-12T20:25:56Z","2025-02-12T20:26:02Z","2025-02-12T20:26:07Z","2025-02-12T20:26:10Z","2025-02-12T20:26:13Z","2025-02-12T20:26:17Z","2025-02-12T20:26:19Z","2025-02-12T20:26:22Z","2025-02-12T20:26:28Z","2025-02-12T20:26:30Z","2025-02-12T20:26:31Z","2025-02-12T20:26:36Z","2025-02-12T20:26:38Z","2025-02-12T20:26:40Z","2025-02-12T20:26:45Z","2025-02-12T20:27:02Z","2025-02-12T20:27:14Z","2025-02-12T20:27:15Z","2025-02-12T20:27:17Z","2025-02-12T20:27:23Z","2025-02-12T20:27:24Z","2025-02-12T20:27:26Z","2025-02-12T20:27:27Z","2025-02-12T20:27:29Z","2025-02-12T20:27:30Z","2025-02-12T20:27:31Z","2025-02-12T20:27:34Z","2025-02-12T20:27:35Z","2025-02-12T20:27:36Z","2025-02-12T20:27:39Z","2025-02-12T20:27:41Z","2025-02-12T20:27:45Z","2025-02-12T20:27:53Z","2025-02-12T20:27:55Z","2025-02-12T20:28:01Z","2025-02-12T20:28:03Z","2025-02-12T20:28:04Z","2025-02-12T20:28:07Z","2025-02-12T20:28:08Z","2025-02-12T20:28:13Z","2025-02-12T20:28:14Z","2025-02-12T20:28:19Z","2025-02-12T20:28:20Z","2025-02-12T20:28:21Z","2025-02-12T20:28:24Z","2025-02-12T20:28:25Z","2025-02-12T20:28:28Z","2025-02-12T20:28:31Z","2025-02-12T20:28:32Z","2025-02-12T20:28:34Z","2025-02-12T20:28:37Z","2025-02-12T20:28:38Z","2025-02-12T20:28:43Z","2025-02-12T20:28:45Z","2025-02-12T20:28:53Z","2025-02-12T20:28:55Z","2025-02-12T20:28:57Z","2025-02-12T20:29:00Z","2025-02-12T20:29:01Z","2025-02-12T20:29:02Z","2025-02-12T20:29:03Z","2025-02-12T20:29:04Z","2025-02-12T20:29:07Z","2025-02-12T20:29:08Z","2025-02-12T20:29:09Z","2025-02-12T20:29:11Z","2025-02-12T20:29:12Z","2025-02-12T20:29:16Z","2025-02-12T20:29:18Z","2025-02-12T20:29:29Z","2025-02-12T20:29:31Z","2025-02-12T20:29:33Z","2025-02-12T20:29:34Z","2025-02-12T20:29:41Z","2025-02-12T20:29:42Z","2025-02-12T20:29:43Z","2025-02-12T20:29:53Z","2025-02-12T20:29:56Z","2025-02-12T20:29:59Z","2025-02-12T20:30:03Z","2025-02-12T20:30:04Z","2025-02-12T20:30:05Z","2025-02-12T20:30:08Z","2025-02-12T20:30:14Z","2025-02-12T20:30:16Z","2025-02-12T20:30:19Z","2025-02-12T20:30:21Z","2025-02-12T20:30:23Z","2025-02-12T20:30:24Z","2025-02-12T20:30:26Z","2025-02-12T20:30:27Z","2025-02-12T20:30:33Z","2025-02-12T20:30:34Z","2025-02-12T20:30:35Z","2025-02-12T20:30:36Z","2025-02-12T20:30:37Z","2025-02-12T20:30:38Z","2025-02-12T20:30:41Z","2025-02-12T20:30:50Z","2025-02-12T20:30:53Z","2025-02-12T20:30:56Z","2025-02-12T20:30:59Z","2025-02-12T20:31:03Z","2025-02-12T20:31:04Z","2025-02-12T20:31:05Z","2025-02-12T20:31:07Z","2025-02-12T20:31:09Z","2025-02-12T20:31:10Z","2025-02-12T20:31:17Z","2025-02-12T20:31:19Z","2025-02-12T20:31:23Z","2025-02-12T20:31:28Z","2025-02-12T20:31:35Z","2025-02-12T20:31:37Z","2025-02-12T20:31:39Z","2025-02-12T20:31:41Z","2025-02-12T20:31:42Z","2025-02-12T20:31:50Z","2025-02-12T20:31:53Z","2025-02-12T20:31:55Z","2025-02-12T20:31:56Z","2025-02-12T20:31:59Z","2025-02-12T20:32:03Z","2025-02-12T20:32:04Z","2025-02-12T20:32:05Z","2025-02-12T20:32:07Z","2025-02-12T20:32:09Z","2025-02-12T20:32:10Z","2025-02-12T20:32:12Z","2025-02-12T20:32:23Z","2025-02-12T20:32:24Z","2025-02-12T20:32:27Z","2025-02-12T20:32:33Z","2025-02-12T20:32:37Z","2025-02-12T20:32:39Z","2025-02-12T20:32:44Z","2025-02-12T20:32:49Z","2025-02-12T20:32:50Z","2025-02-12T20:32:54Z","2025-02-12T20:32:55Z","2025-02-12T20:32:59Z","2025-02-12T20:33:00Z","2025-02-12T20:33:02Z","2025-02-12T20:33:04Z","2025-02-12T20:33:06Z","2025-02-12T20:33:12Z","2025-02-12T20:33:16Z","2025-02-12T20:33:18Z","2025-02-12T20:33:19Z","2025-02-12T20:33:23Z","2025-02-12T20:33:26Z","2025-02-12T20:33:27Z","2025-02-12T20:33:29Z","2025-02-12T20:33:30Z","2025-02-12T20:33:31Z","2025-02-12T20:33:33Z","2025-02-12T20:33:35Z","2025-02-12T20:33:36Z","2025-02-12T20:33:46Z","2025-02-12T20:33:47Z","2025-02-12T20:33:48Z","2025-02-12T20:33:50Z","2025-02-12T20:33:51Z","2025-02-12T20:33:53Z","2025-02-12T20:33:55Z","2025-02-12T20:33:56Z","2025-02-12T20:33:58Z","2025-02-12T20:34:01Z","2025-02-12T20:34:04Z","2025-02-12T20:34:06Z","2025-02-12T20:34:09Z","2025-02-12T20:34:12Z","2025-02-12T20:34:13Z","2025-02-12T20:34:19Z","2025-02-12T20:34:22Z","2025-02-12T20:34:23Z","2025-02-12T20:34:24Z","2025-02-12T20:34:25Z","2025-02-12T20:34:27Z","2025-02-12T20:34:29Z","2025-02-12T20:34:30Z","2025-02-12T20:34:32Z","2025-02-12T20:34:33Z","2025-02-12T20:34:34Z","2025-02-12T20:34:36Z","2025-02-12T20:34:37Z","2025-02-12T20:34:38Z","2025-02-12T20:34:40Z","2025-02-12T20:34:43Z","2025-02-12T20:34:46Z","2025-02-12T20:34:49Z","2025-02-12T20:34:51Z","2025-02-12T20:34:52Z","2025-02-12T20:34:53Z","2025-02-12T20:34:54Z","2025-02-12T20:34:56Z","2025-02-12T20:34:59Z","2025-02-12T20:35:01Z","2025-02-12T20:35:03Z","2025-02-12T20:35:08Z","2025-02-12T20:35:11Z","2025-02-12T20:35:13Z","2025-02-12T20:35:15Z","2025-02-12T20:35:19Z","2025-02-12T20:35:20Z","2025-02-12T20:35:22Z","2025-02-12T20:35:24Z","2025-02-12T20:35:26Z","2025-02-12T20:35:27Z","2025-02-12T20:35:28Z","2025-02-12T20:35:30Z","2025-02-12T20:35:31Z","2025-02-12T20:35:33Z","2025-02-12T20:35:34Z","2025-02-12T20:35:36Z","2025-02-12T20:35:40Z","2025-02-12T20:35:42Z","2025-02-12T20:35:44Z","2025-02-12T20:35:49Z","2025-02-12T20:35:55Z","2025-02-12T20:35:57Z","2025-02-12T20:35:59Z","2025-02-12T20:36:00Z","2025-02-12T20:36:02Z","2025-02-12T20:36:04Z","2025-02-12T20:36:06Z","2025-02-12T20:36:07Z","2025-02-12T20:36:10Z","2025-02-12T20:36:11Z","2025-02-12T20:36:13Z","2025-02-12T20:36:15Z","2025-02-12T20:36:16Z","2025-02-12T20:36:19Z","2025-02-12T20:36:20Z","2025-02-12T20:36:21Z","2025-02-12T20:36:24Z","2025-02-12T20:36:28Z","2025-02-12T20:36:29Z","2025-02-12T20:36:30Z","2025-02-12T20:36:33Z","2025-02-12T20:36:34Z","2025-02-12T20:36:36Z","2025-02-12T20:36:37Z","2025-02-12T20:36:38Z","2025-02-12T20:36:40Z","2025-02-12T20:36:41Z","2025-02-12T20:36:49Z","2025-02-12T20:36:52Z","2025-02-12T20:37:00Z","2025-02-12T20:37:02Z","2025-02-12T20:37:03Z","2025-02-12T20:37:05Z","2025-02-12T20:37:06Z","2025-02-12T20:37:09Z","2025-02-12T20:37:10Z","2025-02-12T20:37:13Z","2025-02-12T20:37:14Z","2025-02-12T20:37:15Z","2025-02-12T20:37:17Z","2025-02-12T20:37:18Z","2025-02-12T20:37:23Z","2025-02-12T20:37:24Z","2025-02-12T20:37:27Z","2025-02-12T20:37:29Z","2025-02-12T20:37:31Z","2025-02-12T20:37:32Z","2025-02-12T20:37:34Z","2025-02-12T20:37:42Z","2025-02-12T20:37:47Z","2025-02-12T20:37:48Z","2025-02-12T20:37:49Z","2025-02-12T20:37:53Z","2025-02-12T20:37:54Z","2025-02-12T20:37:55Z","2025-02-12T20:37:56Z","2025-02-12T20:37:59Z","2025-02-12T20:38:00Z","2025-02-12T20:38:02Z","2025-02-12T20:38:05Z","2025-02-12T20:38:11Z","2025-02-12T20:38:22Z","2025-02-12T20:38:24Z","2025-02-12T20:38:26Z","2025-02-12T20:38:27Z","2025-02-12T20:38:28Z","2025-02-12T20:38:30Z","2025-02-12T20:38:34Z","2025-02-12T20:38:35Z","2025-02-12T20:38:41Z","2025-02-12T20:38:43Z","2025-02-12T20:38:45Z","2025-02-12T20:38:46Z","2025-02-12T20:38:48Z","2025-02-12T20:38:55Z","2025-02-12T20:39:05Z","2025-02-12T20:39:07Z","2025-02-12T20:39:17Z","2025-02-12T20:39:22Z","2025-02-12T20:39:24Z","2025-02-12T20:39:28Z","2025-02-12T20:39:29Z","2025-02-12T20:39:32Z","2025-02-12T20:39:35Z","2025-02-12T20:39:43Z","2025-02-12T20:39:46Z","2025-02-12T20:39:50Z","2025-02-12T20:39:54Z","2025-02-12T20:39:56Z","2025-02-12T20:40:03Z","2025-02-12T20:40:09Z","2025-02-12T20:40:10Z","2025-02-12T20:40:12Z","2025-02-12T20:40:17Z","2025-02-12T20:40:23Z","2025-02-12T20:40:37Z","2025-02-12T20:40:43Z","2025-02-12T20:40:44Z","2025-02-12T20:40:48Z","2025-02-12T20:40:50Z","2025-02-12T20:40:52Z","2025-02-12T20:40:57Z","2025-02-12T20:40:58Z","2025-02-12T20:41:01Z","2025-02-12T20:41:04Z","2025-02-12T20:41:09Z","2025-02-12T20:41:12Z","2025-02-12T20:41:14Z","2025-02-12T20:41:15Z","2025-02-12T20:41:17Z","2025-02-12T20:41:20Z","2025-02-12T20:41:32Z","2025-02-12T20:41:40Z","2025-02-12T20:41:43Z","2025-02-12T20:41:44Z","2025-02-12T20:41:50Z","2025-02-12T20:41:54Z","2025-02-12T20:41:55Z","2025-02-12T20:42:05Z","2025-02-12T20:42:07Z","2025-02-12T20:42:10Z","2025-02-12T20:42:11Z","2025-02-12T20:42:13Z","2025-02-12T20:42:14Z","2025-02-12T20:42:18Z","2025-02-12T20:42:27Z","2025-02-12T20:42:36Z","2025-02-12T20:42:38Z","2025-02-12T20:42:41Z","2025-02-12T20:42:47Z","2025-02-12T20:42:52Z","2025-02-12T20:43:01Z","2025-02-12T20:43:08Z","2025-02-12T20:43:11Z","2025-02-12T20:43:12Z","2025-02-12T20:43:16Z","2025-02-12T20:43:17Z","2025-02-12T20:43:20Z","2025-02-12T20:43:21Z","2025-02-12T20:43:27Z","2025-02-12T20:43:30Z","2025-02-12T20:43:32Z","2025-02-12T20:43:34Z","2025-02-12T20:43:35Z","2025-02-12T20:43:36Z","2025-02-12T20:43:39Z","2025-02-12T20:43:41Z","2025-02-12T20:43:42Z","2025-02-12T20:43:45Z","2025-02-12T20:43:49Z","2025-02-12T20:43:50Z","2025-02-12T20:43:53Z","2025-02-12T20:43:58Z","2025-02-12T20:44:04Z","2025-02-12T20:44:05Z","2025-02-12T20:44:08Z","2025-02-12T20:44:09Z","2025-02-12T20:44:11Z","2025-02-12T20:44:14Z","2025-02-12T20:44:15Z","2025-02-12T20:44:17Z","2025-02-12T20:44:19Z","2025-02-12T20:44:20Z","2025-02-12T20:44:22Z","2025-02-12T20:44:25Z","2025-02-12T20:44:27Z","2025-02-12T20:44:36Z","2025-02-12T20:44:37Z","2025-02-12T20:44:38Z","2025-02-12T20:44:40Z","2025-02-12T20:44:44Z","2025-02-12T20:44:46Z","2025-02-12T20:44:51Z","2025-02-12T20:44:52Z","2025-02-12T20:44:56Z","2025-02-12T20:44:58Z","2025-02-12T20:45:00Z","2025-02-12T20:45:02Z","2025-02-12T20:45:04Z","2025-02-12T20:45:07Z","2025-02-12T20:45:08Z","2025-02-12T20:45:09Z","2025-02-12T20:45:18Z","2025-02-12T20:45:19Z","2025-02-12T20:45:23Z","2025-02-12T20:45:26Z","2025-02-12T20:45:27Z","2025-02-12T20:45:35Z","2025-02-12T20:45:42Z","2025-02-12T20:45:45Z","2025-02-12T20:45:50Z","2025-02-12T20:45:51Z","2025-02-12T20:45:52Z","2025-02-12T20:45:53Z","2025-02-12T20:45:55Z","2025-02-12T20:45:57Z","2025-02-12T20:46:01Z","2025-02-12T20:46:09Z","2025-02-12T20:46:10Z","2025-02-12T20:46:13Z","2025-02-12T20:46:14Z","2025-02-12T20:46:15Z","2025-02-12T20:46:17Z","2025-02-12T20:46:19Z","2025-02-12T20:46:21Z","2025-02-12T20:46:24Z","2025-02-12T20:46:25Z","2025-02-12T20:46:27Z","2025-02-12T20:46:28Z","2025-02-12T20:46:29Z","2025-02-12T20:46:30Z","2025-02-12T20:46:32Z","2025-02-12T20:46:33Z","2025-02-12T20:46:35Z","2025-02-12T20:46:40Z","2025-02-12T20:46:41Z","2025-02-12T20:46:43Z","2025-02-12T20:46:44Z","2025-02-12T20:46:46Z","2025-02-12T20:46:48Z","2025-02-12T20:46:49Z","2025-02-12T20:46:51Z","2025-02-12T20:46:52Z","2025-02-12T20:46:58Z","2025-02-12T20:47:03Z","2025-02-12T20:47:06Z","2025-02-12T20:47:07Z","2025-02-12T20:47:08Z","2025-02-12T20:47:09Z","2025-02-12T20:47:11Z","2025-02-12T20:47:12Z","2025-02-12T20:47:17Z","2025-02-12T20:47:18Z","2025-02-12T20:47:21Z","2025-02-12T20:47:22Z","2025-02-12T20:47:23Z","2025-02-12T20:47:24Z","2025-02-12T20:47:26Z","2025-02-12T20:47:27Z","2025-02-12T20:47:29Z","2025-02-12T20:47:30Z","2025-02-12T20:47:31Z","2025-02-12T20:47:35Z","2025-02-12T20:47:38Z","2025-02-12T20:47:41Z","2025-02-12T20:47:43Z","2025-02-12T20:47:44Z","2025-02-12T20:47:45Z","2025-02-12T20:47:46Z","2025-02-12T20:47:48Z","2025-02-12T20:47:49Z","2025-02-12T20:47:50Z","2025-02-12T20:47:52Z","2025-02-12T20:47:53Z","2025-02-12T20:47:54Z","2025-02-12T20:47:59Z","2025-02-12T20:48:01Z","2025-02-12T20:48:03Z","2025-02-12T20:48:04Z","2025-02-12T20:48:06Z","2025-02-12T20:48:07Z","2025-02-12T20:48:08Z","2025-02-12T20:48:10Z","2025-02-12T20:48:15Z","2025-02-12T20:48:16Z","2025-02-12T20:48:17Z","2025-02-12T20:48:20Z","2025-02-12T20:48:21Z","2025-02-12T20:48:23Z","2025-02-12T20:48:27Z","2025-02-12T20:48:28Z","2025-02-12T20:48:30Z","2025-02-12T20:48:32Z","2025-02-12T20:48:35Z","2025-02-12T20:48:40Z","2025-02-12T20:48:42Z","2025-02-12T20:48:52Z","2025-02-12T20:48:53Z","2025-02-12T20:48:54Z","2025-02-12T20:48:55Z","2025-02-12T20:48:56Z","2025-02-12T20:48:57Z","2025-02-12T20:48:59Z","2025-02-12T20:49:00Z","2025-02-12T20:49:01Z","2025-02-12T20:49:02Z","2025-02-12T20:49:04Z","2025-02-12T20:49:07Z","2025-02-12T20:49:08Z","2025-02-12T20:49:12Z","2025-02-12T20:49:14Z","2025-02-12T20:49:17Z","2025-02-12T20:49:19Z","2025-02-12T20:49:20Z","2025-02-12T20:49:22Z","2025-02-12T20:49:24Z","2025-02-12T20:49:25Z","2025-02-12T20:49:26Z","2025-02-12T20:49:27Z","2025-02-12T20:49:28Z","2025-02-12T20:49:29Z","2025-02-12T20:49:32Z","2025-02-12T20:49:34Z","2025-02-12T20:49:41Z","2025-02-12T20:49:43Z","2025-02-12T20:49:44Z","2025-02-12T20:49:50Z","2025-02-12T20:49:51Z","2025-02-12T20:49:52Z","2025-02-12T20:49:53Z","2025-02-12T20:49:55Z","2025-02-12T20:49:56Z","2025-02-12T20:50:04Z","2025-02-12T20:50:11Z","2025-02-12T20:50:17Z","2025-02-12T20:50:21Z","2025-02-12T20:50:22Z","2025-02-12T20:50:23Z","2025-02-12T20:50:25Z","2025-02-12T20:50:26Z","2025-02-12T20:50:27Z","2025-02-12T20:50:29Z","2025-02-12T20:50:30Z","2025-02-12T20:50:31Z","2025-02-12T20:50:32Z","2025-02-12T20:50:34Z","2025-02-12T20:50:36Z","2025-02-12T20:50:41Z","2025-02-12T20:50:51Z","2025-02-12T20:50:54Z","2025-02-12T20:51:02Z","2025-02-12T20:51:06Z","2025-02-12T20:51:13Z","2025-02-12T20:51:16Z","2025-02-12T20:51:17Z","2025-02-12T20:51:18Z","2025-02-12T20:51:29Z","2025-02-12T20:51:31Z","2025-02-12T20:51:33Z","2025-02-12T20:51:36Z","2025-02-12T20:51:44Z","2025-02-12T20:51:51Z","2025-02-12T20:51:52Z","2025-02-12T20:51:53Z","2025-02-12T20:51:57Z","2025-02-12T20:52:02Z","2025-02-12T20:52:11Z","2025-02-12T20:52:12Z","2025-02-12T20:52:13Z","2025-02-12T20:52:14Z","2025-02-12T20:52:15Z","2025-02-12T20:52:17Z","2025-02-12T20:52:19Z","2025-02-12T20:52:20Z","2025-02-12T20:52:21Z","2025-02-12T20:52:23Z","2025-02-12T20:52:27Z","2025-02-12T20:52:28Z","2025-02-12T20:52:30Z","2025-02-12T20:52:32Z","2025-02-12T20:52:34Z","2025-02-12T20:52:39Z","2025-02-12T20:52:40Z","2025-02-12T20:52:42Z","2025-02-12T20:52:43Z","2025-02-12T20:52:44Z","2025-02-12T20:52:46Z","2025-02-12T20:52:48Z","2025-02-12T20:52:50Z","2025-02-12T20:52:52Z","2025-02-12T20:52:53Z","2025-02-12T20:52:55Z","2025-02-12T20:52:57Z","2025-02-12T20:53:02Z","2025-02-12T20:53:07Z","2025-02-12T20:53:10Z","2025-02-12T20:53:16Z","2025-02-12T20:53:18Z","2025-02-12T20:53:20Z","2025-02-12T20:53:22Z","2025-02-12T20:53:30Z","2025-02-12T20:53:36Z","2025-02-12T20:53:42Z","2025-02-12T20:53:43Z","2025-02-12T20:53:44Z","2025-02-12T20:53:45Z","2025-02-12T20:53:46Z","2025-02-12T20:53:50Z","2025-02-12T20:53:51Z","2025-02-12T20:53:55Z","2025-02-12T20:53:56Z","2025-02-12T20:53:57Z","2025-02-12T20:53:59Z","2025-02-12T20:54:00Z","2025-02-12T20:54:05Z","2025-02-12T20:54:06Z","2025-02-12T20:54:09Z","2025-02-12T20:54:11Z","2025-02-12T20:54:15Z","2025-02-12T20:54:17Z","2025-02-12T20:54:23Z","2025-02-12T20:54:24Z","2025-02-12T20:54:26Z","2025-02-12T20:54:27Z","2025-02-12T20:54:29Z","2025-02-12T20:54:31Z","2025-02-12T20:54:32Z","2025-02-12T20:54:34Z","2025-02-12T20:54:36Z","2025-02-12T20:54:38Z","2025-02-12T20:54:45Z","2025-02-12T20:54:48Z","2025-02-12T20:54:50Z","2025-02-12T20:54:57Z","2025-02-12T20:55:00Z","2025-02-12T20:55:01Z","2025-02-12T20:55:10Z","2025-02-12T20:55:12Z","2025-02-12T20:55:13Z","2025-02-12T20:55:16Z","2025-02-12T20:55:23Z","2025-02-12T20:55:24Z","2025-02-12T20:55:26Z","2025-02-12T20:55:28Z","2025-02-12T20:55:34Z","2025-02-12T20:55:35Z","2025-02-12T20:55:37Z","2025-02-12T20:55:38Z","2025-02-12T20:55:39Z","2025-02-12T20:55:42Z","2025-02-12T20:55:45Z","2025-02-12T20:55:48Z","2025-02-12T20:55:51Z","2025-02-12T20:55:53Z","2025-02-12T20:55:56Z","2025-02-12T20:55:58Z","2025-02-12T20:55:59Z","2025-02-12T20:56:01Z","2025-02-12T20:56:02Z","2025-02-12T20:56:03Z","2025-02-12T20:56:07Z","2025-02-12T20:56:12Z","2025-02-12T20:56:15Z","2025-02-12T20:56:18Z","2025-02-12T20:56:19Z","2025-02-12T20:56:21Z","2025-02-12T20:56:22Z","2025-02-12T20:56:24Z","2025-02-12T20:56:28Z","2025-02-12T20:56:32Z","2025-02-12T20:56:42Z","2025-02-12T20:56:43Z","2025-02-12T20:56:45Z","2025-02-12T20:56:47Z","2025-02-12T20:56:51Z"],"heartRates":[122,122,122,122,118,118,117,117,122,122,124,124,124,124,124,124,124,124,124,130,133,133,133,133,133,130,130,130,128,128,128,128,128,128,128,128,128,124,124,124,124,125,124,124,125,126,126,126,127,125,125,125,128,128,128,131,131,132,132,132,130,130,127,122,122,122,122,122,126,126,126,126,126,126,128,128,128,128,128,126,126,126,126,129,129,130,130,130,129,129,128,126,126,126,121,121,121,121,122,122,122,122,122,121,121,121,122,122,122,122,122,122,122,122,122,122,127,130,130,130,129,129,129,129,133,133,133,132,132,132,132,132,132,132,132,132,132,132,132,132,132,132,132,132,133,133,133,133,133,137,137,137,137,140,140,140,140,140,140,140,134,134,132,132,132,132,132,128,128,128,128,128,129,129,129,129,129,129,129,140,140,140,140,142,142,142,142,143,143,141,141,141,139,137,137,137,135,135,133,133,133,133,133,134,134,131,129,129,129,127,126,120,120,119,120,110,107,108,105,99,98,98,99,99,98,98,98,98,99,94,94,94,92,98,93,97,95,94,94,95,95,95,92,92,92,97,97,100,100,106,105,105,105,105,111,111,107,104,104,104,104,105,105,105,107,107,106,106,106,108,108,108,108,108,106,106,106,104,104,106,106,119,117,117,112,112,111,111,111,111,113,113,105,105,105,106,106,101,100,99,99,100,100,98,97,98,98,100,100,100,100,100,98,98,98,98,98,98,99,99,99,98,98,98,98,95,95,95,95,95,95,95,95,106,106,105,106,106,106,109,109,107,107,110,110,111,108,108,108,104,105,108,108,108,108,110,110,109,108,104,104,102,102,102,104,104,105,105,106,106,107,107,102,100,100,100,100,100,96,96,96,105,105,105,107,107,107,107,120,120,122,119,119,111,111,116,116,114,114,115,115,115,107,107,107,107,104,104,104,108,108,116,115,115,113,113,113,113,113,113,113,113,116,115,113,113,112,112,112,115,116,116,116,117,117,117,117,117,114,114,119,119,120,120,120,122,122,126,122,122,122,122,126,126,126,129,129,129,129,129,129,125,125,125,125,128,131,131,131,128,128,128,128,128,135,135,131,131,131,127,129,129,129,129,129,129,129,129,129,132,132,132,135,135,135,135,135,135,132,132,131,131,131,130,130,126,127,127,127,127,127,127,127,127,131,133,132,132,132,132,132,132,122,122,119,119,119,119,119,119,119,119,120,120,120,120,120,125,125,125,125,124,121,121,121,122,122,122,119,119,119,116,116,114,114,113,113,113,108,109,108,108,108,108,118,118,118,113,113,110,110,110,108,108,107,108,108,108,109,109,109,109,114,114,114,113,113,112,112,112,110,110,110,111,111,111,110,110,110,110,111,111,115,115,112,112,112,110,108,108,111,111,111,111,109,108,108,107,107,107,108,108,108,108,108,109,109,109,109,109,109,109,113,113,117,114,113,113,114,114,114,115,115,115,115,114,114,114,114,113,113,113,113,113,118,117,108,108,114,114,114,112,111,111,111,111,115,115,115,116,116,117,121,118,115,115,109,109,111,111,111,111,125,125,122,122,121,121,122,122,121,121,121,121,111,113,113,113,113,119,119,122,122,122,122,119,119,119,119,119,120,122,122,122,122,122,122,122,125,125,130,132,129,122,122,121,121,121,116,116,113,113,113,110,110,108,108,108,106,108,108,108,108,105,104,104,104,103,109,109,109,108,108,108,108,108,119,119,122,122,118,118,119,119,118,118,120,120,117,117,116,116,114,114,114,114,114,114,114,114,116,115,111,111,111,114,114,114,114,114,117,117,117,117,117,114,114,109,110,110,110,115,114,114,122,122,120,120,114,114,114,113,116,116,118,118,118,118,118,120,120,120,120,120,120,115,112,112,108,109,109,109,116,116,114,114,111,111,111,114,109,110,110,110,110,115,114,114,114,113,114,114,114,114,114,114,122,121,121,111,112,112,112,109,109,109,113,113,112,112,112,112,112,117,115,113,113,113,112,113,113,113,113,114,114,114,125,125,125,124,124,124,124,127,127,127,122,122,122,122,122,122,121,121,120,120,120,122,122,122,122,122,127,127,127,130,130,130,128,128,124,124,124,124,126,126,127,127,132,132,131,129,129,129,129,126,128,128,128,128,128,128,131,131,133,135,135,133,131,131,131,132,132,132,132,135,135,135,135,138,138,138,138,137,137,137,137,136,136,136,136,136,136,136,133,133,125,125,125,125,125,125,125,126,126,126,126,126,119,119,119,118,118,118,120,114,115,115,115,112,112,112,112,112,112,119,119,119,114,116,116,116,116,120,117,117,115,115,115,115,115,121,116,116,120,119,118,118,118,117,118,114,114,114,106,106,107,107,107,107,110,109,108,108,108,109,109,109,106,106,106,106,102,102,102,105,105,105,102,102,102,102,102,113,113,105,105,109,109,109,109,107,106,104,107,107,105,104,100,104,105,103,103,103,103,113,111,110,111,111,111,111,116,116,116,116,116,116,112,109,109,109,112,112,112,122,122,122,122,122,126,124,124,121,120,120,120,126,126,125,125,122,122,122,122,122,124,124,124,121,121,121,122,122,121,115,114,111,111,111,111,112,112,115,113,113,113,113,113,113,113,109,109,109,112,112,112,115,115,115,115,122,122,124,124,124,124,124,124,124,127,132,132,132,132,132,132,132,136,136,136,136,136,136,139,139,139,139,138,138,138,138,138,138,138,138,138,138,138,138,138,139,140,140,140,140,137,137,137,134,133,133,133,129,129,129,127,127,125,125,125,125,125,117,117,114,114,114,114,114,121,121,121,122,122,122,118,118,115,116,116,120,120,120,120,120,120,120,124,124,124,122,122,120,120,122,122,122,122,125,115,115,117,115,115,115,115,115,115,115,124,124,124,128,122,119,119,122,121,119,119,119,112,111,111,111,114,107,107,107,107,110,109,108,108,108,108,109,109,109,109,109,109,116,116,116,116,116,110,110,113,113,113,113,113,113,122,122,122,124,120,118,118,121,122,122,121,118,114,109,109,108,108,108,108,115,115,115,115,115,117,117,115,114,114,107,107,107,108,108,109,109,109,109,109,115,115,112,112,107,109,109,109,112,112,112,117,114,114,111,111,108,108,108,108,109,109,109,106,108,108,108,104,104,104,104,106,106,105,105,105,105,106,106,106,108,108,107,107,107,107,107]},"geometry":{"type":"LineString","coordinates":[[2.480976,48.71344,36.8],[2.480958,48.713426,36.8],[2.480954,48.713409,36.8],[2.480949,48.713419,36.8],[2.480963,48.713443,36.8],[2.480943,48.713485,36.8],[2.480941,48.713476,36.8],[2.480931,48.713521,36.8],[2.480949,48.713491,36.8],[2.48096,48.713497,36.8],[2.480984,48.713485,36.8],[2.480977,48.71348,36.8],[2.480931,48.713486,36.9],[2.480947,48.713467,36.9],[2.480973,48.713475,36.9],[2.480969,48.713464,36.9],[2.480963,48.713474,36.9],[2.480973,48.713455,36.9],[2.480942,48.713466,36.9],[2.480973,48.71348,36.9],[2.480908,48.713483,36.9],[2.480887,48.713494,37],[2.480933,48.713492,36.9],[2.48094,48.713468,36.9],[2.480961,48.713476,36.9],[2.481008,48.713473,36.8],[2.481007,48.71348,36.9],[2.480969,48.713454,36.9],[2.48098,48.71345,36.8],[2.480989,48.713464,36.8],[2.480975,48.713465,36.9],[2.480965,48.713484,36.9],[2.480973,48.713456,36.9],[2.480985,48.713455,36.8],[2.480985,48.713468,36.8],[2.480968,48.713478,36.9],[2.48099,48.71347,36.8],[2.480978,48.713498,36.9],[2.480979,48.713481,36.9],[2.481001,48.713475,36.8],[2.481,48.713482,36.9],[2.480899,48.713499,36.9],[2.48104,48.713487,36.9],[2.481033,48.713478,36.9],[2.481069,48.713493,36.9],[2.481032,48.713498,36.9],[2.481032,48.713492,36.9],[2.481003,48.713491,36.9],[2.480967,48.713471,36.9],[2.480914,48.713462,36.9],[2.480947,48.71346,36.9],[2.480932,48.713462,36.9],[2.480937,48.713473,36.9],[2.480961,48.71348,36.9],[2.480929,48.713458,36.9],[2.480963,48.713456,36.9],[2.480972,48.71344,36.8],[2.480963,48.713433,36.8],[2.480946,48.713438,36.8],[2.480932,48.713431,36.8],[2.4809,48.713435,36.8],[2.480936,48.71344,36.8],[2.480973,48.713474,36.9],[2.481001,48.713457,36.8],[2.481013,48.713468,36.8],[2.48102,48.713461,36.8],[2.480994,48.713454,36.8],[2.48097,48.713463,36.9],[2.480988,48.713472,36.8],[2.480972,48.713482,36.9],[2.480977,48.713488,36.9],[2.480978,48.71348,36.9],[2.480993,48.713481,36.9],[2.480983,48.71349,36.9],[2.481018,48.713509,37],[2.480993,48.713506,37],[2.480992,48.713496,36.9],[2.48094,48.713511,37],[2.480961,48.713524,37],[2.480967,48.713516,37],[2.480955,48.713508,37],[2.480961,48.713501,36.9],[2.480969,48.713504,36.9],[2.480982,48.713488,36.9],[2.48098,48.713506,37],[2.481009,48.713509,37],[2.480994,48.713524,37],[2.481004,48.713516,37],[2.480989,48.713474,36.8],[2.480941,48.713459,36.9],[2.480919,48.713442,36.8],[2.480914,48.713424,36.8],[2.480897,48.713428,36.8],[2.480916,48.713439,36.8],[2.481001,48.713456,36.8],[2.480979,48.713441,36.8],[2.481016,48.713443,36.8],[2.481037,48.713477,36.8],[2.481004,48.71346,36.8],[2.480994,48.713444,36.8],[2.481005,48.71344,36.8],[2.481002,48.713452,36.8],[2.481023,48.713449,36.8],[2.48099,48.713447,36.8],[2.481001,48.71343,36.8],[2.480978,48.713455,36.9],[2.480971,48.713451,36.9],[2.480997,48.713454,36.8],[2.480984,48.713475,36.8],[2.480924,48.713481,36.9],[2.480956,48.713496,36.9],[2.480972,48.713519,37],[2.480986,48.713507,37],[2.480942,48.713517,37],[2.480955,48.713509,37],[2.480986,48.713526,37],[2.480984,48.713495,36.9],[2.480969,48.71349,36.9],[2.480962,48.713498,36.9],[2.480993,48.71347,36.8],[2.480987,48.713481,36.9],[2.481012,48.713477,36.8],[2.480995,48.713485,36.9],[2.480989,48.713477,36.8],[2.480966,48.713483,36.9],[2.480964,48.713505,36.9],[2.480977,48.71349,36.9],[2.480937,48.713495,36.9],[2.480942,48.713502,36.9],[2.480952,48.713468,36.9],[2.480966,48.713458,36.9],[2.480967,48.713471,36.9],[2.480985,48.713472,36.8],[2.481003,48.713454,36.8],[2.480988,48.713469,36.8],[2.480984,48.71346,36.8],[2.481024,48.71345,36.8],[2.480979,48.713456,36.8],[2.480957,48.71347,36.9],[2.480975,48.713467,36.9],[2.481004,48.713474,36.8],[2.480993,48.713464,36.8],[2.480965,48.713476,36.9],[2.48095,48.713464,36.9],[2.480942,48.713472,36.9],[2.480945,48.713462,36.9],[2.480914,48.713476,36.9],[2.480944,48.713488,36.9],[2.480967,48.713487,36.9],[2.480961,48.713493,36.9],[2.481002,48.713478,36.9],[2.480987,48.713466,36.8],[2.480973,48.713479,36.9],[2.480975,48.713582,37.1],[2.480955,48.713587,37.1],[2.480931,48.713583,37.1],[2.480903,48.713563,37.1],[2.480892,48.713568,37.2],[2.480881,48.713561,37.1],[2.480877,48.713538,37.1],[2.480922,48.713459,36.9],[2.480953,48.713437,36.8],[2.480979,48.713456,36.8],[2.481009,48.713458,36.8],[2.480993,48.713466,36.8],[2.480986,48.713459,36.8],[2.480967,48.713479,36.9],[2.480924,48.713488,36.9],[2.480926,48.713505,36.9],[2.480982,48.71348,36.9],[2.48098,48.713456,36.8],[2.480942,48.713462,36.9],[2.480953,48.713468,36.9],[2.480949,48.713475,36.9],[2.480989,48.713471,36.8],[2.481033,48.713482,36.9],[2.481009,48.713524,37],[2.480968,48.713535,37],[2.480957,48.713526,37],[2.480968,48.713493,36.9],[2.48096,48.713477,36.9],[2.480957,48.713484,36.9],[2.480981,48.713497,36.9],[2.480958,48.713504,36.9],[2.480968,48.713496,36.9],[2.480981,48.713498,36.9],[2.480962,48.713491,36.9],[2.480986,48.713467,36.8],[2.480978,48.713445,36.8],[2.480898,48.713435,36.8],[2.480874,48.71345,36.9],[2.480888,48.713453,36.9],[2.480936,48.71342,36.8],[2.480948,48.713432,36.8],[2.480974,48.713439,36.8],[2.480995,48.713424,36.8],[2.480977,48.713405,36.7],[2.481002,48.713398,36.7],[2.481008,48.713421,36.8],[2.481046,48.713421,36.8],[2.481036,48.713438,36.8],[2.481013,48.713444,36.8],[2.480999,48.713438,36.8],[2.480983,48.713442,36.8],[2.481014,48.713451,36.8],[2.481043,48.713474,36.8],[2.48107,48.71348,36.9],[2.481057,48.71351,36.9],[2.481064,48.713533,36.9],[2.48105,48.713566,37.1],[2.481052,48.71362,37.2],[2.481041,48.713555,37],[2.481046,48.713526,36.9],[2.481024,48.713505,36.9],[2.480998,48.713437,36.8],[2.48096,48.713433,36.8],[2.480985,48.713442,36.8],[2.480961,48.713446,36.8],[2.480974,48.713447,36.8],[2.481003,48.713471,36.8],[2.481016,48.713472,36.8],[2.481007,48.713471,36.8],[2.481016,48.713503,36.9],[2.481005,48.713483,36.9],[2.481003,48.713492,36.9],[2.480986,48.713478,36.9],[2.480989,48.713485,36.9],[2.481019,48.713469,36.8],[2.481013,48.713476,36.8],[2.480991,48.713468,36.8],[2.481,48.713468,36.8],[2.480994,48.713464,36.8],[2.481012,48.71347,36.8],[2.481003,48.713452,36.8],[2.480988,48.713446,36.8],[2.480996,48.713451,36.8],[2.480966,48.713446,36.8],[2.480979,48.713475,36.8],[2.480974,48.713471,36.9],[2.480995,48.713478,36.9],[2.480995,48.71347,36.8],[2.48101,48.713467,36.8],[2.481,48.713451,36.8],[2.481011,48.713452,36.8],[2.480999,48.713457,36.8],[2.480981,48.713492,36.9],[2.480863,48.713612,37.2],[2.480874,48.713664,37.4],[2.48086,48.713673,37.4],[2.480862,48.71369,37.5],[2.480885,48.713678,37.5],[2.480862,48.713666,37.4],[2.480884,48.713672,37.4],[2.480881,48.713663,37.4],[2.480925,48.713624,37.3],[2.480922,48.713629,37.3],[2.48094,48.713615,37.2],[2.480918,48.713614,37.2],[2.480908,48.713621,37.3],[2.480912,48.713663,37.4],[2.480902,48.713674,37.4],[2.480856,48.713677,37.5],[2.480855,48.713692,37.5],[2.480869,48.713694,37.5],[2.480877,48.713683,37.5],[2.48086,48.713671,37.4],[2.480825,48.713665,37.4],[2.480829,48.713658,37.4],[2.480881,48.713677,37.5],[2.480885,48.713655,37.4],[2.4809,48.71365,37.4],[2.480918,48.713658,37.4],[2.480914,48.713636,37.3],[2.480931,48.713639,37.3],[2.480918,48.713648,37.4],[2.480916,48.713625,37.3],[2.480891,48.713607,37.2],[2.480902,48.713559,37.1],[2.480902,48.71359,37.1],[2.480924,48.713619,37.3],[2.480944,48.713611,37.2],[2.480855,48.713653,37.4],[2.480837,48.713685,37.5],[2.480848,48.713664,37.4],[2.480866,48.713661,37.4],[2.480831,48.713671,37.4],[2.480853,48.713664,37.4],[2.480862,48.713632,37.3],[2.480893,48.713606,37.2],[2.480915,48.713619,37.3],[2.48091,48.713612,37.2],[2.480914,48.713623,37.3],[2.480896,48.713619,37.3],[2.480902,48.713626,37.3],[2.480877,48.713638,37.3],[2.480883,48.713647,37.3],[2.48091,48.713633,37.3],[2.481017,48.713604,37.2],[2.481038,48.713582,37.1],[2.480958,48.713561,37],[2.480957,48.713573,37.1],[2.480905,48.71358,37.1],[2.480913,48.713595,37.2],[2.480931,48.713584,37.1],[2.480925,48.71359,37.1],[2.48095,48.713594,37.2],[2.480972,48.713579,37.1],[2.48103,48.713589,37.1],[2.481013,48.713584,37.1],[2.481021,48.713598,37.2],[2.481006,48.713604,37.2],[2.48101,48.713599,37.2],[2.481011,48.713614,37.2],[2.481,48.713612,37.2],[2.481013,48.713621,37.2],[2.481003,48.713618,37.2],[2.480992,48.713628,37.2],[2.480953,48.713621,37.3],[2.480931,48.713627,37.3],[2.480917,48.713618,37.2],[2.480891,48.713618,37.2],[2.480901,48.713589,37.1],[2.480909,48.713598,37.2],[2.48092,48.713589,37.1],[2.480915,48.713596,37.2],[2.480941,48.713596,37.2],[2.480938,48.713587,37.1],[2.480969,48.713575,37.1],[2.48101,48.713592,37.2],[2.481018,48.713587,37.1],[2.480965,48.713591,37.2],[2.480948,48.713606,37.2],[2.480935,48.713607,37.2],[2.480875,48.713582,37.2],[2.48086,48.713542,37.1],[2.480884,48.713539,37.1],[2.48101,48.713591,37.2],[2.481013,48.713598,37.2],[2.481016,48.713591,37.2],[2.481032,48.713606,37.1],[2.481026,48.713598,37.1],[2.481018,48.713604,37.2],[2.48098,48.713562,37],[2.480988,48.713551,37],[2.480962,48.71358,37.1],[2.480971,48.713588,37.1],[2.480968,48.713571,37.1],[2.480975,48.71358,37.1],[2.480963,48.713581,37.1],[2.480993,48.713596,37.2],[2.480945,48.713587,37.1],[2.480948,48.713605,37.2],[2.480976,48.713547,37],[2.480972,48.713554,37],[2.480924,48.713556,37.1],[2.480909,48.713573,37.1],[2.480915,48.713563,37.1],[2.480946,48.713565,37.1],[2.480931,48.713573,37.1],[2.480958,48.713572,37.1],[2.480945,48.713578,37.1],[2.480986,48.713564,37.1],[2.480952,48.713556,37],[2.480968,48.713582,37.1],[2.480903,48.713594,37.2],[2.48091,48.713588,37.1],[2.480907,48.713596,37.2],[2.480906,48.713581,37.1],[2.480977,48.713579,37.1],[2.480999,48.713572,37.1],[2.481047,48.713576,37.1],[2.481027,48.713575,37.1],[2.48101,48.713595,37.2],[2.480977,48.7136,37.2],[2.480962,48.713593,37.2],[2.48103,48.713607,37.1],[2.481008,48.713605,37.2],[2.481,48.713594,37.2],[2.481014,48.713519,37],[2.481051,48.713505,36.9],[2.481076,48.713521,36.9],[2.481053,48.713524,36.9],[2.481073,48.713544,37],[2.481107,48.713549,37],[2.481033,48.713514,36.9],[2.481034,48.713536,37],[2.480968,48.713516,37],[2.480968,48.713532,37],[2.480984,48.713512,37],[2.48105,48.713523,36.9],[2.481017,48.713557,37],[2.48102,48.71355,37],[2.481005,48.713549,37],[2.481002,48.713539,37],[2.48102,48.713548,37],[2.481044,48.71351,36.9],[2.481047,48.713535,37],[2.481029,48.713526,36.9],[2.481037,48.71352,36.9],[2.481026,48.713509,36.9],[2.481003,48.713544,37],[2.480997,48.71354,37],[2.481007,48.713559,37],[2.481024,48.713556,37],[2.481022,48.713547,37],[2.481032,48.713544,37],[2.481044,48.713562,37],[2.481029,48.713574,37.1],[2.481016,48.713569,37.1],[2.481012,48.713527,37],[2.480997,48.713511,37],[2.481053,48.7135,36.9],[2.481039,48.713507,36.9],[2.481049,48.713521,36.9],[2.481072,48.713528,36.9],[2.48106,48.713554,37],[2.481065,48.713549,37],[2.481046,48.713536,37],[2.48103,48.71354,37],[2.481024,48.71356,37],[2.481056,48.713606,37.1],[2.481088,48.713616,37.1],[2.481104,48.713644,37.2],[2.481074,48.713647,37.2],[2.481068,48.713631,37.2],[2.481055,48.713676,37.3],[2.481059,48.713704,37.4],[2.481071,48.713713,37.4],[2.481061,48.713749,37.5],[2.481043,48.713763,37.5],[2.481025,48.713763,37.5],[2.480929,48.713728,37.5],[2.480923,48.713699,37.4],[2.480861,48.713679,37.5],[2.48086,48.713691,37.5],[2.480861,48.713672,37.4],[2.480902,48.71366,37.4],[2.48088,48.713688,37.5],[2.4809,48.713668,37.4],[2.480922,48.713687,37.4],[2.480943,48.713731,37.5],[2.480935,48.713697,37.4],[2.480945,48.713687,37.4],[2.480937,48.713765,37.6],[2.480911,48.713835,37.8],[2.480954,48.713692,37.4],[2.480936,48.713736,37.6],[2.480909,48.713766,37.6],[2.480858,48.713682,37.5],[2.480876,48.713702,37.5],[2.48088,48.713672,37.4],[2.48084,48.713518,37],[2.480929,48.713724,37.5],[2.480936,48.713704,37.5],[2.480906,48.713741,37.6],[2.480918,48.713729,37.5],[2.480936,48.713727,37.5],[2.480979,48.713689,37.4],[2.480957,48.7137,37.4],[2.480964,48.713704,37.5],[2.480938,48.713731,37.5],[2.480915,48.713779,37.6],[2.480953,48.713716,37.5],[2.480945,48.713717,37.5],[2.480949,48.71371,37.5],[2.480903,48.713696,37.4],[2.480929,48.713705,37.5],[2.480922,48.713688,37.4],[2.480898,48.713686,37.4],[2.480912,48.713741,37.6],[2.480856,48.713678,37.5],[2.480798,48.713665,37.5],[2.480789,48.713672,37.5],[2.48085,48.713694,37.5],[2.480865,48.713712,37.5],[2.480869,48.713704,37.5],[2.48083,48.713647,37.4],[2.480829,48.713657,37.4],[2.480866,48.713684,37.5],[2.48088,48.713724,37.5],[2.480902,48.713686,37.4],[2.480886,48.713696,37.5],[2.480873,48.713687,37.5],[2.480894,48.713663,37.4],[2.480863,48.713673,37.4],[2.480876,48.713689,37.5],[2.480865,48.713696,37.5],[2.480853,48.71368,37.5],[2.480908,48.713676,37.4],[2.480884,48.713673,37.4],[2.480887,48.713692,37.5],[2.480857,48.713708,37.5],[2.480873,48.713703,37.5],[2.480934,48.713706,37.5],[2.48093,48.713696,37.4],[2.480943,48.713683,37.4],[2.480943,48.713701,37.4],[2.480933,48.713686,37.4],[2.480943,48.713683,37.4],[2.480939,48.713695,37.4],[2.480954,48.713719,37.5],[2.480919,48.713629,37.3],[2.480867,48.713543,37.1],[2.480972,48.71373,37.5],[2.480882,48.713714,37.5],[2.480909,48.713691,37.4],[2.480932,48.713726,37.5],[2.480946,48.71369,37.4],[2.480991,48.713643,37.2],[2.480973,48.71362,37.3],[2.480941,48.713699,37.4],[2.480953,48.713708,37.5],[2.480938,48.713724,37.5],[2.480919,48.713718,37.5],[2.480879,48.713721,37.5],[2.480865,48.713678,37.5],[2.480881,48.713679,37.5],[2.480867,48.713659,37.4],[2.480882,48.713649,37.4],[2.48089,48.713666,37.4],[2.480929,48.713692,37.4],[2.480945,48.71369,37.4],[2.48098,48.713702,37.4],[2.480975,48.713707,37.5],[2.480918,48.713699,37.4],[2.480885,48.713686,37.5],[2.480857,48.713698,37.5],[2.480865,48.713704,37.5],[2.480879,48.713685,37.5],[2.480871,48.713689,37.5],[2.480882,48.71368,37.5],[2.48087,48.713664,37.4],[2.480859,48.713663,37.4],[2.480891,48.713646,37.3],[2.480899,48.713601,37.2],[2.480923,48.713576,37.1],[2.48093,48.71359,37.1],[2.480889,48.713629,37.3],[2.480901,48.713621,37.3],[2.480934,48.713621,37.3],[2.480921,48.713606,37.2],[2.480921,48.713612,37.2],[2.480934,48.713609,37.2],[2.48093,48.713603,37.2],[2.480909,48.713602,37.2],[2.480927,48.713664,37.4],[2.480877,48.71368,37.5],[2.480881,48.713685,37.5],[2.48088,48.713662,37.4],[2.480879,48.713673,37.4],[2.480867,48.713675,37.4],[2.480872,48.713684,37.5],[2.480862,48.713673,37.4],[2.480905,48.713653,37.4],[2.480898,48.713645,37.3],[2.480908,48.713611,37.2],[2.480912,48.713615,37.2],[2.480904,48.713608,37.2],[2.480919,48.713608,37.2],[2.480922,48.713617,37.2],[2.480891,48.713584,37.2],[2.480899,48.713551,37.1],[2.480928,48.713605,37.2],[2.480927,48.713598,37.2],[2.480965,48.713589,37.1],[2.481036,48.71359,37.1],[2.48103,48.713556,37],[2.481013,48.71353,37],[2.480995,48.713527,37],[2.480921,48.713539,37.1],[2.480917,48.713551,37.1],[2.480891,48.71356,37.1],[2.480931,48.713579,37.1],[2.480928,48.713585,37.1],[2.480932,48.713576,37.1],[2.480908,48.713593,37.2],[2.480936,48.713607,37.2],[2.48093,48.713602,37.2],[2.480924,48.713609,37.2],[2.480922,48.713604,37.2],[2.480937,48.713612,37.2],[2.480953,48.713606,37.2],[2.480946,48.713612,37.2],[2.480929,48.713602,37.2],[2.480992,48.713586,37.1],[2.481028,48.713589,37.1],[2.48103,48.713584,37.1],[2.481018,48.713589,37.1],[2.481006,48.713584,37.1],[2.481015,48.713585,37.1],[2.480996,48.713581,37.1],[2.480979,48.71359,37.1],[2.480925,48.713583,37.1],[2.480894,48.713604,37.2],[2.480922,48.713576,37.1],[2.480929,48.713594,37.2],[2.480919,48.713601,37.2],[2.48095,48.713596,37.2],[2.480944,48.713588,37.1],[2.480929,48.7136,37.2],[2.480949,48.713588,37.1],[2.480943,48.713584,37.1],[2.480933,48.713604,37.2],[2.480956,48.713589,37.1],[2.481047,48.71359,37.1],[2.481037,48.713589,37.1],[2.481042,48.713594,37.1],[2.481019,48.713603,37.2],[2.48101,48.713595,37.2],[2.481012,48.713602,37.2],[2.480971,48.713583,37.1],[2.480974,48.713588,37.1],[2.480935,48.713586,37.1],[2.480892,48.713597,37.2],[2.480898,48.71359,37.1],[2.480905,48.713597,37.2],[2.480921,48.71359,37.1],[2.480936,48.713598,37.2],[2.480917,48.71359,37.1],[2.480932,48.713588,37.1],[2.480948,48.713597,37.2],[2.480985,48.713559,37],[2.480992,48.713538,37],[2.48098,48.713513,37],[2.481014,48.713481,36.9],[2.481033,48.713486,36.9],[2.481031,48.7135,36.9],[2.481037,48.713496,36.9],[2.481028,48.713505,36.9],[2.480997,48.713493,36.9],[2.480993,48.71347,36.8],[2.481,48.713473,36.8],[2.480984,48.713473,36.8],[2.481015,48.713484,36.9],[2.480995,48.713545,37],[2.481009,48.71353,37],[2.480991,48.713565,37.1],[2.480975,48.713571,37.1],[2.481027,48.713586,37.1],[2.48102,48.713592,37.2],[2.481034,48.71359,37.1],[2.481035,48.713563,37.1],[2.481056,48.713532,36.9],[2.481049,48.713534,37],[2.481054,48.713514,36.9],[2.481035,48.713529,36.9],[2.481041,48.713537,37],[2.481028,48.71355,37],[2.48104,48.713535,37],[2.481009,48.713514,37],[2.48103,48.713513,36.9],[2.481043,48.713498,36.9],[2.481033,48.713507,36.9],[2.48104,48.713514,36.9],[2.480999,48.713552,37],[2.480996,48.713545,37],[2.480998,48.713556,37],[2.481024,48.713554,37],[2.480998,48.713564,37.1],[2.481016,48.713537,37],[2.481013,48.713524,37],[2.481051,48.713507,36.9],[2.481057,48.713495,36.9],[2.481044,48.7135,36.9],[2.48106,48.71352,36.9],[2.481071,48.71352,36.9],[2.481056,48.713475,36.8],[2.481037,48.713489,36.9],[2.481045,48.7135,36.9],[2.481025,48.713494,36.9],[2.481042,48.71349,36.9],[2.481,48.713516,37],[2.480995,48.713549,37],[2.481013,48.713555,37],[2.481057,48.713506,36.9],[2.481052,48.713502,36.9],[2.481054,48.713512,36.9],[2.481086,48.713504,36.9],[2.481058,48.713524,36.9],[2.481068,48.713531,36.9],[2.481081,48.713528,36.9],[2.480994,48.713519,37],[2.480975,48.713547,37],[2.480997,48.713541,37],[2.481032,48.71357,37.1],[2.481041,48.713565,37.1],[2.481015,48.713564,37.1],[2.481015,48.713586,37.1],[2.481001,48.713585,37.1],[2.481011,48.713581,37.1],[2.481027,48.713532,36.9],[2.481053,48.713499,36.9],[2.481046,48.713525,36.9],[2.481053,48.713524,36.9],[2.481046,48.713526,36.9],[2.48101,48.713498,36.9],[2.481003,48.713513,37],[2.481022,48.713508,36.9],[2.481,48.713511,37],[2.480988,48.713558,37],[2.481015,48.713585,37.1],[2.480973,48.713573,37.1],[2.480994,48.713543,37],[2.480999,48.713556,37],[2.481004,48.713545,37],[2.481029,48.713549,37],[2.481051,48.713522,36.9],[2.481059,48.713524,36.9],[2.481067,48.7135,36.9],[2.481047,48.713496,36.9],[2.481055,48.713499,36.9],[2.481051,48.713514,36.9],[2.481042,48.713502,36.9],[2.481027,48.713505,36.9],[2.481066,48.713529,36.9],[2.481072,48.713563,37],[2.481075,48.713541,37],[2.481069,48.713595,37.1],[2.481033,48.713584,37.1],[2.481018,48.71356,37],[2.480983,48.713539,37],[2.481002,48.713569,37.1],[2.481019,48.713544,37],[2.481081,48.71361,37.1],[2.481058,48.713621,37.2],[2.481066,48.713645,37.2],[2.481055,48.713621,37.2],[2.481048,48.713626,37.2],[2.481037,48.713608,37.1],[2.481054,48.713621,37.2],[2.481037,48.713603,37.1],[2.481023,48.713609,37.1],[2.481019,48.713584,37.1],[2.481039,48.713596,37.1],[2.48104,48.71359,37.1],[2.481052,48.713606,37.1],[2.480986,48.713615,37.2],[2.480972,48.713623,37.3],[2.480959,48.713619,37.3],[2.480943,48.713673,37.3],[2.480925,48.71369,37.4],[2.48094,48.713713,37.5],[2.480902,48.713693,37.4],[2.480885,48.713702,37.5],[2.480855,48.713677,37.5],[2.480863,48.713687,37.5],[2.480835,48.713678,37.5],[2.480857,48.713674,37.4],[2.480851,48.713664,37.4],[2.48083,48.713678,37.5],[2.480846,48.713684,37.5],[2.480884,48.713674,37.4],[2.480943,48.71369,37.4],[2.480993,48.71369,37.4],[2.480919,48.713692,37.4],[2.480944,48.713691,37.4],[2.480934,48.713682,37.4],[2.48096,48.713645,37.3],[2.480928,48.713627,37.3],[2.48092,48.713636,37.3],[2.480914,48.713604,37.2],[2.480935,48.713612,37.2],[2.480913,48.713612,37.2],[2.480896,48.713603,37.2],[2.480905,48.713602,37.2],[2.480907,48.713587,37.1],[2.480915,48.713587,37.1],[2.480895,48.713619,37.3],[2.48088,48.713621,37.3],[2.480837,48.713653,37.4],[2.480845,48.713661,37.4],[2.480854,48.713659,37.4],[2.48084,48.713677,37.5],[2.480845,48.713683,37.5],[2.480878,48.713677,37.5],[2.480886,48.713669,37.4],[2.480891,48.713676,37.5],[2.480908,48.713671,37.4],[2.480889,48.713678,37.5],[2.480885,48.713671,37.4],[2.480922,48.713627,37.3],[2.480921,48.713636,37.3],[2.480931,48.713613,37.2],[2.480902,48.713608,37.2],[2.480925,48.713598,37.2],[2.480919,48.713594,37.2],[2.480955,48.713591,37.2],[2.480946,48.713574,37.1],[2.480927,48.713577,37.1],[2.480934,48.713579,37.1],[2.480903,48.713576,37.1],[2.480906,48.713598,37.2],[2.480895,48.71361,37.2],[2.480876,48.713613,37.2],[2.480878,48.713627,37.3],[2.480855,48.713659,37.4],[2.48086,48.713655,37.4],[2.480844,48.713641,37.4],[2.480861,48.713657,37.4],[2.480851,48.713675,37.4],[2.480845,48.713664,37.4],[2.480866,48.71367,37.4],[2.480854,48.713657,37.4],[2.480857,48.713672,37.4],[2.480902,48.713607,37.2],[2.480889,48.713634,37.3],[2.4809,48.713643,37.3],[2.480911,48.71363,37.3],[2.480889,48.713643,37.3],[2.48088,48.713632,37.3],[2.480901,48.713639,37.3],[2.480841,48.713675,37.4],[2.48084,48.713664,37.4],[2.480858,48.713659,37.4],[2.480859,48.713664,37.4],[2.480894,48.713653,37.4],[2.480883,48.713657,37.4],[2.480907,48.713654,37.4],[2.480889,48.713659,37.4],[2.480882,48.713606,37.2],[2.480889,48.713601,37.2],[2.480907,48.713611,37.2],[2.480896,48.713621,37.3],[2.480884,48.71362,37.3],[2.48089,48.713617,37.2],[2.480893,48.713628,37.3],[2.480902,48.713612,37.2],[2.480871,48.713607,37.2],[2.480837,48.713576,37.2],[2.480892,48.713608,37.2],[2.48091,48.713659,37.4],[2.480882,48.713665,37.4],[2.480865,48.713656,37.4],[2.48086,48.713668,37.4],[2.480868,48.713673,37.4],[2.480857,48.713667,37.4],[2.480857,48.713639,37.3],[2.480894,48.713654,37.4],[2.480919,48.713624,37.3],[2.480914,48.713631,37.3],[2.480906,48.713606,37.2],[2.480897,48.713606,37.2],[2.48089,48.713576,37.2],[2.480897,48.713592,37.2],[2.480875,48.713606,37.2],[2.480841,48.713684,37.5],[2.480852,48.713684,37.5],[2.480861,48.713695,37.5],[2.480859,48.713687,37.5],[2.480876,48.713686,37.5],[2.480881,48.713659,37.4],[2.480889,48.713663,37.4],[2.480882,48.713656,37.4],[2.480859,48.713662,37.4],[2.480869,48.713639,37.3],[2.480884,48.713637,37.3],[2.480895,48.713624,37.3],[2.480889,48.713607,37.2],[2.480888,48.713612,37.2],[2.480898,48.7136,37.2],[2.480921,48.713623,37.3],[2.480911,48.713621,37.3],[2.480909,48.713627,37.3],[2.48089,48.713615,37.2],[2.480959,48.713605,37.2],[2.480982,48.713614,37.2],[2.481048,48.713604,37.1],[2.481056,48.713592,37.1],[2.481042,48.713542,37],[2.481012,48.713518,37],[2.480987,48.71347,36.8],[2.480996,48.713423,36.8],[2.480989,48.713433,36.8],[2.481041,48.713476,36.8],[2.481049,48.713469,36.8],[2.481041,48.713474,36.8],[2.481049,48.713476,36.8],[2.481052,48.713461,36.8],[2.481066,48.713462,36.8],[2.481065,48.713457,36.8],[2.481061,48.713464,36.8],[2.481038,48.713457,36.8],[2.481032,48.713441,36.8],[2.481067,48.713371,36.7],[2.481029,48.713427,36.8],[2.481034,48.713447,36.8],[2.481087,48.713471,36.8],[2.481149,48.713466,36.8],[2.48105,48.713489,36.9],[2.48105,48.713496,36.9],[2.481042,48.713493,36.9],[2.481033,48.713506,36.9],[2.480991,48.713507,37],[2.48097,48.713491,36.9],[2.480966,48.713471,36.9],[2.480983,48.713461,36.8],[2.48098,48.713438,36.8],[2.480956,48.713452,36.9],[2.480943,48.713481,36.9],[2.480948,48.713459,36.9],[2.480952,48.713463,36.9],[2.480945,48.71344,36.8],[2.480965,48.713461,36.9],[2.480935,48.713447,36.8],[2.480955,48.71341,36.7],[2.480949,48.713406,36.7],[2.480965,48.713439,36.8],[2.480997,48.713453,36.8],[2.480993,48.71346,36.8],[2.480946,48.713467,36.9],[2.480959,48.713466,36.9],[2.480964,48.713473,36.9],[2.480904,48.713468,36.9],[2.480873,48.713473,36.9],[2.480864,48.71346,36.9],[2.480924,48.713443,36.8],[2.48097,48.713419,36.7],[2.481003,48.713429,36.8],[2.481024,48.713473,36.8],[2.481034,48.713475,36.8],[2.481033,48.713469,36.8],[2.481032,48.713478,36.9],[2.481013,48.713481,36.9],[2.481101,48.713391,36.7],[2.481006,48.713466,36.8],[2.48104,48.713469,36.8],[2.481017,48.713478,36.9],[2.48098,48.713434,36.8],[2.480938,48.713445,36.8],[2.480932,48.713469,36.9],[2.480941,48.71349,36.9],[2.480958,48.713477,36.9],[2.480958,48.713459,36.9],[2.480903,48.713516,37],[2.480846,48.713631,37.4],[2.480951,48.713454,36.9],[2.480981,48.713461,36.8],[2.480974,48.713457,36.9],[2.480949,48.713466,36.9],[2.480932,48.713459,36.9],[2.480933,48.713511,37],[2.480975,48.713533,37],[2.481017,48.713523,37],[2.481006,48.713527,37],[2.481004,48.713503,36.9],[2.480934,48.713501,36.9],[2.481019,48.713478,36.9],[2.481046,48.713492,36.9],[2.481012,48.713458,36.8],[2.481049,48.713578,37.1],[2.481037,48.713452,36.8],[2.481051,48.713467,36.8],[2.481026,48.713472,36.8],[2.481037,48.713472,36.8],[2.481033,48.71346,36.8],[2.481065,48.713512,36.9],[2.481056,48.71353,36.9],[2.481001,48.713534,37],[2.480955,48.713523,37],[2.480952,48.713512,37],[2.480876,48.713477,36.9],[2.48088,48.713463,36.9],[2.480926,48.713456,36.9],[2.480947,48.71347,36.9],[2.480925,48.713527,37],[2.480946,48.713556,37],[2.480944,48.71347,36.9],[2.480958,48.713437,36.8],[2.480976,48.713453,36.9],[2.480911,48.713452,36.9],[2.480912,48.713445,36.8],[2.480938,48.713437,36.8],[2.480927,48.713416,36.8],[2.480935,48.713411,36.8],[2.481035,48.713476,36.8],[2.481017,48.713508,37],[2.481019,48.713536,37],[2.481033,48.713522,36.9],[2.481048,48.713544,37],[2.48106,48.71353,36.9],[2.481039,48.713514,36.9],[2.481012,48.713522,37],[2.481009,48.713532,37],[2.480974,48.713554,37],[2.480991,48.713553,37],[2.480988,48.713544,37],[2.480984,48.713548,37],[2.480994,48.713547,37],[2.481009,48.713565,37.1],[2.481012,48.713559,37],[2.481027,48.713571,37.1],[2.481048,48.713574,37.1],[2.481025,48.713574,37.1],[2.481031,48.71357,37.1],[2.481018,48.713563,37.1],[2.481042,48.713515,36.9],[2.481026,48.713525,36.9],[2.481033,48.713519,36.9],[2.48103,48.71353,36.9],[2.481008,48.713538,37],[2.481022,48.713536,37],[2.481025,48.71356,37],[2.480991,48.713575,37.1],[2.481005,48.713548,37],[2.48099,48.713543,37],[2.480966,48.713552,37],[2.480983,48.713551,37],[2.481009,48.713529,37],[2.480983,48.713544,37],[2.481012,48.713539,37],[2.480983,48.713545,37],[2.480955,48.713541,37],[2.480949,48.713533,37],[2.480984,48.713485,36.9],[2.481025,48.713466,36.8],[2.481042,48.713474,36.8],[2.481021,48.713527,37],[2.481019,48.71352,37],[2.480955,48.713516,37],[2.480925,48.7135,36.9],[2.480937,48.713463,36.9],[2.481001,48.713521,37],[2.480989,48.713556,37],[2.481001,48.713551,37],[2.481034,48.713491,36.9],[2.481058,48.713509,36.9],[2.481057,48.713498,36.9],[2.481041,48.713507,36.9],[2.481051,48.713509,36.9],[2.481021,48.713516,37],[2.480992,48.713544,37],[2.480998,48.713581,37.1],[2.481023,48.713573,37.1],[2.481075,48.713593,37.1],[2.481093,48.713634,37.2],[2.481081,48.713644,37.2],[2.481061,48.713617,37.1],[2.481076,48.713638,37.2],[2.481075,48.713633,37.2],[2.481067,48.71365,37.3],[2.481057,48.713642,37.2],[2.48105,48.713647,37.2],[2.481041,48.713618,37.1],[2.480998,48.713581,37.1],[2.480994,48.713585,37.1],[2.480984,48.713578,37.1],[2.480979,48.713593,37.2],[2.480972,48.713576,37.1],[2.480978,48.713593,37.2],[2.480993,48.713595,37.2],[2.480969,48.713587,37.1],[2.480972,48.713575,37.1],[2.480967,48.713609,37.2],[2.480924,48.713595,37.2],[2.480897,48.713595,37.2],[2.480886,48.713586,37.2],[2.480863,48.713583,37.2],[2.480868,48.713578,37.2],[2.480889,48.713582,37.2],[2.480847,48.713571,37.2],[2.480837,48.713597,37.3],[2.480863,48.713602,37.2],[2.480997,48.713577,37.1],[2.480991,48.713582,37.1],[2.480987,48.713573,37.1],[2.480936,48.713598,37.2],[2.480903,48.713598,37.2],[2.480858,48.713578,37.2],[2.480873,48.713573,37.2],[2.480907,48.713585,37.1],[2.480902,48.713575,37.1],[2.48088,48.713572,37.2],[2.480889,48.713556,37.1],[2.480916,48.71356,37.1],[2.480903,48.713556,37.1],[2.480925,48.713592,37.2],[2.481029,48.71359,37.1],[2.481015,48.713596,37.2],[2.48097,48.713575,37.1],[2.480979,48.713571,37.1],[2.480902,48.713591,37.2],[2.480887,48.713604,37.2],[2.480917,48.713657,37.4],[2.480906,48.713658,37.4],[2.480885,48.713697,37.5],[2.480864,48.713703,37.5],[2.480845,48.713674,37.4],[2.480856,48.713674,37.4],[2.480857,48.713663,37.4],[2.480824,48.713666,37.4],[2.480853,48.713669,37.4],[2.480864,48.713661,37.4],[2.480913,48.713678,37.4],[2.480904,48.713693,37.4],[2.480902,48.713678,37.4],[2.480928,48.71365,37.4],[2.480914,48.713612,37.2],[2.480915,48.713617,37.2],[2.480911,48.713613,37.2],[2.480928,48.713619,37.3],[2.48093,48.713632,37.3],[2.480918,48.713636,37.3],[2.480882,48.713692,37.5],[2.480867,48.713678,37.5],[2.480867,48.713646,37.3],[2.480897,48.713613,37.2],[2.480916,48.71361,37.2],[2.480956,48.713628,37.3],[2.480923,48.71362,37.3],[2.480911,48.713602,37.2],[2.480907,48.713625,37.3],[2.480857,48.713654,37.4],[2.480858,48.713668,37.4],[2.480866,48.71364,37.3],[2.480835,48.713643,37.4],[2.480814,48.713616,37.3],[2.480834,48.713629,37.4],[2.480819,48.71362,37.4],[2.480832,48.713627,37.4],[2.480924,48.713617,37.2],[2.480919,48.713623,37.3],[2.4809,48.713588,37.1],[2.480906,48.713547,37.1],[2.480928,48.713597,37.2],[2.480925,48.713643,37.3],[2.480895,48.713657,37.4],[2.480861,48.7137,37.5],[2.480856,48.713693,37.5],[2.480867,48.713696,37.5],[2.48085,48.713668,37.4],[2.480812,48.71368,37.5],[2.480867,48.713642,37.3],[2.480902,48.713603,37.2],[2.480896,48.713606,37.2],[2.480951,48.713596,37.2],[2.48108,48.71361,37.1],[2.481055,48.713604,37.1],[2.481039,48.713611,37.1],[2.481049,48.713621,37.2],[2.481048,48.713616,37.1],[2.481041,48.713621,37.2],[2.481019,48.713608,37.2],[2.481054,48.713585,37.1],[2.481041,48.71353,36.9],[2.481069,48.713416,36.7],[2.481076,48.71342,36.7],[2.481043,48.713428,36.8],[2.481054,48.713437,36.8],[2.481029,48.713442,36.8],[2.481006,48.713458,36.8],[2.481005,48.713482,36.9],[2.481033,48.713493,36.9],[2.481034,48.713485,36.9],[2.481037,48.713499,36.9],[2.481028,48.713465,36.8],[2.481055,48.713453,36.8],[2.481096,48.713454,36.8],[2.481111,48.713466,36.8],[2.481091,48.713527,36.9],[2.481069,48.71353,36.9],[2.481004,48.71349,36.9],[2.480932,48.713488,36.9],[2.480939,48.713477,36.9],[2.480954,48.71348,36.9],[2.48097,48.713473,36.9],[2.480946,48.713498,36.9],[2.480967,48.713467,36.9],[2.480949,48.713437,36.8],[2.480924,48.713437,36.8],[2.480922,48.713431,36.8],[2.481096,48.713472,36.8],[2.481028,48.713457,36.8],[2.481171,48.713492,36.8],[2.481024,48.713487,36.9],[2.481036,48.7135,36.9],[2.481017,48.713512,37],[2.480943,48.713512,37],[2.480931,48.713502,36.9],[2.480947,48.713464,36.9],[2.48093,48.71347,36.9],[2.480933,48.713454,36.9],[2.480942,48.713467,36.9],[2.480942,48.713452,36.9],[2.480956,48.713466,36.9],[2.480953,48.713477,36.9],[2.480919,48.713478,36.9],[2.480931,48.713472,36.9],[2.480933,48.713455,36.9],[2.480962,48.713452,36.9],[2.481053,48.713463,36.8],[2.481061,48.713471,36.8],[2.481082,48.713468,36.8],[2.481035,48.713472,36.8],[2.48105,48.713455,36.8],[2.481078,48.713371,36.7],[2.481044,48.713452,36.8],[2.481071,48.713478,36.9],[2.481057,48.713472,36.8],[2.481032,48.713475,36.8],[2.481041,48.713477,36.8],[2.481029,48.713488,36.9],[2.481006,48.713484,36.9],[2.480991,48.713567,37.1],[2.480973,48.713571,37.1],[2.480957,48.713592,37.2],[2.480941,48.713584,37.1],[2.480972,48.713575,37.1],[2.480967,48.713564,37.1],[2.480977,48.71355,37],[2.481004,48.713537,37],[2.481046,48.713497,36.9],[2.481024,48.713492,36.9],[2.481032,48.713491,36.9],[2.481024,48.713488,36.9],[2.481059,48.713491,36.9],[2.4811,48.713505,36.9],[2.481036,48.713511,36.9],[2.481064,48.713536,37],[2.481068,48.71352,36.9],[2.481001,48.713512,37],[2.480986,48.713559,37],[2.480968,48.713564,37.1],[2.481,48.71356,37],[2.480991,48.713595,37.2],[2.481009,48.713601,37.2],[2.481025,48.713596,37.1],[2.481008,48.713603,37.2],[2.480998,48.713598,37.2],[2.481006,48.713598,37.2],[2.480973,48.713564,37.1],[2.481003,48.713574,37.1],[2.481017,48.713571,37.1],[2.481015,48.713565,37.1],[2.481044,48.71355,37],[2.481026,48.713518,36.9],[2.481036,48.713502,36.9],[2.481048,48.7135,36.9],[2.481042,48.713511,36.9],[2.481099,48.713541,37],[2.481081,48.713512,36.9],[2.481072,48.713517,36.9],[2.481024,48.713509,36.9],[2.481046,48.713493,36.9],[2.481035,48.713498,36.9],[2.481061,48.713497,36.9],[2.481067,48.713512,36.9],[2.481044,48.713509,36.9],[2.481032,48.713519,36.9],[2.481046,48.71352,36.9],[2.481003,48.713528,37],[2.480989,48.713584,37.1],[2.481003,48.713575,37.1],[2.480996,48.713576,37.1],[2.481012,48.713601,37.2],[2.481024,48.713603,37.1],[2.480994,48.713591,37.2],[2.480969,48.713565,37.1],[2.480968,48.71353,37],[2.480995,48.713508,37],[2.481059,48.713495,36.9],[2.481079,48.713484,36.9],[2.481046,48.713513,36.9],[2.481046,48.713526,36.9],[2.481069,48.713537,37],[2.481055,48.71354,37],[2.481046,48.713493,36.9],[2.481067,48.713466,36.8],[2.481086,48.713473,36.8],[2.481066,48.713501,36.9],[2.481031,48.713511,36.9],[2.481,48.713504,36.9],[2.480988,48.713494,36.9],[2.481001,48.713524,37],[2.481022,48.713539,37],[2.481011,48.713529,37],[2.480994,48.713559,37],[2.481041,48.713579,37.1],[2.481007,48.713555,37],[2.481012,48.713569,37.1],[2.48106,48.713609,37.1],[2.48107,48.713646,37.2],[2.481079,48.713642,37.2],[2.48107,48.713638,37.2],[2.481066,48.713591,37.1],[2.481045,48.713578,37.1],[2.48105,48.713585,37.1],[2.48103,48.713577,37.1],[2.480996,48.713579,37.1],[2.480979,48.713591,37.2],[2.480993,48.713593,37.2],[2.480989,48.713589,37.1],[2.481005,48.713591,37.2],[2.480993,48.713595,37.2],[2.481019,48.713597,37.2],[2.481011,48.713591,37.2],[2.480991,48.713602,37.2],[2.481002,48.713598,37.2],[2.481002,48.713604,37.2],[2.480996,48.71359,37.1],[2.48093,48.713569,37.1],[2.480908,48.713569,37.1],[2.480897,48.713578,37.1],[2.48092,48.713588,37.1],[2.480888,48.713578,37.2],[2.480898,48.713569,37.1],[2.48092,48.71358,37.1],[2.480903,48.71359,37.1],[2.480899,48.713579,37.1],[2.480917,48.713568,37.1],[2.480957,48.713563,37.1],[2.480994,48.713578,37.1],[2.480982,48.713586,37.1],[2.480985,48.713615,37.2],[2.481004,48.713608,37.2],[2.480971,48.713604,37.2],[2.480945,48.713609,37.2],[2.48099,48.713609,37.2],[2.481003,48.713615,37.2],[2.481006,48.71363,37.2],[2.48099,48.713636,37.2],[2.480988,48.713619,37.2],[2.480967,48.713594,37.2],[2.480958,48.713602,37.2],[2.480957,48.713575,37.1],[2.480987,48.713591,37.2],[2.480982,48.713621,37.2],[2.480945,48.713626,37.3],[2.480879,48.713601,37.2],[2.480891,48.713578,37.2],[2.480938,48.713587,37.1],[2.480963,48.713602,37.2],[2.480959,48.713595,37.2],[2.480965,48.713606,37.2],[2.480949,48.713599,37.2],[2.480939,48.713572,37.1],[2.48093,48.71359,37.1],[2.480997,48.713612,37.2],[2.481004,48.713623,37.2],[2.480997,48.713628,37.2],[2.481007,48.713654,37.3],[2.481001,48.713666,37.3],[2.481023,48.713614,37.1],[2.481007,48.713602,37.2],[2.481017,48.713589,37.1],[2.48101,48.713598,37.2],[2.480976,48.713591,37.2],[2.480965,48.713596,37.2],[2.480971,48.713569,37.1],[2.48095,48.713571,37.1],[2.480977,48.713583,37.1],[2.48095,48.713595,37.2],[2.480979,48.713607,37.2],[2.480948,48.71362,37.3],[2.480928,48.713617,37.2],[2.480922,48.713605,37.2],[2.480893,48.713612,37.2],[2.480904,48.713593,37.2],[2.480864,48.713574,37.2],[2.480877,48.71357,37.2],[2.480873,48.713579,37.2],[2.480899,48.713573,37.1],[2.48092,48.713597,37.2],[2.480927,48.713594,37.2],[2.480939,48.713645,37.3],[2.480928,48.713657,37.4],[2.480955,48.713647,37.3],[2.480962,48.713631,37.3],[2.481011,48.713592,37.2],[2.481001,48.713582,37.1],[2.481015,48.713567,37.1],[2.481018,48.713579,37.1],[2.481059,48.713612,37.1],[2.481064,48.713607,37.1],[2.481054,48.713602,37.1],[2.481059,48.713609,37.1],[2.48105,48.713614,37.1],[2.481014,48.713599,37.2],[2.480985,48.713602,37.2],[2.481014,48.713599,37.2],[2.481025,48.713611,37.1],[2.481033,48.713607,37.1],[2.481024,48.713607,37.1],[2.481038,48.713614,37.1],[2.481001,48.713615,37.2],[2.480978,48.713642,37.3],[2.480956,48.713643,37.3],[2.48095,48.713659,37.3],[2.480889,48.713691,37.5],[2.480837,48.713745,37.7],[2.480809,48.713753,37.7],[2.480825,48.713736,37.7],[2.480819,48.713724,37.6],[2.480838,48.713698,37.5],[2.480825,48.713693,37.5],[2.480833,48.713645,37.4],[2.480822,48.713588,37.2],[2.480844,48.713548,37.1],[2.480945,48.713426,36.8],[2.480959,48.71342,36.7],[2.480959,48.713406,36.7],[2.480983,48.713432,36.8],[2.481057,48.713483,36.9]]}}]}