<?xml version="1.0" encoding="UTF-8"?>
<gpx version="1.1" creator="LoadMyTracks/073 http://www.cluetrust.com/LoadMyTracks.html" schemaLocation="http://www.topografix.com/GPX/1/1 http://www.topografix.com/GPX/1/1/gpx.xsd
http://www.cluetrust.com/XML/GPXDATA/1/0 http://www.cluetrust.com/Schemas/gpxdata10.xsd" xmlns="http://www.topografix.com/GPX/1/1" xmlns:xsi="http://www.w3.org/2001/XMLSchema-instance" xsi:schemaLocation="http://www.topografix.com/GPX/1/1 http://www.topografix.com/GPX/1/1/gpx.xsd http://www.garmin.com/xmlschemas/GpxExtensions/v3 http://www.garmin.com/xmlschemas/GpxExtensionsv3.xsd http://www.garmin.com/xmlschemas/TrackPointExtension/v1 http://www.garmin.com/xmlschemas/TrackPointExtensionv1.xsd http://www.garmin.com/xmlschemas/PowerExtension/v1 http://www.garmin.com/xmlschemas/PowerExtensionv1.xsd http://www.topografix.com/GPX/gpx_style/0/2 http://www.topografix.com/GPX/gpx_style/0/2/gpx_style.xsd" xmlns:gpxtpx="http://www.garmin.com/xmlschemas/TrackPointExtension/v1" xmlns:gpxx="http://www.garmin.com/xmlschemas/GpxExtensions/v3" xmlns:gpxpx="http://www.garmin.com/xmlschemas/PowerExtension/v1" xmlns:gpx_style="http://www.topografix.com/GPX/gpx_style/0/2">
  <metadata>
    <name>2008-08-15 13 24 02</name>
    <author>
      <name>gpx.studio</name>
      <link href="https://gpx.studio"/>
    </author>
  </metadata>
  <trk>
    <name>unnamed</name>
    <trkseg>
      <trkpt lat="48.698155" lon="2.516523">
        <ele>50.13</ele>
        <time>2008-08-14T09:41:56.000Z</time>
      </trkpt>
      <trkpt lat="48.698187" lon="2.516518">
        <ele>49.16</ele>
        <time>2008-08-14T09:42:43.000Z</time>
      </trkpt>
      <trkpt lat="48.697893" lon="2.516924">
        <ele>49.65</ele>
        <time>2008-08-14T09:45:57.000Z</time>
      </trkpt>
      <trkpt lat="48.697805" lon="2.517029">
        <ele>49.16</ele>
        <time>2008-08-14T09:46:18.000Z</time>
      </trkpt>
      <trkpt lat="48.697654" lon="2.517077">
        <ele>48.68</ele>
        <time>2008-08-14T09:46:45.000Z</time>
      </trkpt>
      <trkpt lat="48.697565" lon="2.517134">
        <ele>48.68</ele>
        <time>2008-08-14T09:46:59.000Z</time>
      </trkpt>
      <trkpt lat="48.697417" lon="2.517196">
        <ele>48.68</ele>
        <time>2008-08-14T09:47:18.000Z</time>
      </trkpt>
      <trkpt lat="48.697443" lon="2.517274">
        <ele>47.72</ele>
        <time>2008-08-14T09:47:58.000Z</time>
      </trkpt>
      <trkpt lat="48.697613" lon="2.517469">
        <ele>46.76</ele>
        <time>2008-08-14T09:48:13.000Z</time>
      </trkpt>
      <trkpt lat="48.697688" lon="2.517556">
        <ele>47.24</ele>
        <time>2008-08-14T09:48:35.000Z</time>
      </trkpt>
      <trkpt lat="48.697753" lon="2.517643">
        <ele>47.24</ele>
        <time>2008-08-14T09:48:43.000Z</time>
      </trkpt>
      <trkpt lat="48.697963" lon="2.517936">
        <ele>47.24</ele>
        <time>2008-08-14T09:49:03.000Z</time>
      </trkpt>
      <trkpt lat="48.698037" lon="2.517955">
        <ele>47.24</ele>
        <time>2008-08-14T09:49:24.000Z</time>
      </trkpt>
      <trkpt lat="48.698306" lon="2.517992">
        <ele>48.68</ele>
        <time>2008-08-14T09:51:48.000Z</time>
      </trkpt>
      <trkpt lat="48.698413" lon="2.518034">
        <ele>48.2</ele>
        <time>2008-08-14T09:52:14.000Z</time>
      </trkpt>
      <trkpt lat="48.698468" lon="2.518028">
        <ele>48.2</ele>
        <time>2008-08-14T09:52:37.000Z</time>
      </trkpt>
      <trkpt lat="48.698537" lon="2.51821">
        <ele>48.2</ele>
        <time>2008-08-14T09:52:48.000Z</time>
      </trkpt>
      <trkpt lat="48.698649" lon="2.51838">
        <ele>48.2</ele>
        <time>2008-08-14T09:53:09.000Z</time>
      </trkpt>
      <trkpt lat="48.698883" lon="2.518513">
        <ele>48.2</ele>
        <time>2008-08-14T09:53:48.000Z</time>
      </trkpt>
      <trkpt lat="48.698911" lon="2.518707">
        <ele>48.2</ele>
        <time>2008-08-14T09:54:10.000Z</time>
      </trkpt>
      <trkpt lat="48.699037" lon="2.518836">
        <ele>48.2</ele>
        <time>2008-08-14T09:54:28.000Z</time>
      </trkpt>
      <trkpt lat="48.699168" lon="2.519038">
        <ele>48.2</ele>
        <time>2008-08-14T09:54:49.000Z</time>
      </trkpt>
      <trkpt lat="48.699365" lon="2.519405">
        <ele>48.68</ele>
        <time>2008-08-14T09:55:19.000Z</time>
      </trkpt>
      <trkpt lat="48.69959" lon="2.519683">
        <ele>48.68</ele>
        <time>2008-08-14T09:55:40.000Z</time>
      </trkpt>
      <trkpt lat="48.699736" lon="2.519965">
        <ele>49.16</ele>
        <time>2008-08-14T09:56:02.000Z</time>
      </trkpt>
      <trkpt lat="48.699909" lon="2.52018">
        <ele>49.65</ele>
        <time>2008-08-14T09:56:47.000Z</time>
      </trkpt>
      <trkpt lat="48.70009" lon="2.520358">
        <ele>49.65</ele>
        <time>2008-08-14T09:57:06.000Z</time>
      </trkpt>
      <trkpt lat="48.700229" lon="2.520575">
        <ele>49.65</ele>
        <time>2008-08-14T09:57:24.000Z</time>
      </trkpt>
      <trkpt lat="48.700391" lon="2.520766">
        <ele>49.65</ele>
        <time>2008-08-14T09:57:42.000Z</time>
      </trkpt>
      <trkpt lat="48.700547" lon="2.5209">
        <ele>49.65</ele>
        <time>2008-08-14T09:58:00.000Z</time>
      </trkpt>
      <trkpt lat="48.700666" lon="2.521102">
        <ele>49.65</ele>
        <time>2008-08-14T09:58:20.000Z</time>
      </trkpt>
      <trkpt lat="48.700792" lon="2.521193">
        <ele>49.65</ele>
        <time>2008-08-14T09:58:45.000Z</time>
      </trkpt>
      <trkpt lat="48.700891" lon="2.521415">
        <ele>49.65</ele>
        <time>2008-08-14T09:59:35.000Z</time>
      </trkpt>
      <trkpt lat="48.700983" lon="2.521626">
        <ele>49.16</ele>
        <time>2008-08-14T09:59:55.000Z</time>
      </trkpt>
      <trkpt lat="48.701044" lon="2.521548">
        <ele>49.65</ele>
        <time>2008-08-14T10:00:21.000Z</time>
      </trkpt>
      <trkpt lat="48.701013" lon="2.521597">
        <ele>50.13</ele>
        <time>2008-08-14T10:00:44.000Z</time>
      </trkpt>
      <trkpt lat="48.701178" lon="2.521627">
        <ele>49.16</ele>
        <time>2008-08-14T10:01:24.000Z</time>
      </trkpt>
      <trkpt lat="48.701282" lon="2.521635">
        <ele>48.68</ele>
        <time>2008-08-14T10:01:44.000Z</time>
      </trkpt>
      <trkpt lat="48.701337" lon="2.521541">
        <ele>49.16</ele>
        <time>2008-08-14T10:02:00.000Z</time>
      </trkpt>
      <trkpt lat="48.701436" lon="2.521472">
        <ele>49.16</ele>
        <time>2008-08-14T10:02:16.000Z</time>
      </trkpt>
      <trkpt lat="48.701541" lon="2.521505">
        <ele>49.65</ele>
        <time>2008-08-14T10:02:39.000Z</time>
      </trkpt>
      <trkpt lat="48.701581" lon="2.52149">
        <ele>49.65</ele>
        <time>2008-08-14T10:02:59.000Z</time>
      </trkpt>
      <trkpt lat="48.701721" lon="2.521558">
        <ele>50.13</ele>
        <time>2008-08-14T10:03:27.000Z</time>
      </trkpt>
      <trkpt lat="48.701896" lon="2.521531">
        <ele>50.13</ele>
        <time>2008-08-14T10:03:48.000Z</time>
      </trkpt>
      <trkpt lat="48.702085" lon="2.521489">
        <ele>50.61</ele>
        <time>2008-08-14T10:04:07.000Z</time>
      </trkpt>
      <trkpt lat="48.702137" lon="2.521492">
        <ele>50.61</ele>
        <time>2008-08-14T10:04:10.000Z</time>
      </trkpt>
      <trkpt lat="48.702384" lon="2.521587">
        <ele>51.09</ele>
        <time>2008-08-14T10:04:35.000Z</time>
      </trkpt>
      <trkpt lat="48.702489" lon="2.521648">
        <ele>51.57</ele>
        <time>2008-08-14T10:04:56.000Z</time>
      </trkpt>
      <trkpt lat="48.702902" lon="2.521719">
        <ele>51.57</ele>
        <time>2008-08-14T10:05:30.000Z</time>
      </trkpt>
      <trkpt lat="48.703106" lon="2.521708">
        <ele>52.05</ele>
        <time>2008-08-14T10:05:53.000Z</time>
      </trkpt>
      <trkpt lat="48.703317" lon="2.521631">
        <ele>52.53</ele>
        <time>2008-08-14T10:06:11.000Z</time>
      </trkpt>
      <trkpt lat="48.703641" lon="2.521664">
        <ele>52.53</ele>
        <time>2008-08-14T10:06:32.000Z</time>
      </trkpt>
      <trkpt lat="48.703877" lon="2.521786">
        <ele>52.53</ele>
        <time>2008-08-14T10:06:53.000Z</time>
      </trkpt>
      <trkpt lat="48.703981" lon="2.521935">
        <ele>53.01</ele>
        <time>2008-08-14T10:07:16.000Z</time>
      </trkpt>
      <trkpt lat="48.704109" lon="2.521964">
        <ele>53.01</ele>
        <time>2008-08-14T10:07:51.000Z</time>
      </trkpt>
      <trkpt lat="48.704358" lon="2.5221">
        <ele>53.01</ele>
        <time>2008-08-14T10:08:13.000Z</time>
      </trkpt>
      <trkpt lat="48.704534" lon="2.5223">
        <ele>53.01</ele>
        <time>2008-08-14T10:08:32.000Z</time>
      </trkpt>
      <trkpt lat="48.704674" lon="2.522571">
        <ele>53.49</ele>
        <time>2008-08-14T10:08:55.000Z</time>
      </trkpt>
      <trkpt lat="48.704802" lon="2.522795">
        <ele>53.49</ele>
        <time>2008-08-14T10:09:11.000Z</time>
      </trkpt>
      <trkpt lat="48.704843" lon="2.523147">
        <ele>53.49</ele>
        <time>2008-08-14T10:09:32.000Z</time>
      </trkpt>
      <trkpt lat="48.704896" lon="2.523392">
        <ele>53.49</ele>
        <time>2008-08-14T10:09:56.000Z</time>
      </trkpt>
      <trkpt lat="48.705039" lon="2.523748">
        <ele>53.49</ele>
        <time>2008-08-14T10:10:17.000Z</time>
      </trkpt>
      <trkpt lat="48.705106" lon="2.524115">
        <ele>53.49</ele>
        <time>2008-08-14T10:10:36.000Z</time>
      </trkpt>
      <trkpt lat="48.705138" lon="2.524327">
        <ele>53.49</ele>
        <time>2008-08-14T10:10:50.000Z</time>
      </trkpt>
      <trkpt lat="48.705148" lon="2.524511">
        <ele>53.49</ele>
        <time>2008-08-14T10:11:04.000Z</time>
      </trkpt>
      <trkpt lat="48.705166" lon="2.524565">
        <ele>53.97</ele>
        <time>2008-08-14T10:11:08.000Z</time>
      </trkpt>
      <trkpt lat="48.705185" lon="2.524672">
        <ele>53.49</ele>
        <time>2008-08-14T10:11:14.000Z</time>
      </trkpt>
      <trkpt lat="48.705202" lon="2.524793">
        <ele>53.97</ele>
        <time>2008-08-14T10:11:19.000Z</time>
      </trkpt>
      <trkpt lat="48.705226" lon="2.524917">
        <ele>53.97</ele>
        <time>2008-08-14T10:11:26.000Z</time>
      </trkpt>
      <trkpt lat="48.705249" lon="2.525121">
        <ele>53.49</ele>
        <time>2008-08-14T10:11:39.000Z</time>
      </trkpt>
      <trkpt lat="48.705272" lon="2.525236">
        <ele>53.97</ele>
        <time>2008-08-14T10:11:46.000Z</time>
      </trkpt>
      <trkpt lat="48.705289" lon="2.525448">
        <ele>53.97</ele>
        <time>2008-08-14T10:12:00.000Z</time>
      </trkpt>
      <trkpt lat="48.705297" lon="2.525617">
        <ele>53.97</ele>
        <time>2008-08-14T10:12:13.000Z</time>
      </trkpt>
      <trkpt lat="48.705286" lon="2.525929">
        <ele>54.45</ele>
        <time>2008-08-14T10:12:36.000Z</time>
      </trkpt>
      <trkpt lat="48.705214" lon="2.526186">
        <ele>54.93</ele>
        <time>2008-08-14T10:12:57.000Z</time>
      </trkpt>
      <trkpt lat="48.705175" lon="2.52623">
        <ele>54.93</ele>
        <time>2008-08-14T10:13:01.000Z</time>
      </trkpt>
      <trkpt lat="48.705108" lon="2.526496">
        <ele>55.89</ele>
        <time>2008-08-14T10:13:23.000Z</time>
      </trkpt>
      <trkpt lat="48.705072" lon="2.526884">
        <ele>55.89</ele>
        <time>2008-08-14T10:13:45.000Z</time>
      </trkpt>
      <trkpt lat="48.704978" lon="2.527139">
        <ele>56.37</ele>
        <time>2008-08-14T10:14:06.000Z</time>
      </trkpt>
      <trkpt lat="48.704946" lon="2.52746">
        <ele>56.86</ele>
        <time>2008-08-14T10:14:27.000Z</time>
      </trkpt>
      <trkpt lat="48.704832" lon="2.527716">
        <ele>57.34</ele>
        <time>2008-08-14T10:14:49.000Z</time>
      </trkpt>
      <trkpt lat="48.704626" lon="2.527907">
        <ele>57.82</ele>
        <time>2008-08-14T10:15:09.000Z</time>
      </trkpt>
      <trkpt lat="48.704428" lon="2.528098">
        <ele>58.3</ele>
        <time>2008-08-14T10:15:28.000Z</time>
      </trkpt>
      <trkpt lat="48.704245" lon="2.528295">
        <ele>58.78</ele>
        <time>2008-08-14T10:15:48.000Z</time>
      </trkpt>
      <trkpt lat="48.704018" lon="2.528504">
        <ele>59.26</ele>
        <time>2008-08-14T10:16:13.000Z</time>
      </trkpt>
      <trkpt lat="48.703827" lon="2.528623">
        <ele>58.78</ele>
        <time>2008-08-14T10:16:28.000Z</time>
      </trkpt>
      <trkpt lat="48.703643" lon="2.528677">
        <ele>59.26</ele>
        <time>2008-08-14T10:16:49.000Z</time>
      </trkpt>
      <trkpt lat="48.703652" lon="2.528682">
        <ele>59.26</ele>
        <time>2008-08-14T10:17:10.000Z</time>
      </trkpt>
      <trkpt lat="48.703257" lon="2.528834">
        <ele>59.74</ele>
        <time>2008-08-14T10:19:08.000Z</time>
      </trkpt>
      <trkpt lat="48.703283" lon="2.528726">
        <ele>59.74</ele>
        <time>2008-08-14T10:19:33.000Z</time>
      </trkpt>
      <trkpt lat="48.703251" lon="2.528683">
        <ele>59.74</ele>
        <time>2008-08-14T10:20:05.000Z</time>
      </trkpt>
      <trkpt lat="48.703005" lon="2.52887">
        <ele>59.26</ele>
        <time>2008-08-14T10:20:25.000Z</time>
      </trkpt>
      <trkpt lat="48.703047" lon="2.528882">
        <ele>59.26</ele>
        <time>2008-08-14T10:21:12.000Z</time>
      </trkpt>
      <trkpt lat="48.702941" lon="2.528961">
        <ele>59.74</ele>
        <time>2008-08-14T10:21:34.000Z</time>
      </trkpt>
      <trkpt lat="48.702743" lon="2.529115">
        <ele>59.26</ele>
        <time>2008-08-14T10:21:55.000Z</time>
      </trkpt>
      <trkpt lat="48.702339" lon="2.529218">
        <ele>59.26</ele>
        <time>2008-08-14T10:22:15.000Z</time>
      </trkpt>
      <trkpt lat="48.702265" lon="2.529144">
        <ele>59.26</ele>
        <time>2008-08-14T10:22:31.000Z</time>
      </trkpt>
      <trkpt lat="48.702208" lon="2.529301">
        <ele>58.78</ele>
        <time>2008-08-14T10:22:51.000Z</time>
      </trkpt>
      <trkpt lat="48.702116" lon="2.529343">
        <ele>58.78</ele>
        <time>2008-08-14T10:23:06.000Z</time>
      </trkpt>
      <trkpt lat="48.702003" lon="2.529333">
        <ele>58.78</ele>
        <time>2008-08-14T10:23:26.000Z</time>
      </trkpt>
      <trkpt lat="48.70177" lon="2.529561">
        <ele>58.3</ele>
        <time>2008-08-14T10:24:34.000Z</time>
      </trkpt>
      <trkpt lat="48.701691" lon="2.529618">
        <ele>58.3</ele>
        <time>2008-08-14T10:24:58.000Z</time>
      </trkpt>
      <trkpt lat="48.701546" lon="2.529801">
        <ele>58.3</ele>
        <time>2008-08-14T10:25:25.000Z</time>
      </trkpt>
      <trkpt lat="48.701466" lon="2.529908">
        <ele>57.82</ele>
        <time>2008-08-14T10:26:06.000Z</time>
      </trkpt>
      <trkpt lat="48.701294" lon="2.530053">
        <ele>57.82</ele>
        <time>2008-08-14T10:26:57.000Z</time>
      </trkpt>
      <trkpt lat="48.701125" lon="2.530174">
        <ele>57.82</ele>
        <time>2008-08-14T10:27:10.000Z</time>
      </trkpt>
      <trkpt lat="48.700941" lon="2.530236">
        <ele>57.82</ele>
        <time>2008-08-14T10:27:37.000Z</time>
      </trkpt>
      <trkpt lat="48.700827" lon="2.530287">
        <ele>57.82</ele>
        <time>2008-08-14T10:29:05.000Z</time>
      </trkpt>
      <trkpt lat="48.700687" lon="2.530389">
        <ele>57.82</ele>
        <time>2008-08-14T10:29:29.000Z</time>
      </trkpt>
      <trkpt lat="48.700407" lon="2.530545">
        <ele>57.82</ele>
        <time>2008-08-14T10:29:54.000Z</time>
      </trkpt>
      <trkpt lat="48.70023" lon="2.530706">
        <ele>57.82</ele>
        <time>2008-08-14T10:30:42.000Z</time>
      </trkpt>
      <trkpt lat="48.700122" lon="2.530838">
        <ele>57.82</ele>
        <time>2008-08-14T10:31:01.000Z</time>
      </trkpt>
      <trkpt lat="48.700025" lon="2.530898">
        <ele>57.34</ele>
        <time>2008-08-14T10:31:10.000Z</time>
      </trkpt>
      <trkpt lat="48.699981" lon="2.530968">
        <ele>57.34</ele>
        <time>2008-08-14T10:31:58.000Z</time>
      </trkpt>
      <trkpt lat="48.699895" lon="2.531009">
        <ele>57.34</ele>
        <time>2008-08-14T10:32:15.000Z</time>
      </trkpt>
      <trkpt lat="48.699788" lon="2.530966">
        <ele>56.37</ele>
        <time>2008-08-14T10:36:57.000Z</time>
      </trkpt>
      <trkpt lat="48.699901" lon="2.53102">
        <ele>55.89</ele>
        <time>2008-08-14T10:37:57.000Z</time>
      </trkpt>
      <trkpt lat="48.69982" lon="2.530995">
        <ele>55.89</ele>
        <time>2008-08-14T10:38:33.000Z</time>
      </trkpt>
      <trkpt lat="48.699732" lon="2.531045">
        <ele>55.89</ele>
        <time>2008-08-14T10:39:10.000Z</time>
      </trkpt>
      <trkpt lat="48.699558" lon="2.531178">
        <ele>55.89</ele>
        <time>2008-08-14T10:39:31.000Z</time>
      </trkpt>
      <trkpt lat="48.699493" lon="2.531162">
        <ele>55.89</ele>
        <time>2008-08-14T10:39:35.000Z</time>
      </trkpt>
      <trkpt lat="48.699439" lon="2.531155">
        <ele>56.37</ele>
        <time>2008-08-14T10:39:37.000Z</time>
      </trkpt>
      <trkpt lat="48.699367" lon="2.53124">
        <ele>55.89</ele>
        <time>2008-08-14T10:39:44.000Z</time>
      </trkpt>
      <trkpt lat="48.699291" lon="2.531336">
        <ele>56.37</ele>
        <time>2008-08-14T10:39:58.000Z</time>
      </trkpt>
      <trkpt lat="48.699134" lon="2.531428">
        <ele>55.89</ele>
        <time>2008-08-14T10:40:08.000Z</time>
      </trkpt>
      <trkpt lat="48.699021" lon="2.531546">
        <ele>55.89</ele>
        <time>2008-08-14T10:40:28.000Z</time>
      </trkpt>
      <trkpt lat="48.69896" lon="2.531644">
        <ele>56.37</ele>
        <time>2008-08-14T10:40:52.000Z</time>
      </trkpt>
      <trkpt lat="48.698666" lon="2.531748">
        <ele>56.37</ele>
        <time>2008-08-14T10:41:13.000Z</time>
      </trkpt>
      <trkpt lat="48.698203" lon="2.531979">
        <ele>56.86</ele>
        <time>2008-08-14T10:41:36.000Z</time>
      </trkpt>
      <trkpt lat="48.698113" lon="2.53196">
        <ele>56.86</ele>
        <time>2008-08-14T10:41:52.000Z</time>
      </trkpt>
      <trkpt lat="48.698094" lon="2.532006">
        <ele>57.82</ele>
        <time>2008-08-14T10:42:45.000Z</time>
      </trkpt>
      <trkpt lat="48.698038" lon="2.531851">
        <ele>57.82</ele>
        <time>2008-08-14T10:43:17.000Z</time>
      </trkpt>
      <trkpt lat="48.698046" lon="2.53177">
        <ele>58.3</ele>
        <time>2008-08-14T10:44:09.000Z</time>
      </trkpt>
      <trkpt lat="48.698083" lon="2.531824">
        <ele>58.78</ele>
        <time>2008-08-14T10:46:22.000Z</time>
      </trkpt>
      <trkpt lat="48.698061" lon="2.531954">
        <ele>59.26</ele>
        <time>2008-08-14T10:47:35.000Z</time>
      </trkpt>
      <trkpt lat="48.697852" lon="2.53159">
        <ele>60.22</ele>
        <time>2008-08-14T10:48:57.000Z</time>
      </trkpt>
      <trkpt lat="48.697793" lon="2.531531">
        <ele>60.22</ele>
        <time>2008-08-14T10:50:13.000Z</time>
      </trkpt>
      <trkpt lat="48.697585" lon="2.531355">
        <ele>60.7</ele>
        <time>2008-08-14T10:50:39.000Z</time>
      </trkpt>
      <trkpt lat="48.697462" lon="2.531403">
        <ele>60.7</ele>
        <time>2008-08-14T10:51:05.000Z</time>
      </trkpt>
      <trkpt lat="48.697435" lon="2.531384">
        <ele>60.7</ele>
        <time>2008-08-14T10:51:26.000Z</time>
      </trkpt>
      <trkpt lat="48.697336" lon="2.531274">
        <ele>60.7</ele>
        <time>2008-08-14T10:52:12.000Z</time>
      </trkpt>
      <trkpt lat="48.697284" lon="2.531268">
        <ele>60.7</ele>
        <time>2008-08-14T10:52:17.000Z</time>
      </trkpt>
      <trkpt lat="48.697094" lon="2.531233">
        <ele>60.7</ele>
        <time>2008-08-14T10:52:33.000Z</time>
      </trkpt>
      <trkpt lat="48.696903" lon="2.531143">
        <ele>60.7</ele>
        <time>2008-08-14T10:52:50.000Z</time>
      </trkpt>
      <trkpt lat="48.696625" lon="2.531044">
        <ele>61.18</ele>
        <time>2008-08-14T10:53:11.000Z</time>
      </trkpt>
      <trkpt lat="48.696588" lon="2.531024">
        <ele>61.18</ele>
        <time>2008-08-14T10:53:35.000Z</time>
      </trkpt>
      <trkpt lat="48.696555" lon="2.53096">
        <ele>61.18</ele>
        <time>2008-08-14T10:54:39.000Z</time>
      </trkpt>
      <trkpt lat="48.696488" lon="2.531103">
        <ele>61.18</ele>
        <time>2008-08-14T10:55:51.000Z</time>
      </trkpt>
      <trkpt lat="48.696415" lon="2.531318">
        <ele>61.66</ele>
        <time>2008-08-14T10:56:11.000Z</time>
      </trkpt>
      <trkpt lat="48.696445" lon="2.531447">
        <ele>61.66</ele>
        <time>2008-08-14T10:56:30.000Z</time>
      </trkpt>
      <trkpt lat="48.696337" lon="2.531631">
        <ele>61.66</ele>
        <time>2008-08-14T10:57:10.000Z</time>
      </trkpt>
      <trkpt lat="48.696356" lon="2.531622">
        <ele>61.18</ele>
        <time>2008-08-14T10:57:59.000Z</time>
      </trkpt>
      <trkpt lat="48.696358" lon="2.531556">
        <ele>61.18</ele>
        <time>2008-08-14T10:58:18.000Z</time>
      </trkpt>
      <trkpt lat="48.696393" lon="2.531513">
        <ele>60.7</ele>
        <time>2008-08-14T10:58:55.000Z</time>
      </trkpt>
      <trkpt lat="48.696398" lon="2.531466">
        <ele>60.22</ele>
        <time>2008-08-14T10:59:32.000Z</time>
      </trkpt>
      <trkpt lat="48.696383" lon="2.531426">
        <ele>60.22</ele>
        <time>2008-08-14T10:59:34.000Z</time>
      </trkpt>
      <trkpt lat="48.696361" lon="2.531395">
        <ele>60.22</ele>
        <time>2008-08-14T10:59:36.000Z</time>
      </trkpt>
      <trkpt lat="48.696417" lon="2.531254">
        <ele>59.26</ele>
        <time>2008-08-14T10:59:51.000Z</time>
      </trkpt>
      <trkpt lat="48.696316" lon="2.531381">
        <ele>56.37</ele>
        <time>2008-08-14T11:03:30.000Z</time>
      </trkpt>
      <trkpt lat="48.696219" lon="2.531443">
        <ele>56.37</ele>
        <time>2008-08-14T11:03:47.000Z</time>
      </trkpt>
      <trkpt lat="48.696117" lon="2.531476">
        <ele>56.37</ele>
        <time>2008-08-14T11:03:59.000Z</time>
      </trkpt>
      <trkpt lat="48.696062" lon="2.531496">
        <ele>55.89</ele>
        <time>2008-08-14T11:04:03.000Z</time>
      </trkpt>
      <trkpt lat="48.695885" lon="2.531565">
        <ele>55.41</ele>
        <time>2008-08-14T11:04:15.000Z</time>
      </trkpt>
      <trkpt lat="48.695836" lon="2.53154">
        <ele>54.93</ele>
        <time>2008-08-14T11:04:32.000Z</time>
      </trkpt>
      <trkpt lat="48.695663" lon="2.531569">
        <ele>55.41</ele>
        <time>2008-08-14T11:04:59.000Z</time>
      </trkpt>
      <trkpt lat="48.695561" lon="2.531478">
        <ele>54.93</ele>
        <time>2008-08-14T11:05:17.000Z</time>
      </trkpt>
      <trkpt lat="48.695401" lon="2.531495">
        <ele>54.93</ele>
        <time>2008-08-14T11:06:05.000Z</time>
      </trkpt>
      <trkpt lat="48.69523" lon="2.531366">
        <ele>54.93</ele>
        <time>2008-08-14T11:06:25.000Z</time>
      </trkpt>
      <trkpt lat="48.695176" lon="2.531222">
        <ele>54.45</ele>
        <time>2008-08-14T11:06:49.000Z</time>
      </trkpt>
      <trkpt lat="48.695143" lon="2.53106">
        <ele>55.41</ele>
        <time>2008-08-14T11:07:19.000Z</time>
      </trkpt>
      <trkpt lat="48.695048" lon="2.530922">
        <ele>54.93</ele>
        <time>2008-08-14T11:09:22.000Z</time>
      </trkpt>
      <trkpt lat="48.694991" lon="2.530935">
        <ele>54.45</ele>
        <time>2008-08-14T11:10:26.000Z</time>
      </trkpt>
      <trkpt lat="48.694848" lon="2.530686">
        <ele>54.93</ele>
        <time>2008-08-14T11:10:50.000Z</time>
      </trkpt>
      <trkpt lat="48.694675" lon="2.530307">
        <ele>54.93</ele>
        <time>2008-08-14T11:11:16.000Z</time>
      </trkpt>
      <trkpt lat="48.694627" lon="2.530044">
        <ele>54.45</ele>
        <time>2008-08-14T11:11:38.000Z</time>
      </trkpt>
      <trkpt lat="48.694624" lon="2.529925">
        <ele>54.93</ele>
        <time>2008-08-14T11:11:57.000Z</time>
      </trkpt>
      <trkpt lat="48.694634" lon="2.529713">
        <ele>54.93</ele>
        <time>2008-08-14T11:12:20.000Z</time>
      </trkpt>
      <trkpt lat="48.694427" lon="2.529307">
        <ele>54.45</ele>
        <time>2008-08-14T11:13:33.000Z</time>
      </trkpt>
      <trkpt lat="48.694309" lon="2.529093">
        <ele>54.45</ele>
        <time>2008-08-14T11:13:53.000Z</time>
      </trkpt>
      <trkpt lat="48.69426" lon="2.528943">
        <ele>54.45</ele>
        <time>2008-08-14T11:14:13.000Z</time>
      </trkpt>
      <trkpt lat="48.694212" lon="2.528721">
        <ele>54.45</ele>
        <time>2008-08-14T11:14:31.000Z</time>
      </trkpt>
      <trkpt lat="48.694095" lon="2.528623">
        <ele>54.45</ele>
        <time>2008-08-14T11:14:49.000Z</time>
      </trkpt>
      <trkpt lat="48.694042" lon="2.528594">
        <ele>53.97</ele>
        <time>2008-08-14T11:15:17.000Z</time>
      </trkpt>
      <trkpt lat="48.693908" lon="2.528392">
        <ele>53.97</ele>
        <time>2008-08-14T11:15:36.000Z</time>
      </trkpt>
      <trkpt lat="48.693772" lon="2.528216">
        <ele>53.97</ele>
        <time>2008-08-14T11:15:55.000Z</time>
      </trkpt>
      <trkpt lat="48.693673" lon="2.528109">
        <ele>53.97</ele>
        <time>2008-08-14T11:16:11.000Z</time>
      </trkpt>
      <trkpt lat="48.693591" lon="2.527858">
        <ele>53.97</ele>
        <time>2008-08-14T11:16:31.000Z</time>
      </trkpt>
      <trkpt lat="48.693548" lon="2.527739">
        <ele>53.97</ele>
        <time>2008-08-14T11:16:48.000Z</time>
      </trkpt>
      <trkpt lat="48.693702" lon="2.527688">
        <ele>53.49</ele>
        <time>2008-08-14T11:17:46.000Z</time>
      </trkpt>
      <trkpt lat="48.693606" lon="2.527435">
        <ele>53.49</ele>
        <time>2008-08-14T11:18:05.000Z</time>
      </trkpt>
      <trkpt lat="48.693508" lon="2.527273">
        <ele>53.49</ele>
        <time>2008-08-14T11:18:27.000Z</time>
      </trkpt>
      <trkpt lat="48.69355" lon="2.527205">
        <ele>53.49</ele>
        <time>2008-08-14T11:18:50.000Z</time>
      </trkpt>
      <trkpt lat="48.693695" lon="2.527126">
        <ele>52.05</ele>
        <time>2008-08-14T11:19:29.000Z</time>
      </trkpt>
      <trkpt lat="48.693561" lon="2.526997">
        <ele>53.01</ele>
        <time>2008-08-14T11:20:12.000Z</time>
      </trkpt>
      <trkpt lat="48.693471" lon="2.526679">
        <ele>52.53</ele>
        <time>2008-08-14T11:20:30.000Z</time>
      </trkpt>
      <trkpt lat="48.693437" lon="2.526586">
        <ele>52.53</ele>
        <time>2008-08-14T11:20:38.000Z</time>
      </trkpt>
      <trkpt lat="48.693328" lon="2.526264">
        <ele>52.53</ele>
        <time>2008-08-14T11:21:03.000Z</time>
      </trkpt>
      <trkpt lat="48.69349" lon="2.525982">
        <ele>55.89</ele>
        <time>2008-08-14T11:21:22.000Z</time>
      </trkpt>
      <trkpt lat="48.693593" lon="2.525827">
        <ele>58.78</ele>
        <time>2008-08-14T11:21:37.000Z</time>
      </trkpt>
      <trkpt lat="48.693705" lon="2.525757">
        <ele>58.78</ele>
        <time>2008-08-14T11:21:55.000Z</time>
      </trkpt>
      <trkpt lat="48.693732" lon="2.525752">
        <ele>58.78</ele>
        <time>2008-08-14T11:22:21.000Z</time>
      </trkpt>
      <trkpt lat="48.693785" lon="2.525754">
        <ele>58.78</ele>
        <time>2008-08-14T11:22:26.000Z</time>
      </trkpt>
      <trkpt lat="48.693909" lon="2.525764">
        <ele>59.26</ele>
        <time>2008-08-14T11:22:40.000Z</time>
      </trkpt>
      <trkpt lat="48.694027" lon="2.525722">
        <ele>59.26</ele>
        <time>2008-08-14T11:22:54.000Z</time>
      </trkpt>
      <trkpt lat="48.694118" lon="2.525678">
        <ele>59.26</ele>
        <time>2008-08-14T11:23:15.000Z</time>
      </trkpt>
      <trkpt lat="48.694239" lon="2.525679">
        <ele>59.74</ele>
        <time>2008-08-14T11:23:33.000Z</time>
      </trkpt>
      <trkpt lat="48.694387" lon="2.525657">
        <ele>59.74</ele>
        <time>2008-08-14T11:23:52.000Z</time>
      </trkpt>
      <trkpt lat="48.694575" lon="2.525685">
        <ele>60.22</ele>
        <time>2008-08-14T11:24:15.000Z</time>
      </trkpt>
      <trkpt lat="48.694677" lon="2.525782">
        <ele>60.7</ele>
        <time>2008-08-14T11:24:32.000Z</time>
      </trkpt>
      <trkpt lat="48.69483" lon="2.525768">
        <ele>61.18</ele>
        <time>2008-08-14T11:24:50.000Z</time>
      </trkpt>
      <trkpt lat="48.694993" lon="2.525754">
        <ele>61.18</ele>
        <time>2008-08-14T11:25:06.000Z</time>
      </trkpt>
      <trkpt lat="48.695122" lon="2.525732">
        <ele>61.66</ele>
        <time>2008-08-14T11:25:20.000Z</time>
      </trkpt>
      <trkpt lat="48.695223" lon="2.525803">
        <ele>61.18</ele>
        <time>2008-08-14T11:25:35.000Z</time>
      </trkpt>
      <trkpt lat="48.695347" lon="2.525715">
        <ele>61.18</ele>
        <time>2008-08-14T11:27:24.000Z</time>
      </trkpt>
      <trkpt lat="48.695384" lon="2.525706">
        <ele>61.18</ele>
        <time>2008-08-14T11:27:28.000Z</time>
      </trkpt>
      <trkpt lat="48.695524" lon="2.525702">
        <ele>61.18</ele>
        <time>2008-08-14T11:27:49.000Z</time>
      </trkpt>
      <trkpt lat="48.695569" lon="2.525796">
        <ele>60.22</ele>
        <time>2008-08-14T11:29:14.000Z</time>
      </trkpt>
      <trkpt lat="48.695736" lon="2.525743">
        <ele>60.22</ele>
        <time>2008-08-14T11:29:33.000Z</time>
      </trkpt>
      <trkpt lat="48.695801" lon="2.525759">
        <ele>60.22</ele>
        <time>2008-08-14T11:29:51.000Z</time>
      </trkpt>
      <trkpt lat="48.695953" lon="2.525819">
        <ele>60.22</ele>
        <time>2008-08-14T11:30:07.000Z</time>
      </trkpt>
      <trkpt lat="48.696008" lon="2.525726">
        <ele>59.74</ele>
        <time>2008-08-14T11:30:22.000Z</time>
      </trkpt>
      <trkpt lat="48.696097" lon="2.52571">
        <ele>60.22</ele>
        <time>2008-08-14T11:30:36.000Z</time>
      </trkpt>
      <trkpt lat="48.696175" lon="2.52559">
        <ele>60.22</ele>
        <time>2008-08-14T11:30:48.000Z</time>
      </trkpt>
      <trkpt lat="48.696206" lon="2.525517">
        <ele>60.22</ele>
        <time>2008-08-14T11:30:55.000Z</time>
      </trkpt>
      <trkpt lat="48.696364" lon="2.525298">
        <ele>60.7</ele>
        <time>2008-08-14T11:31:10.000Z</time>
      </trkpt>
      <trkpt lat="48.69637" lon="2.525288">
        <ele>60.7</ele>
        <time>2008-08-14T11:31:11.000Z</time>
      </trkpt>
      <trkpt lat="48.696436" lon="2.525104">
        <ele>60.7</ele>
        <time>2008-08-14T11:31:26.000Z</time>
      </trkpt>
      <trkpt lat="48.696517" lon="2.52495">
        <ele>60.7</ele>
        <time>2008-08-14T11:31:39.000Z</time>
      </trkpt>
      <trkpt lat="48.69661" lon="2.524816">
        <ele>60.7</ele>
        <time>2008-08-14T11:31:51.000Z</time>
      </trkpt>
      <trkpt lat="48.696717" lon="2.524583">
        <ele>60.7</ele>
        <time>2008-08-14T11:32:06.000Z</time>
      </trkpt>
      <trkpt lat="48.69685" lon="2.524441">
        <ele>60.7</ele>
        <time>2008-08-14T11:32:22.000Z</time>
      </trkpt>
      <trkpt lat="48.696862" lon="2.524427">
        <ele>60.7</ele>
        <time>2008-08-14T11:32:23.000Z</time>
      </trkpt>
      <trkpt lat="48.696984" lon="2.52429">
        <ele>60.7</ele>
        <time>2008-08-14T11:32:38.000Z</time>
      </trkpt>
      <trkpt lat="48.69711" lon="2.524098">
        <ele>60.7</ele>
        <time>2008-08-14T11:32:57.000Z</time>
      </trkpt>
      <trkpt lat="48.697273" lon="2.523873">
        <ele>60.22</ele>
        <time>2008-08-14T11:33:18.000Z</time>
      </trkpt>
      <trkpt lat="48.697391" lon="2.52363">
        <ele>60.22</ele>
        <time>2008-08-14T11:33:45.000Z</time>
      </trkpt>
      <trkpt lat="48.697529" lon="2.523368">
        <ele>59.74</ele>
        <time>2008-08-14T11:34:05.000Z</time>
      </trkpt>
      <trkpt lat="48.697653" lon="2.523171">
        <ele>59.74</ele>
        <time>2008-08-14T11:34:21.000Z</time>
      </trkpt>
      <trkpt lat="48.697794" lon="2.522951">
        <ele>59.74</ele>
        <time>2008-08-14T11:34:41.000Z</time>
      </trkpt>
      <trkpt lat="48.697898" lon="2.522703">
        <ele>59.74</ele>
        <time>2008-08-14T11:34:58.000Z</time>
      </trkpt>
      <trkpt lat="48.697996" lon="2.522523">
        <ele>59.74</ele>
        <time>2008-08-14T11:35:12.000Z</time>
      </trkpt>
      <trkpt lat="48.698042" lon="2.522452">
        <ele>59.26</ele>
        <time>2008-08-14T11:35:16.000Z</time>
      </trkpt>
      <trkpt lat="48.698123" lon="2.522273">
        <ele>59.74</ele>
        <time>2008-08-14T11:35:29.000Z</time>
      </trkpt>
      <trkpt lat="48.698108" lon="2.522165">
        <ele>59.26</ele>
        <time>2008-08-14T11:35:33.000Z</time>
      </trkpt>
      <trkpt lat="48.698096" lon="2.522027">
        <ele>59.26</ele>
        <time>2008-08-14T11:35:40.000Z</time>
      </trkpt>
      <trkpt lat="48.698064" lon="2.521884">
        <ele>58.78</ele>
        <time>2008-08-14T11:35:54.000Z</time>
      </trkpt>
      <trkpt lat="48.698091" lon="2.521764">
        <ele>58.78</ele>
        <time>2008-08-14T11:36:18.000Z</time>
      </trkpt>
      <trkpt lat="48.698049" lon="2.521591">
        <ele>58.78</ele>
        <time>2008-08-14T11:36:29.000Z</time>
      </trkpt>
      <trkpt lat="48.698056" lon="2.52147">
        <ele>58.78</ele>
        <time>2008-08-14T11:36:34.000Z</time>
      </trkpt>
      <trkpt lat="48.698052" lon="2.52126">
        <ele>58.3</ele>
        <time>2008-08-14T11:36:46.000Z</time>
      </trkpt>
      <trkpt lat="48.698057" lon="2.5212">
        <ele>58.3</ele>
        <time>2008-08-14T11:36:50.000Z</time>
      </trkpt>
      <trkpt lat="48.698034" lon="2.521132">
        <ele>58.3</ele>
        <time>2008-08-14T11:36:54.000Z</time>
      </trkpt>
      <trkpt lat="48.698005" lon="2.520999">
        <ele>57.82</ele>
        <time>2008-08-14T11:37:04.000Z</time>
      </trkpt>
      <trkpt lat="48.697998" lon="2.520962">
        <ele>57.82</ele>
        <time>2008-08-14T11:37:06.000Z</time>
      </trkpt>
      <trkpt lat="48.697856" lon="2.520887">
        <ele>57.34</ele>
        <time>2008-08-14T11:37:20.000Z</time>
      </trkpt>
      <trkpt lat="48.697837" lon="2.520645">
        <ele>57.34</ele>
        <time>2008-08-14T11:37:32.000Z</time>
      </trkpt>
      <trkpt lat="48.697812" lon="2.52058">
        <ele>56.86</ele>
        <time>2008-08-14T11:37:34.000Z</time>
      </trkpt>
      <trkpt lat="48.697839" lon="2.520459">
        <ele>56.86</ele>
        <time>2008-08-14T11:37:40.000Z</time>
      </trkpt>
      <trkpt lat="48.697797" lon="2.520409">
        <ele>56.86</ele>
        <time>2008-08-14T11:37:46.000Z</time>
      </trkpt>
      <trkpt lat="48.697657" lon="2.520265">
        <ele>55.89</ele>
        <time>2008-08-14T11:38:00.000Z</time>
      </trkpt>
      <trkpt lat="48.697564" lon="2.520106">
        <ele>55.41</ele>
        <time>2008-08-14T11:38:12.000Z</time>
      </trkpt>
      <trkpt lat="48.697558" lon="2.520022">
        <ele>54.93</ele>
        <time>2008-08-14T11:38:16.000Z</time>
      </trkpt>
      <trkpt lat="48.697553" lon="2.519992">
        <ele>54.93</ele>
        <time>2008-08-14T11:38:18.000Z</time>
      </trkpt>
      <trkpt lat="48.697521" lon="2.519757">
        <ele>53.49</ele>
        <time>2008-08-14T11:38:30.000Z</time>
      </trkpt>
      <trkpt lat="48.697408" lon="2.519583">
        <ele>53.01</ele>
        <time>2008-08-14T11:38:43.000Z</time>
      </trkpt>
      <trkpt lat="48.697344" lon="2.519511">
        <ele>53.01</ele>
        <time>2008-08-14T11:38:51.000Z</time>
      </trkpt>
      <trkpt lat="48.697358" lon="2.519376">
        <ele>52.53</ele>
        <time>2008-08-14T11:38:58.000Z</time>
      </trkpt>
      <trkpt lat="48.697382" lon="2.519282">
        <ele>52.05</ele>
        <time>2008-08-14T11:39:01.000Z</time>
      </trkpt>
      <trkpt lat="48.697578" lon="2.518903">
        <ele>51.09</ele>
        <time>2008-08-14T11:39:16.000Z</time>
      </trkpt>
      <trkpt lat="48.697545" lon="2.518602">
        <ele>49.65</ele>
        <time>2008-08-14T11:39:30.000Z</time>
      </trkpt>
      <trkpt lat="48.697534" lon="2.518549">
        <ele>49.16</ele>
        <time>2008-08-14T11:39:33.000Z</time>
      </trkpt>
      <trkpt lat="48.697535" lon="2.518435">
        <ele>48.68</ele>
        <time>2008-08-14T11:39:39.000Z</time>
      </trkpt>
      <trkpt lat="48.697502" lon="2.518269">
        <ele>47.72</ele>
        <time>2008-08-14T11:39:52.000Z</time>
      </trkpt>
      <trkpt lat="48.697441" lon="2.518043">
        <ele>47.24</ele>
        <time>2008-08-14T11:40:03.000Z</time>
      </trkpt>
      <trkpt lat="48.697423" lon="2.517841">
        <ele>46.76</ele>
        <time>2008-08-14T11:40:17.000Z</time>
      </trkpt>
      <trkpt lat="48.697348" lon="2.51764">
        <ele>46.28</ele>
        <time>2008-08-14T11:40:34.000Z</time>
      </trkpt>
      <trkpt lat="48.697336" lon="2.517632">
        <ele>46.28</ele>
        <time>2008-08-14T11:40:35.000Z</time>
      </trkpt>
      <trkpt lat="48.69725" lon="2.517404">
        <ele>45.32</ele>
        <time>2008-08-14T11:40:46.000Z</time>
      </trkpt>
      <trkpt lat="48.697292" lon="2.517225">
        <ele>44.84</ele>
        <time>2008-08-14T11:40:54.000Z</time>
      </trkpt>
      <trkpt lat="48.697496" lon="2.517095">
        <ele>44.84</ele>
        <time>2008-08-14T11:41:09.000Z</time>
      </trkpt>
      <trkpt lat="48.697626" lon="2.516982">
        <ele>44.84</ele>
        <time>2008-08-14T11:41:23.000Z</time>
      </trkpt>
      <trkpt lat="48.69777" lon="2.516893">
        <ele>45.32</ele>
        <time>2008-08-14T11:41:38.000Z</time>
      </trkpt>
      <trkpt lat="48.697877" lon="2.516796">
        <ele>45.32</ele>
        <time>2008-08-14T11:41:49.000Z</time>
      </trkpt>
      <trkpt lat="48.6979" lon="2.516769">
        <ele>44.84</ele>
        <time>2008-08-14T11:41:52.000Z</time>
      </trkpt>
      <trkpt lat="48.698" lon="2.516676">
        <ele>44.36</ele>
        <time>2008-08-14T11:42:01.000Z</time>
      </trkpt>
      <trkpt lat="48.6981" lon="2.516566">
        <ele>43.88</ele>
        <time>2008-08-14T11:42:12.000Z</time>
      </trkpt>
      <trkpt lat="48.698121" lon="2.516434">
        <ele>43.88</ele>
        <time>2008-08-14T11:42:28.000Z</time>
      </trkpt>
    </trkseg>
  </trk>
</gpx>
