<?xml version="1.0" encoding="UTF-8"?>
<gpx creator="gps4cam - http://gps4cam.com" version="1.1" schemaLocation="http://www.topografix.com/GPX/1/1 http://www.topografix.com/GPX/1/1/gpx.xsd" xmlns="http://www.topografix.com/GPX/1/1" xmlns:xsi="http://www.w3.org/2001/XMLSchema-instance" xsi:schemaLocation="http://www.topografix.com/GPX/1/1 http://www.topografix.com/GPX/1/1/gpx.xsd http://www.garmin.com/xmlschemas/GpxExtensions/v3 http://www.garmin.com/xmlschemas/GpxExtensionsv3.xsd http://www.garmin.com/xmlschemas/TrackPointExtension/v1 http://www.garmin.com/xmlschemas/TrackPointExtensionv1.xsd http://www.garmin.com/xmlschemas/PowerExtension/v1 http://www.garmin.com/xmlschemas/PowerExtensionv1.xsd http://www.topografix.com/GPX/gpx_style/0/2 http://www.topografix.com/GPX/gpx_style/0/2/gpx_style.xsd" xmlns:gpxtpx="http://www.garmin.com/xmlschemas/TrackPointExtension/v1" xmlns:gpxx="http://www.garmin.com/xmlschemas/GpxExtensions/v3" xmlns:gpxpx="http://www.garmin.com/xmlschemas/PowerExtension/v1" xmlns:gpx_style="http://www.topografix.com/GPX/gpx_style/0/2">
  <metadata>
    <name>gps4cam trip started at 2015-05-23 09-44 decoded at 2015-05-24 00-45-45</name>
    <author>
      <name>gpx.studio</name>
      <link href="https://gpx.studio"/>
    </author>
    <link href="http://gps4cam.com">
      <text>gps4cam</text>
    </link>
    <time>2015-05-24T04:45:50.000Z</time>
  </metadata>
  <trk>
    <name>gps4cam trip started at: 2015-05-23T13:44:36Z</name>
    <trkseg>
      <trkpt lat="40.6908067515" lon="-73.9853914202">
        <time>2015-05-23T17:59:36.000Z</time>
      </trkpt>
      <trkpt lat="40.6905012323" lon="-73.9848920954">
        <time>2015-05-23T18:04:36.000Z</time>
      </trkpt>
      <trkpt lat="40.6903861996" lon="-73.9844549698">
        <time>2015-05-23T18:09:36.000Z</time>
      </trkpt>
      <trkpt lat="40.6905140916" lon="-73.9848832857">
        <time>2015-05-23T18:14:44.000Z</time>
      </trkpt>
      <trkpt lat="40.690447697" lon="-73.9844936469">
        <time>2015-05-23T18:19:37.000Z</time>
      </trkpt>
      <trkpt lat="40.6900598976" lon="-73.9838269205">
        <time>2015-05-23T18:24:37.000Z</time>
      </trkpt>
      <trkpt lat="40.6900759674" lon="-73.9838469911">
        <time>2015-05-23T18:29:43.000Z</time>
      </trkpt>
      <trkpt lat="40.690209067" lon="-73.9833766145">
        <time>2015-05-23T18:34:36.000Z</time>
      </trkpt>
      <trkpt lat="40.6904351269" lon="-73.9835014566">
        <time>2015-05-23T18:39:40.000Z</time>
      </trkpt>
      <trkpt lat="40.6881445498" lon="-73.9817763193">
        <time>2015-05-23T18:44:48.000Z</time>
      </trkpt>
      <trkpt lat="40.6886946284" lon="-73.9804856028">
        <time>2015-05-23T18:49:37.000Z</time>
      </trkpt>
      <trkpt lat="40.6887856976" lon="-73.9806407658">
        <time>2015-05-23T18:54:47.000Z</time>
      </trkpt>
      <trkpt lat="40.6886736291" lon="-73.9804875602">
        <time>2015-05-23T18:59:44.000Z</time>
      </trkpt>
      <trkpt lat="40.6887184133" lon="-73.9806495753">
        <time>2015-05-23T19:04:46.000Z</time>
      </trkpt>
      <trkpt lat="40.6887567706" lon="-73.9805051817">
        <time>2015-05-23T19:09:48.000Z</time>
      </trkpt>
      <trkpt lat="40.6887089855" lon="-73.9805565758">
        <time>2015-05-23T19:14:43.000Z</time>
      </trkpt>
      <trkpt lat="40.6886961285" lon="-73.9805653862">
        <time>2015-05-23T19:19:36.000Z</time>
      </trkpt>
      <trkpt lat="40.6886864856" lon="-73.9806030753">
        <time>2015-05-23T19:25:06.000Z</time>
      </trkpt>
      <trkpt lat="40.6894865998" lon="-73.9819569746">
        <time>2015-05-23T19:29:43.000Z</time>
      </trkpt>
      <trkpt lat="40.6905379243" lon="-73.9852958063">
        <time>2015-05-23T19:34:36.000Z</time>
      </trkpt>
      <trkpt lat="40.691011036" lon="-73.9855435632">
        <time>2015-05-23T19:39:36.000Z</time>
      </trkpt>
      <trkpt lat="40.6914905292" lon="-73.9862220817">
        <time>2015-05-23T19:44:50.000Z</time>
      </trkpt>
      <trkpt lat="40.6926278926" lon="-73.9898563536">
        <time>2015-05-23T19:49:41.000Z</time>
      </trkpt>
      <trkpt lat="40.6924341367" lon="-73.9912508732">
        <time>2015-05-23T19:54:41.000Z</time>
      </trkpt>
      <trkpt lat="40.6932405692" lon="-73.9957457788">
        <time>2015-05-23T19:59:40.000Z</time>
      </trkpt>
      <trkpt lat="40.6938475521" lon="-73.999693465">
        <time>2015-05-23T20:04:40.000Z</time>
      </trkpt>
      <trkpt lat="40.6955992395" lon="-74.0017387401">
        <time>2015-05-23T20:09:40.000Z</time>
      </trkpt>
      <trkpt lat="40.6953551545" lon="-74.0028816047">
        <time>2015-05-23T20:14:39.000Z</time>
      </trkpt>
      <trkpt lat="40.6956745965" lon="-74.0024765031">
        <time>2015-05-23T20:19:40.000Z</time>
      </trkpt>
      <trkpt lat="40.6955725602" lon="-74.0020304788">
        <time>2015-05-23T20:24:39.000Z</time>
      </trkpt>
      <trkpt lat="40.6962396312" lon="-73.9991623078">
        <time>2015-05-23T20:29:41.000Z</time>
      </trkpt>
      <trkpt lat="40.6993803686" lon="-73.9979134338">
        <time>2015-05-23T20:34:40.000Z</time>
      </trkpt>
      <trkpt lat="40.6997206971" lon="-73.9983703992">
        <time>2015-05-23T20:39:36.000Z</time>
      </trkpt>
      <trkpt lat="40.6997756155" lon="-73.997617993">
        <time>2015-05-23T20:44:44.000Z</time>
      </trkpt>
      <trkpt lat="40.7007806936" lon="-73.9967496542">
        <time>2015-05-23T20:49:41.000Z</time>
      </trkpt>
      <trkpt lat="40.7011705604" lon="-73.9971043385">
        <time>2015-05-23T20:54:42.000Z</time>
      </trkpt>
      <trkpt lat="40.7023742393" lon="-73.9975359241">
        <time>2015-05-23T20:59:41.000Z</time>
      </trkpt>
      <trkpt lat="40.7033137496" lon="-73.9961343959">
        <time>2015-05-23T21:04:40.000Z</time>
      </trkpt>
      <trkpt lat="40.7029448507" lon="-73.9952867044">
        <time>2015-05-23T21:09:46.000Z</time>
      </trkpt>
      <trkpt lat="40.7030869168" lon="-73.9952951143">
        <time>2015-05-23T21:14:42.000Z</time>
      </trkpt>
      <trkpt lat="40.7040971816" lon="-73.9936585677">
        <time>2015-05-23T21:19:41.000Z</time>
      </trkpt>
      <trkpt lat="40.7047180518" lon="-73.9933764403">
        <time>2015-05-23T21:24:40.000Z</time>
      </trkpt>
      <trkpt lat="40.7045542364" lon="-73.9924069609">
        <time>2015-05-23T21:29:40.000Z</time>
      </trkpt>
      <trkpt lat="40.703184224" lon="-73.9907093165">
        <time>2015-05-23T21:34:37.000Z</time>
      </trkpt>
      <trkpt lat="40.7028625929" lon="-73.990687126">
        <time>2015-05-23T21:39:37.000Z</time>
      </trkpt>
      <trkpt lat="40.7032320933" lon="-73.9904092274">
        <time>2015-05-23T21:44:44.000Z</time>
      </trkpt>
      <trkpt lat="40.7031545307" lon="-73.9896106895">
        <time>2015-05-23T21:49:45.000Z</time>
      </trkpt>
      <trkpt lat="40.7025193752" lon="-73.9896975366">
        <time>2015-05-23T21:54:59.000Z</time>
      </trkpt>
      <trkpt lat="40.7000237588" lon="-73.9892122205">
        <time>2015-05-23T21:59:42.000Z</time>
      </trkpt>
      <trkpt lat="40.6998810489" lon="-73.9918151147">
        <time>2015-05-23T22:04:43.000Z</time>
      </trkpt>
      <trkpt lat="40.6994089257" lon="-73.9920327399">
        <time>2015-05-23T22:09:36.000Z</time>
      </trkpt>
      <trkpt lat="40.6994327341" lon="-73.9919480591">
        <time>2015-05-23T22:14:36.000Z</time>
      </trkpt>
      <trkpt lat="40.6994912322" lon="-73.9919515135">
        <time>2015-05-23T22:20:03.000Z</time>
      </trkpt>
      <trkpt lat="40.6994395789" lon="-73.9919931008">
        <time>2015-05-23T22:24:47.000Z</time>
      </trkpt>
      <trkpt lat="40.6994723921" lon="-73.9918898213">
        <time>2015-05-23T22:29:48.000Z</time>
      </trkpt>
      <trkpt lat="40.6995191108" lon="-73.9918702613">
        <time>2015-05-23T22:34:49.000Z</time>
      </trkpt>
      <trkpt lat="40.6994578384" lon="-73.9918251939">
        <time>2015-05-23T22:39:36.000Z</time>
      </trkpt>
      <trkpt lat="40.6994874114" lon="-73.991817375">
        <time>2015-05-23T22:44:37.000Z</time>
      </trkpt>
      <trkpt lat="40.6994790209" lon="-73.9919412272">
        <time>2015-05-23T22:49:36.000Z</time>
      </trkpt>
      <trkpt lat="40.6994865138" lon="-73.9919671768">
        <time>2015-05-23T22:54:36.000Z</time>
      </trkpt>
      <trkpt lat="40.699907427" lon="-73.9925181231">
        <time>2015-05-23T22:59:36.000Z</time>
      </trkpt>
      <trkpt lat="40.6999102975" lon="-73.9914469824">
        <time>2015-05-23T23:04:40.000Z</time>
      </trkpt>
      <trkpt lat="40.7000061881" lon="-73.9902251009">
        <time>2015-05-23T23:09:42.000Z</time>
      </trkpt>
      <trkpt lat="40.6998941209" lon="-73.9910602294">
        <time>2015-05-23T23:14:40.000Z</time>
      </trkpt>
      <trkpt lat="40.6998413883" lon="-73.9911336383">
        <time>2015-05-23T23:19:39.000Z</time>
      </trkpt>
      <trkpt lat="40.7002708605" lon="-73.9909389912">
        <time>2015-05-23T23:24:36.000Z</time>
      </trkpt>
      <trkpt lat="40.7011837684" lon="-73.9906867951">
        <time>2015-05-23T23:29:36.000Z</time>
      </trkpt>
      <trkpt lat="40.7026772234" lon="-73.9925733269">
        <time>2015-05-23T23:34:36.000Z</time>
      </trkpt>
      <trkpt lat="40.7027331263" lon="-73.9926531575">
        <time>2015-05-23T23:35:03.000Z</time>
      </trkpt>
      <trkpt lat="40.7033782764" lon="-73.9935043939">
        <time>2015-05-23T23:39:39.000Z</time>
      </trkpt>
      <trkpt lat="40.7041041655" lon="-73.9944433421">
        <time>2015-05-23T23:44:41.000Z</time>
      </trkpt>
      <trkpt lat="40.704942483" lon="-73.995522909">
        <time>2015-05-23T23:49:40.000Z</time>
      </trkpt>
      <trkpt lat="40.7057158709" lon="-73.9965412813">
        <time>2015-05-23T23:54:39.000Z</time>
      </trkpt>
      <trkpt lat="40.7052390068" lon="-73.9956680099">
        <time>2015-05-23T23:59:40.000Z</time>
      </trkpt>
      <trkpt lat="40.703367298" lon="-73.9932134999">
        <time>2015-05-24T00:04:40.000Z</time>
      </trkpt>
      <trkpt lat="40.7022298272" lon="-73.9920653047">
        <time>2015-05-24T00:09:40.000Z</time>
      </trkpt>
      <trkpt lat="40.7010779612" lon="-73.9886270066">
        <time>2015-05-24T00:14:41.000Z</time>
      </trkpt>
      <trkpt lat="40.7024473575" lon="-73.9898524759">
        <time>2015-05-24T00:19:43.000Z</time>
      </trkpt>
      <trkpt lat="40.7032082977" lon="-73.9897602979">
        <time>2015-05-24T00:24:44.000Z</time>
      </trkpt>
      <trkpt lat="40.7028456579" lon="-73.9923024879">
        <time>2015-05-24T00:29:42.000Z</time>
      </trkpt>
      <trkpt lat="40.7032485794" lon="-73.9941214836">
        <time>2015-05-24T00:34:41.000Z</time>
      </trkpt>
      <trkpt lat="40.7033585168" lon="-73.9940897256">
        <time>2015-05-24T00:39:36.000Z</time>
      </trkpt>
      <trkpt lat="40.7033570018" lon="-73.9941342763">
        <time>2015-05-24T00:44:37.000Z</time>
      </trkpt>
      <trkpt lat="40.7033182896" lon="-73.9939183495">
        <time>2015-05-24T00:49:36.000Z</time>
      </trkpt>
      <trkpt lat="40.7033574768" lon="-73.9939971945">
        <time>2015-05-24T00:54:51.000Z</time>
      </trkpt>
      <trkpt lat="40.7033617215" lon="-73.9941186124">
        <time>2015-05-24T00:59:36.000Z</time>
      </trkpt>
      <trkpt lat="40.7033450499" lon="-73.9939932706">
        <time>2015-05-24T01:04:36.000Z</time>
      </trkpt>
      <trkpt lat="40.7033180734" lon="-73.9939247138">
        <time>2015-05-24T01:09:36.000Z</time>
      </trkpt>
      <trkpt lat="40.7033660084" lon="-73.9941156774">
        <time>2015-05-24T01:14:37.000Z</time>
      </trkpt>
      <trkpt lat="40.7033529741" lon="-73.9940064937">
        <time>2015-05-24T01:19:43.000Z</time>
      </trkpt>
      <trkpt lat="40.7033103661" lon="-73.9939051261">
        <time>2015-05-24T01:24:36.000Z</time>
      </trkpt>
      <trkpt lat="40.7033007107" lon="-73.993942818">
        <time>2015-05-24T01:29:36.000Z</time>
      </trkpt>
      <trkpt lat="40.7033007107" lon="-73.993942818">
        <time>2015-05-24T01:34:36.000Z</time>
      </trkpt>
      <trkpt lat="40.703353407" lon="-73.9939937649">
        <time>2015-05-24T01:39:44.000Z</time>
      </trkpt>
      <trkpt lat="40.7033531906" lon="-73.9940001293">
        <time>2015-05-24T01:44:36.000Z</time>
      </trkpt>
      <trkpt lat="40.7033570444" lon="-73.9940099231">
        <time>2015-05-24T01:49:36.000Z</time>
      </trkpt>
      <trkpt lat="40.7033529742" lon="-73.9940064937">
        <time>2015-05-24T01:54:36.000Z</time>
      </trkpt>
      <trkpt lat="40.7033527578" lon="-73.9940128581">
        <time>2015-05-24T01:59:36.000Z</time>
      </trkpt>
      <trkpt lat="40.70330816" lon="-73.9940931228">
        <time>2015-05-24T02:04:43.000Z</time>
      </trkpt>
      <trkpt lat="40.7035421578" lon="-73.995337772">
        <time>2015-05-24T02:09:41.000Z</time>
      </trkpt>
      <trkpt lat="40.703352199" lon="-73.9956294423">
        <time>2015-05-24T02:14:41.000Z</time>
      </trkpt>
      <trkpt lat="40.7034935329" lon="-73.9952902525">
        <time>2015-05-24T02:19:41.000Z</time>
      </trkpt>
      <trkpt lat="40.7031391637" lon="-73.995737995">
        <time>2015-05-24T02:24:40.000Z</time>
      </trkpt>
      <trkpt lat="40.7033824593" lon="-73.9960935819">
        <time>2015-05-24T02:29:39.000Z</time>
      </trkpt>
      <trkpt lat="40.7033868708" lon="-73.9963329887">
        <time>2015-05-24T02:34:39.000Z</time>
      </trkpt>
      <trkpt lat="40.7033605467" lon="-73.9962453371">
        <time>2015-05-24T02:39:40.000Z</time>
      </trkpt>
      <trkpt lat="40.7031052463" lon="-73.9964884921">
        <time>2015-05-24T02:44:40.000Z</time>
      </trkpt>
      <trkpt lat="40.7006185823" lon="-73.9968481767">
        <time>2015-05-24T02:49:41.000Z</time>
      </trkpt>
      <trkpt lat="40.7007554954" lon="-73.9968849783">
        <time>2015-05-24T02:54:40.000Z</time>
      </trkpt>
      <trkpt lat="40.700815076" lon="-73.9968566209">
        <time>2015-05-24T02:59:40.000Z</time>
      </trkpt>
      <trkpt lat="40.7008934913" lon="-73.9968899598">
        <time>2015-05-24T03:04:39.000Z</time>
      </trkpt>
      <trkpt lat="40.700778878" lon="-73.9968130274">
        <time>2015-05-24T03:09:39.000Z</time>
      </trkpt>
      <trkpt lat="40.7007111127" lon="-73.996958874">
        <time>2015-05-24T03:14:41.000Z</time>
      </trkpt>
      <trkpt lat="40.7016718069" lon="-73.9961644173">
        <time>2015-05-24T03:19:41.000Z</time>
      </trkpt>
      <trkpt lat="40.7027082726" lon="-73.9956040052">
        <time>2015-05-24T03:24:40.000Z</time>
      </trkpt>
      <trkpt lat="40.7022006495" lon="-73.9924332367">
        <time>2015-05-24T03:29:40.000Z</time>
      </trkpt>
      <trkpt lat="40.7002827238" lon="-73.9905949234">
        <time>2015-05-24T03:50:05.000Z</time>
      </trkpt>
    </trkseg>
  </trk>
</gpx>
