<?xml version="1.0" encoding="UTF-8"?>
<gpx version="1.1" creator="GPSBabel - https://www.gpsbabel.org" xmlns="http://www.topografix.com/GPX/1/1" xmlns:xsi="http://www.w3.org/2001/XMLSchema-instance" xmlns:gpxtpx="http://www.garmin.com/xmlschemas/TrackPointExtension/v1" xmlns:gpxx="http://www.garmin.com/xmlschemas/GpxExtensions/v3" xmlns:gpxpx="http://www.garmin.com/xmlschemas/PowerExtension/v1" xmlns:gpx_style="http://www.topografix.com/GPX/gpx_style/0/2">
  <metadata>
    <name>2008-09-14 22 01 21</name>
    <time>2025-09-08T13:47:48.862Z</time>
    <bounds minlat="46.753866000" minlon="-73.048784000" maxlat="46.754668000" maxlon="-73.047676000"/>
  </metadata>
  <trk>
    <name>unnamed</name>
    <trkseg>
      <trkpt lat="46.754305000" lon="-73.048272000">
        <ele>302.470</ele>
        <time>2008-09-02T19:07:34Z</time>
      </trkpt>
      <trkpt lat="46.754211000" lon="-73.048243000">
        <ele>302.950</ele>
        <time>2008-09-02T19:08:08Z</time>
      </trkpt>
      <trkpt lat="46.754192000" lon="-73.048205000">
        <ele>303.430</ele>
        <time>2008-09-02T19:08:26Z</time>
      </trkpt>
      <trkpt lat="46.754122000" lon="-73.048161000">
        <ele>303.910</ele>
        <time>2008-09-02T19:08:48Z</time>
      </trkpt>
      <trkpt lat="46.753866000" lon="-73.048106000">
        <ele>303.910</ele>
        <time>2008-09-02T19:09:40Z</time>
      </trkpt>
      <trkpt lat="46.753909000" lon="-73.048108000">
        <ele>305.360</ele>
        <time>2008-09-02T19:10:11Z</time>
      </trkpt>
      <trkpt lat="46.753867000" lon="-73.048156000">
        <ele>306.320</ele>
        <time>2008-09-02T19:10:34Z</time>
      </trkpt>
      <trkpt lat="46.753881000" lon="-73.048160000">
        <ele>308.240</ele>
        <time>2008-09-02T19:11:23Z</time>
      </trkpt>
      <trkpt lat="46.753885000" lon="-73.048062000">
        <ele>313.050</ele>
        <time>2008-09-02T19:13:04Z</time>
      </trkpt>
      <trkpt lat="46.753872000" lon="-73.048069000">
        <ele>314.490</ele>
        <time>2008-09-02T19:13:36Z</time>
      </trkpt>
      <trkpt lat="46.753927000" lon="-73.048116000">
        <ele>315.930</ele>
        <time>2008-09-02T19:13:54Z</time>
      </trkpt>
      <trkpt lat="46.753867000" lon="-73.048065000">
        <ele>317.370</ele>
        <time>2008-09-02T19:14:28Z</time>
      </trkpt>
      <trkpt lat="46.753901000" lon="-73.048123000">
        <ele>317.850</ele>
        <time>2008-09-02T19:14:48Z</time>
      </trkpt>
      <trkpt lat="46.753951000" lon="-73.048105000">
        <ele>321.220</ele>
        <time>2008-09-02T19:15:53Z</time>
      </trkpt>
      <trkpt lat="46.754084000" lon="-73.048129000">
        <ele>324.100</ele>
        <time>2008-09-02T19:16:40Z</time>
      </trkpt>
      <trkpt lat="46.754248000" lon="-73.048242000">
        <ele>326.020</ele>
        <time>2008-09-02T19:16:58Z</time>
      </trkpt>
      <trkpt lat="46.754430000" lon="-73.048411000">
        <ele>327.470</ele>
        <time>2008-09-02T19:17:20Z</time>
      </trkpt>
      <trkpt lat="46.754400000" lon="-73.048383000">
        <ele>328.430</ele>
        <time>2008-09-02T19:17:42Z</time>
      </trkpt>
      <trkpt lat="46.754511000" lon="-73.048453000">
        <ele>328.910</ele>
        <time>2008-09-02T19:18:10Z</time>
      </trkpt>
      <trkpt lat="46.754609000" lon="-73.048665000">
        <ele>329.390</ele>
        <time>2008-09-02T19:18:31Z</time>
      </trkpt>
      <trkpt lat="46.754645000" lon="-73.048784000">
        <ele>330.830</ele>
        <time>2008-09-02T19:19:22Z</time>
      </trkpt>
      <trkpt lat="46.754668000" lon="-73.048765000">
        <ele>331.790</ele>
        <time>2008-09-02T19:19:55Z</time>
      </trkpt>
      <trkpt lat="46.754556000" lon="-73.048575000">
        <ele>333.230</ele>
        <time>2008-09-02T19:20:23Z</time>
      </trkpt>
      <trkpt lat="46.754420000" lon="-73.048441000">
        <ele>333.710</ele>
        <time>2008-09-02T19:20:41Z</time>
      </trkpt>
      <trkpt lat="46.754382000" lon="-73.048206000">
        <ele>335.160</ele>
        <time>2008-09-02T19:21:01Z</time>
      </trkpt>
      <trkpt lat="46.754399000" lon="-73.047891000">
        <ele>336.600</ele>
        <time>2008-09-02T19:21:18Z</time>
      </trkpt>
      <trkpt lat="46.754410000" lon="-73.047802000">
        <ele>337.560</ele>
        <time>2008-09-02T19:21:24Z</time>
      </trkpt>
      <trkpt lat="46.754384000" lon="-73.047676000">
        <ele>337.560</ele>
        <time>2008-09-02T19:21:30Z</time>
      </trkpt>
    </trkseg>
  </trk>
</gpx>
