<?xml version="1.0" encoding="UTF-8"?>
<gpx creator="gps4cam - http://gps4cam.com" version="1.1" schemaLocation="http://www.topografix.com/GPX/1/1 http://www.topografix.com/GPX/1/1/gpx.xsd" xmlns="http://www.topografix.com/GPX/1/1" xmlns:xsi="http://www.w3.org/2001/XMLSchema-instance" xsi:schemaLocation="http://www.topografix.com/GPX/1/1 http://www.topografix.com/GPX/1/1/gpx.xsd http://www.garmin.com/xmlschemas/GpxExtensions/v3 http://www.garmin.com/xmlschemas/GpxExtensionsv3.xsd http://www.garmin.com/xmlschemas/TrackPointExtension/v1 http://www.garmin.com/xmlschemas/TrackPointExtensionv1.xsd http://www.garmin.com/xmlschemas/PowerExtension/v1 http://www.garmin.com/xmlschemas/PowerExtensionv1.xsd http://www.topografix.com/GPX/gpx_style/0/2 http://www.topografix.com/GPX/gpx_style/0/2/gpx_style.xsd" xmlns:gpxtpx="http://www.garmin.com/xmlschemas/TrackPointExtension/v1" xmlns:gpxx="http://www.garmin.com/xmlschemas/GpxExtensions/v3" xmlns:gpxpx="http://www.garmin.com/xmlschemas/PowerExtension/v1" xmlns:gpx_style="http://www.topografix.com/GPX/gpx_style/0/2">
  <metadata>
    <name>gps4cam trip started at 2018-02-27 15-02 decoded at 2018-02-28 00-19-43</name>
    <author>
      <name>gpx.studio</name>
      <link href="https://gpx.studio"/>
    </author>
    <link href="http://gps4cam.com">
      <text>gps4cam</text>
    </link>
    <time>2018-02-27T23:19:44.000Z</time>
  </metadata>
  <trk>
    <name>gps4cam trip started at: 2018-02-27T14:02:51Z</name>
    <trkseg>
      <trkpt lat="19.077936818" lon="-69.4671330437">
        <time>2018-02-27T15:20:21.000Z</time>
      </trkpt>
      <trkpt lat="19.0778473801" lon="-69.4670194524">
        <time>2018-02-27T15:20:39.000Z</time>
      </trkpt>
      <trkpt lat="19.07779126" lon="-69.4668858013">
        <time>2018-02-27T15:20:56.000Z</time>
      </trkpt>
      <trkpt lat="19.0777383241" lon="-69.4667483084">
        <time>2018-02-27T15:21:06.000Z</time>
      </trkpt>
      <trkpt lat="19.0776394916" lon="-69.4666192033">
        <time>2018-02-27T15:21:15.000Z</time>
      </trkpt>
      <trkpt lat="19.0774959945" lon="-69.4665574074">
        <time>2018-02-27T15:21:23.000Z</time>
      </trkpt>
      <trkpt lat="19.077622897" lon="-69.4664848488">
        <time>2018-02-27T15:21:44.000Z</time>
      </trkpt>
      <trkpt lat="19.0775319852" lon="-69.4663528997">
        <time>2018-02-27T15:22:34.000Z</time>
      </trkpt>
      <trkpt lat="19.0776612721" lon="-69.4664117031">
        <time>2018-02-27T15:22:50.000Z</time>
      </trkpt>
      <trkpt lat="19.0772560484" lon="-69.4664978697">
        <time>2018-02-27T15:57:56.000Z</time>
      </trkpt>
      <trkpt lat="19.0773864079" lon="-69.4666426346">
        <time>2018-02-27T15:58:06.000Z</time>
      </trkpt>
      <trkpt lat="19.0775119498" lon="-69.4667999236">
        <time>2018-02-27T15:58:40.000Z</time>
      </trkpt>
      <trkpt lat="19.0775633341" lon="-69.4669325768">
        <time>2018-02-27T15:59:12.000Z</time>
      </trkpt>
      <trkpt lat="19.0777054389" lon="-69.4669624933">
        <time>2018-02-27T15:59:23.000Z</time>
      </trkpt>
      <trkpt lat="19.0776335848" lon="-69.4670827394">
        <time>2018-02-27T15:59:54.000Z</time>
      </trkpt>
      <trkpt lat="19.0776126043" lon="-69.4671550339">
        <time>2018-02-27T16:00:23.000Z</time>
      </trkpt>
      <trkpt lat="19.0777004101" lon="-69.4672773059">
        <time>2018-02-27T16:00:50.000Z</time>
      </trkpt>
      <trkpt lat="19.0777914002" lon="-69.4673957363">
        <time>2018-02-27T16:01:10.000Z</time>
      </trkpt>
      <trkpt lat="19.0778447896" lon="-69.4671903788">
        <time>2018-02-27T16:01:48.000Z</time>
      </trkpt>
      <trkpt lat="19.0779335579" lon="-69.4671504056">
        <time>2018-02-27T16:02:19.000Z</time>
      </trkpt>
    </trkseg>
  </trk>
</gpx>
