<?xml version="1.0" encoding="UTF-8"?>
<gpx version="1.1" creator="GPSBabel - https://www.gpsbabel.org" xmlns="http://www.topografix.com/GPX/1/1" xmlns:xsi="http://www.w3.org/2001/XMLSchema-instance" xmlns:gpxtpx="http://www.garmin.com/xmlschemas/TrackPointExtension/v1" xmlns:gpxx="http://www.garmin.com/xmlschemas/GpxExtensions/v3" xmlns:gpxpx="http://www.garmin.com/xmlschemas/PowerExtension/v1" xmlns:gpx_style="http://www.topografix.com/GPX/gpx_style/0/2">
  <metadata>
    <name>2011-05-16 22 21 36</name>
    <time>2025-10-15T10:54:55.366Z</time>
    <bounds minlat="25.061784000" minlon="-94.799018000" maxlat="50.982884000" maxlon="121.640268000"/>
  </metadata>
  <wpt lat="29.825755000" lon="-9.371013000">
    <time>2011-05-01T14:38:15Z</time>
    <name>000</name>
    <cmt>000</cmt>
    <desc>000</desc>
    <sym>Flag, Blue</sym>
  </wpt>
  <wpt lat="48.869904000" lon="2.329309000">
    <ele>60.690</ele>
    <time>2008-05-27T10:00:03Z</time>
    <name>Clever Age</name>
    <cmt>Clever Age</cmt>
    <desc>Clever Age</desc>
    <sym>Department Store</sym>
  </wpt>
  <wpt lat="49.358182000" lon="0.075849000">
    <ele>79.670</ele>
    <time>2008-08-23T14:46:54Z</time>
    <name>DEAUVILLE</name>
    <cmt>DEAUVILLE</cmt>
    <desc>DEAUVILLE</desc>
    <sym>Car</sym>
  </wpt>
  <wpt lat="48.658663000" lon="2.452307000">
    <ele>-15.500</ele>
    <time>2009-07-25T13:05:32Z</time>
    <name>WPT004</name>
    <cmt>WPT004</cmt>
    <desc>WPT004</desc>
    <sym>Beach</sym>
  </wpt>
  <wpt lat="38.855550000" lon="-94.799018000">
    <ele>325.050</ele>
    <time>2008-04-03T07:38:10Z</time>
    <name>Garmin</name>
    <cmt>Garmin</cmt>
    <desc>Garmin</desc>
    <sym>Flag, Blue</sym>
  </wpt>
  <wpt lat="50.982884000" lon="-1.463900000">
    <ele>35.930</ele>
    <time>2008-04-03T07:38:10Z</time>
    <name>Garmin Europe</name>
    <cmt>Garmin Europe</cmt>
    <desc>Garmin Europe</desc>
    <sym>Flag, Blue</sym>
  </wpt>
  <wpt lat="25.061784000" lon="121.640268000">
    <ele>38.100</ele>
    <time>2008-04-03T07:38:10Z</time>
    <name>Garmin Taiwan</name>
    <cmt>Garmin Taiwan</cmt>
    <desc>Garmin Taiwan</desc>
    <sym>Flag, Blue</sym>
  </wpt>
  <trk>
    <name>unnamed</name>
    <trkseg>
      <trkpt lat="30.469404000" lon="-8.882123000">
        <ele>232.780</ele>
        <time>2011-05-07T09:36:06Z</time>
      </trkpt>
      <trkpt lat="30.469266000" lon="-8.882176000">
        <ele>233.260</ele>
        <time>2011-05-07T09:37:16Z</time>
      </trkpt>
      <trkpt lat="30.469402000" lon="-8.882014000">
        <ele>232.780</ele>
        <time>2011-05-07T09:37:40Z</time>
      </trkpt>
      <trkpt lat="30.469515000" lon="-8.882018000">
        <ele>232.780</ele>
        <time>2011-05-07T09:37:58Z</time>
      </trkpt>
      <trkpt lat="30.469441000" lon="-8.882068000">
        <ele>233.740</ele>
        <time>2011-05-07T09:38:18Z</time>
      </trkpt>
      <trkpt lat="30.469459000" lon="-8.882020000">
        <ele>233.740</ele>
        <time>2011-05-07T09:38:34Z</time>
      </trkpt>
      <trkpt lat="30.469544000" lon="-8.882068000">
        <ele>233.740</ele>
        <time>2011-05-07T09:38:52Z</time>
      </trkpt>
      <trkpt lat="30.469590000" lon="-8.882171000">
        <ele>233.740</ele>
        <time>2011-05-07T09:39:05Z</time>
      </trkpt>
      <trkpt lat="30.469638000" lon="-8.882122000">
        <ele>233.740</ele>
        <time>2011-05-07T09:39:15Z</time>
      </trkpt>
      <trkpt lat="30.469622000" lon="-8.882124000">
        <ele>233.740</ele>
        <time>2011-05-07T09:39:16Z</time>
      </trkpt>
      <trkpt lat="30.469631000" lon="-8.882096000">
        <ele>233.740</ele>
        <time>2011-05-07T09:39:25Z</time>
      </trkpt>
      <trkpt lat="30.469625000" lon="-8.882037000">
        <ele>233.740</ele>
        <time>2011-05-07T09:39:36Z</time>
      </trkpt>
      <trkpt lat="30.469575000" lon="-8.882012000">
        <ele>233.740</ele>
        <time>2011-05-07T09:39:48Z</time>
      </trkpt>
      <trkpt lat="30.469583000" lon="-8.882075000">
        <ele>233.740</ele>
        <time>2011-05-07T09:39:56Z</time>
      </trkpt>
      <trkpt lat="30.469580000" lon="-8.882107000">
        <ele>234.220</ele>
        <time>2011-05-07T09:40:03Z</time>
      </trkpt>
      <trkpt lat="30.469640000" lon="-8.882063000">
        <ele>233.740</ele>
        <time>2011-05-07T09:40:12Z</time>
      </trkpt>
      <trkpt lat="30.469665000" lon="-8.882083000">
        <ele>233.740</ele>
        <time>2011-05-07T09:40:22Z</time>
      </trkpt>
      <trkpt lat="30.469786000" lon="-8.882092000">
        <ele>233.740</ele>
        <time>2011-05-07T09:40:29Z</time>
      </trkpt>
      <trkpt lat="30.469800000" lon="-8.882105000">
        <ele>233.740</ele>
        <time>2011-05-07T09:40:30Z</time>
      </trkpt>
      <trkpt lat="30.469790000" lon="-8.882145000">
        <ele>233.740</ele>
        <time>2011-05-07T09:40:33Z</time>
      </trkpt>
      <trkpt lat="30.469696000" lon="-8.882147000">
        <ele>233.740</ele>
        <time>2011-05-07T09:40:43Z</time>
      </trkpt>
      <trkpt lat="30.469715000" lon="-8.882174000">
        <ele>233.740</ele>
        <time>2011-05-07T09:40:48Z</time>
      </trkpt>
      <trkpt lat="30.469718000" lon="-8.882217000">
        <ele>233.740</ele>
        <time>2011-05-07T09:40:50Z</time>
      </trkpt>
      <trkpt lat="30.469756000" lon="-8.882082000">
        <ele>233.740</ele>
        <time>2011-05-07T09:40:52Z</time>
      </trkpt>
      <trkpt lat="30.469781000" lon="-8.882030000">
        <ele>233.740</ele>
        <time>2011-05-07T09:40:53Z</time>
      </trkpt>
      <trkpt lat="30.469882000" lon="-8.881891000">
        <ele>233.740</ele>
        <time>2011-05-07T09:40:59Z</time>
      </trkpt>
      <trkpt lat="30.469920000" lon="-8.881801000">
        <ele>233.740</ele>
        <time>2011-05-07T09:41:09Z</time>
      </trkpt>
      <trkpt lat="30.469919000" lon="-8.881788000">
        <ele>233.740</ele>
        <time>2011-05-07T09:41:10Z</time>
      </trkpt>
      <trkpt lat="30.469659000" lon="-8.881566000">
        <ele>233.740</ele>
        <time>2011-05-07T09:41:17Z</time>
      </trkpt>
      <trkpt lat="30.469494000" lon="-8.881524000">
        <ele>233.740</ele>
        <time>2011-05-07T09:41:21Z</time>
      </trkpt>
      <trkpt lat="30.469482000" lon="-8.881547000">
        <ele>233.260</ele>
        <time>2011-05-07T09:41:29Z</time>
      </trkpt>
      <trkpt lat="30.469424000" lon="-8.881535000">
        <ele>233.260</ele>
        <time>2011-05-07T09:41:34Z</time>
      </trkpt>
      <trkpt lat="30.469409000" lon="-8.881519000">
        <ele>233.740</ele>
        <time>2011-05-07T09:41:37Z</time>
      </trkpt>
      <trkpt lat="30.469447000" lon="-8.881449000">
        <ele>233.260</ele>
        <time>2011-05-07T09:41:40Z</time>
      </trkpt>
      <trkpt lat="30.469453000" lon="-8.881459000">
        <ele>233.260</ele>
        <time>2011-05-07T09:41:42Z</time>
      </trkpt>
      <trkpt lat="30.469416000" lon="-8.881511000">
        <ele>233.740</ele>
        <time>2011-05-07T09:41:46Z</time>
      </trkpt>
      <trkpt lat="30.469554000" lon="-8.881508000">
        <ele>233.260</ele>
        <time>2011-05-07T09:41:56Z</time>
      </trkpt>
      <trkpt lat="30.469682000" lon="-8.881613000">
        <ele>233.740</ele>
        <time>2011-05-07T09:42:06Z</time>
      </trkpt>
      <trkpt lat="30.469489000" lon="-8.881763000">
        <ele>233.740</ele>
        <time>2011-05-07T09:42:17Z</time>
      </trkpt>
      <trkpt lat="30.468994000" lon="-8.881712000">
        <ele>233.740</ele>
        <time>2011-05-07T09:42:46Z</time>
      </trkpt>
      <trkpt lat="30.470012000" lon="-8.881797000">
        <ele>233.740</ele>
        <time>2011-05-07T09:44:54Z</time>
      </trkpt>
      <trkpt lat="30.470658000" lon="-8.881965000">
        <ele>233.740</ele>
        <time>2011-05-07T09:45:01Z</time>
      </trkpt>
      <trkpt lat="30.470750000" lon="-8.881902000">
        <ele>233.740</ele>
        <time>2011-05-07T09:45:07Z</time>
      </trkpt>
      <trkpt lat="30.470782000" lon="-8.881753000">
        <ele>233.740</ele>
        <time>2011-05-07T09:45:11Z</time>
      </trkpt>
      <trkpt lat="30.470776000" lon="-8.881787000">
        <ele>233.740</ele>
        <time>2011-05-07T09:45:15Z</time>
      </trkpt>
      <trkpt lat="30.470508000" lon="-8.881829000">
        <ele>233.740</ele>
        <time>2011-05-07T09:45:24Z</time>
      </trkpt>
      <trkpt lat="30.470490000" lon="-8.881760000">
        <ele>233.740</ele>
        <time>2011-05-07T09:45:31Z</time>
      </trkpt>
      <trkpt lat="30.470380000" lon="-8.881713000">
        <ele>234.220</ele>
        <time>2011-05-07T09:45:36Z</time>
      </trkpt>
      <trkpt lat="30.470247000" lon="-8.881728000">
        <ele>233.740</ele>
        <time>2011-05-07T09:45:41Z</time>
      </trkpt>
      <trkpt lat="30.470016000" lon="-8.881786000">
        <ele>233.740</ele>
        <time>2011-05-07T09:45:44Z</time>
      </trkpt>
      <trkpt lat="30.469731000" lon="-8.881801000">
        <ele>233.740</ele>
        <time>2011-05-07T09:45:52Z</time>
      </trkpt>
      <trkpt lat="30.469627000" lon="-8.881678000">
        <ele>233.740</ele>
        <time>2011-05-07T09:45:59Z</time>
      </trkpt>
      <trkpt lat="30.469591000" lon="-8.881660000">
        <ele>233.740</ele>
        <time>2011-05-07T09:46:02Z</time>
      </trkpt>
      <trkpt lat="30.469381000" lon="-8.881736000">
        <ele>233.740</ele>
        <time>2011-05-07T09:46:14Z</time>
      </trkpt>
      <trkpt lat="30.469361000" lon="-8.881727000">
        <ele>234.220</ele>
        <time>2011-05-07T09:46:19Z</time>
      </trkpt>
      <trkpt lat="30.469406000" lon="-8.881667000">
        <ele>234.220</ele>
        <time>2011-05-07T09:46:25Z</time>
      </trkpt>
      <trkpt lat="30.469465000" lon="-8.881624000">
        <ele>233.740</ele>
        <time>2011-05-07T09:46:28Z</time>
      </trkpt>
      <trkpt lat="30.469500000" lon="-8.881529000">
        <ele>234.220</ele>
        <time>2011-05-07T09:46:33Z</time>
      </trkpt>
      <trkpt lat="30.469552000" lon="-8.881469000">
        <ele>234.220</ele>
        <time>2011-05-07T09:46:40Z</time>
      </trkpt>
      <trkpt lat="30.469588000" lon="-8.881519000">
        <ele>234.220</ele>
        <time>2011-05-07T09:46:47Z</time>
      </trkpt>
      <trkpt lat="30.469645000" lon="-8.881499000">
        <ele>234.220</ele>
        <time>2011-05-07T09:46:51Z</time>
      </trkpt>
      <trkpt lat="30.469590000" lon="-8.881638000">
        <ele>234.220</ele>
        <time>2011-05-07T09:46:59Z</time>
      </trkpt>
      <trkpt lat="30.469581000" lon="-8.881688000">
        <ele>234.220</ele>
        <time>2011-05-07T09:47:05Z</time>
      </trkpt>
      <trkpt lat="30.469573000" lon="-8.881665000">
        <ele>234.220</ele>
        <time>2011-05-07T09:47:11Z</time>
      </trkpt>
      <trkpt lat="30.469542000" lon="-8.881650000">
        <ele>234.220</ele>
        <time>2011-05-07T09:47:15Z</time>
      </trkpt>
      <trkpt lat="30.469430000" lon="-8.881743000">
        <ele>234.220</ele>
        <time>2011-05-07T09:47:22Z</time>
      </trkpt>
      <trkpt lat="30.469353000" lon="-8.881749000">
        <ele>234.220</ele>
        <time>2011-05-07T09:47:29Z</time>
      </trkpt>
      <trkpt lat="30.469332000" lon="-8.881837000">
        <ele>234.220</ele>
        <time>2011-05-07T09:47:34Z</time>
      </trkpt>
      <trkpt lat="30.469291000" lon="-8.881895000">
        <ele>234.220</ele>
        <time>2011-05-07T09:47:35Z</time>
      </trkpt>
      <trkpt lat="30.469019000" lon="-8.882148000">
        <ele>234.220</ele>
        <time>2011-05-07T09:47:45Z</time>
      </trkpt>
      <trkpt lat="30.469382000" lon="-8.881471000">
        <ele>234.220</ele>
        <time>2011-05-07T09:47:51Z</time>
      </trkpt>
      <trkpt lat="30.469352000" lon="-8.881416000">
        <ele>234.220</ele>
        <time>2011-05-07T09:47:55Z</time>
      </trkpt>
      <trkpt lat="30.469363000" lon="-8.881343000">
        <ele>234.220</ele>
        <time>2011-05-07T09:47:58Z</time>
      </trkpt>
      <trkpt lat="30.469431000" lon="-8.881276000">
        <ele>234.220</ele>
        <time>2011-05-07T09:48:08Z</time>
      </trkpt>
      <trkpt lat="30.469508000" lon="-8.881318000">
        <ele>234.220</ele>
        <time>2011-05-07T09:48:11Z</time>
      </trkpt>
      <trkpt lat="30.469544000" lon="-8.881375000">
        <ele>234.220</ele>
        <time>2011-05-07T09:48:21Z</time>
      </trkpt>
      <trkpt lat="30.469458000" lon="-8.881477000">
        <ele>234.220</ele>
        <time>2011-05-07T09:48:27Z</time>
      </trkpt>
      <trkpt lat="30.469490000" lon="-8.881575000">
        <ele>234.220</ele>
        <time>2011-05-07T09:48:36Z</time>
      </trkpt>
      <trkpt lat="30.469495000" lon="-8.881550000">
        <ele>234.220</ele>
        <time>2011-05-07T09:48:42Z</time>
      </trkpt>
      <trkpt lat="30.469511000" lon="-8.881554000">
        <ele>234.220</ele>
        <time>2011-05-07T09:48:46Z</time>
      </trkpt>
      <trkpt lat="30.469585000" lon="-8.881484000">
        <ele>234.220</ele>
        <time>2011-05-07T09:48:55Z</time>
      </trkpt>
      <trkpt lat="30.469573000" lon="-8.881442000">
        <ele>233.740</ele>
        <time>2011-05-07T09:49:00Z</time>
      </trkpt>
      <trkpt lat="30.469428000" lon="-8.881384000">
        <ele>233.740</ele>
        <time>2011-05-07T09:49:10Z</time>
      </trkpt>
      <trkpt lat="30.469405000" lon="-8.881358000">
        <ele>233.740</ele>
        <time>2011-05-07T09:49:20Z</time>
      </trkpt>
      <trkpt lat="30.469412000" lon="-8.881276000">
        <ele>233.740</ele>
        <time>2011-05-07T09:49:24Z</time>
      </trkpt>
      <trkpt lat="30.469450000" lon="-8.881220000">
        <ele>233.740</ele>
        <time>2011-05-07T09:49:30Z</time>
      </trkpt>
      <trkpt lat="30.469525000" lon="-8.881326000">
        <ele>233.740</ele>
        <time>2011-05-07T09:49:37Z</time>
      </trkpt>
      <trkpt lat="30.469489000" lon="-8.881299000">
        <ele>234.220</ele>
        <time>2011-05-07T09:49:48Z</time>
      </trkpt>
      <trkpt lat="30.469455000" lon="-8.881360000">
        <ele>234.220</ele>
        <time>2011-05-07T09:49:52Z</time>
      </trkpt>
      <trkpt lat="30.469608000" lon="-8.881214000">
        <ele>234.220</ele>
        <time>2011-05-07T09:50:04Z</time>
      </trkpt>
      <trkpt lat="30.469666000" lon="-8.881115000">
        <ele>234.220</ele>
        <time>2011-05-07T09:50:08Z</time>
      </trkpt>
      <trkpt lat="30.469683000" lon="-8.881050000">
        <ele>234.220</ele>
        <time>2011-05-07T09:50:17Z</time>
      </trkpt>
      <trkpt lat="30.469578000" lon="-8.881031000">
        <ele>234.220</ele>
        <time>2011-05-07T09:50:26Z</time>
      </trkpt>
      <trkpt lat="30.469584000" lon="-8.881005000">
        <ele>234.220</ele>
        <time>2011-05-07T09:50:30Z</time>
      </trkpt>
      <trkpt lat="30.469623000" lon="-8.881014000">
        <ele>234.220</ele>
        <time>2011-05-07T09:50:33Z</time>
      </trkpt>
      <trkpt lat="30.469644000" lon="-8.880963000">
        <ele>234.220</ele>
        <time>2011-05-07T09:50:42Z</time>
      </trkpt>
      <trkpt lat="30.469658000" lon="-8.880976000">
        <ele>234.220</ele>
        <time>2011-05-07T09:50:47Z</time>
      </trkpt>
      <trkpt lat="30.469621000" lon="-8.881016000">
        <ele>234.220</ele>
        <time>2011-05-07T09:50:52Z</time>
      </trkpt>
      <trkpt lat="30.469622000" lon="-8.880955000">
        <ele>234.220</ele>
        <time>2011-05-07T09:50:57Z</time>
      </trkpt>
      <trkpt lat="30.469634000" lon="-8.881000000">
        <ele>234.220</ele>
        <time>2011-05-07T09:51:00Z</time>
      </trkpt>
      <trkpt lat="30.469698000" lon="-8.880931000">
        <ele>234.220</ele>
        <time>2011-05-07T09:51:07Z</time>
      </trkpt>
      <trkpt lat="30.469821000" lon="-8.880756000">
        <ele>234.220</ele>
        <time>2011-05-07T09:51:12Z</time>
      </trkpt>
      <trkpt lat="30.470155000" lon="-8.880346000">
        <ele>234.220</ele>
        <time>2011-05-07T09:51:23Z</time>
      </trkpt>
      <trkpt lat="30.470150000" lon="-8.880326000">
        <ele>234.220</ele>
        <time>2011-05-07T09:51:28Z</time>
      </trkpt>
      <trkpt lat="30.470118000" lon="-8.880310000">
        <ele>233.740</ele>
        <time>2011-05-07T09:51:32Z</time>
      </trkpt>
      <trkpt lat="30.470072000" lon="-8.880353000">
        <ele>234.220</ele>
        <time>2011-05-07T09:51:35Z</time>
      </trkpt>
      <trkpt lat="30.470088000" lon="-8.880397000">
        <ele>234.220</ele>
        <time>2011-05-07T09:51:39Z</time>
      </trkpt>
      <trkpt lat="30.470045000" lon="-8.880404000">
        <ele>234.220</ele>
        <time>2011-05-07T09:51:45Z</time>
      </trkpt>
      <trkpt lat="30.470063000" lon="-8.880527000">
        <ele>234.220</ele>
        <time>2011-05-07T09:51:52Z</time>
      </trkpt>
      <trkpt lat="30.470115000" lon="-8.880478000">
        <ele>234.220</ele>
        <time>2011-05-07T09:51:55Z</time>
      </trkpt>
      <trkpt lat="30.470091000" lon="-8.880578000">
        <ele>233.740</ele>
        <time>2011-05-07T09:52:02Z</time>
      </trkpt>
      <trkpt lat="30.470027000" lon="-8.880542000">
        <ele>234.220</ele>
        <time>2011-05-07T09:52:05Z</time>
      </trkpt>
      <trkpt lat="30.469977000" lon="-8.880733000">
        <ele>234.220</ele>
        <time>2011-05-07T09:52:16Z</time>
      </trkpt>
      <trkpt lat="30.469886000" lon="-8.880798000">
        <ele>234.700</ele>
        <time>2011-05-07T09:52:20Z</time>
      </trkpt>
      <trkpt lat="30.469857000" lon="-8.880886000">
        <ele>234.220</ele>
        <time>2011-05-07T09:52:29Z</time>
      </trkpt>
      <trkpt lat="30.469847000" lon="-8.880897000">
        <ele>234.220</ele>
        <time>2011-05-07T09:52:30Z</time>
      </trkpt>
      <trkpt lat="30.469801000" lon="-8.881024000">
        <ele>234.220</ele>
        <time>2011-05-07T09:52:41Z</time>
      </trkpt>
      <trkpt lat="30.469832000" lon="-8.880967000">
        <ele>234.220</ele>
        <time>2011-05-07T09:52:42Z</time>
      </trkpt>
      <trkpt lat="30.469811000" lon="-8.880962000">
        <ele>234.220</ele>
        <time>2011-05-07T09:52:55Z</time>
      </trkpt>
      <trkpt lat="30.469843000" lon="-8.881044000">
        <ele>234.220</ele>
        <time>2011-05-07T09:53:05Z</time>
      </trkpt>
      <trkpt lat="30.469842000" lon="-8.881062000">
        <ele>234.220</ele>
        <time>2011-05-07T09:53:07Z</time>
      </trkpt>
      <trkpt lat="30.469787000" lon="-8.881076000">
        <ele>234.220</ele>
        <time>2011-05-07T09:53:12Z</time>
      </trkpt>
      <trkpt lat="30.469751000" lon="-8.881076000">
        <ele>234.700</ele>
        <time>2011-05-07T09:53:16Z</time>
      </trkpt>
      <trkpt lat="30.469792000" lon="-8.881121000">
        <ele>234.700</ele>
        <time>2011-05-07T09:53:24Z</time>
      </trkpt>
      <trkpt lat="30.469811000" lon="-8.881103000">
        <ele>234.700</ele>
        <time>2011-05-07T09:53:28Z</time>
      </trkpt>
      <trkpt lat="30.469824000" lon="-8.881164000">
        <ele>234.700</ele>
        <time>2011-05-07T09:53:38Z</time>
      </trkpt>
      <trkpt lat="30.469842000" lon="-8.881109000">
        <ele>234.220</ele>
        <time>2011-05-07T09:53:47Z</time>
      </trkpt>
      <trkpt lat="30.469826000" lon="-8.881112000">
        <ele>234.700</ele>
        <time>2011-05-07T09:53:52Z</time>
      </trkpt>
      <trkpt lat="30.469833000" lon="-8.881112000">
        <ele>234.700</ele>
        <time>2011-05-07T09:54:04Z</time>
      </trkpt>
      <trkpt lat="30.469806000" lon="-8.881112000">
        <ele>234.220</ele>
        <time>2011-05-07T09:54:19Z</time>
      </trkpt>
      <trkpt lat="30.469812000" lon="-8.881147000">
        <ele>234.220</ele>
        <time>2011-05-07T09:54:27Z</time>
      </trkpt>
      <trkpt lat="30.469724000" lon="-8.881082000">
        <ele>234.220</ele>
        <time>2011-05-07T09:54:49Z</time>
      </trkpt>
      <trkpt lat="30.469761000" lon="-8.881020000">
        <ele>234.700</ele>
        <time>2011-05-07T09:54:57Z</time>
      </trkpt>
      <trkpt lat="30.469757000" lon="-8.881052000">
        <ele>234.700</ele>
        <time>2011-05-07T09:55:05Z</time>
      </trkpt>
      <trkpt lat="30.469783000" lon="-8.881082000">
        <ele>234.700</ele>
        <time>2011-05-07T09:55:10Z</time>
      </trkpt>
      <trkpt lat="30.469686000" lon="-8.881142000">
        <ele>234.220</ele>
        <time>2011-05-07T09:55:14Z</time>
      </trkpt>
      <trkpt lat="30.469648000" lon="-8.881076000">
        <ele>234.700</ele>
        <time>2011-05-07T09:55:19Z</time>
      </trkpt>
      <trkpt lat="30.469740000" lon="-8.881050000">
        <ele>234.700</ele>
        <time>2011-05-07T09:55:30Z</time>
      </trkpt>
      <trkpt lat="30.469787000" lon="-8.881006000">
        <ele>234.700</ele>
        <time>2011-05-07T09:55:37Z</time>
      </trkpt>
      <trkpt lat="30.469759000" lon="-8.881046000">
        <ele>234.700</ele>
        <time>2011-05-07T09:55:43Z</time>
      </trkpt>
      <trkpt lat="30.469801000" lon="-8.881060000">
        <ele>234.700</ele>
        <time>2011-05-07T09:55:52Z</time>
      </trkpt>
      <trkpt lat="30.469732000" lon="-8.881112000">
        <ele>234.700</ele>
        <time>2011-05-07T09:56:02Z</time>
      </trkpt>
      <trkpt lat="30.469690000" lon="-8.881315000">
        <ele>234.700</ele>
        <time>2011-05-07T09:56:08Z</time>
      </trkpt>
      <trkpt lat="30.469696000" lon="-8.881269000">
        <ele>234.700</ele>
        <time>2011-05-07T09:56:09Z</time>
      </trkpt>
      <trkpt lat="30.469719000" lon="-8.881322000">
        <ele>234.700</ele>
        <time>2011-05-07T09:56:12Z</time>
      </trkpt>
      <trkpt lat="30.469686000" lon="-8.881408000">
        <ele>234.700</ele>
        <time>2011-05-07T09:56:15Z</time>
      </trkpt>
      <trkpt lat="30.469776000" lon="-8.881252000">
        <ele>234.700</ele>
        <time>2011-05-07T09:56:26Z</time>
      </trkpt>
      <trkpt lat="30.469848000" lon="-8.881076000">
        <ele>234.700</ele>
        <time>2011-05-07T09:56:37Z</time>
      </trkpt>
      <trkpt lat="30.469873000" lon="-8.880977000">
        <ele>234.700</ele>
        <time>2011-05-07T09:56:45Z</time>
      </trkpt>
      <trkpt lat="30.469893000" lon="-8.880936000">
        <ele>234.700</ele>
        <time>2011-05-07T09:56:55Z</time>
      </trkpt>
      <trkpt lat="30.469905000" lon="-8.880949000">
        <ele>234.700</ele>
        <time>2011-05-07T09:56:58Z</time>
      </trkpt>
      <trkpt lat="30.469901000" lon="-8.880923000">
        <ele>234.700</ele>
        <time>2011-05-07T09:57:08Z</time>
      </trkpt>
      <trkpt lat="30.469839000" lon="-8.880971000">
        <ele>234.700</ele>
        <time>2011-05-07T09:57:18Z</time>
      </trkpt>
      <trkpt lat="30.469837000" lon="-8.881070000">
        <ele>234.700</ele>
        <time>2011-05-07T09:57:28Z</time>
      </trkpt>
      <trkpt lat="30.469793000" lon="-8.881056000">
        <ele>234.700</ele>
        <time>2011-05-07T09:57:40Z</time>
      </trkpt>
      <trkpt lat="30.469822000" lon="-8.881063000">
        <ele>234.700</ele>
        <time>2011-05-07T09:57:43Z</time>
      </trkpt>
      <trkpt lat="30.469841000" lon="-8.881022000">
        <ele>234.700</ele>
        <time>2011-05-07T09:57:50Z</time>
      </trkpt>
      <trkpt lat="30.469836000" lon="-8.881031000">
        <ele>234.700</ele>
        <time>2011-05-07T09:57:56Z</time>
      </trkpt>
      <trkpt lat="30.469886000" lon="-8.881039000">
        <ele>234.700</ele>
        <time>2011-05-07T09:58:01Z</time>
      </trkpt>
      <trkpt lat="30.469827000" lon="-8.881038000">
        <ele>234.700</ele>
        <time>2011-05-07T09:58:33Z</time>
      </trkpt>
      <trkpt lat="30.469791000" lon="-8.881137000">
        <ele>234.700</ele>
        <time>2011-05-07T09:58:38Z</time>
      </trkpt>
      <trkpt lat="30.469810000" lon="-8.881160000">
        <ele>234.700</ele>
        <time>2011-05-07T09:58:42Z</time>
      </trkpt>
      <trkpt lat="30.469860000" lon="-8.881143000">
        <ele>234.700</ele>
        <time>2011-05-07T09:58:49Z</time>
      </trkpt>
      <trkpt lat="30.469814000" lon="-8.881107000">
        <ele>234.700</ele>
        <time>2011-05-07T09:58:58Z</time>
      </trkpt>
      <trkpt lat="30.469859000" lon="-8.881032000">
        <ele>234.700</ele>
        <time>2011-05-07T09:59:05Z</time>
      </trkpt>
      <trkpt lat="30.469809000" lon="-8.881035000">
        <ele>234.700</ele>
        <time>2011-05-07T09:59:09Z</time>
      </trkpt>
      <trkpt lat="30.469735000" lon="-8.880951000">
        <ele>234.700</ele>
        <time>2011-05-07T09:59:20Z</time>
      </trkpt>
      <trkpt lat="30.469779000" lon="-8.880968000">
        <ele>234.700</ele>
        <time>2011-05-07T09:59:27Z</time>
      </trkpt>
      <trkpt lat="30.469801000" lon="-8.880935000">
        <ele>234.700</ele>
        <time>2011-05-07T09:59:30Z</time>
      </trkpt>
      <trkpt lat="30.469807000" lon="-8.880941000">
        <ele>234.700</ele>
        <time>2011-05-07T09:59:35Z</time>
      </trkpt>
      <trkpt lat="30.469811000" lon="-8.880824000">
        <ele>234.700</ele>
        <time>2011-05-07T09:59:39Z</time>
      </trkpt>
      <trkpt lat="30.469790000" lon="-8.880702000">
        <ele>234.700</ele>
        <time>2011-05-07T09:59:41Z</time>
      </trkpt>
      <trkpt lat="30.469740000" lon="-8.880569000">
        <ele>234.700</ele>
        <time>2011-05-07T09:59:43Z</time>
      </trkpt>
      <trkpt lat="30.469725000" lon="-8.880444000">
        <ele>234.700</ele>
        <time>2011-05-07T09:59:51Z</time>
      </trkpt>
      <trkpt lat="30.469713000" lon="-8.880456000">
        <ele>235.180</ele>
        <time>2011-05-07T09:59:59Z</time>
      </trkpt>
      <trkpt lat="30.469754000" lon="-8.880455000">
        <ele>234.700</ele>
        <time>2011-05-07T10:00:04Z</time>
      </trkpt>
      <trkpt lat="30.469736000" lon="-8.880418000">
        <ele>234.700</ele>
        <time>2011-05-07T10:00:07Z</time>
      </trkpt>
      <trkpt lat="30.469767000" lon="-8.880377000">
        <ele>234.700</ele>
        <time>2011-05-07T10:00:16Z</time>
      </trkpt>
      <trkpt lat="30.469767000" lon="-8.880421000">
        <ele>234.700</ele>
        <time>2011-05-07T10:00:20Z</time>
      </trkpt>
      <trkpt lat="30.469750000" lon="-8.880445000">
        <ele>234.700</ele>
        <time>2011-05-07T10:00:23Z</time>
      </trkpt>
      <trkpt lat="30.469771000" lon="-8.880687000">
        <ele>235.180</ele>
        <time>2011-05-07T10:00:32Z</time>
      </trkpt>
      <trkpt lat="30.469820000" lon="-8.880817000">
        <ele>235.180</ele>
        <time>2011-05-07T10:00:35Z</time>
      </trkpt>
      <trkpt lat="30.469796000" lon="-8.880896000">
        <ele>235.180</ele>
        <time>2011-05-07T10:00:39Z</time>
      </trkpt>
      <trkpt lat="30.469915000" lon="-8.880886000">
        <ele>235.180</ele>
        <time>2011-05-07T10:00:47Z</time>
      </trkpt>
      <trkpt lat="30.469948000" lon="-8.880896000">
        <ele>235.180</ele>
        <time>2011-05-07T10:00:50Z</time>
      </trkpt>
      <trkpt lat="30.469972000" lon="-8.880870000">
        <ele>235.180</ele>
        <time>2011-05-07T10:01:04Z</time>
      </trkpt>
      <trkpt lat="30.469940000" lon="-8.880924000">
        <ele>235.180</ele>
        <time>2011-05-07T10:01:08Z</time>
      </trkpt>
      <trkpt lat="30.469927000" lon="-8.880908000">
        <ele>235.180</ele>
        <time>2011-05-07T10:01:18Z</time>
      </trkpt>
      <trkpt lat="30.469962000" lon="-8.880831000">
        <ele>235.180</ele>
        <time>2011-05-07T10:01:24Z</time>
      </trkpt>
      <trkpt lat="30.469985000" lon="-8.880862000">
        <ele>235.180</ele>
        <time>2011-05-07T10:01:39Z</time>
      </trkpt>
      <trkpt lat="30.469960000" lon="-8.880941000">
        <ele>235.180</ele>
        <time>2011-05-07T10:01:53Z</time>
      </trkpt>
      <trkpt lat="30.469809000" lon="-8.881099000">
        <ele>235.180</ele>
        <time>2011-05-07T10:02:03Z</time>
      </trkpt>
      <trkpt lat="30.469834000" lon="-8.881074000">
        <ele>235.180</ele>
        <time>2011-05-07T10:02:13Z</time>
      </trkpt>
      <trkpt lat="30.469784000" lon="-8.881099000">
        <ele>235.180</ele>
        <time>2011-05-07T10:02:24Z</time>
      </trkpt>
      <trkpt lat="30.469810000" lon="-8.881093000">
        <ele>235.180</ele>
        <time>2011-05-07T10:02:26Z</time>
      </trkpt>
      <trkpt lat="30.469883000" lon="-8.881049000">
        <ele>235.180</ele>
        <time>2011-05-07T10:02:33Z</time>
      </trkpt>
      <trkpt lat="30.469852000" lon="-8.881147000">
        <ele>235.180</ele>
        <time>2011-05-07T10:02:45Z</time>
      </trkpt>
      <trkpt lat="30.469861000" lon="-8.881159000">
        <ele>235.180</ele>
        <time>2011-05-07T10:02:54Z</time>
      </trkpt>
      <trkpt lat="30.469897000" lon="-8.881149000">
        <ele>235.180</ele>
        <time>2011-05-07T10:02:58Z</time>
      </trkpt>
      <trkpt lat="30.469912000" lon="-8.881118000">
        <ele>235.180</ele>
        <time>2011-05-07T10:03:04Z</time>
      </trkpt>
      <trkpt lat="30.469649000" lon="-8.880984000">
        <ele>235.180</ele>
        <time>2011-05-07T10:03:20Z</time>
      </trkpt>
      <trkpt lat="30.469678000" lon="-8.880975000">
        <ele>235.180</ele>
        <time>2011-05-07T10:03:25Z</time>
      </trkpt>
      <trkpt lat="30.469717000" lon="-8.880996000">
        <ele>235.180</ele>
        <time>2011-05-07T10:03:27Z</time>
      </trkpt>
      <trkpt lat="30.469747000" lon="-8.881037000">
        <ele>235.180</ele>
        <time>2011-05-07T10:03:30Z</time>
      </trkpt>
      <trkpt lat="30.469734000" lon="-8.881015000">
        <ele>235.180</ele>
        <time>2011-05-07T10:03:31Z</time>
      </trkpt>
      <trkpt lat="30.469716000" lon="-8.880952000">
        <ele>235.180</ele>
        <time>2011-05-07T10:03:33Z</time>
      </trkpt>
      <trkpt lat="30.469490000" lon="-8.880881000">
        <ele>235.180</ele>
        <time>2011-05-07T10:03:40Z</time>
      </trkpt>
      <trkpt lat="30.469377000" lon="-8.880902000">
        <ele>235.180</ele>
        <time>2011-05-07T10:03:50Z</time>
      </trkpt>
      <trkpt lat="30.469501000" lon="-8.880902000">
        <ele>235.180</ele>
        <time>2011-05-07T10:03:58Z</time>
      </trkpt>
      <trkpt lat="30.469608000" lon="-8.881113000">
        <ele>234.700</ele>
        <time>2011-05-07T10:04:30Z</time>
      </trkpt>
      <trkpt lat="30.469700000" lon="-8.881115000">
        <ele>234.700</ele>
        <time>2011-05-07T10:04:42Z</time>
      </trkpt>
      <trkpt lat="30.469650000" lon="-8.881111000">
        <ele>234.700</ele>
        <time>2011-05-07T10:04:47Z</time>
      </trkpt>
      <trkpt lat="30.469704000" lon="-8.881113000">
        <ele>234.700</ele>
        <time>2011-05-07T10:04:51Z</time>
      </trkpt>
      <trkpt lat="30.469708000" lon="-8.881095000">
        <ele>235.180</ele>
        <time>2011-05-07T10:04:55Z</time>
      </trkpt>
      <trkpt lat="30.469689000" lon="-8.881079000">
        <ele>234.700</ele>
        <time>2011-05-07T10:05:06Z</time>
      </trkpt>
      <trkpt lat="30.469685000" lon="-8.881090000">
        <ele>235.180</ele>
        <time>2011-05-07T10:05:10Z</time>
      </trkpt>
      <trkpt lat="30.469717000" lon="-8.881024000">
        <ele>235.180</ele>
        <time>2011-05-07T10:05:15Z</time>
      </trkpt>
      <trkpt lat="30.469725000" lon="-8.880989000">
        <ele>234.700</ele>
        <time>2011-05-07T10:05:18Z</time>
      </trkpt>
      <trkpt lat="30.469698000" lon="-8.880949000">
        <ele>235.180</ele>
        <time>2011-05-07T10:05:23Z</time>
      </trkpt>
      <trkpt lat="30.469705000" lon="-8.880913000">
        <ele>234.700</ele>
        <time>2011-05-07T10:05:25Z</time>
      </trkpt>
      <trkpt lat="30.469691000" lon="-8.880899000">
        <ele>234.700</ele>
        <time>2011-05-07T10:05:27Z</time>
      </trkpt>
      <trkpt lat="30.469690000" lon="-8.881011000">
        <ele>235.180</ele>
        <time>2011-05-07T10:05:38Z</time>
      </trkpt>
      <trkpt lat="30.469788000" lon="-8.880914000">
        <ele>234.700</ele>
        <time>2011-05-07T10:05:55Z</time>
      </trkpt>
      <trkpt lat="30.469740000" lon="-8.880976000">
        <ele>235.180</ele>
        <time>2011-05-07T10:06:04Z</time>
      </trkpt>
      <trkpt lat="30.469779000" lon="-8.880976000">
        <ele>234.700</ele>
        <time>2011-05-07T10:06:10Z</time>
      </trkpt>
      <trkpt lat="30.469869000" lon="-8.880878000">
        <ele>234.700</ele>
        <time>2011-05-07T10:06:23Z</time>
      </trkpt>
      <trkpt lat="30.469705000" lon="-8.881045000">
        <ele>235.180</ele>
        <time>2011-05-07T10:06:31Z</time>
      </trkpt>
      <trkpt lat="30.469691000" lon="-8.881045000">
        <ele>234.700</ele>
        <time>2011-05-07T10:06:35Z</time>
      </trkpt>
      <trkpt lat="30.469702000" lon="-8.881066000">
        <ele>235.180</ele>
        <time>2011-05-07T10:06:40Z</time>
      </trkpt>
      <trkpt lat="30.469714000" lon="-8.881072000">
        <ele>235.180</ele>
        <time>2011-05-07T10:06:47Z</time>
      </trkpt>
      <trkpt lat="30.469706000" lon="-8.881013000">
        <ele>235.180</ele>
        <time>2011-05-07T10:06:56Z</time>
      </trkpt>
      <trkpt lat="30.469657000" lon="-8.881008000">
        <ele>235.180</ele>
        <time>2011-05-07T10:07:01Z</time>
      </trkpt>
      <trkpt lat="30.469722000" lon="-8.881013000">
        <ele>235.180</ele>
        <time>2011-05-07T10:07:14Z</time>
      </trkpt>
      <trkpt lat="30.469736000" lon="-8.881083000">
        <ele>234.700</ele>
        <time>2011-05-07T10:07:18Z</time>
      </trkpt>
      <trkpt lat="30.469771000" lon="-8.881048000">
        <ele>234.700</ele>
        <time>2011-05-07T10:07:22Z</time>
      </trkpt>
      <trkpt lat="30.469882000" lon="-8.880873000">
        <ele>235.180</ele>
        <time>2011-05-07T10:07:27Z</time>
      </trkpt>
      <trkpt lat="30.469877000" lon="-8.880851000">
        <ele>235.180</ele>
        <time>2011-05-07T10:07:28Z</time>
      </trkpt>
      <trkpt lat="30.469861000" lon="-8.880850000">
        <ele>235.180</ele>
        <time>2011-05-07T10:07:30Z</time>
      </trkpt>
      <trkpt lat="30.469847000" lon="-8.881556000">
        <ele>234.700</ele>
        <time>2011-05-07T10:08:33Z</time>
      </trkpt>
      <trkpt lat="30.470109000" lon="-8.881396000">
        <ele>234.700</ele>
        <time>2011-05-07T10:08:42Z</time>
      </trkpt>
      <trkpt lat="30.470093000" lon="-8.881400000">
        <ele>234.700</ele>
        <time>2011-05-07T10:08:43Z</time>
      </trkpt>
      <trkpt lat="30.470148000" lon="-8.881301000">
        <ele>234.700</ele>
        <time>2011-05-07T10:08:52Z</time>
      </trkpt>
      <trkpt lat="30.470287000" lon="-8.881152000">
        <ele>234.700</ele>
        <time>2011-05-07T10:09:04Z</time>
      </trkpt>
      <trkpt lat="30.470326000" lon="-8.881037000">
        <ele>234.700</ele>
        <time>2011-05-07T10:09:07Z</time>
      </trkpt>
      <trkpt lat="30.470293000" lon="-8.880973000">
        <ele>234.700</ele>
        <time>2011-05-07T10:09:12Z</time>
      </trkpt>
      <trkpt lat="30.470201000" lon="-8.880968000">
        <ele>234.700</ele>
        <time>2011-05-07T10:09:20Z</time>
      </trkpt>
      <trkpt lat="30.470041000" lon="-8.881016000">
        <ele>234.700</ele>
        <time>2011-05-07T10:09:28Z</time>
      </trkpt>
      <trkpt lat="30.470164000" lon="-8.880893000">
        <ele>234.700</ele>
        <time>2011-05-07T10:09:40Z</time>
      </trkpt>
      <trkpt lat="30.470193000" lon="-8.880812000">
        <ele>235.180</ele>
        <time>2011-05-07T10:09:50Z</time>
      </trkpt>
      <trkpt lat="30.470195000" lon="-8.880787000">
        <ele>235.180</ele>
        <time>2011-05-07T10:09:54Z</time>
      </trkpt>
      <trkpt lat="30.470146000" lon="-8.880669000">
        <ele>235.180</ele>
        <time>2011-05-07T10:10:04Z</time>
      </trkpt>
      <trkpt lat="30.469977000" lon="-8.880554000">
        <ele>235.180</ele>
        <time>2011-05-07T10:10:23Z</time>
      </trkpt>
      <trkpt lat="30.469782000" lon="-8.880319000">
        <ele>235.180</ele>
        <time>2011-05-07T10:12:06Z</time>
      </trkpt>
      <trkpt lat="30.469701000" lon="-8.880274000">
        <ele>235.180</ele>
        <time>2011-05-07T10:12:25Z</time>
      </trkpt>
      <trkpt lat="30.469708000" lon="-8.880440000">
        <ele>235.180</ele>
        <time>2011-05-07T10:12:33Z</time>
      </trkpt>
      <trkpt lat="30.469841000" lon="-8.880576000">
        <ele>235.180</ele>
        <time>2011-05-07T10:12:51Z</time>
      </trkpt>
      <trkpt lat="30.469888000" lon="-8.880450000">
        <ele>235.180</ele>
        <time>2011-05-07T10:13:10Z</time>
      </trkpt>
      <trkpt lat="30.469772000" lon="-8.880384000">
        <ele>235.180</ele>
        <time>2011-05-07T10:13:42Z</time>
      </trkpt>
      <trkpt lat="30.469741000" lon="-8.880495000">
        <ele>235.180</ele>
        <time>2011-05-07T10:14:00Z</time>
      </trkpt>
      <trkpt lat="30.469942000" lon="-8.880379000">
        <ele>235.180</ele>
        <time>2011-05-07T10:14:21Z</time>
      </trkpt>
      <trkpt lat="30.469829000" lon="-8.880341000">
        <ele>235.180</ele>
        <time>2011-05-07T10:14:41Z</time>
      </trkpt>
      <trkpt lat="30.469913000" lon="-8.880264000">
        <ele>235.180</ele>
        <time>2011-05-07T10:15:08Z</time>
      </trkpt>
      <trkpt lat="30.469799000" lon="-8.880335000">
        <ele>235.180</ele>
        <time>2011-05-07T10:15:47Z</time>
      </trkpt>
      <trkpt lat="30.469731000" lon="-8.880317000">
        <ele>235.180</ele>
        <time>2011-05-07T10:16:10Z</time>
      </trkpt>
      <trkpt lat="30.469697000" lon="-8.880230000">
        <ele>234.700</ele>
        <time>2011-05-07T10:17:06Z</time>
      </trkpt>
      <trkpt lat="30.469543000" lon="-8.880131000">
        <ele>234.700</ele>
        <time>2011-05-07T10:18:10Z</time>
      </trkpt>
      <trkpt lat="30.469550000" lon="-8.880097000">
        <ele>234.700</ele>
        <time>2011-05-07T10:18:28Z</time>
      </trkpt>
      <trkpt lat="30.469519000" lon="-8.880125000">
        <ele>235.180</ele>
        <time>2011-05-07T10:19:06Z</time>
      </trkpt>
      <trkpt lat="30.469603000" lon="-8.880373000">
        <ele>234.700</ele>
        <time>2011-05-07T10:19:46Z</time>
      </trkpt>
      <trkpt lat="30.469637000" lon="-8.880437000">
        <ele>234.700</ele>
        <time>2011-05-07T10:19:49Z</time>
      </trkpt>
      <trkpt lat="30.469696000" lon="-8.880519000">
        <ele>235.180</ele>
        <time>2011-05-07T10:20:12Z</time>
      </trkpt>
      <trkpt lat="30.469546000" lon="-8.880292000">
        <ele>235.180</ele>
        <time>2011-05-07T10:20:31Z</time>
      </trkpt>
      <trkpt lat="30.469302000" lon="-8.879828000">
        <ele>234.700</ele>
        <time>2011-05-07T10:20:49Z</time>
      </trkpt>
      <trkpt lat="30.469255000" lon="-8.879585000">
        <ele>234.700</ele>
        <time>2011-05-07T10:21:03Z</time>
      </trkpt>
      <trkpt lat="30.469400000" lon="-8.879869000">
        <ele>235.180</ele>
        <time>2011-05-07T10:21:22Z</time>
      </trkpt>
      <trkpt lat="30.469782000" lon="-8.880467000">
        <ele>234.700</ele>
        <time>2011-05-07T10:21:53Z</time>
      </trkpt>
      <trkpt lat="30.469287000" lon="-8.879826000">
        <ele>234.700</ele>
        <time>2011-05-07T10:22:38Z</time>
      </trkpt>
      <trkpt lat="30.469607000" lon="-8.880322000">
        <ele>235.180</ele>
        <time>2011-05-07T10:22:55Z</time>
      </trkpt>
      <trkpt lat="30.469571000" lon="-8.880236000">
        <ele>234.700</ele>
        <time>2011-05-07T10:23:14Z</time>
      </trkpt>
      <trkpt lat="30.469516000" lon="-8.880149000">
        <ele>234.700</ele>
        <time>2011-05-07T10:23:23Z</time>
      </trkpt>
      <trkpt lat="30.469536000" lon="-8.880033000">
        <ele>234.700</ele>
        <time>2011-05-07T10:23:45Z</time>
      </trkpt>
      <trkpt lat="30.469499000" lon="-8.879967000">
        <ele>234.700</ele>
        <time>2011-05-07T10:24:21Z</time>
      </trkpt>
      <trkpt lat="30.469361000" lon="-8.879783000">
        <ele>235.180</ele>
        <time>2011-05-07T10:24:47Z</time>
      </trkpt>
      <trkpt lat="30.469494000" lon="-8.880018000">
        <ele>235.180</ele>
        <time>2011-05-07T10:25:02Z</time>
      </trkpt>
      <trkpt lat="30.469324000" lon="-8.880009000">
        <ele>235.180</ele>
        <time>2011-05-07T10:25:21Z</time>
      </trkpt>
      <trkpt lat="30.469294000" lon="-8.879982000">
        <ele>235.180</ele>
        <time>2011-05-07T10:25:22Z</time>
      </trkpt>
      <trkpt lat="30.469247000" lon="-8.880012000">
        <ele>235.180</ele>
        <time>2011-05-07T10:25:29Z</time>
      </trkpt>
      <trkpt lat="30.469268000" lon="-8.880027000">
        <ele>235.180</ele>
        <time>2011-05-07T10:25:31Z</time>
      </trkpt>
      <trkpt lat="30.469340000" lon="-8.880145000">
        <ele>235.180</ele>
        <time>2011-05-07T10:25:40Z</time>
      </trkpt>
      <trkpt lat="30.469338000" lon="-8.880151000">
        <ele>235.180</ele>
        <time>2011-05-07T10:25:41Z</time>
      </trkpt>
      <trkpt lat="30.469284000" lon="-8.880031000">
        <ele>235.180</ele>
        <time>2011-05-07T10:25:50Z</time>
      </trkpt>
      <trkpt lat="30.469347000" lon="-8.880063000">
        <ele>234.700</ele>
        <time>2011-05-07T10:26:21Z</time>
      </trkpt>
      <trkpt lat="30.469340000" lon="-8.880049000">
        <ele>235.180</ele>
        <time>2011-05-07T10:26:31Z</time>
      </trkpt>
      <trkpt lat="30.469334000" lon="-8.880063000">
        <ele>235.180</ele>
        <time>2011-05-07T10:26:35Z</time>
      </trkpt>
      <trkpt lat="30.469426000" lon="-8.880193000">
        <ele>235.180</ele>
        <time>2011-05-07T10:26:47Z</time>
      </trkpt>
      <trkpt lat="30.469608000" lon="-8.880276000">
        <ele>235.180</ele>
        <time>2011-05-07T10:27:00Z</time>
      </trkpt>
      <trkpt lat="30.469771000" lon="-8.880041000">
        <ele>235.660</ele>
        <time>2011-05-07T10:30:56Z</time>
      </trkpt>
      <trkpt lat="30.469869000" lon="-8.879965000">
        <ele>235.660</ele>
        <time>2011-05-07T10:31:08Z</time>
      </trkpt>
      <trkpt lat="30.469817000" lon="-8.879911000">
        <ele>235.180</ele>
        <time>2011-05-07T10:32:26Z</time>
      </trkpt>
      <trkpt lat="30.469754000" lon="-8.880440000">
        <ele>235.660</ele>
        <time>2011-05-07T10:33:31Z</time>
      </trkpt>
      <trkpt lat="30.469757000" lon="-8.880563000">
        <ele>235.660</ele>
        <time>2011-05-07T10:33:53Z</time>
      </trkpt>
      <trkpt lat="30.469799000" lon="-8.880630000">
        <ele>235.660</ele>
        <time>2011-05-07T10:38:08Z</time>
      </trkpt>
      <trkpt lat="30.469810000" lon="-8.880685000">
        <ele>235.180</ele>
        <time>2011-05-07T10:40:23Z</time>
      </trkpt>
    </trkseg>
  </trk>
</gpx>
