{"type":"FeatureCollection","features":[{"type":"Feature","properties":{"name":"gps4cam trip started at: 2019-02-28T03:25:49Z","time":"2019-02-28T16:00:55Z","coordTimes":["2019-02-28T16:00:55Z","2019-02-28T16:05:54Z","2019-02-28T16:10:49Z","2019-02-28T16:15:50Z","2019-02-28T16:26:13Z","2019-02-28T16:30:52Z","2019-02-28T16:36:12Z","2019-02-28T16:40:50Z","2019-02-28T16:45:49Z","2019-02-28T16:50:52Z","2019-02-28T16:55:50Z"],"type":"marche","month":"2019-02-01"},"geometry":{"type":"LineString","coordinates":[[37.493917149,-2.811321243],[37.503219104,-2.813544165],[37.489741405,-2.806518467],[37.489047761,-2.806139365],[37.502777328,-2.813589069],[37.503473767,-2.812636539],[37.503739302,-2.812459515],[37.494960569,-2.812917609],[37.503743435,-2.812673975],[37.503624298,-2.813708078],[37.503146865,-2.814364548]]}}]}