<?xml version="1.0" encoding="UTF-8"?>
<gpx version="1.1" creator="GPSBabel - https://www.gpsbabel.org" xmlns="http://www.topografix.com/GPX/1/1" xmlns:xsi="http://www.w3.org/2001/XMLSchema-instance" xmlns:gpxtpx="http://www.garmin.com/xmlschemas/TrackPointExtension/v1" xmlns:gpxx="http://www.garmin.com/xmlschemas/GpxExtensions/v3" xmlns:gpxpx="http://www.garmin.com/xmlschemas/PowerExtension/v1" xmlns:gpx_style="http://www.topografix.com/GPX/gpx_style/0/2">
  <metadata>
    <name>gps4cam trip started at 2019-02-24 06-38 decoded at 2019-03-11 00-07-53</name>
    <link href="http://gps4cam.com">
      <text>gps4cam</text>
    </link>
    <time>2025-09-17T10:11:56.355Z</time>
    <bounds minlat="-1.376163618" minlon="36.745970009" maxlat="-1.374659734" maxlon="36.746445189"/>
  </metadata>
  <trk>
    <name>gps4cam trip started at: 2019-02-24T05:38:47Z</name>
    <trkseg>
      <trkpt lat="-1.374659734" lon="36.746252815">
        <time>2019-02-24T12:27:46Z</time>
      </trkpt>
      <trkpt lat="-1.374800769" lon="36.746233940">
        <time>2019-02-24T12:27:50Z</time>
      </trkpt>
      <trkpt lat="-1.375134435" lon="36.746286426">
        <time>2019-02-24T12:27:57Z</time>
      </trkpt>
      <trkpt lat="-1.375449912" lon="36.746312977">
        <time>2019-02-24T12:28:07Z</time>
      </trkpt>
      <trkpt lat="-1.375588349" lon="36.746298175">
        <time>2019-02-24T12:28:18Z</time>
      </trkpt>
      <trkpt lat="-1.375646980" lon="36.746175136">
        <time>2019-02-24T12:30:30Z</time>
      </trkpt>
      <trkpt lat="-1.375761657" lon="36.746096462">
        <time>2019-02-24T12:31:42Z</time>
      </trkpt>
      <trkpt lat="-1.375900464" lon="36.746073301">
        <time>2019-02-24T12:44:23Z</time>
      </trkpt>
      <trkpt lat="-1.376040758" lon="36.746071145">
        <time>2019-02-24T12:45:11Z</time>
      </trkpt>
      <trkpt lat="-1.376073431" lon="36.746206608">
        <time>2019-02-24T12:51:30Z</time>
      </trkpt>
      <trkpt lat="-1.376135424" lon="36.746334995">
        <time>2019-02-24T12:52:10Z</time>
      </trkpt>
      <trkpt lat="-1.376061183" lon="36.746210253">
        <time>2019-02-24T12:52:43Z</time>
      </trkpt>
      <trkpt lat="-1.376110919" lon="36.746233398">
        <time>2019-02-24T12:53:51Z</time>
      </trkpt>
      <trkpt lat="-1.376023690" lon="36.746129020">
        <time>2019-02-24T13:00:32Z</time>
      </trkpt>
      <trkpt lat="-1.376145420" lon="36.746054846">
        <time>2019-02-24T13:04:06Z</time>
      </trkpt>
      <trkpt lat="-1.376163618" lon="36.746189667">
        <time>2019-02-24T13:06:47Z</time>
      </trkpt>
      <trkpt lat="-1.376050783" lon="36.746117657">
        <time>2019-02-24T13:07:09Z</time>
      </trkpt>
      <trkpt lat="-1.375941286" lon="36.746024856">
        <time>2019-02-24T13:08:05Z</time>
      </trkpt>
      <trkpt lat="-1.376023320" lon="36.746137379">
        <time>2019-02-24T13:08:54Z</time>
      </trkpt>
      <trkpt lat="-1.376146175" lon="36.746201457">
        <time>2019-02-24T13:09:06Z</time>
      </trkpt>
      <trkpt lat="-1.376020722" lon="36.746141452">
        <time>2019-02-24T13:11:26Z</time>
      </trkpt>
      <trkpt lat="-1.375949450" lon="36.746004278">
        <time>2019-02-24T13:11:52Z</time>
      </trkpt>
      <trkpt lat="-1.375648817" lon="36.745970009">
        <time>2019-02-24T13:13:05Z</time>
      </trkpt>
      <trkpt lat="-1.375815463" lon="36.745973210">
        <time>2019-02-24T13:13:32Z</time>
      </trkpt>
      <trkpt lat="-1.375733448" lon="36.746078460">
        <time>2019-02-24T13:14:01Z</time>
      </trkpt>
      <trkpt lat="-1.375839962" lon="36.746020364">
        <time>2019-02-24T13:14:10Z</time>
      </trkpt>
      <trkpt lat="-1.375700044" lon="36.746068603">
        <time>2019-02-24T13:14:43Z</time>
      </trkpt>
      <trkpt lat="-1.375594275" lon="36.746164424">
        <time>2019-02-24T13:14:55Z</time>
      </trkpt>
      <trkpt lat="-1.375661463" lon="36.746284665">
        <time>2019-02-24T13:15:22Z</time>
      </trkpt>
      <trkpt lat="-1.375782092" lon="36.746344456">
        <time>2019-02-24T13:17:18Z</time>
      </trkpt>
      <trkpt lat="-1.375881568" lon="36.746445189">
        <time>2019-02-24T13:17:27Z</time>
      </trkpt>
      <trkpt lat="-1.375947251" lon="36.746326651">
        <time>2019-02-24T13:17:45Z</time>
      </trkpt>
      <trkpt lat="-1.375837398" lon="36.746405540">
        <time>2019-02-24T13:18:01Z</time>
      </trkpt>
      <trkpt lat="-1.375711569" lon="36.746299451">
        <time>2019-02-24T13:18:10Z</time>
      </trkpt>
      <trkpt lat="-1.375569049" lon="36.746297320">
        <time>2019-02-24T13:18:17Z</time>
      </trkpt>
      <trkpt lat="-1.375422448" lon="36.746332699">
        <time>2019-02-24T13:18:27Z</time>
      </trkpt>
      <trkpt lat="-1.375268416" lon="36.746263051">
        <time>2019-02-24T13:18:31Z</time>
      </trkpt>
      <trkpt lat="-1.375116986" lon="36.746243773">
        <time>2019-02-24T13:18:34Z</time>
      </trkpt>
      <trkpt lat="-1.374800397" lon="36.746242300">
        <time>2019-02-24T13:18:40Z</time>
      </trkpt>
      <trkpt lat="-1.374660840" lon="36.746173294">
        <time>2019-02-24T13:18:46Z</time>
      </trkpt>
    </trkseg>
  </trk>
</gpx>
