{"type":"FeatureCollection","features":[{"type":"Feature","properties":{"name":"Autour de l'Yerres","type":"cycling","time":"2025-07-14T08:52:44Z","coordTimes":["2025-07-14T08:52:44Z","2025-07-14T08:52:50Z","2025-07-14T08:52:57Z","2025-07-14T08:53:04Z","2025-07-14T08:53:09Z","2025-07-14T08:53:15Z","2025-07-14T08:53:21Z","2025-07-14T08:53:27Z","2025-07-14T08:53:31Z","2025-07-14T08:53:32Z","2025-07-14T08:53:35Z","2025-07-14T08:53:40Z","2025-07-14T08:53:44Z","2025-07-14T08:53:46Z","2025-07-14T08:53:47Z","2025-07-14T08:53:48Z","2025-07-14T08:53:49Z","2025-07-14T08:53:51Z","2025-07-14T08:54:01Z","2025-07-14T08:54:10Z","2025-07-14T08:54:19Z","2025-07-14T08:54:24Z","2025-07-14T08:54:28Z","2025-07-14T08:54:33Z","2025-07-14T08:54:37Z","2025-07-14T08:54:42Z","2025-07-14T08:54:46Z","2025-07-14T08:54:54Z","2025-07-14T08:54:59Z","2025-07-14T08:55:32Z","2025-07-14T08:55:38Z","2025-07-14T08:55:48Z","2025-07-14T08:55:53Z","2025-07-14T08:55:54Z","2025-07-14T08:55:55Z","2025-07-14T08:55:56Z","2025-07-14T08:55:58Z","2025-07-14T08:56:07Z","2025-07-14T08:56:08Z","2025-07-14T08:56:09Z","2025-07-14T08:56:10Z","2025-07-14T08:56:16Z","2025-07-14T08:56:17Z","2025-07-14T08:56:19Z","2025-07-14T08:56:23Z","2025-07-14T08:56:24Z","2025-07-14T08:56:26Z","2025-07-14T08:56:33Z","2025-07-14T08:56:38Z","2025-07-14T08:56:40Z","2025-07-14T08:56:43Z","2025-07-14T08:56:50Z","2025-07-14T08:56:53Z","2025-07-14T08:56:59Z","2025-07-14T08:57:01Z","2025-07-14T08:57:11Z","2025-07-14T08:57:23Z","2025-07-14T08:57:24Z","2025-07-14T08:57:37Z","2025-07-14T08:57:41Z","2025-07-14T08:57:52Z","2025-07-14T08:57:54Z","2025-07-14T08:57:55Z","2025-07-14T08:57:58Z","2025-07-14T08:58:04Z","2025-07-14T08:58:14Z","2025-07-14T08:58:19Z","2025-07-14T08:58:23Z","2025-07-14T08:58:32Z","2025-07-14T08:58:36Z","2025-07-14T08:58:40Z","2025-07-14T08:58:41Z","2025-07-14T08:58:42Z","2025-07-14T08:58:45Z","2025-07-14T08:58:49Z","2025-07-14T08:59:08Z","2025-07-14T08:59:10Z","2025-07-14T08:59:14Z","2025-07-14T08:59:18Z","2025-07-14T08:59:21Z","2025-07-14T08:59:24Z","2025-07-14T08:59:26Z","2025-07-14T08:59:27Z","2025-07-14T08:59:29Z","2025-07-14T08:59:31Z","2025-07-14T08:59:32Z","2025-07-14T08:59:33Z","2025-07-14T08:59:36Z","2025-07-14T08:59:46Z","2025-07-14T09:00:02Z","2025-07-14T09:00:04Z","2025-07-14T09:00:05Z","2025-07-14T09:00:19Z","2025-07-14T09:00:33Z","2025-07-14T09:00:35Z","2025-07-14T09:00:36Z","2025-07-14T09:00:37Z","2025-07-14T09:00:40Z","2025-07-14T09:00:42Z","2025-07-14T09:00:43Z","2025-07-14T09:00:44Z","2025-07-14T09:00:48Z","2025-07-14T09:00:50Z","2025-07-14T09:00:53Z","2025-07-14T09:00:57Z","2025-07-14T09:01:08Z","2025-07-14T09:01:24Z","2025-07-14T09:01:27Z","2025-07-14T09:01:37Z","2025-07-14T09:01:45Z","2025-07-14T09:01:53Z","2025-07-14T09:01:55Z","2025-07-14T09:01:56Z","2025-07-14T09:01:58Z","2025-07-14T09:01:59Z","2025-07-14T09:02:00Z","2025-07-14T09:02:01Z","2025-07-14T09:02:02Z","2025-07-14T09:02:05Z","2025-07-14T09:02:10Z","2025-07-14T09:02:13Z","2025-07-14T09:02:15Z","2025-07-14T09:02:18Z","2025-07-14T09:02:21Z","2025-07-14T09:02:22Z","2025-07-14T09:02:25Z","2025-07-14T09:02:29Z","2025-07-14T09:02:35Z","2025-07-14T09:02:36Z","2025-07-14T09:02:38Z","2025-07-14T09:02:40Z","2025-07-14T09:02:41Z","2025-07-14T09:02:57Z","2025-07-14T09:02:58Z","2025-07-14T09:03:03Z","2025-07-14T09:03:04Z","2025-07-14T09:03:11Z","2025-07-14T09:03:12Z","2025-07-14T09:03:13Z","2025-07-14T09:03:14Z","2025-07-14T09:03:15Z","2025-07-14T09:03:16Z","2025-07-14T09:03:17Z","2025-07-14T09:03:18Z","2025-07-14T09:03:20Z","2025-07-14T09:03:22Z","2025-07-14T09:03:26Z","2025-07-14T09:03:28Z","2025-07-14T09:03:29Z","2025-07-14T09:03:30Z","2025-07-14T09:03:31Z","2025-07-14T09:03:32Z","2025-07-14T09:03:34Z","2025-07-14T09:07:56Z","2025-07-14T09:08:06Z","2025-07-14T09:08:11Z","2025-07-14T09:08:12Z","2025-07-14T09:08:13Z","2025-07-14T09:08:15Z","2025-07-14T09:08:16Z","2025-07-14T09:08:19Z","2025-07-14T09:08:22Z","2025-07-14T09:08:23Z","2025-07-14T09:08:28Z","2025-07-14T09:08:31Z","2025-07-14T09:08:39Z","2025-07-14T09:08:40Z","2025-07-14T09:08:42Z","2025-07-14T09:08:43Z","2025-07-14T09:08:45Z","2025-07-14T09:08:48Z","2025-07-14T09:08:52Z","2025-07-14T09:09:38Z","2025-07-14T09:09:43Z","2025-07-14T09:09:52Z","2025-07-14T09:09:59Z","2025-07-14T09:10:00Z","2025-07-14T09:10:04Z","2025-07-14T09:10:09Z","2025-07-14T09:10:11Z","2025-07-14T09:10:14Z","2025-07-14T09:10:15Z","2025-07-14T09:10:17Z","2025-07-14T09:10:18Z","2025-07-14T09:10:20Z","2025-07-14T09:10:26Z","2025-07-14T09:10:28Z","2025-07-14T09:10:30Z","2025-07-14T09:10:32Z","2025-07-14T09:10:36Z","2025-07-14T09:10:38Z","2025-07-14T09:10:40Z","2025-07-14T09:10:41Z","2025-07-14T09:10:44Z","2025-07-14T09:10:46Z","2025-07-14T09:10:49Z","2025-07-14T09:10:54Z","2025-07-14T09:10:57Z","2025-07-14T09:11:00Z","2025-07-14T09:11:01Z","2025-07-14T09:11:03Z","2025-07-14T09:11:05Z","2025-07-14T09:11:06Z","2025-07-14T09:11:07Z","2025-07-14T09:11:10Z","2025-07-14T09:11:14Z","2025-07-14T09:11:16Z","2025-07-14T09:11:17Z","2025-07-14T09:11:19Z","2025-07-14T09:11:21Z","2025-07-14T09:11:22Z","2025-07-14T09:11:23Z","2025-07-14T09:11:24Z","2025-07-14T09:11:25Z","2025-07-14T09:11:27Z","2025-07-14T09:11:36Z","2025-07-14T09:12:02Z","2025-07-14T09:12:06Z","2025-07-14T09:12:11Z","2025-07-14T09:12:16Z","2025-07-14T09:12:18Z","2025-07-14T09:12:22Z","2025-07-14T09:12:24Z","2025-07-14T09:12:26Z","2025-07-14T09:12:29Z","2025-07-14T09:12:32Z","2025-07-14T09:12:34Z","2025-07-14T09:12:35Z","2025-07-14T09:12:37Z","2025-07-14T09:12:38Z","2025-07-14T09:12:40Z","2025-07-14T09:12:41Z","2025-07-14T09:12:42Z","2025-07-14T09:12:45Z","2025-07-14T09:12:48Z","2025-07-14T09:12:50Z","2025-07-14T09:12:52Z","2025-07-14T09:12:53Z","2025-07-14T09:12:56Z","2025-07-14T09:12:58Z","2025-07-14T09:13:02Z","2025-07-14T09:13:03Z","2025-07-14T09:13:08Z","2025-07-14T09:13:09Z","2025-07-14T09:13:12Z","2025-07-14T09:13:16Z","2025-07-14T09:13:22Z","2025-07-14T09:13:25Z","2025-07-14T09:13:29Z","2025-07-14T09:13:32Z","2025-07-14T09:13:36Z","2025-07-14T09:13:39Z","2025-07-14T09:13:40Z","2025-07-14T09:13:41Z","2025-07-14T09:13:43Z","2025-07-14T09:13:46Z","2025-07-14T09:13:50Z","2025-07-14T09:13:53Z","2025-07-14T09:13:56Z","2025-07-14T09:13:58Z","2025-07-14T09:14:05Z","2025-07-14T09:14:06Z","2025-07-14T09:14:09Z","2025-07-14T09:14:13Z","2025-07-14T09:14:17Z","2025-07-14T09:14:23Z","2025-07-14T09:14:26Z","2025-07-14T09:14:28Z","2025-07-14T09:14:31Z","2025-07-14T09:14:36Z","2025-07-14T09:14:39Z","2025-07-14T09:14:46Z","2025-07-14T09:14:48Z","2025-07-14T09:14:52Z","2025-07-14T09:14:56Z","2025-07-14T09:15:00Z","2025-07-14T09:15:20Z","2025-07-14T09:15:25Z","2025-07-14T09:15:30Z","2025-07-14T09:15:33Z","2025-07-14T09:15:34Z","2025-07-14T09:15:35Z","2025-07-14T09:15:37Z","2025-07-14T09:15:41Z","2025-07-14T09:15:42Z","2025-07-14T09:15:44Z","2025-07-14T09:15:45Z","2025-07-14T09:15:46Z","2025-07-14T09:15:47Z","2025-07-14T09:15:50Z","2025-07-14T09:15:52Z","2025-07-14T09:16:02Z","2025-07-14T09:16:04Z","2025-07-14T09:16:07Z","2025-07-14T09:16:13Z","2025-07-14T09:16:20Z","2025-07-14T09:16:22Z","2025-07-14T09:16:27Z","2025-07-14T09:16:31Z","2025-07-14T09:16:33Z","2025-07-14T09:16:34Z","2025-07-14T09:16:38Z","2025-07-14T09:16:39Z","2025-07-14T09:16:40Z","2025-07-14T09:16:42Z","2025-07-14T09:16:44Z","2025-07-14T09:16:46Z","2025-07-14T09:16:47Z","2025-07-14T09:16:49Z","2025-07-14T09:16:59Z","2025-07-14T09:17:01Z","2025-07-14T09:17:10Z","2025-07-14T09:17:24Z","2025-07-14T09:17:25Z","2025-07-14T09:17:27Z","2025-07-14T09:17:28Z","2025-07-14T09:17:30Z","2025-07-14T09:17:31Z","2025-07-14T09:18:01Z","2025-07-14T09:18:06Z","2025-07-14T09:18:10Z","2025-07-14T09:18:11Z","2025-07-14T09:18:14Z","2025-07-14T09:18:19Z","2025-07-14T09:18:23Z","2025-07-14T09:18:26Z","2025-07-14T09:18:33Z","2025-07-14T09:18:37Z","2025-07-14T09:18:40Z","2025-07-14T09:18:41Z","2025-07-14T09:18:43Z","2025-07-14T09:18:44Z","2025-07-14T09:18:45Z","2025-07-14T09:18:47Z","2025-07-14T09:18:49Z","2025-07-14T09:18:51Z","2025-07-14T09:18:52Z","2025-07-14T09:18:53Z","2025-07-14T09:18:54Z","2025-07-14T09:18:55Z","2025-07-14T09:18:56Z","2025-07-14T09:18:57Z","2025-07-14T09:18:58Z","2025-07-14T09:19:04Z","2025-07-14T09:19:05Z","2025-07-14T09:19:06Z","2025-07-14T09:19:07Z","2025-07-14T09:19:08Z","2025-07-14T09:19:10Z","2025-07-14T09:19:13Z","2025-07-14T09:19:16Z","2025-07-14T09:19:17Z","2025-07-14T09:19:19Z","2025-07-14T09:19:22Z","2025-07-14T09:19:26Z","2025-07-14T09:19:28Z","2025-07-14T09:19:29Z","2025-07-14T09:19:32Z","2025-07-14T09:19:34Z","2025-07-14T09:19:41Z","2025-07-14T09:19:43Z","2025-07-14T09:19:44Z","2025-07-14T09:19:48Z","2025-07-14T09:19:49Z","2025-07-14T09:19:51Z","2025-07-14T09:19:53Z","2025-07-14T09:19:56Z","2025-07-14T09:19:57Z","2025-07-14T09:20:00Z","2025-07-14T09:20:01Z","2025-07-14T09:20:04Z","2025-07-14T09:20:06Z","2025-07-14T09:20:07Z","2025-07-14T09:20:10Z","2025-07-14T09:20:12Z","2025-07-14T09:20:14Z","2025-07-14T09:20:20Z","2025-07-14T09:20:22Z","2025-07-14T09:20:23Z","2025-07-14T09:21:00Z","2025-07-14T09:21:02Z","2025-07-14T09:21:04Z","2025-07-14T09:21:10Z","2025-07-14T09:21:13Z","2025-07-14T09:21:16Z","2025-07-14T09:21:20Z","2025-07-14T09:21:23Z","2025-07-14T09:21:25Z","2025-07-14T09:21:27Z","2025-07-14T09:21:30Z","2025-07-14T09:21:31Z","2025-07-14T09:21:32Z","2025-07-14T09:21:33Z","2025-07-14T09:21:35Z","2025-07-14T09:21:37Z","2025-07-14T09:21:48Z","2025-07-14T09:21:51Z","2025-07-14T09:21:57Z","2025-07-14T09:22:01Z","2025-07-14T09:22:07Z","2025-07-14T09:22:09Z","2025-07-14T09:22:10Z","2025-07-14T09:22:12Z","2025-07-14T09:22:15Z","2025-07-14T09:22:16Z","2025-07-14T09:22:18Z","2025-07-14T09:22:24Z","2025-07-14T09:22:27Z","2025-07-14T09:22:32Z","2025-07-14T09:22:35Z","2025-07-14T09:22:37Z","2025-07-14T09:22:39Z","2025-07-14T09:22:44Z","2025-07-14T09:22:45Z","2025-07-14T09:22:48Z","2025-07-14T09:22:50Z","2025-07-14T09:22:51Z","2025-07-14T09:22:52Z","2025-07-14T09:22:53Z","2025-07-14T09:22:54Z","2025-07-14T09:22:57Z","2025-07-14T09:23:02Z","2025-07-14T09:23:04Z","2025-07-14T09:23:07Z","2025-07-14T09:23:11Z","2025-07-14T09:23:13Z","2025-07-14T09:23:17Z","2025-07-14T09:23:19Z","2025-07-14T09:23:22Z","2025-07-14T09:23:23Z","2025-07-14T09:23:25Z","2025-07-14T09:23:28Z","2025-07-14T09:23:34Z","2025-07-14T09:23:36Z","2025-07-14T09:23:38Z","2025-07-14T09:23:41Z","2025-07-14T09:23:43Z","2025-07-14T09:23:45Z","2025-07-14T09:23:55Z","2025-07-14T09:23:59Z","2025-07-14T09:24:06Z","2025-07-14T09:24:08Z","2025-07-14T09:24:11Z","2025-07-14T09:24:12Z","2025-07-14T09:24:13Z","2025-07-14T09:24:15Z","2025-07-14T09:24:18Z","2025-07-14T09:24:20Z","2025-07-14T09:24:23Z","2025-07-14T09:24:24Z","2025-07-14T09:24:26Z","2025-07-14T09:24:28Z","2025-07-14T09:24:29Z","2025-07-14T09:24:30Z","2025-07-14T09:24:33Z","2025-07-14T09:24:36Z","2025-07-14T09:24:38Z","2025-07-14T09:24:43Z","2025-07-14T09:24:47Z","2025-07-14T09:24:49Z","2025-07-14T09:24:55Z","2025-07-14T09:24:57Z","2025-07-14T09:25:02Z","2025-07-14T09:25:03Z","2025-07-14T09:25:05Z","2025-07-14T09:25:06Z","2025-07-14T09:25:08Z","2025-07-14T09:25:09Z","2025-07-14T09:25:10Z","2025-07-14T09:25:11Z","2025-07-14T09:25:14Z","2025-07-14T09:25:19Z","2025-07-14T09:25:25Z","2025-07-14T09:25:31Z","2025-07-14T09:25:34Z","2025-07-14T09:25:36Z","2025-07-14T09:25:39Z","2025-07-14T09:25:41Z","2025-07-14T09:25:43Z","2025-07-14T09:25:44Z","2025-07-14T09:25:47Z","2025-07-14T09:25:51Z","2025-07-14T09:25:54Z","2025-07-14T09:25:58Z","2025-07-14T09:26:00Z","2025-07-14T09:26:01Z","2025-07-14T09:26:02Z","2025-07-14T09:26:03Z","2025-07-14T09:26:09Z","2025-07-14T09:26:13Z","2025-07-14T09:26:21Z","2025-07-14T09:26:28Z","2025-07-14T09:26:30Z","2025-07-14T09:26:32Z","2025-07-14T09:26:35Z","2025-07-14T09:26:38Z","2025-07-14T09:26:39Z","2025-07-14T09:26:42Z","2025-07-14T09:26:45Z","2025-07-14T09:26:48Z","2025-07-14T09:26:52Z","2025-07-14T09:26:58Z","2025-07-14T09:29:50Z","2025-07-14T09:29:56Z","2025-07-14T09:29:58Z","2025-07-14T09:30:02Z","2025-07-14T09:30:06Z","2025-07-14T09:30:13Z","2025-07-14T09:30:23Z","2025-07-14T09:30:24Z","2025-07-14T09:30:27Z","2025-07-14T09:30:36Z","2025-07-14T09:30:43Z","2025-07-14T09:30:44Z","2025-07-14T09:30:52Z","2025-07-14T09:31:02Z","2025-07-14T09:31:10Z","2025-07-14T09:31:17Z","2025-07-14T09:31:25Z","2025-07-14T09:31:30Z","2025-07-14T09:31:31Z","2025-07-14T09:31:42Z","2025-07-14T09:31:44Z","2025-07-14T09:31:47Z","2025-07-14T09:31:49Z","2025-07-14T09:31:50Z","2025-07-14T09:31:52Z","2025-07-14T09:31:55Z","2025-07-14T09:31:56Z","2025-07-14T09:31:59Z","2025-07-14T09:32:01Z","2025-07-14T09:32:06Z","2025-07-14T09:32:08Z","2025-07-14T09:32:10Z","2025-07-14T09:32:16Z","2025-07-14T09:32:25Z","2025-07-14T09:32:31Z","2025-07-14T09:32:38Z","2025-07-14T09:32:42Z","2025-07-14T09:32:50Z","2025-07-14T09:32:52Z","2025-07-14T09:32:55Z","2025-07-14T09:33:10Z","2025-07-14T09:33:11Z","2025-07-14T09:33:21Z","2025-07-14T09:33:22Z","2025-07-14T09:33:24Z","2025-07-14T09:33:25Z","2025-07-14T09:33:27Z","2025-07-14T09:33:33Z","2025-07-14T09:33:36Z","2025-07-14T09:33:37Z","2025-07-14T09:33:44Z","2025-07-14T09:33:45Z","2025-07-14T09:33:47Z","2025-07-14T09:33:49Z","2025-07-14T09:33:53Z","2025-07-14T09:33:58Z","2025-07-14T09:34:02Z","2025-07-14T09:34:04Z","2025-07-14T09:34:07Z","2025-07-14T09:34:08Z","2025-07-14T09:34:13Z","2025-07-14T09:34:15Z","2025-07-14T09:34:17Z","2025-07-14T09:34:19Z","2025-07-14T09:34:20Z","2025-07-14T09:34:24Z","2025-07-14T09:34:27Z","2025-07-14T09:34:37Z","2025-07-14T09:34:40Z","2025-07-14T09:35:07Z","2025-07-14T09:35:10Z","2025-07-14T09:35:13Z","2025-07-14T09:35:24Z","2025-07-14T09:35:26Z","2025-07-14T09:35:28Z","2025-07-14T09:35:33Z","2025-07-14T09:35:35Z","2025-07-14T09:35:37Z","2025-07-14T09:35:38Z","2025-07-14T09:35:39Z","2025-07-14T09:35:40Z","2025-07-14T09:35:41Z","2025-07-14T09:35:45Z","2025-07-14T09:35:46Z","2025-07-14T09:35:47Z","2025-07-14T09:35:50Z","2025-07-14T09:35:54Z","2025-07-14T09:35:57Z","2025-07-14T09:35:58Z","2025-07-14T09:35:59Z","2025-07-14T09:36:04Z","2025-07-14T09:36:05Z","2025-07-14T09:36:08Z","2025-07-14T09:36:12Z","2025-07-14T09:36:13Z","2025-07-14T09:36:16Z","2025-07-14T09:36:17Z","2025-07-14T09:36:27Z","2025-07-14T09:36:28Z","2025-07-14T09:36:31Z","2025-07-14T09:36:32Z","2025-07-14T09:36:36Z","2025-07-14T09:36:38Z","2025-07-14T09:36:42Z","2025-07-14T09:36:43Z","2025-07-14T09:36:50Z","2025-07-14T09:36:53Z","2025-07-14T09:36:55Z","2025-07-14T09:36:57Z","2025-07-14T09:37:04Z","2025-07-14T09:37:08Z","2025-07-14T09:37:13Z","2025-07-14T09:37:16Z","2025-07-14T09:37:17Z","2025-07-14T09:37:19Z","2025-07-14T09:37:23Z","2025-07-14T09:37:26Z","2025-07-14T09:37:29Z","2025-07-14T09:37:31Z","2025-07-14T09:37:34Z","2025-07-14T09:37:38Z","2025-07-14T09:37:40Z","2025-07-14T09:37:42Z","2025-07-14T09:37:44Z","2025-07-14T09:37:48Z","2025-07-14T09:37:51Z","2025-07-14T09:37:53Z","2025-07-14T09:37:54Z","2025-07-14T09:37:56Z","2025-07-14T09:37:58Z","2025-07-14T09:38:04Z","2025-07-14T09:38:08Z","2025-07-14T09:38:09Z","2025-07-14T09:38:15Z","2025-07-14T09:38:19Z","2025-07-14T09:38:24Z","2025-07-14T09:38:40Z","2025-07-14T09:38:42Z","2025-07-14T09:38:43Z","2025-07-14T09:38:51Z","2025-07-14T09:38:52Z","2025-07-14T09:38:54Z","2025-07-14T09:38:56Z","2025-07-14T09:39:07Z","2025-07-14T09:39:10Z","2025-07-14T09:39:13Z","2025-07-14T09:39:23Z","2025-07-14T09:39:30Z","2025-07-14T09:39:34Z","2025-07-14T09:39:38Z","2025-07-14T09:39:44Z","2025-07-14T09:39:49Z","2025-07-14T09:39:54Z","2025-07-14T09:40:04Z","2025-07-14T09:40:05Z","2025-07-14T09:40:07Z","2025-07-14T09:40:13Z","2025-07-14T09:40:14Z","2025-07-14T09:40:16Z","2025-07-14T09:40:17Z","2025-07-14T09:40:18Z","2025-07-14T09:40:20Z","2025-07-14T09:40:26Z","2025-07-14T09:40:27Z","2025-07-14T09:40:32Z","2025-07-14T09:41:02Z","2025-07-14T09:41:14Z","2025-07-14T09:41:15Z","2025-07-14T09:41:24Z","2025-07-14T09:41:34Z","2025-07-14T09:41:36Z","2025-07-14T09:41:41Z","2025-07-14T09:41:46Z","2025-07-14T09:41:49Z","2025-07-14T09:41:52Z","2025-07-14T09:41:57Z","2025-07-14T09:42:28Z","2025-07-14T09:42:32Z","2025-07-14T09:42:48Z","2025-07-14T09:43:00Z","2025-07-14T09:43:01Z","2025-07-14T09:43:08Z","2025-07-14T09:43:14Z","2025-07-14T09:43:15Z","2025-07-14T09:43:16Z","2025-07-14T09:43:17Z","2025-07-14T09:43:29Z","2025-07-14T09:43:39Z","2025-07-14T09:43:44Z","2025-07-14T09:43:54Z","2025-07-14T09:43:57Z","2025-07-14T09:43:59Z","2025-07-14T09:44:03Z","2025-07-14T09:44:09Z","2025-07-14T09:44:13Z","2025-07-14T09:44:14Z","2025-07-14T09:44:16Z","2025-07-14T09:44:17Z","2025-07-14T09:44:18Z","2025-07-14T09:44:24Z","2025-07-14T09:44:25Z","2025-07-14T09:44:40Z","2025-07-14T09:44:54Z","2025-07-14T09:44:58Z","2025-07-14T09:44:59Z","2025-07-14T09:45:01Z","2025-07-14T09:45:02Z","2025-07-14T09:45:03Z","2025-07-14T09:45:04Z","2025-07-14T09:45:05Z","2025-07-14T09:45:09Z","2025-07-14T09:45:21Z","2025-07-14T09:45:23Z","2025-07-14T09:45:28Z","2025-07-14T09:45:38Z","2025-07-14T09:45:46Z","2025-07-14T09:45:51Z","2025-07-14T09:45:57Z","2025-07-14T09:46:01Z","2025-07-14T09:46:02Z","2025-07-14T09:46:03Z","2025-07-14T09:46:04Z","2025-07-14T09:46:06Z","2025-07-14T09:46:11Z","2025-07-14T09:46:19Z","2025-07-14T09:46:26Z","2025-07-14T09:46:31Z","2025-07-14T09:46:33Z","2025-07-14T09:46:36Z","2025-07-14T09:46:49Z","2025-07-14T09:46:52Z","2025-07-14T09:47:00Z","2025-07-14T09:47:03Z","2025-07-14T09:47:09Z","2025-07-14T09:47:14Z","2025-07-14T09:47:17Z","2025-07-14T09:47:20Z","2025-07-14T09:47:23Z","2025-07-14T09:47:24Z","2025-07-14T09:47:25Z","2025-07-14T09:47:34Z","2025-07-14T09:47:37Z","2025-07-14T09:47:43Z","2025-07-14T09:47:48Z","2025-07-14T09:47:51Z","2025-07-14T09:47:53Z","2025-07-14T09:47:58Z","2025-07-14T09:48:02Z","2025-07-14T09:48:05Z","2025-07-14T09:48:09Z","2025-07-14T09:48:15Z","2025-07-14T09:48:16Z","2025-07-14T09:48:17Z","2025-07-14T09:48:18Z","2025-07-14T09:48:20Z","2025-07-14T09:48:21Z","2025-07-14T09:48:22Z","2025-07-14T09:48:24Z","2025-07-14T09:48:29Z","2025-07-14T09:48:31Z","2025-07-14T09:48:33Z","2025-07-14T09:48:36Z","2025-07-14T09:48:52Z","2025-07-14T09:48:54Z","2025-07-14T09:48:58Z","2025-07-14T09:49:00Z","2025-07-14T09:49:02Z","2025-07-14T09:49:07Z","2025-07-14T09:49:15Z","2025-07-14T09:49:21Z","2025-07-14T09:49:25Z","2025-07-14T09:49:26Z","2025-07-14T09:49:27Z","2025-07-14T09:49:30Z","2025-07-14T09:49:36Z","2025-07-14T09:49:38Z","2025-07-14T09:49:43Z","2025-07-14T09:49:44Z","2025-07-14T09:49:45Z","2025-07-14T09:49:47Z","2025-07-14T09:49:50Z","2025-07-14T09:49:52Z","2025-07-14T09:49:53Z","2025-07-14T09:49:56Z","2025-07-14T09:49:58Z","2025-07-14T09:50:01Z","2025-07-14T09:50:06Z","2025-07-14T09:50:10Z","2025-07-14T09:50:11Z","2025-07-14T09:50:13Z","2025-07-14T09:50:16Z","2025-07-14T09:50:20Z","2025-07-14T09:50:21Z","2025-07-14T09:50:23Z","2025-07-14T09:50:25Z","2025-07-14T09:50:26Z","2025-07-14T09:50:29Z","2025-07-14T09:50:40Z","2025-07-14T09:50:41Z","2025-07-14T09:50:43Z","2025-07-14T09:50:45Z","2025-07-14T09:50:48Z","2025-07-14T09:50:50Z","2025-07-14T09:50:52Z","2025-07-14T09:50:54Z","2025-07-14T09:50:56Z","2025-07-14T09:50:59Z","2025-07-14T09:54:38Z","2025-07-14T09:54:42Z","2025-07-14T09:54:47Z","2025-07-14T09:57:05Z","2025-07-14T09:57:10Z","2025-07-14T09:57:13Z","2025-07-14T09:57:14Z","2025-07-14T09:57:23Z","2025-07-14T09:57:25Z","2025-07-14T09:57:28Z","2025-07-14T09:57:31Z","2025-07-14T09:57:38Z","2025-07-14T09:57:39Z","2025-07-14T09:57:42Z","2025-07-14T09:57:51Z","2025-07-14T09:57:52Z","2025-07-14T09:57:55Z","2025-07-14T09:57:57Z","2025-07-14T09:58:03Z","2025-07-14T09:58:05Z","2025-07-14T09:58:08Z","2025-07-14T09:58:13Z","2025-07-14T09:58:26Z","2025-07-14T09:58:49Z","2025-07-14T09:58:53Z","2025-07-14T09:58:58Z","2025-07-14T09:59:21Z","2025-07-14T09:59:22Z","2025-07-14T09:59:29Z","2025-07-14T09:59:32Z","2025-07-14T09:59:39Z","2025-07-14T09:59:44Z","2025-07-14T10:00:10Z","2025-07-14T10:00:13Z","2025-07-14T10:00:14Z","2025-07-14T10:00:16Z","2025-07-14T10:00:17Z","2025-07-14T10:00:18Z","2025-07-14T10:00:19Z","2025-07-14T10:00:21Z","2025-07-14T10:00:22Z","2025-07-14T10:00:58Z","2025-07-14T10:01:00Z","2025-07-14T10:01:02Z","2025-07-14T10:01:03Z","2025-07-14T10:01:05Z","2025-07-14T10:01:15Z","2025-07-14T10:01:17Z","2025-07-14T10:01:21Z","2025-07-14T10:01:31Z","2025-07-14T10:01:33Z","2025-07-14T10:01:44Z","2025-07-14T10:01:50Z","2025-07-14T10:01:53Z","2025-07-14T10:02:02Z","2025-07-14T10:02:03Z","2025-07-14T10:02:06Z","2025-07-14T10:02:09Z","2025-07-14T10:02:14Z","2025-07-14T10:02:24Z","2025-07-14T10:02:30Z","2025-07-14T10:02:39Z","2025-07-14T10:02:43Z","2025-07-14T10:02:47Z","2025-07-14T10:02:49Z","2025-07-14T10:02:51Z","2025-07-14T10:02:53Z","2025-07-14T10:02:55Z","2025-07-14T10:02:56Z","2025-07-14T10:02:57Z","2025-07-14T10:03:18Z","2025-07-14T10:03:22Z","2025-07-14T10:03:32Z","2025-07-14T10:03:53Z","2025-07-14T10:03:54Z","2025-07-14T10:03:56Z","2025-07-14T10:03:58Z","2025-07-14T10:04:04Z","2025-07-14T10:04:09Z","2025-07-14T10:04:11Z","2025-07-14T10:04:15Z","2025-07-14T10:04:17Z","2025-07-14T10:04:18Z","2025-07-14T10:04:22Z","2025-07-14T10:04:23Z","2025-07-14T10:04:25Z","2025-07-14T10:04:27Z","2025-07-14T10:04:29Z","2025-07-14T10:04:32Z","2025-07-14T10:04:39Z","2025-07-14T10:04:43Z","2025-07-14T10:04:47Z","2025-07-14T10:04:49Z","2025-07-14T10:04:53Z","2025-07-14T10:04:55Z","2025-07-14T10:04:56Z","2025-07-14T10:04:58Z","2025-07-14T10:05:02Z","2025-07-14T10:05:16Z","2025-07-14T10:05:19Z","2025-07-14T10:05:24Z","2025-07-14T10:05:26Z","2025-07-14T10:05:28Z","2025-07-14T10:05:29Z","2025-07-14T10:05:31Z","2025-07-14T10:05:37Z","2025-07-14T10:05:39Z","2025-07-14T10:05:42Z","2025-07-14T10:05:45Z","2025-07-14T10:05:48Z","2025-07-14T10:05:57Z","2025-07-14T10:06:00Z","2025-07-14T10:06:17Z","2025-07-14T10:06:19Z","2025-07-14T10:06:24Z","2025-07-14T10:06:28Z","2025-07-14T10:06:32Z","2025-07-14T10:06:43Z","2025-07-14T10:06:56Z","2025-07-14T10:06:58Z","2025-07-14T10:07:00Z","2025-07-14T10:07:05Z","2025-07-14T10:07:07Z","2025-07-14T10:07:11Z","2025-07-14T10:07:19Z","2025-07-14T10:07:21Z","2025-07-14T10:07:24Z","2025-07-14T10:07:27Z","2025-07-14T10:07:29Z","2025-07-14T10:07:37Z","2025-07-14T10:07:40Z","2025-07-14T10:07:49Z","2025-07-14T10:07:55Z","2025-07-14T10:08:03Z","2025-07-14T10:08:05Z","2025-07-14T10:08:13Z","2025-07-14T10:08:14Z","2025-07-14T10:08:46Z","2025-07-14T10:09:04Z","2025-07-14T10:09:07Z","2025-07-14T10:09:37Z","2025-07-14T10:09:42Z","2025-07-14T10:09:55Z","2025-07-14T10:10:02Z","2025-07-14T10:10:05Z","2025-07-14T10:10:07Z","2025-07-14T10:10:09Z","2025-07-14T10:10:13Z","2025-07-14T10:10:16Z","2025-07-14T10:10:23Z","2025-07-14T10:10:41Z","2025-07-14T10:10:43Z","2025-07-14T10:10:46Z","2025-07-14T10:10:57Z","2025-07-14T10:11:04Z","2025-07-14T10:11:06Z","2025-07-14T10:11:10Z","2025-07-14T10:11:31Z","2025-07-14T10:11:34Z","2025-07-14T10:11:40Z","2025-07-14T10:11:41Z","2025-07-14T10:11:51Z","2025-07-14T10:11:56Z","2025-07-14T10:12:03Z","2025-07-14T10:12:07Z","2025-07-14T10:12:14Z","2025-07-14T10:12:19Z","2025-07-14T10:12:27Z","2025-07-14T10:12:38Z","2025-07-14T10:12:42Z","2025-07-14T10:13:12Z","2025-07-14T10:13:18Z","2025-07-14T10:13:25Z","2025-07-14T10:13:28Z","2025-07-14T10:13:34Z","2025-07-14T10:13:36Z","2025-07-14T10:13:42Z","2025-07-14T10:13:45Z","2025-07-14T10:13:47Z","2025-07-14T10:13:50Z","2025-07-14T10:13:51Z","2025-07-14T10:14:03Z","2025-07-14T10:14:07Z","2025-07-14T10:14:12Z","2025-07-14T10:14:16Z","2025-07-14T10:14:21Z","2025-07-14T10:14:30Z","2025-07-14T10:14:32Z","2025-07-14T10:14:33Z","2025-07-14T10:14:34Z","2025-07-14T10:14:36Z","2025-07-14T10:14:37Z","2025-07-14T10:14:39Z","2025-07-14T10:14:43Z","2025-07-14T10:14:45Z","2025-07-14T10:14:46Z","2025-07-14T10:14:47Z","2025-07-14T10:14:50Z","2025-07-14T10:14:55Z","2025-07-14T10:14:56Z","2025-07-14T10:15:00Z","2025-07-14T10:15:02Z","2025-07-14T10:15:05Z","2025-07-14T10:15:11Z","2025-07-14T10:15:12Z","2025-07-14T10:15:14Z","2025-07-14T10:15:20Z","2025-07-14T10:15:27Z","2025-07-14T10:15:29Z","2025-07-14T10:15:30Z","2025-07-14T10:15:36Z","2025-07-14T10:15:37Z","2025-07-14T10:15:38Z","2025-07-14T10:15:46Z","2025-07-14T10:15:48Z","2025-07-14T10:15:49Z","2025-07-14T10:15:51Z","2025-07-14T10:15:53Z","2025-07-14T10:15:55Z","2025-07-14T10:15:56Z","2025-07-14T10:15:59Z","2025-07-14T10:16:00Z","2025-07-14T10:16:01Z","2025-07-14T10:16:03Z","2025-07-14T10:16:07Z","2025-07-14T10:16:11Z","2025-07-14T10:16:12Z","2025-07-14T10:16:14Z","2025-07-14T10:16:15Z","2025-07-14T10:16:19Z","2025-07-14T10:16:20Z","2025-07-14T10:16:22Z","2025-07-14T10:16:25Z","2025-07-14T10:16:28Z","2025-07-14T10:16:29Z","2025-07-14T10:16:34Z","2025-07-14T10:16:38Z","2025-07-14T10:16:42Z","2025-07-14T10:16:47Z","2025-07-14T10:16:53Z","2025-07-14T10:16:56Z","2025-07-14T10:16:57Z","2025-07-14T10:17:01Z","2025-07-14T10:17:06Z","2025-07-14T10:17:09Z","2025-07-14T10:17:19Z","2025-07-14T10:17:23Z","2025-07-14T10:17:26Z","2025-07-14T10:17:29Z","2025-07-14T10:17:30Z","2025-07-14T10:17:35Z","2025-07-14T10:17:39Z","2025-07-14T10:17:42Z","2025-07-14T10:17:45Z","2025-07-14T10:17:46Z","2025-07-14T10:17:48Z","2025-07-14T10:17:50Z","2025-07-14T10:17:53Z","2025-07-14T10:18:43Z","2025-07-14T10:18:46Z","2025-07-14T10:18:53Z","2025-07-14T10:18:58Z","2025-07-14T10:19:17Z","2025-07-14T10:19:20Z","2025-07-14T10:19:25Z","2025-07-14T10:19:32Z","2025-07-14T10:19:34Z","2025-07-14T10:19:37Z","2025-07-14T10:19:38Z","2025-07-14T10:19:41Z","2025-07-14T10:20:15Z","2025-07-14T10:20:26Z","2025-07-14T10:20:30Z","2025-07-14T10:20:31Z","2025-07-14T10:21:25Z","2025-07-14T10:21:29Z","2025-07-14T10:21:31Z","2025-07-14T10:21:39Z","2025-07-14T10:21:42Z","2025-07-14T10:21:49Z","2025-07-14T10:21:51Z","2025-07-14T10:21:53Z","2025-07-14T10:21:56Z","2025-07-14T10:22:01Z","2025-07-14T10:22:06Z","2025-07-14T10:22:09Z","2025-07-14T10:24:41Z","2025-07-14T10:24:42Z","2025-07-14T10:24:46Z","2025-07-14T10:24:50Z","2025-07-14T10:24:53Z","2025-07-14T10:29:31Z","2025-07-14T10:29:32Z","2025-07-14T10:29:35Z","2025-07-14T10:29:39Z","2025-07-14T10:29:44Z","2025-07-14T10:29:46Z","2025-07-14T10:29:51Z","2025-07-14T10:29:54Z","2025-07-14T10:29:57Z","2025-07-14T10:30:04Z","2025-07-14T10:30:53Z","2025-07-14T10:30:56Z","2025-07-14T10:30:59Z","2025-07-14T10:31:02Z","2025-07-14T10:31:06Z","2025-07-14T10:31:08Z","2025-07-14T10:31:12Z","2025-07-14T10:31:17Z","2025-07-14T10:31:50Z","2025-07-14T10:31:53Z","2025-07-14T10:31:59Z","2025-07-14T10:32:00Z","2025-07-14T10:32:04Z","2025-07-14T10:32:07Z","2025-07-14T10:32:10Z","2025-07-14T10:32:12Z","2025-07-14T10:32:15Z","2025-07-14T10:32:18Z","2025-07-14T10:32:19Z","2025-07-14T10:32:20Z","2025-07-14T10:32:21Z","2025-07-14T10:32:22Z","2025-07-14T10:32:25Z","2025-07-14T10:32:26Z","2025-07-14T10:32:27Z","2025-07-14T10:32:29Z","2025-07-14T10:32:33Z","2025-07-14T10:32:38Z","2025-07-14T10:32:39Z","2025-07-14T10:32:42Z","2025-07-14T10:32:45Z","2025-07-14T10:32:46Z","2025-07-14T10:32:47Z","2025-07-14T10:32:50Z","2025-07-14T10:32:56Z","2025-07-14T10:33:00Z","2025-07-14T10:33:02Z","2025-07-14T10:33:05Z","2025-07-14T10:33:07Z","2025-07-14T10:33:09Z","2025-07-14T10:33:11Z","2025-07-14T10:33:18Z","2025-07-14T10:33:19Z","2025-07-14T10:33:23Z","2025-07-14T10:33:28Z","2025-07-14T10:33:29Z","2025-07-14T10:33:31Z","2025-07-14T10:33:33Z","2025-07-14T10:33:36Z","2025-07-14T10:33:40Z","2025-07-14T10:33:43Z","2025-07-14T10:33:46Z","2025-07-14T10:33:51Z","2025-07-14T10:33:53Z","2025-07-14T10:33:55Z","2025-07-14T10:34:00Z","2025-07-14T10:34:04Z","2025-07-14T10:34:06Z","2025-07-14T10:34:13Z","2025-07-14T10:34:18Z","2025-07-14T10:34:21Z","2025-07-14T10:34:25Z","2025-07-14T10:34:26Z","2025-07-14T10:34:31Z","2025-07-14T10:34:32Z","2025-07-14T10:34:34Z","2025-07-14T10:34:35Z","2025-07-14T10:34:37Z","2025-07-14T10:34:39Z","2025-07-14T10:34:44Z","2025-07-14T10:34:50Z","2025-07-14T10:34:54Z","2025-07-14T10:34:56Z","2025-07-14T10:34:59Z","2025-07-14T10:35:03Z","2025-07-14T10:35:11Z","2025-07-14T10:35:13Z","2025-07-14T10:35:17Z","2025-07-14T10:35:21Z","2025-07-14T10:35:23Z","2025-07-14T10:35:26Z","2025-07-14T10:35:32Z","2025-07-14T10:35:41Z","2025-07-14T10:35:44Z","2025-07-14T10:35:54Z","2025-07-14T10:35:57Z","2025-07-14T10:36:00Z","2025-07-14T10:36:02Z","2025-07-14T10:36:05Z","2025-07-14T10:36:09Z","2025-07-14T10:36:12Z","2025-07-14T10:36:14Z","2025-07-14T10:36:17Z","2025-07-14T10:36:19Z","2025-07-14T10:36:22Z","2025-07-14T10:36:26Z","2025-07-14T10:36:35Z","2025-07-14T10:36:37Z","2025-07-14T10:36:42Z","2025-07-14T10:36:48Z","2025-07-14T10:36:51Z","2025-07-14T10:36:59Z","2025-07-14T10:37:00Z","2025-07-14T10:37:05Z","2025-07-14T10:37:10Z","2025-07-14T10:37:15Z","2025-07-14T10:37:17Z","2025-07-14T10:37:26Z","2025-07-14T10:37:29Z","2025-07-14T10:37:30Z","2025-07-14T10:37:32Z","2025-07-14T10:37:38Z","2025-07-14T10:37:41Z","2025-07-14T10:37:47Z","2025-07-14T10:37:51Z","2025-07-14T10:37:53Z","2025-07-14T10:37:58Z","2025-07-14T10:38:00Z","2025-07-14T10:38:03Z","2025-07-14T10:38:07Z","2025-07-14T10:38:18Z","2025-07-14T10:38:22Z","2025-07-14T10:38:25Z","2025-07-14T10:38:27Z","2025-07-14T10:38:28Z","2025-07-14T10:38:31Z","2025-07-14T10:38:34Z","2025-07-14T10:38:35Z","2025-07-14T10:38:38Z","2025-07-14T10:38:43Z","2025-07-14T10:38:47Z","2025-07-14T10:38:48Z","2025-07-14T10:38:50Z","2025-07-14T10:38:53Z","2025-07-14T10:39:04Z","2025-07-14T10:39:10Z","2025-07-14T10:39:21Z","2025-07-14T10:39:23Z","2025-07-14T10:39:26Z","2025-07-14T10:39:29Z","2025-07-14T10:39:34Z","2025-07-14T10:39:35Z","2025-07-14T10:39:39Z","2025-07-14T10:39:41Z","2025-07-14T10:39:45Z","2025-07-14T10:39:54Z","2025-07-14T10:39:57Z","2025-07-14T10:40:08Z","2025-07-14T10:40:12Z","2025-07-14T10:40:16Z","2025-07-14T10:40:21Z","2025-07-14T10:40:24Z","2025-07-14T10:40:28Z","2025-07-14T10:40:34Z","2025-07-14T10:40:42Z","2025-07-14T10:40:54Z","2025-07-14T10:40:56Z","2025-07-14T10:40:59Z","2025-07-14T10:41:00Z","2025-07-14T10:41:01Z","2025-07-14T10:41:04Z","2025-07-14T10:41:05Z","2025-07-14T10:41:06Z","2025-07-14T10:41:07Z","2025-07-14T10:41:10Z","2025-07-14T10:41:12Z","2025-07-14T10:41:13Z","2025-07-14T10:41:15Z","2025-07-14T10:41:17Z","2025-07-14T10:41:19Z","2025-07-14T10:41:20Z","2025-07-14T10:41:22Z","2025-07-14T10:41:25Z","2025-07-14T10:41:28Z","2025-07-14T10:41:34Z","2025-07-14T10:41:38Z","2025-07-14T10:41:44Z","2025-07-14T10:41:46Z","2025-07-14T10:41:49Z","2025-07-14T10:41:50Z","2025-07-14T10:41:54Z","2025-07-14T10:41:56Z","2025-07-14T10:41:57Z","2025-07-14T10:41:58Z","2025-07-14T10:42:04Z","2025-07-14T10:42:08Z","2025-07-14T10:42:09Z","2025-07-14T10:42:12Z","2025-07-14T10:42:14Z","2025-07-14T10:42:17Z","2025-07-14T10:42:21Z","2025-07-14T10:42:24Z","2025-07-14T10:42:31Z","2025-07-14T10:42:35Z","2025-07-14T10:42:37Z","2025-07-14T10:42:41Z","2025-07-14T10:42:51Z","2025-07-14T10:42:53Z","2025-07-14T10:43:01Z","2025-07-14T10:43:05Z","2025-07-14T10:43:08Z","2025-07-14T10:43:12Z","2025-07-14T10:43:21Z","2025-07-14T10:43:23Z","2025-07-14T10:43:31Z","2025-07-14T10:43:37Z","2025-07-14T10:43:41Z","2025-07-14T10:43:43Z","2025-07-14T10:43:48Z","2025-07-14T10:43:52Z","2025-07-14T10:43:55Z","2025-07-14T10:43:57Z","2025-07-14T10:44:01Z","2025-07-14T10:44:02Z","2025-07-14T10:44:10Z","2025-07-14T10:44:13Z","2025-07-14T10:44:16Z","2025-07-14T10:44:18Z","2025-07-14T10:44:20Z","2025-07-14T10:44:31Z","2025-07-14T10:44:40Z","2025-07-14T10:44:41Z","2025-07-14T10:44:46Z","2025-07-14T10:44:49Z","2025-07-14T10:44:51Z","2025-07-14T10:44:52Z","2025-07-14T10:45:10Z","2025-07-14T10:45:18Z","2025-07-14T10:45:30Z","2025-07-14T10:45:34Z","2025-07-14T10:45:40Z","2025-07-14T10:45:45Z","2025-07-14T10:45:50Z","2025-07-14T10:45:54Z","2025-07-14T10:46:05Z","2025-07-14T10:46:11Z","2025-07-14T10:46:18Z","2025-07-14T10:46:24Z","2025-07-14T10:46:30Z","2025-07-14T10:46:39Z","2025-07-14T10:46:42Z","2025-07-14T10:46:44Z","2025-07-14T10:46:49Z","2025-07-14T10:46:51Z","2025-07-14T10:46:52Z","2025-07-14T10:46:55Z","2025-07-14T10:46:56Z","2025-07-14T10:48:04Z","2025-07-14T10:48:05Z","2025-07-14T10:48:59Z","2025-07-14T10:49:00Z","2025-07-14T10:49:05Z","2025-07-14T10:49:20Z","2025-07-14T10:49:21Z","2025-07-14T10:49:31Z","2025-07-14T10:49:32Z","2025-07-14T10:49:33Z","2025-07-14T10:49:43Z","2025-07-14T10:49:47Z","2025-07-14T10:50:10Z","2025-07-14T10:50:23Z","2025-07-14T10:50:27Z","2025-07-14T10:50:31Z","2025-07-14T10:50:32Z","2025-07-14T10:50:41Z","2025-07-14T10:50:49Z","2025-07-14T10:50:58Z","2025-07-14T10:51:09Z","2025-07-14T10:51:16Z","2025-07-14T10:51:22Z","2025-07-14T10:51:25Z","2025-07-14T10:51:33Z","2025-07-14T10:51:35Z","2025-07-14T10:51:38Z","2025-07-14T10:51:43Z","2025-07-14T10:51:44Z","2025-07-14T10:51:46Z","2025-07-14T10:51:50Z","2025-07-14T10:51:55Z","2025-07-14T10:51:58Z","2025-07-14T10:51:59Z","2025-07-14T10:52:04Z","2025-07-14T10:52:08Z","2025-07-14T10:52:15Z","2025-07-14T10:52:16Z","2025-07-14T10:52:19Z","2025-07-14T10:52:22Z","2025-07-14T10:52:26Z","2025-07-14T10:52:27Z","2025-07-14T10:52:29Z","2025-07-14T10:52:31Z","2025-07-14T10:52:35Z","2025-07-14T10:52:46Z","2025-07-14T10:52:49Z","2025-07-14T10:52:51Z","2025-07-14T10:52:53Z","2025-07-14T10:53:02Z","2025-07-14T10:53:11Z","2025-07-14T10:53:14Z","2025-07-14T10:53:25Z","2025-07-14T10:53:26Z","2025-07-14T10:53:29Z","2025-07-14T10:53:33Z","2025-07-14T10:53:42Z","2025-07-14T10:53:47Z","2025-07-14T10:53:53Z","2025-07-14T10:53:56Z","2025-07-14T10:54:00Z","2025-07-14T10:54:04Z","2025-07-14T10:54:06Z","2025-07-14T10:54:08Z","2025-07-14T10:54:12Z","2025-07-14T10:54:13Z","2025-07-14T10:54:15Z","2025-07-14T10:54:17Z","2025-07-14T10:54:20Z","2025-07-14T10:54:22Z","2025-07-14T10:54:24Z","2025-07-14T10:54:26Z","2025-07-14T10:54:32Z","2025-07-14T10:54:35Z","2025-07-14T10:54:37Z","2025-07-14T10:54:39Z","2025-07-14T10:54:42Z","2025-07-14T10:54:44Z","2025-07-14T10:54:46Z","2025-07-14T10:54:47Z","2025-07-14T10:54:55Z","2025-07-14T10:55:00Z","2025-07-14T10:55:06Z","2025-07-14T10:55:09Z","2025-07-14T10:55:15Z","2025-07-14T10:55:20Z","2025-07-14T10:55:26Z","2025-07-14T10:55:29Z","2025-07-14T10:55:33Z","2025-07-14T10:55:37Z","2025-07-14T10:55:38Z","2025-07-14T10:55:44Z","2025-07-14T10:55:47Z","2025-07-14T10:55:52Z","2025-07-14T10:55:53Z","2025-07-14T10:55:54Z","2025-07-14T10:55:56Z","2025-07-14T10:55:57Z","2025-07-14T10:55:59Z","2025-07-14T10:56:02Z","2025-07-14T10:56:11Z","2025-07-14T10:56:14Z","2025-07-14T10:56:16Z","2025-07-14T10:56:31Z","2025-07-14T10:56:38Z","2025-07-14T10:56:40Z","2025-07-14T10:56:42Z","2025-07-14T10:56:52Z","2025-07-14T10:56:53Z","2025-07-14T10:57:08Z","2025-07-14T10:57:09Z","2025-07-14T10:57:11Z","2025-07-14T10:57:17Z","2025-07-14T10:57:20Z","2025-07-14T10:57:22Z","2025-07-14T10:57:23Z","2025-07-14T10:57:24Z","2025-07-14T10:57:25Z","2025-07-14T10:57:28Z","2025-07-14T10:57:32Z","2025-07-14T10:57:34Z","2025-07-14T10:57:37Z","2025-07-14T10:57:38Z","2025-07-14T10:57:42Z","2025-07-14T10:57:43Z","2025-07-14T10:57:47Z","2025-07-14T10:57:49Z","2025-07-14T10:57:56Z","2025-07-14T10:57:57Z","2025-07-14T10:58:03Z","2025-07-14T10:58:05Z","2025-07-14T10:58:07Z","2025-07-14T10:58:09Z","2025-07-14T10:58:10Z","2025-07-14T10:58:16Z","2025-07-14T10:58:22Z","2025-07-14T10:58:24Z","2025-07-14T10:58:37Z","2025-07-14T10:58:44Z","2025-07-14T10:58:58Z","2025-07-14T10:59:03Z","2025-07-14T10:59:13Z","2025-07-14T10:59:19Z","2025-07-14T10:59:20Z","2025-07-14T10:59:22Z","2025-07-14T10:59:25Z","2025-07-14T10:59:28Z","2025-07-14T10:59:33Z","2025-07-14T10:59:38Z","2025-07-14T10:59:43Z","2025-07-14T10:59:46Z","2025-07-14T10:59:47Z","2025-07-14T10:59:53Z","2025-07-14T10:59:57Z","2025-07-14T10:59:58Z","2025-07-14T11:00:02Z","2025-07-14T11:00:07Z","2025-07-14T11:00:09Z","2025-07-14T11:00:11Z","2025-07-14T11:00:12Z","2025-07-14T11:00:15Z","2025-07-14T11:00:18Z","2025-07-14T11:00:22Z","2025-07-14T11:00:27Z","2025-07-14T11:00:30Z","2025-07-14T11:00:32Z","2025-07-14T11:00:36Z","2025-07-14T11:00:37Z","2025-07-14T11:00:41Z","2025-07-14T11:00:45Z","2025-07-14T11:00:46Z","2025-07-14T11:00:47Z","2025-07-14T11:00:49Z","2025-07-14T11:00:55Z","2025-07-14T11:01:04Z","2025-07-14T11:01:08Z","2025-07-14T11:01:12Z","2025-07-14T11:01:13Z","2025-07-14T11:01:17Z","2025-07-14T11:01:22Z","2025-07-14T11:01:27Z","2025-07-14T11:01:28Z","2025-07-14T11:01:39Z","2025-07-14T11:01:44Z","2025-07-14T11:01:45Z","2025-07-14T11:01:52Z","2025-07-14T11:01:54Z","2025-07-14T11:01:56Z","2025-07-14T11:01:58Z","2025-07-14T11:02:05Z","2025-07-14T11:02:06Z","2025-07-14T11:02:09Z","2025-07-14T11:02:14Z","2025-07-14T11:02:27Z","2025-07-14T11:02:28Z","2025-07-14T11:02:31Z","2025-07-14T11:02:32Z","2025-07-14T11:02:33Z","2025-07-14T11:02:36Z","2025-07-14T11:02:37Z","2025-07-14T11:02:46Z","2025-07-14T11:02:47Z","2025-07-14T11:02:50Z","2025-07-14T11:02:55Z","2025-07-14T11:02:57Z","2025-07-14T11:03:00Z","2025-07-14T11:03:13Z","2025-07-14T11:03:21Z","2025-07-14T11:03:40Z","2025-07-14T11:03:49Z","2025-07-14T11:03:54Z","2025-07-14T11:03:57Z","2025-07-14T11:03:59Z","2025-07-14T11:04:21Z","2025-07-14T11:04:22Z","2025-07-14T11:04:33Z","2025-07-14T11:04:43Z","2025-07-14T11:04:46Z","2025-07-14T11:04:48Z","2025-07-14T11:04:52Z","2025-07-14T11:05:01Z","2025-07-14T11:05:02Z","2025-07-14T11:05:07Z","2025-07-14T11:05:09Z","2025-07-14T11:05:11Z","2025-07-14T11:05:13Z","2025-07-14T11:05:17Z","2025-07-14T11:05:25Z","2025-07-14T11:05:36Z","2025-07-14T11:05:38Z","2025-07-14T11:05:44Z","2025-07-14T11:05:53Z","2025-07-14T11:06:01Z","2025-07-14T11:06:12Z","2025-07-14T11:06:25Z","2025-07-14T11:06:31Z","2025-07-14T11:06:38Z","2025-07-14T11:06:40Z","2025-07-14T11:06:45Z","2025-07-14T11:06:50Z","2025-07-14T11:06:56Z","2025-07-14T11:06:58Z","2025-07-14T11:07:06Z","2025-07-14T11:07:09Z","2025-07-14T11:07:15Z","2025-07-14T11:07:19Z","2025-07-14T11:07:21Z","2025-07-14T11:07:29Z","2025-07-14T11:07:31Z","2025-07-14T11:07:35Z","2025-07-14T11:07:40Z","2025-07-14T11:07:46Z","2025-07-14T11:07:49Z","2025-07-14T11:07:55Z","2025-07-14T11:08:06Z","2025-07-14T11:08:11Z","2025-07-14T11:08:14Z","2025-07-14T11:08:17Z","2025-07-14T11:08:19Z","2025-07-14T11:08:20Z","2025-07-14T11:08:21Z","2025-07-14T11:08:22Z","2025-07-14T11:08:23Z","2025-07-14T11:08:24Z","2025-07-14T11:08:26Z","2025-07-14T11:08:28Z","2025-07-14T11:08:30Z","2025-07-14T11:08:33Z","2025-07-14T11:08:37Z","2025-07-14T11:08:39Z","2025-07-14T11:08:42Z","2025-07-14T11:08:46Z","2025-07-14T11:08:55Z","2025-07-14T11:08:56Z","2025-07-14T11:08:58Z","2025-07-14T11:08:59Z","2025-07-14T11:09:00Z","2025-07-14T11:09:01Z","2025-07-14T11:09:02Z","2025-07-14T11:09:05Z","2025-07-14T11:09:06Z","2025-07-14T11:09:07Z","2025-07-14T11:09:09Z","2025-07-14T11:09:18Z","2025-07-14T11:09:20Z","2025-07-14T11:09:24Z","2025-07-14T11:09:31Z","2025-07-14T11:09:34Z","2025-07-14T11:09:35Z","2025-07-14T11:09:36Z","2025-07-14T11:09:39Z","2025-07-14T11:09:40Z","2025-07-14T11:09:41Z","2025-07-14T11:09:42Z","2025-07-14T11:09:43Z","2025-07-14T11:09:44Z","2025-07-14T11:09:45Z","2025-07-14T11:09:46Z","2025-07-14T11:09:53Z","2025-07-14T11:09:56Z","2025-07-14T11:10:02Z","2025-07-14T11:10:04Z","2025-07-14T11:10:12Z","2025-07-14T11:10:20Z","2025-07-14T11:10:21Z","2025-07-14T11:10:22Z","2025-07-14T11:10:23Z","2025-07-14T11:10:24Z","2025-07-14T11:10:26Z","2025-07-14T11:10:38Z","2025-07-14T11:10:39Z","2025-07-14T11:10:40Z","2025-07-14T11:10:41Z","2025-07-14T11:10:43Z","2025-07-14T11:10:49Z","2025-07-14T11:11:04Z","2025-07-14T11:11:12Z","2025-07-14T11:11:23Z","2025-07-14T11:11:25Z","2025-07-14T11:11:27Z","2025-07-14T11:11:45Z","2025-07-14T11:11:47Z","2025-07-14T11:11:50Z","2025-07-14T11:11:52Z","2025-07-14T11:12:03Z","2025-07-14T11:12:04Z","2025-07-14T11:12:28Z","2025-07-14T11:12:52Z","2025-07-14T11:12:53Z","2025-07-14T11:12:55Z","2025-07-14T11:13:04Z","2025-07-14T11:13:09Z","2025-07-14T11:13:22Z","2025-07-14T11:13:32Z","2025-07-14T11:13:33Z","2025-07-14T11:13:35Z","2025-07-14T11:13:49Z","2025-07-14T11:13:54Z","2025-07-14T11:13:57Z","2025-07-14T11:13:58Z","2025-07-14T11:13:59Z","2025-07-14T11:14:00Z","2025-07-14T11:14:04Z","2025-07-14T11:14:08Z","2025-07-14T11:14:16Z","2025-07-14T11:14:22Z","2025-07-14T11:14:26Z","2025-07-14T11:14:32Z","2025-07-14T11:14:41Z","2025-07-14T11:14:56Z","2025-07-14T11:14:58Z","2025-07-14T11:15:01Z","2025-07-14T11:15:02Z","2025-07-14T11:15:04Z","2025-07-14T11:15:05Z","2025-07-14T11:15:22Z","2025-07-14T11:15:26Z","2025-07-14T11:15:33Z","2025-07-14T11:15:42Z","2025-07-14T11:15:45Z","2025-07-14T11:15:55Z","2025-07-14T11:15:58Z","2025-07-14T11:15:59Z","2025-07-14T11:16:03Z","2025-07-14T11:16:15Z","2025-07-14T11:16:17Z","2025-07-14T11:16:35Z","2025-07-14T11:16:37Z","2025-07-14T11:16:39Z","2025-07-14T11:16:41Z","2025-07-14T11:16:54Z","2025-07-14T11:16:56Z","2025-07-14T11:17:00Z","2025-07-14T11:17:29Z","2025-07-14T11:17:32Z","2025-07-14T11:17:43Z","2025-07-14T11:17:48Z","2025-07-14T11:17:58Z","2025-07-14T11:18:01Z","2025-07-14T11:18:06Z","2025-07-14T11:18:11Z","2025-07-14T11:18:14Z","2025-07-14T11:18:23Z","2025-07-14T11:18:25Z","2025-07-14T11:18:38Z","2025-07-14T11:18:48Z","2025-07-14T11:18:50Z","2025-07-14T11:18:51Z","2025-07-14T11:18:52Z","2025-07-14T11:18:54Z","2025-07-14T11:18:56Z","2025-07-14T11:18:58Z","2025-07-14T11:19:04Z","2025-07-14T11:19:05Z","2025-07-14T11:19:15Z","2025-07-14T11:19:17Z","2025-07-14T11:19:19Z","2025-07-14T11:19:22Z","2025-07-14T11:19:24Z","2025-07-14T11:19:25Z","2025-07-14T11:19:26Z","2025-07-14T11:19:27Z","2025-07-14T11:19:35Z","2025-07-14T11:19:45Z","2025-07-14T11:19:52Z","2025-07-14T11:20:08Z","2025-07-14T11:20:09Z","2025-07-14T11:20:10Z","2025-07-14T11:20:11Z","2025-07-14T11:20:17Z","2025-07-14T11:20:19Z","2025-07-14T11:20:30Z","2025-07-14T11:20:31Z","2025-07-14T11:20:33Z","2025-07-14T11:20:35Z","2025-07-14T11:20:38Z","2025-07-14T11:20:41Z","2025-07-14T11:20:43Z"],"heartRates":[111,111,107,107,107,104,104,107,108,107,107,105,105,99,99,98,98,98,104,103,104,104,108,108,110,109,109,108,108,124,126,127,129,129,129,129,129,131,131,131,128,126,126,126,126,126,126,125,125,125,125,125,125,125,126,122,124,124,116,114,112,111,111,110,110,114,114,116,124,129,129,131,131,132,132,135,135,133,133,132,132,126,126,125,125,122,122,122,126,120,120,120,120,127,127,126,126,126,126,126,126,128,128,128,132,130,131,133,137,140,142,142,142,142,141,141,141,141,141,139,139,139,139,134,132,132,132,129,129,129,122,122,112,112,112,112,111,109,109,109,109,109,109,109,114,114,113,113,113,113,110,110,110,110,117,122,122,122,122,122,124,124,124,126,124,121,121,121,121,117,117,118,118,109,110,111,111,111,108,108,108,107,109,109,109,109,109,110,112,112,112,113,113,113,113,116,117,117,117,119,119,118,118,118,116,116,116,116,116,116,116,116,116,116,112,113,113,111,111,113,115,115,115,115,110,109,107,107,107,107,107,107,107,109,109,109,109,109,109,109,112,112,112,112,113,114,115,115,115,115,114,114,114,114,114,114,114,115,115,115,116,116,116,116,113,113,110,110,110,110,107,109,109,111,112,112,112,110,113,113,113,113,113,114,114,114,114,114,114,111,111,110,110,110,114,120,120,122,122,122,124,125,125,125,125,127,127,127,127,126,126,122,115,115,115,115,115,115,108,104,104,104,106,106,100,101,102,102,102,102,104,104,104,104,102,102,102,102,102,102,102,102,105,105,106,106,106,106,105,105,105,104,104,104,104,106,106,106,106,109,109,109,111,111,111,112,112,112,111,111,110,110,110,110,118,117,117,111,111,111,108,107,107,97,95,95,91,92,92,96,96,96,96,96,100,102,104,107,108,114,114,116,116,116,116,116,117,117,122,122,121,120,119,119,119,119,115,115,115,115,115,116,116,117,117,115,115,115,110,110,110,110,109,109,109,109,104,105,109,109,110,110,110,110,110,109,109,109,109,109,109,107,107,107,107,104,104,104,105,105,104,104,106,106,106,106,107,107,107,107,113,113,113,113,125,126,125,125,125,124,124,124,122,122,122,122,122,122,124,124,125,125,125,125,125,122,122,122,129,129,134,135,134,114,114,114,114,115,120,120,122,128,130,130,131,129,122,120,117,119,119,116,116,116,113,113,113,113,113,110,110,108,108,108,115,115,115,114,112,113,112,112,101,101,102,100,100,100,101,101,101,101,102,102,103,104,104,109,107,106,106,106,106,106,111,111,111,113,112,113,113,113,113,108,108,108,106,106,106,105,105,105,105,106,106,106,104,104,108,108,108,108,110,110,110,112,112,112,112,109,109,109,109,109,109,109,109,112,112,112,112,112,113,112,111,111,111,111,111,111,111,112,113,113,113,116,116,116,116,116,116,118,118,122,122,122,122,124,116,116,116,113,113,111,111,124,126,126,136,149,153,156,161,161,163,162,162,164,166,166,166,166,166,166,166,163,162,150,145,145,146,145,145,145,145,144,144,144,128,128,128,129,129,131,131,131,131,134,135,137,137,138,137,138,138,140,140,141,141,141,141,141,140,137,133,133,133,133,125,125,125,125,122,121,122,122,122,122,122,122,122,122,122,122,122,124,125,124,122,122,121,122,122,122,122,121,121,121,121,122,122,122,122,124,122,122,122,122,122,122,122,124,122,122,122,122,122,122,122,122,120,118,118,117,122,122,122,125,125,127,127,126,126,126,126,124,122,119,119,119,119,113,113,113,114,114,114,120,120,129,129,129,129,134,134,136,136,136,137,137,137,137,137,137,137,137,137,137,137,108,108,111,111,110,110,110,115,115,116,116,117,117,118,120,121,121,121,121,121,122,122,121,108,110,110,119,119,120,121,121,121,120,120,120,120,118,118,118,118,118,122,122,122,122,122,122,122,122,121,121,119,117,117,116,116,116,113,116,115,114,114,114,113,113,113,112,112,112,110,118,118,119,122,122,120,120,120,120,119,118,118,118,118,120,120,120,120,120,120,124,126,126,125,125,125,125,125,127,126,125,125,121,121,121,122,122,122,122,126,127,127,134,134,134,132,132,130,124,122,122,121,121,119,116,116,118,118,119,121,122,125,127,127,128,128,128,125,126,124,119,120,119,119,119,118,119,119,119,120,122,122,124,125,126,126,126,127,127,126,126,125,124,122,117,117,115,109,110,112,104,104,104,110,110,110,110,107,107,107,104,101,99,99,103,107,113,116,116,119,119,119,119,125,127,127,127,127,128,128,125,125,125,120,115,115,112,107,107,104,104,101,101,102,102,102,102,101,101,101,101,101,101,108,110,106,106,106,106,105,105,105,105,104,104,106,105,106,106,110,110,115,114,114,114,118,120,120,120,120,122,122,122,122,122,122,122,119,118,122,120,120,120,120,110,110,109,109,109,109,121,116,116,116,120,120,120,121,118,118,118,120,120,126,126,130,130,130,130,98,98,98,98,100,100,92,92,98,100,100,98,98,104,103,103,102,102,102,103,103,101,102,108,108,113,113,114,114,114,114,114,114,114,114,114,114,114,113,111,111,111,108,108,108,108,105,108,108,110,110,110,110,107,107,107,107,107,107,107,107,107,105,106,107,107,107,108,108,108,113,113,110,111,111,111,118,118,118,118,118,118,118,122,122,122,127,130,132,133,135,135,135,134,134,134,132,132,132,128,128,128,132,132,132,134,134,135,134,129,130,130,129,129,129,129,129,128,128,130,130,130,130,130,128,127,126,126,122,122,122,122,118,115,117,117,117,117,115,115,113,113,109,109,110,112,122,129,131,131,136,136,140,140,140,144,144,145,145,142,141,140,139,138,138,137,136,135,135,133,132,132,131,131,131,131,131,129,129,129,130,130,130,130,130,129,129,129,129,129,130,130,133,133,133,133,138,139,139,139,139,140,140,140,138,137,137,139,143,143,144,145,146,147,147,147,147,145,145,145,143,143,143,142,142,142,141,141,141,139,139,137,131,131,132,132,133,133,131,127,127,127,127,127,128,129,131,130,130,130,130,132,132,131,130,130,130,127,127,113,113,111,111,110,120,120,131,131,131,131,132,131,129,129,128,128,121,124,124,125,125,122,122,122,122,122,115,115,115,122,122,129,129,127,127,125,121,121,120,120,120,117,117,117,115,115,115,115,116,118,118,120,122,122,121,121,120,120,120,120,120,121,121,122,122,122,124,124,126,126,126,126,126,126,126,125,125,125,125,124,124,124,125,125,125,127,127,126,128,128,131,131,130,130,130,129,129,129,128,127,127,125,124,124,124,124,122,122,120,120,120,121,121,121,121,121,121,118,117,117,117,117,118,118,119,119,120,120,122,122,122,122,122,122,124,124,126,127,126,128,130,130,130,130,130,130,130,131,131,131,131,132,132,132,132,131,130,130,130,130,124,124,120,118,118,116,116,114,114,114,119,119,119,118,116,116,116,116,118,119,119,120,120,120,120,120,120,120,119,119,119,120,125,125,126,126,126,126,126,125,125,124,124,124,122,125,127,128,128,131,131,132,137,137,137,137,137,137,138,139,139,140,141,141,141,148,149,146,146,144,145,145,144,144,144,145,143,143,143,143,142,142,142,142,142,142,142,142,141,140,140,134,132,129,131,130,130,130,129,129,129,129,129,129,129,129,129,129,128,128,127,128,128,128,128,128,127,127,127,127,127,128,130,130,132,133,133,133,133,133,133,133,132,132,132,132,132,132,132,131,131,131,128,128,128,127,127,127,128,128,128,128,128,128,128,128,128,127,127,122,122,122,122,125,125,130,132,132,132,131,131,133,135,135,135,135,136,136,135,135,135,135,131,129,129,124,124,129,128,127,127,127,127,127,126,126,126,129,129,128,126,126,122,126,129,126,125,124,124,126,126,130,141,141,141,141,139,139,137,136,134,133,133,130,125,125,125,125,125,124,124,126,126,134,136,136,136,136,136,137,137,139,140,138,139,139,138,138,137,137,135,135,135,135,135,131,131]},"geometry":{"type":"LineString","coordinates":[[2.45556,48.703531,81.1],[2.455595,48.703583,80.9],[2.455816,48.703767,80.5],[2.456082,48.704023,79.9],[2.456309,48.704192,79.5],[2.45647,48.704345,79.1],[2.456749,48.704581,78.4],[2.45702,48.704858,77.7],[2.457217,48.705031,77.2],[2.457282,48.70507,77.1],[2.457435,48.705202,76.8],[2.457676,48.705438,76.3],[2.457793,48.705577,76.1],[2.457844,48.70562,76],[2.457873,48.705631,76],[2.457919,48.705636,76],[2.457962,48.705619,76],[2.458033,48.705565,76],[2.458491,48.705318,75.8],[2.458952,48.705041,75.5],[2.459432,48.704783,75.2],[2.459699,48.704628,75.1],[2.459923,48.704509,75],[2.460171,48.704346,74.9],[2.4604,48.704237,74.8],[2.460667,48.70408,74.7],[2.460883,48.703975,75],[2.461269,48.703765,75.5],[2.461487,48.703619,75.8],[2.462959,48.702793,78.8],[2.463221,48.702637,79.2],[2.463668,48.702387,79.7],[2.46394,48.702277,79.9],[2.464006,48.702272,79.9],[2.464071,48.702289,79.7],[2.464121,48.702328,79.5],[2.464204,48.702425,79],[2.464654,48.702842,77.7],[2.464719,48.702858,77.8],[2.464798,48.702846,77.8],[2.464871,48.702824,77.8],[2.465288,48.702753,78.1],[2.46537,48.702754,78.2],[2.465509,48.702723,78.3],[2.465795,48.702675,78.5],[2.465867,48.702654,78.6],[2.466013,48.702637,78.6],[2.466448,48.70256,78.7],[2.466644,48.7025,78.7],[2.466743,48.702458,78.7],[2.466881,48.702377,78.7],[2.467252,48.702201,78.6],[2.467437,48.702122,78.6],[2.467791,48.701949,78.3],[2.467879,48.701879,78.3],[2.468449,48.701691,78.2],[2.469276,48.701466,77.7],[2.469353,48.701452,77.6],[2.470098,48.701219,75.2],[2.470334,48.701153,74.5],[2.471167,48.700895,71.7],[2.471261,48.700844,71.3],[2.471331,48.70083,71.2],[2.471592,48.700808,70.7],[2.472161,48.70074,70.8],[2.472974,48.700661,72.4],[2.473296,48.700618,73.4],[2.473526,48.700572,74.2],[2.474045,48.700582,76.2],[2.474257,48.700577,77],[2.474436,48.700586,77.7],[2.474468,48.700598,77.8],[2.474491,48.700618,77.8],[2.474546,48.700713,77.6],[2.474672,48.700844,77.4],[2.475304,48.701596,76.5],[2.4754,48.70168,76.4],[2.475563,48.701875,76],[2.475741,48.702063,75.6],[2.475867,48.702217,75.2],[2.476001,48.702361,74.8],[2.476089,48.702431,74.6],[2.476112,48.702465,74.5],[2.47615,48.702491,74.4],[2.476204,48.702549,74.5],[2.476259,48.702582,74.5],[2.476339,48.702605,74.6],[2.476554,48.702632,74.9],[2.477267,48.702769,74.7],[2.478488,48.703201,72.5],[2.478682,48.70325,72.4],[2.478782,48.703262,72.4],[2.480057,48.703279,74.3],[2.481154,48.703335,75],[2.481277,48.703353,75.1],[2.481336,48.703335,75.2],[2.481375,48.70329,75.4],[2.481378,48.703146,76],[2.481397,48.703071,76.2],[2.481437,48.703036,76.3],[2.481501,48.703025,76.4],[2.481792,48.703056,76.3],[2.48193,48.703061,76.3],[2.482166,48.703095,76.2],[2.482514,48.70311,76.1],[2.483527,48.70319,75.9],[2.485007,48.703354,77.4],[2.485262,48.70339,78],[2.486083,48.703477,79.1],[2.486714,48.703507,80],[2.487269,48.703542,80.3],[2.487384,48.703522,80.4],[2.487449,48.703523,80.5],[2.487566,48.703576,80.4],[2.487636,48.703594,80.3],[2.487705,48.703586,80.2],[2.487769,48.703564,80.1],[2.487817,48.703522,80],[2.487882,48.703379,79.8],[2.488039,48.703151,79.4],[2.488169,48.703025,79.2],[2.488238,48.702938,79],[2.488374,48.702823,78.8],[2.488458,48.702765,78.6],[2.488513,48.702749,78.3],[2.488692,48.702801,77.4],[2.489017,48.702865,75.4],[2.489539,48.702912,71.5],[2.489646,48.702906,70.5],[2.489868,48.702877,68.5],[2.490048,48.702842,66.8],[2.490134,48.702807,65.9],[2.491284,48.702142,53.3],[2.491354,48.702094,52.5],[2.491737,48.701875,48.4],[2.491805,48.701825,47.6],[2.49234,48.70152,42.5],[2.492402,48.701472,41.5],[2.492428,48.701414,40.6],[2.492412,48.701352,41.1],[2.49243,48.701307,41.9],[2.492512,48.701295,41.5],[2.492613,48.701322,40.1],[2.492709,48.701358,39.9],[2.492909,48.701372,39.6],[2.493117,48.701364,39.3],[2.49354,48.701374,39.2],[2.493726,48.701414,39.5],[2.493814,48.701423,39.8],[2.493882,48.701455,40],[2.493921,48.701492,40.2],[2.493957,48.701511,40.3],[2.494015,48.701526,40.4],[2.494315,48.701656,40.6],[2.49404,48.701567,40.6],[2.493955,48.701484,40.4],[2.493972,48.701478,40.3],[2.494013,48.701486,40.2],[2.494094,48.70148,39.8],[2.494139,48.70146,39.6],[2.494282,48.701371,39],[2.494399,48.701259,38.7],[2.494452,48.701223,38.7],[2.494613,48.701082,38.9],[2.494671,48.700998,38.9],[2.494896,48.700793,39.1],[2.494923,48.700783,39.1],[2.49495,48.700793,39.1],[2.49497,48.700787,39.1],[2.494958,48.700799,39.1],[2.49497,48.700792,39.1],[2.494977,48.700799,39.1],[2.495046,48.700763,39.1],[2.495119,48.700674,39.2],[2.495393,48.700552,39.1],[2.495709,48.700455,39.1],[2.495737,48.70043,39.1],[2.495785,48.700318,39],[2.495778,48.700135,39.1],[2.495715,48.700077,39.2],[2.495614,48.700037,39.3],[2.495551,48.700055,39.3],[2.495471,48.700021,39.4],[2.495446,48.699995,39.5],[2.495372,48.699953,39.5],[2.495138,48.69985,39.7],[2.495093,48.699805,39.7],[2.495098,48.699714,39.6],[2.495029,48.699643,39.5],[2.494978,48.699472,39.6],[2.49498,48.6994,39.7],[2.495014,48.699324,39.8],[2.495016,48.699284,39.9],[2.495061,48.699187,39.9],[2.49512,48.699134,39.9],[2.495208,48.699031,40],[2.495399,48.698874,39.9],[2.495538,48.698803,39.8],[2.495728,48.698756,39.7],[2.495796,48.69876,39.7],[2.495931,48.698783,39.6],[2.496063,48.698817,39.7],[2.496123,48.698842,39.7],[2.49617,48.698881,39.6],[2.496249,48.699005,39.6],[2.496394,48.699156,39.7],[2.496467,48.699214,39.7],[2.496521,48.69924,39.7],[2.496598,48.699293,39.6],[2.496641,48.699337,39.6],[2.496726,48.699325,39.6],[2.496767,48.699306,39.6],[2.496776,48.699281,39.6],[2.496762,48.699258,39.6],[2.496738,48.69925,39.6],[2.496757,48.699255,39.6],[2.496774,48.699229,39.6],[2.496756,48.699171,39.6],[2.496798,48.699112,39.6],[2.496901,48.699,39.5],[2.496958,48.698956,39.5],[2.497112,48.698881,39.4],[2.497196,48.698831,39.5],[2.497284,48.698801,39.5],[2.497406,48.698735,39.4],[2.497516,48.698657,39.4],[2.497603,48.698619,39.5],[2.497661,48.69862,39.5],[2.497736,48.698559,39.5],[2.497744,48.698519,39.5],[2.497784,48.698453,39.5],[2.49782,48.698435,39.5],[2.497865,48.698428,39.5],[2.498015,48.698356,39.5],[2.498131,48.698267,39.6],[2.498216,48.698227,39.6],[2.498328,48.698208,39.6],[2.49835,48.698173,39.6],[2.498466,48.698084,39.6],[2.498515,48.698026,39.7],[2.498681,48.697928,39.7],[2.498735,48.697907,39.7],[2.498959,48.697775,39.7],[2.499005,48.697757,39.7],[2.499127,48.69768,39.7],[2.499268,48.697559,39.7],[2.499577,48.697413,39.6],[2.499729,48.697311,39.5],[2.499938,48.697204,39.5],[2.500022,48.69708,39.6],[2.500156,48.696949,39.7],[2.500343,48.696918,39.8],[2.500395,48.696901,39.8],[2.500455,48.696863,39.9],[2.500481,48.696783,40],[2.50057,48.696682,40],[2.500705,48.696572,40],[2.500801,48.696542,40],[2.500912,48.696495,40],[2.500987,48.696446,40],[2.501321,48.696312,39.9],[2.501366,48.696287,39.9],[2.501507,48.696239,39.8],[2.50172,48.696218,39.7],[2.501903,48.696169,39.7],[2.502169,48.696049,39.8],[2.502282,48.695976,39.8],[2.502353,48.695906,39.7],[2.502507,48.695855,39.7],[2.502681,48.695767,39.9],[2.502725,48.695767,39.9],[2.502712,48.695772,39.9],[2.502723,48.695783,39.9],[2.502715,48.695733,39.9],[2.502689,48.695701,40],[2.502692,48.695692,40],[2.502687,48.695733,39.9],[2.502574,48.695771,39.8],[2.502444,48.695841,39.7],[2.502337,48.695871,39.6],[2.502302,48.695873,39.6],[2.502252,48.695841,39.6],[2.502157,48.695813,39.6],[2.501942,48.695769,39.5],[2.501906,48.69574,39.5],[2.501907,48.695664,39.6],[2.501882,48.695631,39.6],[2.501835,48.695609,39.6],[2.501806,48.69558,39.7],[2.50189,48.695485,40],[2.501909,48.695428,40.2],[2.502015,48.695274,41],[2.502005,48.695256,41.1],[2.502029,48.695249,41.2],[2.50205,48.6952,41.4],[2.502082,48.695169,41.5],[2.502078,48.695173,41.5],[2.502116,48.69512,41.5],[2.50214,48.695039,41.4],[2.502176,48.695009,41.4],[2.502203,48.695001,41.3],[2.502392,48.695049,41.3],[2.502438,48.695041,41.3],[2.502483,48.695021,41.4],[2.502552,48.695009,41.5],[2.502623,48.695015,41.6],[2.50263,48.695065,41.6],[2.502613,48.695096,41.6],[2.502628,48.695175,41.6],[2.502849,48.695572,41.9],[2.502874,48.695644,41.9],[2.502998,48.695884,42.2],[2.503176,48.696172,42.3],[2.503201,48.696183,42.3],[2.503274,48.696177,42.3],[2.50328,48.696193,42.3],[2.50323,48.696215,42.3],[2.503223,48.69621,42.3],[2.503237,48.696185,42.3],[2.503372,48.696155,42.2],[2.503531,48.696109,42.1],[2.50358,48.69611,42.1],[2.503721,48.696136,42.1],[2.503944,48.696109,42],[2.504108,48.696066,41.9],[2.504289,48.696031,41.9],[2.504678,48.695987,41.9],[2.50492,48.695977,41.8],[2.50506,48.695925,41.9],[2.505115,48.695918,41.9],[2.505224,48.695936,41.9],[2.505283,48.695934,42],[2.505355,48.695915,41.7],[2.50549,48.695893,41.4],[2.505606,48.695854,41],[2.505732,48.695853,40.7],[2.505731,48.695837,40.7],[2.505695,48.695793,40.5],[2.505749,48.695721,40.2],[2.505753,48.695681,40],[2.505695,48.695653,40],[2.505656,48.695648,40],[2.505636,48.695638,40],[2.505574,48.695527,40.1],[2.505549,48.695501,40.1],[2.505503,48.695486,40.1],[2.505456,48.69549,40.2],[2.505418,48.695512,40.2],[2.505328,48.695533,40.2],[2.505175,48.695514,40.1],[2.505031,48.695524,40.1],[2.504989,48.695518,40.1],[2.504903,48.695478,40.2],[2.504781,48.695459,40.3],[2.504678,48.695461,40.5],[2.504619,48.695441,40.6],[2.504586,48.695445,40.6],[2.504503,48.695439,40.8],[2.504487,48.695432,40.8],[2.50444,48.695431,41],[2.504396,48.69542,41.1],[2.504381,48.695409,41.1],[2.504292,48.695413,41.4],[2.504276,48.695421,41.4],[2.504226,48.695417,41.5],[2.504185,48.695404,41.7],[2.504161,48.695361,41.8],[2.504171,48.695355,41.8],[2.50422,48.69537,41.7],[2.504221,48.695377,41.7],[2.504199,48.695382,41.6],[2.5042,48.695405,41.5],[2.50422,48.695415,41.5],[2.504307,48.695402,41.2],[2.504352,48.695406,41.1],[2.504401,48.695421,41],[2.504553,48.695442,40.7],[2.504614,48.695439,40.6],[2.504638,48.695445,40.5],[2.504822,48.695441,40.3],[2.504922,48.695482,40.2],[2.505024,48.695505,40.1],[2.505285,48.695521,40.2],[2.505386,48.695515,40.2],[2.505464,48.695494,40.2],[2.505542,48.695503,40.1],[2.505566,48.695514,40.1],[2.505578,48.695555,40.1],[2.505615,48.695588,40.1],[2.505654,48.695659,40],[2.505687,48.695681,40],[2.505728,48.69574,40],[2.505784,48.695759,40],[2.505914,48.695775,40.2],[2.506009,48.695812,40.4],[2.506438,48.695948,41.2],[2.506586,48.695963,41.3],[2.506877,48.696024,41.6],[2.507046,48.696042,41.8],[2.507272,48.696049,41.5],[2.507365,48.69603,41.4],[2.507402,48.696031,41.3],[2.507471,48.696015,41.2],[2.507606,48.695999,41.1],[2.507661,48.696006,41.2],[2.507766,48.696043,41.4],[2.508091,48.696108,42],[2.50824,48.696147,42.2],[2.508533,48.696169,42.2],[2.508711,48.696172,42.2],[2.508831,48.696186,42.2],[2.508955,48.696178,42.2],[2.509235,48.696204,42.2],[2.509289,48.696196,42.2],[2.50944,48.696236,42.2],[2.509531,48.696276,42.2],[2.509597,48.696285,42.2],[2.509645,48.696304,42.2],[2.509702,48.696307,42.3],[2.509761,48.696327,42.3],[2.509938,48.696362,42.3],[2.51023,48.696451,42.3],[2.510348,48.696473,42.4],[2.510512,48.696515,42.4],[2.510748,48.696556,42.4],[2.510862,48.696566,42.3],[2.511062,48.696613,42.2],[2.511169,48.69662,42.2],[2.511294,48.696659,42.1],[2.511354,48.696669,42],[2.511435,48.696659,42],[2.511538,48.696597,41.9],[2.511704,48.696536,41.9],[2.511768,48.696543,41.8],[2.511815,48.696584,41.8],[2.51186,48.696654,41.8],[2.511906,48.696699,41.8],[2.511971,48.696736,41.8],[2.512375,48.696917,42.1],[2.512576,48.696984,42.2],[2.512907,48.697042,42.2],[2.512991,48.697081,42.2],[2.513161,48.697098,42.2],[2.513209,48.697136,42.2],[2.513258,48.697149,42.2],[2.513369,48.697161,42.1],[2.513541,48.697209,42],[2.513644,48.69722,41.9],[2.513855,48.697196,41.7],[2.51391,48.697201,41.5],[2.514045,48.697234,41.1],[2.514183,48.697284,40.9],[2.514265,48.697304,40.8],[2.514332,48.697311,40.8],[2.514494,48.697308,40.7],[2.514685,48.697316,40.6],[2.514801,48.697306,40.5],[2.515158,48.697304,40.4],[2.515452,48.697347,40.5],[2.515556,48.697375,40.5],[2.515903,48.697414,40.7],[2.516035,48.697422,40.7],[2.516382,48.697392,41],[2.516442,48.697394,41.2],[2.516547,48.697415,41.5],[2.516593,48.697435,41.8],[2.516645,48.697445,42],[2.516664,48.697436,42],[2.516681,48.697441,42],[2.516686,48.697432,42.1],[2.516676,48.697425,42.1],[2.516686,48.697424,42.1],[2.516726,48.697378,42.1],[2.516816,48.697314,42.2],[2.516907,48.697294,42.3],[2.516973,48.697297,42.3],[2.517075,48.697319,42.3],[2.517128,48.697345,42.3],[2.51719,48.697346,42.3],[2.517219,48.697334,42.3],[2.517267,48.697286,42.3],[2.517268,48.697244,42.3],[2.517323,48.697249,42.3],[2.517362,48.697174,42.3],[2.517409,48.697114,42.4],[2.517459,48.697099,42.5],[2.517514,48.697126,42.5],[2.517556,48.697158,42.5],[2.517859,48.697247,42.6],[2.518057,48.69729,42.9],[2.518377,48.697386,43.7],[2.518645,48.697453,44.7],[2.518715,48.697477,45.1],[2.518793,48.697487,45.4],[2.518908,48.697519,46.1],[2.519028,48.697535,46.6],[2.519067,48.697528,46.7],[2.51916,48.697483,46.8],[2.519276,48.697463,47.2],[2.519344,48.697412,47.7],[2.519402,48.697413,47.8],[2.519418,48.69743,47.9],[2.519459,48.697433,48],[2.519593,48.69751,48.4],[2.519626,48.697544,48.5],[2.519727,48.697619,48.9],[2.519845,48.697684,49.7],[2.52006,48.69777,50.5],[2.520441,48.697873,51.9],[2.520478,48.697908,52.1],[2.520604,48.697917,52.4],[2.520981,48.697986,53.2],[2.521281,48.697998,53.6],[2.521328,48.698006,53.7],[2.521694,48.697996,53.9],[2.522156,48.697924,54.2],[2.522515,48.697842,54.5],[2.522816,48.697733,54.7],[2.523143,48.697558,55],[2.52333,48.69744,55.1],[2.523358,48.697413,55.2],[2.523756,48.697162,55.6],[2.523818,48.697111,55.7],[2.523917,48.697052,55.8],[2.523956,48.697008,55.8],[2.523965,48.696983,55.8],[2.523946,48.696938,55.9],[2.523895,48.6969,55.9],[2.523898,48.696889,55.9],[2.523946,48.696873,55.9],[2.523943,48.696879,55.9],[2.52409,48.696822,56],[2.524184,48.696825,56],[2.524275,48.696795,55.9],[2.524471,48.696642,56],[2.524809,48.696427,56.1],[2.525027,48.696276,56],[2.52524,48.696063,55.9],[2.52535,48.695915,55.5],[2.525516,48.695547,54.4],[2.525537,48.695449,54.1],[2.525549,48.695283,53.5],[2.525546,48.694344,50.4],[2.525534,48.694278,50.2],[2.525535,48.693816,48.9],[2.525498,48.693804,48.9],[2.525417,48.693798,48.7],[2.525374,48.693786,48.5],[2.525307,48.69375,48],[2.525151,48.693554,45.3],[2.525104,48.693477,44.3],[2.52511,48.693471,44.3],[2.525037,48.693392,43.6],[2.52504,48.693374,43.4],[2.525076,48.693356,43.4],[2.525105,48.693396,43.4],[2.525249,48.693448,43.5],[2.52541,48.693486,43.6],[2.525505,48.693479,43.6],[2.525535,48.693495,43.6],[2.525602,48.693501,43.7],[2.525617,48.693512,43.7],[2.525693,48.693534,43.7],[2.525717,48.693499,43.7],[2.525752,48.693498,43.8],[2.52578,48.693517,43.8],[2.525798,48.693511,43.8],[2.525805,48.693495,43.8],[2.525838,48.693473,43.8],[2.525748,48.693466,43.8],[2.52576,48.693464,43.8],[2.525607,48.693431,43.9],[2.525594,48.693447,43.9],[2.525565,48.693444,43.9],[2.525658,48.693467,43.9],[2.525668,48.693486,43.9],[2.525663,48.693499,43.9],[2.525701,48.69352,43.8],[2.525734,48.693528,43.8],[2.525774,48.693526,43.8],[2.525787,48.693539,43.8],[2.525783,48.693547,43.8],[2.525768,48.693547,43.8],[2.525761,48.693533,43.8],[2.525716,48.69351,43.8],[2.525739,48.693502,43.8],[2.525737,48.693496,43.8],[2.525767,48.693499,43.7],[2.525788,48.693511,43.7],[2.525868,48.693488,43.7],[2.525846,48.693499,43.6],[2.525865,48.693508,43.6],[2.525979,48.693514,43.5],[2.526005,48.69353,43.5],[2.526127,48.69355,43.4],[2.526317,48.693614,43.2],[2.526379,48.693623,43.2],[2.526568,48.693631,43.1],[2.526623,48.693621,43.1],[2.52723,48.693622,43.1],[2.527291,48.69363,43.1],[2.52747,48.693623,43],[2.527532,48.693629,43],[2.527773,48.693676,42.9],[2.527883,48.693706,42.9],[2.528107,48.693816,42.9],[2.528146,48.693855,42.9],[2.528458,48.694074,42.8],[2.528592,48.694194,42.9],[2.528693,48.694262,42.9],[2.528806,48.694317,43],[2.529216,48.694485,43],[2.529418,48.694544,43],[2.529721,48.694646,43],[2.529877,48.694728,43],[2.529913,48.694767,42.9],[2.529947,48.69486,42.9],[2.530052,48.695014,42.9],[2.530122,48.69514,42.9],[2.530152,48.695268,42.9],[2.53022,48.69535,42.9],[2.530353,48.695456,42.8],[2.530431,48.695622,42.8],[2.530419,48.695689,42.9],[2.530459,48.695779,42.9],[2.530525,48.695846,42.9],[2.530641,48.696006,42.9],[2.530757,48.696108,43.1],[2.53087,48.696155,43.2],[2.530911,48.696191,43.3],[2.530954,48.696252,43.5],[2.531017,48.696295,43.5],[2.531242,48.696397,44],[2.531383,48.696401,44.3],[2.531388,48.696407,44.3],[2.531513,48.696402,44.4],[2.531608,48.696411,44.4],[2.531695,48.696386,44.4],[2.531996,48.696392,44.2],[2.532041,48.696413,44.1],[2.532051,48.696426,44],[2.532006,48.696705,43.6],[2.532026,48.696732,43.8],[2.532133,48.696751,44.3],[2.532198,48.696771,44.7],[2.532559,48.696953,48.1],[2.532643,48.697017,49.1],[2.532743,48.697056,50],[2.533029,48.697216,53.3],[2.533184,48.697336,55.5],[2.533301,48.697377,56.7],[2.533409,48.69743,57.8],[2.533492,48.697503,59],[2.53359,48.697532,59.8],[2.533662,48.697584,60.6],[2.533832,48.69768,62.3],[2.533842,48.697679,62.3],[2.533823,48.697665,62.6],[2.533794,48.697671,62.9],[2.533795,48.697676,63],[2.533799,48.697667,63.1],[2.533792,48.697669,63.1],[2.5338,48.697662,63.2],[2.533799,48.69768,63.5],[2.533839,48.697686,63.8],[2.53383,48.697686,63.9],[2.533858,48.697669,64.2],[2.533894,48.697665,64.6],[2.533998,48.697706,65.6],[2.533988,48.697709,65.7],[2.53408,48.697738,66.6],[2.534233,48.697761,68.1],[2.534265,48.697784,68.6],[2.534337,48.697788,69.2],[2.534412,48.697778,69.9],[2.534438,48.697788,70.2],[2.534476,48.69778,70.5],[2.534497,48.697741,71.1],[2.534536,48.697748,71.3],[2.534577,48.697777,71.7],[2.534795,48.697837,73.4],[2.534934,48.697908,74.9],[2.534946,48.697948,75.4],[2.535046,48.697996,76.4],[2.535102,48.698057,77.3],[2.535124,48.698058,77.4],[2.535138,48.698068,77.6],[2.535151,48.698066,77.7],[2.535308,48.69813,79.2],[2.535468,48.698163,80.5],[2.535545,48.698189,81.2],[2.535637,48.698209,81.8],[2.53569,48.698232,82.2],[2.535723,48.698237,82.3],[2.535787,48.698276,82.7],[2.535922,48.698312,83.2],[2.536001,48.69835,83.5],[2.536022,48.698351,83.5],[2.536063,48.698324,83.7],[2.536072,48.6983,83.7],[2.536061,48.698279,83.7],[2.536094,48.698155,84],[2.536091,48.698134,84],[2.536155,48.697829,84.5],[2.536204,48.697356,84.1],[2.53624,48.697216,84],[2.536268,48.697185,84],[2.536334,48.697146,84],[2.536378,48.697139,84],[2.536432,48.697148,84],[2.536481,48.697167,84.1],[2.536521,48.697194,84.1],[2.536648,48.697317,84.2],[2.537238,48.697568,84.7],[2.537331,48.697616,84.7],[2.537585,48.697716,84.8],[2.538088,48.697984,84.8],[2.538486,48.698231,84.9],[2.538754,48.698356,85.1],[2.539064,48.698514,85.5],[2.539236,48.69863,85.6],[2.539285,48.698655,85.7],[2.539352,48.698654,85.7],[2.539407,48.698623,85.8],[2.539449,48.698543,85.9],[2.539598,48.698389,85.8],[2.539935,48.698098,85.7],[2.54027,48.697878,85.6],[2.540522,48.697746,85.4],[2.540604,48.697676,85.4],[2.540747,48.69758,85.3],[2.541513,48.697213,85.4],[2.541683,48.697123,85.5],[2.542127,48.696915,85.9],[2.542289,48.696849,86.1],[2.542571,48.696713,86.3],[2.542759,48.696551,86.2],[2.542864,48.696438,86.1],[2.542953,48.696325,86],[2.542999,48.69622,85.8],[2.543039,48.696196,85.8],[2.543101,48.696179,85.8],[2.54371,48.696077,86.2],[2.543889,48.696054,86.4],[2.544243,48.695977,86.7],[2.544558,48.695926,86.9],[2.544738,48.695872,86.9],[2.544872,48.695857,87],[2.545189,48.695805,87.1],[2.545449,48.695778,87.1],[2.545657,48.695773,87],[2.545955,48.695795,87],[2.546384,48.69586,87.1],[2.546453,48.695863,87.2],[2.546517,48.695855,87.1],[2.546566,48.695833,87.1],[2.546662,48.695811,87],[2.546706,48.69579,86.9],[2.546725,48.695747,86.7],[2.546707,48.695653,86.3],[2.546713,48.695435,85.2],[2.546726,48.695398,85],[2.546769,48.695402,84.9],[2.546896,48.695391,85],[2.54756,48.69557,86.6],[2.547652,48.695582,86.8],[2.547824,48.695621,87.2],[2.547904,48.695622,87.4],[2.54798,48.695594,87.5],[2.548169,48.695499,87.7],[2.54855,48.695329,87.5],[2.548894,48.695195,87.2],[2.549115,48.695075,87],[2.549146,48.695047,87],[2.549143,48.695018,86.7],[2.549091,48.694955,86],[2.549059,48.694847,84.6],[2.549019,48.694813,84],[2.548963,48.694735,82.8],[2.548937,48.69472,82.9],[2.548888,48.694725,83],[2.548845,48.69476,83.2],[2.548849,48.694719,83],[2.548905,48.694705,82.8],[2.548935,48.694711,83.1],[2.548981,48.694762,83.9],[2.548994,48.6948,84.4],[2.549046,48.69486,85.4],[2.549083,48.69495,86.4],[2.549144,48.695017,86.9],[2.549182,48.695016,86.9],[2.549246,48.694999,86.9],[2.549332,48.694956,86.9],[2.549504,48.694915,86.9],[2.54956,48.694909,86.9],[2.549664,48.694919,87],[2.549759,48.694957,87.1],[2.549799,48.694981,87.2],[2.549885,48.69507,87.5],[2.550196,48.695349,88.6],[2.550236,48.695356,88.6],[2.550317,48.695342,88.7],[2.550373,48.695371,88.7],[2.550442,48.695388,88.8],[2.550462,48.695402,88.8],[2.550453,48.695401,88.8],[2.550469,48.695403,88.8],[2.550452,48.695394,88.9],[2.550459,48.695382,88.9],[2.550426,48.695364,88.9],[2.550435,48.695369,88.9],[2.550428,48.695367,88.9],[2.550423,48.695396,89],[2.550493,48.695458,89],[2.550556,48.6955,89.1],[2.550598,48.695502,89.2],[2.550974,48.695385,89.7],[2.551066,48.695372,89.8],[2.551195,48.695395,89.9],[2.551332,48.695438,90],[2.551668,48.695522,90.4],[2.55173,48.69555,90.5],[2.551867,48.695587,90.6],[2.552273,48.695724,91.2],[2.552324,48.695735,91.3],[2.552448,48.695781,91.5],[2.552529,48.695828,91.6],[2.552731,48.695981,92],[2.55281,48.696025,92.1],[2.552968,48.696046,92.3],[2.553234,48.696098,92.4],[2.553695,48.696173,92.8],[2.553713,48.696162,92.8],[2.553945,48.696195,92.9],[2.554225,48.696201,93],[2.555782,48.696275,93],[2.555868,48.696288,93.1],[2.556371,48.696315,93.2],[2.556593,48.696301,93.4],[2.557089,48.696316,93.6],[2.557444,48.696365,93.5],[2.559645,48.69646,93.1],[2.559909,48.696462,93.1],[2.559999,48.69645,93.1],[2.560138,48.696378,93.1],[2.560216,48.696365,93.1],[2.560297,48.696376,93.1],[2.560373,48.696402,93.1],[2.560504,48.696476,93.1],[2.560586,48.696499,93.1],[2.56355,48.69663,93.6],[2.563619,48.69666,93.6],[2.563625,48.696723,93.6],[2.563683,48.696745,93.6],[2.563816,48.696732,93.5],[2.564411,48.69676,93.5],[2.564535,48.696775,93.5],[2.564816,48.69678,93.5],[2.565536,48.696814,93.4],[2.565683,48.696832,93.5],[2.566489,48.696864,93.6],[2.566922,48.696896,93.9],[2.567136,48.696886,93.9],[2.567759,48.69694,93.6],[2.567815,48.696956,93.6],[2.56801,48.696958,93.7],[2.568192,48.696947,93.8],[2.568494,48.696952,93.8],[2.569183,48.696987,93.8],[2.569627,48.696994,93.9],[2.570295,48.697023,94],[2.57057,48.697044,94.2],[2.570824,48.697054,94.4],[2.570938,48.697042,94.4],[2.571023,48.697043,94.4],[2.571102,48.69703,94.4],[2.571195,48.696992,94.5],[2.571252,48.696977,94.5],[2.571315,48.696975,94.5],[2.57295,48.697046,95.1],[2.573287,48.69705,95.2],[2.574085,48.697103,95.5],[2.575704,48.697171,95.5],[2.575744,48.697143,95.5],[2.575763,48.697076,95.5],[2.575742,48.697016,95.5],[2.575755,48.696788,95.5],[2.575797,48.696607,95.5],[2.575821,48.696551,95.6],[2.575798,48.696393,95.5],[2.575807,48.696323,95.4],[2.575801,48.696278,95.4],[2.575828,48.696121,95.1],[2.575848,48.696087,95],[2.575847,48.696,94.9],[2.57586,48.695937,94.9],[2.575859,48.695871,94.9],[2.575891,48.695741,94.9],[2.575918,48.695443,94.9],[2.575904,48.695291,95],[2.575912,48.695145,94.9],[2.575929,48.695117,94.9],[2.575938,48.695134,94.9],[2.575933,48.695127,94.9],[2.57592,48.69513,94.9],[2.575904,48.695153,94.9],[2.575911,48.69523,95],[2.575886,48.695644,94.9],[2.575866,48.695734,94.9],[2.575853,48.695883,94.9],[2.575835,48.695933,94.9],[2.575806,48.695971,94.9],[2.575802,48.695995,95],[2.575819,48.69604,95],[2.575803,48.696192,95.3],[2.575784,48.696227,95.3],[2.575685,48.696239,95.3],[2.575591,48.696218,95.4],[2.57546,48.696209,95.5],[2.575092,48.696138,95.8],[2.574962,48.696122,95.8],[2.574273,48.695984,95.5],[2.574206,48.69596,95.5],[2.574011,48.695913,95.4],[2.573874,48.695852,95.4],[2.573727,48.695816,95.5],[2.57334,48.695698,95.3],[2.572847,48.695534,94.7],[2.572752,48.695518,94.6],[2.572672,48.695487,94.5],[2.572461,48.69543,94.4],[2.572378,48.69542,94.3],[2.572218,48.695372,94.3],[2.571883,48.695291,94.4],[2.571799,48.695279,94.4],[2.571694,48.695245,94.3],[2.571563,48.695223,94.3],[2.571481,48.6952,94.4],[2.571202,48.695147,94.4],[2.57111,48.695116,94.4],[2.570839,48.695061,94.6],[2.570651,48.695031,94.6],[2.570394,48.695008,94.5],[2.570331,48.694996,94.5],[2.570054,48.694971,94.4],[2.570011,48.694973,94.4],[2.568722,48.694842,94],[2.568026,48.694741,93.7],[2.567967,48.694707,93.7],[2.566805,48.694519,92.9],[2.566608,48.694494,92.8],[2.566081,48.694403,92.6],[2.565797,48.694367,92.3],[2.565692,48.694347,92.2],[2.565621,48.694343,92.2],[2.565548,48.694353,92.2],[2.565396,48.694324,92.1],[2.565286,48.694311,92],[2.565029,48.694264,91.8],[2.564367,48.69417,91.6],[2.564303,48.694143,91.6],[2.564176,48.694133,91.7],[2.563727,48.694057,91.6],[2.56346,48.694002,91.5],[2.563381,48.694012,91.5],[2.563219,48.693971,91.3],[2.562362,48.69379,91.6],[2.562255,48.693743,91.7],[2.56202,48.693701,91.7],[2.561975,48.693707,91.7],[2.561556,48.693604,91.4],[2.561329,48.693558,91.2],[2.561047,48.693482,90.9],[2.560871,48.69345,90.8],[2.560571,48.693357,90.4],[2.560347,48.693313,90.1],[2.559997,48.693219,89.7],[2.559565,48.693079,88.7],[2.559578,48.69308,88.6],[2.559549,48.693055,88.5],[2.559556,48.693049,88.4],[2.559514,48.693035,88.3],[2.559421,48.693037,88],[2.559185,48.692967,87.3],[2.559108,48.692936,87.1],[2.558837,48.69286,86.5],[2.558695,48.692804,86.2],[2.55858,48.692794,85.9],[2.558421,48.692816,85.6],[2.558367,48.692837,85.4],[2.558095,48.693025,84.4],[2.557973,48.693129,84.4],[2.557794,48.693305,84.7],[2.557638,48.693428,85.1],[2.557461,48.693588,85.5],[2.557103,48.693855,87],[2.557028,48.69392,87.3],[2.556985,48.693944,87.3],[2.556921,48.693944,87.4],[2.556815,48.693909,87.6],[2.556756,48.693905,87.6],[2.556636,48.693913,87.7],[2.556412,48.693912,88],[2.556298,48.693919,88.1],[2.556257,48.693896,87.8],[2.55624,48.693857,87.4],[2.556343,48.693702,86.3],[2.556464,48.693478,84.9],[2.556449,48.693431,84.7],[2.556273,48.693285,83.7],[2.556155,48.693224,83.3],[2.555949,48.693158,82.5],[2.555547,48.692992,81],[2.555466,48.692967,80.7],[2.555297,48.69293,80.1],[2.554751,48.692758,78.3],[2.554077,48.692517,75.8],[2.553898,48.692432,75.4],[2.553801,48.692401,75.2],[2.553379,48.692228,75.4],[2.553349,48.692203,75.5],[2.553371,48.69216,75.1],[2.553805,48.691805,72],[2.553839,48.69176,71.8],[2.553862,48.691751,71.7],[2.553872,48.691736,71.7],[2.553892,48.691735,71.6],[2.553892,48.691711,71.6],[2.553881,48.69171,71.6],[2.553929,48.691686,71.6],[2.553933,48.691667,71.6],[2.553919,48.69165,71.4],[2.553849,48.691614,71],[2.553702,48.691487,69.9],[2.553583,48.691362,69],[2.553545,48.691341,68.9],[2.553513,48.691309,68.7],[2.553507,48.691288,68.6],[2.553414,48.691215,68.2],[2.553382,48.691208,68.1],[2.553331,48.69118,68],[2.553253,48.691119,67.7],[2.553133,48.691062,67.5],[2.553089,48.691049,67.5],[2.552905,48.690952,67.4],[2.552825,48.690871,67.6],[2.552797,48.690771,67.7],[2.552801,48.690653,68.2],[2.552708,48.690568,68.4],[2.552658,48.690556,68.3],[2.552651,48.690543,68.3],[2.552667,48.69053,68.3],[2.552675,48.690553,68.3],[2.552647,48.690569,68.3],[2.552747,48.690656,68.3],[2.552759,48.690747,68],[2.552743,48.690779,67.8],[2.552673,48.690789,67.4],[2.552645,48.690786,67.3],[2.552565,48.690758,66.8],[2.552469,48.690745,66.3],[2.552396,48.690708,65.8],[2.552352,48.690726,65.4],[2.552314,48.690726,65.2],[2.552276,48.69071,64.9],[2.552242,48.690711,64.6],[2.552219,48.690698,64.4],[2.55196,48.690764,62],[2.551923,48.690763,61.7],[2.551886,48.69081,60.9],[2.55187,48.690808,60.7],[2.551872,48.690842,60.2],[2.551856,48.690841,60],[2.551857,48.690858,59.7],[2.551887,48.690809,58.8],[2.551901,48.690809,58.7],[2.551887,48.690792,58.3],[2.551877,48.6908,58.1],[2.55187,48.690788,57.9],[2.551817,48.69077,57.1],[2.551665,48.690669,54],[2.551636,48.690671,53.5],[2.551639,48.690677,53.4],[2.551328,48.690628,48.6],[2.551278,48.690632,47.8],[2.551231,48.690645,47.1],[2.551152,48.690729,46.5],[2.551224,48.69075,46.5],[2.551316,48.690826,46.5],[2.551394,48.690837,46.5],[2.551467,48.690868,46.5],[2.551527,48.690855,46.5],[2.551615,48.690865,46.5],[2.551654,48.690802,46.5],[2.551637,48.690803,46.5],[2.551693,48.690792,46.5],[2.551572,48.690784,46.5],[2.551624,48.690782,46.5],[2.551647,48.690788,46.5],[2.551623,48.69081,46.5],[2.551515,48.690794,46.5],[2.551509,48.690801,46.5],[2.551458,48.690812,46.5],[2.551409,48.690849,46.5],[2.551355,48.690864,46.5],[2.551382,48.690868,46.5],[2.551342,48.690892,46.5],[2.551387,48.690887,46.5],[2.551422,48.690872,46.5],[2.551432,48.690876,46.5],[2.551505,48.690826,46.5],[2.551382,48.690798,46.5],[2.55128,48.690763,46.5],[2.551233,48.690718,46.4],[2.551167,48.690677,46.4],[2.551131,48.690676,46.4],[2.551147,48.690676,46.4],[2.551137,48.690675,46.3],[2.551146,48.690698,46.3],[2.551177,48.690704,46.3],[2.551141,48.690737,46.3],[2.551125,48.690737,46.3],[2.551048,48.690694,46.2],[2.551004,48.690683,46.2],[2.550987,48.690669,46.2],[2.550926,48.690649,46.2],[2.550851,48.690599,46.1],[2.55078,48.690574,46],[2.550751,48.690573,45.9],[2.550727,48.690561,45.9],[2.550728,48.690541,45.8],[2.550762,48.690513,45.7],[2.55086,48.690461,45.4],[2.55088,48.690437,45.3],[2.550877,48.690405,45.3],[2.550892,48.690364,45.2],[2.550864,48.690271,45.2],[2.550796,48.690171,45.1],[2.55076,48.690147,45.1],[2.550711,48.690082,45.1],[2.550618,48.690021,45.1],[2.55061,48.690002,45.1],[2.550582,48.689986,45.1],[2.55051,48.68991,45.1],[2.55035,48.689821,45.1],[2.550237,48.689743,45],[2.550152,48.689734,45],[2.550014,48.689704,45],[2.54995,48.689671,45],[2.549907,48.689627,45],[2.549847,48.689596,45],[2.549573,48.68953,45],[2.549549,48.689512,45],[2.54939,48.689461,45],[2.549263,48.689357,45.1],[2.549227,48.689346,45.1],[2.549158,48.689308,45.1],[2.549081,48.689292,45.1],[2.548969,48.689256,45.1],[2.548857,48.689192,45.1],[2.548731,48.689154,45.1],[2.548623,48.689112,45.2],[2.548497,48.689074,45.2],[2.548511,48.68907,45.2],[2.548534,48.689077,45.2],[2.548569,48.68911,45.2],[2.548472,48.689145,45.2],[2.548432,48.689184,45.2],[2.548381,48.689338,45.5],[2.548299,48.689432,45.8],[2.548233,48.689457,45.8],[2.54816,48.689467,45.8],[2.54812,48.689459,45.8],[2.547964,48.689397,46],[2.547932,48.689396,46],[2.547894,48.689365,46.1],[2.54786,48.689364,46.1],[2.547795,48.689347,46.2],[2.547729,48.68931,46.3],[2.547549,48.68926,46.6],[2.547365,48.689172,47],[2.547271,48.689109,47.4],[2.547212,48.689083,47.6],[2.547153,48.689029,47.9],[2.547043,48.688971,48.2],[2.546787,48.688875,49.3],[2.546716,48.688867,49.6],[2.546587,48.688836,49.9],[2.546449,48.688817,50],[2.54637,48.688818,50.1],[2.546246,48.6888,50.2],[2.546025,48.688751,50.4],[2.545693,48.688625,50.8],[2.545568,48.688601,50.9],[2.545115,48.688451,51.8],[2.545002,48.688404,52],[2.544849,48.688353,52.3],[2.544773,48.688319,52.4],[2.544632,48.688282,52.6],[2.544454,48.688211,52.6],[2.544287,48.688166,52.6],[2.544172,48.688122,52.5],[2.544018,48.688079,52.5],[2.543908,48.688035,52.5],[2.543748,48.687987,52.5],[2.543535,48.687904,52.7],[2.543119,48.687703,52.9],[2.543026,48.687647,53],[2.542793,48.687531,53.2],[2.542544,48.687383,53.6],[2.542404,48.687322,53.9],[2.542062,48.687143,54.5],[2.542022,48.68713,54.6],[2.541817,48.68702,55],[2.541619,48.686927,55.3],[2.541378,48.686836,55.6],[2.5413,48.686796,55.7],[2.540884,48.686643,56.4],[2.540744,48.686603,56.7],[2.540692,48.686578,56.8],[2.540606,48.686554,56.9],[2.540339,48.686433,56.8],[2.540206,48.686405,56.7],[2.539897,48.686294,56.2],[2.539668,48.686226,55.9],[2.539539,48.686212,55.8],[2.539274,48.686146,55.6],[2.539166,48.686099,55.4],[2.538982,48.686055,55.3],[2.538715,48.686012,55.1],[2.537974,48.685928,54.6],[2.537734,48.685919,54.4],[2.537534,48.685933,54.2],[2.537371,48.685981,53.6],[2.537286,48.686014,53.2],[2.537033,48.68615,51.8],[2.536757,48.686274,50.7],[2.536674,48.686295,50.5],[2.536473,48.686285,50],[2.536406,48.686296,49.9],[2.536365,48.686289,49.7],[2.536338,48.686276,49.7],[2.536316,48.686227,49.7],[2.536354,48.686127,50.2],[2.536381,48.685723,52.6],[2.53642,48.685532,53.8],[2.536447,48.685223,55.6],[2.536437,48.685172,55.9],[2.536384,48.685094,56.3],[2.53629,48.685037,56.6],[2.536172,48.684916,56.9],[2.536133,48.684895,57.1],[2.53607,48.68479,57.4],[2.536024,48.684745,57.6],[2.535902,48.684666,57.8],[2.535573,48.684511,58.2],[2.535449,48.684469,58.3],[2.534983,48.684339,58.8],[2.534807,48.68426,59.1],[2.534645,48.684202,59.4],[2.534447,48.684117,59.7],[2.534323,48.684073,59.9],[2.534143,48.683991,60.2],[2.533893,48.683912,60.7],[2.533566,48.683797,61.3],[2.533089,48.683613,62.1],[2.533007,48.683589,62.3],[2.532883,48.683566,62.4],[2.532844,48.683565,62.5],[2.532822,48.683552,62.5],[2.532881,48.683478,62.4],[2.532848,48.683452,62.3],[2.532786,48.68345,62.4],[2.532729,48.683471,62.5],[2.532548,48.683491,62.7],[2.532427,48.683485,62.8],[2.532369,48.683468,62.9],[2.532274,48.683411,63],[2.532203,48.683337,63.1],[2.532161,48.683257,63.3],[2.53213,48.683221,63.3],[2.532046,48.683152,63.4],[2.531943,48.683034,63.5],[2.531811,48.682932,63.6],[2.531589,48.6827,63.9],[2.531421,48.682549,64],[2.531105,48.682358,64.5],[2.531013,48.682293,65],[2.530828,48.68225,65.8],[2.530771,48.682245,66],[2.530538,48.682261,66.7],[2.530416,48.682247,67.1],[2.53036,48.682228,67.3],[2.530319,48.6822,67.5],[2.530164,48.681976,68.1],[2.530092,48.68189,68.5],[2.530083,48.681864,68.6],[2.530012,48.681777,68.9],[2.529981,48.681715,69.2],[2.529918,48.681628,69.6],[2.529855,48.681514,70.1],[2.529828,48.681435,70.5],[2.52975,48.681271,71.3],[2.529651,48.681187,72],[2.529609,48.681139,72.3],[2.529511,48.68106,73],[2.52934,48.680848,74.5],[2.52932,48.680801,74.9],[2.529183,48.680644,76],[2.529105,48.680576,76.5],[2.52906,48.68052,76.9],[2.528975,48.680453,77.3],[2.528797,48.680281,78.1],[2.528744,48.680246,78.3],[2.528562,48.680063,78.6],[2.528463,48.679907,78.8],[2.528397,48.679823,78.9],[2.528331,48.679787,79],[2.52825,48.679629,79.3],[2.528166,48.679517,79.6],[2.528138,48.679429,79.8],[2.528104,48.679366,79.9],[2.528009,48.679275,80.2],[2.527989,48.679241,80.2],[2.52778,48.67902,80.6],[2.527721,48.678937,80.8],[2.527644,48.678863,80.9],[2.527573,48.678814,81],[2.527533,48.678754,81.1],[2.527239,48.67848,81.6],[2.526945,48.678342,81.7],[2.526919,48.678309,81.8],[2.526948,48.678138,82.1],[2.52693,48.678032,82.2],[2.526883,48.677957,82.3],[2.526844,48.677929,82.3],[2.526226,48.677298,82.8],[2.525979,48.677009,83],[2.525636,48.676554,83.8],[2.525502,48.67641,84],[2.525345,48.676174,84.2],[2.525177,48.675962,84.5],[2.525046,48.675747,84.7],[2.524956,48.675573,84.9],[2.524757,48.675086,85.3],[2.524682,48.674816,85.5],[2.524632,48.6745,85.8],[2.524609,48.674228,86.1],[2.524607,48.673949,86.4],[2.524672,48.673545,86.9],[2.524679,48.673418,87.2],[2.52467,48.673342,87.3],[2.524709,48.67315,87.2],[2.5247,48.673076,86.9],[2.524683,48.673045,86.8],[2.524683,48.672987,86.5],[2.524723,48.672991,86.4],[2.524549,48.672915,85.7],[2.524556,48.672908,85.7],[2.524842,48.673112,85],[2.524903,48.6732,85.1],[2.524995,48.673157,85.7],[2.525102,48.672957,87.3],[2.525091,48.672934,87.4],[2.525203,48.672721,87.9],[2.525245,48.67271,87.9],[2.525267,48.672695,87.9],[2.525407,48.67238,88.1],[2.5255,48.672235,88.1],[2.526014,48.671296,88.4],[2.526362,48.670731,88.6],[2.52646,48.67054,88.7],[2.526574,48.670358,88.7],[2.526593,48.670308,88.7],[2.526845,48.669879,88.6],[2.527051,48.6695,88.7],[2.527307,48.66909,88.9],[2.527592,48.668566,89],[2.52774,48.668222,89.1],[2.52783,48.667918,89.1],[2.527861,48.667777,89.1],[2.527978,48.667473,88.2],[2.527965,48.667434,88.1],[2.527998,48.667417,88],[2.527975,48.667223,88.7],[2.527985,48.667175,88.8],[2.528033,48.667106,89],[2.528154,48.66701,89.3],[2.528332,48.666898,89.4],[2.528423,48.666821,89.5],[2.528472,48.666793,89.5],[2.528618,48.666672,89.6],[2.528739,48.666605,89.6],[2.528929,48.666464,89.7],[2.528943,48.666443,89.7],[2.528947,48.666409,89.7],[2.528982,48.6664,89.7],[2.529038,48.666413,89.8],[2.529064,48.666409,89.8],[2.529091,48.666349,89.8],[2.529136,48.666294,89.9],[2.529265,48.66619,90],[2.529669,48.665901,90.1],[2.529804,48.665814,90.2],[2.529878,48.665753,90.2],[2.529965,48.665699,90.2],[2.530344,48.665427,90.3],[2.530707,48.665136,90.6],[2.530851,48.665046,90.6],[2.53133,48.664682,90.8],[2.531366,48.664645,90.8],[2.531517,48.664548,90.8],[2.531694,48.664409,90.9],[2.532131,48.664107,90.8],[2.532363,48.663925,90.8],[2.532663,48.663742,90.8],[2.532848,48.663687,90.9],[2.533028,48.66355,90.9],[2.533161,48.663383,90.9],[2.533234,48.663324,91],[2.533308,48.663237,91],[2.533475,48.663081,90.9],[2.533535,48.663057,90.9],[2.533645,48.66299,90.9],[2.533741,48.662911,90.9],[2.533899,48.662805,90.8],[2.533984,48.662718,90.8],[2.534086,48.662642,90.8],[2.534203,48.662576,90.7],[2.534527,48.662331,90.5],[2.534676,48.662205,90.4],[2.534789,48.662129,90.3],[2.534888,48.662049,90.3],[2.535049,48.661937,90.3],[2.535161,48.661871,90.2],[2.535279,48.661784,90.2],[2.535339,48.66175,90.2],[2.535753,48.661413,90.1],[2.536024,48.661217,90],[2.536308,48.66098,89.8],[2.536451,48.660891,89.7],[2.536699,48.660695,89.6],[2.536863,48.66055,89.5],[2.537109,48.660396,89.3],[2.537214,48.660314,89.3],[2.537397,48.660209,89.3],[2.537551,48.660088,89.2],[2.537599,48.660063,89.2],[2.537823,48.659902,89.1],[2.537925,48.659801,89],[2.538121,48.659674,89],[2.538146,48.65964,88.9],[2.538135,48.659602,88.9],[2.538048,48.659548,88.9],[2.537992,48.659532,88.9],[2.537898,48.659476,88.8],[2.537747,48.659406,88.8],[2.537282,48.659161,88.6],[2.537126,48.659088,88.6],[2.537035,48.659027,88.6],[2.536247,48.658649,88.6],[2.535893,48.658458,88.7],[2.535784,48.65841,88.7],[2.535685,48.658353,88.7],[2.535176,48.6581,88.6],[2.535127,48.658068,88.6],[2.534289,48.657672,88.4],[2.534236,48.657633,88.3],[2.534116,48.657584,88.3],[2.533781,48.657411,88.2],[2.533629,48.657319,88.1],[2.533516,48.657278,88],[2.533451,48.657275,88],[2.533385,48.657287,88],[2.533326,48.657313,87.9],[2.533198,48.657428,87.9],[2.532988,48.657575,87.8],[2.53287,48.657646,87.8],[2.532722,48.657764,87.8],[2.532661,48.6578,87.8],[2.532457,48.65796,87.9],[2.532399,48.657995,87.9],[2.532194,48.658151,88],[2.532086,48.658222,88.1],[2.531743,48.658476,88.2],[2.531686,48.658508,88.3],[2.531367,48.658731,88.3],[2.531264,48.65882,88.3],[2.531155,48.658888,88.3],[2.531043,48.658972,88.3],[2.530982,48.659007,88.3],[2.530669,48.659248,88.4],[2.530346,48.659481,88.5],[2.530245,48.659564,88.5],[2.52954,48.660084,88.7],[2.529149,48.660356,88.8],[2.528403,48.660913,88.9],[2.528119,48.661108,88.9],[2.527568,48.661525,88.9],[2.527262,48.661781,88.9],[2.527201,48.661818,88.9],[2.527098,48.661906,88.9],[2.526926,48.66202,89],[2.526771,48.662143,89],[2.526493,48.662328,89],[2.526218,48.662538,89],[2.525955,48.662761,88.9],[2.525791,48.662888,88.9],[2.525727,48.662925,88.9],[2.525408,48.663181,88.7],[2.52519,48.663344,88.6],[2.525128,48.663381,88.5],[2.524919,48.663548,88.5],[2.524656,48.663733,88.4],[2.52459,48.663789,88.5],[2.524517,48.663814,88.5],[2.524495,48.663841,88.6],[2.52444,48.663878,88.7],[2.524424,48.663915,88.7],[2.524481,48.663974,88.7],[2.524576,48.664031,88.7],[2.52459,48.664063,88.7],[2.524621,48.66407,88.7],[2.524667,48.664106,88.6],[2.524661,48.664117,88.6],[2.52449,48.664109,88.6],[2.524285,48.664041,88.5],[2.524243,48.664047,88.4],[2.524205,48.664063,88.4],[2.524151,48.66413,88.3],[2.523936,48.664296,88.2],[2.523567,48.66456,88.2],[2.523415,48.664697,88.2],[2.523285,48.66486,88.3],[2.523234,48.664895,88.3],[2.522998,48.664999,88.4],[2.522755,48.665172,88.6],[2.522532,48.665346,88.6],[2.522477,48.665379,88.7],[2.521935,48.665785,88.8],[2.521704,48.665987,88.9],[2.521648,48.666018,88.9],[2.521311,48.666267,89.1],[2.52123,48.666336,89.1],[2.521124,48.666404,89.2],[2.52103,48.666477,89.2],[2.520666,48.666724,89.3],[2.520631,48.666772,89.3],[2.520465,48.666882,89.2],[2.520222,48.66708,89.2],[2.519546,48.667574,89],[2.519497,48.667622,89],[2.519327,48.667746,88.9],[2.519283,48.667787,88.8],[2.51922,48.667822,88.8],[2.519052,48.667946,88.6],[2.519005,48.667994,88.6],[2.518496,48.668354,88.6],[2.518444,48.6684,88.6],[2.518286,48.668501,88.5],[2.518032,48.668709,88.5],[2.517919,48.668786,88.5],[2.51777,48.66891,88.4],[2.517024,48.669483,88],[2.516533,48.669827,88.1],[2.515423,48.670665,87.7],[2.514856,48.671056,87.6],[2.514566,48.671292,87.5],[2.514375,48.671428,87.6],[2.514256,48.671526,87.7],[2.512985,48.672471,87.9],[2.512934,48.672517,87.8],[2.512256,48.673013,87.6],[2.511654,48.673472,87.4],[2.511472,48.673599,87.4],[2.511332,48.67367,87.4],[2.511117,48.67386,87.4],[2.510548,48.674293,87.3],[2.510473,48.674333,87.2],[2.510159,48.67458,87.2],[2.510011,48.67466,87.2],[2.509896,48.674759,87.2],[2.509766,48.674853,87.2],[2.509526,48.675056,87.2],[2.509004,48.675428,87],[2.508301,48.675949,86.9],[2.508171,48.676035,86.9],[2.5078,48.676324,86.9],[2.50724,48.676731,86.9],[2.506754,48.677112,86.8],[2.506042,48.677632,86.9],[2.505189,48.678277,86.7],[2.504786,48.678562,86.6],[2.50434,48.678901,86.6],[2.504201,48.678995,86.5],[2.503886,48.679244,86.5],[2.503551,48.679473,86.5],[2.503175,48.679769,86.5],[2.503042,48.679852,86.5],[2.50253,48.680232,86.3],[2.502351,48.680377,86.2],[2.501961,48.680654,86],[2.501721,48.680848,85.9],[2.501592,48.680929,86],[2.501146,48.681275,86.2],[2.501049,48.681367,86.2],[2.500844,48.681504,86.1],[2.500715,48.681625,86],[2.500526,48.68174,85.9],[2.500422,48.681836,85.9],[2.50017,48.682036,85.9],[2.499641,48.682413,86],[2.499417,48.682593,86.1],[2.499355,48.68266,86.1],[2.499337,48.682764,86.3],[2.499293,48.682832,86.4],[2.499251,48.682863,86.5],[2.499199,48.682886,86.5],[2.499133,48.682898,86.4],[2.499069,48.682898,86.4],[2.499003,48.682909,86.3],[2.498897,48.682972,86.2],[2.498811,48.683045,86.2],[2.498709,48.683116,86.2],[2.498567,48.683235,86.2],[2.498359,48.683375,86.2],[2.498283,48.68346,86.3],[2.498145,48.683571,86.3],[2.497936,48.683716,86.4],[2.497511,48.684042,86.8],[2.497465,48.684091,86.8],[2.497478,48.684187,87],[2.497474,48.684232,87],[2.497448,48.684282,87.1],[2.497399,48.684318,87.1],[2.497328,48.684346,87.1],[2.497089,48.684363,87.1],[2.497023,48.684387,87.2],[2.496959,48.684427,87.2],[2.496861,48.684508,87.4],[2.496403,48.684844,88.1],[2.496312,48.684922,88.3],[2.49612,48.685057,88.5],[2.495791,48.685308,88.9],[2.495643,48.68541,89],[2.495602,48.685447,89.1],[2.495578,48.685492,89.1],[2.495592,48.685623,89.2],[2.495565,48.685662,89.2],[2.495514,48.685695,89.2],[2.495448,48.685714,89.2],[2.495376,48.68572,89.3],[2.495303,48.685717,89.3],[2.495231,48.685732,89.2],[2.495172,48.685767,89.2],[2.494802,48.686038,89],[2.494661,48.686166,88.9],[2.494337,48.686407,88.6],[2.494217,48.68648,88.4],[2.493735,48.686829,87.8],[2.493311,48.687178,87.7],[2.493245,48.68719,87.7],[2.493172,48.687175,87.7],[2.493113,48.687131,87.7],[2.493069,48.687082,87.7],[2.493005,48.686981,87.7],[2.492543,48.68643,88],[2.492485,48.686393,88],[2.492394,48.686388,87.9],[2.492306,48.686409,87.9],[2.492157,48.686461,87.8],[2.491725,48.686578,87.6],[2.490643,48.686846,87],[2.489996,48.68702,86.6],[2.4891,48.687246,86.4],[2.488974,48.687323,86.4],[2.488842,48.687378,86.3],[2.48783,48.688183,85.8],[2.48771,48.688266,85.7],[2.487534,48.688408,85.6],[2.487413,48.68849,85.6],[2.486786,48.688987,85.3],[2.486729,48.689024,85.3],[2.485383,48.690084,84.9],[2.484458,48.690793,85],[2.484443,48.690815,85],[2.484357,48.690864,85],[2.483939,48.691187,85],[2.483691,48.691398,85.1],[2.483012,48.691912,85.4],[2.482481,48.692332,85.5],[2.482435,48.692378,85.5],[2.482323,48.692455,85.6],[2.481573,48.693033,85.5],[2.4813,48.693256,85.4],[2.481138,48.693371,85.4],[2.481106,48.693408,85.4],[2.481068,48.693434,85.4],[2.481052,48.693458,85.4],[2.480924,48.693543,85.3],[2.480761,48.693687,85.1],[2.480362,48.693988,84.9],[2.480157,48.694166,84.9],[2.480039,48.694238,84.9],[2.479759,48.694438,84.7],[2.479319,48.694789,84.4],[2.478571,48.695364,84.6],[2.478505,48.695433,84.7],[2.478496,48.695502,84.7],[2.478468,48.695531,84.7],[2.478368,48.695585,84.6],[2.478303,48.695605,84.6],[2.477027,48.695878,84.4],[2.47673,48.695951,84.5],[2.476188,48.69606,84.4],[2.475446,48.696224,84.1],[2.475203,48.696289,83.9],[2.474383,48.696468,83.9],[2.474189,48.69648,84],[2.474135,48.696493,84],[2.473893,48.69666,83.7],[2.472978,48.69718,82.3],[2.472831,48.697278,82.2],[2.47126,48.698159,79.1],[2.471097,48.698279,78.9],[2.470923,48.698384,78.9],[2.470742,48.698474,78.9],[2.469664,48.699082,79.5],[2.469491,48.699163,79.7],[2.46916,48.699337,80.2],[2.467057,48.700515,81.7],[2.466844,48.700644,81.6],[2.466099,48.701061,81.4],[2.46576,48.701242,81.4],[2.465031,48.701658,80.6],[2.464783,48.701778,80.5],[2.464395,48.702001,80.1],[2.464007,48.70221,80],[2.463787,48.702342,79.8],[2.463108,48.702716,79],[2.462965,48.702808,78.8],[2.461906,48.703402,76.8],[2.461151,48.703836,75.3],[2.460997,48.703907,75.1],[2.460914,48.703912,75.2],[2.460842,48.703865,75.4],[2.460755,48.703748,75.7],[2.460638,48.703664,76],[2.460537,48.703569,76.3],[2.460215,48.703309,77.4],[2.460157,48.703276,77.5],[2.459682,48.702881,79.2],[2.459571,48.702814,79.5],[2.459441,48.702777,79.8],[2.459235,48.70276,80.1],[2.459097,48.70276,80.2],[2.45903,48.702769,80.2],[2.458961,48.702788,80.2],[2.458902,48.702815,80.2],[2.458457,48.703078,79.8],[2.457883,48.703432,79.4],[2.457439,48.703685,79.3],[2.456398,48.704227,79.4],[2.456341,48.704233,79.4],[2.45629,48.704208,79.5],[2.456251,48.704148,79.6],[2.456021,48.703928,80.1],[2.45593,48.703855,80.3],[2.455546,48.703493,81.1],[2.455524,48.703483,81.2],[2.455516,48.703467,81.2],[2.45549,48.703473,81.3],[2.455434,48.703466,81.3],[2.455351,48.703422,81.4],[2.455293,48.703407,81.5]]}}]}