{"type":"FeatureCollection","features":[{"type":"Feature","properties":{"name":"unnamed","time":"2008-08-29T21:24:06Z","coordTimes":["2008-08-29T21:24:06Z","2008-08-29T21:24:09Z","2008-08-29T21:24:12Z","2008-08-29T21:24:16Z","2008-08-29T21:24:26Z","2008-08-29T21:24:27Z","2008-08-29T21:24:30Z","2008-08-29T21:24:34Z","2008-08-29T21:24:36Z","2008-08-29T21:24:44Z","2008-08-29T21:24:46Z","2008-08-29T21:24:52Z","2008-08-29T21:24:55Z","2008-08-29T21:25:04Z","2008-08-29T21:25:07Z","2008-08-29T21:25:26Z","2008-08-29T21:25:37Z","2008-08-29T21:25:45Z","2008-08-29T21:25:55Z","2008-08-29T21:26:08Z","2008-08-29T21:27:37Z","2008-08-29T21:28:20Z","2008-08-29T21:28:32Z","2008-08-29T21:28:48Z","2008-08-29T21:29:08Z","2008-08-29T21:29:33Z","2008-08-29T21:30:15Z","2008-08-29T21:32:15Z","2008-08-29T21:32:37Z","2008-08-29T21:32:55Z","2008-08-29T21:33:10Z","2008-08-29T21:33:28Z","2008-08-29T21:33:49Z","2008-08-29T21:34:12Z","2008-08-29T21:34:31Z","2008-08-29T21:35:32Z","2008-08-29T21:35:58Z","2008-08-29T21:36:19Z","2008-08-29T21:37:26Z"],"type":"randonnée","month":"2008-08-01"},"geometry":{"type":"LineString","coordinates":[[-74.547612,46.186669,85.21],[-74.547464,46.186736,89.54],[-74.547318,46.186766,100.6],[-74.547366,46.186726,110.21],[-74.547458,46.186717,129.92],[-74.54745,46.186724,129.92],[-74.547428,46.186694,133.76],[-74.547412,46.186729,141.45],[-74.547418,46.186739,145.3],[-74.547396,46.186733,159.24],[-74.547413,46.186727,162.6],[-74.547471,46.186735,170.29],[-74.547487,46.186746,173.66],[-74.5477,46.186675,185.19],[-74.547711,46.186693,188.56],[-74.547697,46.186707,205.38],[-74.547694,46.186698,211.15],[-74.547687,46.186734,214.03],[-74.547716,46.186774,216.91],[-74.547715,46.186833,220.28],[-74.547801,46.186958,221.72],[-74.548052,46.187081,225.09],[-74.548169,46.187114,228.45],[-74.548293,46.187202,229.89],[-74.548484,46.187216,229.89],[-74.54858,46.187299,229.89],[-74.548549,46.187227,228.93],[-74.548629,46.187305,230.85],[-74.548834,46.187452,230.37],[-74.548974,46.187575,229.89],[-74.549073,46.187679,230.37],[-74.549094,46.187807,229.89],[-74.549147,46.187948,230.37],[-74.549105,46.188113,230.85],[-74.549217,46.188141,230.37],[-74.549214,46.188127,230.37],[-74.549401,46.188089,229.89],[-74.549302,46.188095,230.85],[-74.549267,46.18809,231.33]]}}]}