{"type":"FeatureCollection","features":[{"type":"Feature","properties":{"name":"Fat bike et dégustation d’huîtres #MT2K25","type":"vtt électrique","time":"2025-09-20T07:27:58Z","coordTimes":["2025-09-20T07:27:58Z","2025-09-20T07:31:26Z","2025-09-20T07:31:28Z","2025-09-20T07:31:31Z","2025-09-20T07:31:37Z","2025-09-20T07:31:39Z","2025-09-20T07:31:44Z","2025-09-20T07:31:45Z","2025-09-20T07:31:56Z","2025-09-20T07:31:58Z","2025-09-20T07:32:01Z","2025-09-20T07:32:04Z","2025-09-20T07:32:05Z","2025-09-20T07:32:08Z","2025-09-20T07:32:13Z","2025-09-20T07:32:18Z","2025-09-20T07:32:25Z","2025-09-20T07:32:28Z","2025-09-20T07:34:07Z","2025-09-20T07:34:09Z","2025-09-20T07:34:11Z","2025-09-20T07:34:13Z","2025-09-20T07:34:22Z","2025-09-20T07:34:35Z","2025-09-20T07:34:38Z","2025-09-20T07:34:40Z","2025-09-20T07:34:42Z","2025-09-20T07:34:44Z","2025-09-20T07:34:46Z","2025-09-20T07:34:51Z","2025-09-20T07:35:03Z","2025-09-20T07:35:04Z","2025-09-20T07:35:09Z","2025-09-20T07:35:11Z","2025-09-20T07:35:14Z","2025-09-20T07:35:17Z","2025-09-20T07:35:19Z","2025-09-20T07:35:31Z","2025-09-20T07:35:35Z","2025-09-20T07:35:36Z","2025-09-20T07:35:37Z","2025-09-20T07:35:38Z","2025-09-20T07:35:40Z","2025-09-20T07:35:46Z","2025-09-20T07:35:52Z","2025-09-20T07:35:53Z","2025-09-20T07:35:55Z","2025-09-20T07:35:58Z","2025-09-20T07:36:06Z","2025-09-20T07:36:07Z","2025-09-20T07:36:09Z","2025-09-20T07:36:11Z","2025-09-20T07:36:13Z","2025-09-20T07:36:17Z","2025-09-20T07:36:22Z","2025-09-20T07:36:24Z","2025-09-20T07:36:27Z","2025-09-20T07:36:30Z","2025-09-20T07:36:31Z","2025-09-20T07:38:36Z","2025-09-20T07:38:50Z","2025-09-20T07:38:53Z","2025-09-20T07:38:58Z","2025-09-20T07:38:59Z","2025-09-20T07:39:05Z","2025-09-20T07:39:07Z","2025-09-20T07:39:09Z","2025-09-20T07:39:10Z","2025-09-20T07:39:16Z","2025-09-20T07:39:18Z","2025-09-20T07:39:20Z","2025-09-20T07:39:28Z","2025-09-20T07:39:31Z","2025-09-20T07:39:33Z","2025-09-20T07:39:36Z","2025-09-20T07:39:38Z","2025-09-20T07:39:39Z","2025-09-20T07:39:40Z","2025-09-20T07:39:42Z","2025-09-20T07:39:45Z","2025-09-20T07:39:46Z","2025-09-20T07:39:47Z","2025-09-20T07:39:49Z","2025-09-20T07:39:50Z","2025-09-20T07:39:56Z","2025-09-20T07:39:57Z","2025-09-20T07:39:59Z","2025-09-20T07:40:01Z","2025-09-20T07:40:03Z","2025-09-20T07:40:05Z","2025-09-20T07:40:08Z","2025-09-20T07:40:09Z","2025-09-20T07:40:10Z","2025-09-20T07:40:11Z","2025-09-20T07:40:14Z","2025-09-20T07:40:15Z","2025-09-20T07:40:17Z","2025-09-20T07:40:19Z","2025-09-20T07:40:20Z","2025-09-20T07:40:23Z","2025-09-20T07:40:26Z","2025-09-20T07:40:31Z","2025-09-20T07:40:32Z","2025-09-20T07:40:36Z","2025-09-20T07:40:44Z","2025-09-20T07:40:45Z","2025-09-20T07:40:48Z","2025-09-20T07:40:50Z","2025-09-20T07:40:52Z","2025-09-20T07:40:54Z","2025-09-20T07:40:55Z","2025-09-20T07:40:59Z","2025-09-20T07:41:00Z","2025-09-20T07:41:02Z","2025-09-20T07:41:06Z","2025-09-20T07:41:10Z","2025-09-20T07:41:14Z","2025-09-20T07:41:20Z","2025-09-20T07:41:22Z","2025-09-20T07:41:24Z","2025-09-20T07:41:26Z","2025-09-20T07:41:28Z","2025-09-20T07:41:31Z","2025-09-20T07:41:34Z","2025-09-20T07:41:36Z","2025-09-20T07:41:37Z","2025-09-20T07:41:40Z","2025-09-20T07:41:42Z","2025-09-20T07:41:48Z","2025-09-20T07:41:49Z","2025-09-20T07:41:50Z","2025-09-20T07:41:54Z","2025-09-20T07:41:55Z","2025-09-20T07:41:59Z","2025-09-20T07:42:00Z","2025-09-20T07:42:02Z","2025-09-20T07:42:03Z","2025-09-20T07:42:04Z","2025-09-20T07:42:05Z","2025-09-20T07:42:09Z","2025-09-20T07:42:10Z","2025-09-20T07:42:16Z","2025-09-20T07:42:18Z","2025-09-20T07:42:21Z","2025-09-20T07:42:24Z","2025-09-20T07:42:28Z","2025-09-20T07:42:32Z","2025-09-20T07:42:35Z","2025-09-20T07:42:36Z","2025-09-20T07:42:38Z","2025-09-20T07:42:39Z","2025-09-20T07:42:40Z","2025-09-20T07:42:42Z","2025-09-20T07:42:44Z","2025-09-20T07:42:45Z","2025-09-20T07:42:46Z","2025-09-20T07:42:47Z","2025-09-20T07:42:49Z","2025-09-20T07:42:51Z","2025-09-20T07:42:53Z","2025-09-20T07:42:54Z","2025-09-20T07:42:56Z","2025-09-20T07:42:58Z","2025-09-20T07:43:05Z","2025-09-20T07:43:06Z","2025-09-20T07:43:08Z","2025-09-20T07:43:11Z","2025-09-20T07:43:14Z","2025-09-20T07:43:18Z","2025-09-20T07:43:21Z","2025-09-20T07:43:23Z","2025-09-20T07:43:25Z","2025-09-20T07:43:26Z","2025-09-20T07:43:28Z","2025-09-20T07:43:29Z","2025-09-20T07:43:34Z","2025-09-20T07:43:35Z","2025-09-20T07:43:37Z","2025-09-20T07:43:38Z","2025-09-20T07:43:42Z","2025-09-20T07:43:43Z","2025-09-20T07:43:45Z","2025-09-20T07:43:48Z","2025-09-20T07:43:51Z","2025-09-20T07:43:52Z","2025-09-20T07:43:54Z","2025-09-20T07:43:55Z","2025-09-20T07:43:56Z","2025-09-20T07:43:58Z","2025-09-20T07:44:01Z","2025-09-20T07:44:03Z","2025-09-20T07:44:05Z","2025-09-20T07:44:08Z","2025-09-20T07:44:09Z","2025-09-20T07:44:14Z","2025-09-20T07:44:16Z","2025-09-20T07:44:20Z","2025-09-20T07:44:21Z","2025-09-20T07:44:26Z","2025-09-20T07:44:27Z","2025-09-20T07:44:28Z","2025-09-20T07:44:29Z","2025-09-20T07:44:31Z","2025-09-20T07:44:38Z","2025-09-20T07:44:39Z","2025-09-20T07:44:40Z","2025-09-20T07:44:41Z","2025-09-20T07:44:43Z","2025-09-20T07:44:44Z","2025-09-20T07:44:45Z","2025-09-20T07:44:46Z","2025-09-20T07:44:47Z","2025-09-20T07:44:51Z","2025-09-20T07:44:53Z","2025-09-20T07:44:56Z","2025-09-20T07:44:57Z","2025-09-20T07:45:00Z","2025-09-20T07:45:03Z","2025-09-20T07:45:06Z","2025-09-20T07:45:07Z","2025-09-20T07:45:14Z","2025-09-20T07:46:15Z","2025-09-20T07:46:17Z","2025-09-20T07:46:25Z","2025-09-20T07:46:28Z","2025-09-20T07:46:32Z","2025-09-20T07:46:35Z","2025-09-20T07:46:38Z","2025-09-20T07:46:41Z","2025-09-20T07:46:44Z","2025-09-20T07:46:47Z","2025-09-20T07:46:49Z","2025-09-20T07:46:50Z","2025-09-20T07:46:52Z","2025-09-20T07:46:57Z","2025-09-20T07:46:59Z","2025-09-20T07:47:00Z","2025-09-20T07:47:06Z","2025-09-20T07:47:08Z","2025-09-20T07:47:10Z","2025-09-20T07:47:14Z","2025-09-20T07:47:17Z","2025-09-20T07:47:18Z","2025-09-20T07:47:20Z","2025-09-20T07:47:22Z","2025-09-20T07:47:32Z","2025-09-20T07:47:35Z","2025-09-20T07:47:36Z","2025-09-20T07:47:38Z","2025-09-20T07:47:39Z","2025-09-20T07:47:40Z","2025-09-20T07:47:44Z","2025-09-20T07:47:46Z","2025-09-20T07:47:49Z","2025-09-20T07:47:50Z","2025-09-20T07:47:54Z","2025-09-20T07:47:55Z","2025-09-20T07:47:57Z","2025-09-20T07:47:59Z","2025-09-20T07:48:02Z","2025-09-20T07:48:06Z","2025-09-20T07:48:09Z","2025-09-20T07:48:10Z","2025-09-20T07:48:18Z","2025-09-20T07:48:21Z","2025-09-20T07:48:29Z","2025-09-20T07:49:48Z","2025-09-20T07:49:52Z","2025-09-20T07:50:12Z","2025-09-20T07:50:13Z","2025-09-20T07:50:18Z","2025-09-20T07:50:19Z","2025-09-20T07:50:20Z","2025-09-20T07:50:22Z","2025-09-20T07:50:23Z","2025-09-20T07:50:28Z","2025-09-20T07:50:32Z","2025-09-20T07:50:38Z","2025-09-20T07:50:39Z","2025-09-20T07:50:44Z","2025-09-20T07:50:45Z","2025-09-20T07:50:46Z","2025-09-20T07:50:50Z","2025-09-20T07:50:53Z","2025-09-20T07:50:57Z","2025-09-20T07:51:00Z","2025-09-20T07:51:04Z","2025-09-20T07:51:07Z","2025-09-20T07:51:10Z","2025-09-20T07:51:13Z","2025-09-20T07:51:14Z","2025-09-20T07:51:17Z","2025-09-20T07:51:19Z","2025-09-20T07:51:20Z","2025-09-20T07:51:21Z","2025-09-20T07:51:22Z","2025-09-20T07:51:23Z","2025-09-20T07:51:24Z","2025-09-20T07:51:26Z","2025-09-20T07:51:27Z","2025-09-20T07:51:28Z","2025-09-20T07:51:29Z","2025-09-20T07:51:30Z","2025-09-20T07:51:33Z","2025-09-20T07:51:34Z","2025-09-20T07:51:36Z","2025-09-20T07:51:37Z","2025-09-20T07:51:38Z","2025-09-20T07:51:42Z","2025-09-20T07:51:45Z","2025-09-20T07:51:49Z","2025-09-20T07:51:51Z","2025-09-20T07:52:05Z","2025-09-20T07:52:06Z","2025-09-20T07:52:10Z","2025-09-20T07:52:15Z","2025-09-20T07:52:16Z","2025-09-20T07:52:24Z","2025-09-20T07:52:25Z","2025-09-20T07:52:32Z","2025-09-20T07:52:35Z","2025-09-20T07:52:37Z","2025-09-20T07:52:44Z","2025-09-20T07:52:47Z","2025-09-20T07:52:48Z","2025-09-20T07:52:51Z","2025-09-20T07:52:54Z","2025-09-20T07:52:58Z","2025-09-20T07:52:59Z","2025-09-20T07:53:01Z","2025-09-20T07:53:07Z","2025-09-20T07:53:09Z","2025-09-20T07:53:11Z","2025-09-20T07:53:13Z","2025-09-20T07:53:16Z","2025-09-20T07:53:20Z","2025-09-20T07:53:22Z","2025-09-20T07:53:26Z","2025-09-20T07:53:28Z","2025-09-20T07:53:30Z","2025-09-20T07:53:33Z","2025-09-20T07:54:51Z","2025-09-20T07:54:56Z","2025-09-20T07:55:00Z","2025-09-20T07:55:04Z","2025-09-20T07:55:06Z","2025-09-20T07:55:22Z","2025-09-20T07:55:24Z","2025-09-20T07:55:25Z","2025-09-20T07:55:30Z","2025-09-20T07:55:31Z","2025-09-20T07:55:34Z","2025-09-20T07:55:37Z","2025-09-20T07:55:39Z","2025-09-20T07:55:43Z","2025-09-20T07:55:45Z","2025-09-20T07:55:47Z","2025-09-20T07:55:49Z","2025-09-20T07:55:55Z","2025-09-20T07:55:58Z","2025-09-20T07:56:00Z","2025-09-20T07:56:03Z","2025-09-20T07:56:06Z","2025-09-20T07:56:09Z","2025-09-20T07:56:13Z","2025-09-20T07:56:15Z","2025-09-20T07:56:17Z","2025-09-20T07:56:18Z","2025-09-20T07:56:19Z","2025-09-20T07:56:20Z","2025-09-20T07:56:24Z","2025-09-20T07:56:26Z","2025-09-20T07:56:28Z","2025-09-20T07:56:29Z","2025-09-20T07:56:32Z","2025-09-20T07:56:33Z","2025-09-20T07:56:34Z","2025-09-20T07:56:35Z","2025-09-20T07:56:37Z","2025-09-20T07:56:38Z","2025-09-20T07:56:40Z","2025-09-20T07:56:41Z","2025-09-20T07:56:45Z","2025-09-20T07:56:47Z","2025-09-20T07:56:48Z","2025-09-20T07:56:50Z","2025-09-20T07:56:52Z","2025-09-20T07:56:53Z","2025-09-20T07:56:54Z","2025-09-20T07:56:56Z","2025-09-20T07:56:57Z","2025-09-20T07:56:58Z","2025-09-20T07:56:59Z","2025-09-20T07:57:16Z","2025-09-20T07:57:19Z","2025-09-20T07:57:26Z","2025-09-20T07:57:30Z","2025-09-20T07:57:33Z","2025-09-20T07:57:59Z","2025-09-20T08:01:49Z","2025-09-20T08:01:59Z","2025-09-20T08:02:03Z","2025-09-20T08:02:05Z","2025-09-20T08:02:24Z","2025-09-20T08:02:26Z","2025-09-20T08:02:31Z","2025-09-20T08:02:32Z","2025-09-20T08:02:34Z","2025-09-20T08:02:37Z","2025-09-20T08:02:40Z","2025-09-20T08:02:45Z","2025-09-20T08:02:46Z","2025-09-20T08:02:49Z","2025-09-20T08:02:50Z","2025-09-20T08:02:51Z","2025-09-20T08:02:52Z","2025-09-20T08:02:56Z","2025-09-20T08:02:57Z","2025-09-20T08:03:00Z","2025-09-20T08:03:01Z","2025-09-20T08:03:03Z","2025-09-20T08:03:07Z","2025-09-20T08:03:08Z","2025-09-20T08:03:10Z","2025-09-20T08:03:13Z","2025-09-20T08:03:14Z","2025-09-20T08:03:16Z","2025-09-20T08:03:17Z","2025-09-20T08:03:19Z","2025-09-20T08:03:20Z","2025-09-20T08:03:21Z","2025-09-20T08:03:23Z","2025-09-20T08:03:25Z","2025-09-20T08:03:26Z","2025-09-20T08:03:27Z","2025-09-20T08:03:30Z","2025-09-20T08:03:32Z","2025-09-20T08:03:33Z","2025-09-20T08:03:36Z","2025-09-20T08:03:43Z","2025-09-20T08:03:45Z","2025-09-20T08:03:47Z","2025-09-20T08:03:49Z","2025-09-20T08:03:52Z","2025-09-20T08:03:54Z","2025-09-20T08:03:57Z","2025-09-20T08:03:59Z","2025-09-20T08:04:00Z","2025-09-20T08:04:01Z","2025-09-20T08:04:05Z","2025-09-20T08:04:06Z","2025-09-20T08:04:08Z","2025-09-20T08:04:09Z","2025-09-20T08:04:10Z","2025-09-20T08:04:12Z","2025-09-20T08:04:16Z","2025-09-20T08:04:17Z","2025-09-20T08:04:22Z","2025-09-20T08:04:23Z","2025-09-20T08:04:24Z","2025-09-20T08:05:21Z","2025-09-20T08:05:25Z","2025-09-20T08:05:28Z","2025-09-20T08:05:30Z","2025-09-20T08:05:33Z","2025-09-20T08:05:37Z","2025-09-20T08:05:38Z","2025-09-20T08:05:41Z","2025-09-20T08:05:46Z","2025-09-20T08:05:51Z","2025-09-20T08:05:52Z","2025-09-20T08:05:54Z","2025-09-20T08:05:55Z","2025-09-20T08:05:56Z","2025-09-20T08:05:57Z","2025-09-20T08:06:00Z","2025-09-20T08:06:01Z","2025-09-20T08:06:04Z","2025-09-20T08:06:05Z","2025-09-20T08:06:07Z","2025-09-20T08:06:09Z","2025-09-20T08:06:11Z","2025-09-20T08:06:14Z","2025-09-20T08:06:23Z","2025-09-20T08:06:25Z","2025-09-20T08:06:29Z","2025-09-20T08:06:32Z","2025-09-20T08:06:35Z","2025-09-20T08:06:39Z","2025-09-20T08:06:45Z","2025-09-20T08:06:46Z","2025-09-20T08:06:47Z","2025-09-20T08:06:50Z","2025-09-20T08:06:53Z","2025-09-20T08:06:54Z","2025-09-20T08:06:57Z","2025-09-20T08:07:01Z","2025-09-20T08:07:02Z","2025-09-20T08:07:04Z","2025-09-20T08:07:05Z","2025-09-20T08:07:06Z","2025-09-20T08:07:09Z","2025-09-20T08:07:13Z","2025-09-20T08:07:21Z","2025-09-20T08:07:23Z","2025-09-20T08:07:24Z","2025-09-20T08:07:25Z","2025-09-20T08:07:26Z","2025-09-20T08:07:31Z","2025-09-20T08:07:32Z","2025-09-20T08:07:34Z","2025-09-20T08:07:36Z","2025-09-20T08:07:39Z","2025-09-20T08:07:41Z","2025-09-20T08:07:44Z","2025-09-20T08:07:45Z","2025-09-20T08:07:48Z","2025-09-20T08:07:51Z","2025-09-20T08:07:55Z","2025-09-20T08:07:59Z","2025-09-20T08:08:02Z","2025-09-20T08:08:08Z","2025-09-20T08:08:12Z","2025-09-20T08:08:17Z","2025-09-20T08:08:20Z","2025-09-20T08:08:25Z","2025-09-20T08:08:28Z","2025-09-20T08:08:30Z","2025-09-20T08:08:33Z","2025-09-20T08:08:37Z","2025-09-20T08:08:39Z","2025-09-20T08:08:42Z","2025-09-20T08:08:43Z","2025-09-20T08:08:44Z","2025-09-20T08:08:45Z","2025-09-20T08:08:46Z","2025-09-20T08:08:48Z","2025-09-20T08:08:49Z","2025-09-20T08:08:53Z","2025-09-20T08:08:55Z","2025-09-20T08:08:58Z","2025-09-20T08:08:59Z","2025-09-20T08:11:39Z","2025-09-20T08:11:41Z","2025-09-20T08:11:43Z","2025-09-20T08:11:47Z","2025-09-20T08:12:00Z","2025-09-20T08:12:02Z","2025-09-20T08:12:04Z","2025-09-20T08:12:11Z","2025-09-20T08:12:12Z","2025-09-20T08:12:14Z","2025-09-20T08:12:18Z","2025-09-20T08:12:23Z","2025-09-20T08:12:30Z","2025-09-20T08:12:31Z","2025-09-20T08:12:34Z","2025-09-20T08:12:37Z","2025-09-20T08:12:38Z","2025-09-20T08:12:40Z","2025-09-20T08:12:41Z","2025-09-20T08:12:42Z","2025-09-20T08:12:46Z","2025-09-20T08:12:49Z","2025-09-20T08:12:51Z","2025-09-20T08:12:52Z","2025-09-20T08:12:55Z","2025-09-20T08:12:57Z","2025-09-20T08:12:59Z","2025-09-20T08:13:01Z","2025-09-20T08:13:04Z","2025-09-20T08:13:06Z","2025-09-20T08:13:08Z","2025-09-20T08:13:14Z","2025-09-20T08:13:17Z","2025-09-20T08:13:20Z","2025-09-20T08:13:22Z","2025-09-20T08:13:26Z","2025-09-20T08:13:29Z","2025-09-20T08:13:35Z","2025-09-20T08:13:39Z","2025-09-20T08:13:47Z","2025-09-20T08:13:50Z","2025-09-20T08:13:54Z","2025-09-20T08:14:00Z","2025-09-20T08:14:01Z","2025-09-20T08:14:02Z","2025-09-20T08:14:05Z","2025-09-20T08:14:08Z","2025-09-20T08:14:10Z","2025-09-20T08:14:15Z","2025-09-20T08:14:18Z","2025-09-20T08:14:24Z","2025-09-20T08:14:27Z","2025-09-20T08:14:30Z","2025-09-20T08:14:33Z","2025-09-20T08:14:37Z","2025-09-20T08:14:38Z","2025-09-20T08:14:41Z","2025-09-20T08:14:48Z","2025-09-20T08:14:50Z","2025-09-20T08:14:51Z","2025-09-20T08:14:54Z","2025-09-20T08:14:59Z","2025-09-20T08:15:01Z","2025-09-20T08:15:02Z","2025-09-20T08:15:03Z","2025-09-20T08:15:09Z","2025-09-20T08:15:10Z","2025-09-20T08:15:16Z","2025-09-20T08:15:19Z","2025-09-20T08:15:29Z","2025-09-20T08:15:36Z","2025-09-20T08:15:42Z","2025-09-20T08:20:31Z","2025-09-20T08:20:34Z","2025-09-20T08:21:48Z","2025-09-20T08:21:52Z","2025-09-20T08:21:57Z","2025-09-20T08:22:02Z","2025-09-20T08:22:09Z","2025-09-20T08:22:14Z","2025-09-20T08:22:16Z","2025-09-20T08:22:19Z","2025-09-20T08:22:24Z","2025-09-20T08:22:26Z","2025-09-20T08:22:28Z","2025-09-20T08:22:30Z","2025-09-20T08:22:31Z","2025-09-20T08:22:33Z","2025-09-20T08:22:37Z","2025-09-20T08:22:38Z","2025-09-20T08:22:39Z","2025-09-20T08:22:40Z","2025-09-20T08:22:44Z","2025-09-20T08:22:46Z","2025-09-20T08:22:51Z","2025-09-20T08:22:55Z","2025-09-20T08:23:00Z","2025-09-20T08:23:01Z","2025-09-20T08:23:04Z","2025-09-20T08:23:07Z","2025-09-20T08:23:10Z","2025-09-20T08:23:13Z","2025-09-20T08:23:15Z","2025-09-20T08:23:16Z","2025-09-20T08:23:17Z","2025-09-20T08:23:21Z","2025-09-20T08:23:24Z","2025-09-20T08:23:34Z","2025-09-20T08:23:36Z","2025-09-20T08:24:29Z","2025-09-20T08:24:42Z","2025-09-20T08:24:47Z","2025-09-20T08:24:48Z","2025-09-20T08:24:50Z","2025-09-20T08:24:54Z","2025-09-20T08:24:55Z","2025-09-20T08:24:57Z","2025-09-20T08:25:01Z","2025-09-20T08:25:02Z","2025-09-20T08:25:04Z","2025-09-20T08:25:07Z","2025-09-20T08:25:08Z","2025-09-20T08:25:10Z","2025-09-20T08:25:11Z","2025-09-20T08:25:12Z","2025-09-20T08:25:13Z","2025-09-20T08:25:15Z","2025-09-20T08:25:16Z","2025-09-20T08:25:18Z","2025-09-20T08:25:19Z","2025-09-20T08:25:22Z","2025-09-20T08:25:24Z","2025-09-20T08:25:25Z","2025-09-20T08:25:26Z","2025-09-20T08:25:27Z","2025-09-20T08:25:28Z","2025-09-20T08:25:30Z","2025-09-20T08:25:32Z","2025-09-20T08:25:33Z","2025-09-20T08:25:34Z","2025-09-20T08:25:36Z","2025-09-20T08:25:38Z","2025-09-20T08:25:39Z","2025-09-20T08:25:40Z","2025-09-20T08:25:41Z","2025-09-20T08:25:42Z","2025-09-20T08:25:44Z","2025-09-20T08:25:48Z","2025-09-20T08:25:49Z","2025-09-20T08:25:50Z","2025-09-20T08:25:53Z","2025-09-20T08:25:55Z","2025-09-20T08:25:57Z","2025-09-20T08:26:00Z","2025-09-20T08:26:02Z","2025-09-20T08:26:03Z","2025-09-20T08:26:04Z","2025-09-20T08:26:06Z","2025-09-20T08:26:09Z","2025-09-20T08:26:10Z","2025-09-20T08:26:11Z","2025-09-20T08:26:13Z","2025-09-20T08:26:17Z","2025-09-20T08:26:20Z","2025-09-20T08:26:27Z","2025-09-20T08:26:30Z","2025-09-20T08:26:31Z","2025-09-20T08:26:35Z","2025-09-20T08:26:36Z","2025-09-20T08:26:40Z","2025-09-20T08:26:41Z","2025-09-20T08:26:46Z","2025-09-20T08:26:47Z","2025-09-20T08:26:50Z","2025-09-20T08:26:52Z","2025-09-20T08:26:53Z","2025-09-20T08:26:56Z","2025-09-20T08:26:57Z","2025-09-20T08:27:01Z","2025-09-20T08:27:03Z","2025-09-20T08:27:05Z","2025-09-20T08:27:09Z","2025-09-20T08:27:13Z","2025-09-20T08:27:17Z","2025-09-20T08:27:21Z","2025-09-20T08:27:22Z","2025-09-20T08:27:23Z","2025-09-20T08:27:25Z","2025-09-20T08:27:26Z","2025-09-20T08:27:27Z","2025-09-20T08:27:28Z","2025-09-20T08:27:30Z","2025-09-20T08:27:36Z","2025-09-20T08:27:39Z","2025-09-20T08:27:41Z","2025-09-20T08:27:44Z","2025-09-20T08:27:46Z","2025-09-20T08:27:47Z","2025-09-20T08:27:49Z","2025-09-20T08:27:55Z","2025-09-20T08:28:03Z","2025-09-20T08:29:40Z","2025-09-20T08:29:42Z","2025-09-20T08:29:48Z","2025-09-20T08:29:56Z","2025-09-20T08:30:05Z","2025-09-20T08:30:09Z","2025-09-20T08:30:14Z","2025-09-20T08:30:16Z","2025-09-20T08:30:17Z","2025-09-20T08:30:21Z","2025-09-20T08:30:24Z","2025-09-20T08:30:28Z","2025-09-20T08:30:29Z","2025-09-20T08:30:31Z","2025-09-20T08:30:32Z","2025-09-20T08:30:33Z","2025-09-20T08:30:35Z","2025-09-20T08:30:36Z","2025-09-20T08:30:37Z","2025-09-20T08:30:40Z","2025-09-20T08:30:42Z","2025-09-20T08:30:45Z","2025-09-20T08:30:47Z","2025-09-20T08:30:52Z","2025-09-20T08:30:53Z","2025-09-20T08:30:54Z","2025-09-20T08:30:55Z","2025-09-20T08:30:56Z","2025-09-20T08:30:57Z","2025-09-20T08:31:02Z","2025-09-20T08:31:03Z","2025-09-20T08:31:06Z","2025-09-20T08:31:08Z","2025-09-20T08:31:09Z","2025-09-20T08:31:12Z","2025-09-20T08:31:15Z","2025-09-20T08:31:21Z","2025-09-20T08:31:22Z","2025-09-20T08:31:23Z","2025-09-20T08:31:24Z","2025-09-20T08:31:25Z","2025-09-20T08:31:29Z","2025-09-20T08:31:31Z","2025-09-20T08:31:35Z","2025-09-20T08:31:36Z","2025-09-20T08:31:38Z","2025-09-20T08:31:39Z","2025-09-20T08:31:40Z","2025-09-20T08:31:44Z","2025-09-20T08:31:45Z","2025-09-20T08:31:48Z","2025-09-20T08:31:49Z","2025-09-20T08:31:58Z","2025-09-20T08:32:01Z","2025-09-20T08:32:02Z","2025-09-20T08:32:03Z","2025-09-20T08:32:05Z","2025-09-20T08:32:11Z","2025-09-20T08:32:14Z","2025-09-20T08:32:16Z","2025-09-20T08:32:26Z","2025-09-20T08:32:29Z","2025-09-20T08:32:37Z","2025-09-20T08:32:38Z","2025-09-20T08:32:48Z","2025-09-20T08:32:51Z","2025-09-20T08:32:54Z","2025-09-20T08:32:56Z","2025-09-20T08:33:49Z","2025-09-20T08:33:53Z","2025-09-20T08:33:55Z","2025-09-20T08:33:59Z","2025-09-20T08:34:10Z","2025-09-20T08:34:13Z","2025-09-20T08:34:14Z","2025-09-20T08:34:16Z","2025-09-20T08:34:20Z","2025-09-20T08:34:21Z","2025-09-20T08:34:24Z","2025-09-20T08:34:29Z","2025-09-20T08:34:31Z","2025-09-20T08:34:34Z","2025-09-20T08:34:38Z","2025-09-20T08:34:39Z","2025-09-20T08:34:43Z","2025-09-20T08:34:46Z","2025-09-20T08:34:48Z","2025-09-20T08:34:51Z","2025-09-20T08:34:54Z","2025-09-20T08:34:56Z","2025-09-20T08:35:02Z","2025-09-20T08:35:03Z","2025-09-20T08:35:05Z","2025-09-20T08:35:07Z","2025-09-20T08:35:08Z","2025-09-20T08:35:10Z","2025-09-20T08:35:14Z","2025-09-20T08:35:19Z","2025-09-20T08:35:21Z","2025-09-20T08:35:22Z","2025-09-20T08:35:25Z","2025-09-20T08:35:26Z","2025-09-20T08:35:28Z","2025-09-20T08:35:31Z","2025-09-20T08:35:33Z","2025-09-20T08:35:35Z","2025-09-20T08:35:37Z","2025-09-20T08:35:38Z","2025-09-20T08:35:40Z","2025-09-20T08:35:42Z","2025-09-20T08:35:44Z","2025-09-20T08:35:45Z","2025-09-20T08:35:47Z","2025-09-20T08:35:51Z","2025-09-20T08:35:53Z","2025-09-20T08:35:56Z","2025-09-20T08:35:58Z","2025-09-20T08:35:59Z","2025-09-20T08:36:02Z","2025-09-20T08:36:05Z","2025-09-20T08:36:07Z","2025-09-20T08:36:09Z","2025-09-20T08:36:10Z","2025-09-20T08:36:13Z","2025-09-20T08:36:15Z","2025-09-20T08:36:16Z","2025-09-20T08:36:17Z","2025-09-20T08:36:19Z","2025-09-20T08:36:21Z","2025-09-20T08:36:22Z","2025-09-20T08:36:24Z","2025-09-20T08:36:25Z","2025-09-20T08:36:26Z","2025-09-20T08:36:27Z","2025-09-20T08:36:29Z","2025-09-20T08:36:31Z","2025-09-20T08:36:32Z","2025-09-20T08:36:35Z","2025-09-20T08:36:37Z","2025-09-20T08:36:38Z","2025-09-20T08:36:39Z","2025-09-20T08:36:40Z","2025-09-20T08:36:42Z","2025-09-20T08:36:44Z","2025-09-20T08:36:45Z","2025-09-20T08:36:47Z","2025-09-20T08:36:48Z","2025-09-20T08:36:49Z","2025-09-20T08:36:50Z","2025-09-20T08:36:52Z","2025-09-20T08:36:54Z","2025-09-20T08:36:56Z","2025-09-20T08:36:58Z","2025-09-20T08:36:59Z","2025-09-20T08:37:01Z","2025-09-20T08:37:06Z","2025-09-20T08:37:07Z","2025-09-20T08:37:08Z","2025-09-20T08:37:09Z","2025-09-20T08:37:13Z","2025-09-20T08:37:18Z","2025-09-20T08:37:19Z","2025-09-20T08:37:21Z","2025-09-20T08:37:22Z","2025-09-20T08:37:24Z","2025-09-20T08:37:26Z","2025-09-20T08:37:28Z","2025-09-20T08:37:31Z","2025-09-20T08:37:32Z","2025-09-20T08:37:34Z","2025-09-20T08:37:39Z","2025-09-20T08:37:40Z","2025-09-20T08:37:43Z","2025-09-20T08:37:46Z","2025-09-20T08:37:49Z","2025-09-20T08:37:50Z","2025-09-20T08:37:52Z","2025-09-20T08:37:56Z","2025-09-20T08:37:58Z","2025-09-20T08:37:59Z","2025-09-20T08:38:01Z","2025-09-20T08:38:03Z","2025-09-20T08:38:04Z","2025-09-20T08:38:07Z","2025-09-20T08:38:09Z","2025-09-20T08:38:10Z","2025-09-20T08:38:13Z","2025-09-20T08:38:14Z","2025-09-20T08:38:15Z","2025-09-20T08:38:18Z","2025-09-20T08:38:21Z","2025-09-20T08:38:22Z","2025-09-20T08:38:23Z","2025-09-20T08:38:25Z","2025-09-20T08:38:28Z","2025-09-20T08:38:29Z","2025-09-20T08:38:30Z","2025-09-20T08:38:32Z","2025-09-20T08:38:35Z","2025-09-20T08:38:39Z","2025-09-20T08:38:41Z","2025-09-20T08:38:43Z","2025-09-20T08:38:45Z","2025-09-20T08:38:46Z","2025-09-20T08:38:48Z","2025-09-20T08:38:50Z","2025-09-20T08:38:53Z","2025-09-20T08:38:55Z","2025-09-20T08:38:58Z","2025-09-20T08:38:59Z","2025-09-20T08:39:01Z","2025-09-20T08:39:02Z","2025-09-20T08:39:05Z","2025-09-20T08:39:06Z","2025-09-20T08:39:11Z","2025-09-20T08:39:12Z","2025-09-20T08:39:13Z","2025-09-20T08:39:20Z","2025-09-20T08:39:21Z","2025-09-20T08:39:25Z","2025-09-20T08:39:27Z","2025-09-20T08:39:28Z","2025-09-20T08:39:31Z","2025-09-20T08:39:33Z","2025-09-20T08:39:36Z","2025-09-20T08:39:38Z","2025-09-20T08:39:40Z","2025-09-20T08:39:41Z","2025-09-20T08:39:44Z","2025-09-20T08:39:46Z","2025-09-20T08:39:47Z","2025-09-20T08:39:51Z","2025-09-20T08:39:55Z","2025-09-20T08:39:56Z","2025-09-20T08:39:57Z","2025-09-20T08:40:00Z","2025-09-20T08:40:02Z","2025-09-20T08:40:04Z","2025-09-20T08:40:06Z","2025-09-20T08:40:09Z","2025-09-20T08:40:10Z","2025-09-20T08:40:12Z","2025-09-20T08:40:14Z","2025-09-20T08:40:16Z","2025-09-20T08:40:17Z","2025-09-20T08:40:18Z","2025-09-20T08:40:21Z","2025-09-20T08:40:24Z","2025-09-20T08:40:26Z","2025-09-20T08:40:27Z","2025-09-20T08:40:28Z","2025-09-20T08:40:30Z","2025-09-20T08:40:31Z","2025-09-20T08:40:34Z","2025-09-20T08:40:35Z","2025-09-20T08:40:37Z","2025-09-20T08:40:41Z","2025-09-20T08:40:43Z","2025-09-20T08:40:46Z","2025-09-20T08:40:52Z","2025-09-20T08:40:54Z","2025-09-20T08:40:55Z","2025-09-20T08:40:59Z","2025-09-20T08:41:01Z","2025-09-20T08:41:06Z","2025-09-20T08:41:08Z","2025-09-20T08:43:56Z","2025-09-20T08:43:58Z","2025-09-20T08:44:05Z","2025-09-20T08:44:10Z","2025-09-20T08:44:21Z","2025-09-20T08:44:23Z","2025-09-20T08:44:24Z","2025-09-20T08:44:25Z","2025-09-20T08:44:26Z","2025-09-20T08:44:29Z","2025-09-20T08:44:31Z","2025-09-20T08:44:32Z","2025-09-20T08:44:36Z","2025-09-20T08:44:40Z","2025-09-20T08:44:42Z","2025-09-20T08:44:43Z","2025-09-20T08:44:46Z","2025-09-20T08:44:47Z","2025-09-20T08:44:49Z","2025-09-20T08:44:50Z","2025-09-20T08:44:51Z","2025-09-20T08:44:53Z","2025-09-20T08:44:55Z","2025-09-20T08:44:57Z","2025-09-20T08:44:59Z","2025-09-20T08:45:01Z","2025-09-20T08:45:06Z","2025-09-20T08:45:08Z","2025-09-20T08:45:11Z","2025-09-20T08:45:13Z","2025-09-20T08:45:15Z","2025-09-20T08:45:18Z","2025-09-20T08:45:19Z","2025-09-20T08:45:20Z","2025-09-20T08:45:22Z","2025-09-20T08:45:24Z","2025-09-20T08:45:29Z","2025-09-20T08:45:31Z","2025-09-20T08:45:32Z","2025-09-20T08:45:33Z","2025-09-20T08:45:35Z","2025-09-20T08:45:37Z","2025-09-20T08:45:38Z","2025-09-20T08:45:41Z","2025-09-20T08:45:44Z","2025-09-20T08:45:45Z","2025-09-20T08:45:48Z","2025-09-20T08:45:49Z","2025-09-20T08:45:50Z","2025-09-20T08:45:51Z","2025-09-20T08:45:53Z","2025-09-20T08:45:55Z","2025-09-20T08:45:57Z","2025-09-20T08:45:58Z","2025-09-20T08:45:59Z","2025-09-20T08:46:02Z","2025-09-20T08:46:03Z","2025-09-20T08:46:06Z","2025-09-20T08:46:07Z","2025-09-20T08:46:10Z","2025-09-20T08:46:12Z","2025-09-20T08:46:13Z","2025-09-20T08:46:16Z","2025-09-20T08:46:17Z","2025-09-20T08:46:18Z","2025-09-20T08:46:20Z","2025-09-20T08:46:22Z","2025-09-20T08:46:26Z","2025-09-20T08:46:29Z","2025-09-20T08:46:30Z","2025-09-20T08:46:31Z","2025-09-20T08:46:34Z","2025-09-20T08:46:37Z","2025-09-20T08:46:38Z","2025-09-20T08:46:40Z","2025-09-20T08:46:43Z","2025-09-20T08:46:45Z","2025-09-20T08:46:47Z","2025-09-20T08:46:48Z","2025-09-20T08:46:50Z","2025-09-20T08:46:52Z","2025-09-20T08:46:54Z","2025-09-20T08:46:55Z","2025-09-20T08:46:57Z","2025-09-20T08:46:58Z","2025-09-20T08:46:59Z","2025-09-20T08:47:02Z","2025-09-20T08:47:04Z","2025-09-20T08:47:05Z","2025-09-20T08:47:08Z","2025-09-20T08:47:09Z","2025-09-20T08:47:10Z","2025-09-20T08:47:12Z","2025-09-20T08:47:15Z","2025-09-20T08:47:17Z","2025-09-20T08:47:18Z","2025-09-20T08:47:19Z","2025-09-20T08:47:20Z","2025-09-20T08:47:22Z","2025-09-20T08:47:24Z","2025-09-20T08:47:25Z","2025-09-20T08:47:30Z","2025-09-20T08:47:31Z","2025-09-20T08:47:33Z","2025-09-20T08:47:34Z","2025-09-20T08:47:35Z","2025-09-20T08:47:39Z","2025-09-20T08:47:40Z","2025-09-20T08:47:41Z","2025-09-20T08:47:45Z","2025-09-20T08:47:46Z","2025-09-20T08:47:48Z","2025-09-20T08:47:51Z","2025-09-20T08:47:54Z","2025-09-20T08:47:56Z","2025-09-20T08:48:00Z","2025-09-20T08:48:01Z","2025-09-20T08:48:04Z","2025-09-20T08:48:08Z","2025-09-20T08:48:11Z","2025-09-20T08:48:14Z","2025-09-20T08:48:17Z","2025-09-20T08:48:18Z","2025-09-20T08:48:22Z","2025-09-20T08:48:25Z","2025-09-20T08:48:27Z","2025-09-20T08:48:29Z","2025-09-20T08:48:31Z","2025-09-20T08:48:33Z","2025-09-20T08:48:38Z","2025-09-20T08:48:47Z","2025-09-20T08:48:49Z","2025-09-20T08:48:53Z","2025-09-20T08:48:54Z","2025-09-20T08:48:56Z","2025-09-20T08:48:57Z","2025-09-20T08:49:00Z","2025-09-20T08:50:28Z","2025-09-20T08:50:32Z","2025-09-20T08:50:35Z","2025-09-20T08:50:38Z","2025-09-20T08:50:41Z","2025-09-20T08:50:44Z","2025-09-20T08:50:45Z","2025-09-20T08:50:47Z","2025-09-20T08:50:52Z","2025-09-20T08:50:59Z","2025-09-20T08:51:00Z","2025-09-20T08:51:02Z","2025-09-20T08:51:03Z","2025-09-20T08:51:05Z","2025-09-20T08:51:08Z","2025-09-20T08:51:09Z","2025-09-20T08:51:10Z","2025-09-20T08:51:13Z","2025-09-20T08:51:15Z","2025-09-20T08:51:16Z","2025-09-20T08:51:19Z","2025-09-20T08:51:20Z","2025-09-20T08:51:21Z","2025-09-20T08:51:22Z","2025-09-20T08:51:25Z","2025-09-20T08:51:26Z","2025-09-20T08:51:28Z","2025-09-20T08:51:29Z","2025-09-20T08:51:33Z","2025-09-20T08:51:34Z","2025-09-20T08:51:37Z","2025-09-20T08:51:41Z","2025-09-20T08:51:43Z","2025-09-20T08:51:44Z","2025-09-20T08:51:47Z","2025-09-20T08:51:48Z","2025-09-20T08:51:49Z","2025-09-20T08:51:52Z","2025-09-20T08:51:55Z","2025-09-20T08:51:56Z","2025-09-20T08:51:58Z","2025-09-20T08:51:59Z","2025-09-20T08:52:01Z","2025-09-20T08:52:02Z","2025-09-20T08:52:04Z","2025-09-20T08:52:07Z","2025-09-20T08:52:12Z","2025-09-20T08:52:14Z","2025-09-20T08:52:17Z","2025-09-20T08:52:18Z","2025-09-20T08:52:22Z","2025-09-20T08:52:26Z","2025-09-20T08:52:27Z","2025-09-20T08:52:29Z","2025-09-20T08:52:30Z","2025-09-20T08:52:34Z","2025-09-20T08:52:38Z","2025-09-20T08:52:40Z","2025-09-20T08:52:45Z","2025-09-20T08:52:47Z","2025-09-20T08:52:56Z","2025-09-20T08:52:59Z","2025-09-20T08:53:03Z","2025-09-20T08:53:05Z","2025-09-20T08:53:08Z","2025-09-20T08:53:16Z","2025-09-20T08:53:19Z","2025-09-20T08:53:20Z","2025-09-20T08:53:22Z","2025-09-20T08:53:25Z","2025-09-20T08:53:28Z","2025-09-20T08:53:31Z","2025-09-20T08:53:34Z","2025-09-20T08:53:36Z","2025-09-20T08:53:37Z","2025-09-20T08:53:38Z","2025-09-20T08:53:39Z","2025-09-20T08:53:43Z","2025-09-20T08:53:48Z","2025-09-20T08:53:49Z","2025-09-20T08:53:53Z","2025-09-20T08:53:56Z","2025-09-20T08:53:57Z","2025-09-20T08:53:59Z","2025-09-20T08:54:00Z","2025-09-20T08:54:03Z","2025-09-20T08:54:04Z","2025-09-20T08:54:08Z","2025-09-20T08:54:09Z","2025-09-20T08:54:12Z","2025-09-20T08:54:19Z","2025-09-20T08:54:21Z","2025-09-20T08:54:24Z","2025-09-20T08:54:27Z","2025-09-20T08:54:29Z","2025-09-20T08:54:30Z","2025-09-20T08:54:32Z","2025-09-20T08:54:42Z","2025-09-20T08:54:46Z","2025-09-20T08:54:54Z","2025-09-20T08:55:00Z","2025-09-20T08:55:06Z","2025-09-20T08:55:12Z","2025-09-20T09:01:42Z","2025-09-20T09:01:45Z","2025-09-20T09:01:48Z","2025-09-20T09:01:58Z","2025-09-20T09:02:01Z","2025-09-20T09:02:03Z","2025-09-20T09:02:04Z","2025-09-20T09:02:05Z","2025-09-20T09:02:08Z","2025-09-20T09:02:13Z","2025-09-20T09:02:14Z","2025-09-20T09:02:16Z","2025-09-20T09:02:17Z","2025-09-20T09:02:20Z","2025-09-20T09:02:22Z","2025-09-20T09:02:24Z","2025-09-20T09:03:13Z","2025-09-20T09:03:15Z","2025-09-20T09:03:16Z","2025-09-20T09:03:17Z","2025-09-20T09:03:19Z","2025-09-20T09:03:31Z","2025-09-20T09:03:36Z","2025-09-20T09:03:37Z","2025-09-20T09:03:38Z","2025-09-20T09:03:41Z","2025-09-20T09:03:42Z","2025-09-20T09:03:43Z","2025-09-20T09:03:46Z","2025-09-20T09:03:47Z","2025-09-20T09:03:52Z","2025-09-20T09:03:55Z","2025-09-20T09:03:57Z","2025-09-20T09:04:00Z","2025-09-20T09:04:04Z","2025-09-20T09:04:06Z","2025-09-20T09:04:07Z","2025-09-20T09:04:09Z","2025-09-20T09:04:12Z","2025-09-20T09:04:14Z","2025-09-20T09:04:17Z","2025-09-20T09:04:20Z","2025-09-20T09:04:22Z","2025-09-20T09:04:25Z","2025-09-20T09:04:29Z","2025-09-20T09:04:32Z","2025-09-20T09:04:33Z","2025-09-20T09:04:35Z","2025-09-20T09:04:38Z","2025-09-20T09:04:39Z","2025-09-20T09:04:40Z","2025-09-20T09:04:43Z","2025-09-20T09:04:52Z","2025-09-20T09:04:54Z","2025-09-20T09:05:01Z","2025-09-20T09:05:03Z","2025-09-20T09:05:09Z","2025-09-20T09:05:11Z","2025-09-20T09:05:13Z","2025-09-20T09:05:16Z","2025-09-20T09:05:20Z","2025-09-20T09:05:21Z","2025-09-20T09:05:22Z","2025-09-20T09:05:24Z","2025-09-20T09:05:31Z","2025-09-20T09:05:34Z","2025-09-20T09:05:37Z","2025-09-20T09:05:38Z","2025-09-20T09:05:39Z","2025-09-20T09:05:40Z","2025-09-20T09:05:42Z","2025-09-20T09:05:48Z","2025-09-20T09:05:56Z","2025-09-20T09:06:02Z","2025-09-20T09:06:04Z","2025-09-20T09:06:05Z","2025-09-20T09:06:06Z","2025-09-20T09:06:08Z","2025-09-20T09:06:10Z","2025-09-20T09:06:14Z","2025-09-20T09:06:20Z","2025-09-20T09:06:22Z","2025-09-20T09:06:24Z","2025-09-20T09:06:25Z","2025-09-20T09:06:30Z","2025-09-20T09:06:31Z","2025-09-20T09:06:35Z","2025-09-20T09:06:37Z","2025-09-20T09:06:40Z","2025-09-20T09:06:41Z","2025-09-20T09:06:55Z","2025-09-20T09:07:02Z","2025-09-20T09:08:28Z","2025-09-20T09:08:39Z","2025-09-20T09:08:43Z","2025-09-20T09:08:47Z","2025-09-20T09:08:52Z","2025-09-20T09:08:55Z","2025-09-20T09:09:01Z","2025-09-20T09:09:04Z","2025-09-20T09:09:07Z","2025-09-20T09:09:08Z","2025-09-20T09:09:15Z","2025-09-20T09:09:18Z","2025-09-20T09:09:23Z","2025-09-20T09:09:34Z","2025-09-20T09:09:36Z","2025-09-20T09:09:44Z","2025-09-20T09:09:46Z","2025-09-20T09:09:49Z","2025-09-20T09:09:51Z","2025-09-20T09:14:01Z","2025-09-20T09:14:03Z","2025-09-20T09:14:05Z","2025-09-20T09:14:11Z","2025-09-20T09:14:21Z","2025-09-20T09:14:25Z","2025-09-20T09:14:45Z","2025-09-20T09:14:54Z","2025-09-20T09:15:04Z","2025-09-20T09:15:06Z","2025-09-20T09:15:08Z","2025-09-20T09:15:10Z","2025-09-20T09:15:12Z","2025-09-20T09:15:14Z","2025-09-20T09:15:18Z","2025-09-20T09:15:29Z","2025-09-20T09:15:37Z","2025-09-20T09:15:40Z","2025-09-20T09:15:41Z","2025-09-20T09:15:42Z","2025-09-20T09:15:46Z","2025-09-20T09:15:51Z","2025-09-20T09:16:02Z","2025-09-20T09:16:07Z","2025-09-20T09:16:15Z","2025-09-20T09:16:42Z","2025-09-20T09:16:50Z","2025-09-20T09:16:51Z","2025-09-20T09:16:52Z","2025-09-20T09:16:54Z","2025-09-20T09:16:56Z","2025-09-20T09:17:04Z","2025-09-20T09:17:05Z","2025-09-20T09:17:08Z","2025-09-20T09:17:14Z","2025-09-20T09:17:19Z","2025-09-20T09:17:24Z","2025-09-20T09:17:30Z","2025-09-20T09:17:36Z","2025-09-20T09:17:37Z","2025-09-20T09:17:39Z","2025-09-20T09:17:40Z","2025-09-20T09:17:41Z","2025-09-20T09:17:42Z","2025-09-20T09:17:43Z","2025-09-20T09:17:59Z","2025-09-20T09:18:05Z","2025-09-20T09:18:10Z","2025-09-20T09:18:13Z","2025-09-20T09:18:17Z","2025-09-20T09:18:18Z","2025-09-20T09:18:19Z","2025-09-20T09:18:20Z","2025-09-20T09:18:25Z","2025-09-20T09:18:29Z","2025-09-20T09:18:31Z","2025-09-20T09:18:34Z","2025-09-20T09:18:43Z","2025-09-20T09:18:47Z","2025-09-20T09:19:09Z","2025-09-20T09:19:11Z","2025-09-20T09:19:22Z","2025-09-20T09:19:25Z","2025-09-20T09:19:26Z","2025-09-20T09:19:34Z","2025-09-20T09:19:35Z","2025-09-20T09:19:37Z","2025-09-20T09:19:38Z","2025-09-20T09:19:47Z","2025-09-20T09:19:53Z","2025-09-20T09:20:00Z","2025-09-20T09:20:03Z","2025-09-20T09:20:04Z","2025-09-20T09:20:05Z","2025-09-20T09:20:06Z","2025-09-20T09:20:10Z","2025-09-20T09:20:12Z","2025-09-20T09:20:16Z","2025-09-20T09:20:19Z","2025-09-20T09:20:22Z","2025-09-20T09:20:23Z","2025-09-20T09:20:24Z","2025-09-20T09:20:25Z","2025-09-20T09:20:26Z","2025-09-20T09:20:28Z","2025-09-20T09:20:31Z","2025-09-20T09:20:36Z","2025-09-20T09:20:38Z","2025-09-20T09:20:40Z","2025-09-20T09:20:44Z","2025-09-20T09:20:48Z","2025-09-20T09:20:51Z","2025-09-20T09:20:55Z","2025-09-20T09:21:02Z","2025-09-20T09:21:04Z","2025-09-20T09:21:10Z","2025-09-20T09:21:20Z","2025-09-20T09:21:22Z","2025-09-20T09:23:39Z","2025-09-20T09:23:48Z","2025-09-20T09:24:47Z","2025-09-20T09:24:53Z","2025-09-20T09:25:11Z","2025-09-20T09:25:12Z","2025-09-20T09:25:19Z","2025-09-20T09:25:23Z","2025-09-20T09:51:58Z","2025-09-20T09:52:00Z","2025-09-20T09:52:03Z","2025-09-20T09:52:04Z","2025-09-20T09:52:06Z","2025-09-20T09:52:07Z","2025-09-20T09:52:08Z","2025-09-20T09:52:09Z","2025-09-20T09:52:10Z","2025-09-20T09:52:18Z","2025-09-20T09:52:29Z","2025-09-20T09:52:32Z","2025-09-20T09:52:35Z","2025-09-20T09:52:38Z","2025-09-20T09:55:45Z","2025-09-20T09:55:47Z","2025-09-20T09:55:49Z","2025-09-20T09:55:53Z","2025-09-20T09:56:00Z","2025-09-20T09:56:05Z","2025-09-20T09:56:10Z","2025-09-20T09:56:11Z","2025-09-20T09:56:12Z","2025-09-20T09:56:14Z","2025-09-20T09:56:17Z","2025-09-20T09:56:18Z","2025-09-20T09:56:20Z","2025-09-20T09:56:21Z","2025-09-20T09:56:30Z","2025-09-20T09:56:32Z","2025-09-20T09:56:34Z","2025-09-20T09:56:35Z","2025-09-20T09:56:37Z","2025-09-20T09:56:46Z","2025-09-20T09:56:47Z","2025-09-20T09:56:51Z","2025-09-20T09:56:54Z","2025-09-20T09:56:59Z","2025-09-20T09:57:02Z","2025-09-20T09:57:03Z","2025-09-20T09:57:05Z","2025-09-20T09:57:11Z","2025-09-20T09:57:13Z","2025-09-20T09:57:19Z","2025-09-20T09:57:21Z","2025-09-20T09:57:23Z","2025-09-20T09:57:37Z","2025-09-20T09:57:43Z","2025-09-20T09:57:46Z","2025-09-20T09:57:50Z","2025-09-20T09:57:53Z","2025-09-20T09:57:55Z","2025-09-20T09:57:57Z","2025-09-20T09:58:00Z","2025-09-20T09:58:06Z","2025-09-20T09:58:12Z","2025-09-20T09:58:18Z","2025-09-20T09:58:22Z","2025-09-20T09:58:23Z","2025-09-20T09:58:25Z","2025-09-20T09:58:27Z","2025-09-20T09:58:32Z","2025-09-20T09:58:34Z","2025-09-20T09:58:36Z","2025-09-20T09:58:38Z","2025-09-20T09:58:39Z","2025-09-20T09:58:42Z","2025-09-20T09:58:46Z","2025-09-20T09:58:48Z","2025-09-20T09:58:50Z","2025-09-20T09:58:52Z","2025-09-20T09:58:54Z","2025-09-20T09:58:56Z","2025-09-20T09:58:59Z","2025-09-20T09:59:03Z","2025-09-20T10:00:06Z","2025-09-20T10:00:15Z","2025-09-20T10:00:22Z","2025-09-20T10:00:28Z","2025-09-20T10:00:38Z","2025-09-20T10:00:43Z","2025-09-20T10:00:46Z","2025-09-20T10:00:50Z","2025-09-20T10:00:57Z","2025-09-20T10:01:04Z","2025-09-20T10:01:09Z","2025-09-20T10:01:18Z","2025-09-20T10:01:20Z","2025-09-20T10:01:23Z","2025-09-20T10:01:27Z","2025-09-20T10:01:28Z","2025-09-20T10:01:33Z","2025-09-20T10:01:44Z","2025-09-20T10:01:51Z","2025-09-20T10:01:53Z","2025-09-20T10:02:04Z","2025-09-20T10:02:08Z","2025-09-20T10:02:16Z","2025-09-20T10:02:19Z","2025-09-20T10:02:21Z","2025-09-20T10:02:23Z","2025-09-20T10:02:25Z","2025-09-20T10:02:27Z","2025-09-20T10:02:29Z","2025-09-20T10:02:32Z","2025-09-20T10:02:38Z","2025-09-20T10:02:40Z","2025-09-20T10:02:52Z","2025-09-20T10:03:04Z","2025-09-20T10:03:13Z","2025-09-20T10:03:16Z","2025-09-20T10:03:24Z","2025-09-20T10:03:26Z","2025-09-20T10:03:36Z","2025-09-20T10:03:52Z","2025-09-20T10:03:57Z","2025-09-20T10:04:01Z","2025-09-20T10:04:02Z","2025-09-20T10:04:03Z","2025-09-20T10:04:04Z","2025-09-20T10:04:07Z","2025-09-20T10:04:14Z","2025-09-20T10:04:20Z","2025-09-20T10:04:24Z","2025-09-20T10:04:25Z","2025-09-20T10:04:26Z","2025-09-20T10:04:27Z","2025-09-20T10:04:35Z","2025-09-20T10:04:42Z","2025-09-20T10:04:46Z","2025-09-20T10:04:48Z","2025-09-20T10:04:51Z","2025-09-20T10:05:31Z","2025-09-20T10:05:34Z","2025-09-20T10:05:37Z","2025-09-20T10:05:39Z","2025-09-20T10:05:41Z","2025-09-20T10:05:42Z","2025-09-20T10:05:43Z","2025-09-20T10:05:45Z","2025-09-20T10:05:46Z","2025-09-20T10:05:47Z","2025-09-20T10:05:48Z","2025-09-20T10:05:49Z","2025-09-20T10:05:50Z","2025-09-20T10:05:55Z","2025-09-20T10:05:56Z","2025-09-20T10:06:04Z","2025-09-20T10:06:06Z","2025-09-20T10:06:08Z","2025-09-20T10:06:11Z","2025-09-20T10:06:14Z","2025-09-20T10:06:16Z","2025-09-20T10:06:18Z","2025-09-20T10:06:26Z","2025-09-20T10:06:29Z","2025-09-20T10:06:30Z","2025-09-20T10:06:31Z","2025-09-20T10:06:33Z","2025-09-20T10:06:35Z","2025-09-20T10:06:39Z","2025-09-20T10:06:41Z","2025-09-20T10:06:51Z","2025-09-20T10:06:52Z","2025-09-20T10:06:58Z","2025-09-20T10:07:00Z","2025-09-20T10:07:02Z","2025-09-20T10:07:03Z","2025-09-20T10:07:14Z","2025-09-20T10:07:18Z","2025-09-20T10:07:20Z","2025-09-20T10:07:23Z","2025-09-20T10:07:35Z","2025-09-20T10:07:36Z","2025-09-20T10:07:40Z","2025-09-20T10:07:41Z","2025-09-20T10:07:44Z","2025-09-20T10:07:45Z","2025-09-20T10:07:48Z","2025-09-20T10:07:54Z","2025-09-20T10:07:59Z","2025-09-20T10:08:03Z","2025-09-20T10:08:08Z","2025-09-20T10:08:15Z","2025-09-20T10:08:31Z","2025-09-20T10:08:32Z","2025-09-20T10:08:36Z","2025-09-20T10:08:43Z","2025-09-20T10:08:48Z","2025-09-20T10:08:55Z","2025-09-20T10:08:56Z","2025-09-20T10:08:59Z","2025-09-20T10:09:00Z","2025-09-20T10:09:02Z","2025-09-20T10:09:05Z","2025-09-20T10:09:09Z","2025-09-20T10:09:12Z","2025-09-20T10:09:15Z","2025-09-20T10:09:59Z","2025-09-20T10:10:02Z","2025-09-20T10:10:09Z","2025-09-20T10:11:30Z","2025-09-20T10:11:36Z","2025-09-20T10:11:37Z","2025-09-20T10:11:39Z"],"heartRates":[90,91,91,91,93,93,97,97,95,93,93,94,94,94,96,90,86,83,85,90,90,90,93,88,88,88,86,88,88,91,90,90,90,90,91,91,90,89,89,89,89,89,89,91,92,93,93,93,95,95,95,95,98,98,101,100,100,101,101,93,94,90,89,89,91,91,91,91,91,90,90,93,94,95,95,95,95,95,95,95,95,95,95,95,95,95,94,94,95,95,95,95,95,95,96,96,96,96,96,98,98,99,99,99,100,100,100,101,102,102,102,102,102,102,103,104,104,105,106,106,106,111,111,111,111,111,111,113,111,111,111,109,109,110,110,110,109,109,109,109,109,105,105,105,105,103,103,101,101,101,102,102,102,102,102,103,103,103,103,102,102,102,102,103,103,104,104,103,103,100,100,101,101,101,101,99,99,99,99,100,100,100,101,101,103,103,103,103,104,104,105,105,106,106,106,107,107,107,108,108,108,106,106,108,106,106,106,106,106,106,106,106,106,106,104,104,104,102,97,97,94,94,104,112,113,114,114,114,114,116,116,116,116,116,115,115,115,114,114,114,112,112,110,110,110,103,103,103,103,103,103,101,101,101,101,108,108,108,108,104,103,103,103,103,101,101,101,103,95,95,95,95,95,97,98,98,91,90,90,91,91,97,97,97,97,97,97,93,94,94,94,92,93,93,93,93,93,93,93,95,95,95,95,95,95,95,96,97,97,99,99,99,88,88,90,90,90,90,90,91,91,91,92,92,92,92,92,93,92,92,93,93,93,93,93,94,94,93,93,93,96,96,95,102,102,103,99,99,99,96,96,95,95,93,95,95,95,95,96,96,96,96,96,98,98,98,98,98,98,98,98,98,98,98,99,99,99,99,99,99,99,99,101,101,101,101,101,101,101,101,101,103,103,105,105,102,104,104,96,88,90,90,90,95,95,96,96,99,99,103,103,103,102,102,102,102,102,102,102,102,102,101,97,97,97,97,94,94,96,96,96,96,96,96,96,99,99,100,100,103,103,103,103,107,109,109,109,109,109,109,109,109,109,109,109,109,96,96,97,97,97,93,93,94,94,96,96,96,93,93,90,89,89,89,89,89,89,87,87,87,87,87,87,89,91,91,90,90,87,87,87,87,86,86,86,89,89,89,89,89,89,92,91,87,88,88,88,88,90,90,90,90,92,92,93,93,97,97,97,97,100,101,109,109,105,105,112,112,112,111,110,110,110,110,110,108,108,108,106,106,103,103,101,101,92,92,101,101,101,109,110,111,114,114,114,114,116,116,116,118,118,118,118,119,119,124,124,126,126,126,125,125,125,125,125,125,125,125,123,123,121,119,118,118,119,119,119,115,115,115,110,110,105,102,102,100,100,99,99,99,100,100,97,98,98,98,98,98,98,96,94,88,86,89,89,89,98,93,97,98,100,101,101,103,106,106,106,106,106,108,109,109,109,109,112,112,112,112,108,108,109,109,109,118,118,118,118,117,117,112,112,87,96,97,101,101,101,104,104,105,105,105,105,105,105,105,97,98,98,98,98,101,101,101,101,105,105,105,105,105,105,105,105,105,105,105,105,105,106,106,106,106,103,103,102,101,101,101,99,99,98,98,98,98,97,97,98,98,98,99,99,99,99,99,99,104,104,104,99,99,99,97,97,95,95,94,94,97,97,95,95,95,95,95,90,90,90,83,83,83,83,84,90,90,90,100,108,99,99,93,93,93,93,90,90,90,92,92,94,94,94,94,94,96,96,96,100,100,100,100,100,100,104,104,108,108,108,104,104,104,104,104,104,104,102,102,105,105,105,105,105,113,113,116,116,120,120,120,120,120,124,123,123,123,123,112,112,106,106,103,104,104,100,100,100,101,101,101,102,105,105,105,109,109,109,108,108,110,110,107,107,107,106,107,107,107,107,107,105,105,105,105,106,106,103,103,103,101,101,101,101,101,95,95,96,96,94,94,94,97,97,97,100,100,102,102,102,103,103,103,104,104,104,104,104,104,104,106,106,106,104,104,104,106,106,106,107,107,107,110,110,110,110,110,110,110,110,110,110,116,116,116,130,130,130,130,137,137,137,139,139,138,137,137,134,134,131,131,131,127,126,122,122,122,122,122,112,112,112,112,112,112,112,108,108,108,108,107,106,106,106,106,108,108,108,108,108,108,108,107,107,107,107,107,105,105,105,104,104,104,103,103,103,108,108,108,108,109,109,109,109,109,109,109,110,110,110,114,114,114,114,114,114,114,110,110,110,108,108,108,109,109,109,109,109,105,105,105,105,104,107,107,113,113,113,105,103,103,102,102,101,101,96,98,98,98,98,98,98,98,93,94,94,92,92,92,92,91,91,91,91,91,91,98,98,96,94,94,94,94,94,94,94,96,96,98,98,98,101,101,101,101,101,105,105,106,106,106,106,106,106,105,105,105,104,104,103,103,102,102,102,94,94,94,94,98,98,98,98,100,100,103,105,105,105,109,109,109,109,112,112,112,113,113,113,113,113,113,111,111,111,111,111,110,110,110,110,110,111,111,111,111,112,112,112,112,112,108,108,108,108,103,103,103,101,100,101,101,100,98,98,98,95,99,99,99,99,94,94,91,91,93,93,93,90,91,91,96,100,100,98,98,98,94,96,97,97,97,97,101,101,101,102,102,102,104,105,105,105,105,105,105,105,105,108,108,108,109,112,112,112,112,112,113,113,113,113,112,112,112,112,109,108,108,105,105,99,99,96,96,96,96,86,86,87,87,96,96,95,94,94,92,92,92,92,93,93,93,93,87,87,86,86,86,88,88,85,85,88,88,89,89,89,91,91,89,90,90,92,92,92,92,96,89,89,88,88,86,86,89,90,90,96,97,96,96,96,96,103,104,104,104,107,107,102,102,96,96,96,96,105,105,105,104,104,104,104,104,105,106,106,108,108,108,113,113,114,114,114,114,114,115,116,116,116,117,117,117,117,117,119,124,124,123,123,124,124,124,124,124,124,126,127,129,130,130,130,130,130,130,131,133,134,135,135,135,136,136,136,135,134,134,134,133,133,132,132,132,132,113,109,109,96,96,97,94,95,95,95,95,95,92,92,92,91,86,91,91,91,81,89,89,94,93,90,90,94,87,85,85,85,85,87,87,85,84,84,85,85,85,85,83,83,84,84,90,90,90,88,88,88,91,91,91,88,88,89,89,88,88,88,88,88,97,97,100,100,98,99,97,97,97,97,95,95,95,95,92,92,89,89,88,88,88,91,91,91,92,90,90,89,88,88,88,88,88,88,88,89,88,88,88,90,90,91,91,91,91,89,89,88,87,85,85,88,86,93,93,93,86,89,87,87,87,86,88,90,90,83,83,83,80,80,80,80,82,79,79,79,89,91,91,91,94,96,93,94,94,94,94,94,92,92,92,85,85,85,85,85,82,82,84,84,84,85,85,85,85,88,89,89,89,96,100,99,99,96,96,94,94,97,103,105,105,105,103,103,103,99,97,97,97,93,93,91,89,89,89,89,81,81,85,85,93,91,87,87,84,85,84,82,84,84,83,83,81,81,85,81,83,83,82,81,80,80,80,82,82,82,80,79,81,81,85,81,73,73,78,78,76,82,81,80,80,80,80,81,83,83,83,83,84,84,86,86,86,86,86,85,87,87,88,90,90,90,90,90,89,89,89,89,89,89,87,87,85,86,86,85,85,83,81,81,81,81,82,82,82,83,83,84,83,83,83,80,81,83,83,84,84,83,83,83,83,86,92,92,85,85,87,86,86,88,85,85,86,86,86,86,86,85,87,87,87,94,91,92,92,85,87,87],"month":"2025-09-01"},"geometry":{"type":"LineString","coordinates":[[-1.162588,45.795201,7.7],[-1.162607,45.795201,7.7],[-1.1626,45.795199,7.7],[-1.162641,45.795187,7.6],[-1.162709,45.795148,7.6],[-1.162739,45.795143,7.5],[-1.162885,45.795071,7.4],[-1.162903,45.795054,7.4],[-1.163231,45.794923,7.2],[-1.163274,45.794892,7.2],[-1.163382,45.79485,7.2],[-1.163473,45.794804,7.2],[-1.163512,45.794793,7.2],[-1.163617,45.794741,7.3],[-1.163771,45.794684,7.3],[-1.163887,45.794615,7.3],[-1.164002,45.79456,7.4],[-1.163996,45.794562,7.4],[-1.164102,45.794503,7.4],[-1.164126,45.794463,7.5],[-1.164097,45.794422,7.5],[-1.164042,45.794388,7.5],[-1.163722,45.794269,7.5],[-1.163239,45.794068,7.6],[-1.16315,45.794014,7.7],[-1.163056,45.793977,7.7],[-1.162979,45.793936,7.7],[-1.162894,45.793903,7.7],[-1.162819,45.793847,7.8],[-1.162577,45.793712,7.7],[-1.162147,45.793366,7.8],[-1.162121,45.793335,7.9],[-1.161955,45.7932,8.1],[-1.161902,45.793142,8.1],[-1.161822,45.79308,8.1],[-1.161775,45.79301,8.2],[-1.161704,45.792971,8.2],[-1.161359,45.792663,9],[-1.161294,45.792588,9.8],[-1.161295,45.792563,10.1],[-1.161319,45.792547,10.2],[-1.161357,45.792536,10.3],[-1.161426,45.79255,10.5],[-1.161647,45.792542,11.3],[-1.161764,45.792565,11.8],[-1.161806,45.792563,12],[-1.161881,45.792543,12.3],[-1.162012,45.792532,12.8],[-1.16231,45.792524,14],[-1.162328,45.792504,14.1],[-1.162374,45.792496,14.2],[-1.162404,45.792508,14.2],[-1.1625,45.792494,14.4],[-1.16268,45.792496,14.7],[-1.162915,45.792484,14.5],[-1.163008,45.792498,14.3],[-1.163131,45.792476,13.8],[-1.16322,45.792474,13.5],[-1.163255,45.792461,13.4],[-1.163626,45.792406,12.5],[-1.164214,45.792339,12.3],[-1.164372,45.79233,12.3],[-1.164609,45.792301,12.5],[-1.164657,45.792301,12.6],[-1.164985,45.79226,12.7],[-1.165116,45.792258,12.8],[-1.165234,45.792242,12.9],[-1.165287,45.792242,12.9],[-1.165613,45.792199,13.2],[-1.165752,45.792168,13.2],[-1.165834,45.79216,13.1],[-1.166318,45.79201,12.6],[-1.166523,45.791963,12.4],[-1.166652,45.791924,12.2],[-1.166819,45.791848,11.9],[-1.166952,45.791798,11.8],[-1.16702,45.791786,11.7],[-1.167095,45.791762,11.6],[-1.167237,45.791735,11.4],[-1.167414,45.791677,11.2],[-1.167463,45.79165,11.2],[-1.167539,45.79164,11.2],[-1.167651,45.791601,11.2],[-1.167711,45.791595,11.2],[-1.168057,45.791481,11.7],[-1.168096,45.791475,11.7],[-1.168201,45.791423,11.8],[-1.168323,45.7914,11.8],[-1.168431,45.791366,11.9],[-1.168512,45.791319,11.9],[-1.168698,45.791258,12.2],[-1.168765,45.791253,12.2],[-1.168831,45.791234,12.2],[-1.168885,45.791208,12.3],[-1.169061,45.791166,12.3],[-1.169127,45.791143,12.3],[-1.169272,45.791127,12.2],[-1.169389,45.791066,12.1],[-1.169457,45.791051,12.1],[-1.16963,45.790979,12],[-1.169808,45.79092,11.9],[-1.170071,45.790793,11.7],[-1.170116,45.790763,11.7],[-1.170367,45.790652,11.5],[-1.17084,45.790479,11.9],[-1.1709,45.790466,12],[-1.171075,45.790401,12.2],[-1.171211,45.790374,12.3],[-1.171327,45.790335,12.4],[-1.171432,45.790283,12.5],[-1.171485,45.790286,12.6],[-1.171666,45.790265,12.8],[-1.171699,45.790269,12.8],[-1.171825,45.790233,12.9],[-1.172141,45.790188,13.2],[-1.172368,45.790118,13.4],[-1.17262,45.790026,14],[-1.17306,45.78991,15],[-1.173215,45.789861,15.2],[-1.173372,45.789823,15.3],[-1.173476,45.789787,15.4],[-1.173615,45.789772,15.5],[-1.173835,45.78973,15.7],[-1.174047,45.789679,15.7],[-1.174177,45.789664,15.7],[-1.174238,45.789647,15.7],[-1.174467,45.789607,15.6],[-1.174593,45.789606,15.6],[-1.174961,45.789512,16.2],[-1.175017,45.789506,16.3],[-1.175066,45.789488,16.4],[-1.175277,45.78946,16.6],[-1.175334,45.789443,16.6],[-1.175583,45.789413,16.1],[-1.175642,45.789393,15.9],[-1.175789,45.789368,15.4],[-1.175857,45.789347,15.2],[-1.175914,45.78934,15],[-1.175982,45.789313,14.7],[-1.176266,45.789278,14.1],[-1.176307,45.789264,14],[-1.176676,45.789208,12.8],[-1.176837,45.789164,12.2],[-1.177103,45.789136,11.3],[-1.17735,45.789065,10.7],[-1.177583,45.789027,10.7],[-1.177817,45.78897,11],[-1.177944,45.788966,11.3],[-1.178018,45.788943,11.5],[-1.178156,45.788921,11.8],[-1.178202,45.788905,11.9],[-1.178259,45.788904,12.1],[-1.178409,45.78887,12.4],[-1.178531,45.78886,12.7],[-1.178582,45.788843,12.8],[-1.178638,45.788835,12.9],[-1.178698,45.788836,13],[-1.178813,45.788798,13.2],[-1.178938,45.788784,13.3],[-1.179069,45.788779,13.2],[-1.179135,45.78876,13.1],[-1.179266,45.788748,13],[-1.179413,45.788768,12.9],[-1.179809,45.788785,13.2],[-1.179863,45.788782,13.3],[-1.179986,45.788797,13.6],[-1.180138,45.788805,13.9],[-1.180299,45.78884,14.2],[-1.180536,45.788862,14.4],[-1.180768,45.788854,14.7],[-1.180908,45.788819,15.1],[-1.180994,45.788772,15.5],[-1.181036,45.788761,15.7],[-1.181123,45.788708,16.2],[-1.181157,45.788676,16.5],[-1.181318,45.788563,17.6],[-1.181348,45.788529,17.9],[-1.181431,45.788464,18.5],[-1.181464,45.788417,18.9],[-1.181593,45.788286,19.9],[-1.181638,45.788257,20.1],[-1.18169,45.788191,20.6],[-1.181825,45.788076,21],[-1.181988,45.787983,21.2],[-1.182053,45.787969,21.2],[-1.182181,45.787894,21.3],[-1.182252,45.787866,21.4],[-1.182333,45.787847,21.5],[-1.182513,45.787777,21.8],[-1.182742,45.787705,22.2],[-1.182872,45.787652,22.3],[-1.182992,45.787616,22.2],[-1.183197,45.787533,22],[-1.183257,45.787522,22],[-1.18359,45.787394,21.5],[-1.183707,45.787342,21.3],[-1.183998,45.787256,20.6],[-1.18406,45.787226,20.4],[-1.18448,45.787116,19.1],[-1.184536,45.78712,19],[-1.184587,45.787112,18.9],[-1.184641,45.787091,18.8],[-1.184764,45.787064,18.6],[-1.185328,45.787045,17],[-1.185394,45.787033,16.7],[-1.185447,45.787008,16.5],[-1.185455,45.786971,16.4],[-1.185511,45.786893,16],[-1.18555,45.786861,15.8],[-1.185627,45.786831,15.6],[-1.185711,45.786826,15.3],[-1.185793,45.786839,15.1],[-1.186052,45.786834,13.6],[-1.186174,45.78686,13.6],[-1.186265,45.786843,14],[-1.186306,45.786847,14.1],[-1.186411,45.78684,14.5],[-1.18652,45.786858,14.8],[-1.18656,45.786858,14.9],[-1.186553,45.786857,15],[-1.18657,45.78686,15],[-1.186644,45.786835,15.4],[-1.186703,45.786839,15.6],[-1.186996,45.786807,17],[-1.187154,45.78683,17.5],[-1.187339,45.786887,17.7],[-1.187496,45.786954,17.7],[-1.187654,45.787036,18],[-1.187822,45.787082,18.5],[-1.187977,45.787102,19.2],[-1.188098,45.787086,19.7],[-1.188256,45.787085,20.2],[-1.188292,45.78707,20.3],[-1.188491,45.787057,20.6],[-1.188692,45.786979,20.5],[-1.18883,45.786949,20.2],[-1.188885,45.786928,20],[-1.189333,45.786846,19.2],[-1.189436,45.78682,19.1],[-1.189592,45.78681,18.9],[-1.189895,45.786732,18.1],[-1.190096,45.78669,17.4],[-1.190173,45.786686,17.1],[-1.190331,45.786658,16.5],[-1.19052,45.786604,15.8],[-1.191495,45.786426,11.9],[-1.19168,45.78638,11.6],[-1.191739,45.78638,11.5],[-1.191808,45.78636,11.4],[-1.191836,45.786371,11.4],[-1.191855,45.78641,11.4],[-1.191848,45.786559,11.6],[-1.19186,45.786667,11.9],[-1.191845,45.786811,12.3],[-1.191851,45.786857,12.5],[-1.191839,45.787037,12.7],[-1.191845,45.787089,12.6],[-1.191837,45.787169,12.4],[-1.191809,45.787254,12],[-1.191827,45.787384,11.5],[-1.191831,45.787507,11.2],[-1.191821,45.787576,11],[-1.191829,45.787601,10.9],[-1.191826,45.787759,10.5],[-1.191836,45.787778,10.5],[-1.19183,45.787768,10.4],[-1.191816,45.787815,10.3],[-1.19182,45.787952,9.9],[-1.191788,45.788567,9.4],[-1.191797,45.788595,9.4],[-1.191905,45.788686,9.4],[-1.191935,45.788684,9.4],[-1.192009,45.788696,9.3],[-1.192137,45.788694,9.2],[-1.192203,45.788678,9.2],[-1.192494,45.788652,8.9],[-1.192636,45.788613,8.9],[-1.192727,45.788599,9],[-1.19275,45.788604,9],[-1.192882,45.788698,9.4],[-1.192907,45.788729,9.5],[-1.192942,45.788746,9.6],[-1.193187,45.788731,9.8],[-1.193395,45.788732,9.9],[-1.193688,45.788712,9.8],[-1.193902,45.788715,9.8],[-1.19419,45.7887,9.8],[-1.194397,45.788701,9.8],[-1.1946,45.788719,9.8],[-1.194821,45.788709,9.7],[-1.194888,45.788714,9.7],[-1.195106,45.788707,9.5],[-1.195259,45.788694,9.4],[-1.195324,45.788696,9.3],[-1.195416,45.788715,9.2],[-1.1955,45.788718,9.1],[-1.195555,45.788728,9.1],[-1.195622,45.788729,9],[-1.19579,45.788702,8.8],[-1.195858,45.788698,8.7],[-1.195931,45.788726,8.7],[-1.196003,45.788724,8.7],[-1.19608,45.788732,8.6],[-1.196284,45.788722,8.6],[-1.196345,45.78873,8.6],[-1.196468,45.788721,8.6],[-1.196542,45.788734,8.6],[-1.196607,45.788755,8.6],[-1.19689,45.788796,8.5],[-1.197064,45.788866,8.4],[-1.197334,45.788941,8.3],[-1.197441,45.788987,8.3],[-1.198238,45.789231,7.9],[-1.198296,45.789259,7.8],[-1.198561,45.789354,7.7],[-1.198882,45.78945,7.5],[-1.198957,45.789465,7.5],[-1.199477,45.789633,7.5],[-1.199553,45.789649,7.5],[-1.199891,45.789791,7.5],[-1.200047,45.789843,7.5],[-1.200152,45.789891,7.5],[-1.200388,45.78995,7.4],[-1.200424,45.789945,7.4],[-1.200445,45.78995,7.4],[-1.200502,45.789985,7.4],[-1.200539,45.79005,7.2],[-1.200495,45.790156,7],[-1.2005,45.790191,6.9],[-1.200479,45.790261,6.8],[-1.200465,45.790399,6.7],[-1.20047,45.790446,6.7],[-1.200415,45.790478,6.7],[-1.200345,45.790501,6.5],[-1.200269,45.790569,6.2],[-1.200164,45.790683,5.7],[-1.2001,45.79072,5.4],[-1.200059,45.790785,5.1],[-1.200049,45.790822,5],[-1.200065,45.79085,4.9],[-1.200057,45.790837,4.8],[-1.200145,45.790881,4.8],[-1.200238,45.790909,4.8],[-1.200363,45.790935,4.8],[-1.200543,45.791,4.8],[-1.200631,45.791041,4.9],[-1.201402,45.791312,4.8],[-1.201498,45.791357,4.8],[-1.201546,45.791369,4.8],[-1.201834,45.791488,4.9],[-1.201887,45.791502,4.9],[-1.202026,45.791613,5],[-1.202179,45.791679,5.1],[-1.20229,45.791739,5],[-1.202528,45.791845,5],[-1.202626,45.791901,5.1],[-1.20275,45.791958,5.1],[-1.202833,45.792017,5.1],[-1.203131,45.792182,5.2],[-1.203277,45.792247,5.2],[-1.203344,45.792323,5.1],[-1.203513,45.792405,5],[-1.203672,45.792495,5],[-1.203845,45.792576,5],[-1.20409,45.792665,5],[-1.204226,45.7927,5.3],[-1.204375,45.792719,5.5],[-1.204431,45.792743,5.6],[-1.204505,45.792763,5.7],[-1.204563,45.792788,5.9],[-1.20477,45.792927,6.6],[-1.204843,45.792994,6.8],[-1.204955,45.793039,6.7],[-1.204997,45.793091,6.4],[-1.205137,45.793219,5.9],[-1.205141,45.793265,5.5],[-1.205102,45.793308,5.2],[-1.205043,45.793338,5],[-1.204904,45.793363,4.8],[-1.204846,45.793382,4.7],[-1.204751,45.793398,4.5],[-1.204712,45.793417,4.4],[-1.20455,45.793529,4],[-1.204461,45.793568,3.8],[-1.204399,45.793574,3.8],[-1.204324,45.793539,3.9],[-1.204262,45.793494,4.1],[-1.204218,45.79348,4.1],[-1.204169,45.793479,4.1],[-1.204111,45.793462,4.1],[-1.204086,45.793465,4.1],[-1.204064,45.793457,4.1],[-1.204065,45.793463,4.1],[-1.204101,45.793466,4.1],[-1.204109,45.793486,4],[-1.204084,45.793533,3.8],[-1.204087,45.793553,3.8],[-1.204089,45.793544,3.8],[-1.203986,45.793535,3.7],[-1.204017,45.793509,3.8],[-1.204058,45.793436,4],[-1.204045,45.793437,4],[-1.204053,45.793442,3.9],[-1.204005,45.793472,3.8],[-1.203978,45.793479,3.8],[-1.203904,45.793462,3.8],[-1.203888,45.793443,3.8],[-1.203882,45.7934,4],[-1.203897,45.793337,4.2],[-1.203937,45.793262,4.5],[-1.203977,45.793132,4.9],[-1.204002,45.793108,5],[-1.204082,45.793078,5.2],[-1.204149,45.793067,5.2],[-1.204225,45.793072,5.4],[-1.204275,45.793087,5.3],[-1.204511,45.793111,5.6],[-1.204565,45.793105,5.7],[-1.204737,45.793117,5.6],[-1.204783,45.793139,5.6],[-1.204866,45.793153,5.5],[-1.20497,45.793141,5.7],[-1.204992,45.79313,5.7],[-1.204999,45.793087,5.8],[-1.204873,45.793025,6],[-1.204874,45.792999,6.2],[-1.204926,45.79296,6.5],[-1.204934,45.792943,6.5],[-1.204928,45.79289,6.8],[-1.204903,45.792879,6.8],[-1.204864,45.792877,6.8],[-1.204827,45.792855,6.8],[-1.204795,45.792851,6.7],[-1.204774,45.792839,6.7],[-1.204747,45.792837,6.6],[-1.204607,45.79279,6.1],[-1.204549,45.792762,5.9],[-1.20454,45.79275,5.9],[-1.204465,45.792723,5.7],[-1.204351,45.792632,5.4],[-1.204328,45.792603,5.3],[-1.204287,45.792593,5.2],[-1.204269,45.792578,5.2],[-1.204206,45.792551,5.1],[-1.204187,45.792528,5],[-1.204105,45.792507,5],[-1.204038,45.792468,5],[-1.204007,45.79244,5],[-1.203962,45.792421,5],[-1.203863,45.792357,6.4],[-1.203867,45.792329,6.6],[-1.203913,45.792258,6.9],[-1.203925,45.792213,7.1],[-1.203951,45.792178,7.2],[-1.204023,45.792136,7.4],[-1.204032,45.792108,7.5],[-1.204035,45.792112,7.5],[-1.204037,45.792101,7.6],[-1.20404,45.792106,7.6],[-1.204037,45.7921,7.6],[-1.204124,45.792027,8],[-1.204181,45.791931,7.8],[-1.204199,45.791858,7.5],[-1.204202,45.791792,7.6],[-1.204186,45.791676,7.7],[-1.204204,45.791538,7.9],[-1.204218,45.791507,7.9],[-1.204227,45.791419,8],[-1.204268,45.791237,8.1],[-1.204259,45.791079,7.9],[-1.204246,45.791049,7.8],[-1.204242,45.790965,7.6],[-1.204256,45.790945,7.6],[-1.204306,45.79093,7.5],[-1.204318,45.790958,7.5],[-1.204441,45.790961,7.6],[-1.204465,45.790967,7.6],[-1.204546,45.790948,7.6],[-1.204579,45.790953,7.6],[-1.204621,45.790949,7.6],[-1.204685,45.790972,7.7],[-1.204775,45.790954,7.8],[-1.204925,45.790938,7.8],[-1.205501,45.790789,8],[-1.205613,45.790771,8],[-1.205872,45.790789,8.1],[-1.206076,45.790817,8.2],[-1.206294,45.790834,8.3],[-1.206539,45.79088,8.4],[-1.206802,45.790946,8.6],[-1.206838,45.790948,8.6],[-1.206862,45.790941,8.6],[-1.206893,45.790903,8.5],[-1.206908,45.790843,8.5],[-1.20693,45.790834,8.5],[-1.207066,45.790887,8.4],[-1.207351,45.790908,8.3],[-1.207411,45.790918,8.3],[-1.207567,45.790924,8.2],[-1.207639,45.790942,8.2],[-1.20771,45.79094,8.2],[-1.207916,45.790952,8.1],[-1.208178,45.790952,7.9],[-1.208731,45.79098,7.9],[-1.208873,45.790956,7.9],[-1.208931,45.790966,7.9],[-1.209001,45.790967,7.9],[-1.209069,45.790958,7.9],[-1.209464,45.790955,7.9],[-1.209546,45.79096,7.9],[-1.209705,45.79095,7.9],[-1.209865,45.790949,7.9],[-1.210105,45.790926,7.8],[-1.210261,45.790923,7.8],[-1.210518,45.790903,7.7],[-1.210584,45.790908,7.6],[-1.210834,45.790889,7.6],[-1.211075,45.790848,7.5],[-1.211393,45.790805,7.4],[-1.211708,45.790748,7.4],[-1.211933,45.790698,7.4],[-1.212369,45.790586,7.4],[-1.212678,45.790559,7.2],[-1.21313,45.790454,7],[-1.213436,45.7904,6.7],[-1.213901,45.790267,6.5],[-1.214144,45.790211,6.6],[-1.214284,45.790155,6.7],[-1.214457,45.790099,6.8],[-1.214669,45.790019,6.9],[-1.214723,45.789968,6.9],[-1.21478,45.789863,7],[-1.214846,45.78984,7],[-1.214912,45.789835,7.1],[-1.214958,45.789848,7.1],[-1.215028,45.789854,7.2],[-1.215143,45.789845,7.3],[-1.215189,45.789848,7.3],[-1.215321,45.789835,7.4],[-1.21536,45.789843,7.5],[-1.215404,45.789838,7.5],[-1.215394,45.789835,7.5],[-1.215489,45.789818,7.5],[-1.215564,45.789794,7.5],[-1.215646,45.78975,7.4],[-1.2158,45.789684,7.4],[-1.216251,45.789682,7.3],[-1.216235,45.789685,7.3],[-1.216237,45.789679,7.3],[-1.216308,45.789706,7.3],[-1.216319,45.789693,7.3],[-1.21636,45.789704,7.3],[-1.216393,45.789753,7.3],[-1.216444,45.789756,7.3],[-1.21661,45.789835,7.3],[-1.216638,45.789857,7.3],[-1.216771,45.789922,7.3],[-1.216934,45.789989,7.3],[-1.216962,45.789994,7.3],[-1.217024,45.790052,7.3],[-1.217047,45.790052,7.3],[-1.217081,45.790082,7.3],[-1.217224,45.790172,7.4],[-1.217418,45.790239,7.5],[-1.217565,45.790272,7.7],[-1.217647,45.790298,7.7],[-1.217892,45.790353,7.9],[-1.21807,45.790374,8],[-1.218246,45.790405,8],[-1.218418,45.79045,8],[-1.218674,45.790534,7.9],[-1.218851,45.790602,7.1],[-1.219023,45.790682,6],[-1.219557,45.790897,2.4],[-1.219839,45.790985,1.7],[-1.220129,45.791056,0.3],[-1.220316,45.791086,-1.4],[-1.220716,45.79112,-1.9],[-1.220998,45.791133,-1.6],[-1.221542,45.79119,-1.7],[-1.221919,45.791204,-1.7],[-1.222718,45.791184,-1.7],[-1.223002,45.791149,-1.8],[-1.223386,45.791125,-1.8],[-1.223881,45.791027,-1.8],[-1.223942,45.791008,-1.8],[-1.224002,45.790978,-1.8],[-1.224141,45.79086,-1.9],[-1.224308,45.790752,-1.9],[-1.224404,45.790674,-1.9],[-1.224622,45.790443,-1.9],[-1.224736,45.790306,-1.9],[-1.225081,45.790054,-2],[-1.22528,45.789934,-2],[-1.225501,45.789828,-2],[-1.225716,45.789711,-2],[-1.226021,45.789589,-2],[-1.226103,45.789565,-2],[-1.226377,45.789525,-2],[-1.227002,45.789389,-2.5],[-1.227182,45.789368,-2.4],[-1.227272,45.789348,-2.2],[-1.227519,45.789261,-2.4],[-1.227947,45.78918,-2.6],[-1.228115,45.78913,-2.7],[-1.2282,45.789117,-2.6],[-1.228287,45.789122,-2.6],[-1.228729,45.789278,-2.4],[-1.228815,45.789296,-2.3],[-1.229338,45.789346,-2.2],[-1.229567,45.789343,-2.2],[-1.230027,45.789285,-2.4],[-1.230153,45.789263,-2.5],[-1.230133,45.789263,-2.5],[-1.230184,45.78922,-2.6],[-1.230241,45.789203,-2.6],[-1.230327,45.789213,-2.8],[-1.230573,45.789105,-2.8],[-1.230863,45.788901,-1.8],[-1.231061,45.788727,-0.4],[-1.231306,45.788463,0.5],[-1.231429,45.788303,0.9],[-1.231457,45.78823,1],[-1.231471,45.788097,1.2],[-1.231423,45.7879,2.1],[-1.231423,45.78783,2.6],[-1.231402,45.787757,3.1],[-1.231348,45.787682,4],[-1.231333,45.787644,4.3],[-1.231351,45.787575,5.2],[-1.231294,45.787392,6.8],[-1.23131,45.787355,7],[-1.231277,45.787316,7.2],[-1.231278,45.787288,7.4],[-1.231167,45.787155,7.9],[-1.231104,45.787107,7.8],[-1.230948,45.787023,7.6],[-1.230814,45.786997,7.4],[-1.230646,45.78693,7],[-1.2306,45.786898,6.9],[-1.230512,45.786811,6.6],[-1.23043,45.786777,6.4],[-1.230384,45.786734,6.2],[-1.230398,45.786672,6.1],[-1.230384,45.78664,6.1],[-1.230403,45.786626,6.1],[-1.230435,45.786618,6.1],[-1.230547,45.78662,6.1],[-1.230577,45.786599,6.1],[-1.230766,45.786586,6],[-1.230756,45.786587,6],[-1.230944,45.786554,5.7],[-1.231636,45.786479,5.8],[-1.231898,45.786422,6.1],[-1.231952,45.786393,6.2],[-1.232005,45.786335,6.3],[-1.232109,45.786188,6.4],[-1.232152,45.786156,6.4],[-1.232257,45.786104,6.4],[-1.232411,45.785948,6.5],[-1.232415,45.785896,6.5],[-1.232477,45.78579,6.5],[-1.232587,45.785705,6.6],[-1.232616,45.785666,6.6],[-1.232638,45.785594,6.7],[-1.232664,45.785548,6.7],[-1.232726,45.785502,6.7],[-1.232768,45.785442,6.8],[-1.232878,45.785334,7],[-1.232914,45.785273,7.1],[-1.232997,45.785172,7.2],[-1.233031,45.785107,7.1],[-1.233084,45.784914,6.9],[-1.233175,45.784799,7],[-1.2332,45.784741,7.1],[-1.233256,45.784695,7.4],[-1.233328,45.784669,7.7],[-1.233369,45.784634,8],[-1.233427,45.784536,8.5],[-1.233455,45.784467,8.6],[-1.233494,45.784434,8.6],[-1.233509,45.78437,8.4],[-1.233566,45.78425,7.9],[-1.233624,45.784157,7.5],[-1.233684,45.784104,7.3],[-1.233754,45.784067,7.2],[-1.23383,45.784039,7.2],[-1.233868,45.783997,7.2],[-1.233908,45.783882,7.3],[-1.234067,45.783706,7.7],[-1.234077,45.783647,7.8],[-1.234109,45.783592,7.9],[-1.234249,45.783486,8.1],[-1.234303,45.783404,8.1],[-1.234338,45.78331,8.1],[-1.23441,45.783196,7.9],[-1.234509,45.783087,7.7],[-1.234555,45.783023,7.6],[-1.234569,45.782966,7.5],[-1.234571,45.782834,7.3],[-1.234612,45.782654,7.3],[-1.234603,45.782595,7.4],[-1.234615,45.782534,7.3],[-1.234609,45.782424,7.2],[-1.234623,45.782176,7],[-1.234663,45.781987,7.3],[-1.234686,45.781529,6.2],[-1.234715,45.781306,6],[-1.234735,45.78125,6],[-1.234716,45.781043,6.7],[-1.234739,45.780999,7],[-1.234735,45.780832,7.5],[-1.234749,45.780776,7.5],[-1.234764,45.780512,6.6],[-1.234784,45.780437,6.3],[-1.234801,45.780248,6.3],[-1.234787,45.78015,6.5],[-1.234807,45.780099,6.7],[-1.234822,45.779933,6.7],[-1.234811,45.779877,6.7],[-1.234842,45.779621,6],[-1.234842,45.779499,5.8],[-1.234826,45.779392,5.9],[-1.234834,45.779225,6],[-1.234808,45.779078,6.2],[-1.234819,45.778986,6.3],[-1.234891,45.778827,6.6],[-1.234875,45.778792,6.7],[-1.234878,45.778762,6.8],[-1.234937,45.778704,7],[-1.234938,45.77868,7.1],[-1.23492,45.778646,7.2],[-1.234896,45.778628,7.3],[-1.234872,45.778593,7.4],[-1.234822,45.778435,7.5],[-1.234741,45.778354,7.3],[-1.234665,45.778298,7.1],[-1.234568,45.778245,6.9],[-1.234529,45.778193,6.8],[-1.234504,45.778177,6.7],[-1.234429,45.778151,6.6],[-1.2343,45.778121,6.5],[-1.234317,45.778129,6.5],[-1.234266,45.778115,6.5],[-1.234176,45.778116,6.4],[-1.233821,45.778088,6.3],[-1.233257,45.778026,6.4],[-1.232597,45.777936,6.7],[-1.23227,45.777903,6.8],[-1.23189,45.777852,6.7],[-1.231754,45.777822,6.7],[-1.231671,45.777823,6.7],[-1.231405,45.777802,6.7],[-1.231172,45.777773,6.8],[-1.230865,45.777712,6.8],[-1.230775,45.777708,6.8],[-1.230591,45.777682,6.7],[-1.230499,45.777678,6.7],[-1.230418,45.777665,6.7],[-1.230264,45.777669,6.7],[-1.230175,45.777658,6.7],[-1.230095,45.777671,6.7],[-1.229815,45.777653,6.8],[-1.229632,45.777649,6.9],[-1.229342,45.777622,7.1],[-1.229142,45.777622,7.2],[-1.228669,45.777585,7.8],[-1.228574,45.777591,7.9],[-1.228478,45.777582,7.9],[-1.228381,45.777587,8],[-1.228301,45.77758,8],[-1.228222,45.777583,8],[-1.227756,45.777568,8.3],[-1.227657,45.777559,8.3],[-1.227367,45.77756,8.5],[-1.227172,45.777549,8.5],[-1.227078,45.777553,8.5],[-1.22677,45.77752,8.4],[-1.22647,45.777463,8.1],[-1.225811,45.777316,7.4],[-1.225696,45.777305,7.4],[-1.225581,45.777266,7.4],[-1.22546,45.777258,7.4],[-1.225351,45.777227,7.4],[-1.224928,45.777162,7.5],[-1.224717,45.777139,7.6],[-1.224339,45.777084,7.8],[-1.224238,45.777081,7.9],[-1.224079,45.777057,8],[-1.223976,45.777032,8.1],[-1.223883,45.777029,8.1],[-1.223479,45.776985,8.5],[-1.223376,45.776982,8.5],[-1.223067,45.776996,8.9],[-1.22298,45.777014,9.1],[-1.222117,45.777142,10.3],[-1.221848,45.777192,10.6],[-1.221753,45.777203,10.6],[-1.22166,45.777232,10.7],[-1.221486,45.777266,10.8],[-1.220904,45.777355,10.6],[-1.220584,45.777375,10.1],[-1.220383,45.777365,9.8],[-1.219375,45.777342,8.5],[-1.219084,45.777327,8.5],[-1.218554,45.777318,9.8],[-1.218534,45.777323,9.8],[-1.218242,45.777297,11.1],[-1.218221,45.777283,11.2],[-1.21819,45.777285,11.3],[-1.218196,45.777287,11.3],[-1.218092,45.777283,11.3],[-1.218003,45.77726,11.5],[-1.217936,45.777255,11.6],[-1.217721,45.777275,11.9],[-1.21699,45.77727,12.6],[-1.216741,45.777255,12.5],[-1.216654,45.777239,12.5],[-1.21652,45.777167,12.5],[-1.216319,45.777003,12.5],[-1.216263,45.776976,12.5],[-1.216156,45.776831,12.7],[-1.215958,45.776628,12.9],[-1.215864,45.776552,12.9],[-1.215732,45.776475,12.9],[-1.215558,45.776419,13],[-1.215546,45.776423,13.1],[-1.215465,45.776415,13.2],[-1.21539,45.776388,13.1],[-1.215353,45.776355,12.6],[-1.215343,45.776327,11.8],[-1.215263,45.776313,12.4],[-1.215199,45.776319,12.8],[-1.214944,45.776295,14.3],[-1.2149,45.776281,14.5],[-1.214802,45.776269,15.1],[-1.214708,45.776244,15.5],[-1.214665,45.776243,15.7],[-1.214577,45.776212,16.2],[-1.214366,45.776168,16.9],[-1.214078,45.77608,17.6],[-1.213949,45.776066,17.8],[-1.213899,45.776052,17.8],[-1.213725,45.776036,17.9],[-1.213662,45.776023,17.9],[-1.21354,45.77602,17.9],[-1.213354,45.775985,17.7],[-1.213221,45.775977,17.5],[-1.213095,45.775948,17.3],[-1.212958,45.775953,17.1],[-1.212884,45.775938,17],[-1.212724,45.775924,16.8],[-1.212589,45.775924,16.6],[-1.212438,45.775912,16.5],[-1.212369,45.775916,16.4],[-1.212228,45.7759,16.3],[-1.211904,45.775898,16.1],[-1.211744,45.775884,15.9],[-1.211522,45.775885,15.8],[-1.211394,45.77587,15.5],[-1.211332,45.775843,15.3],[-1.211112,45.775787,14.6],[-1.210884,45.775695,13.7],[-1.210708,45.775668,13.2],[-1.210553,45.77561,12.6],[-1.210458,45.775562,12.1],[-1.210196,45.775452,10.9],[-1.209975,45.775388,10.1],[-1.209873,45.775343,9.8],[-1.209785,45.775317,9.6],[-1.209614,45.775287,9.4],[-1.209432,45.775222,9.3],[-1.209348,45.775183,9.2],[-1.209178,45.775128,9.2],[-1.209104,45.775115,9.2],[-1.209028,45.775092,9.2],[-1.208927,45.775073,9.2],[-1.208754,45.775013,9.3],[-1.208636,45.774957,9.4],[-1.208558,45.77496,9.4],[-1.208344,45.774915,9.7],[-1.20822,45.774902,9.8],[-1.208144,45.774883,9.8],[-1.208068,45.774877,9.8],[-1.207997,45.774859,9.7],[-1.207846,45.774836,9.7],[-1.207692,45.774795,9.7],[-1.207609,45.774785,9.8],[-1.20747,45.774744,10],[-1.20739,45.774705,10.1],[-1.207308,45.774696,10.3],[-1.207232,45.774677,10.5],[-1.207063,45.774612,11.1],[-1.206903,45.774566,11.7],[-1.206765,45.774503,12.3],[-1.206639,45.774434,13],[-1.206586,45.774392,13.4],[-1.20648,45.774332,14.1],[-1.206143,45.77425,15.8],[-1.206087,45.774224,16.1],[-1.206022,45.774222,16.5],[-1.205966,45.77421,16.7],[-1.205734,45.774108,18],[-1.205414,45.773949,19],[-1.205355,45.773931,19.1],[-1.205227,45.773875,19],[-1.205126,45.773853,18.7],[-1.204969,45.77379,18.2],[-1.204828,45.773693,17.4],[-1.204696,45.773575,16.5],[-1.204534,45.77341,15.1],[-1.204505,45.773349,14.7],[-1.204398,45.773229,13.7],[-1.204082,45.773024,12.2],[-1.20399,45.772985,12],[-1.203806,45.772877,11.4],[-1.20356,45.77276,10.7],[-1.203307,45.772627,10.4],[-1.203238,45.772574,10.4],[-1.203077,45.772491,10.5],[-1.202811,45.772335,10.7],[-1.20269,45.772289,10.6],[-1.20263,45.772252,10.5],[-1.202497,45.772217,10.4],[-1.202342,45.772147,10.2],[-1.202282,45.772111,10.2],[-1.202104,45.771978,10.1],[-1.201968,45.771896,10.2],[-1.201921,45.771845,10.3],[-1.201747,45.771718,10.6],[-1.201703,45.771662,10.7],[-1.201654,45.771623,10.7],[-1.201557,45.771487,10.8],[-1.201484,45.771321,10.7],[-1.201434,45.771275,10.7],[-1.201402,45.771223,10.7],[-1.201345,45.771086,10.8],[-1.20124,45.770921,10.9],[-1.201228,45.770859,10.9],[-1.201246,45.770785,11],[-1.201246,45.770641,11.1],[-1.201204,45.77045,11.2],[-1.201203,45.770176,11.4],[-1.201212,45.770048,11.5],[-1.201208,45.76991,11.7],[-1.201181,45.769761,11.7],[-1.201187,45.769698,11.7],[-1.201148,45.769599,11.6],[-1.201075,45.769475,11.6],[-1.200996,45.769288,11.6],[-1.200917,45.76917,11.6],[-1.200736,45.769037,11.6],[-1.200673,45.768975,11.7],[-1.200543,45.768879,11.9],[-1.200479,45.76885,11.9],[-1.200312,45.768722,11.9],[-1.200263,45.768664,11.9],[-1.199983,45.768444,12.2],[-1.1999,45.768405,12.4],[-1.199807,45.768385,12.5],[-1.199331,45.768215,13.1],[-1.199264,45.768226,13],[-1.198857,45.768202,11.8],[-1.198615,45.768162,11.4],[-1.198522,45.768129,11.4],[-1.198249,45.768011,11.4],[-1.1981,45.767932,11.4],[-1.197843,45.767815,11.4],[-1.197656,45.76777,11.6],[-1.197491,45.767745,11.7],[-1.197409,45.767714,11.8],[-1.197134,45.767644,11.8],[-1.196971,45.767584,11.9],[-1.196891,45.767567,11.9],[-1.196566,45.767459,12],[-1.196261,45.767268,11.9],[-1.19621,45.767216,11.9],[-1.19614,45.767179,12],[-1.195947,45.76704,12.1],[-1.195845,45.76694,12.3],[-1.195729,45.766863,12.5],[-1.195654,45.766754,12.7],[-1.19551,45.766577,13.2],[-1.19548,45.766528,13.3],[-1.195399,45.766451,13.5],[-1.195324,45.766352,13.7],[-1.195206,45.766251,13.8],[-1.195162,45.766192,13.8],[-1.195096,45.766145,13.8],[-1.195011,45.765963,13.7],[-1.194986,45.765759,13.3],[-1.195007,45.765627,13.1],[-1.195028,45.76556,13.1],[-1.195032,45.765503,13.1],[-1.195069,45.765389,13],[-1.195057,45.765329,12.8],[-1.195089,45.765131,12],[-1.195086,45.765059,11.7],[-1.195102,45.764915,11.2],[-1.195085,45.764634,11.2],[-1.195045,45.764498,11.4],[-1.194945,45.764342,11.6],[-1.194701,45.764083,11.9],[-1.19462,45.764066,11.7],[-1.194578,45.764073,11.6],[-1.19452,45.764103,11.4],[-1.194531,45.764105,11.4],[-1.19452,45.764098,11.3],[-1.194511,45.764104,11.3],[-1.194431,45.76407,11.1],[-1.194398,45.764071,11.1],[-1.194266,45.764107,10.9],[-1.194035,45.764082,10.7],[-1.19319,45.76404,11.4],[-1.19304,45.764043,11.6],[-1.192981,45.764086,11.7],[-1.192956,45.764123,11.8],[-1.192909,45.764151,11.8],[-1.192908,45.764331,11.9],[-1.192919,45.764473,11.9],[-1.192913,45.764539,11.9],[-1.192934,45.76481,11.9],[-1.192921,45.765031,11.7],[-1.192926,45.765142,11.6],[-1.192916,45.765197,11.5],[-1.192912,45.765362,11.4],[-1.192922,45.765408,11.4],[-1.192909,45.765466,11.3],[-1.192885,45.76548,11.3],[-1.192813,45.765487,11.3],[-1.192649,45.765463,11.4],[-1.192499,45.765432,11.7],[-1.192385,45.765427,11.9],[-1.192273,45.765402,12.1],[-1.192187,45.765366,12.1],[-1.191844,45.765316,11.7],[-1.191713,45.765308,11.7],[-1.191541,45.76528,11.6],[-1.191445,45.765235,11.6],[-1.191275,45.765212,11.6],[-1.191068,45.765164,11.7],[-1.191024,45.765186,11.7],[-1.190935,45.7652,11.6],[-1.190768,45.765202,11.5],[-1.190644,45.765221,11.5],[-1.19025,45.765173,11.8],[-1.190099,45.765191,11.6],[-1.19001,45.765174,11.5],[-1.189932,45.765177,11.4],[-1.189733,45.765142,11.4],[-1.189561,45.765086,11.5],[-1.189479,45.765067,11.6],[-1.18926,45.765073,11.6],[-1.189055,45.764979,11.8],[-1.188973,45.76496,11.9],[-1.188731,45.76495,12.4],[-1.188677,45.764968,12.4],[-1.188644,45.764961,12.5],[-1.188588,45.764972,12.5],[-1.188399,45.764982,12.4],[-1.188261,45.764965,12.1],[-1.188,45.76501,11.9],[-1.187921,45.765015,11.9],[-1.187848,45.765058,11.9],[-1.187565,45.765097,11.9],[-1.187483,45.765095,11.8],[-1.187192,45.765166,11.6],[-1.187115,45.765202,11.5],[-1.186833,45.765257,11.7],[-1.186696,45.7653,11.8],[-1.186642,45.76533,11.8],[-1.186511,45.765445,11.8],[-1.186475,45.765532,11.8],[-1.186437,45.765593,11.8],[-1.186331,45.765687,12],[-1.186241,45.765787,12.1],[-1.186017,45.765979,11.5],[-1.18575,45.766092,11.3],[-1.185653,45.766142,11.5],[-1.185573,45.766172,11.6],[-1.185321,45.766228,12.1],[-1.185074,45.766311,12.1],[-1.184977,45.766321,12],[-1.184772,45.766361,11.7],[-1.184444,45.766358,11.7],[-1.184216,45.766378,12],[-1.183996,45.766348,12.6],[-1.183905,45.766319,12.9],[-1.183737,45.76632,13.4],[-1.183528,45.766311,13.8],[-1.183358,45.766345,13.9],[-1.183279,45.76634,13.8],[-1.183102,45.766299,13.8],[-1.183017,45.766291,13.8],[-1.182932,45.766269,13.7],[-1.182646,45.766248,13.6],[-1.182453,45.766283,13.6],[-1.182367,45.76629,13.7],[-1.182095,45.766332,13.8],[-1.182018,45.766353,13.7],[-1.181945,45.766388,13.5],[-1.181776,45.766444,12.9],[-1.181473,45.766486,12.4],[-1.181261,45.766525,12.6],[-1.181165,45.766525,12.8],[-1.181077,45.766536,12.9],[-1.18099,45.766557,13],[-1.180798,45.766581,12.8],[-1.180627,45.766628,12.6],[-1.180497,45.766649,12.6],[-1.180086,45.766774,13.7],[-1.180013,45.766787,13.7],[-1.179842,45.766801,13.7],[-1.179749,45.7668,13.7],[-1.179664,45.766822,13.6],[-1.179371,45.766931,12.6],[-1.179261,45.766929,12.3],[-1.179137,45.766937,12.1],[-1.178725,45.767005,12.2],[-1.178658,45.767027,12.1],[-1.178502,45.767044,11.8],[-1.178189,45.76705,11.5],[-1.177927,45.767094,11.5],[-1.177769,45.767148,11.3],[-1.1774,45.767206,10.7],[-1.177328,45.767205,10.7],[-1.176972,45.767252,11.1],[-1.176639,45.767257,11.1],[-1.176388,45.767315,11],[-1.17618,45.767405,11.5],[-1.176021,45.767426,12],[-1.175977,45.767454,12.2],[-1.175786,45.767529,13],[-1.175664,45.767555,13.3],[-1.175591,45.767597,13.5],[-1.17553,45.76762,13.5],[-1.175445,45.767639,13.4],[-1.175359,45.767683,13.3],[-1.175165,45.767741,13],[-1.174888,45.767738,12.7],[-1.174871,45.767725,12.6],[-1.174781,45.767735,12.4],[-1.174767,45.767744,12.3],[-1.174743,45.767745,12.3],[-1.174744,45.767756,12.2],[-1.174757,45.767756,12.2],[-1.174677,45.767733,12.1],[-1.174507,45.767717,11.8],[-1.174367,45.767719,11.5],[-1.174169,45.767741,11],[-1.173996,45.767778,10.4],[-1.173776,45.767841,9.8],[-1.173711,45.767867,9.9],[-1.173591,45.767941,10.1],[-1.173293,45.768083,10.5],[-1.172709,45.76828,10.6],[-1.172625,45.768331,10.5],[-1.172431,45.76839,10.4],[-1.172326,45.76843,10.3],[-1.172122,45.768491,10.4],[-1.171834,45.768606,10.5],[-1.171726,45.768636,10.6],[-1.171654,45.768671,10.6],[-1.171358,45.768781,10.5],[-1.171178,45.768864,10.3],[-1.171088,45.768888,10.3],[-1.1708,45.769003,10.2],[-1.1707,45.769031,10.2],[-1.170615,45.76907,10.2],[-1.170542,45.769114,10.2],[-1.170366,45.769279,10.1],[-1.170301,45.769327,10],[-1.170192,45.769431,9.9],[-1.170145,45.769488,9.8],[-1.169916,45.769708,9.7],[-1.169873,45.769767,9.6],[-1.169709,45.769925,9.6],[-1.169498,45.770152,9.4],[-1.169347,45.770265,9.4],[-1.169277,45.770307,9.5],[-1.169117,45.770439,9.5],[-1.169062,45.770498,9.5],[-1.169013,45.77057,9.6],[-1.168868,45.770678,9.7],[-1.168723,45.770846,9.8],[-1.168686,45.770875,9.8],[-1.168635,45.77095,9.9],[-1.168625,45.770994,10],[-1.168577,45.771088,10.2],[-1.168572,45.771141,10.2],[-1.168589,45.771196,10.3],[-1.168521,45.771309,10.3],[-1.168464,45.771525,9.7],[-1.168424,45.77162,9.3],[-1.168398,45.771732,9],[-1.168403,45.771762,8.9],[-1.168393,45.771821,8.8],[-1.168354,45.771917,8.7],[-1.168335,45.771942,8.7],[-1.168333,45.772004,8.7],[-1.168324,45.77202,8.7],[-1.16832,45.772091,8.6],[-1.168302,45.77214,8.6],[-1.168282,45.772141,8.6],[-1.168247,45.77217,8.6],[-1.168256,45.772243,8.6],[-1.168144,45.772717,8.9],[-1.168056,45.772886,9],[-1.167969,45.773128,8.7],[-1.167903,45.773232,8.5],[-1.167846,45.773415,8.3],[-1.1678,45.773633,8.3],[-1.167839,45.773729,8.4],[-1.167841,45.773771,8.4],[-1.167875,45.773854,8.5],[-1.167961,45.773971,8.6],[-1.168031,45.774107,8.8],[-1.16813,45.774229,8.8],[-1.168225,45.774367,8.6],[-1.168272,45.774453,8.5],[-1.168312,45.774488,8.5],[-1.168325,45.774527,8.5],[-1.168358,45.77457,8.4],[-1.16843,45.774715,8.5],[-1.168483,45.774868,8.7],[-1.168484,45.774896,8.8],[-1.168443,45.775044,9],[-1.168355,45.77513,9],[-1.1683,45.77516,9],[-1.168158,45.775215,8.8],[-1.168067,45.775236,8.8],[-1.167866,45.77531,8.6],[-1.167795,45.775319,8.5],[-1.167513,45.775406,8.2],[-1.167451,45.775435,8.1],[-1.167184,45.775516,7.9],[-1.166599,45.775615,7.6],[-1.166457,45.775648,7.7],[-1.166176,45.775664,7.6],[-1.165933,45.775665,7.3],[-1.165755,45.775648,7.1],[-1.16567,45.775633,7.1],[-1.165527,45.775589,7],[-1.164933,45.775466,6.8],[-1.164827,45.775453,6.9],[-1.164742,45.775332,6.8],[-1.164664,45.775284,6.7],[-1.164639,45.775258,6.7],[-1.164644,45.775245,6.7],[-1.164578,45.775212,6.6],[-1.164525,45.775159,6.4],[-1.164435,45.775013,6.2],[-1.164237,45.77455,6.6],[-1.164207,45.774432,6.9],[-1.164167,45.774363,7.1],[-1.164129,45.774361,7.1],[-1.164112,45.774367,7.1],[-1.164049,45.774367,7.2],[-1.164106,45.774389,7.2],[-1.164095,45.774391,7.2],[-1.164072,45.77443,7.2],[-1.164067,45.774424,7.2],[-1.164058,45.774429,7.2],[-1.16407,45.774434,7.2],[-1.164073,45.774427,7.2],[-1.163999,45.774408,7.2],[-1.163957,45.774383,7.2],[-1.163932,45.774378,7.2],[-1.163907,45.774385,7.1],[-1.163889,45.77442,7.1],[-1.164109,45.774988,6.7],[-1.164196,45.775251,6.8],[-1.164187,45.775305,6.8],[-1.164148,45.775352,6.8],[-1.164011,45.775432,6.7],[-1.163929,45.775435,6.7],[-1.163881,45.775444,6.6],[-1.163628,45.775431,6.5],[-1.163549,45.775416,6.5],[-1.163157,45.775389,6.6],[-1.162878,45.775387,6.6],[-1.162685,45.775395,6.7],[-1.162403,45.775421,6.8],[-1.162019,45.775437,6.9],[-1.161828,45.775453,7],[-1.161727,45.775452,7],[-1.161531,45.775431,7.1],[-1.161257,45.775352,7.3],[-1.161082,45.775289,7.3],[-1.16082,45.775213,7.5],[-1.160558,45.775114,7.6],[-1.160369,45.775068,7.7],[-1.1601,45.774986,7.9],[-1.159743,45.774857,8.1],[-1.159476,45.774749,8.2],[-1.159388,45.774702,8.2],[-1.159221,45.774649,8.2],[-1.158945,45.774539,8.3],[-1.158844,45.774485,8.4],[-1.158752,45.77445,8.4],[-1.158459,45.774315,8.4],[-1.157608,45.774012,8.2],[-1.157426,45.773954,8.1],[-1.156801,45.773732,8],[-1.156618,45.77368,8],[-1.15612,45.773494,8.1],[-1.155945,45.773453,8.2],[-1.155766,45.773394,8.2],[-1.155483,45.773315,8.4],[-1.155123,45.773199,8.5],[-1.155042,45.773185,8.5],[-1.154946,45.773145,8.6],[-1.154773,45.773091,8.7],[-1.154142,45.772937,9.1],[-1.153862,45.772905,9.3],[-1.153555,45.772888,9.5],[-1.153488,45.772896,9.5],[-1.153429,45.772913,9.6],[-1.153328,45.772907,9.6],[-1.153084,45.772869,9.8],[-1.152512,45.772843,10.2],[-1.151746,45.772781,10.8],[-1.151156,45.77271,11.2],[-1.151,45.772712,11.3],[-1.150886,45.772681,11.4],[-1.150772,45.772664,11.5],[-1.150587,45.772619,11.6],[-1.150433,45.772557,11.8],[-1.150063,45.772476,12.1],[-1.149514,45.772319,12.7],[-1.149326,45.772283,12.8],[-1.14914,45.772235,13],[-1.14905,45.77222,13],[-1.148598,45.772104,13.2],[-1.148504,45.772092,13.2],[-1.14818,45.771974,13.4],[-1.148012,45.771894,13.5],[-1.147827,45.771768,13.7],[-1.147794,45.771754,13.7],[-1.147501,45.771559,14],[-1.147513,45.771567,14],[-1.147398,45.771498,14.1],[-1.146897,45.771162,14.2],[-1.146671,45.770983,14],[-1.146437,45.770851,13.8],[-1.146139,45.770704,13.3],[-1.145894,45.770638,13],[-1.145512,45.770582,12.6],[-1.145335,45.770531,12.3],[-1.145163,45.770505,12.1],[-1.145126,45.770491,12.1],[-1.144838,45.770428,11.6],[-1.144743,45.77039,11.4],[-1.144584,45.770341,11.1],[-1.143974,45.770107,9.7],[-1.143866,45.770081,9.4],[-1.143353,45.769886,8.2],[-1.143215,45.769846,7.9],[-1.143006,45.769769,7.5],[-1.142901,45.769738,7.3],[-1.142458,45.769565,6.5],[-1.142376,45.769519,6.4],[-1.142333,45.769469,6.3],[-1.142312,45.769405,6.2],[-1.142235,45.769313,6.1],[-1.142243,45.769321,6.1],[-1.142111,45.769084,5.9],[-1.142026,45.768963,5.8],[-1.141884,45.76883,5.7],[-1.141863,45.7688,5.7],[-1.141804,45.768766,5.6],[-1.141697,45.768723,5.6],[-1.141632,45.768687,5.6],[-1.141578,45.76867,5.5],[-1.141403,45.768587,5.3],[-1.141,45.768296,4.9],[-1.14074,45.768126,5],[-1.140674,45.768055,5],[-1.140637,45.768051,4.9],[-1.140604,45.768061,4.9],[-1.140538,45.768113,4.8],[-1.140433,45.768159,4.7],[-1.140219,45.768304,4.6],[-1.140156,45.768357,4.5],[-1.140106,45.768382,4.5],[-1.139926,45.768529,4.4],[-1.139837,45.768573,4.3],[-1.139768,45.768581,4.3],[-1.139699,45.768575,4.3],[-1.139574,45.76853,4.2],[-1.139468,45.768482,4.2],[-1.138923,45.768306,4.1],[-1.138867,45.768282,4.1],[-1.138697,45.768232,4],[-1.138317,45.768096,4],[-1.137899,45.767963,3.9],[-1.137445,45.767871,3.9],[-1.136905,45.767735,3.8],[-1.136354,45.767618,3.9],[-1.136254,45.767587,4],[-1.136076,45.767566,4],[-1.135982,45.76757,4.1],[-1.135896,45.767592,4.1],[-1.135812,45.767626,4.1],[-1.135741,45.767675,4.1],[-1.13488,45.768593,4.2],[-1.134531,45.768928,4.2],[-1.134274,45.7692,4.1],[-1.134148,45.769317,4.1],[-1.134042,45.769443,4.2],[-1.134002,45.769468,4.2],[-1.133971,45.769514,4.2],[-1.133923,45.769554,4.2],[-1.133753,45.769742,4.1],[-1.133601,45.769939,4.1],[-1.133493,45.770051,4.1],[-1.133305,45.770209,4.1],[-1.132817,45.770718,3.9],[-1.132591,45.770935,3.9],[-1.131451,45.772138,4],[-1.131323,45.772253,4],[-1.130716,45.772865,3.7],[-1.130554,45.773039,3.7],[-1.130489,45.773093,3.7],[-1.130063,45.773553,3.6],[-1.130034,45.773608,3.6],[-1.129881,45.773714,3.6],[-1.129825,45.773767,3.6],[-1.129397,45.774272,3.6],[-1.129167,45.774527,3.5],[-1.128919,45.774765,3.6],[-1.128845,45.774871,3.6],[-1.128864,45.774905,3.7],[-1.128906,45.774926,3.7],[-1.128965,45.774924,3.6],[-1.129239,45.774877,3.5],[-1.129353,45.77487,3.5],[-1.129563,45.774872,3.5],[-1.129591,45.774857,3.5],[-1.129701,45.774862,3.5],[-1.129741,45.774855,3.5],[-1.129805,45.774856,3.6],[-1.129863,45.774866,3.6],[-1.12991,45.774887,3.6],[-1.129963,45.774947,3.7],[-1.129963,45.775031,3.3],[-1.129894,45.775129,3.1],[-1.12987,45.7752,2.9],[-1.129827,45.775259,2.8],[-1.129707,45.775324,2.5],[-1.129665,45.775377,2.4],[-1.129624,45.77541,2.4],[-1.129596,45.77545,2.3],[-1.129568,45.775521,2.3],[-1.12958,45.775535,2.3],[-1.129582,45.775564,2.2],[-1.129624,45.775581,2.2],[-1.129622,45.775588,2.2],[-1.129493,45.775501,2.2],[-1.129514,45.775489,2.3],[-1.129502,45.775585,2.3],[-1.129483,45.775592,2.3],[-1.129475,45.77556,2.3],[-1.129485,45.775558,2.3],[-1.129471,45.775511,2.3],[-1.129479,45.775533,2.4],[-1.129526,45.775042,2.9],[-1.129655,45.77526,2.5],[-1.129671,45.775365,2.4],[-1.129688,45.775392,2.4],[-1.12972,45.775405,2.3],[-1.129737,45.775396,2.3],[-1.12975,45.7754,2.3],[-1.129752,45.77544,2.3],[-1.129734,45.775456,2.3],[-1.129623,45.775496,2.2],[-1.129604,45.775569,2.2],[-1.129618,45.775593,2.2],[-1.129617,45.775614,2.2],[-1.129604,45.775599,2.2],[-1.129518,45.77557,2.2],[-1.129515,45.775542,2.3],[-1.129534,45.775493,2.3],[-1.129642,45.775383,2.4],[-1.129847,45.775234,2.8],[-1.129966,45.775071,3.2],[-1.130044,45.774913,3.5],[-1.130087,45.77488,3.7],[-1.130145,45.774867,3.7],[-1.130259,45.774884,3.7],[-1.130422,45.774895,3.7],[-1.130481,45.774879,3.7],[-1.130616,45.774877,3.6],[-1.13068,45.77489,3.7],[-1.131139,45.774908,3.7],[-1.131256,45.774897,3.7],[-1.131401,45.774868,3.7],[-1.131471,45.774846,3.7],[-1.131614,45.774783,3.7],[-1.132127,45.774464,3.6],[-1.132185,45.77442,3.6],[-1.132456,45.77425,3.6],[-1.132676,45.774128,3.6],[-1.133019,45.773913,3.6],[-1.13325,45.773809,3.7],[-1.133335,45.773783,3.7],[-1.133518,45.773752,3.7],[-1.13407,45.773684,3.7],[-1.134252,45.773654,3.8],[-1.134811,45.773588,3.8],[-1.135006,45.773579,3.7],[-1.135198,45.77358,3.7],[-1.13655,45.773652,3.9],[-1.137134,45.773662,3.9],[-1.137426,45.773681,3.9],[-1.137824,45.773688,3.9],[-1.138112,45.773706,4],[-1.138304,45.77374,4],[-1.138489,45.773786,4],[-1.138754,45.773879,4],[-1.139273,45.774088,4.1],[-1.139814,45.774259,4.1],[-1.140374,45.774406,4.1],[-1.140739,45.77453,4.1],[-1.140824,45.774574,4],[-1.14096,45.774666,4],[-1.141083,45.774777,4],[-1.141322,45.775058,4.1],[-1.141429,45.775151,4.1],[-1.141548,45.775229,4.2],[-1.141716,45.775276,4.3],[-1.141789,45.775284,4.3],[-1.141985,45.77527,4.5],[-1.142234,45.775236,4.8],[-1.142372,45.775208,5],[-1.142473,45.775178,5.2],[-1.142551,45.775145,5.3],[-1.142621,45.775149,5.4],[-1.142659,45.775176,5.4],[-1.142666,45.775213,5.4],[-1.142665,45.775205,5.4],[-1.142684,45.77526,5.4],[-1.142893,45.775617,5.3],[-1.143131,45.775994,5.2],[-1.143292,45.776298,5.1],[-1.143637,45.776884,5],[-1.143822,45.777166,5],[-1.143905,45.777342,5],[-1.144043,45.777577,5],[-1.144213,45.777922,5],[-1.14432,45.778218,5],[-1.144406,45.778521,5],[-1.144612,45.779155,4.7],[-1.144692,45.779279,4.7],[-1.144836,45.779432,4.9],[-1.145073,45.779609,5.1],[-1.145131,45.779663,5.2],[-1.145452,45.779912,5.4],[-1.146141,45.780469,5.8],[-1.146576,45.780807,5.9],[-1.146691,45.780907,5.9],[-1.147396,45.781466,5.9],[-1.147656,45.781657,5.8],[-1.148127,45.782036,5.4],[-1.148337,45.78218,5.3],[-1.148463,45.782278,5.3],[-1.148614,45.782373,5.4],[-1.148792,45.782456,5.4],[-1.148969,45.782515,5.5],[-1.149139,45.782553,5.6],[-1.149386,45.782625,5.7],[-1.149891,45.782736,6],[-1.150074,45.782786,6.1],[-1.151131,45.783007,6.3],[-1.152185,45.783269,6.1],[-1.152985,45.783525,5.7],[-1.153258,45.783626,5.5],[-1.153949,45.783844,5.2],[-1.154102,45.783907,5.1],[-1.154905,45.784171,4.8],[-1.156188,45.784612,4.7],[-1.156518,45.784733,4.8],[-1.15677,45.784816,5],[-1.156818,45.784847,5],[-1.156846,45.784877,5],[-1.156837,45.784892,5],[-1.15687,45.78495,5],[-1.156896,45.785121,5.1],[-1.156882,45.785187,5.1],[-1.156907,45.785252,5.2],[-1.156928,45.785258,5.2],[-1.156946,45.785276,5.2],[-1.156939,45.785309,5.1],[-1.156764,45.785465,5.1],[-1.156703,45.785564,5.1],[-1.1567,45.785596,5.1],[-1.156704,45.785591,5.1],[-1.15671,45.785595,5.1],[-1.156687,45.785641,5.1],[-1.156705,45.785724,5.1],[-1.156756,45.785801,5.1],[-1.15681,45.785846,5],[-1.156852,45.785896,4.8],[-1.156883,45.785915,4.7],[-1.156927,45.785926,4.7],[-1.157015,45.785925,4.7],[-1.157066,45.785914,4.7],[-1.15712,45.785915,4.8],[-1.157185,45.785931,4.8],[-1.157247,45.785964,4.9],[-1.157295,45.786003,5],[-1.157466,45.786202,5.5],[-1.157493,45.786245,5.6],[-1.157654,45.786609,6.9],[-1.157711,45.7867,7.1],[-1.157747,45.786816,7.3],[-1.15783,45.78701,7.4],[-1.157949,45.787217,7.4],[-1.158024,45.787324,7.5],[-1.158063,45.787437,7.6],[-1.158262,45.78783,7.7],[-1.158372,45.788007,7.6],[-1.158398,45.788077,7.6],[-1.158441,45.788132,7.6],[-1.158493,45.788249,7.6],[-1.158553,45.788348,7.6],[-1.158624,45.788535,7.6],[-1.158704,45.788638,7.7],[-1.158992,45.789179,8],[-1.159031,45.789226,8],[-1.15921,45.789571,8.2],[-1.15928,45.789676,8.2],[-1.159335,45.789796,8.3],[-1.159374,45.789854,8.3],[-1.159649,45.790382,8.5],[-1.159725,45.790563,8.5],[-1.159813,45.790653,8.5],[-1.159876,45.790793,8.5],[-1.160239,45.791448,8.9],[-1.160262,45.791505,8.9],[-1.160371,45.791694,9.1],[-1.160385,45.791733,9.2],[-1.160463,45.79183,9.3],[-1.160481,45.791873,9.4],[-1.160577,45.792002,9.5],[-1.160703,45.792229,9.8],[-1.160825,45.792416,9.7],[-1.16089,45.792551,9.5],[-1.161037,45.792765,9],[-1.161307,45.793267,8.4],[-1.161895,45.794402,8.4],[-1.161935,45.794449,8.4],[-1.162032,45.794656,8.3],[-1.1622,45.794962,8],[-1.16229,45.795106,8],[-1.162398,45.795242,8],[-1.16243,45.795247,8],[-1.16254,45.795221,8],[-1.162568,45.7952,8],[-1.162579,45.795164,8],[-1.162571,45.795171,8],[-1.162575,45.79516,8],[-1.162616,45.795146,8],[-1.162612,45.795139,8],[-1.162534,45.795208,8],[-1.162531,45.795223,8],[-1.162578,45.795224,8],[-1.16237,45.795168,8],[-1.162315,45.795129,8],[-1.162303,45.795134,8],[-1.162293,45.795128,8]]}}]}