{"type":"FeatureCollection","features":[{"type":"Feature","properties":{"name":"unnamed","time":"2008-09-05T16:01:25Z","coordTimes":["2008-09-05T16:01:25Z","2008-09-05T16:01:29Z","2008-09-05T16:01:37Z","2008-09-05T16:01:47Z","2008-09-05T16:01:55Z","2008-09-05T16:02:00Z","2008-09-05T16:02:09Z","2008-09-05T16:02:19Z","2008-09-05T16:02:26Z","2008-09-05T16:02:29Z","2008-09-05T16:02:32Z","2008-09-05T16:02:35Z","2008-09-05T16:02:39Z","2008-09-05T16:02:40Z","2008-09-05T16:02:44Z","2008-09-05T16:02:47Z","2008-09-05T16:02:53Z","2008-09-05T16:02:56Z","2008-09-05T16:02:57Z","2008-09-05T16:03:03Z","2008-09-05T16:03:07Z","2008-09-05T16:03:09Z","2008-09-05T16:03:11Z","2008-09-05T16:03:20Z","2008-09-05T16:04:02Z","2008-09-05T16:04:08Z","2008-09-05T16:04:25Z","2008-09-05T16:04:38Z","2008-09-05T16:04:43Z","2008-09-05T16:04:54Z","2008-09-05T16:05:12Z","2008-09-05T16:05:46Z","2008-09-05T16:06:23Z","2008-09-05T16:06:38Z","2008-09-05T16:06:57Z","2008-09-05T16:07:56Z","2008-09-05T16:08:32Z","2008-09-05T16:08:42Z","2008-09-05T16:08:57Z","2008-09-05T16:09:11Z","2008-09-05T16:09:14Z","2008-09-05T16:09:44Z","2008-09-05T16:10:04Z","2008-09-05T16:10:16Z","2008-09-05T16:10:54Z"],"type":"marche","month":"2008-09-01"},"geometry":{"type":"LineString","coordinates":[[-71.187887,46.810544,22.73],[-71.18777,46.810631,23.21],[-71.187533,46.811034,22.73],[-71.187077,46.811075,23.21],[-71.186708,46.811054,24.17],[-71.186589,46.810959,24.17],[-71.186748,46.810238,24.17],[-71.186746,46.809116,25.61],[-71.187007,46.808259,30.42],[-71.187069,46.807896,35.23],[-71.187009,46.807552,39.07],[-71.186936,46.807277,42.92],[-71.186794,46.807018,46.76],[-71.186743,46.80696,47.72],[-71.186421,46.8068,52.53],[-71.186171,46.806846,54.45],[-71.18563,46.806902,60.22],[-71.185399,46.80676,63.58],[-71.185332,46.806692,65.03],[-71.184913,46.80636,70.31],[-71.184939,46.806199,73.2],[-71.185057,46.806136,74.64],[-71.185149,46.806055,75.6],[-71.185343,46.805951,77.04],[-71.185418,46.805994,78.48],[-71.185522,46.80603,78.48],[-71.185853,46.806068,78],[-71.186063,46.806044,78],[-71.186174,46.806053,78],[-71.186375,46.806035,77.52],[-71.186439,46.806049,78.48],[-71.186451,46.806091,77.04],[-71.186445,46.806162,77.52],[-71.186463,46.806289,77.04],[-71.186549,46.806386,77.04],[-71.186542,46.806417,76.08],[-71.186557,46.806333,77.04],[-71.186407,46.806329,75.6],[-71.186256,46.806218,75.12],[-71.186072,46.806107,75.6],[-71.18601,46.80609,75.6],[-71.185679,46.805933,76.08],[-71.185539,46.805949,75.6],[-71.185432,46.805924,75.12],[-71.185329,46.805972,74.16]]}}]}