{"type":"FeatureCollection","features":[{"type":"Feature","properties":{"name":"Dijon → Tournus - Jour 4","type":"gravel","time":"2025-07-28T07:05:49Z","coordTimes":["2025-07-28T07:05:49Z","2025-07-28T07:05:59Z","2025-07-28T07:06:01Z","2025-07-28T07:06:04Z","2025-07-28T07:06:09Z","2025-07-28T07:06:12Z","2025-07-28T07:06:18Z","2025-07-28T07:06:31Z","2025-07-28T07:06:36Z","2025-07-28T07:06:37Z","2025-07-28T07:06:38Z","2025-07-28T07:06:39Z","2025-07-28T07:06:40Z","2025-07-28T07:06:42Z","2025-07-28T07:06:50Z","2025-07-28T07:06:51Z","2025-07-28T07:06:58Z","2025-07-28T07:07:02Z","2025-07-28T07:07:07Z","2025-07-28T07:07:10Z","2025-07-28T07:07:12Z","2025-07-28T07:07:14Z","2025-07-28T07:07:20Z","2025-07-28T07:07:21Z","2025-07-28T07:07:22Z","2025-07-28T07:07:25Z","2025-07-28T07:07:28Z","2025-07-28T07:07:34Z","2025-07-28T07:07:36Z","2025-07-28T07:07:38Z","2025-07-28T07:07:40Z","2025-07-28T07:07:46Z","2025-07-28T07:07:51Z","2025-07-28T07:07:52Z","2025-07-28T07:07:53Z","2025-07-28T07:07:54Z","2025-07-28T07:07:57Z","2025-07-28T07:08:02Z","2025-07-28T07:08:11Z","2025-07-28T07:08:17Z","2025-07-28T07:08:25Z","2025-07-28T07:08:30Z","2025-07-28T07:08:33Z","2025-07-28T07:08:39Z","2025-07-28T07:08:40Z","2025-07-28T07:08:43Z","2025-07-28T07:08:47Z","2025-07-28T07:08:49Z","2025-07-28T07:08:52Z","2025-07-28T07:09:06Z","2025-07-28T07:09:17Z","2025-07-28T07:09:20Z","2025-07-28T07:09:23Z","2025-07-28T07:09:35Z","2025-07-28T07:09:38Z","2025-07-28T07:09:44Z","2025-07-28T07:09:46Z","2025-07-28T07:09:50Z","2025-07-28T07:09:54Z","2025-07-28T07:09:56Z","2025-07-28T07:09:57Z","2025-07-28T07:09:58Z","2025-07-28T07:10:06Z","2025-07-28T07:10:14Z","2025-07-28T07:10:30Z","2025-07-28T07:10:32Z","2025-07-28T07:10:33Z","2025-07-28T07:10:35Z","2025-07-28T07:10:36Z","2025-07-28T07:10:42Z","2025-07-28T07:10:43Z","2025-07-28T07:10:51Z","2025-07-28T07:11:04Z","2025-07-28T07:11:12Z","2025-07-28T07:11:25Z","2025-07-28T07:11:27Z","2025-07-28T07:11:33Z","2025-07-28T07:11:36Z","2025-07-28T07:11:39Z","2025-07-28T07:11:43Z","2025-07-28T07:11:44Z","2025-07-28T07:11:46Z","2025-07-28T07:11:49Z","2025-07-28T07:11:51Z","2025-07-28T07:11:55Z","2025-07-28T07:12:10Z","2025-07-28T07:12:15Z","2025-07-28T07:12:18Z","2025-07-28T07:12:22Z","2025-07-28T07:12:26Z","2025-07-28T07:12:29Z","2025-07-28T07:12:44Z","2025-07-28T07:12:54Z","2025-07-28T07:13:10Z","2025-07-28T07:13:13Z","2025-07-28T07:13:26Z","2025-07-28T07:13:28Z","2025-07-28T07:13:30Z","2025-07-28T07:13:41Z","2025-07-28T07:13:46Z","2025-07-28T07:13:57Z","2025-07-28T07:14:00Z","2025-07-28T07:14:03Z","2025-07-28T07:14:09Z","2025-07-28T07:14:22Z","2025-07-28T07:14:28Z","2025-07-28T07:14:29Z","2025-07-28T07:14:39Z","2025-07-28T07:14:45Z","2025-07-28T07:14:46Z","2025-07-28T07:14:51Z","2025-07-28T07:14:52Z","2025-07-28T07:15:00Z","2025-07-28T07:15:05Z","2025-07-28T07:15:11Z","2025-07-28T07:15:15Z","2025-07-28T07:15:24Z","2025-07-28T07:15:31Z","2025-07-28T07:15:35Z","2025-07-28T07:15:47Z","2025-07-28T07:15:48Z","2025-07-28T07:15:49Z","2025-07-28T07:15:50Z","2025-07-28T07:15:52Z","2025-07-28T07:15:56Z","2025-07-28T07:15:59Z","2025-07-28T07:16:00Z","2025-07-28T07:16:01Z","2025-07-28T07:16:04Z","2025-07-28T07:16:16Z","2025-07-28T07:16:20Z","2025-07-28T07:16:25Z","2025-07-28T07:16:28Z","2025-07-28T07:16:38Z","2025-07-28T07:16:43Z","2025-07-28T07:16:59Z","2025-07-28T07:17:08Z","2025-07-28T07:17:16Z","2025-07-28T07:17:18Z","2025-07-28T07:17:21Z","2025-07-28T07:17:24Z","2025-07-28T07:17:29Z","2025-07-28T07:17:30Z","2025-07-28T07:17:34Z","2025-07-28T07:17:36Z","2025-07-28T07:17:49Z","2025-07-28T07:17:56Z","2025-07-28T07:17:59Z","2025-07-28T07:18:03Z","2025-07-28T07:18:07Z","2025-07-28T07:18:13Z","2025-07-28T07:18:26Z","2025-07-28T07:18:29Z","2025-07-28T07:18:33Z","2025-07-28T07:18:39Z","2025-07-28T07:18:45Z","2025-07-28T07:18:51Z","2025-07-28T07:18:53Z","2025-07-28T07:18:56Z","2025-07-28T07:18:59Z","2025-07-28T07:19:07Z","2025-07-28T07:19:12Z","2025-07-28T07:19:15Z","2025-07-28T07:19:19Z","2025-07-28T07:19:26Z","2025-07-28T07:19:38Z","2025-07-28T07:19:45Z","2025-07-28T07:19:50Z","2025-07-28T07:19:54Z","2025-07-28T07:19:59Z","2025-07-28T07:20:04Z","2025-07-28T07:20:06Z","2025-07-28T07:20:08Z","2025-07-28T07:20:09Z","2025-07-28T07:20:12Z","2025-07-28T07:20:20Z","2025-07-28T07:20:23Z","2025-07-28T07:20:24Z","2025-07-28T07:20:27Z","2025-07-28T07:20:29Z","2025-07-28T07:20:43Z","2025-07-28T07:20:44Z","2025-07-28T07:20:48Z","2025-07-28T07:20:51Z","2025-07-28T07:20:57Z","2025-07-28T07:21:00Z","2025-07-28T07:21:02Z","2025-07-28T07:21:03Z","2025-07-28T07:21:04Z","2025-07-28T07:21:08Z","2025-07-28T07:21:21Z","2025-07-28T07:21:26Z","2025-07-28T07:21:30Z","2025-07-28T07:21:47Z","2025-07-28T07:21:50Z","2025-07-28T07:22:06Z","2025-07-28T07:22:14Z","2025-07-28T07:22:28Z","2025-07-28T07:22:32Z","2025-07-28T07:22:42Z","2025-07-28T07:22:45Z","2025-07-28T07:22:49Z","2025-07-28T07:22:50Z","2025-07-28T07:23:03Z","2025-07-28T07:23:07Z","2025-07-28T07:23:14Z","2025-07-28T07:23:23Z","2025-07-28T07:23:25Z","2025-07-28T07:23:31Z","2025-07-28T07:23:36Z","2025-07-28T07:23:53Z","2025-07-28T07:24:02Z","2025-07-28T07:24:10Z","2025-07-28T07:24:13Z","2025-07-28T07:24:17Z","2025-07-28T07:24:26Z","2025-07-28T07:24:37Z","2025-07-28T07:24:46Z","2025-07-28T07:24:49Z","2025-07-28T07:24:54Z","2025-07-28T07:24:58Z","2025-07-28T07:25:04Z","2025-07-28T07:25:10Z","2025-07-28T07:25:15Z","2025-07-28T07:25:21Z","2025-07-28T07:25:30Z","2025-07-28T07:25:39Z","2025-07-28T07:25:43Z","2025-07-28T07:25:45Z","2025-07-28T07:25:47Z","2025-07-28T07:25:52Z","2025-07-28T07:25:55Z","2025-07-28T07:26:06Z","2025-07-28T07:26:15Z","2025-07-28T07:26:24Z","2025-07-28T07:26:26Z","2025-07-28T07:26:28Z","2025-07-28T07:26:30Z","2025-07-28T07:26:31Z","2025-07-28T07:26:44Z","2025-07-28T07:26:48Z","2025-07-28T07:26:50Z","2025-07-28T07:26:52Z","2025-07-28T07:26:58Z","2025-07-28T07:27:00Z","2025-07-28T07:27:03Z","2025-07-28T07:27:12Z","2025-07-28T07:27:18Z","2025-07-28T07:27:22Z","2025-07-28T07:27:25Z","2025-07-28T07:27:26Z","2025-07-28T07:27:27Z","2025-07-28T07:27:30Z","2025-07-28T07:27:31Z","2025-07-28T07:27:34Z","2025-07-28T07:27:38Z","2025-07-28T07:27:43Z","2025-07-28T07:27:47Z","2025-07-28T07:27:51Z","2025-07-28T07:27:52Z","2025-07-28T07:27:53Z","2025-07-28T07:27:55Z","2025-07-28T07:27:57Z","2025-07-28T07:27:58Z","2025-07-28T07:28:00Z","2025-07-28T07:28:01Z","2025-07-28T07:28:10Z","2025-07-28T07:29:05Z","2025-07-28T07:29:07Z","2025-07-28T07:29:19Z","2025-07-28T07:29:27Z","2025-07-28T07:29:34Z","2025-07-28T07:29:44Z","2025-07-28T07:29:52Z","2025-07-28T07:30:19Z","2025-07-28T07:30:21Z","2025-07-28T07:30:27Z","2025-07-28T07:30:29Z","2025-07-28T07:30:35Z","2025-07-28T07:30:41Z","2025-07-28T07:30:54Z","2025-07-28T07:30:57Z","2025-07-28T07:31:00Z","2025-07-28T07:31:07Z","2025-07-28T07:31:10Z","2025-07-28T07:31:15Z","2025-07-28T07:31:17Z","2025-07-28T07:31:18Z","2025-07-28T07:31:19Z","2025-07-28T07:31:23Z","2025-07-28T07:31:24Z","2025-07-28T07:31:27Z","2025-07-28T07:31:31Z","2025-07-28T07:31:35Z","2025-07-28T07:31:41Z","2025-07-28T07:31:45Z","2025-07-28T07:31:47Z","2025-07-28T07:31:51Z","2025-07-28T07:31:53Z","2025-07-28T07:32:04Z","2025-07-28T07:32:10Z","2025-07-28T07:32:15Z","2025-07-28T07:32:17Z","2025-07-28T07:32:22Z","2025-07-28T07:32:26Z","2025-07-28T07:32:33Z","2025-07-28T07:32:34Z","2025-07-28T07:32:38Z","2025-07-28T07:32:57Z","2025-07-28T07:33:00Z","2025-07-28T07:33:04Z","2025-07-28T07:33:07Z","2025-07-28T07:33:13Z","2025-07-28T07:33:19Z","2025-07-28T07:33:28Z","2025-07-28T07:33:34Z","2025-07-28T07:33:47Z","2025-07-28T07:33:51Z","2025-07-28T07:33:53Z","2025-07-28T07:33:55Z","2025-07-28T07:33:57Z","2025-07-28T07:33:59Z","2025-07-28T07:34:09Z","2025-07-28T07:34:10Z","2025-07-28T07:34:13Z","2025-07-28T07:34:15Z","2025-07-28T07:34:25Z","2025-07-28T07:34:32Z","2025-07-28T07:34:34Z","2025-07-28T07:34:35Z","2025-07-28T07:34:42Z","2025-07-28T07:34:43Z","2025-07-28T07:34:46Z","2025-07-28T07:34:57Z","2025-07-28T07:34:59Z","2025-07-28T07:35:16Z","2025-07-28T07:35:19Z","2025-07-28T07:35:30Z","2025-07-28T07:35:38Z","2025-07-28T07:35:42Z","2025-07-28T07:35:45Z","2025-07-28T07:35:48Z","2025-07-28T07:35:50Z","2025-07-28T07:35:53Z","2025-07-28T07:36:00Z","2025-07-28T07:36:14Z","2025-07-28T07:36:19Z","2025-07-28T07:36:21Z","2025-07-28T07:36:30Z","2025-07-28T07:36:34Z","2025-07-28T07:36:39Z","2025-07-28T07:36:54Z","2025-07-28T07:37:01Z","2025-07-28T07:37:04Z","2025-07-28T07:37:07Z","2025-07-28T07:37:30Z","2025-07-28T07:37:41Z","2025-07-28T07:37:47Z","2025-07-28T07:37:49Z","2025-07-28T07:38:03Z","2025-07-28T07:38:08Z","2025-07-28T07:38:10Z","2025-07-28T07:38:13Z","2025-07-28T07:38:22Z","2025-07-28T07:38:39Z","2025-07-28T07:38:55Z","2025-07-28T07:38:59Z","2025-07-28T07:39:03Z","2025-07-28T07:39:05Z","2025-07-28T07:39:07Z","2025-07-28T07:39:08Z","2025-07-28T07:39:09Z","2025-07-28T07:39:13Z","2025-07-28T07:39:18Z","2025-07-28T07:39:21Z","2025-07-28T07:39:24Z","2025-07-28T07:39:32Z","2025-07-28T07:39:39Z","2025-07-28T07:39:45Z","2025-07-28T07:39:50Z","2025-07-28T07:39:52Z","2025-07-28T07:39:56Z","2025-07-28T07:40:03Z","2025-07-28T07:40:06Z","2025-07-28T07:40:10Z","2025-07-28T07:40:12Z","2025-07-28T07:40:17Z","2025-07-28T07:40:23Z","2025-07-28T07:40:28Z","2025-07-28T07:40:29Z","2025-07-28T07:40:31Z","2025-07-28T07:40:35Z","2025-07-28T07:40:36Z","2025-07-28T07:40:41Z","2025-07-28T07:40:43Z","2025-07-28T07:40:46Z","2025-07-28T07:40:50Z","2025-07-28T07:40:52Z","2025-07-28T07:40:54Z","2025-07-28T07:40:56Z","2025-07-28T07:40:57Z","2025-07-28T07:41:01Z","2025-07-28T07:41:02Z","2025-07-28T07:41:03Z","2025-07-28T07:41:05Z","2025-07-28T07:41:06Z","2025-07-28T07:41:09Z","2025-07-28T07:41:10Z","2025-07-28T07:41:11Z","2025-07-28T07:41:12Z","2025-07-28T07:41:15Z","2025-07-28T07:41:17Z","2025-07-28T07:41:20Z","2025-07-28T07:41:23Z","2025-07-28T07:41:26Z","2025-07-28T07:41:30Z","2025-07-28T07:41:39Z","2025-07-28T07:41:45Z","2025-07-28T07:41:57Z","2025-07-28T07:42:02Z","2025-07-28T07:42:05Z","2025-07-28T07:42:09Z","2025-07-28T07:42:11Z","2025-07-28T07:42:15Z","2025-07-28T07:42:23Z","2025-07-28T07:42:27Z","2025-07-28T07:42:30Z","2025-07-28T07:42:37Z","2025-07-28T07:42:43Z","2025-07-28T07:42:47Z","2025-07-28T07:42:54Z","2025-07-28T07:42:56Z","2025-07-28T07:42:57Z","2025-07-28T07:42:59Z","2025-07-28T07:43:00Z","2025-07-28T07:43:01Z","2025-07-28T07:43:02Z","2025-07-28T07:43:03Z","2025-07-28T07:43:05Z","2025-07-28T07:43:13Z","2025-07-28T07:43:14Z","2025-07-28T07:43:15Z","2025-07-28T07:43:16Z","2025-07-28T07:43:18Z","2025-07-28T07:43:27Z","2025-07-28T07:43:33Z","2025-07-28T07:43:35Z","2025-07-28T07:43:38Z","2025-07-28T07:43:39Z","2025-07-28T07:43:41Z","2025-07-28T07:43:44Z","2025-07-28T07:43:46Z","2025-07-28T07:43:50Z","2025-07-28T07:43:54Z","2025-07-28T07:44:04Z","2025-07-28T07:44:07Z","2025-07-28T07:44:15Z","2025-07-28T07:44:16Z","2025-07-28T07:44:18Z","2025-07-28T07:44:24Z","2025-07-28T07:44:29Z","2025-07-28T07:44:32Z","2025-07-28T07:44:34Z","2025-07-28T07:44:39Z","2025-07-28T07:44:41Z","2025-07-28T07:44:44Z","2025-07-28T07:44:47Z","2025-07-28T07:44:53Z","2025-07-28T07:44:58Z","2025-07-28T07:45:02Z","2025-07-28T07:45:05Z","2025-07-28T07:45:10Z","2025-07-28T07:45:15Z","2025-07-28T07:45:18Z","2025-07-28T07:45:20Z","2025-07-28T07:45:29Z","2025-07-28T07:45:34Z","2025-07-28T07:45:35Z","2025-07-28T07:45:38Z","2025-07-28T07:47:13Z","2025-07-28T07:47:19Z","2025-07-28T07:47:21Z","2025-07-28T07:47:28Z","2025-07-28T07:47:32Z","2025-07-28T07:47:40Z","2025-07-28T07:47:42Z","2025-07-28T07:48:32Z","2025-07-28T07:48:42Z","2025-07-28T07:48:47Z","2025-07-28T07:48:49Z","2025-07-28T07:48:51Z","2025-07-28T07:49:46Z","2025-07-28T07:49:51Z","2025-07-28T07:50:00Z","2025-07-28T07:50:01Z","2025-07-28T07:50:03Z","2025-07-28T07:50:07Z","2025-07-28T07:50:09Z","2025-07-28T07:50:14Z","2025-07-28T07:50:15Z","2025-07-28T07:50:17Z","2025-07-28T07:50:20Z","2025-07-28T07:50:22Z","2025-07-28T07:50:27Z","2025-07-28T07:50:35Z","2025-07-28T07:50:38Z","2025-07-28T07:50:47Z","2025-07-28T07:50:58Z","2025-07-28T07:51:04Z","2025-07-28T07:51:08Z","2025-07-28T07:51:16Z","2025-07-28T07:51:21Z","2025-07-28T07:51:27Z","2025-07-28T07:51:38Z","2025-07-28T07:51:47Z","2025-07-28T07:51:49Z","2025-07-28T07:51:50Z","2025-07-28T07:52:02Z","2025-07-28T07:52:03Z","2025-07-28T07:52:12Z","2025-07-28T07:52:20Z","2025-07-28T07:52:23Z","2025-07-28T07:52:25Z","2025-07-28T07:52:27Z","2025-07-28T07:52:28Z","2025-07-28T07:55:01Z","2025-07-28T07:55:14Z","2025-07-28T07:55:20Z","2025-07-28T07:55:37Z","2025-07-28T07:55:38Z","2025-07-28T07:55:40Z","2025-07-28T07:55:41Z","2025-07-28T07:55:49Z","2025-07-28T07:55:55Z","2025-07-28T07:56:03Z","2025-07-28T07:56:34Z","2025-07-28T07:57:02Z","2025-07-28T07:57:16Z","2025-07-28T07:57:34Z","2025-07-28T07:57:45Z","2025-07-28T07:57:52Z","2025-07-28T07:57:56Z","2025-07-28T07:58:07Z","2025-07-28T07:58:09Z","2025-07-28T07:58:15Z","2025-07-28T07:58:24Z","2025-07-28T07:58:29Z","2025-07-28T07:58:33Z","2025-07-28T07:58:40Z","2025-07-28T07:58:55Z","2025-07-28T07:59:02Z","2025-07-28T07:59:17Z","2025-07-28T07:59:38Z","2025-07-28T07:59:49Z","2025-07-28T07:59:54Z","2025-07-28T08:00:04Z","2025-07-28T08:00:08Z","2025-07-28T08:00:17Z","2025-07-28T08:00:34Z","2025-07-28T08:00:45Z","2025-07-28T08:00:53Z","2025-07-28T08:00:57Z","2025-07-28T08:01:02Z","2025-07-28T08:01:10Z","2025-07-28T08:01:15Z","2025-07-28T08:01:24Z","2025-07-28T08:01:29Z","2025-07-28T08:01:38Z","2025-07-28T08:01:40Z","2025-07-28T08:01:47Z","2025-07-28T08:02:09Z","2025-07-28T08:02:14Z","2025-07-28T08:02:16Z","2025-07-28T08:02:36Z","2025-07-28T08:02:38Z","2025-07-28T08:02:51Z","2025-07-28T08:02:53Z","2025-07-28T08:02:55Z","2025-07-28T08:02:59Z","2025-07-28T08:03:10Z","2025-07-28T08:03:14Z","2025-07-28T08:03:21Z","2025-07-28T08:03:25Z","2025-07-28T08:03:30Z","2025-07-28T08:03:34Z","2025-07-28T08:03:43Z","2025-07-28T08:03:48Z","2025-07-28T08:03:57Z","2025-07-28T08:04:02Z","2025-07-28T08:04:08Z","2025-07-28T08:04:16Z","2025-07-28T08:04:18Z","2025-07-28T08:04:34Z","2025-07-28T08:04:38Z","2025-07-28T08:04:52Z","2025-07-28T08:04:58Z","2025-07-28T08:05:01Z","2025-07-28T08:05:05Z","2025-07-28T08:05:07Z","2025-07-28T08:05:12Z","2025-07-28T08:05:17Z","2025-07-28T08:05:21Z","2025-07-28T08:05:30Z","2025-07-28T08:05:32Z","2025-07-28T08:05:37Z","2025-07-28T08:05:49Z","2025-07-28T08:06:03Z","2025-07-28T08:06:08Z","2025-07-28T08:06:27Z","2025-07-28T08:06:31Z","2025-07-28T08:06:40Z","2025-07-28T08:06:44Z","2025-07-28T08:06:50Z","2025-07-28T08:06:55Z","2025-07-28T08:06:56Z","2025-07-28T08:06:58Z","2025-07-28T08:07:08Z","2025-07-28T08:07:12Z","2025-07-28T08:07:17Z","2025-07-28T08:07:19Z","2025-07-28T08:07:20Z","2025-07-28T08:07:26Z","2025-07-28T08:07:27Z","2025-07-28T08:07:29Z","2025-07-28T08:07:31Z","2025-07-28T08:07:34Z","2025-07-28T08:07:37Z","2025-07-28T08:09:24Z","2025-07-28T08:09:31Z","2025-07-28T08:13:45Z","2025-07-28T08:13:58Z","2025-07-28T08:14:34Z","2025-07-28T08:14:40Z","2025-07-28T08:14:45Z","2025-07-28T08:14:48Z","2025-07-28T08:14:52Z","2025-07-28T08:20:12Z","2025-07-28T08:20:15Z","2025-07-28T08:20:21Z","2025-07-28T08:20:23Z","2025-07-28T08:20:27Z","2025-07-28T08:20:34Z","2025-07-28T08:20:38Z","2025-07-28T08:20:40Z","2025-07-28T08:20:44Z","2025-07-28T08:20:45Z","2025-07-28T08:20:54Z","2025-07-28T08:20:58Z","2025-07-28T08:21:00Z","2025-07-28T08:21:06Z","2025-07-28T08:21:08Z","2025-07-28T08:21:11Z","2025-07-28T08:21:14Z","2025-07-28T08:21:19Z","2025-07-28T08:21:22Z","2025-07-28T08:21:23Z","2025-07-28T08:21:25Z","2025-07-28T08:21:32Z","2025-07-28T08:21:37Z","2025-07-28T08:21:43Z","2025-07-28T08:21:46Z","2025-07-28T08:21:50Z","2025-07-28T08:21:53Z","2025-07-28T08:22:01Z","2025-07-28T08:22:05Z","2025-07-28T08:22:08Z","2025-07-28T08:22:17Z","2025-07-28T08:22:23Z","2025-07-28T08:22:27Z","2025-07-28T08:22:33Z","2025-07-28T08:22:38Z","2025-07-28T08:22:57Z","2025-07-28T08:22:58Z","2025-07-28T08:22:59Z","2025-07-28T08:23:00Z","2025-07-28T08:23:01Z","2025-07-28T08:23:02Z","2025-07-28T08:23:03Z","2025-07-28T08:23:06Z","2025-07-28T08:23:08Z","2025-07-28T08:23:09Z","2025-07-28T08:23:10Z","2025-07-28T08:23:11Z","2025-07-28T08:23:12Z","2025-07-28T08:23:13Z","2025-07-28T08:23:16Z","2025-07-28T08:23:17Z","2025-07-28T08:23:26Z","2025-07-28T08:23:33Z","2025-07-28T08:23:36Z","2025-07-28T08:23:37Z","2025-07-28T08:23:38Z","2025-07-28T08:23:39Z","2025-07-28T08:23:41Z","2025-07-28T08:23:44Z","2025-07-28T08:23:49Z","2025-07-28T08:23:54Z","2025-07-28T08:23:58Z","2025-07-28T08:23:59Z","2025-07-28T08:24:00Z","2025-07-28T08:24:02Z","2025-07-28T08:24:03Z","2025-07-28T08:24:06Z","2025-07-28T08:24:07Z","2025-07-28T08:24:11Z","2025-07-28T08:24:13Z","2025-07-28T08:24:15Z","2025-07-28T08:24:17Z","2025-07-28T08:24:20Z","2025-07-28T08:24:22Z","2025-07-28T08:24:26Z","2025-07-28T08:24:30Z","2025-07-28T08:24:31Z","2025-07-28T08:24:34Z","2025-07-28T08:24:36Z","2025-07-28T08:24:39Z","2025-07-28T08:24:42Z","2025-07-28T08:24:43Z","2025-07-28T08:24:45Z","2025-07-28T08:24:46Z","2025-07-28T08:24:47Z","2025-07-28T08:24:48Z","2025-07-28T08:24:52Z","2025-07-28T08:24:53Z","2025-07-28T08:24:59Z","2025-07-28T08:25:03Z","2025-07-28T08:25:05Z","2025-07-28T08:25:11Z","2025-07-28T08:25:14Z","2025-07-28T08:25:17Z","2025-07-28T08:25:22Z","2025-07-28T08:25:25Z","2025-07-28T08:25:28Z","2025-07-28T08:25:33Z","2025-07-28T08:25:39Z","2025-07-28T08:25:48Z","2025-07-28T08:25:52Z","2025-07-28T08:25:54Z","2025-07-28T08:25:56Z","2025-07-28T08:25:59Z","2025-07-28T08:26:01Z","2025-07-28T08:26:03Z","2025-07-28T08:26:07Z","2025-07-28T08:26:12Z","2025-07-28T08:26:16Z","2025-07-28T08:26:24Z","2025-07-28T08:26:28Z","2025-07-28T08:26:36Z","2025-07-28T08:26:39Z","2025-07-28T08:26:44Z","2025-07-28T08:26:49Z","2025-07-28T08:26:53Z","2025-07-28T08:27:05Z","2025-07-28T08:27:07Z","2025-07-28T08:27:13Z","2025-07-28T08:27:15Z","2025-07-28T08:27:17Z","2025-07-28T08:27:21Z","2025-07-28T08:27:22Z","2025-07-28T08:27:27Z","2025-07-28T08:27:29Z","2025-07-28T08:27:30Z","2025-07-28T08:27:32Z","2025-07-28T08:27:35Z","2025-07-28T08:27:39Z","2025-07-28T08:27:43Z","2025-07-28T08:36:54Z","2025-07-28T08:36:56Z","2025-07-28T08:37:02Z","2025-07-28T08:48:15Z","2025-07-28T08:48:24Z","2025-07-28T08:49:50Z","2025-07-28T08:49:59Z","2025-07-28T08:50:09Z","2025-07-28T08:50:13Z","2025-07-28T08:50:22Z","2025-07-28T08:50:43Z","2025-07-28T08:50:46Z","2025-07-28T08:50:47Z","2025-07-28T08:50:52Z","2025-07-28T08:50:54Z","2025-07-28T08:50:57Z","2025-07-28T08:51:00Z","2025-07-28T08:51:02Z","2025-07-28T08:51:09Z","2025-07-28T08:51:11Z","2025-07-28T08:51:14Z","2025-07-28T08:51:16Z","2025-07-28T08:51:17Z","2025-07-28T08:51:31Z","2025-07-28T08:51:49Z","2025-07-28T08:51:52Z","2025-07-28T08:52:03Z","2025-07-28T08:52:08Z","2025-07-28T08:52:15Z","2025-07-28T08:52:21Z","2025-07-28T08:52:26Z","2025-07-28T08:52:30Z","2025-07-28T08:52:37Z","2025-07-28T08:52:42Z","2025-07-28T08:52:47Z","2025-07-28T08:52:56Z","2025-07-28T08:53:06Z","2025-07-28T08:53:18Z","2025-07-28T08:53:29Z","2025-07-28T08:53:44Z","2025-07-28T08:53:57Z","2025-07-28T08:54:00Z","2025-07-28T08:54:04Z","2025-07-28T08:54:21Z","2025-07-28T08:54:26Z","2025-07-28T08:54:32Z","2025-07-28T08:54:41Z","2025-07-28T08:54:43Z","2025-07-28T08:54:48Z","2025-07-28T08:54:52Z","2025-07-28T08:54:58Z","2025-07-28T08:55:05Z","2025-07-28T08:55:09Z","2025-07-28T08:55:13Z","2025-07-28T08:55:18Z","2025-07-28T08:55:23Z","2025-07-28T08:55:24Z","2025-07-28T08:55:25Z","2025-07-28T08:55:29Z","2025-07-28T08:55:31Z","2025-07-28T08:56:01Z","2025-07-28T08:56:04Z","2025-07-28T08:56:13Z","2025-07-28T08:56:17Z","2025-07-28T08:56:28Z","2025-07-28T08:56:33Z","2025-07-28T08:56:50Z","2025-07-28T08:56:53Z","2025-07-28T08:56:56Z","2025-07-28T08:57:04Z","2025-07-28T08:57:07Z","2025-07-28T08:57:13Z","2025-07-28T08:57:25Z","2025-07-28T08:57:32Z","2025-07-28T08:57:37Z","2025-07-28T08:57:38Z","2025-07-28T08:57:41Z","2025-07-28T08:57:49Z","2025-07-28T08:58:02Z","2025-07-28T08:58:12Z","2025-07-28T08:58:14Z","2025-07-28T08:58:20Z","2025-07-28T08:58:26Z","2025-07-28T08:58:29Z","2025-07-28T08:58:36Z","2025-07-28T08:58:38Z","2025-07-28T08:58:42Z","2025-07-28T08:58:44Z","2025-07-28T08:58:46Z","2025-07-28T08:58:53Z","2025-07-28T08:58:56Z","2025-07-28T08:59:00Z","2025-07-28T08:59:08Z","2025-07-28T08:59:10Z","2025-07-28T08:59:15Z","2025-07-28T08:59:19Z","2025-07-28T08:59:20Z","2025-07-28T08:59:23Z","2025-07-28T08:59:24Z","2025-07-28T08:59:27Z","2025-07-28T08:59:30Z","2025-07-28T08:59:32Z","2025-07-28T08:59:33Z","2025-07-28T08:59:35Z","2025-07-28T08:59:40Z","2025-07-28T08:59:42Z","2025-07-28T08:59:45Z","2025-07-28T08:59:47Z","2025-07-28T08:59:50Z","2025-07-28T08:59:52Z","2025-07-28T08:59:53Z","2025-07-28T09:00:00Z","2025-07-28T09:00:04Z","2025-07-28T09:00:06Z","2025-07-28T09:00:09Z","2025-07-28T09:00:11Z","2025-07-28T09:00:13Z","2025-07-28T09:00:17Z","2025-07-28T09:00:36Z","2025-07-28T09:00:40Z","2025-07-28T09:00:45Z","2025-07-28T09:00:47Z","2025-07-28T09:00:51Z","2025-07-28T09:00:52Z","2025-07-28T09:00:56Z","2025-07-28T09:00:58Z","2025-07-28T09:01:00Z","2025-07-28T09:01:04Z","2025-07-28T09:01:14Z","2025-07-28T09:01:24Z","2025-07-28T09:01:29Z","2025-07-28T09:01:31Z","2025-07-28T09:01:33Z","2025-07-28T09:01:46Z","2025-07-28T09:01:51Z","2025-07-28T09:01:54Z","2025-07-28T09:01:56Z","2025-07-28T09:01:58Z","2025-07-28T09:02:00Z","2025-07-28T09:02:01Z","2025-07-28T09:02:02Z","2025-07-28T09:02:06Z","2025-07-28T09:02:07Z","2025-07-28T09:02:09Z","2025-07-28T09:02:11Z","2025-07-28T09:02:15Z","2025-07-28T09:02:16Z","2025-07-28T09:02:20Z","2025-07-28T09:02:41Z","2025-07-28T09:02:59Z","2025-07-28T09:03:03Z","2025-07-28T09:03:05Z","2025-07-28T09:03:14Z","2025-07-28T09:03:15Z","2025-07-28T09:03:19Z","2025-07-28T09:03:26Z","2025-07-28T09:03:31Z","2025-07-28T09:03:37Z","2025-07-28T09:03:44Z","2025-07-28T09:03:46Z","2025-07-28T09:03:52Z","2025-07-28T09:04:02Z","2025-07-28T09:04:28Z","2025-07-28T09:04:46Z","2025-07-28T09:04:50Z","2025-07-28T09:04:54Z","2025-07-28T09:04:58Z","2025-07-28T09:05:03Z","2025-07-28T09:05:11Z","2025-07-28T09:05:20Z","2025-07-28T09:05:23Z","2025-07-28T09:05:26Z","2025-07-28T09:05:30Z","2025-07-28T09:05:32Z","2025-07-28T09:05:37Z","2025-07-28T09:05:38Z","2025-07-28T09:05:46Z","2025-07-28T09:05:49Z","2025-07-28T09:05:53Z","2025-07-28T09:06:01Z","2025-07-28T09:06:04Z","2025-07-28T09:06:10Z","2025-07-28T09:06:12Z","2025-07-28T09:06:15Z","2025-07-28T09:06:20Z","2025-07-28T09:06:36Z","2025-07-28T09:06:41Z","2025-07-28T09:06:45Z","2025-07-28T09:07:00Z","2025-07-28T09:07:09Z","2025-07-28T09:07:17Z","2025-07-28T09:07:24Z","2025-07-28T09:07:29Z","2025-07-28T09:07:36Z","2025-07-28T09:07:38Z","2025-07-28T09:07:45Z","2025-07-28T09:07:53Z","2025-07-28T09:07:57Z","2025-07-28T09:08:07Z","2025-07-28T09:08:11Z","2025-07-28T09:08:15Z","2025-07-28T09:08:21Z","2025-07-28T09:08:29Z","2025-07-28T09:08:37Z","2025-07-28T09:08:39Z","2025-07-28T09:08:50Z","2025-07-28T09:08:54Z","2025-07-28T09:09:03Z","2025-07-28T09:09:07Z","2025-07-28T09:09:11Z","2025-07-28T09:09:13Z","2025-07-28T09:09:15Z","2025-07-28T09:17:08Z","2025-07-28T09:17:10Z","2025-07-28T09:17:26Z","2025-07-28T09:17:28Z","2025-07-28T09:17:39Z","2025-07-28T09:17:41Z","2025-07-28T09:17:42Z","2025-07-28T09:17:43Z","2025-07-28T09:17:47Z","2025-07-28T09:17:50Z","2025-07-28T09:17:52Z","2025-07-28T09:17:54Z","2025-07-28T09:17:56Z","2025-07-28T09:17:59Z","2025-07-28T09:18:00Z","2025-07-28T09:18:03Z","2025-07-28T09:18:05Z","2025-07-28T09:18:09Z","2025-07-28T09:18:18Z","2025-07-28T09:18:23Z","2025-07-28T09:18:25Z","2025-07-28T09:18:29Z","2025-07-28T09:18:33Z","2025-07-28T09:18:40Z","2025-07-28T09:18:43Z","2025-07-28T09:18:56Z","2025-07-28T09:19:01Z","2025-07-28T09:19:02Z","2025-07-28T09:19:05Z","2025-07-28T09:19:09Z","2025-07-28T09:19:15Z","2025-07-28T09:19:17Z","2025-07-28T09:19:29Z","2025-07-28T09:19:38Z","2025-07-28T09:19:44Z","2025-07-28T09:19:46Z","2025-07-28T09:19:57Z","2025-07-28T09:20:00Z","2025-07-28T09:20:04Z","2025-07-28T09:20:12Z","2025-07-28T09:20:15Z","2025-07-28T09:20:18Z","2025-07-28T09:20:19Z","2025-07-28T09:20:21Z","2025-07-28T09:20:23Z","2025-07-28T09:20:27Z","2025-07-28T09:20:54Z","2025-07-28T09:20:58Z","2025-07-28T09:21:05Z","2025-07-28T09:21:08Z","2025-07-28T09:21:09Z","2025-07-28T09:21:13Z","2025-07-28T09:21:19Z","2025-07-28T09:21:28Z","2025-07-28T09:21:29Z","2025-07-28T09:21:31Z","2025-07-28T09:21:40Z","2025-07-28T09:21:46Z","2025-07-28T09:21:50Z","2025-07-28T09:21:53Z","2025-07-28T09:21:59Z","2025-07-28T09:22:07Z","2025-07-28T09:22:17Z","2025-07-28T09:22:21Z","2025-07-28T09:22:22Z","2025-07-28T09:22:28Z","2025-07-28T09:22:37Z","2025-07-28T09:22:45Z","2025-07-28T09:22:53Z","2025-07-28T09:23:01Z","2025-07-28T09:23:05Z","2025-07-28T09:23:08Z","2025-07-28T09:23:17Z","2025-07-28T09:23:21Z","2025-07-28T09:23:26Z","2025-07-28T09:23:29Z","2025-07-28T09:23:30Z","2025-07-28T09:23:33Z","2025-07-28T09:23:35Z","2025-07-28T09:23:37Z","2025-07-28T09:23:48Z","2025-07-28T09:24:06Z","2025-07-28T09:24:20Z","2025-07-28T09:24:22Z","2025-07-28T09:24:26Z","2025-07-28T09:24:31Z","2025-07-28T09:24:32Z","2025-07-28T09:24:47Z","2025-07-28T09:24:51Z","2025-07-28T09:24:55Z","2025-07-28T09:24:59Z","2025-07-28T09:25:01Z","2025-07-28T09:25:07Z","2025-07-28T09:25:08Z","2025-07-28T09:25:15Z","2025-07-28T09:25:21Z","2025-07-28T09:25:24Z","2025-07-28T09:25:27Z","2025-07-28T09:25:31Z","2025-07-28T09:25:34Z","2025-07-28T09:25:40Z","2025-07-28T09:25:46Z","2025-07-28T09:25:54Z","2025-07-28T09:26:04Z","2025-07-28T09:26:15Z","2025-07-28T09:26:18Z","2025-07-28T09:26:22Z","2025-07-28T09:26:33Z","2025-07-28T09:26:38Z","2025-07-28T09:26:52Z","2025-07-28T09:27:11Z","2025-07-28T09:27:15Z","2025-07-28T09:27:18Z","2025-07-28T09:27:23Z","2025-07-28T09:27:30Z","2025-07-28T09:27:37Z","2025-07-28T09:27:40Z","2025-07-28T09:27:47Z","2025-07-28T09:27:56Z","2025-07-28T09:28:00Z","2025-07-28T09:28:02Z","2025-07-28T09:28:06Z","2025-07-28T09:28:08Z","2025-07-28T09:28:10Z","2025-07-28T09:28:17Z","2025-07-28T09:28:18Z","2025-07-28T09:28:21Z","2025-07-28T09:28:23Z","2025-07-28T09:28:27Z","2025-07-28T09:28:30Z","2025-07-28T09:28:32Z","2025-07-28T09:28:36Z","2025-07-28T09:28:37Z","2025-07-28T09:28:48Z","2025-07-28T09:28:51Z","2025-07-28T09:28:54Z","2025-07-28T09:28:55Z","2025-07-28T09:28:57Z","2025-07-28T09:29:05Z","2025-07-28T09:29:08Z","2025-07-28T09:29:10Z","2025-07-28T09:29:12Z","2025-07-28T09:29:14Z","2025-07-28T09:29:21Z","2025-07-28T09:29:22Z","2025-07-28T09:29:25Z","2025-07-28T09:29:30Z","2025-07-28T09:29:37Z","2025-07-28T09:29:40Z","2025-07-28T09:29:41Z","2025-07-28T09:29:42Z","2025-07-28T09:29:43Z","2025-07-28T09:29:44Z","2025-07-28T09:29:45Z","2025-07-28T09:29:46Z","2025-07-28T09:29:49Z","2025-07-28T09:29:55Z","2025-07-28T09:29:59Z","2025-07-28T09:30:07Z","2025-07-28T09:30:12Z","2025-07-28T09:30:18Z","2025-07-28T09:30:31Z","2025-07-28T09:30:34Z","2025-07-28T09:30:46Z","2025-07-28T09:30:52Z","2025-07-28T09:30:57Z","2025-07-28T09:31:04Z","2025-07-28T09:31:06Z","2025-07-28T09:31:11Z","2025-07-28T09:31:12Z","2025-07-28T09:31:13Z","2025-07-28T09:31:15Z","2025-07-28T09:31:24Z","2025-07-28T09:35:07Z","2025-07-28T09:35:08Z","2025-07-28T09:35:14Z","2025-07-28T09:35:16Z","2025-07-28T09:35:22Z","2025-07-28T09:35:23Z","2025-07-28T09:35:26Z","2025-07-28T09:35:27Z","2025-07-28T09:35:28Z","2025-07-28T09:35:31Z","2025-07-28T09:35:40Z","2025-07-28T09:35:41Z","2025-07-28T09:35:44Z","2025-07-28T09:35:45Z","2025-07-28T09:35:50Z","2025-07-28T09:35:52Z","2025-07-28T09:35:54Z","2025-07-28T09:35:58Z","2025-07-28T09:36:02Z","2025-07-28T09:36:16Z","2025-07-28T09:36:18Z","2025-07-28T09:36:21Z","2025-07-28T09:36:23Z","2025-07-28T09:36:24Z","2025-07-28T09:36:49Z","2025-07-28T09:36:52Z","2025-07-28T09:37:00Z","2025-07-28T09:37:11Z","2025-07-28T09:37:14Z","2025-07-28T09:37:19Z","2025-07-28T09:37:20Z","2025-07-28T09:37:21Z","2025-07-28T09:37:23Z","2025-07-28T09:37:25Z","2025-07-28T09:37:29Z","2025-07-28T09:37:37Z","2025-07-28T09:37:40Z","2025-07-28T09:37:42Z","2025-07-28T09:37:46Z","2025-07-28T09:37:50Z","2025-07-28T09:37:53Z","2025-07-28T09:38:03Z"],"heartRates":[108,108,108,110,110,110,110,109,108,108,108,108,105,104,104,104,106,105,105,101,101,101,103,104,104,104,104,102,102,102,102,100,92,92,92,92,92,97,98,102,103,105,106,106,106,106,112,112,112,110,111,113,116,121,122,125,125,124,121,121,121,121,119,120,121,121,121,121,118,117,117,116,120,122,121,121,118,114,113,113,110,110,108,108,105,109,109,109,109,109,107,108,108,109,110,111,111,107,105,103,101,101,100,94,94,95,95,98,100,100,100,100,105,105,105,105,104,100,99,104,103,103,103,103,105,105,107,107,109,110,110,111,111,109,108,112,113,114,115,115,117,115,115,115,111,101,105,109,109,111,112,116,116,117,117,119,119,119,119,119,119,121,121,124,126,124,119,115,107,102,101,101,104,104,104,113,124,124,124,124,135,135,135,140,141,141,141,141,141,141,138,134,131,129,129,137,139,132,132,126,126,125,125,115,104,105,108,108,108,109,121,122,121,121,116,118,118,115,115,115,114,113,109,108,114,117,118,118,118,118,118,118,125,122,122,122,122,122,122,118,118,118,114,112,112,112,111,109,109,109,106,106,105,105,105,105,96,94,94,94,94,94,101,101,101,101,101,101,101,108,107,108,108,109,104,104,102,102,101,103,105,105,105,105,105,107,107,107,107,107,107,113,114,114,121,121,121,121,121,121,122,122,122,122,122,121,121,121,125,125,125,124,124,124,125,124,122,122,124,124,124,125,125,125,126,126,127,126,126,126,122,122,122,122,122,120,121,120,122,122,121,121,121,125,125,127,127,127,126,126,127,127,127,127,127,129,130,131,131,128,128,128,130,134,134,135,135,135,129,129,128,128,125,120,120,118,113,113,113,113,113,113,113,111,111,110,108,108,112,112,112,113,113,113,113,113,114,114,114,116,117,117,118,118,118,118,118,122,122,122,124,124,122,122,124,124,122,122,120,120,120,117,117,117,115,115,115,114,113,112,114,114,114,114,114,114,114,114,112,113,113,113,113,113,111,111,111,111,111,111,112,112,113,113,114,114,115,115,114,117,118,118,118,124,124,124,124,122,122,120,120,118,116,113,113,112,111,111,106,106,106,105,106,113,108,108,92,105,105,105,100,96,102,104,104,104,105,105,101,101,101,101,101,105,107,107,107,108,108,105,103,103,100,100,102,102,102,104,104,107,99,98,98,98,98,96,99,101,98,98,98,98,98,100,100,97,98,96,97,99,97,97,101,101,101,104,107,107,110,111,108,99,108,108,110,111,109,108,108,108,110,110,112,112,112,112,112,112,112,111,113,114,114,115,115,111,111,110,110,112,112,110,110,110,109,104,104,109,106,108,110,110,116,117,119,119,119,122,122,119,117,115,111,111,108,110,111,111,106,103,106,107,108,110,110,110,106,108,109,109,109,114,114,114,114,114,112,108,91,91,93,93,88,89,87,87,85,85,87,90,90,99,99,102,101,101,104,104,104,106,106,106,107,107,107,107,106,108,108,106,104,104,101,99,99,100,100,99,99,97,96,105,105,105,105,105,105,105,109,107,107,107,107,107,109,109,113,115,114,122,122,120,120,120,118,118,116,116,116,116,116,116,112,112,105,105,105,100,100,100,102,102,100,101,101,101,105,105,105,105,105,105,104,104,104,104,104,95,95,91,89,91,91,93,92,92,92,93,93,93,95,95,95,97,103,103,103,101,101,101,101,101,103,103,103,102,102,99,99,97,97,97,96,96,98,98,85,85,77,77,91,90,85,85,85,83,76,76,80,86,86,86,86,90,93,92,92,92,90,87,88,92,95,97,99,99,100,100,100,103,104,105,112,111,109,108,106,107,110,115,110,110,110,110,107,107,107,110,114,118,118,115,115,115,118,118,119,119,116,116,116,119,119,119,108,107,112,113,111,104,103,103,103,111,116,116,115,114,116,116,119,119,122,122,122,120,121,121,118,118,120,121,121,121,121,121,121,121,121,121,125,122,122,124,124,124,124,126,126,121,121,121,120,120,124,124,122,122,124,124,124,124,124,124,122,122,119,119,119,117,117,117,117,117,117,120,120,119,119,119,119,119,118,119,115,114,114,111,110,110,110,115,113,113,113,113,115,115,115,118,119,119,117,118,118,121,120,120,119,119,120,120,117,116,116,117,117,114,114,114,116,118,118,118,116,117,118,118,117,117,117,119,118,121,119,117,118,119,122,121,121,120,116,114,110,112,113,113,93,94,101,101,102,102,103,103,103,105,105,105,109,110,110,110,108,108,107,107,107,109,109,109,109,112,113,113,113,111,109,109,106,107,108,109,111,111,112,112,113,113,113,113,114,114,111,111,111,109,109,109,113,112,112,112,113,114,114,114,114,115,114,114,115,115,113,113,113,113,113,113,113,114,114,114,114,115,115,115,115,111,112,111,111,112,112,108,108,108,110,110,113,113,113,113,113,114,113,113,108,108,107,102,108,108,111,113,110,108,106,106,106,105,105,105,106,108,110,110,110,110,109,109,110,110,110,110,108,109,109,111,111,112,112,109,109,109,112,112,112,111,111,107,107,106,106,111,110,110,110,110,110,107,107,105,105,122,124,127,129,141,141,150,151,154,158,163,156,156,156,156,156,156,156,106,106,109,109,107,107,107,108,113,113,113,110,110,110,109,109,110,101,101,99,99,99,100,99,99,102,102,101,101,101,101,98,96,96,95,95,97,95,95,98]},"geometry":{"type":"LineString","coordinates":[[4.847406,46.754274,184.4],[4.847346,46.754293,184.3],[4.847271,46.7543,184.2],[4.84723,46.754314,184.1],[4.847238,46.754321,184.1],[4.847251,46.754319,184.1],[4.847213,46.754328,184],[4.847157,46.754629,183.5],[4.847089,46.754794,183.1],[4.847092,46.754833,183],[4.847134,46.754869,183],[4.847184,46.754891,183.2],[4.847242,46.754899,183.3],[4.847336,46.754883,183.4],[4.847719,46.754881,183.3],[4.847772,46.754892,183.3],[4.848126,46.754893,183],[4.848333,46.754873,182.8],[4.848534,46.754814,182.6],[4.848647,46.754766,182.4],[4.848752,46.754753,182.2],[4.848853,46.754757,182.1],[4.84916,46.754728,182],[4.849218,46.754728,182],[4.849264,46.754717,182],[4.849416,46.754707,182],[4.849544,46.754689,182.2],[4.849733,46.754678,182.4],[4.84979,46.754699,182.4],[4.849841,46.75475,182.4],[4.849873,46.754798,182.4],[4.849923,46.754958,182.4],[4.849984,46.75509,182.4],[4.850014,46.755108,182.4],[4.850058,46.755111,182.5],[4.850101,46.755097,182.5],[4.850187,46.755027,182.6],[4.850366,46.754932,182.7],[4.850719,46.754706,182.8],[4.850942,46.754526,182.9],[4.851271,46.754308,183.1],[4.851458,46.754168,183.3],[4.851552,46.75408,183.4],[4.851742,46.753934,183.8],[4.851751,46.753919,183.8],[4.851817,46.753882,183.9],[4.851967,46.753832,184.1],[4.852034,46.753838,184.1],[4.852123,46.753817,184.2],[4.852527,46.753783,184.7],[4.853051,46.753718,185.3],[4.8532,46.753691,185.5],[4.853349,46.753654,185.7],[4.853988,46.753464,186.6],[4.854126,46.753405,186.8],[4.85444,46.75329,186.8],[4.854554,46.753258,186.9],[4.854765,46.753181,187],[4.85498,46.753115,187.1],[4.855066,46.753058,187.2],[4.855094,46.753021,187.2],[4.855109,46.75298,187.2],[4.855094,46.752651,187],[4.855098,46.752292,186.9],[4.855153,46.751599,187.4],[4.85517,46.751534,187.4],[4.855193,46.751499,187.4],[4.855273,46.751424,187.4],[4.855298,46.751383,187.4],[4.85539,46.75115,187.4],[4.855396,46.751103,187.4],[4.855531,46.750759,187.6],[4.85572,46.750203,188.2],[4.85582,46.74985,188],[4.855936,46.749251,187.6],[4.85594,46.749182,187.5],[4.856004,46.748927,187.1],[4.856025,46.74879,186.9],[4.856075,46.748666,186.8],[4.856121,46.748483,186.7],[4.856142,46.748442,186.6],[4.856217,46.748365,186.6],[4.856275,46.748242,186.6],[4.856321,46.748171,186.7],[4.856379,46.748017,186.7],[4.856581,46.747359,186.7],[4.856636,46.747126,186.7],[4.856653,46.746989,186.7],[4.856659,46.746811,186.7],[4.856649,46.746652,186.6],[4.856622,46.746541,186.5],[4.856562,46.745887,186.4],[4.856505,46.745459,186.4],[4.856434,46.744731,186],[4.856449,46.744585,185.9],[4.856588,46.74392,185.4],[4.856617,46.743826,185.3],[4.856631,46.74373,185.2],[4.856766,46.743168,184.5],[4.856821,46.742894,184.2],[4.856899,46.742301,183.6],[4.856939,46.742145,183.4],[4.856995,46.741994,183.3],[4.85714,46.741694,183],[4.857495,46.741065,182.4],[4.857639,46.74078,182.2],[4.85767,46.740736,182.2],[4.857921,46.740253,182],[4.85807,46.739991,182],[4.858086,46.739945,182],[4.858215,46.739721,182],[4.858234,46.739669,182],[4.85843,46.739298,181.8],[4.858568,46.739063,181.7],[4.858722,46.738774,181.3],[4.85885,46.738575,180.8],[4.859221,46.738077,179.4],[4.85958,46.737623,178.5],[4.8598,46.737384,178.4],[4.860509,46.736815,178.6],[4.860531,46.736771,178.7],[4.86051,46.736722,178.9],[4.860466,46.736683,179.1],[4.860356,46.736634,179.4],[4.860192,46.736512,180],[4.860058,46.736432,180.5],[4.860044,46.736394,180.7],[4.860052,46.736356,180.7],[4.860112,46.736262,180.8],[4.860249,46.73583,181.1],[4.860299,46.735703,181.2],[4.860333,46.735528,181.2],[4.860386,46.735426,181.2],[4.860501,46.735089,181.1],[4.860519,46.734905,181.2],[4.860627,46.734308,181.8],[4.860671,46.733968,182.1],[4.860657,46.733665,182.1],[4.860638,46.73359,182],[4.860624,46.733464,182],[4.860587,46.733336,182],[4.860554,46.733106,182],[4.860534,46.733064,182.1],[4.860425,46.732921,182.3],[4.860388,46.732851,182.4],[4.860113,46.732511,183.1],[4.85998,46.732313,183.4],[4.859946,46.732219,183.6],[4.859868,46.7321,183.8],[4.859803,46.731978,183.9],[4.859725,46.73179,184],[4.859494,46.731386,184.4],[4.859425,46.731303,184.5],[4.859354,46.731177,184.7],[4.859213,46.730995,184.8],[4.859101,46.730787,184.8],[4.859015,46.730546,185],[4.859008,46.730461,185.2],[4.859022,46.730331,185.4],[4.859063,46.730206,185.6],[4.859243,46.729876,186],[4.859376,46.729678,186.2],[4.859463,46.729572,186.1],[4.859616,46.729432,186],[4.859934,46.729193,185.7],[4.860608,46.728784,184],[4.861065,46.728437,182.3],[4.861397,46.72816,181.3],[4.86166,46.727923,180.7],[4.861924,46.727639,180.3],[4.862144,46.72742,180],[4.8622,46.727325,180.2],[4.862232,46.727227,180.6],[4.862261,46.727182,180.7],[4.862387,46.727044,181.2],[4.86274,46.7267,182.8],[4.86283,46.726581,183.4],[4.862846,46.72654,183.6],[4.862843,46.726413,184],[4.86281,46.726328,184.3],[4.862435,46.725831,186.6],[4.862405,46.725802,186.8],[4.862248,46.725713,187.4],[4.862151,46.725645,187.7],[4.862008,46.725579,188.2],[4.86191,46.725548,188.4],[4.861864,46.725508,188.5],[4.861856,46.725483,188.5],[4.861877,46.725454,188.5],[4.861982,46.725362,188.4],[4.862561,46.724995,187.1],[4.862827,46.724727,186.4],[4.863035,46.724498,186.2],[4.863856,46.723668,188.1],[4.86399,46.723549,188.6],[4.864566,46.722949,190.1],[4.864833,46.722639,190.2],[4.865352,46.722089,190.3],[4.865476,46.721942,190.2],[4.865866,46.721568,190],[4.865957,46.721455,189.9],[4.866109,46.721302,189.6],[4.866157,46.721266,189.5],[4.86663,46.720775,188.9],[4.866779,46.720635,188.7],[4.867032,46.720358,188.3],[4.867391,46.719927,188.1],[4.867464,46.719828,188.2],[4.867707,46.719539,188.5],[4.867906,46.719319,188.9],[4.868585,46.718663,189.8],[4.868917,46.718307,190.1],[4.869146,46.718077,190.2],[4.869252,46.717992,190.2],[4.869393,46.717857,190.2],[4.869727,46.7175,189.7],[4.87029,46.716943,187.7],[4.870852,46.71642,186.2],[4.871033,46.71623,185.7],[4.871295,46.715903,185.2],[4.871519,46.715675,185.1],[4.871842,46.715382,185.3],[4.872175,46.715128,185.8],[4.872419,46.714909,186.2],[4.872677,46.714624,186.5],[4.873031,46.714172,186.6],[4.873442,46.713727,186.8],[4.873559,46.71355,187.3],[4.873625,46.71347,187.5],[4.873693,46.713406,187.7],[4.873812,46.713255,187.9],[4.873956,46.713151,188.1],[4.874439,46.712739,188.4],[4.874809,46.712354,188.5],[4.87512,46.711973,188.6],[4.875206,46.711904,188.6],[4.875303,46.711845,188.5],[4.875382,46.71177,188.5],[4.875409,46.71173,188.5],[4.875913,46.711219,188],[4.876018,46.711063,187.9],[4.876097,46.710992,187.7],[4.876148,46.710917,187.6],[4.876317,46.710728,187.3],[4.876394,46.71066,187.2],[4.876485,46.710541,186.9],[4.876813,46.710194,185.9],[4.87708,46.70994,185.2],[4.87726,46.709751,184.7],[4.877432,46.7096,184.3],[4.877479,46.709544,184.1],[4.877539,46.709497,184],[4.877664,46.709327,183.6],[4.877714,46.709273,183.5],[4.877887,46.709123,183.1],[4.878069,46.708905,182.5],[4.878327,46.708656,182.1],[4.878536,46.708471,181.8],[4.8787,46.708282,181.6],[4.87871,46.708246,181.9],[4.878698,46.708221,182.1],[4.878635,46.70819,182.5],[4.878578,46.708187,182.8],[4.87857,46.708179,182.8],[4.878593,46.708163,182.7],[4.878607,46.708163,182.6],[4.878624,46.708195,182.3],[4.878707,46.708246,181.9],[4.878754,46.708243,181.6],[4.878963,46.707997,181.3],[4.879217,46.707746,181],[4.879452,46.707496,180.8],[4.879861,46.707096,180.4],[4.880167,46.706758,180.1],[4.88129,46.70556,178.9],[4.881358,46.705477,178.8],[4.881591,46.705238,178.5],[4.881657,46.705147,178.4],[4.881888,46.70488,178.2],[4.882156,46.704616,178],[4.882733,46.704018,177.5],[4.882883,46.70389,177.5],[4.883047,46.703773,177.4],[4.883401,46.703494,177.4],[4.883582,46.703399,177.4],[4.883936,46.703303,177.3],[4.884081,46.703273,177.2],[4.884139,46.703244,177.2],[4.884216,46.703227,177.2],[4.884492,46.703143,177],[4.884567,46.703127,176.9],[4.884779,46.70306,176.8],[4.885066,46.702997,176.7],[4.885351,46.702903,176.6],[4.885812,46.702807,176.5],[4.886107,46.702722,176.4],[4.886248,46.702663,176.3],[4.886541,46.702561,176.1],[4.886682,46.702499,176.1],[4.887493,46.702209,176],[4.887891,46.702037,176],[4.888252,46.701922,175.9],[4.888413,46.70188,175.8],[4.888789,46.701762,175.7],[4.889098,46.701686,175.6],[4.889664,46.701532,175.6],[4.889742,46.701519,175.6],[4.890062,46.701409,175.6],[4.891562,46.700953,175.6],[4.891789,46.70089,175.7],[4.892081,46.700797,175.7],[4.892303,46.700737,175.7],[4.892749,46.700589,175.6],[4.893254,46.70045,175.6],[4.893965,46.700239,175.7],[4.894359,46.700108,175.8],[4.895296,46.699832,176.1],[4.895581,46.69973,176.1],[4.895715,46.699659,176],[4.895827,46.699566,176],[4.895907,46.699459,176],[4.895954,46.699341,176],[4.896071,46.698744,175.8],[4.896068,46.698681,175.8],[4.896118,46.698508,175.8],[4.896133,46.698392,175.8],[4.896259,46.69779,175.7],[4.89633,46.697368,175.8],[4.89636,46.697266,175.8],[4.896387,46.697218,175.8],[4.896678,46.696888,175.8],[4.896729,46.696842,175.8],[4.896906,46.696725,175.7],[4.897589,46.696341,175.8],[4.897721,46.696275,175.8],[4.898782,46.695685,175.8],[4.898961,46.695571,175.8],[4.899724,46.695132,175.6],[4.900154,46.694855,175.9],[4.90037,46.694726,175.8],[4.900582,46.694643,175.7],[4.900832,46.694591,175.7],[4.901003,46.694577,175.7],[4.901249,46.694585,175.8],[4.901808,46.694644,176],[4.902901,46.694742,176.4],[4.903289,46.694806,176.3],[4.903443,46.694845,176.1],[4.90408,46.695084,176.1],[4.904337,46.695199,176.1],[4.904652,46.69536,176.1],[4.90553,46.695869,176.3],[4.905948,46.696102,176.2],[4.906153,46.6962,176.2],[4.906373,46.696283,176.2],[4.908045,46.69674,176.4],[4.908818,46.69696,176.9],[4.909225,46.697089,177.2],[4.909359,46.697142,177.3],[4.910292,46.697462,178],[4.910586,46.697602,178.1],[4.91069,46.697672,178.2],[4.91082,46.697786,178.3],[4.911185,46.698168,178.2],[4.911892,46.698882,178],[4.912561,46.69958,177.6],[4.912689,46.699741,177.5],[4.912862,46.69988,177.4],[4.912933,46.69996,177.4],[4.913016,46.700029,177.4],[4.913069,46.700055,177.4],[4.913132,46.700063,177.4],[4.913357,46.700045,177.4],[4.913597,46.700068,177.3],[4.913726,46.70006,177.2],[4.913841,46.700071,177.2],[4.914199,46.700056,177.2],[4.914612,46.700017,177.2],[4.914979,46.699956,177.2],[4.91528,46.699897,177.2],[4.915383,46.699868,177.2],[4.915617,46.699818,177.2],[4.91607,46.699746,177.1],[4.916273,46.699731,177.1],[4.916541,46.699726,177.1],[4.916648,46.699714,177.1],[4.91695,46.699718,177.1],[4.917338,46.699765,177.1],[4.917669,46.699816,176.9],[4.917741,46.699816,176.9],[4.917889,46.69979,176.9],[4.918189,46.699832,176.8],[4.918265,46.699828,176.8],[4.918615,46.699837,176.8],[4.918746,46.699866,176.7],[4.91896,46.699853,176.7],[4.919245,46.69982,176.7],[4.91938,46.699797,176.7],[4.919509,46.699758,176.6],[4.919595,46.699691,176.7],[4.919642,46.699674,176.7],[4.919895,46.69962,176.8],[4.919934,46.699595,176.8],[4.920001,46.699585,176.8],[4.920113,46.699584,176.8],[4.920165,46.699568,176.9],[4.920317,46.699483,177],[4.920369,46.699477,177],[4.920434,46.699487,177],[4.92049,46.69948,177],[4.920655,46.699413,177.1],[4.920779,46.699377,177.1],[4.920956,46.699313,177.1],[4.921124,46.699265,177.2],[4.921263,46.699258,177.2],[4.921487,46.699202,177.2],[4.922089,46.699072,177.2],[4.922488,46.698995,177.3],[4.923232,46.698835,177.4],[4.923537,46.698793,177.4],[4.923728,46.698784,177.5],[4.923992,46.698758,177.5],[4.924123,46.698759,177.5],[4.92437,46.698733,177.5],[4.924862,46.698625,177.4],[4.925117,46.698594,177.3],[4.925307,46.698586,177.3],[4.925725,46.6985,177.2],[4.926109,46.698453,177.1],[4.926417,46.698445,176.9],[4.926995,46.69848,176.9],[4.927147,46.698483,176.8],[4.927209,46.698456,176.8],[4.927302,46.698383,176.7],[4.927346,46.698365,176.6],[4.927405,46.698375,176.6],[4.927463,46.6984,176.6],[4.927486,46.698441,176.5],[4.927477,46.698527,176.5],[4.927552,46.698873,176.2],[4.927572,46.69891,176.2],[4.927621,46.698935,176.1],[4.927677,46.698951,176],[4.927785,46.698966,175.9],[4.928262,46.699121,175.7],[4.928574,46.699235,175.5],[4.928675,46.699279,175.4],[4.928855,46.699316,175],[4.928939,46.699308,174.8],[4.929089,46.69927,174.4],[4.929287,46.699189,174],[4.929452,46.699148,173.9],[4.929714,46.699048,173.7],[4.930004,46.698959,173.6],[4.930747,46.69876,173.3],[4.930968,46.698685,173.2],[4.931554,46.698529,173.4],[4.931628,46.698526,173.4],[4.931774,46.69856,173.3],[4.932202,46.698611,173.3],[4.932558,46.698642,173.2],[4.932752,46.698672,173.1],[4.932885,46.698667,173.1],[4.933194,46.698692,173],[4.933302,46.69873,173],[4.933471,46.698733,173],[4.933611,46.698754,173.1],[4.933871,46.698769,173.1],[4.934088,46.698795,173.2],[4.934273,46.698793,173.2],[4.934412,46.698807,173.2],[4.934628,46.698809,173.1],[4.934804,46.698828,173.1],[4.934885,46.698829,173.1],[4.934928,46.698839,173.1],[4.93499,46.698812,173.1],[4.934977,46.698813,173.1],[4.934982,46.69881,173.1],[4.934973,46.69881,173.1],[4.935002,46.698823,173.1],[4.935212,46.698836,173.1],[4.935315,46.698851,173.1],[4.935647,46.698871,173],[4.935758,46.698898,173],[4.935938,46.698907,172.9],[4.935921,46.698902,172.9],[4.935985,46.698917,172.9],[4.936142,46.698919,172.8],[4.936192,46.698904,172.8],[4.936181,46.698907,172.8],[4.936188,46.698903,172.8],[4.936309,46.698924,172.9],[4.936495,46.69894,172.9],[4.936796,46.698997,173],[4.936826,46.698995,173],[4.936874,46.699009,173.1],[4.93696,46.69905,173.1],[4.937027,46.699053,173.1],[4.937145,46.698976,173.1],[4.937152,46.69896,173.1],[4.937191,46.69894,173.1],[4.937236,46.698856,173.1],[4.937306,46.6988,173.1],[4.937432,46.69866,173.1],[4.937685,46.698432,173.1],[4.937808,46.698337,173.1],[4.938103,46.698044,173.1],[4.93844,46.697664,173.1],[4.938661,46.697473,173],[4.938786,46.697345,173],[4.939011,46.697073,173],[4.939154,46.696925,173.1],[4.939314,46.69674,173.1],[4.939666,46.696369,173.1],[4.939944,46.69606,173.1],[4.939998,46.695977,173.1],[4.940031,46.695953,173.1],[4.940436,46.695515,173.1],[4.940467,46.695468,173.1],[4.940759,46.695145,173.1],[4.940913,46.694923,173.1],[4.940931,46.694876,173.1],[4.940914,46.694859,173.1],[4.940915,46.694867,173.1],[4.940912,46.69486,173.1],[4.940994,46.694751,173.1],[4.941162,46.694451,173.1],[4.941241,46.694286,173.1],[4.941404,46.693761,173],[4.941424,46.693731,173],[4.941444,46.693664,173],[4.941463,46.693634,173],[4.941559,46.69336,172.9],[4.941607,46.693147,172.9],[4.941732,46.692878,172.9],[4.942041,46.691793,172.9],[4.942151,46.690748,172.8],[4.942228,46.690218,172.9],[4.942264,46.689518,172.8],[4.942317,46.689077,172.7],[4.942371,46.688777,172.7],[4.942414,46.688611,172.8],[4.942481,46.688163,172.9],[4.942506,46.688081,172.9],[4.942529,46.687833,173],[4.942594,46.687459,173.1],[4.94259,46.687238,172.9],[4.942606,46.687054,172.8],[4.942656,46.686721,172.7],[4.942853,46.686028,172.7],[4.942927,46.685702,172.7],[4.943132,46.685031,172.9],[4.943337,46.684036,172.8],[4.943424,46.683514,172.7],[4.943488,46.68327,172.7],[4.943634,46.682809,172.9],[4.943701,46.682646,173],[4.943819,46.682266,173],[4.944092,46.681534,173.2],[4.944235,46.681034,173.2],[4.944375,46.680668,173.3],[4.944458,46.680493,173.3],[4.944549,46.680255,173.3],[4.944726,46.679872,173.3],[4.944847,46.679642,173.3],[4.945047,46.679213,173.2],[4.945178,46.678978,173.1],[4.945436,46.678555,173],[4.945481,46.678461,173],[4.945602,46.678117,173.1],[4.946012,46.677042,173.2],[4.946081,46.676803,173.3],[4.946097,46.676703,173.3],[4.946366,46.675679,173.2],[4.946403,46.675579,173.2],[4.946561,46.675,173.4],[4.946576,46.674907,173.4],[4.946612,46.674817,173.5],[4.946661,46.674635,173.5],[4.946837,46.674091,173.5],[4.946887,46.673894,173.5],[4.946935,46.673546,173.4],[4.946979,46.673349,173.5],[4.947103,46.673098,173.3],[4.947161,46.672896,173.2],[4.94725,46.672429,172.9],[4.947272,46.672149,172.8],[4.947361,46.671688,172.7],[4.947372,46.67143,172.7],[4.947422,46.671115,172.7],[4.947516,46.670693,172.6],[4.94752,46.670586,172.6],[4.947634,46.669723,172.6],[4.947651,46.669509,172.6],[4.94776,46.668754,172.6],[4.947836,46.66849,172.8],[4.947872,46.668397,172.9],[4.947937,46.668272,172.8],[4.947961,46.6682,172.8],[4.947987,46.668018,172.6],[4.947888,46.667796,172.5],[4.947864,46.667613,172.5],[4.947889,46.667251,172.4],[4.947911,46.667164,172.4],[4.947943,46.666938,172.4],[4.948001,46.66634,172.4],[4.94809,46.665652,172.3],[4.948141,46.665412,172.2],[4.94825,46.66457,172.2],[4.948261,46.664405,172.3],[4.948316,46.663996,172.3],[4.948331,46.663803,172.6],[4.94837,46.663556,172.6],[4.948475,46.663338,172.4],[4.948502,46.663302,172.4],[4.948537,46.663223,172.4],[4.948785,46.662838,172.6],[4.948857,46.662676,172.7],[4.948975,46.662475,172.8],[4.949036,46.662401,172.8],[4.949054,46.662355,172.8],[4.949243,46.662072,172.7],[4.94928,46.662043,172.6],[4.949354,46.662009,172.6],[4.949374,46.661981,172.6],[4.949375,46.661956,172.5],[4.949371,46.661965,172.5],[4.949431,46.661901,172.5],[4.949425,46.661868,172.4],[4.949393,46.661871,172.4],[4.949328,46.661822,172.4],[4.949318,46.661888,172.4],[4.949373,46.661909,172.4],[4.949395,46.661935,172.4],[4.949413,46.661939,172.4],[4.949407,46.661933,172.4],[4.949356,46.661927,172.4],[4.949341,46.661883,172.4],[4.949416,46.661746,172.5],[4.949462,46.661691,172.6],[4.949538,46.661566,172.7],[4.94965,46.66134,172.8],[4.949703,46.6612,172.8],[4.949754,46.661134,172.8],[4.949834,46.660986,172.7],[4.949863,46.660958,172.7],[4.950073,46.660619,172.7],[4.950204,46.660456,172.7],[4.950245,46.660368,172.7],[4.950427,46.660107,172.7],[4.950477,46.660013,172.6],[4.950576,46.659882,172.6],[4.950661,46.659745,172.5],[4.95078,46.65951,172.5],[4.950867,46.659371,172.5],[4.950886,46.659321,172.5],[4.950951,46.659232,172.6],[4.951138,46.658908,172.7],[4.951235,46.65867,172.8],[4.951382,46.658404,172.9],[4.951469,46.65827,172.8],[4.951606,46.658091,172.8],[4.951713,46.657971,172.8],[4.951893,46.657601,172.9],[4.951964,46.657404,173],[4.952004,46.657257,173],[4.952167,46.656823,172.9],[4.952257,46.656504,172.7],[4.952342,46.65629,172.6],[4.952442,46.65597,172.5],[4.952492,46.65571,172.6],[4.952574,46.654755,172.9],[4.952585,46.654719,172.9],[4.952617,46.654694,173],[4.952657,46.654692,173],[4.952699,46.654707,173],[4.952733,46.654733,173],[4.952739,46.65477,173],[4.952826,46.654866,173],[4.952862,46.654923,173.1],[4.952892,46.654942,173.1],[4.952933,46.654952,173.1],[4.952982,46.654936,173.1],[4.952995,46.654902,173.1],[4.952979,46.654862,173.2],[4.952927,46.654797,173.2],[4.952924,46.654774,173.2],[4.952969,46.654536,173.3],[4.952967,46.654422,173.3],[4.952991,46.654388,173.3],[4.952987,46.654376,173.3],[4.952965,46.654375,173.3],[4.952946,46.654392,173.3],[4.952967,46.654439,173.3],[4.952953,46.654521,173.3],[4.952903,46.654675,173.3],[4.952905,46.654799,173.2],[4.952956,46.654919,173.1],[4.952986,46.654932,173.1],[4.953016,46.654932,173.1],[4.953074,46.654896,173.2],[4.953092,46.654862,173.2],[4.953105,46.654775,173.2],[4.953096,46.654745,173.3],[4.953102,46.654653,173.3],[4.953094,46.654615,173.3],[4.953104,46.654568,173.3],[4.953137,46.654501,173.3],[4.953137,46.654437,173.3],[4.953157,46.654393,173.3],[4.953155,46.654298,173.3],[4.953121,46.654176,173.2],[4.953103,46.654147,173.2],[4.953092,46.654069,173.2],[4.953059,46.654013,173.2],[4.952984,46.653967,173.1],[4.952899,46.653957,173.1],[4.952855,46.653973,173],[4.952787,46.65402,173],[4.952739,46.654032,173],[4.952689,46.654014,173],[4.95268,46.653978,173],[4.95273,46.653832,173],[4.952729,46.653794,173],[4.952777,46.653566,173.1],[4.952792,46.65342,173.1],[4.952786,46.653359,173.1],[4.952799,46.653189,173.1],[4.952818,46.653136,173.1],[4.952794,46.653103,173.1],[4.952786,46.653011,173.1],[4.952803,46.652949,173.1],[4.952791,46.652874,173.1],[4.952793,46.652741,173.1],[4.952811,46.65257,173.1],[4.952817,46.652273,173.2],[4.952837,46.652127,173.2],[4.952865,46.652052,173.2],[4.952865,46.651981,173.3],[4.952898,46.651874,173.3],[4.952905,46.651801,173.4],[4.952927,46.651727,173.5],[4.952943,46.651592,173.6],[4.952944,46.651449,173.7],[4.952967,46.651318,173.7],[4.95304,46.651053,173.9],[4.953098,46.650921,174],[4.953193,46.650631,174.2],[4.953213,46.650524,174.3],[4.953221,46.650356,174.3],[4.953263,46.650177,174.2],[4.953289,46.65001,174.1],[4.953336,46.649477,174.1],[4.953333,46.649378,174.1],[4.95336,46.64916,174],[4.953357,46.649108,174],[4.95332,46.649076,174],[4.953377,46.64903,174],[4.95338,46.649013,174],[4.953345,46.648959,174],[4.953367,46.648952,174],[4.953379,46.648957,174],[4.953396,46.648995,174],[4.953367,46.649067,174.1],[4.953364,46.649154,174.1],[4.953316,46.649222,174.1],[4.953362,46.649256,174.1],[4.953277,46.649297,174.2],[4.953296,46.649285,174.2],[4.95331,46.649292,174.2],[4.953344,46.649242,174.2],[4.953373,46.649149,174.2],[4.953363,46.649152,174.2],[4.953378,46.649128,174.2],[4.953381,46.649052,174.2],[4.953348,46.64897,174.2],[4.953369,46.64893,174.2],[4.953374,46.648893,174.2],[4.953385,46.648885,174.2],[4.953397,46.648804,174.2],[4.953391,46.648772,174.2],[4.953417,46.64872,174.2],[4.953412,46.648646,174.1],[4.953426,46.648598,174.1],[4.953427,46.648425,174.1],[4.953437,46.648377,174.1],[4.95343,46.648304,174],[4.953445,46.648249,174],[4.95344,46.648223,174],[4.953491,46.647851,173.7],[4.953565,46.647101,173.2],[4.953595,46.646961,173.1],[4.953679,46.646409,173.2],[4.953688,46.646154,173.9],[4.953649,46.645863,173.9],[4.953525,46.645525,173.1],[4.953451,46.645286,173.1],[4.953383,46.645137,173.1],[4.953285,46.644825,172.9],[4.953225,46.644585,173],[4.953226,46.644357,173.3],[4.953194,46.643942,173.5],[4.953184,46.643462,173.3],[4.953208,46.64287,173.2],[4.953302,46.642327,172.9],[4.953381,46.641543,172.9],[4.953407,46.640843,172.9],[4.953433,46.640677,172.9],[4.953508,46.640467,173.1],[4.953929,46.639648,173.3],[4.954043,46.639396,173.2],[4.954158,46.639098,173.2],[4.95427,46.638667,173.1],[4.954265,46.638586,173.1],[4.954319,46.638341,172.9],[4.954343,46.638112,172.8],[4.954358,46.637775,173.1],[4.954399,46.637359,173.3],[4.954376,46.637117,173.3],[4.954335,46.636884,173.4],[4.954266,46.636591,173.3],[4.954158,46.6363,173.4],[4.954152,46.636244,173.4],[4.95416,46.636186,173.5],[4.954284,46.635969,173.5],[4.954311,46.635857,173.6],[4.954263,46.634218,173.6],[4.954246,46.634071,173.6],[4.954266,46.633585,173.5],[4.954264,46.633351,173.5],[4.954191,46.632673,173.9],[4.954115,46.632398,174],[4.953799,46.631491,173.4],[4.95373,46.631328,173.2],[4.953649,46.631181,173.1],[4.953459,46.630714,173.1],[4.953352,46.630542,173.2],[4.953164,46.630197,173.3],[4.952831,46.629487,173.2],[4.952727,46.629131,173.7],[4.95261,46.628895,173.7],[4.95257,46.628843,173.7],[4.952484,46.628682,173.6],[4.952232,46.628274,173.6],[4.951706,46.627648,173.5],[4.951271,46.627211,173.6],[4.951192,46.62712,173.6],[4.950925,46.626865,173.6],[4.950642,46.626613,173.4],[4.950486,46.626486,173.4],[4.950092,46.626218,173.4],[4.949966,46.626141,173.4],[4.949759,46.625984,173.4],[4.949638,46.625909,173.4],[4.949529,46.625828,173.4],[4.949119,46.625561,173.3],[4.948942,46.625457,173.3],[4.948699,46.625339,173.3],[4.948224,46.625074,173.2],[4.948091,46.625009,173.2],[4.947791,46.624829,173.4],[4.947579,46.624671,173.4],[4.947508,46.624636,173.4],[4.947379,46.624528,173.4],[4.947341,46.624483,173.4],[4.947152,46.624377,173.5],[4.947007,46.624262,173.5],[4.946886,46.624196,173.4],[4.946822,46.624172,173.4],[4.94673,46.624081,173.4],[4.946454,46.6239,173.4],[4.946362,46.623817,173.4],[4.946178,46.623711,173.5],[4.946077,46.623629,173.5],[4.945904,46.623525,173.5],[4.945767,46.623454,173.6],[4.945727,46.623404,173.6],[4.945404,46.623124,173.7],[4.945249,46.62296,173.7],[4.945192,46.622866,173.6],[4.945053,46.622728,173.6],[4.94498,46.622636,173.6],[4.944925,46.622541,173.6],[4.944744,46.622372,173.6],[4.944033,46.621536,173.8],[4.943895,46.621357,173.9],[4.943696,46.621127,173.9],[4.94363,46.621035,174],[4.943542,46.620834,174],[4.943509,46.620789,174],[4.943439,46.620584,173.9],[4.943384,46.620483,173.8],[4.943347,46.620378,173.8],[4.943245,46.620174,173.7],[4.943063,46.619719,173.7],[4.942876,46.619294,173.9],[4.942795,46.619075,174],[4.942754,46.61899,174],[4.942735,46.618903,174],[4.942537,46.618323,174.2],[4.942448,46.618101,174.2],[4.942409,46.617962,174.3],[4.94237,46.617871,174.3],[4.942361,46.617783,174.3],[4.942311,46.617694,174.3],[4.942304,46.617647,174.3],[4.942277,46.617599,174.3],[4.942217,46.617416,174.4],[4.942186,46.617372,174.4],[4.942169,46.617281,174.4],[4.942128,46.617195,174.4],[4.942071,46.616988,174.4],[4.942068,46.616939,174.4],[4.942014,46.616736,174.4],[4.941795,46.615677,174.4],[4.941582,46.614816,174.3],[4.941566,46.614621,174.3],[4.941572,46.614525,174.3],[4.941496,46.614211,174.2],[4.941499,46.61417,174.1],[4.941446,46.613995,174.1],[4.941379,46.613681,174.2],[4.941305,46.613467,174.2],[4.941161,46.613225,174.3],[4.941008,46.612934,174.3],[4.940973,46.612847,174.3],[4.940817,46.612585,174.3],[4.940508,46.612161,174.4],[4.93961,46.611036,174.7],[4.938953,46.610259,174.6],[4.938836,46.610054,174.2],[4.938732,46.609836,174],[4.938549,46.609665,174.2],[4.938355,46.60944,174.4],[4.938062,46.609073,174.3],[4.937705,46.608671,174.3],[4.937574,46.608555,174.3],[4.937456,46.608429,174.4],[4.937286,46.608271,174.4],[4.937219,46.608194,174.4],[4.937048,46.60803,174.3],[4.937022,46.60799,174.3],[4.936735,46.607696,173.9],[4.936587,46.607606,173.8],[4.936401,46.607454,173.6],[4.936056,46.607144,173.5],[4.935935,46.607022,173.4],[4.935681,46.606802,173.5],[4.935615,46.60673,173.5],[4.935486,46.606621,173.6],[4.935314,46.606448,173.5],[4.934639,46.605844,173.5],[4.934443,46.605649,173.5],[4.93428,46.60551,173.5],[4.93369,46.604925,173.4],[4.933325,46.604582,173.5],[4.932974,46.604272,173.5],[4.932643,46.604019,173.4],[4.932425,46.603833,173.3],[4.93213,46.603557,173.1],[4.932051,46.603472,173],[4.931736,46.603195,173.3],[4.93143,46.602906,173.7],[4.931321,46.602765,173.7],[4.930987,46.602414,173.5],[4.930832,46.60227,173.5],[4.930709,46.602121,173.5],[4.930533,46.601883,173.5],[4.930303,46.601542,173.4],[4.93005,46.601214,173.5],[4.930002,46.601137,173.5],[4.929738,46.600795,173.7],[4.92967,46.600735,173.6],[4.929552,46.600561,173.5],[4.929525,46.600501,173.4],[4.929546,46.600493,173.4],[4.92954,46.600502,173.4],[4.929548,46.600505,173.4],[4.929475,46.60042,173.3],[4.929463,46.600391,173.3],[4.929112,46.600045,173.3],[4.92906,46.599981,173.3],[4.928727,46.599642,173.2],[4.928675,46.599572,173.3],[4.928628,46.599534,173.3],[4.928605,46.599498,173.3],[4.928468,46.599347,173.5],[4.928391,46.599234,173.6],[4.928371,46.59915,173.6],[4.92839,46.599062,173.5],[4.928392,46.598973,173.5],[4.928372,46.598835,173.5],[4.928351,46.598787,173.5],[4.928323,46.598645,173.4],[4.92829,46.598559,173.4],[4.928246,46.598378,173.4],[4.928021,46.597972,173.5],[4.92786,46.597741,173.4],[4.927785,46.59765,173.4],[4.927671,46.597467,173.5],[4.92753,46.59728,173.5],[4.92731,46.59695,173.7],[4.927237,46.596809,173.8],[4.926867,46.596181,173.7],[4.926711,46.595942,173.7],[4.926685,46.595887,173.7],[4.926587,46.595752,173.6],[4.926433,46.595567,173.3],[4.926161,46.595312,173.2],[4.926066,46.595233,173.3],[4.925546,46.594745,173.5],[4.925099,46.594388,173.7],[4.924795,46.594177,173.8],[4.924706,46.594098,173.9],[4.924275,46.593625,174.1],[4.924126,46.593531,174.1],[4.923944,46.593397,174.1],[4.923653,46.593083,174.1],[4.923549,46.592951,174.2],[4.923424,46.592818,174.2],[4.923371,46.592778,174.2],[4.923286,46.592693,174.2],[4.923191,46.592621,174.2],[4.923027,46.59246,174.2],[4.921703,46.591367,173.5],[4.921511,46.591195,173.5],[4.921171,46.590924,173.4],[4.921028,46.590826,173.4],[4.920979,46.590781,173.4],[4.920766,46.590629,173.4],[4.920428,46.590409,173.4],[4.919908,46.590102,173.4],[4.919846,46.590076,173.4],[4.919723,46.590007,173.4],[4.919173,46.589731,173.5],[4.918855,46.58951,173.6],[4.918662,46.589357,173.5],[4.918528,46.589228,173.5],[4.918286,46.588964,173.3],[4.917933,46.588616,173.2],[4.917477,46.588197,173.2],[4.917302,46.588021,173.2],[4.917249,46.587981,173.2],[4.916987,46.587723,173.1],[4.916587,46.587357,173.1],[4.916217,46.587033,173.1],[4.915875,46.586687,173.3],[4.915565,46.586333,173.3],[4.91544,46.586146,173.2],[4.915325,46.586011,173.2],[4.91508,46.58557,173.3],[4.91495,46.585378,173.3],[4.914773,46.585179,173.4],[4.914716,46.58505,173.3],[4.914686,46.585013,173.2],[4.91462,46.584869,173.1],[4.914541,46.584779,173.1],[4.914492,46.584688,173.1],[4.914138,46.584172,173],[4.913524,46.583346,173],[4.913094,46.582679,172.9],[4.91302,46.582593,172.9],[4.912925,46.582384,173],[4.912794,46.58213,173],[4.912754,46.582084,173],[4.912366,46.581349,173.2],[4.912272,46.581151,173.4],[4.912192,46.580949,173.4],[4.912127,46.580744,173.5],[4.912079,46.580634,173.5],[4.912025,46.580314,173.5],[4.912009,46.58027,173.5],[4.911974,46.579893,173.4],[4.911985,46.579568,173.3],[4.911977,46.579388,173.3],[4.912006,46.579219,173.2],[4.91202,46.578983,173.2],[4.912008,46.578808,173.1],[4.911936,46.578453,173.1],[4.911901,46.578111,173.1],[4.911889,46.577636,173],[4.911858,46.577038,172.9],[4.91181,46.576386,173.2],[4.911815,46.576205,173.3],[4.911858,46.57597,173.5],[4.912044,46.575338,173.5],[4.912079,46.575045,173.5],[4.912243,46.574193,173.4],[4.912417,46.573032,173.2],[4.912431,46.572783,173.2],[4.912392,46.572604,173.2],[4.912357,46.572311,173.3],[4.912344,46.5719,173.1],[4.912272,46.57148,173.1],[4.912224,46.571305,173.2],[4.912136,46.570899,173.1],[4.911994,46.570376,173.2],[4.911914,46.570158,173.2],[4.911891,46.570043,173.2],[4.911827,46.569846,173.2],[4.911815,46.56974,173.2],[4.911759,46.569633,173.2],[4.911642,46.569271,173.2],[4.911616,46.569234,173.2],[4.911561,46.569088,173.2],[4.911538,46.568986,173.2],[4.911473,46.568789,173.2],[4.911445,46.568631,173.2],[4.9114,46.568532,173.2],[4.911359,46.568335,173.3],[4.911334,46.56828,173.3],[4.911225,46.567771,173.7],[4.911237,46.567638,173.8],[4.911231,46.567514,174],[4.911221,46.567482,174],[4.911178,46.567437,174.1],[4.911149,46.567163,174.2],[4.911127,46.567052,174.3],[4.9111,46.566984,174.4],[4.911038,46.566933,174.5],[4.910974,46.566919,174.5],[4.910853,46.566941,174.7],[4.910827,46.566958,174.8],[4.910773,46.567036,175],[4.910652,46.567159,175.3],[4.910492,46.567346,175.7],[4.910421,46.567397,175.8],[4.910407,46.567421,175.8],[4.910381,46.567425,175.9],[4.910346,46.567405,176],[4.910311,46.56737,176.1],[4.910266,46.567348,176.2],[4.910213,46.567336,176.3],[4.910044,46.567324,176.6],[4.909718,46.567273,177.5],[4.909503,46.567269,178.2],[4.90911,46.567311,179.9],[4.908896,46.567323,181.1],[4.908666,46.567293,182.6],[4.908258,46.567198,185.6],[4.908176,46.567171,186.3],[4.907827,46.567092,188.9],[4.907653,46.567064,190.2],[4.907512,46.567059,191.2],[4.907317,46.567085,191.6],[4.907253,46.567073,191.7],[4.907152,46.566992,191.8],[4.90712,46.567005,191.9],[4.907129,46.567032,191.9],[4.907149,46.56705,191.9],[4.907133,46.567037,191.9],[4.907101,46.567038,191.9],[4.907087,46.567025,191.9],[4.907102,46.566946,192],[4.907117,46.566922,192],[4.907186,46.566877,192],[4.907192,46.566883,192],[4.907237,46.566879,192],[4.907281,46.566885,192],[4.907322,46.566865,192],[4.907336,46.566775,192.2],[4.907409,46.566514,192.5],[4.907427,46.566483,192.5],[4.907439,46.566395,192.6],[4.907453,46.56637,192.6],[4.907477,46.566228,192.7],[4.907498,46.566163,192.7],[4.907553,46.566094,192.7],[4.907618,46.565955,192.7],[4.907651,46.565808,192.6],[4.907684,46.565539,192.5],[4.907721,46.565522,192.5],[4.907804,46.565519,192.6],[4.907814,46.565525,192.5],[4.907804,46.565524,192.5],[4.907947,46.5656,192.5],[4.908032,46.565609,192.5],[4.908088,46.56563,192.4],[4.908337,46.565688,192.3],[4.908386,46.565708,192.3],[4.908462,46.565698,192.2],[4.908471,46.565688,192.2],[4.908468,46.5657,192.1],[4.908459,46.5657,192.1],[4.908473,46.5657,192.1],[4.908462,46.5657,192],[4.908534,46.565656,191.8],[4.908517,46.565607,191.7],[4.908528,46.565581,191.6],[4.908576,46.56554,191.4],[4.908599,46.56548,191.2],[4.908622,46.565457,191.1],[4.908615,46.565474,191]]}}]}