{"type":"FeatureCollection","features":[{"type":"Feature","properties":{"name":"Costa Rica - Découverte en bateau de la faune aquatique","type":"bateau","time":"2026-08-13T22:17:58Z","coordTimes":["2026-08-13T22:17:58Z","2026-08-13T22:18:03Z","2026-08-13T22:18:08Z","2026-08-13T22:18:13Z","2026-08-13T22:18:25Z","2026-08-13T22:18:26Z","2026-08-13T22:19:05Z","2026-08-13T22:19:09Z","2026-08-13T22:19:44Z","2026-08-13T22:19:55Z","2026-08-13T22:20:38Z","2026-08-13T22:21:03Z","2026-08-13T22:22:02Z","2026-08-13T22:23:23Z","2026-08-13T22:23:26Z","2026-08-13T22:23:29Z","2026-08-13T22:23:34Z","2026-08-13T22:23:42Z","2026-08-13T22:23:57Z","2026-08-13T22:24:02Z","2026-08-13T22:24:19Z","2026-08-13T22:25:09Z","2026-08-13T22:25:15Z","2026-08-13T22:25:20Z","2026-08-13T22:25:33Z","2026-08-13T22:25:36Z","2026-08-13T22:25:38Z","2026-08-13T22:25:44Z","2026-08-13T22:25:47Z","2026-08-13T22:25:54Z","2026-08-13T22:26:12Z","2026-08-13T22:26:44Z","2026-08-13T22:26:45Z","2026-08-13T22:26:53Z","2026-08-13T22:26:57Z","2026-08-13T22:27:01Z","2026-08-13T22:27:05Z","2026-08-13T22:27:10Z","2026-08-13T22:27:12Z","2026-08-13T22:27:14Z","2026-08-13T22:27:16Z","2026-08-13T22:27:20Z","2026-08-13T22:27:26Z","2026-08-13T22:27:28Z","2026-08-13T22:27:29Z","2026-08-13T22:27:32Z","2026-08-13T22:27:33Z","2026-08-13T22:27:34Z","2026-08-13T22:27:36Z","2026-08-13T22:27:37Z","2026-08-13T22:27:38Z","2026-08-13T22:27:39Z","2026-08-13T22:27:40Z","2026-08-13T22:27:41Z","2026-08-13T22:27:45Z","2026-08-13T22:27:46Z","2026-08-13T22:27:48Z","2026-08-13T22:27:49Z","2026-08-13T22:27:50Z","2026-08-13T22:27:52Z","2026-08-13T22:27:53Z","2026-08-13T22:27:54Z","2026-08-13T22:27:55Z","2026-08-13T22:27:57Z","2026-08-13T22:27:59Z","2026-08-13T22:28:01Z","2026-08-13T22:28:03Z","2026-08-13T22:28:04Z","2026-08-13T22:28:07Z","2026-08-13T22:28:09Z","2026-08-13T22:28:11Z","2026-08-13T22:28:17Z","2026-08-13T22:28:22Z","2026-08-13T22:28:28Z","2026-08-13T22:28:31Z","2026-08-13T22:28:33Z","2026-08-13T22:28:36Z","2026-08-13T22:28:39Z","2026-08-13T22:28:40Z","2026-08-13T22:28:42Z","2026-08-13T22:28:44Z","2026-08-13T22:28:47Z","2026-08-13T22:28:49Z","2026-08-13T22:28:51Z","2026-08-13T22:28:57Z","2026-08-13T22:28:59Z","2026-08-13T22:29:02Z","2026-08-13T22:29:04Z","2026-08-13T22:29:05Z","2026-08-13T22:29:06Z","2026-08-13T22:29:07Z","2026-08-13T22:29:08Z","2026-08-13T22:29:09Z","2026-08-13T22:29:10Z","2026-08-13T22:29:11Z","2026-08-13T22:29:12Z","2026-08-13T22:29:13Z","2026-08-13T22:29:14Z","2026-08-13T22:29:15Z","2026-08-13T22:29:17Z","2026-08-13T22:29:24Z","2026-08-13T22:29:27Z","2026-08-13T22:29:29Z","2026-08-13T22:29:32Z","2026-08-13T22:29:34Z","2026-08-13T22:29:36Z","2026-08-13T22:29:39Z","2026-08-13T22:29:46Z","2026-08-13T22:29:54Z","2026-08-13T22:29:59Z","2026-08-13T22:30:00Z","2026-08-13T22:30:06Z","2026-08-13T22:30:08Z","2026-08-13T22:30:10Z","2026-08-13T22:30:14Z","2026-08-13T22:30:17Z","2026-08-13T22:30:20Z","2026-08-13T22:30:21Z","2026-08-13T22:30:26Z","2026-08-13T22:30:28Z","2026-08-13T22:30:30Z","2026-08-13T22:30:33Z","2026-08-13T22:30:44Z","2026-08-13T22:30:47Z","2026-08-13T22:30:51Z","2026-08-13T22:30:55Z","2026-08-13T22:30:56Z","2026-08-13T22:30:58Z","2026-08-13T22:31:02Z","2026-08-13T22:31:10Z","2026-08-13T22:31:24Z","2026-08-13T22:31:28Z","2026-08-13T22:31:30Z","2026-08-13T22:31:33Z","2026-08-13T22:31:36Z","2026-08-13T22:31:41Z","2026-08-13T22:31:46Z","2026-08-13T22:31:53Z","2026-08-13T22:31:56Z","2026-08-13T22:32:01Z","2026-08-13T22:32:02Z","2026-08-13T22:32:03Z","2026-08-13T22:32:11Z","2026-08-13T22:32:16Z","2026-08-13T22:32:18Z","2026-08-13T22:32:20Z","2026-08-13T22:32:28Z","2026-08-13T22:32:33Z","2026-08-13T22:32:38Z","2026-08-13T22:32:41Z","2026-08-13T22:32:44Z","2026-08-13T22:32:46Z","2026-08-13T22:32:47Z","2026-08-13T22:32:52Z","2026-08-13T22:32:54Z","2026-08-13T22:32:56Z","2026-08-13T22:32:59Z","2026-08-13T22:33:01Z","2026-08-13T22:33:03Z","2026-08-13T22:33:04Z","2026-08-13T22:33:07Z","2026-08-13T22:33:10Z","2026-08-13T22:33:12Z","2026-08-13T22:33:16Z","2026-08-13T22:33:33Z","2026-08-13T22:33:35Z","2026-08-13T22:33:39Z","2026-08-13T22:33:40Z","2026-08-13T22:33:45Z","2026-08-13T22:33:48Z","2026-08-13T22:33:50Z","2026-08-13T22:33:52Z","2026-08-13T22:33:55Z","2026-08-13T22:33:57Z","2026-08-13T22:34:00Z","2026-08-13T22:34:03Z","2026-08-13T22:34:05Z","2026-08-13T22:34:06Z","2026-08-13T22:34:09Z","2026-08-13T22:34:10Z","2026-08-13T22:34:12Z","2026-08-13T22:34:14Z","2026-08-13T22:34:16Z","2026-08-13T22:34:18Z","2026-08-13T22:34:20Z","2026-08-13T22:34:22Z","2026-08-13T22:34:24Z","2026-08-13T22:34:25Z","2026-08-13T22:34:27Z","2026-08-13T22:34:28Z","2026-08-13T22:34:30Z","2026-08-13T22:34:31Z","2026-08-13T22:34:33Z","2026-08-13T22:34:36Z","2026-08-13T22:34:40Z","2026-08-13T22:34:42Z","2026-08-13T22:34:44Z","2026-08-13T22:34:45Z","2026-08-13T22:34:46Z","2026-08-13T22:34:47Z","2026-08-13T22:34:48Z","2026-08-13T22:34:50Z","2026-08-13T22:34:51Z","2026-08-13T22:34:55Z","2026-08-13T22:34:56Z","2026-08-13T22:35:01Z","2026-08-13T22:35:03Z","2026-08-13T22:35:05Z","2026-08-13T22:35:07Z","2026-08-13T22:35:08Z","2026-08-13T22:35:10Z","2026-08-13T22:35:15Z","2026-08-13T22:35:16Z","2026-08-13T22:35:19Z","2026-08-13T22:35:22Z","2026-08-13T22:35:23Z","2026-08-13T22:35:25Z","2026-08-13T22:35:26Z","2026-08-13T22:35:27Z","2026-08-13T22:35:28Z","2026-08-13T22:35:29Z","2026-08-13T22:35:31Z","2026-08-13T22:35:34Z","2026-08-13T22:35:38Z","2026-08-13T22:35:41Z","2026-08-13T22:35:42Z","2026-08-13T22:35:46Z","2026-08-13T22:35:47Z","2026-08-13T22:35:49Z","2026-08-13T22:35:51Z","2026-08-13T22:35:52Z","2026-08-13T22:35:53Z","2026-08-13T22:35:55Z","2026-08-13T22:35:56Z","2026-08-13T22:35:58Z","2026-08-13T22:36:00Z","2026-08-13T22:36:02Z","2026-08-13T22:36:05Z","2026-08-13T22:36:12Z","2026-08-13T22:36:14Z","2026-08-13T22:36:18Z","2026-08-13T22:36:20Z","2026-08-13T22:36:23Z","2026-08-13T22:36:30Z","2026-08-13T22:36:35Z","2026-08-13T22:36:38Z","2026-08-13T22:36:40Z","2026-08-13T22:36:42Z","2026-08-13T22:36:44Z","2026-08-13T22:36:47Z","2026-08-13T22:36:49Z","2026-08-13T22:36:52Z","2026-08-13T22:36:54Z","2026-08-13T22:36:57Z","2026-08-13T22:37:00Z","2026-08-13T22:37:03Z","2026-08-13T22:37:04Z","2026-08-13T22:37:07Z","2026-08-13T22:37:10Z","2026-08-13T22:37:23Z","2026-08-13T22:37:31Z","2026-08-13T22:37:48Z","2026-08-13T22:37:59Z","2026-08-13T22:38:16Z","2026-08-13T22:38:20Z","2026-08-13T22:38:21Z","2026-08-13T22:38:24Z","2026-08-13T22:38:32Z","2026-08-13T22:38:38Z","2026-08-13T22:38:41Z","2026-08-13T22:38:48Z","2026-08-13T22:38:55Z","2026-08-13T22:39:07Z","2026-08-13T22:39:17Z","2026-08-13T22:39:25Z","2026-08-13T22:39:26Z","2026-08-13T22:39:31Z","2026-08-13T22:39:38Z","2026-08-13T22:39:44Z","2026-08-13T22:39:46Z","2026-08-13T22:39:55Z","2026-08-13T22:40:13Z","2026-08-13T22:40:22Z","2026-08-13T22:40:26Z","2026-08-13T22:40:31Z","2026-08-13T22:40:35Z","2026-08-13T22:40:37Z","2026-08-13T22:40:39Z","2026-08-13T22:40:41Z","2026-08-13T22:40:44Z","2026-08-13T22:40:48Z","2026-08-13T22:41:04Z","2026-08-13T22:41:06Z","2026-08-13T22:41:08Z","2026-08-13T22:41:10Z","2026-08-13T22:41:12Z","2026-08-13T22:41:13Z","2026-08-13T22:41:15Z","2026-08-13T22:41:18Z","2026-08-13T22:41:34Z","2026-08-13T22:41:37Z","2026-08-13T22:41:38Z","2026-08-13T22:41:52Z","2026-08-13T22:41:56Z","2026-08-13T22:42:00Z","2026-08-13T22:42:05Z","2026-08-13T22:42:10Z","2026-08-13T22:42:16Z","2026-08-13T22:42:20Z","2026-08-13T22:42:24Z","2026-08-13T22:42:48Z","2026-08-13T22:42:50Z","2026-08-13T22:42:53Z","2026-08-13T22:42:57Z","2026-08-13T22:43:00Z","2026-08-13T22:43:05Z","2026-08-13T22:43:06Z","2026-08-13T22:43:08Z","2026-08-13T22:43:10Z","2026-08-13T22:43:11Z","2026-08-13T22:43:14Z","2026-08-13T22:43:15Z","2026-08-13T22:43:18Z","2026-08-13T22:43:22Z","2026-08-13T22:43:24Z","2026-08-13T22:43:29Z","2026-08-13T22:43:31Z","2026-08-13T22:43:33Z","2026-08-13T22:43:39Z","2026-08-13T22:43:41Z","2026-08-13T22:43:44Z","2026-08-13T22:43:48Z","2026-08-13T22:43:52Z","2026-08-13T22:43:55Z","2026-08-13T22:44:00Z","2026-08-13T22:44:03Z","2026-08-13T22:44:05Z","2026-08-13T22:44:32Z","2026-08-13T22:44:37Z","2026-08-13T22:44:39Z","2026-08-13T22:44:42Z","2026-08-13T22:44:43Z","2026-08-13T22:44:44Z","2026-08-13T22:44:46Z","2026-08-13T22:44:53Z","2026-08-13T22:44:57Z","2026-08-13T22:45:00Z","2026-08-13T22:45:03Z","2026-08-13T22:45:15Z","2026-08-13T22:45:20Z","2026-08-13T22:45:22Z","2026-08-13T22:45:24Z","2026-08-13T22:45:25Z","2026-08-13T22:45:27Z","2026-08-13T22:45:29Z","2026-08-13T22:45:30Z","2026-08-13T22:45:35Z","2026-08-13T22:45:38Z","2026-08-13T22:45:44Z","2026-08-13T22:45:46Z","2026-08-13T22:45:49Z","2026-08-13T22:45:55Z","2026-08-13T22:46:02Z","2026-08-13T22:46:04Z","2026-08-13T22:46:06Z","2026-08-13T22:46:08Z","2026-08-13T22:46:13Z","2026-08-13T22:46:15Z","2026-08-13T22:46:16Z","2026-08-13T22:46:28Z","2026-08-13T22:46:32Z","2026-08-13T22:46:38Z","2026-08-13T22:46:40Z","2026-08-13T22:46:48Z","2026-08-13T22:46:50Z","2026-08-13T22:46:53Z","2026-08-13T22:46:58Z","2026-08-13T22:47:00Z","2026-08-13T22:47:08Z","2026-08-13T22:47:14Z","2026-08-13T22:47:17Z","2026-08-13T22:47:24Z","2026-08-13T22:47:29Z","2026-08-13T22:47:31Z","2026-08-13T22:47:33Z","2026-08-13T22:47:40Z","2026-08-13T22:47:42Z","2026-08-13T22:47:44Z","2026-08-13T22:47:48Z","2026-08-13T22:47:51Z","2026-08-13T22:47:59Z","2026-08-13T22:48:02Z","2026-08-13T22:48:04Z","2026-08-13T22:48:08Z","2026-08-13T22:48:20Z","2026-08-13T22:48:22Z","2026-08-13T22:48:28Z","2026-08-13T22:48:31Z","2026-08-13T22:48:36Z","2026-08-13T22:48:41Z","2026-08-13T22:48:46Z","2026-08-13T22:48:48Z","2026-08-13T22:48:54Z","2026-08-13T22:49:05Z","2026-08-13T22:49:09Z","2026-08-13T22:49:12Z","2026-08-13T22:49:20Z","2026-08-13T22:49:24Z","2026-08-13T22:49:27Z","2026-08-13T22:49:35Z","2026-08-13T22:49:38Z","2026-08-13T22:49:40Z","2026-08-13T22:49:41Z","2026-08-13T22:49:44Z","2026-08-13T22:49:46Z","2026-08-13T22:49:52Z","2026-08-13T22:49:57Z","2026-08-13T22:49:59Z","2026-08-13T22:50:03Z","2026-08-13T22:50:10Z","2026-08-13T22:50:13Z","2026-08-13T22:50:20Z","2026-08-13T22:50:21Z","2026-08-13T22:50:22Z","2026-08-13T22:50:24Z","2026-08-13T22:50:27Z","2026-08-13T22:50:34Z","2026-08-13T22:50:35Z","2026-08-13T22:50:43Z","2026-08-13T22:50:48Z","2026-08-13T22:50:53Z","2026-08-13T22:50:58Z","2026-08-13T22:51:05Z","2026-08-13T22:51:13Z","2026-08-13T22:51:15Z","2026-08-13T22:51:16Z","2026-08-13T22:51:20Z","2026-08-13T22:51:24Z","2026-08-13T22:51:29Z","2026-08-13T22:51:32Z","2026-08-13T22:51:34Z","2026-08-13T22:51:35Z","2026-08-13T22:51:37Z","2026-08-13T22:51:39Z","2026-08-13T22:51:47Z","2026-08-13T22:51:51Z","2026-08-13T22:51:52Z","2026-08-13T22:51:56Z","2026-08-13T22:52:02Z","2026-08-13T22:57:08Z","2026-08-13T22:58:40Z","2026-08-13T22:58:41Z","2026-08-13T22:59:26Z","2026-08-13T22:59:29Z","2026-08-13T22:59:49Z","2026-08-13T22:59:50Z","2026-08-13T22:59:56Z","2026-08-13T23:00:38Z","2026-08-13T23:00:58Z","2026-08-13T23:01:17Z","2026-08-13T23:01:19Z","2026-08-13T23:01:23Z","2026-08-13T23:01:28Z","2026-08-13T23:01:33Z","2026-08-13T23:02:33Z","2026-08-13T23:02:35Z","2026-08-13T23:02:37Z","2026-08-13T23:03:31Z","2026-08-13T23:03:33Z","2026-08-13T23:03:38Z","2026-08-13T23:04:19Z","2026-08-13T23:04:25Z","2026-08-13T23:04:32Z","2026-08-13T23:05:10Z","2026-08-13T23:05:23Z","2026-08-13T23:06:04Z","2026-08-13T23:06:12Z","2026-08-13T23:06:35Z","2026-08-13T23:06:36Z","2026-08-13T23:06:40Z","2026-08-13T23:06:45Z","2026-08-13T23:06:52Z","2026-08-13T23:06:56Z","2026-08-13T23:06:59Z","2026-08-13T23:07:10Z","2026-08-13T23:07:13Z"],"heartRates":[73,73,71,70,70,70,75,76,71,69,76,67,63,83,83,77,78,75,64,63,69,63,64,63,66,65,65,68,69,71,65,70,70,68,71,71,78,78,78,77,77,77,72,71,71,70,70,70,70,70,70,70,68,68,68,68,69,69,69,69,66,66,66,66,66,66,64,64,64,61,61,61,60,59,58,58,58,60,60,60,59,60,60,61,61,61,61,61,61,61,61,61,61,61,61,61,61,61,61,61,61,61,61,61,61,61,60,61,61,61,61,63,63,63,59,58,58,58,59,59,59,61,63,60,60,61,61,61,61,63,63,61,61,63,63,63,63,67,67,67,67,67,65,63,63,61,64,69,68,68,65,65,65,64,64,64,65,65,65,65,64,64,64,64,64,64,63,63,63,63,63,63,61,61,61,60,60,61,61,61,61,61,61,61,61,61,60,60,60,61,61,61,61,61,60,60,60,60,60,60,60,60,60,61,61,66,66,67,67,67,67,69,69,69,69,67,67,67,67,67,67,65,64,64,64,64,65,65,65,65,65,65,65,65,61,61,61,61,63,65,65,65,67,67,64,65,65,65,69,69,69,69,69,69,70,70,70,68,68,70,74,76,70,64,64,66,66,67,68,67,65,68,68,59,65,65,67,69,70,76,82,78,80,87,88,88,88,70,70,67,68,74,74,74,74,74,74,79,79,91,91,86,84,80,79,80,80,80,77,77,70,71,71,76,76,83,83,82,82,82,82,82,87,88,89,89,87,87,90,90,92,93,96,96,101,106,106,94,88,88,88,87,87,87,89,79,79,76,66,66,64,68,68,68,74,74,74,82,82,82,84,84,86,88,89,89,91,91,93,93,93,94,94,98,97,97,98,98,91,84,83,87,88,88,88,89,89,94,93,93,94,94,94,95,93,93,92,95,95,97,97,97,97,96,97,96,98,98,97,97,97,97,97,95,95,95,95,95,95,94,94,94,94,94,94,94,95,95,93,94,94,89,90,90,90,87,88,87,87,89,89,89,91,89,89,80,80,82,84,79,73,74,73,73,71,71,71,71,74,72,73,73,74,76,74,74,74,73,73,73,74,73,77,72,78,73,72,78,78,78,76,87,85,85,81,81],"month":"2026-08-01"},"geometry":{"type":"LineString","coordinates":[[-83.280115,10.18995,6.2],[-83.280222,10.189929,6],[-83.280342,10.189922,6],[-83.280493,10.189896,5.6],[-83.280656,10.189848,5.2],[-83.280667,10.18985,5.2],[-83.280954,10.189728,5.9],[-83.280989,10.189728,6.4],[-83.281053,10.189682,7.6],[-83.28108,10.189689,7.6],[-83.28108,10.189654,7.9],[-83.281094,10.189672,8.3],[-83.281052,10.189708,7.4],[-83.280949,10.18972,5.9],[-83.28092,10.189714,5.9],[-83.280897,10.189719,5.5],[-83.280853,10.189751,5.2],[-83.280738,10.189803,5],[-83.280502,10.189836,5.4],[-83.280415,10.189838,5.9],[-83.280241,10.18982,6.2],[-83.280322,10.189789,6.5],[-83.280347,10.189794,6.2],[-83.280353,10.189757,6.5],[-83.280399,10.189619,7.5],[-83.280391,10.189593,7.5],[-83.280396,10.189579,7.7],[-83.28039,10.189536,8],[-83.280407,10.189516,7.7],[-83.280412,10.189489,8],[-83.280442,10.189502,7.7],[-83.280429,10.189602,7.1],[-83.280417,10.189602,7.1],[-83.280432,10.189668,6.6],[-83.280435,10.189724,6.4],[-83.280429,10.189761,6.2],[-83.280408,10.189795,6],[-83.280342,10.189849,6],[-83.280273,10.189882,6],[-83.280172,10.189916,6.2],[-83.280057,10.189939,6.5],[-83.279767,10.189966,8.4],[-83.279259,10.190043,10.7],[-83.279074,10.190078,10.9],[-83.27898,10.190086,10.3],[-83.278686,10.190071,9.1],[-83.27858,10.190076,8.3],[-83.278478,10.190092,8.3],[-83.278261,10.190167,8.8],[-83.278165,10.190215,9],[-83.278078,10.190282,9],[-83.278007,10.19032,9],[-83.277914,10.190352,8.9],[-83.277831,10.190349,9],[-83.277465,10.190247,9.3],[-83.277369,10.19021,8.6],[-83.27717,10.190114,7.6],[-83.277068,10.19008,7.6],[-83.276957,10.190054,8.1],[-83.276735,10.19002,9.3],[-83.276621,10.190012,10],[-83.276506,10.190017,10.5],[-83.276392,10.190033,10.8],[-83.276169,10.190092,9],[-83.275955,10.190179,7.9],[-83.27575,10.190292,9.1],[-83.275565,10.190433,9.6],[-83.27548,10.190514,9.7],[-83.275247,10.190781,12],[-83.275107,10.190974,13],[-83.274941,10.191162,11.3],[-83.274505,10.191748,7.1],[-83.274101,10.19221,2.7],[-83.273576,10.192717,6.4],[-83.273299,10.192947,6.2],[-83.273121,10.193109,6.3],[-83.272844,10.193342,6.8],[-83.272556,10.193568,7.5],[-83.27245,10.193634,7.7],[-83.272223,10.193739,8],[-83.271984,10.193816,8.2],[-83.271623,10.193905,8],[-83.271388,10.193981,7.6],[-83.271151,10.194044,7.1],[-83.270464,10.194298,4.9],[-83.27023,10.194371,4.3],[-83.269877,10.194464,4.2],[-83.269636,10.194498,4.5],[-83.269517,10.194495,4.9],[-83.2694,10.194482,5.4],[-83.269289,10.194452,5.9],[-83.26918,10.194413,6.7],[-83.269076,10.19436,7.3],[-83.268979,10.194297,8.2],[-83.268891,10.194223,8.9],[-83.268813,10.19414,9.6],[-83.268746,10.19405,10.1],[-83.268687,10.193955,10.5],[-83.268636,10.193853,16.6],[-83.268523,10.193665,14.2],[-83.268166,10.192987,7.1],[-83.267999,10.192701,5],[-83.267875,10.192518,6.3],[-83.26767,10.192251,12.5],[-83.267545,10.192064,14.8],[-83.267431,10.191871,13.2],[-83.267239,10.191594,13.5],[-83.266749,10.190967,11.2],[-83.266128,10.190288,7.6],[-83.265754,10.189853,15.1],[-83.265684,10.189763,14.8],[-83.265304,10.189199,7.9],[-83.26517,10.189017,8.6],[-83.265043,10.188828,8.6],[-83.264821,10.188437,10.3],[-83.264623,10.188162,10.4],[-83.264438,10.187876,7.4],[-83.264367,10.187788,8.1],[-83.264036,10.187328,9.5],[-83.263892,10.187149,13],[-83.26376,10.186968,13.1],[-83.263545,10.186704,8.1],[-83.262791,10.185706,7.9],[-83.262559,10.185454,6.4],[-83.26224,10.185127,11.8],[-83.261915,10.184809,11.8],[-83.261824,10.184737,11],[-83.261656,10.184581,10.9],[-83.261337,10.184255,10.1],[-83.260686,10.18361,11.4],[-83.259526,10.182507,11.6],[-83.259182,10.182201,14.4],[-83.25902,10.182039,13.8],[-83.258808,10.181779,11.6],[-83.258609,10.181508,9.6],[-83.258233,10.181079,6.3],[-83.257835,10.180672,9],[-83.257301,10.180071,8.8],[-83.257082,10.179809,10.5],[-83.256697,10.179383,10],[-83.256615,10.179301,9.8],[-83.256541,10.179212,9.3],[-83.255905,10.178542,11.7],[-83.255526,10.178106,13.5],[-83.255382,10.177928,12.9],[-83.255229,10.177756,12.6],[-83.254647,10.177047,13.2],[-83.254308,10.176578,8.9],[-83.253961,10.176124,12],[-83.253747,10.175857,11.6],[-83.25355,10.17558,12.1],[-83.253407,10.175399,13.4],[-83.253347,10.175306,13.7],[-83.252995,10.174846,13.6],[-83.252848,10.174677,12.4],[-83.252714,10.174487,10.4],[-83.2525,10.174226,10.9],[-83.252373,10.174035,11.1],[-83.252259,10.173841,9.9],[-83.252193,10.173749,10],[-83.251977,10.173486,10.2],[-83.251779,10.173211,10.8],[-83.251627,10.173029,13],[-83.251307,10.172693,10.3],[-83.250084,10.171197,7.5],[-83.249947,10.171017,7],[-83.249686,10.170646,7.6],[-83.249615,10.17056,9.2],[-83.249306,10.170092,15.4],[-83.249138,10.169809,17],[-83.249001,10.169622,15.1],[-83.24888,10.169429,11.4],[-83.248682,10.169162,7.9],[-83.248535,10.168998,5.9],[-83.248297,10.168758,5.5],[-83.24804,10.168533,6.5],[-83.247858,10.168398,6.2],[-83.247759,10.168334,5.9],[-83.24746,10.168166,3.9],[-83.247359,10.168118,3.9],[-83.247158,10.168039,6.2],[-83.246964,10.16798,7.6],[-83.246767,10.167934,7.5],[-83.246553,10.1679,7.8],[-83.246342,10.167842,10.8],[-83.246137,10.167756,13],[-83.245953,10.167641,11.2],[-83.245868,10.167575,10.2],[-83.245711,10.167423,8.9],[-83.245639,10.16734,9],[-83.245513,10.167159,9.1],[-83.245457,10.167064,9.9],[-83.245358,10.166865,9.4],[-83.245244,10.166554,6.1],[-83.245134,10.166142,2.6],[-83.24509,10.165936,2.9],[-83.245023,10.165736,4.7],[-83.244978,10.165641,5.9],[-83.244924,10.165552,7.9],[-83.244859,10.16547,10.3],[-83.244784,10.165392,11.6],[-83.24462,10.165255,13.2],[-83.244534,10.1652,13.1],[-83.244191,10.165016,13],[-83.244114,10.164982,12.4],[-83.243736,10.164767,10.5],[-83.243551,10.164722,11.7],[-83.24338,10.164655,13.8],[-83.243201,10.164597,15.1],[-83.243098,10.164584,14.9],[-83.24291,10.164529,14.7],[-83.242448,10.164373,15],[-83.242358,10.164336,15],[-83.242082,10.164245,15],[-83.2418,10.164137,14.1],[-83.241712,10.164089,13.9],[-83.24156,10.163986,13.2],[-83.241472,10.163948,12.9],[-83.241377,10.163918,12.4],[-83.24129,10.163878,12],[-83.241222,10.163825,12],[-83.241056,10.163719,10.8],[-83.240816,10.16355,8.3],[-83.240552,10.163295,7.9],[-83.240355,10.163134,7.9],[-83.240298,10.163074,7.6],[-83.240114,10.162789,6.3],[-83.24006,10.162723,6.2],[-83.239977,10.162577,5.2],[-83.239921,10.162431,5],[-83.239879,10.162373,5],[-83.239814,10.162322,5],[-83.239671,10.1623,5.8],[-83.239596,10.162305,6.3],[-83.23945,10.16235,7.4],[-83.239303,10.162434,7.2],[-83.239159,10.162531,6],[-83.238947,10.162697,3.3],[-83.238462,10.16313,2.1],[-83.238334,10.163258,4.3],[-83.238085,10.163535,7],[-83.237969,10.163683,6.8],[-83.237815,10.163921,5.2],[-83.237478,10.164496,5.3],[-83.237208,10.164888,8.8],[-83.237025,10.165095,9.4],[-83.236895,10.165218,10.2],[-83.236757,10.165321,10.6],[-83.236612,10.165407,8.5],[-83.236394,10.16552,7.1],[-83.236242,10.165582,6.8],[-83.236032,10.165647,7.5],[-83.235878,10.16568,7.2],[-83.235647,10.165711,6.6],[-83.235408,10.165755,5.3],[-83.235222,10.165834,4.7],[-83.235173,10.165847,4.6],[-83.235078,10.165848,3.2],[-83.235033,10.16583,2.3],[-83.234885,10.165792,0.9],[-83.234826,10.165766,0.7],[-83.234737,10.165747,0.1],[-83.234715,10.165725,0.1],[-83.234775,10.165747,0.2],[-83.234809,10.165768,0.4],[-83.234816,10.165765,0.4],[-83.234827,10.165789,0.7],[-83.234819,10.165949,1.4],[-83.23484,10.166155,4.2],[-83.234835,10.166235,4.7],[-83.234808,10.166367,4.9],[-83.234771,10.166478,5.1],[-83.234736,10.166557,5.1],[-83.234742,10.166525,5.3],[-83.234759,10.16654,5.3],[-83.234747,10.166543,5.3],[-83.234762,10.166539,5.3],[-83.234753,10.16653,5.3],[-83.234776,10.166528,5.3],[-83.234786,10.166534,5.6],[-83.234806,10.166524,5.6],[-83.23483,10.166543,5.8],[-83.23479,10.166534,5.6],[-83.234771,10.166578,5.6],[-83.234702,10.166672,5.8],[-83.234633,10.166746,5.8],[-83.234612,10.166791,6.1],[-83.234606,10.166838,6.1],[-83.234611,10.166889,6.6],[-83.23463,10.166953,7.1],[-83.23464,10.16702,7.3],[-83.234696,10.167147,8.3],[-83.234699,10.167135,8.6],[-83.2347,10.167141,8.6],[-83.234692,10.167142,8.3],[-83.234695,10.167146,8.3],[-83.234693,10.167141,8.3],[-83.234695,10.167151,8.6],[-83.234708,10.167146,8.6],[-83.234708,10.167187,8.8],[-83.234689,10.167184,8.6],[-83.234685,10.167191,8.6],[-83.234656,10.167163,8.6],[-83.234643,10.167186,8.3],[-83.234634,10.167175,8.3],[-83.234646,10.167196,8.6],[-83.234659,10.167184,8.6],[-83.234607,10.167168,8.1],[-83.234595,10.167142,7.8],[-83.234607,10.167135,7.8],[-83.23462,10.167159,8.3],[-83.234634,10.167164,8.3],[-83.234659,10.167199,8.8],[-83.23466,10.167242,9.1],[-83.234637,10.167271,8.8],[-83.23465,10.167328,9.3],[-83.234642,10.167334,9.3],[-83.234641,10.167356,9.3],[-83.234653,10.16738,9.6],[-83.234646,10.167388,9.6],[-83.234669,10.167425,10.1],[-83.234671,10.167442,10.1],[-83.234656,10.167479,10.3],[-83.234649,10.167529,10.3],[-83.234659,10.167552,10.8],[-83.234637,10.167589,10.8],[-83.234643,10.167592,10.8],[-83.234637,10.167614,10.8],[-83.23458,10.167616,10.8],[-83.234551,10.167637,10.5],[-83.234527,10.167667,10.7],[-83.234517,10.167712,10.5],[-83.234536,10.167745,11.2],[-83.234546,10.167736,11],[-83.234555,10.167751,11.2],[-83.234516,10.167774,10.7],[-83.234531,10.167763,11.2],[-83.234521,10.167729,10.5],[-83.234556,10.167751,11.2],[-83.234566,10.167748,11.2],[-83.234552,10.167772,11.2],[-83.23454,10.167767,11.2],[-83.234542,10.167773,11.2],[-83.234537,10.167769,11.2],[-83.234517,10.167793,11],[-83.234523,10.167791,11],[-83.234507,10.167768,10.7],[-83.234519,10.167759,10.7],[-83.234515,10.16775,10.7],[-83.234532,10.167725,11],[-83.234544,10.167724,11],[-83.234558,10.16774,11],[-83.234532,10.167747,11.2],[-83.234515,10.167738,10.5],[-83.234518,10.167743,10.7],[-83.234509,10.167744,10.7],[-83.234485,10.167717,10.5],[-83.234474,10.167723,10],[-83.234454,10.16781,10.5],[-83.234459,10.16784,10.7],[-83.234439,10.167872,10.7],[-83.234381,10.167931,9.4],[-83.234373,10.168021,8.9],[-83.23436,10.168039,8.7],[-83.234366,10.168066,8.7],[-83.234383,10.16809,8.4],[-83.23437,10.168145,8.2],[-83.234376,10.168165,7.9],[-83.234389,10.168169,7.9],[-83.234453,10.168295,8],[-83.234472,10.168348,7.5],[-83.234508,10.168409,7.7],[-83.234532,10.168428,7.6],[-83.234584,10.168529,6.8],[-83.234585,10.168557,6.3],[-83.234572,10.168608,5.8],[-83.234532,10.168668,4.6],[-83.234511,10.168668,4.3],[-83.234512,10.16865,4.3],[-83.234522,10.168646,4.3],[-83.23452,10.168657,4.3],[-83.234423,10.168706,3.3],[-83.23438,10.168743,4.5],[-83.234364,10.168767,4.4],[-83.234357,10.168795,4.4],[-83.234382,10.168868,4.1],[-83.234401,10.168892,4.1],[-83.234407,10.168919,4.1],[-83.234431,10.168952,4],[-83.234438,10.168989,3.8],[-83.234484,10.169076,3.8],[-83.234508,10.169101,3.7],[-83.234508,10.169119,3.7],[-83.234538,10.16916,3.7],[-83.234641,10.16927,3.6],[-83.234648,10.169287,3.6],[-83.234697,10.169345,3.7],[-83.234706,10.169376,3.6],[-83.234746,10.169427,6.2],[-83.234796,10.169458,6.4],[-83.234842,10.1695,6.7],[-83.234847,10.169514,6.7],[-83.234908,10.169555,6.9],[-83.234975,10.169652,6.4],[-83.235023,10.169642,6.6],[-83.235048,10.169675,6.4],[-83.235136,10.169741,4],[-83.235159,10.169785,3.9],[-83.235193,10.169815,4],[-83.235252,10.16989,4],[-83.235291,10.169913,9],[-83.235302,10.169927,9],[-83.235312,10.169926,9],[-83.235346,10.169959,9],[-83.23535,10.169982,9],[-83.235401,10.170036,9],[-83.235423,10.170102,4.2],[-83.235445,10.170136,9],[-83.235444,10.170191,9],[-83.235486,10.170268,8.9],[-83.235518,10.170305,8.6],[-83.235559,10.170374,8.1],[-83.235559,10.170391,8.1],[-83.235552,10.170397,8.1],[-83.235562,10.17042,7.9],[-83.23559,10.170441,7.9],[-83.235636,10.170503,7.4],[-83.235649,10.17051,7.4],[-83.235692,10.170583,4.3],[-83.235729,10.170615,4.4],[-83.235746,10.170647,4.4],[-83.235771,10.170661,6.6],[-83.235757,10.170659,4.3],[-83.235762,10.170653,4.4],[-83.235756,10.170654,4.4],[-83.235761,10.17066,4.3],[-83.235758,10.170652,4.4],[-83.23575,10.170657,4.3],[-83.235757,10.170649,4.4],[-83.235761,10.170667,4.3],[-83.23577,10.170668,6.6],[-83.235761,10.170675,4.3],[-83.235755,10.170661,4.3],[-83.235775,10.17067,6.6],[-83.235761,10.170664,4.3],[-83.235764,10.170655,4.4],[-83.235765,10.17066,4.3],[-83.235763,10.170652,4.4],[-83.235781,10.170671,6.6],[-83.235797,10.170607,7.1],[-83.235803,10.170615,6.8],[-83.235807,10.170603,7.1],[-83.235795,10.170595,7.1],[-83.235792,10.170599,7.1],[-83.235816,10.170581,7.3],[-83.235828,10.170587,7.3],[-83.235829,10.170579,7.3],[-83.235791,10.170587,7.1],[-83.235803,10.170581,7.1],[-83.235793,10.170595,7.1],[-83.235796,10.170587,7.1],[-83.235793,10.170593,7.1],[-83.235802,10.170586,7.1],[-83.235798,10.170592,7.1],[-83.235803,10.170574,7.1],[-83.235796,10.170575,7.1],[-83.235808,10.170571,7.3],[-83.235823,10.170577,7.3],[-83.235824,10.170584,7.3],[-83.235835,10.170573,7.3],[-83.235836,10.170595,7.3],[-83.235835,10.170588,7.3],[-83.235829,10.170592,7.3],[-83.235809,10.17058,7.1],[-83.235817,10.170575,7.3],[-83.23582,10.170585,7.3],[-83.235813,10.170578,7.3],[-83.235831,10.170572,7.5],[-83.235829,10.170577,7.3],[-83.235852,10.170573,7.3],[-83.235844,10.17061,7.3],[-83.235804,10.170623,6.8],[-83.23579,10.170639,6.8],[-83.235804,10.170623,6.8],[-83.235795,10.170632,6.8],[-83.235798,10.170626,6.8]]}}]}