<?xml version="1.0" encoding="UTF-8"?>
<gpx version="1.1" creator="GPSBabel - https://www.gpsbabel.org" xmlns="http://www.topografix.com/GPX/1/1" xmlns:xsi="http://www.w3.org/2001/XMLSchema-instance" xmlns:gpxtpx="http://www.garmin.com/xmlschemas/TrackPointExtension/v1" xmlns:gpxx="http://www.garmin.com/xmlschemas/GpxExtensions/v3" xmlns:gpxpx="http://www.garmin.com/xmlschemas/PowerExtension/v1" xmlns:gpx_style="http://www.topografix.com/GPX/gpx_style/0/2">
  <metadata>
    <name>original</name>
    <time>2026-09-04T13:41:26.714Z</time>
    <bounds minlat="8.710530000" minlon="-83.887156000" maxlat="8.713014000" maxlon="-83.886062000"/>
  </metadata>
  <trk>
    <name>Costa Rica - Bateau jusqu'à Isla del Caño</name>
    <type>Canoeing</type>
    <trkseg>
      <trkpt lat="8.710530000" lon="-83.886144000">
        <ele>20.600</ele>
        <time>2026-08-26T16:18:22Z</time>
        <extensions>
          <gpxtpx:TrackPointExtension>
            <gpxtpx:hr>94</gpxtpx:hr>
          </gpxtpx:TrackPointExtension>
        </extensions>
      </trkpt>
      <trkpt lat="8.710650000" lon="-83.886062000">
        <ele>7.560</ele>
        <time>2026-08-26T16:18:27.097Z</time>
      </trkpt>
      <trkpt lat="8.711657000" lon="-83.886105000">
        <ele>7.560</ele>
        <time>2026-08-26T16:19:02.578Z</time>
      </trkpt>
      <trkpt lat="8.712166000" lon="-83.886190000">
        <ele>7.560</ele>
        <time>2026-08-26T16:19:20.738Z</time>
      </trkpt>
      <trkpt lat="8.712675000" lon="-83.886598000">
        <ele>7.560</ele>
        <time>2026-08-26T16:19:43.599Z</time>
      </trkpt>
      <trkpt lat="8.713014000" lon="-83.887156000">
        <ele>7.560</ele>
        <time>2026-08-26T16:20:06.389Z</time>
      </trkpt>
    </trkseg>
  </trk>
</gpx>
