{"type":"FeatureCollection","features":[{"type":"Feature","properties":{"name":"Costa Rica - Bateau jusqu'à Isla del Caño","type":"snorkeling","time":"2026-08-26T16:18:22Z","coordTimes":["2026-08-26T16:18:22Z","2026-08-26T16:18:27.097Z","2026-08-26T16:19:02.578Z","2026-08-26T16:19:20.738Z","2026-08-26T16:19:43.599Z","2026-08-26T16:20:06.389Z"],"heartRates":[94,null,null,null,null,null],"month":"2026-08-01"},"geometry":{"type":"LineString","coordinates":[[-83.886144,8.71053,20.6],[-83.886062,8.71065,7.56],[-83.886105,8.711657,7.56],[-83.88619,8.712166,7.56],[-83.886598,8.712675,7.56],[-83.887156,8.713014,7.56]]}}]}