<?xml version="1.0" encoding="UTF-8"?>
<gpx version="1.1" creator="GPSBabel - https://www.gpsbabel.org" xmlns="http://www.topografix.com/GPX/1/1" xmlns:xsi="http://www.w3.org/2001/XMLSchema-instance" xmlns:gpxtpx="http://www.garmin.com/xmlschemas/TrackPointExtension/v1" xmlns:gpxx="http://www.garmin.com/xmlschemas/GpxExtensions/v3" xmlns:gpxpx="http://www.garmin.com/xmlschemas/PowerExtension/v1" xmlns:gpx_style="http://www.topografix.com/GPX/gpx_style/0/2">
  <metadata>
    <name>2008-09-14 22 01 21</name>
    <time>2025-09-08T13:47:48.990Z</time>
    <bounds minlat="46.777160000" minlon="-72.890073000" maxlat="46.780724000" maxlon="-72.888086000"/>
  </metadata>
  <trk>
    <name>unnamed</name>
    <trkseg>
      <trkpt lat="46.778333000" lon="-72.889624000">
        <ele>241.430</ele>
        <time>2008-09-02T16:18:15Z</time>
      </trkpt>
      <trkpt lat="46.779351000" lon="-72.889396000">
        <ele>244.790</ele>
        <time>2008-09-02T16:18:40Z</time>
      </trkpt>
      <trkpt lat="46.779320000" lon="-72.889404000">
        <ele>248.160</ele>
        <time>2008-09-02T16:18:44Z</time>
      </trkpt>
      <trkpt lat="46.779284000" lon="-72.889437000">
        <ele>258.730</ele>
        <time>2008-09-02T16:18:59Z</time>
      </trkpt>
      <trkpt lat="46.779286000" lon="-72.889456000">
        <ele>263.540</ele>
        <time>2008-09-02T16:19:09Z</time>
      </trkpt>
      <trkpt lat="46.779310000" lon="-72.889461000">
        <ele>266.900</ele>
        <time>2008-09-02T16:19:17Z</time>
      </trkpt>
      <trkpt lat="46.779314000" lon="-72.889471000">
        <ele>267.380</ele>
        <time>2008-09-02T16:19:18Z</time>
      </trkpt>
      <trkpt lat="46.779394000" lon="-72.889427000">
        <ele>269.790</ele>
        <time>2008-09-02T16:19:31Z</time>
      </trkpt>
      <trkpt lat="46.779454000" lon="-72.889409000">
        <ele>272.670</ele>
        <time>2008-09-02T16:19:46Z</time>
      </trkpt>
      <trkpt lat="46.779522000" lon="-72.889527000">
        <ele>273.150</ele>
        <time>2008-09-02T16:20:17Z</time>
      </trkpt>
      <trkpt lat="46.779589000" lon="-72.889796000">
        <ele>274.590</ele>
        <time>2008-09-02T16:20:39Z</time>
      </trkpt>
      <trkpt lat="46.779656000" lon="-72.889911000">
        <ele>273.150</ele>
        <time>2008-09-02T16:20:59Z</time>
      </trkpt>
      <trkpt lat="46.779949000" lon="-72.890041000">
        <ele>272.670</ele>
        <time>2008-09-02T16:21:21Z</time>
      </trkpt>
      <trkpt lat="46.780079000" lon="-72.890073000">
        <ele>271.230</ele>
        <time>2008-09-02T16:21:42Z</time>
      </trkpt>
      <trkpt lat="46.780144000" lon="-72.890001000">
        <ele>270.270</ele>
        <time>2008-09-02T16:22:02Z</time>
      </trkpt>
      <trkpt lat="46.780233000" lon="-72.889971000">
        <ele>269.790</ele>
        <time>2008-09-02T16:24:49Z</time>
      </trkpt>
      <trkpt lat="46.780385000" lon="-72.889871000">
        <ele>269.310</ele>
        <time>2008-09-02T16:25:16Z</time>
      </trkpt>
      <trkpt lat="46.780519000" lon="-72.889812000">
        <ele>269.310</ele>
        <time>2008-09-02T16:25:35Z</time>
      </trkpt>
      <trkpt lat="46.780619000" lon="-72.889698000">
        <ele>269.310</ele>
        <time>2008-09-02T16:26:10Z</time>
      </trkpt>
      <trkpt lat="46.780608000" lon="-72.889590000">
        <ele>269.310</ele>
        <time>2008-09-02T16:26:26Z</time>
      </trkpt>
      <trkpt lat="46.780681000" lon="-72.889737000">
        <ele>269.310</ele>
        <time>2008-09-02T16:27:33Z</time>
      </trkpt>
      <trkpt lat="46.780724000" lon="-72.889726000">
        <ele>268.350</ele>
        <time>2008-09-02T16:27:58Z</time>
      </trkpt>
      <trkpt lat="46.780705000" lon="-72.889702000">
        <ele>268.350</ele>
        <time>2008-09-02T16:28:58Z</time>
      </trkpt>
      <trkpt lat="46.780692000" lon="-72.889739000">
        <ele>270.270</ele>
        <time>2008-09-02T16:31:22Z</time>
      </trkpt>
      <trkpt lat="46.780618000" lon="-72.889684000">
        <ele>272.190</ele>
        <time>2008-09-02T16:32:58Z</time>
      </trkpt>
      <trkpt lat="46.780444000" lon="-72.889845000">
        <ele>274.590</ele>
        <time>2008-09-02T16:33:34Z</time>
      </trkpt>
      <trkpt lat="46.780235000" lon="-72.889738000">
        <ele>275.070</ele>
        <time>2008-09-02T16:34:02Z</time>
      </trkpt>
      <trkpt lat="46.779998000" lon="-72.889560000">
        <ele>276.520</ele>
        <time>2008-09-02T16:34:37Z</time>
      </trkpt>
      <trkpt lat="46.779802000" lon="-72.889395000">
        <ele>277.480</ele>
        <time>2008-09-02T16:35:14Z</time>
      </trkpt>
      <trkpt lat="46.779659000" lon="-72.889355000">
        <ele>277.000</ele>
        <time>2008-09-02T16:35:33Z</time>
      </trkpt>
      <trkpt lat="46.779396000" lon="-72.889481000">
        <ele>276.040</ele>
        <time>2008-09-02T16:35:59Z</time>
      </trkpt>
      <trkpt lat="46.779329000" lon="-72.889499000">
        <ele>277.000</ele>
        <time>2008-09-02T16:37:22Z</time>
      </trkpt>
      <trkpt lat="46.779257000" lon="-72.889541000">
        <ele>277.000</ele>
        <time>2008-09-02T16:37:49Z</time>
      </trkpt>
      <trkpt lat="46.779110000" lon="-72.889413000">
        <ele>279.880</ele>
        <time>2008-09-02T16:38:36Z</time>
      </trkpt>
      <trkpt lat="46.778600000" lon="-72.889132000">
        <ele>282.280</ele>
        <time>2008-09-02T16:39:35Z</time>
      </trkpt>
      <trkpt lat="46.778487000" lon="-72.889379000">
        <ele>283.730</ele>
        <time>2008-09-02T16:40:03Z</time>
      </trkpt>
      <trkpt lat="46.778457000" lon="-72.889418000">
        <ele>283.250</ele>
        <time>2008-09-02T16:40:06Z</time>
      </trkpt>
      <trkpt lat="46.778247000" lon="-72.889587000">
        <ele>283.730</ele>
        <time>2008-09-02T16:40:28Z</time>
      </trkpt>
      <trkpt lat="46.777979000" lon="-72.889501000">
        <ele>283.730</ele>
        <time>2008-09-02T16:41:01Z</time>
      </trkpt>
      <trkpt lat="46.777844000" lon="-72.889209000">
        <ele>283.730</ele>
        <time>2008-09-02T16:41:26Z</time>
      </trkpt>
      <trkpt lat="46.777690000" lon="-72.889086000">
        <ele>282.280</ele>
        <time>2008-09-02T16:41:48Z</time>
      </trkpt>
      <trkpt lat="46.777396000" lon="-72.888670000">
        <ele>282.280</ele>
        <time>2008-09-02T16:42:25Z</time>
      </trkpt>
      <trkpt lat="46.777203000" lon="-72.888321000">
        <ele>285.650</ele>
        <time>2008-09-02T16:42:59Z</time>
      </trkpt>
      <trkpt lat="46.777160000" lon="-72.888086000">
        <ele>287.090</ele>
        <time>2008-09-02T16:44:16Z</time>
      </trkpt>
    </trkseg>
  </trk>
</gpx>
