{"type":"FeatureCollection","features":[{"type":"Feature","properties":{"name":"unnamed","time":"2008-09-02T16:18:15Z","coordTimes":["2008-09-02T16:18:15Z","2008-09-02T16:18:40Z","2008-09-02T16:18:44Z","2008-09-02T16:18:59Z","2008-09-02T16:19:09Z","2008-09-02T16:19:17Z","2008-09-02T16:19:18Z","2008-09-02T16:19:31Z","2008-09-02T16:19:46Z","2008-09-02T16:20:17Z","2008-09-02T16:20:39Z","2008-09-02T16:20:59Z","2008-09-02T16:21:21Z","2008-09-02T16:21:42Z","2008-09-02T16:22:02Z","2008-09-02T16:24:49Z","2008-09-02T16:25:16Z","2008-09-02T16:25:35Z","2008-09-02T16:26:10Z","2008-09-02T16:26:26Z","2008-09-02T16:27:33Z","2008-09-02T16:27:58Z","2008-09-02T16:28:58Z","2008-09-02T16:31:22Z","2008-09-02T16:32:58Z","2008-09-02T16:33:34Z","2008-09-02T16:34:02Z","2008-09-02T16:34:37Z","2008-09-02T16:35:14Z","2008-09-02T16:35:33Z","2008-09-02T16:35:59Z","2008-09-02T16:37:22Z","2008-09-02T16:37:49Z","2008-09-02T16:38:36Z","2008-09-02T16:39:35Z","2008-09-02T16:40:03Z","2008-09-02T16:40:06Z","2008-09-02T16:40:28Z","2008-09-02T16:41:01Z","2008-09-02T16:41:26Z","2008-09-02T16:41:48Z","2008-09-02T16:42:25Z","2008-09-02T16:42:59Z","2008-09-02T16:44:16Z"],"type":"randonnée","month":"2008-09-01"},"geometry":{"type":"LineString","coordinates":[[-72.889624,46.778333,241.43],[-72.889396,46.779351,244.79],[-72.889404,46.77932,248.16],[-72.889437,46.779284,258.73],[-72.889456,46.779286,263.54],[-72.889461,46.77931,266.9],[-72.889471,46.779314,267.38],[-72.889427,46.779394,269.79],[-72.889409,46.779454,272.67],[-72.889527,46.779522,273.15],[-72.889796,46.779589,274.59],[-72.889911,46.779656,273.15],[-72.890041,46.779949,272.67],[-72.890073,46.780079,271.23],[-72.890001,46.780144,270.27],[-72.889971,46.780233,269.79],[-72.889871,46.780385,269.31],[-72.889812,46.780519,269.31],[-72.889698,46.780619,269.31],[-72.88959,46.780608,269.31],[-72.889737,46.780681,269.31],[-72.889726,46.780724,268.35],[-72.889702,46.780705,268.35],[-72.889739,46.780692,270.27],[-72.889684,46.780618,272.19],[-72.889845,46.780444,274.59],[-72.889738,46.780235,275.07],[-72.88956,46.779998,276.52],[-72.889395,46.779802,277.48],[-72.889355,46.779659,277],[-72.889481,46.779396,276.04],[-72.889499,46.779329,277],[-72.889541,46.779257,277],[-72.889413,46.77911,279.88],[-72.889132,46.7786,282.28],[-72.889379,46.778487,283.73],[-72.889418,46.778457,283.25],[-72.889587,46.778247,283.73],[-72.889501,46.777979,283.73],[-72.889209,46.777844,283.73],[-72.889086,46.77769,282.28],[-72.88867,46.777396,282.28],[-72.888321,46.777203,285.65],[-72.888086,46.77716,287.09]]}}]}