<?xml version="1.0" encoding="UTF-8"?>
<gpx version="1.1" creator="GPSBabel - https://www.gpsbabel.org" xmlns="http://www.topografix.com/GPX/1/1" xmlns:xsi="http://www.w3.org/2001/XMLSchema-instance">
  <metadata>
    <time>2025-08-29T16:25:24.902Z</time>
    <bounds minlat="53.482995000" minlon="6.146086000" maxlat="53.496777000" maxlon="6.188096000"/>
  </metadata>
  <trk>
    <name>Vélo en soirée</name>
    <type>cycling</type>
    <trkseg>
      <trkpt lat="53.483356000" lon="6.156985000">
        <ele>4.800</ele>
        <time>2023-08-06T13:15:49Z</time>
      </trkpt>
      <trkpt lat="53.483338000" lon="6.156962000">
        <ele>4.800</ele>
        <time>2023-08-06T13:16:04Z</time>
      </trkpt>
      <trkpt lat="53.483349000" lon="6.156935000">
        <ele>4.800</ele>
        <time>2023-08-06T13:16:08Z</time>
      </trkpt>
      <trkpt lat="53.483311000" lon="6.156960000">
        <ele>4.800</ele>
        <time>2023-08-06T13:16:11Z</time>
      </trkpt>
      <trkpt lat="53.483306000" lon="6.157007000">
        <ele>4.800</ele>
        <time>2023-08-06T13:16:12Z</time>
      </trkpt>
      <trkpt lat="53.483365000" lon="6.157109000">
        <ele>4.700</ele>
        <time>2023-08-06T13:16:16Z</time>
      </trkpt>
      <trkpt lat="53.483372000" lon="6.157170000">
        <ele>4.700</ele>
        <time>2023-08-06T13:16:18Z</time>
      </trkpt>
      <trkpt lat="53.483474000" lon="6.157467000">
        <ele>4.700</ele>
        <time>2023-08-06T13:16:28Z</time>
      </trkpt>
      <trkpt lat="53.483524000" lon="6.157584000">
        <ele>4.700</ele>
        <time>2023-08-06T13:16:32Z</time>
      </trkpt>
      <trkpt lat="53.483537000" lon="6.157639000">
        <ele>4.700</ele>
        <time>2023-08-06T13:16:33Z</time>
      </trkpt>
      <trkpt lat="53.483613000" lon="6.157847000">
        <ele>4.700</ele>
        <time>2023-08-06T13:16:40Z</time>
      </trkpt>
      <trkpt lat="53.483648000" lon="6.157909000">
        <ele>4.700</ele>
        <time>2023-08-06T13:16:42Z</time>
      </trkpt>
      <trkpt lat="53.483666000" lon="6.157980000">
        <ele>4.800</ele>
        <time>2023-08-06T13:16:44Z</time>
      </trkpt>
      <trkpt lat="53.483709000" lon="6.158087000">
        <ele>4.800</ele>
        <time>2023-08-06T13:16:47Z</time>
      </trkpt>
      <trkpt lat="53.483772000" lon="6.158182000">
        <ele>4.800</ele>
        <time>2023-08-06T13:16:51Z</time>
      </trkpt>
      <trkpt lat="53.483780000" lon="6.158207000">
        <ele>4.800</ele>
        <time>2023-08-06T13:16:52Z</time>
      </trkpt>
      <trkpt lat="53.483780000" lon="6.158241000">
        <ele>4.800</ele>
        <time>2023-08-06T13:16:54Z</time>
      </trkpt>
      <trkpt lat="53.483759000" lon="6.158316000">
        <ele>4.700</ele>
        <time>2023-08-06T13:17:29Z</time>
      </trkpt>
      <trkpt lat="53.483645000" lon="6.158413000">
        <ele>4.600</ele>
        <time>2023-08-06T13:17:36Z</time>
      </trkpt>
      <trkpt lat="53.483472000" lon="6.158617000">
        <ele>4.600</ele>
        <time>2023-08-06T13:17:45Z</time>
      </trkpt>
      <trkpt lat="53.483408000" lon="6.158668000">
        <ele>4.600</ele>
        <time>2023-08-06T13:17:47Z</time>
      </trkpt>
      <trkpt lat="53.483370000" lon="6.158724000">
        <ele>4.600</ele>
        <time>2023-08-06T13:17:49Z</time>
      </trkpt>
      <trkpt lat="53.483332000" lon="6.158756000">
        <ele>4.600</ele>
        <time>2023-08-06T13:17:50Z</time>
      </trkpt>
      <trkpt lat="53.483192000" lon="6.158916000">
        <ele>4.700</ele>
        <time>2023-08-06T13:17:56Z</time>
      </trkpt>
      <trkpt lat="53.483156000" lon="6.158935000">
        <ele>4.700</ele>
        <time>2023-08-06T13:17:57Z</time>
      </trkpt>
      <trkpt lat="53.483023000" lon="6.159064000">
        <ele>4.800</ele>
        <time>2023-08-06T13:18:02Z</time>
      </trkpt>
      <trkpt lat="53.483000000" lon="6.159097000">
        <ele>4.800</ele>
        <time>2023-08-06T13:18:03Z</time>
      </trkpt>
      <trkpt lat="53.482995000" lon="6.159142000">
        <ele>4.800</ele>
        <time>2023-08-06T13:18:04Z</time>
      </trkpt>
      <trkpt lat="53.483011000" lon="6.159191000">
        <ele>4.800</ele>
        <time>2023-08-06T13:18:05Z</time>
      </trkpt>
      <trkpt lat="53.483032000" lon="6.159223000">
        <ele>4.800</ele>
        <time>2023-08-06T13:18:06Z</time>
      </trkpt>
      <trkpt lat="53.483289000" lon="6.159390000">
        <ele>4.600</ele>
        <time>2023-08-06T13:18:14Z</time>
      </trkpt>
      <trkpt lat="53.483587000" lon="6.159494000">
        <ele>4.600</ele>
        <time>2023-08-06T13:18:23Z</time>
      </trkpt>
      <trkpt lat="53.483645000" lon="6.159554000">
        <ele>4.600</ele>
        <time>2023-08-06T13:18:25Z</time>
      </trkpt>
      <trkpt lat="53.483679000" lon="6.159664000">
        <ele>4.600</ele>
        <time>2023-08-06T13:18:27Z</time>
      </trkpt>
      <trkpt lat="53.483710000" lon="6.159885000">
        <ele>4.500</ele>
        <time>2023-08-06T13:18:31Z</time>
      </trkpt>
      <trkpt lat="53.483708000" lon="6.160160000">
        <ele>4.400</ele>
        <time>2023-08-06T13:18:36Z</time>
      </trkpt>
      <trkpt lat="53.483700000" lon="6.160239000">
        <ele>4.400</ele>
        <time>2023-08-06T13:18:38Z</time>
      </trkpt>
      <trkpt lat="53.483730000" lon="6.160647000">
        <ele>4.300</ele>
        <time>2023-08-06T13:18:46Z</time>
      </trkpt>
      <trkpt lat="53.483730000" lon="6.160933000">
        <ele>4.300</ele>
        <time>2023-08-06T13:18:52Z</time>
      </trkpt>
      <trkpt lat="53.483714000" lon="6.161440000">
        <ele>4.200</ele>
        <time>2023-08-06T13:19:00Z</time>
      </trkpt>
      <trkpt lat="53.483693000" lon="6.161677000">
        <ele>4.300</ele>
        <time>2023-08-06T13:19:05Z</time>
      </trkpt>
      <trkpt lat="53.483612000" lon="6.162151000">
        <ele>4.300</ele>
        <time>2023-08-06T13:19:14Z</time>
      </trkpt>
      <trkpt lat="53.483594000" lon="6.162224000">
        <ele>4.300</ele>
        <time>2023-08-06T13:19:15Z</time>
      </trkpt>
      <trkpt lat="53.483573000" lon="6.162373000">
        <ele>4.400</ele>
        <time>2023-08-06T13:19:18Z</time>
      </trkpt>
      <trkpt lat="53.483567000" lon="6.162603000">
        <ele>4.400</ele>
        <time>2023-08-06T13:19:22Z</time>
      </trkpt>
      <trkpt lat="53.483595000" lon="6.162840000">
        <ele>4.600</ele>
        <time>2023-08-06T13:19:25Z</time>
      </trkpt>
      <trkpt lat="53.483644000" lon="6.162990000">
        <ele>4.700</ele>
        <time>2023-08-06T13:19:28Z</time>
      </trkpt>
      <trkpt lat="53.483679000" lon="6.163171000">
        <ele>4.900</ele>
        <time>2023-08-06T13:19:30Z</time>
      </trkpt>
      <trkpt lat="53.483732000" lon="6.163682000">
        <ele>5.200</ele>
        <time>2023-08-06T13:19:37Z</time>
      </trkpt>
      <trkpt lat="53.483870000" lon="6.164195000">
        <ele>5.200</ele>
        <time>2023-08-06T13:19:42Z</time>
      </trkpt>
      <trkpt lat="53.483945000" lon="6.164431000">
        <ele>5.100</ele>
        <time>2023-08-06T13:19:46Z</time>
      </trkpt>
      <trkpt lat="53.483978000" lon="6.164626000">
        <ele>5.100</ele>
        <time>2023-08-06T13:19:49Z</time>
      </trkpt>
      <trkpt lat="53.484000000" lon="6.164832000">
        <ele>5.000</ele>
        <time>2023-08-06T13:19:52Z</time>
      </trkpt>
      <trkpt lat="53.484073000" lon="6.165341000">
        <ele>4.900</ele>
        <time>2023-08-06T13:19:59Z</time>
      </trkpt>
      <trkpt lat="53.484073000" lon="6.165404000">
        <ele>4.900</ele>
        <time>2023-08-06T13:20:00Z</time>
      </trkpt>
      <trkpt lat="53.484050000" lon="6.165582000">
        <ele>4.900</ele>
        <time>2023-08-06T13:20:02Z</time>
      </trkpt>
      <trkpt lat="53.484038000" lon="6.165614000">
        <ele>4.900</ele>
        <time>2023-08-06T13:20:03Z</time>
      </trkpt>
      <trkpt lat="53.484022000" lon="6.165712000">
        <ele>4.900</ele>
        <time>2023-08-06T13:20:05Z</time>
      </trkpt>
      <trkpt lat="53.483998000" lon="6.165781000">
        <ele>5.000</ele>
        <time>2023-08-06T13:20:07Z</time>
      </trkpt>
      <trkpt lat="53.483970000" lon="6.165936000">
        <ele>5.000</ele>
        <time>2023-08-06T13:20:10Z</time>
      </trkpt>
      <trkpt lat="53.483939000" lon="6.166196000">
        <ele>5.000</ele>
        <time>2023-08-06T13:20:13Z</time>
      </trkpt>
      <trkpt lat="53.483891000" lon="6.166458000">
        <ele>4.800</ele>
        <time>2023-08-06T13:20:15Z</time>
      </trkpt>
      <trkpt lat="53.483911000" lon="6.166600000">
        <ele>4.700</ele>
        <time>2023-08-06T13:20:19Z</time>
      </trkpt>
      <trkpt lat="53.483947000" lon="6.166754000">
        <ele>4.600</ele>
        <time>2023-08-06T13:20:25Z</time>
      </trkpt>
      <trkpt lat="53.483954000" lon="6.167047000">
        <ele>4.600</ele>
        <time>2023-08-06T13:20:29Z</time>
      </trkpt>
      <trkpt lat="53.483973000" lon="6.167211000">
        <ele>4.600</ele>
        <time>2023-08-06T13:20:31Z</time>
      </trkpt>
      <trkpt lat="53.484015000" lon="6.167308000">
        <ele>4.600</ele>
        <time>2023-08-06T13:20:32Z</time>
      </trkpt>
      <trkpt lat="53.484111000" lon="6.167780000">
        <ele>4.600</ele>
        <time>2023-08-06T13:20:39Z</time>
      </trkpt>
      <trkpt lat="53.484163000" lon="6.167967000">
        <ele>4.700</ele>
        <time>2023-08-06T13:20:42Z</time>
      </trkpt>
      <trkpt lat="53.484194000" lon="6.168017000">
        <ele>4.700</ele>
        <time>2023-08-06T13:20:43Z</time>
      </trkpt>
      <trkpt lat="53.484213000" lon="6.168070000">
        <ele>4.700</ele>
        <time>2023-08-06T13:20:44Z</time>
      </trkpt>
      <trkpt lat="53.484304000" lon="6.168251000">
        <ele>4.700</ele>
        <time>2023-08-06T13:20:48Z</time>
      </trkpt>
      <trkpt lat="53.484433000" lon="6.168593000">
        <ele>4.700</ele>
        <time>2023-08-06T13:20:56Z</time>
      </trkpt>
      <trkpt lat="53.484473000" lon="6.168668000">
        <ele>4.800</ele>
        <time>2023-08-06T13:20:58Z</time>
      </trkpt>
      <trkpt lat="53.484589000" lon="6.168963000">
        <ele>4.900</ele>
        <time>2023-08-06T13:21:06Z</time>
      </trkpt>
      <trkpt lat="53.484664000" lon="6.169070000">
        <ele>5.100</ele>
        <time>2023-08-06T13:21:10Z</time>
      </trkpt>
      <trkpt lat="53.484708000" lon="6.169152000">
        <ele>5.200</ele>
        <time>2023-08-06T13:21:12Z</time>
      </trkpt>
      <trkpt lat="53.484776000" lon="6.169345000">
        <ele>5.400</ele>
        <time>2023-08-06T13:21:16Z</time>
      </trkpt>
      <trkpt lat="53.484903000" lon="6.169842000">
        <ele>6.200</ele>
        <time>2023-08-06T13:21:27Z</time>
      </trkpt>
      <trkpt lat="53.485005000" lon="6.170170000">
        <ele>6.700</ele>
        <time>2023-08-06T13:21:34Z</time>
      </trkpt>
      <trkpt lat="53.485029000" lon="6.170303000">
        <ele>6.800</ele>
        <time>2023-08-06T13:21:38Z</time>
      </trkpt>
      <trkpt lat="53.485047000" lon="6.170500000">
        <ele>6.600</ele>
        <time>2023-08-06T13:21:42Z</time>
      </trkpt>
      <trkpt lat="53.485050000" lon="6.170823000">
        <ele>6.300</ele>
        <time>2023-08-06T13:21:47Z</time>
      </trkpt>
      <trkpt lat="53.485074000" lon="6.170929000">
        <ele>6.300</ele>
        <time>2023-08-06T13:21:49Z</time>
      </trkpt>
      <trkpt lat="53.485075000" lon="6.170985000">
        <ele>6.200</ele>
        <time>2023-08-06T13:21:50Z</time>
      </trkpt>
      <trkpt lat="53.485119000" lon="6.171096000">
        <ele>6.100</ele>
        <time>2023-08-06T13:21:53Z</time>
      </trkpt>
      <trkpt lat="53.485130000" lon="6.171161000">
        <ele>6.000</ele>
        <time>2023-08-06T13:21:54Z</time>
      </trkpt>
      <trkpt lat="53.485230000" lon="6.171472000">
        <ele>5.700</ele>
        <time>2023-08-06T13:22:00Z</time>
      </trkpt>
      <trkpt lat="53.485309000" lon="6.171671000">
        <ele>5.600</ele>
        <time>2023-08-06T13:22:04Z</time>
      </trkpt>
      <trkpt lat="53.485429000" lon="6.171871000">
        <ele>5.400</ele>
        <time>2023-08-06T13:22:09Z</time>
      </trkpt>
      <trkpt lat="53.485481000" lon="6.171976000">
        <ele>5.200</ele>
        <time>2023-08-06T13:22:12Z</time>
      </trkpt>
      <trkpt lat="53.485553000" lon="6.172217000">
        <ele>4.800</ele>
        <time>2023-08-06T13:22:16Z</time>
      </trkpt>
      <trkpt lat="53.485571000" lon="6.172354000">
        <ele>4.700</ele>
        <time>2023-08-06T13:22:18Z</time>
      </trkpt>
      <trkpt lat="53.485617000" lon="6.172551000">
        <ele>4.600</ele>
        <time>2023-08-06T13:22:21Z</time>
      </trkpt>
      <trkpt lat="53.485626000" lon="6.172680000">
        <ele>4.500</ele>
        <time>2023-08-06T13:22:23Z</time>
      </trkpt>
      <trkpt lat="53.485733000" lon="6.173331000">
        <ele>4.100</ele>
        <time>2023-08-06T13:22:32Z</time>
      </trkpt>
      <trkpt lat="53.485771000" lon="6.173507000">
        <ele>4.100</ele>
        <time>2023-08-06T13:22:36Z</time>
      </trkpt>
      <trkpt lat="53.485772000" lon="6.173603000">
        <ele>4.100</ele>
        <time>2023-08-06T13:22:38Z</time>
      </trkpt>
      <trkpt lat="53.485761000" lon="6.173647000">
        <ele>4.100</ele>
        <time>2023-08-06T13:22:39Z</time>
      </trkpt>
      <trkpt lat="53.485741000" lon="6.173681000">
        <ele>4.100</ele>
        <time>2023-08-06T13:22:40Z</time>
      </trkpt>
      <trkpt lat="53.485699000" lon="6.173708000">
        <ele>4.000</ele>
        <time>2023-08-06T13:22:42Z</time>
      </trkpt>
      <trkpt lat="53.485718000" lon="6.173699000">
        <ele>4.000</ele>
        <time>2023-08-06T13:22:45Z</time>
      </trkpt>
      <trkpt lat="53.485713000" lon="6.173685000">
        <ele>4.000</ele>
        <time>2023-08-06T13:22:48Z</time>
      </trkpt>
      <trkpt lat="53.485721000" lon="6.173684000">
        <ele>4.000</ele>
        <time>2023-08-06T13:22:49Z</time>
      </trkpt>
      <trkpt lat="53.485790000" lon="6.173576000">
        <ele>3.900</ele>
        <time>2023-08-06T14:12:57Z</time>
      </trkpt>
      <trkpt lat="53.485822000" lon="6.173558000">
        <ele>3.900</ele>
        <time>2023-08-06T14:12:59Z</time>
      </trkpt>
      <trkpt lat="53.485880000" lon="6.173556000">
        <ele>3.900</ele>
        <time>2023-08-06T14:13:03Z</time>
      </trkpt>
      <trkpt lat="53.485937000" lon="6.173575000">
        <ele>3.900</ele>
        <time>2023-08-06T14:13:04Z</time>
      </trkpt>
      <trkpt lat="53.485993000" lon="6.173558000">
        <ele>3.900</ele>
        <time>2023-08-06T14:13:06Z</time>
      </trkpt>
      <trkpt lat="53.486203000" lon="6.173565000">
        <ele>3.900</ele>
        <time>2023-08-06T14:13:14Z</time>
      </trkpt>
      <trkpt lat="53.486267000" lon="6.173518000">
        <ele>3.800</ele>
        <time>2023-08-06T14:13:16Z</time>
      </trkpt>
      <trkpt lat="53.486293000" lon="6.173486000">
        <ele>3.800</ele>
        <time>2023-08-06T14:13:17Z</time>
      </trkpt>
      <trkpt lat="53.486389000" lon="6.173315000">
        <ele>3.800</ele>
        <time>2023-08-06T14:13:21Z</time>
      </trkpt>
      <trkpt lat="53.486423000" lon="6.173226000">
        <ele>3.800</ele>
        <time>2023-08-06T14:13:23Z</time>
      </trkpt>
      <trkpt lat="53.486495000" lon="6.173101000">
        <ele>3.800</ele>
        <time>2023-08-06T14:13:26Z</time>
      </trkpt>
      <trkpt lat="53.486606000" lon="6.172991000">
        <ele>3.800</ele>
        <time>2023-08-06T14:13:30Z</time>
      </trkpt>
      <trkpt lat="53.486681000" lon="6.172980000">
        <ele>3.700</ele>
        <time>2023-08-06T14:13:34Z</time>
      </trkpt>
      <trkpt lat="53.486759000" lon="6.172933000">
        <ele>3.700</ele>
        <time>2023-08-06T14:13:37Z</time>
      </trkpt>
      <trkpt lat="53.486940000" lon="6.172761000">
        <ele>3.700</ele>
        <time>2023-08-06T14:13:42Z</time>
      </trkpt>
      <trkpt lat="53.487156000" lon="6.172707000">
        <ele>3.800</ele>
        <time>2023-08-06T14:13:48Z</time>
      </trkpt>
      <trkpt lat="53.487274000" lon="6.172725000">
        <ele>3.800</ele>
        <time>2023-08-06T14:13:51Z</time>
      </trkpt>
      <trkpt lat="53.487394000" lon="6.172717000">
        <ele>3.800</ele>
        <time>2023-08-06T14:13:54Z</time>
      </trkpt>
      <trkpt lat="53.487492000" lon="6.172728000">
        <ele>3.900</ele>
        <time>2023-08-06T14:13:57Z</time>
      </trkpt>
      <trkpt lat="53.487523000" lon="6.172742000">
        <ele>3.900</ele>
        <time>2023-08-06T14:13:58Z</time>
      </trkpt>
      <trkpt lat="53.487546000" lon="6.172810000">
        <ele>3.900</ele>
        <time>2023-08-06T14:14:00Z</time>
      </trkpt>
      <trkpt lat="53.487552000" lon="6.172928000">
        <ele>4.000</ele>
        <time>2023-08-06T14:14:02Z</time>
      </trkpt>
      <trkpt lat="53.487541000" lon="6.173153000">
        <ele>4.000</ele>
        <time>2023-08-06T14:14:07Z</time>
      </trkpt>
      <trkpt lat="53.487488000" lon="6.173360000">
        <ele>4.100</ele>
        <time>2023-08-06T14:14:12Z</time>
      </trkpt>
      <trkpt lat="53.487411000" lon="6.173738000">
        <ele>4.000</ele>
        <time>2023-08-06T14:14:21Z</time>
      </trkpt>
      <trkpt lat="53.487407000" lon="6.173792000">
        <ele>3.900</ele>
        <time>2023-08-06T14:14:22Z</time>
      </trkpt>
      <trkpt lat="53.487364000" lon="6.173980000">
        <ele>3.900</ele>
        <time>2023-08-06T14:14:26Z</time>
      </trkpt>
      <trkpt lat="53.487305000" lon="6.174151000">
        <ele>4.000</ele>
        <time>2023-08-06T14:14:30Z</time>
      </trkpt>
      <trkpt lat="53.487287000" lon="6.174243000">
        <ele>4.000</ele>
        <time>2023-08-06T14:14:32Z</time>
      </trkpt>
      <trkpt lat="53.487243000" lon="6.174364000">
        <ele>4.000</ele>
        <time>2023-08-06T14:14:35Z</time>
      </trkpt>
      <trkpt lat="53.487223000" lon="6.174498000">
        <ele>4.100</ele>
        <time>2023-08-06T14:14:38Z</time>
      </trkpt>
      <trkpt lat="53.487232000" lon="6.174715000">
        <ele>4.100</ele>
        <time>2023-08-06T14:14:44Z</time>
      </trkpt>
      <trkpt lat="53.487215000" lon="6.174874000">
        <ele>4.000</ele>
        <time>2023-08-06T14:14:47Z</time>
      </trkpt>
      <trkpt lat="53.487153000" lon="6.175268000">
        <ele>3.900</ele>
        <time>2023-08-06T14:14:53Z</time>
      </trkpt>
      <trkpt lat="53.487134000" lon="6.175444000">
        <ele>3.800</ele>
        <time>2023-08-06T14:14:56Z</time>
      </trkpt>
      <trkpt lat="53.487101000" lon="6.175527000">
        <ele>3.800</ele>
        <time>2023-08-06T14:14:58Z</time>
      </trkpt>
      <trkpt lat="53.487071000" lon="6.175642000">
        <ele>3.800</ele>
        <time>2023-08-06T14:15:00Z</time>
      </trkpt>
      <trkpt lat="53.487068000" lon="6.175706000">
        <ele>3.800</ele>
        <time>2023-08-06T14:15:01Z</time>
      </trkpt>
      <trkpt lat="53.487042000" lon="6.175815000">
        <ele>3.800</ele>
        <time>2023-08-06T14:15:03Z</time>
      </trkpt>
      <trkpt lat="53.487019000" lon="6.175987000">
        <ele>3.700</ele>
        <time>2023-08-06T14:15:06Z</time>
      </trkpt>
      <trkpt lat="53.487020000" lon="6.176050000">
        <ele>3.800</ele>
        <time>2023-08-06T14:15:07Z</time>
      </trkpt>
      <trkpt lat="53.487031000" lon="6.176111000">
        <ele>3.800</ele>
        <time>2023-08-06T14:15:08Z</time>
      </trkpt>
      <trkpt lat="53.487031000" lon="6.176465000">
        <ele>3.800</ele>
        <time>2023-08-06T14:15:14Z</time>
      </trkpt>
      <trkpt lat="53.486984000" lon="6.176749000">
        <ele>3.700</ele>
        <time>2023-08-06T14:15:20Z</time>
      </trkpt>
      <trkpt lat="53.486938000" lon="6.176870000">
        <ele>3.600</ele>
        <time>2023-08-06T14:15:23Z</time>
      </trkpt>
      <trkpt lat="53.486915000" lon="6.176908000">
        <ele>3.600</ele>
        <time>2023-08-06T14:15:24Z</time>
      </trkpt>
      <trkpt lat="53.486841000" lon="6.177153000">
        <ele>3.600</ele>
        <time>2023-08-06T14:15:26Z</time>
      </trkpt>
      <trkpt lat="53.486764000" lon="6.177303000">
        <ele>3.600</ele>
        <time>2023-08-06T14:15:29Z</time>
      </trkpt>
      <trkpt lat="53.486713000" lon="6.177471000">
        <ele>3.600</ele>
        <time>2023-08-06T14:15:32Z</time>
      </trkpt>
      <trkpt lat="53.486658000" lon="6.177778000">
        <ele>3.800</ele>
        <time>2023-08-06T14:15:37Z</time>
      </trkpt>
      <trkpt lat="53.486650000" lon="6.177952000">
        <ele>3.900</ele>
        <time>2023-08-06T14:15:40Z</time>
      </trkpt>
      <trkpt lat="53.486661000" lon="6.178073000">
        <ele>3.900</ele>
        <time>2023-08-06T14:15:42Z</time>
      </trkpt>
      <trkpt lat="53.486687000" lon="6.178185000">
        <ele>3.900</ele>
        <time>2023-08-06T14:15:44Z</time>
      </trkpt>
      <trkpt lat="53.486736000" lon="6.178208000">
        <ele>3.900</ele>
        <time>2023-08-06T14:15:45Z</time>
      </trkpt>
      <trkpt lat="53.486828000" lon="6.178343000">
        <ele>3.900</ele>
        <time>2023-08-06T14:15:49Z</time>
      </trkpt>
      <trkpt lat="53.486861000" lon="6.178427000">
        <ele>4.000</ele>
        <time>2023-08-06T14:15:51Z</time>
      </trkpt>
      <trkpt lat="53.486874000" lon="6.178527000">
        <ele>4.100</ele>
        <time>2023-08-06T14:15:53Z</time>
      </trkpt>
      <trkpt lat="53.486872000" lon="6.178801000">
        <ele>4.400</ele>
        <time>2023-08-06T14:15:59Z</time>
      </trkpt>
      <trkpt lat="53.486849000" lon="6.179023000">
        <ele>4.600</ele>
        <time>2023-08-06T14:16:04Z</time>
      </trkpt>
      <trkpt lat="53.486841000" lon="6.179429000">
        <ele>5.300</ele>
        <time>2023-08-06T14:16:08Z</time>
      </trkpt>
      <trkpt lat="53.486901000" lon="6.179910000">
        <ele>5.900</ele>
        <time>2023-08-06T14:16:19Z</time>
      </trkpt>
      <trkpt lat="53.486938000" lon="6.180532000">
        <ele>7.100</ele>
        <time>2023-08-06T14:16:33Z</time>
      </trkpt>
      <trkpt lat="53.486933000" lon="6.180615000">
        <ele>7.400</ele>
        <time>2023-08-06T14:16:35Z</time>
      </trkpt>
      <trkpt lat="53.486911000" lon="6.180650000">
        <ele>7.600</ele>
        <time>2023-08-06T14:16:36Z</time>
      </trkpt>
      <trkpt lat="53.486864000" lon="6.180686000">
        <ele>7.500</ele>
        <time>2023-08-06T14:16:40Z</time>
      </trkpt>
      <trkpt lat="53.486855000" lon="6.180724000">
        <ele>7.400</ele>
        <time>2023-08-06T14:16:42Z</time>
      </trkpt>
      <trkpt lat="53.486858000" lon="6.180760000">
        <ele>7.300</ele>
        <time>2023-08-06T14:16:44Z</time>
      </trkpt>
      <trkpt lat="53.486856000" lon="6.180731000">
        <ele>7.200</ele>
        <time>2023-08-06T14:16:53Z</time>
      </trkpt>
      <trkpt lat="53.486863000" lon="6.180737000">
        <ele>7.200</ele>
        <time>2023-08-06T14:16:55Z</time>
      </trkpt>
      <trkpt lat="53.486908000" lon="6.180015000">
        <ele>6.000</ele>
        <time>2023-08-06T14:39:04Z</time>
      </trkpt>
      <trkpt lat="53.486907000" lon="6.179825000">
        <ele>5.800</ele>
        <time>2023-08-06T14:39:08Z</time>
      </trkpt>
      <trkpt lat="53.486913000" lon="6.179763000">
        <ele>5.800</ele>
        <time>2023-08-06T14:39:11Z</time>
      </trkpt>
      <trkpt lat="53.486940000" lon="6.179723000">
        <ele>5.700</ele>
        <time>2023-08-06T14:39:15Z</time>
      </trkpt>
      <trkpt lat="53.487006000" lon="6.179750000">
        <ele>5.800</ele>
        <time>2023-08-06T14:39:17Z</time>
      </trkpt>
      <trkpt lat="53.487244000" lon="6.179802000">
        <ele>6.100</ele>
        <time>2023-08-06T14:39:24Z</time>
      </trkpt>
      <trkpt lat="53.487423000" lon="6.179901000">
        <ele>6.300</ele>
        <time>2023-08-06T14:39:29Z</time>
      </trkpt>
      <trkpt lat="53.487568000" lon="6.180007000">
        <ele>6.300</ele>
        <time>2023-08-06T14:39:33Z</time>
      </trkpt>
      <trkpt lat="53.487590000" lon="6.180054000">
        <ele>6.400</ele>
        <time>2023-08-06T14:39:34Z</time>
      </trkpt>
      <trkpt lat="53.487717000" lon="6.180249000">
        <ele>6.600</ele>
        <time>2023-08-06T14:39:39Z</time>
      </trkpt>
      <trkpt lat="53.487796000" lon="6.180414000">
        <ele>6.800</ele>
        <time>2023-08-06T14:39:43Z</time>
      </trkpt>
      <trkpt lat="53.487907000" lon="6.180596000">
        <ele>6.900</ele>
        <time>2023-08-06T14:39:48Z</time>
      </trkpt>
      <trkpt lat="53.487923000" lon="6.180650000">
        <ele>6.900</ele>
        <time>2023-08-06T14:39:49Z</time>
      </trkpt>
      <trkpt lat="53.487947000" lon="6.180685000">
        <ele>6.900</ele>
        <time>2023-08-06T14:39:50Z</time>
      </trkpt>
      <trkpt lat="53.487975000" lon="6.180693000">
        <ele>6.900</ele>
        <time>2023-08-06T14:39:51Z</time>
      </trkpt>
      <trkpt lat="53.488211000" lon="6.181023000">
        <ele>6.600</ele>
        <time>2023-08-06T14:39:57Z</time>
      </trkpt>
      <trkpt lat="53.488439000" lon="6.181276000">
        <ele>6.200</ele>
        <time>2023-08-06T14:40:02Z</time>
      </trkpt>
      <trkpt lat="53.488995000" lon="6.181949000">
        <ele>6.800</ele>
        <time>2023-08-06T14:40:12Z</time>
      </trkpt>
      <trkpt lat="53.489039000" lon="6.182019000">
        <ele>6.900</ele>
        <time>2023-08-06T14:40:13Z</time>
      </trkpt>
      <trkpt lat="53.489463000" lon="6.182506000">
        <ele>7.600</ele>
        <time>2023-08-06T14:40:25Z</time>
      </trkpt>
      <trkpt lat="53.489636000" lon="6.182718000">
        <ele>7.600</ele>
        <time>2023-08-06T14:40:31Z</time>
      </trkpt>
      <trkpt lat="53.489870000" lon="6.182927000">
        <ele>7.400</ele>
        <time>2023-08-06T14:40:38Z</time>
      </trkpt>
      <trkpt lat="53.489938000" lon="6.183001000">
        <ele>7.300</ele>
        <time>2023-08-06T14:40:40Z</time>
      </trkpt>
      <trkpt lat="53.490472000" lon="6.183387000">
        <ele>6.300</ele>
        <time>2023-08-06T14:40:52Z</time>
      </trkpt>
      <trkpt lat="53.490638000" lon="6.183495000">
        <ele>6.300</ele>
        <time>2023-08-06T14:40:56Z</time>
      </trkpt>
      <trkpt lat="53.490866000" lon="6.183693000">
        <ele>6.300</ele>
        <time>2023-08-06T14:41:03Z</time>
      </trkpt>
      <trkpt lat="53.490956000" lon="6.183744000">
        <ele>6.300</ele>
        <time>2023-08-06T14:41:06Z</time>
      </trkpt>
      <trkpt lat="53.491212000" lon="6.183944000">
        <ele>6.100</ele>
        <time>2023-08-06T14:41:14Z</time>
      </trkpt>
      <trkpt lat="53.491272000" lon="6.183980000">
        <ele>6.000</ele>
        <time>2023-08-06T14:41:16Z</time>
      </trkpt>
      <trkpt lat="53.491390000" lon="6.184086000">
        <ele>6.000</ele>
        <time>2023-08-06T14:41:20Z</time>
      </trkpt>
      <trkpt lat="53.491474000" lon="6.184124000">
        <ele>6.100</ele>
        <time>2023-08-06T14:41:23Z</time>
      </trkpt>
      <trkpt lat="53.491564000" lon="6.184199000">
        <ele>6.000</ele>
        <time>2023-08-06T14:41:27Z</time>
      </trkpt>
      <trkpt lat="53.492115000" lon="6.184426000">
        <ele>4.400</ele>
        <time>2023-08-06T14:41:41Z</time>
      </trkpt>
      <trkpt lat="53.492212000" lon="6.184478000">
        <ele>4.100</ele>
        <time>2023-08-06T14:41:43Z</time>
      </trkpt>
      <trkpt lat="53.492405000" lon="6.184546000">
        <ele>3.800</ele>
        <time>2023-08-06T14:41:47Z</time>
      </trkpt>
      <trkpt lat="53.492547000" lon="6.184581000">
        <ele>3.700</ele>
        <time>2023-08-06T14:41:50Z</time>
      </trkpt>
      <trkpt lat="53.492757000" lon="6.184681000">
        <ele>3.400</ele>
        <time>2023-08-06T14:41:54Z</time>
      </trkpt>
      <trkpt lat="53.492910000" lon="6.184788000">
        <ele>3.200</ele>
        <time>2023-08-06T14:41:57Z</time>
      </trkpt>
      <trkpt lat="53.493027000" lon="6.184828000">
        <ele>3.100</ele>
        <time>2023-08-06T14:41:59Z</time>
      </trkpt>
      <trkpt lat="53.493186000" lon="6.184904000">
        <ele>3.100</ele>
        <time>2023-08-06T14:42:02Z</time>
      </trkpt>
      <trkpt lat="53.493298000" lon="6.184940000">
        <ele>3.100</ele>
        <time>2023-08-06T14:42:04Z</time>
      </trkpt>
      <trkpt lat="53.493545000" lon="6.185045000">
        <ele>3.100</ele>
        <time>2023-08-06T14:42:09Z</time>
      </trkpt>
      <trkpt lat="53.494088000" lon="6.185240000">
        <ele>3.000</ele>
        <time>2023-08-06T14:42:20Z</time>
      </trkpt>
      <trkpt lat="53.494221000" lon="6.185274000">
        <ele>3.100</ele>
        <time>2023-08-06T14:42:23Z</time>
      </trkpt>
      <trkpt lat="53.494353000" lon="6.185343000">
        <ele>3.100</ele>
        <time>2023-08-06T14:42:26Z</time>
      </trkpt>
      <trkpt lat="53.494538000" lon="6.185390000">
        <ele>3.100</ele>
        <time>2023-08-06T14:42:30Z</time>
      </trkpt>
      <trkpt lat="53.494626000" lon="6.185424000">
        <ele>3.100</ele>
        <time>2023-08-06T14:42:32Z</time>
      </trkpt>
      <trkpt lat="53.494650000" lon="6.185451000">
        <ele>3.100</ele>
        <time>2023-08-06T14:42:33Z</time>
      </trkpt>
      <trkpt lat="53.494759000" lon="6.185472000">
        <ele>3.100</ele>
        <time>2023-08-06T14:42:35Z</time>
      </trkpt>
      <trkpt lat="53.495321000" lon="6.185643000">
        <ele>2.800</ele>
        <time>2023-08-06T14:42:48Z</time>
      </trkpt>
      <trkpt lat="53.495543000" lon="6.185724000">
        <ele>3.000</ele>
        <time>2023-08-06T14:42:54Z</time>
      </trkpt>
      <trkpt lat="53.495587000" lon="6.185753000">
        <ele>3.100</ele>
        <time>2023-08-06T14:42:55Z</time>
      </trkpt>
      <trkpt lat="53.495696000" lon="6.185775000">
        <ele>3.200</ele>
        <time>2023-08-06T14:42:58Z</time>
      </trkpt>
      <trkpt lat="53.495734000" lon="6.185797000">
        <ele>3.200</ele>
        <time>2023-08-06T14:43:00Z</time>
      </trkpt>
      <trkpt lat="53.495821000" lon="6.185813000">
        <ele>3.100</ele>
        <time>2023-08-06T14:43:03Z</time>
      </trkpt>
      <trkpt lat="53.495864000" lon="6.185834000">
        <ele>3.100</ele>
        <time>2023-08-06T14:43:04Z</time>
      </trkpt>
      <trkpt lat="53.496020000" lon="6.185964000">
        <ele>3.000</ele>
        <time>2023-08-06T14:43:10Z</time>
      </trkpt>
      <trkpt lat="53.496039000" lon="6.186009000">
        <ele>3.000</ele>
        <time>2023-08-06T14:43:11Z</time>
      </trkpt>
      <trkpt lat="53.496109000" lon="6.186412000">
        <ele>2.800</ele>
        <time>2023-08-06T14:43:20Z</time>
      </trkpt>
      <trkpt lat="53.496120000" lon="6.186530000">
        <ele>2.800</ele>
        <time>2023-08-06T14:43:22Z</time>
      </trkpt>
      <trkpt lat="53.496163000" lon="6.186668000">
        <ele>2.800</ele>
        <time>2023-08-06T14:43:25Z</time>
      </trkpt>
      <trkpt lat="53.496201000" lon="6.186743000">
        <ele>2.800</ele>
        <time>2023-08-06T14:43:27Z</time>
      </trkpt>
      <trkpt lat="53.496212000" lon="6.186793000">
        <ele>2.800</ele>
        <time>2023-08-06T14:43:28Z</time>
      </trkpt>
      <trkpt lat="53.496308000" lon="6.186944000">
        <ele>2.700</ele>
        <time>2023-08-06T14:43:34Z</time>
      </trkpt>
      <trkpt lat="53.496321000" lon="6.187077000">
        <ele>2.700</ele>
        <time>2023-08-06T14:44:00Z</time>
      </trkpt>
      <trkpt lat="53.496371000" lon="6.187034000">
        <ele>2.700</ele>
        <time>2023-08-06T14:44:45Z</time>
      </trkpt>
      <trkpt lat="53.496401000" lon="6.187032000">
        <ele>2.700</ele>
        <time>2023-08-06T14:44:46Z</time>
      </trkpt>
      <trkpt lat="53.496447000" lon="6.187132000">
        <ele>2.600</ele>
        <time>2023-08-06T14:44:51Z</time>
      </trkpt>
      <trkpt lat="53.496462000" lon="6.187185000">
        <ele>2.600</ele>
        <time>2023-08-06T14:44:53Z</time>
      </trkpt>
      <trkpt lat="53.496500000" lon="6.187240000">
        <ele>2.500</ele>
        <time>2023-08-06T14:44:56Z</time>
      </trkpt>
      <trkpt lat="53.496625000" lon="6.187519000">
        <ele>2.300</ele>
        <time>2023-08-06T14:45:07Z</time>
      </trkpt>
      <trkpt lat="53.496639000" lon="6.187596000">
        <ele>2.200</ele>
        <time>2023-08-06T14:45:09Z</time>
      </trkpt>
      <trkpt lat="53.496627000" lon="6.187662000">
        <ele>2.200</ele>
        <time>2023-08-06T14:45:10Z</time>
      </trkpt>
      <trkpt lat="53.496583000" lon="6.187784000">
        <ele>2.200</ele>
        <time>2023-08-06T14:45:13Z</time>
      </trkpt>
      <trkpt lat="53.496540000" lon="6.187962000">
        <ele>2.100</ele>
        <time>2023-08-06T14:45:18Z</time>
      </trkpt>
      <trkpt lat="53.496541000" lon="6.188019000">
        <ele>2.100</ele>
        <time>2023-08-06T14:45:20Z</time>
      </trkpt>
      <trkpt lat="53.496587000" lon="6.188077000">
        <ele>2.100</ele>
        <time>2023-08-06T14:45:25Z</time>
      </trkpt>
      <trkpt lat="53.496595000" lon="6.188073000">
        <ele>2.100</ele>
        <time>2023-08-06T14:45:26Z</time>
      </trkpt>
      <trkpt lat="53.496591000" lon="6.188066000">
        <ele>2.100</ele>
        <time>2023-08-06T14:45:27Z</time>
      </trkpt>
      <trkpt lat="53.496609000" lon="6.188096000">
        <ele>2.100</ele>
        <time>2023-08-06T14:45:31Z</time>
      </trkpt>
      <trkpt lat="53.496560000" lon="6.188014000">
        <ele>2.100</ele>
        <time>2023-08-06T14:46:33Z</time>
      </trkpt>
      <trkpt lat="53.496554000" lon="6.188026000">
        <ele>2.100</ele>
        <time>2023-08-06T14:46:34Z</time>
      </trkpt>
      <trkpt lat="53.496557000" lon="6.187921000">
        <ele>2.100</ele>
        <time>2023-08-06T15:13:27Z</time>
      </trkpt>
      <trkpt lat="53.496544000" lon="6.187987000">
        <ele>2.100</ele>
        <time>2023-08-06T15:13:33Z</time>
      </trkpt>
      <trkpt lat="53.496557000" lon="6.187991000">
        <ele>2.100</ele>
        <time>2023-08-06T15:13:35Z</time>
      </trkpt>
      <trkpt lat="53.496557000" lon="6.187965000">
        <ele>2.100</ele>
        <time>2023-08-06T15:13:36Z</time>
      </trkpt>
      <trkpt lat="53.496629000" lon="6.187756000">
        <ele>2.100</ele>
        <time>2023-08-06T15:13:40Z</time>
      </trkpt>
      <trkpt lat="53.496652000" lon="6.187651000">
        <ele>2.200</ele>
        <time>2023-08-06T15:13:42Z</time>
      </trkpt>
      <trkpt lat="53.496659000" lon="6.187540000">
        <ele>2.300</ele>
        <time>2023-08-06T15:13:44Z</time>
      </trkpt>
      <trkpt lat="53.496646000" lon="6.187364000">
        <ele>2.400</ele>
        <time>2023-08-06T15:13:47Z</time>
      </trkpt>
      <trkpt lat="53.496646000" lon="6.187256000">
        <ele>2.500</ele>
        <time>2023-08-06T15:13:49Z</time>
      </trkpt>
      <trkpt lat="53.496669000" lon="6.186827000">
        <ele>2.700</ele>
        <time>2023-08-06T15:13:57Z</time>
      </trkpt>
      <trkpt lat="53.496684000" lon="6.186736000">
        <ele>2.700</ele>
        <time>2023-08-06T15:13:58Z</time>
      </trkpt>
      <trkpt lat="53.496708000" lon="6.186444000">
        <ele>2.900</ele>
        <time>2023-08-06T15:14:03Z</time>
      </trkpt>
      <trkpt lat="53.496731000" lon="6.185943000">
        <ele>3.100</ele>
        <time>2023-08-06T15:14:12Z</time>
      </trkpt>
      <trkpt lat="53.496725000" lon="6.185939000">
        <ele>3.100</ele>
        <time>2023-08-06T15:14:13Z</time>
      </trkpt>
      <trkpt lat="53.496704000" lon="6.185814000">
        <ele>3.000</ele>
        <time>2023-08-06T15:14:16Z</time>
      </trkpt>
      <trkpt lat="53.496672000" lon="6.185742000">
        <ele>3.000</ele>
        <time>2023-08-06T15:14:18Z</time>
      </trkpt>
      <trkpt lat="53.496578000" lon="6.185592000">
        <ele>2.900</ele>
        <time>2023-08-06T15:14:22Z</time>
      </trkpt>
      <trkpt lat="53.496560000" lon="6.185537000">
        <ele>2.900</ele>
        <time>2023-08-06T15:14:23Z</time>
      </trkpt>
      <trkpt lat="53.496486000" lon="6.185428000">
        <ele>2.900</ele>
        <time>2023-08-06T15:14:26Z</time>
      </trkpt>
      <trkpt lat="53.496382000" lon="6.185308000">
        <ele>2.900</ele>
        <time>2023-08-06T15:14:30Z</time>
      </trkpt>
      <trkpt lat="53.496306000" lon="6.185246000">
        <ele>2.900</ele>
        <time>2023-08-06T15:14:32Z</time>
      </trkpt>
      <trkpt lat="53.496245000" lon="6.185163000">
        <ele>3.000</ele>
        <time>2023-08-06T15:14:34Z</time>
      </trkpt>
      <trkpt lat="53.496233000" lon="6.185115000">
        <ele>2.900</ele>
        <time>2023-08-06T15:14:35Z</time>
      </trkpt>
      <trkpt lat="53.496222000" lon="6.184689000">
        <ele>2.900</ele>
        <time>2023-08-06T15:14:43Z</time>
      </trkpt>
      <trkpt lat="53.496231000" lon="6.184328000">
        <ele>2.900</ele>
        <time>2023-08-06T15:14:49Z</time>
      </trkpt>
      <trkpt lat="53.496249000" lon="6.184270000">
        <ele>2.900</ele>
        <time>2023-08-06T15:14:50Z</time>
      </trkpt>
      <trkpt lat="53.496255000" lon="6.184204000">
        <ele>2.900</ele>
        <time>2023-08-06T15:14:51Z</time>
      </trkpt>
      <trkpt lat="53.496294000" lon="6.184024000">
        <ele>2.800</ele>
        <time>2023-08-06T15:14:54Z</time>
      </trkpt>
      <trkpt lat="53.496368000" lon="6.183774000">
        <ele>2.800</ele>
        <time>2023-08-06T15:15:00Z</time>
      </trkpt>
      <trkpt lat="53.496402000" lon="6.183706000">
        <ele>2.900</ele>
        <time>2023-08-06T15:15:02Z</time>
      </trkpt>
      <trkpt lat="53.496434000" lon="6.183667000">
        <ele>2.900</ele>
        <time>2023-08-06T15:15:03Z</time>
      </trkpt>
      <trkpt lat="53.496471000" lon="6.183578000">
        <ele>3.000</ele>
        <time>2023-08-06T15:15:05Z</time>
      </trkpt>
      <trkpt lat="53.496510000" lon="6.183516000">
        <ele>3.000</ele>
        <time>2023-08-06T15:15:07Z</time>
      </trkpt>
      <trkpt lat="53.496562000" lon="6.183382000">
        <ele>3.200</ele>
        <time>2023-08-06T15:15:10Z</time>
      </trkpt>
      <trkpt lat="53.496608000" lon="6.183201000">
        <ele>3.400</ele>
        <time>2023-08-06T15:15:14Z</time>
      </trkpt>
      <trkpt lat="53.496623000" lon="6.183062000">
        <ele>3.600</ele>
        <time>2023-08-06T15:15:17Z</time>
      </trkpt>
      <trkpt lat="53.496628000" lon="6.182879000">
        <ele>3.800</ele>
        <time>2023-08-06T15:15:21Z</time>
      </trkpt>
      <trkpt lat="53.496670000" lon="6.182610000">
        <ele>4.000</ele>
        <time>2023-08-06T15:15:27Z</time>
      </trkpt>
      <trkpt lat="53.496660000" lon="6.182563000">
        <ele>4.000</ele>
        <time>2023-08-06T15:15:28Z</time>
      </trkpt>
      <trkpt lat="53.496713000" lon="6.182316000">
        <ele>3.900</ele>
        <time>2023-08-06T15:15:32Z</time>
      </trkpt>
      <trkpt lat="53.496764000" lon="6.181806000">
        <ele>4.200</ele>
        <time>2023-08-06T15:15:38Z</time>
      </trkpt>
      <trkpt lat="53.496777000" lon="6.181578000">
        <ele>4.600</ele>
        <time>2023-08-06T15:15:43Z</time>
      </trkpt>
      <trkpt lat="53.496775000" lon="6.181451000">
        <ele>4.700</ele>
        <time>2023-08-06T15:15:47Z</time>
      </trkpt>
      <trkpt lat="53.496758000" lon="6.181285000">
        <ele>4.800</ele>
        <time>2023-08-06T15:15:51Z</time>
      </trkpt>
      <trkpt lat="53.496728000" lon="6.181161000">
        <ele>4.700</ele>
        <time>2023-08-06T15:15:54Z</time>
      </trkpt>
      <trkpt lat="53.496662000" lon="6.180691000">
        <ele>4.700</ele>
        <time>2023-08-06T15:16:01Z</time>
      </trkpt>
      <trkpt lat="53.496662000" lon="6.180416000">
        <ele>4.800</ele>
        <time>2023-08-06T15:16:06Z</time>
      </trkpt>
      <trkpt lat="53.496619000" lon="6.180122000">
        <ele>4.900</ele>
        <time>2023-08-06T15:16:12Z</time>
      </trkpt>
      <trkpt lat="53.496618000" lon="6.180023000">
        <ele>4.800</ele>
        <time>2023-08-06T15:16:14Z</time>
      </trkpt>
      <trkpt lat="53.496639000" lon="6.179801000">
        <ele>4.800</ele>
        <time>2023-08-06T15:16:18Z</time>
      </trkpt>
      <trkpt lat="53.496627000" lon="6.179551000">
        <ele>4.900</ele>
        <time>2023-08-06T15:16:22Z</time>
      </trkpt>
      <trkpt lat="53.496612000" lon="6.179493000">
        <ele>4.900</ele>
        <time>2023-08-06T15:16:23Z</time>
      </trkpt>
      <trkpt lat="53.496565000" lon="6.179415000">
        <ele>4.900</ele>
        <time>2023-08-06T15:16:25Z</time>
      </trkpt>
      <trkpt lat="53.496538000" lon="6.179393000">
        <ele>4.900</ele>
        <time>2023-08-06T15:16:26Z</time>
      </trkpt>
      <trkpt lat="53.496497000" lon="6.179313000">
        <ele>4.800</ele>
        <time>2023-08-06T15:16:29Z</time>
      </trkpt>
      <trkpt lat="53.496452000" lon="6.179263000">
        <ele>4.600</ele>
        <time>2023-08-06T15:16:31Z</time>
      </trkpt>
      <trkpt lat="53.496275000" lon="6.179017000">
        <ele>4.000</ele>
        <time>2023-08-06T15:16:37Z</time>
      </trkpt>
      <trkpt lat="53.496054000" lon="6.178748000">
        <ele>3.600</ele>
        <time>2023-08-06T15:16:43Z</time>
      </trkpt>
      <trkpt lat="53.495826000" lon="6.178493000">
        <ele>3.500</ele>
        <time>2023-08-06T15:16:50Z</time>
      </trkpt>
      <trkpt lat="53.495725000" lon="6.178245000">
        <ele>3.600</ele>
        <time>2023-08-06T15:16:54Z</time>
      </trkpt>
      <trkpt lat="53.495673000" lon="6.178047000">
        <ele>3.700</ele>
        <time>2023-08-06T15:16:57Z</time>
      </trkpt>
      <trkpt lat="53.495631000" lon="6.177816000">
        <ele>3.700</ele>
        <time>2023-08-06T15:17:01Z</time>
      </trkpt>
      <trkpt lat="53.495604000" lon="6.177555000">
        <ele>3.700</ele>
        <time>2023-08-06T15:17:07Z</time>
      </trkpt>
      <trkpt lat="53.495606000" lon="6.177480000">
        <ele>3.600</ele>
        <time>2023-08-06T15:17:08Z</time>
      </trkpt>
      <trkpt lat="53.495628000" lon="6.177298000">
        <ele>3.500</ele>
        <time>2023-08-06T15:17:11Z</time>
      </trkpt>
      <trkpt lat="53.495640000" lon="6.176992000">
        <ele>3.300</ele>
        <time>2023-08-06T15:17:14Z</time>
      </trkpt>
      <trkpt lat="53.495588000" lon="6.176468000">
        <ele>2.900</ele>
        <time>2023-08-06T15:17:22Z</time>
      </trkpt>
      <trkpt lat="53.495577000" lon="6.176099000">
        <ele>2.800</ele>
        <time>2023-08-06T15:17:27Z</time>
      </trkpt>
      <trkpt lat="53.495586000" lon="6.175730000">
        <ele>3.000</ele>
        <time>2023-08-06T15:17:33Z</time>
      </trkpt>
      <trkpt lat="53.495574000" lon="6.175646000">
        <ele>3.100</ele>
        <time>2023-08-06T15:17:35Z</time>
      </trkpt>
      <trkpt lat="53.495543000" lon="6.175547000">
        <ele>3.300</ele>
        <time>2023-08-06T15:17:37Z</time>
      </trkpt>
      <trkpt lat="53.495444000" lon="6.175346000">
        <ele>3.500</ele>
        <time>2023-08-06T15:17:43Z</time>
      </trkpt>
      <trkpt lat="53.495314000" lon="6.174951000">
        <ele>3.500</ele>
        <time>2023-08-06T15:17:49Z</time>
      </trkpt>
      <trkpt lat="53.495299000" lon="6.174827000">
        <ele>3.400</ele>
        <time>2023-08-06T15:17:51Z</time>
      </trkpt>
      <trkpt lat="53.495302000" lon="6.174646000">
        <ele>3.200</ele>
        <time>2023-08-06T15:17:55Z</time>
      </trkpt>
      <trkpt lat="53.495289000" lon="6.174581000">
        <ele>3.200</ele>
        <time>2023-08-06T15:17:56Z</time>
      </trkpt>
      <trkpt lat="53.495285000" lon="6.174451000">
        <ele>3.100</ele>
        <time>2023-08-06T15:17:58Z</time>
      </trkpt>
      <trkpt lat="53.495310000" lon="6.174262000">
        <ele>3.000</ele>
        <time>2023-08-06T15:18:01Z</time>
      </trkpt>
      <trkpt lat="53.495317000" lon="6.174088000">
        <ele>2.900</ele>
        <time>2023-08-06T15:18:02Z</time>
      </trkpt>
      <trkpt lat="53.495344000" lon="6.173962000">
        <ele>2.900</ele>
        <time>2023-08-06T15:18:04Z</time>
      </trkpt>
      <trkpt lat="53.495356000" lon="6.173840000">
        <ele>2.800</ele>
        <time>2023-08-06T15:18:06Z</time>
      </trkpt>
      <trkpt lat="53.495355000" lon="6.173343000">
        <ele>2.900</ele>
        <time>2023-08-06T15:18:14Z</time>
      </trkpt>
      <trkpt lat="53.495399000" lon="6.172860000">
        <ele>3.000</ele>
        <time>2023-08-06T15:18:22Z</time>
      </trkpt>
      <trkpt lat="53.495404000" lon="6.172729000">
        <ele>3.000</ele>
        <time>2023-08-06T15:18:24Z</time>
      </trkpt>
      <trkpt lat="53.495437000" lon="6.172378000">
        <ele>3.000</ele>
        <time>2023-08-06T15:18:30Z</time>
      </trkpt>
      <trkpt lat="53.495435000" lon="6.172320000">
        <ele>3.000</ele>
        <time>2023-08-06T15:18:31Z</time>
      </trkpt>
      <trkpt lat="53.495446000" lon="6.172198000">
        <ele>3.000</ele>
        <time>2023-08-06T15:18:34Z</time>
      </trkpt>
      <trkpt lat="53.495458000" lon="6.172150000">
        <ele>3.000</ele>
        <time>2023-08-06T15:18:35Z</time>
      </trkpt>
      <trkpt lat="53.495469000" lon="6.172046000">
        <ele>3.000</ele>
        <time>2023-08-06T15:18:37Z</time>
      </trkpt>
      <trkpt lat="53.495489000" lon="6.171952000">
        <ele>3.100</ele>
        <time>2023-08-06T15:18:39Z</time>
      </trkpt>
      <trkpt lat="53.495473000" lon="6.171610000">
        <ele>3.100</ele>
        <time>2023-08-06T15:18:43Z</time>
      </trkpt>
      <trkpt lat="53.495459000" lon="6.171556000">
        <ele>3.200</ele>
        <time>2023-08-06T15:18:44Z</time>
      </trkpt>
      <trkpt lat="53.495294000" lon="6.171157000">
        <ele>3.200</ele>
        <time>2023-08-06T15:18:52Z</time>
      </trkpt>
      <trkpt lat="53.495264000" lon="6.171052000">
        <ele>3.300</ele>
        <time>2023-08-06T15:18:54Z</time>
      </trkpt>
      <trkpt lat="53.495195000" lon="6.170867000">
        <ele>3.300</ele>
        <time>2023-08-06T15:18:58Z</time>
      </trkpt>
      <trkpt lat="53.495166000" lon="6.170812000">
        <ele>3.400</ele>
        <time>2023-08-06T15:18:59Z</time>
      </trkpt>
      <trkpt lat="53.495158000" lon="6.170770000">
        <ele>3.400</ele>
        <time>2023-08-06T15:19:00Z</time>
      </trkpt>
      <trkpt lat="53.495080000" lon="6.170576000">
        <ele>3.600</ele>
        <time>2023-08-06T15:19:07Z</time>
      </trkpt>
      <trkpt lat="53.495065000" lon="6.170480000">
        <ele>3.700</ele>
        <time>2023-08-06T15:19:09Z</time>
      </trkpt>
      <trkpt lat="53.495064000" lon="6.170407000">
        <ele>3.700</ele>
        <time>2023-08-06T15:19:11Z</time>
      </trkpt>
      <trkpt lat="53.495055000" lon="6.170352000">
        <ele>3.800</ele>
        <time>2023-08-06T15:19:12Z</time>
      </trkpt>
      <trkpt lat="53.495039000" lon="6.169972000">
        <ele>4.000</ele>
        <time>2023-08-06T15:19:21Z</time>
      </trkpt>
      <trkpt lat="53.495043000" lon="6.169676000">
        <ele>4.500</ele>
        <time>2023-08-06T15:19:30Z</time>
      </trkpt>
      <trkpt lat="53.495061000" lon="6.169571000">
        <ele>4.700</ele>
        <time>2023-08-06T15:19:33Z</time>
      </trkpt>
      <trkpt lat="53.495143000" lon="6.169262000">
        <ele>4.900</ele>
        <time>2023-08-06T15:19:43Z</time>
      </trkpt>
      <trkpt lat="53.495148000" lon="6.169198000">
        <ele>4.900</ele>
        <time>2023-08-06T15:19:44Z</time>
      </trkpt>
      <trkpt lat="53.495212000" lon="6.168865000">
        <ele>4.500</ele>
        <time>2023-08-06T15:19:53Z</time>
      </trkpt>
      <trkpt lat="53.495212000" lon="6.168800000">
        <ele>4.400</ele>
        <time>2023-08-06T15:19:54Z</time>
      </trkpt>
      <trkpt lat="53.495200000" lon="6.168728000">
        <ele>4.300</ele>
        <time>2023-08-06T15:19:56Z</time>
      </trkpt>
      <trkpt lat="53.495235000" lon="6.168444000">
        <ele>3.900</ele>
        <time>2023-08-06T15:20:01Z</time>
      </trkpt>
      <trkpt lat="53.495239000" lon="6.168271000">
        <ele>3.800</ele>
        <time>2023-08-06T15:20:03Z</time>
      </trkpt>
      <trkpt lat="53.495249000" lon="6.168203000">
        <ele>3.800</ele>
        <time>2023-08-06T15:20:04Z</time>
      </trkpt>
      <trkpt lat="53.495356000" lon="6.167756000">
        <ele>4.300</ele>
        <time>2023-08-06T15:20:11Z</time>
      </trkpt>
      <trkpt lat="53.495353000" lon="6.167689000">
        <ele>4.400</ele>
        <time>2023-08-06T15:20:12Z</time>
      </trkpt>
      <trkpt lat="53.495368000" lon="6.167557000">
        <ele>4.600</ele>
        <time>2023-08-06T15:20:14Z</time>
      </trkpt>
      <trkpt lat="53.495391000" lon="6.167144000">
        <ele>4.900</ele>
        <time>2023-08-06T15:20:20Z</time>
      </trkpt>
      <trkpt lat="53.495388000" lon="6.167025000">
        <ele>4.900</ele>
        <time>2023-08-06T15:20:22Z</time>
      </trkpt>
      <trkpt lat="53.495415000" lon="6.166625000">
        <ele>5.100</ele>
        <time>2023-08-06T15:20:30Z</time>
      </trkpt>
      <trkpt lat="53.495458000" lon="6.166222000">
        <ele>5.300</ele>
        <time>2023-08-06T15:20:39Z</time>
      </trkpt>
      <trkpt lat="53.495475000" lon="6.165981000">
        <ele>5.100</ele>
        <time>2023-08-06T15:20:45Z</time>
      </trkpt>
      <trkpt lat="53.495521000" lon="6.165625000">
        <ele>4.700</ele>
        <time>2023-08-06T15:20:49Z</time>
      </trkpt>
      <trkpt lat="53.495527000" lon="6.165486000">
        <ele>4.600</ele>
        <time>2023-08-06T15:20:51Z</time>
      </trkpt>
      <trkpt lat="53.495579000" lon="6.165057000">
        <ele>4.500</ele>
        <time>2023-08-06T15:20:57Z</time>
      </trkpt>
      <trkpt lat="53.495630000" lon="6.164846000">
        <ele>4.600</ele>
        <time>2023-08-06T15:21:00Z</time>
      </trkpt>
      <trkpt lat="53.495640000" lon="6.164715000">
        <ele>4.900</ele>
        <time>2023-08-06T15:21:02Z</time>
      </trkpt>
      <trkpt lat="53.495623000" lon="6.164600000">
        <ele>5.300</ele>
        <time>2023-08-06T15:21:04Z</time>
      </trkpt>
      <trkpt lat="53.495599000" lon="6.164577000">
        <ele>5.400</ele>
        <time>2023-08-06T15:21:05Z</time>
      </trkpt>
      <trkpt lat="53.495574000" lon="6.164458000">
        <ele>5.900</ele>
        <time>2023-08-06T15:21:08Z</time>
      </trkpt>
      <trkpt lat="53.495569000" lon="6.164376000">
        <ele>6.200</ele>
        <time>2023-08-06T15:21:11Z</time>
      </trkpt>
      <trkpt lat="53.495548000" lon="6.164319000">
        <ele>6.400</ele>
        <time>2023-08-06T15:21:13Z</time>
      </trkpt>
      <trkpt lat="53.495552000" lon="6.164190000">
        <ele>6.900</ele>
        <time>2023-08-06T15:21:16Z</time>
      </trkpt>
      <trkpt lat="53.495528000" lon="6.164022000">
        <ele>7.500</ele>
        <time>2023-08-06T15:21:21Z</time>
      </trkpt>
      <trkpt lat="53.495477000" lon="6.163860000">
        <ele>7.900</ele>
        <time>2023-08-06T15:21:26Z</time>
      </trkpt>
      <trkpt lat="53.495393000" lon="6.163664000">
        <ele>7.900</ele>
        <time>2023-08-06T15:21:34Z</time>
      </trkpt>
      <trkpt lat="53.495387000" lon="6.163606000">
        <ele>7.800</ele>
        <time>2023-08-06T15:21:35Z</time>
      </trkpt>
      <trkpt lat="53.495401000" lon="6.163494000">
        <ele>7.500</ele>
        <time>2023-08-06T15:21:37Z</time>
      </trkpt>
      <trkpt lat="53.495375000" lon="6.163450000">
        <ele>7.400</ele>
        <time>2023-08-06T15:21:38Z</time>
      </trkpt>
      <trkpt lat="53.495251000" lon="6.163418000">
        <ele>6.800</ele>
        <time>2023-08-06T15:22:14Z</time>
      </trkpt>
      <trkpt lat="53.495127000" lon="6.163307000">
        <ele>6.200</ele>
        <time>2023-08-06T15:22:17Z</time>
      </trkpt>
      <trkpt lat="53.494930000" lon="6.163068000">
        <ele>5.300</ele>
        <time>2023-08-06T15:22:21Z</time>
      </trkpt>
      <trkpt lat="53.494731000" lon="6.162915000">
        <ele>4.800</ele>
        <time>2023-08-06T15:22:24Z</time>
      </trkpt>
      <trkpt lat="53.494526000" lon="6.162829000">
        <ele>4.600</ele>
        <time>2023-08-06T15:22:27Z</time>
      </trkpt>
      <trkpt lat="53.494237000" lon="6.162741000">
        <ele>4.900</ele>
        <time>2023-08-06T15:22:31Z</time>
      </trkpt>
      <trkpt lat="53.494170000" lon="6.162693000">
        <ele>5.000</ele>
        <time>2023-08-06T15:22:32Z</time>
      </trkpt>
      <trkpt lat="53.494074000" lon="6.162595000">
        <ele>5.000</ele>
        <time>2023-08-06T15:22:34Z</time>
      </trkpt>
      <trkpt lat="53.493919000" lon="6.162337000">
        <ele>4.600</ele>
        <time>2023-08-06T15:22:38Z</time>
      </trkpt>
      <trkpt lat="53.493805000" lon="6.162081000">
        <ele>4.400</ele>
        <time>2023-08-06T15:22:41Z</time>
      </trkpt>
      <trkpt lat="53.493725000" lon="6.161842000">
        <ele>4.400</ele>
        <time>2023-08-06T15:22:44Z</time>
      </trkpt>
      <trkpt lat="53.493638000" lon="6.161622000">
        <ele>4.200</ele>
        <time>2023-08-06T15:22:47Z</time>
      </trkpt>
      <trkpt lat="53.493492000" lon="6.161418000">
        <ele>3.800</ele>
        <time>2023-08-06T15:22:51Z</time>
      </trkpt>
      <trkpt lat="53.493467000" lon="6.161332000">
        <ele>3.700</ele>
        <time>2023-08-06T15:22:52Z</time>
      </trkpt>
      <trkpt lat="53.493462000" lon="6.161228000">
        <ele>3.600</ele>
        <time>2023-08-06T15:22:53Z</time>
      </trkpt>
      <trkpt lat="53.493471000" lon="6.161134000">
        <ele>3.600</ele>
        <time>2023-08-06T15:22:54Z</time>
      </trkpt>
      <trkpt lat="53.493509000" lon="6.160956000">
        <ele>3.700</ele>
        <time>2023-08-06T15:22:56Z</time>
      </trkpt>
      <trkpt lat="53.493526000" lon="6.160731000">
        <ele>3.800</ele>
        <time>2023-08-06T15:22:59Z</time>
      </trkpt>
      <trkpt lat="53.493523000" lon="6.160591000">
        <ele>4.000</ele>
        <time>2023-08-06T15:23:01Z</time>
      </trkpt>
      <trkpt lat="53.493538000" lon="6.160526000">
        <ele>4.000</ele>
        <time>2023-08-06T15:23:02Z</time>
      </trkpt>
      <trkpt lat="53.493517000" lon="6.160360000">
        <ele>4.100</ele>
        <time>2023-08-06T15:23:05Z</time>
      </trkpt>
      <trkpt lat="53.493444000" lon="6.160217000">
        <ele>4.100</ele>
        <time>2023-08-06T15:23:08Z</time>
      </trkpt>
      <trkpt lat="53.493374000" lon="6.160132000">
        <ele>4.100</ele>
        <time>2023-08-06T15:23:10Z</time>
      </trkpt>
      <trkpt lat="53.493338000" lon="6.160102000">
        <ele>4.100</ele>
        <time>2023-08-06T15:23:11Z</time>
      </trkpt>
      <trkpt lat="53.493155000" lon="6.159817000">
        <ele>4.100</ele>
        <time>2023-08-06T15:23:17Z</time>
      </trkpt>
      <trkpt lat="53.493037000" lon="6.159614000">
        <ele>4.100</ele>
        <time>2023-08-06T15:23:23Z</time>
      </trkpt>
      <trkpt lat="53.492998000" lon="6.159530000">
        <ele>4.100</ele>
        <time>2023-08-06T15:23:25Z</time>
      </trkpt>
      <trkpt lat="53.492951000" lon="6.159381000">
        <ele>4.000</ele>
        <time>2023-08-06T15:23:28Z</time>
      </trkpt>
      <trkpt lat="53.492914000" lon="6.159095000">
        <ele>3.800</ele>
        <time>2023-08-06T15:23:32Z</time>
      </trkpt>
      <trkpt lat="53.492850000" lon="6.158905000">
        <ele>3.600</ele>
        <time>2023-08-06T15:23:33Z</time>
      </trkpt>
      <trkpt lat="53.492818000" lon="6.158612000">
        <ele>3.400</ele>
        <time>2023-08-06T15:23:37Z</time>
      </trkpt>
      <trkpt lat="53.492796000" lon="6.158486000">
        <ele>3.300</ele>
        <time>2023-08-06T15:23:39Z</time>
      </trkpt>
      <trkpt lat="53.492754000" lon="6.158145000">
        <ele>3.200</ele>
        <time>2023-08-06T15:23:44Z</time>
      </trkpt>
      <trkpt lat="53.492734000" lon="6.157870000">
        <ele>3.200</ele>
        <time>2023-08-06T15:23:48Z</time>
      </trkpt>
      <trkpt lat="53.492717000" lon="6.157738000">
        <ele>3.200</ele>
        <time>2023-08-06T15:23:50Z</time>
      </trkpt>
      <trkpt lat="53.492693000" lon="6.157632000">
        <ele>3.200</ele>
        <time>2023-08-06T15:23:52Z</time>
      </trkpt>
      <trkpt lat="53.492646000" lon="6.157314000">
        <ele>3.400</ele>
        <time>2023-08-06T15:23:57Z</time>
      </trkpt>
      <trkpt lat="53.492605000" lon="6.157188000">
        <ele>3.400</ele>
        <time>2023-08-06T15:24:01Z</time>
      </trkpt>
      <trkpt lat="53.492540000" lon="6.156923000">
        <ele>3.300</ele>
        <time>2023-08-06T15:24:06Z</time>
      </trkpt>
      <trkpt lat="53.492518000" lon="6.156861000">
        <ele>3.200</ele>
        <time>2023-08-06T15:24:07Z</time>
      </trkpt>
      <trkpt lat="53.492456000" lon="6.156532000">
        <ele>3.100</ele>
        <time>2023-08-06T15:24:10Z</time>
      </trkpt>
      <trkpt lat="53.492439000" lon="6.156310000">
        <ele>3.200</ele>
        <time>2023-08-06T15:24:13Z</time>
      </trkpt>
      <trkpt lat="53.492431000" lon="6.155876000">
        <ele>3.400</ele>
        <time>2023-08-06T15:24:20Z</time>
      </trkpt>
      <trkpt lat="53.492449000" lon="6.155529000">
        <ele>3.300</ele>
        <time>2023-08-06T15:24:26Z</time>
      </trkpt>
      <trkpt lat="53.492464000" lon="6.155466000">
        <ele>3.300</ele>
        <time>2023-08-06T15:24:27Z</time>
      </trkpt>
      <trkpt lat="53.492471000" lon="6.155328000">
        <ele>3.300</ele>
        <time>2023-08-06T15:24:29Z</time>
      </trkpt>
      <trkpt lat="53.492466000" lon="6.155256000">
        <ele>3.300</ele>
        <time>2023-08-06T15:24:30Z</time>
      </trkpt>
      <trkpt lat="53.492478000" lon="6.155224000">
        <ele>3.300</ele>
        <time>2023-08-06T15:24:31Z</time>
      </trkpt>
      <trkpt lat="53.492527000" lon="6.154894000">
        <ele>3.400</ele>
        <time>2023-08-06T15:24:36Z</time>
      </trkpt>
      <trkpt lat="53.492526000" lon="6.154731000">
        <ele>3.500</ele>
        <time>2023-08-06T15:24:39Z</time>
      </trkpt>
      <trkpt lat="53.492498000" lon="6.154619000">
        <ele>3.400</ele>
        <time>2023-08-06T15:24:41Z</time>
      </trkpt>
      <trkpt lat="53.492446000" lon="6.154522000">
        <ele>3.300</ele>
        <time>2023-08-06T15:24:43Z</time>
      </trkpt>
      <trkpt lat="53.492308000" lon="6.154351000">
        <ele>3.300</ele>
        <time>2023-08-06T15:24:47Z</time>
      </trkpt>
      <trkpt lat="53.492270000" lon="6.154320000">
        <ele>3.300</ele>
        <time>2023-08-06T15:24:48Z</time>
      </trkpt>
      <trkpt lat="53.492145000" lon="6.154272000">
        <ele>3.500</ele>
        <time>2023-08-06T15:24:51Z</time>
      </trkpt>
      <trkpt lat="53.492105000" lon="6.154240000">
        <ele>3.500</ele>
        <time>2023-08-06T15:24:52Z</time>
      </trkpt>
      <trkpt lat="53.492038000" lon="6.154150000">
        <ele>3.500</ele>
        <time>2023-08-06T15:24:56Z</time>
      </trkpt>
      <trkpt lat="53.491995000" lon="6.154053000">
        <ele>3.500</ele>
        <time>2023-08-06T15:24:58Z</time>
      </trkpt>
      <trkpt lat="53.491773000" lon="6.153340000">
        <ele>3.400</ele>
        <time>2023-08-06T15:25:10Z</time>
      </trkpt>
      <trkpt lat="53.491714000" lon="6.153081000">
        <ele>3.600</ele>
        <time>2023-08-06T15:25:16Z</time>
      </trkpt>
      <trkpt lat="53.491680000" lon="6.152992000">
        <ele>3.600</ele>
        <time>2023-08-06T15:25:18Z</time>
      </trkpt>
      <trkpt lat="53.491646000" lon="6.152865000">
        <ele>3.600</ele>
        <time>2023-08-06T15:25:20Z</time>
      </trkpt>
      <trkpt lat="53.491595000" lon="6.152728000">
        <ele>3.700</ele>
        <time>2023-08-06T15:25:22Z</time>
      </trkpt>
      <trkpt lat="53.491553000" lon="6.152661000">
        <ele>3.800</ele>
        <time>2023-08-06T15:25:23Z</time>
      </trkpt>
      <trkpt lat="53.491543000" lon="6.152601000">
        <ele>3.900</ele>
        <time>2023-08-06T15:25:24Z</time>
      </trkpt>
      <trkpt lat="53.491502000" lon="6.152498000">
        <ele>4.200</ele>
        <time>2023-08-06T15:25:26Z</time>
      </trkpt>
      <trkpt lat="53.491446000" lon="6.152412000">
        <ele>4.700</ele>
        <time>2023-08-06T15:25:30Z</time>
      </trkpt>
      <trkpt lat="53.491451000" lon="6.152462000">
        <ele>4.900</ele>
        <time>2023-08-06T15:25:32Z</time>
      </trkpt>
      <trkpt lat="53.491445000" lon="6.152397000">
        <ele>5.100</ele>
        <time>2023-08-06T15:25:35Z</time>
      </trkpt>
      <trkpt lat="53.491386000" lon="6.152278000">
        <ele>5.700</ele>
        <time>2023-08-06T15:26:49Z</time>
      </trkpt>
      <trkpt lat="53.491388000" lon="6.152260000">
        <ele>5.700</ele>
        <time>2023-08-06T15:26:50Z</time>
      </trkpt>
      <trkpt lat="53.491367000" lon="6.152209000">
        <ele>6.000</ele>
        <time>2023-08-06T15:26:54Z</time>
      </trkpt>
      <trkpt lat="53.491341000" lon="6.152088000">
        <ele>6.300</ele>
        <time>2023-08-06T15:27:01Z</time>
      </trkpt>
      <trkpt lat="53.491344000" lon="6.151959000">
        <ele>6.600</ele>
        <time>2023-08-06T15:27:09Z</time>
      </trkpt>
      <trkpt lat="53.491362000" lon="6.151903000">
        <ele>6.800</ele>
        <time>2023-08-06T15:27:12Z</time>
      </trkpt>
      <trkpt lat="53.491385000" lon="6.151714000">
        <ele>7.000</ele>
        <time>2023-08-06T15:27:22Z</time>
      </trkpt>
      <trkpt lat="53.491396000" lon="6.151700000">
        <ele>7.100</ele>
        <time>2023-08-06T15:27:23Z</time>
      </trkpt>
      <trkpt lat="53.491388000" lon="6.151608000">
        <ele>7.100</ele>
        <time>2023-08-06T15:27:35Z</time>
      </trkpt>
      <trkpt lat="53.491397000" lon="6.151549000">
        <ele>7.000</ele>
        <time>2023-08-06T15:27:37Z</time>
      </trkpt>
      <trkpt lat="53.491372000" lon="6.151430000">
        <ele>6.800</ele>
        <time>2023-08-06T15:27:40Z</time>
      </trkpt>
      <trkpt lat="53.491322000" lon="6.151327000">
        <ele>6.500</ele>
        <time>2023-08-06T15:27:42Z</time>
      </trkpt>
      <trkpt lat="53.491171000" lon="6.151091000">
        <ele>5.700</ele>
        <time>2023-08-06T15:27:47Z</time>
      </trkpt>
      <trkpt lat="53.491087000" lon="6.151016000">
        <ele>5.300</ele>
        <time>2023-08-06T15:27:49Z</time>
      </trkpt>
      <trkpt lat="53.490930000" lon="6.150957000">
        <ele>4.700</ele>
        <time>2023-08-06T15:27:52Z</time>
      </trkpt>
      <trkpt lat="53.490673000" lon="6.150912000">
        <ele>4.500</ele>
        <time>2023-08-06T15:27:57Z</time>
      </trkpt>
      <trkpt lat="53.490565000" lon="6.150833000">
        <ele>4.800</ele>
        <time>2023-08-06T15:28:00Z</time>
      </trkpt>
      <trkpt lat="53.490453000" lon="6.150650000">
        <ele>5.600</ele>
        <time>2023-08-06T15:28:06Z</time>
      </trkpt>
      <trkpt lat="53.490422000" lon="6.150613000">
        <ele>5.900</ele>
        <time>2023-08-06T15:28:13Z</time>
      </trkpt>
      <trkpt lat="53.490419000" lon="6.150598000">
        <ele>6.000</ele>
        <time>2023-08-06T15:28:14Z</time>
      </trkpt>
      <trkpt lat="53.490415000" lon="6.150605000">
        <ele>6.000</ele>
        <time>2023-08-06T15:28:15Z</time>
      </trkpt>
      <trkpt lat="53.490397000" lon="6.150584000">
        <ele>6.100</ele>
        <time>2023-08-06T15:28:17Z</time>
      </trkpt>
      <trkpt lat="53.490375000" lon="6.150505000">
        <ele>6.500</ele>
        <time>2023-08-06T15:28:20Z</time>
      </trkpt>
      <trkpt lat="53.490316000" lon="6.150392000">
        <ele>7.000</ele>
        <time>2023-08-06T15:28:29Z</time>
      </trkpt>
      <trkpt lat="53.490315000" lon="6.150320000">
        <ele>7.100</ele>
        <time>2023-08-06T15:28:33Z</time>
      </trkpt>
      <trkpt lat="53.490307000" lon="6.150287000">
        <ele>7.200</ele>
        <time>2023-08-06T15:28:35Z</time>
      </trkpt>
      <trkpt lat="53.490283000" lon="6.150253000">
        <ele>7.300</ele>
        <time>2023-08-06T15:28:38Z</time>
      </trkpt>
      <trkpt lat="53.490272000" lon="6.150171000">
        <ele>7.500</ele>
        <time>2023-08-06T15:28:43Z</time>
      </trkpt>
      <trkpt lat="53.490271000" lon="6.150062000">
        <ele>7.800</ele>
        <time>2023-08-06T15:28:49Z</time>
      </trkpt>
      <trkpt lat="53.490261000" lon="6.150051000">
        <ele>7.800</ele>
        <time>2023-08-06T15:28:50Z</time>
      </trkpt>
      <trkpt lat="53.490261000" lon="6.150006000">
        <ele>7.800</ele>
        <time>2023-08-06T15:28:52Z</time>
      </trkpt>
      <trkpt lat="53.490251000" lon="6.149976000">
        <ele>7.800</ele>
        <time>2023-08-06T15:28:53Z</time>
      </trkpt>
      <trkpt lat="53.490254000" lon="6.149947000">
        <ele>7.800</ele>
        <time>2023-08-06T15:28:54Z</time>
      </trkpt>
      <trkpt lat="53.490244000" lon="6.149925000">
        <ele>7.800</ele>
        <time>2023-08-06T15:28:55Z</time>
      </trkpt>
      <trkpt lat="53.490239000" lon="6.149873000">
        <ele>7.800</ele>
        <time>2023-08-06T15:28:57Z</time>
      </trkpt>
      <trkpt lat="53.490221000" lon="6.149822000">
        <ele>7.800</ele>
        <time>2023-08-06T15:28:59Z</time>
      </trkpt>
      <trkpt lat="53.490220000" lon="6.149831000">
        <ele>7.800</ele>
        <time>2023-08-06T15:29:02Z</time>
      </trkpt>
      <trkpt lat="53.490146000" lon="6.149722000">
        <ele>7.800</ele>
        <time>2023-08-06T15:29:12Z</time>
      </trkpt>
      <trkpt lat="53.490118000" lon="6.149721000">
        <ele>7.800</ele>
        <time>2023-08-06T15:29:19Z</time>
      </trkpt>
      <trkpt lat="53.490123000" lon="6.149728000">
        <ele>7.800</ele>
        <time>2023-08-06T15:29:20Z</time>
      </trkpt>
      <trkpt lat="53.490102000" lon="6.149843000">
        <ele>7.800</ele>
        <time>2023-08-06T15:34:52Z</time>
      </trkpt>
      <trkpt lat="53.490076000" lon="6.149797000">
        <ele>7.700</ele>
        <time>2023-08-06T15:34:53Z</time>
      </trkpt>
      <trkpt lat="53.490089000" lon="6.149790000">
        <ele>7.700</ele>
        <time>2023-08-06T15:34:54Z</time>
      </trkpt>
      <trkpt lat="53.490010000" lon="6.149839000">
        <ele>7.600</ele>
        <time>2023-08-06T15:35:03Z</time>
      </trkpt>
      <trkpt lat="53.489794000" lon="6.150292000">
        <ele>6.800</ele>
        <time>2023-08-06T15:35:13Z</time>
      </trkpt>
      <trkpt lat="53.489734000" lon="6.150394000">
        <ele>6.600</ele>
        <time>2023-08-06T15:35:15Z</time>
      </trkpt>
      <trkpt lat="53.489614000" lon="6.150635000">
        <ele>6.100</ele>
        <time>2023-08-06T15:35:19Z</time>
      </trkpt>
      <trkpt lat="53.489461000" lon="6.150896000">
        <ele>5.600</ele>
        <time>2023-08-06T15:35:23Z</time>
      </trkpt>
      <trkpt lat="53.489387000" lon="6.151054000">
        <ele>5.300</ele>
        <time>2023-08-06T15:35:25Z</time>
      </trkpt>
      <trkpt lat="53.489210000" lon="6.151369000">
        <ele>4.700</ele>
        <time>2023-08-06T15:35:29Z</time>
      </trkpt>
      <trkpt lat="53.488959000" lon="6.151772000">
        <ele>4.000</ele>
        <time>2023-08-06T15:35:34Z</time>
      </trkpt>
      <trkpt lat="53.488848000" lon="6.151925000">
        <ele>3.900</ele>
        <time>2023-08-06T15:35:36Z</time>
      </trkpt>
      <trkpt lat="53.488541000" lon="6.152412000">
        <ele>3.600</ele>
        <time>2023-08-06T15:35:41Z</time>
      </trkpt>
      <trkpt lat="53.488485000" lon="6.152485000">
        <ele>3.600</ele>
        <time>2023-08-06T15:35:42Z</time>
      </trkpt>
      <trkpt lat="53.488393000" lon="6.152647000">
        <ele>3.600</ele>
        <time>2023-08-06T15:35:44Z</time>
      </trkpt>
      <trkpt lat="53.488342000" lon="6.152712000">
        <ele>3.600</ele>
        <time>2023-08-06T15:35:45Z</time>
      </trkpt>
      <trkpt lat="53.488177000" lon="6.152992000">
        <ele>3.600</ele>
        <time>2023-08-06T15:35:49Z</time>
      </trkpt>
      <trkpt lat="53.488028000" lon="6.153209000">
        <ele>3.600</ele>
        <time>2023-08-06T15:35:54Z</time>
      </trkpt>
      <trkpt lat="53.487973000" lon="6.153212000">
        <ele>3.600</ele>
        <time>2023-08-06T15:35:58Z</time>
      </trkpt>
      <trkpt lat="53.487942000" lon="6.153179000">
        <ele>3.700</ele>
        <time>2023-08-06T15:36:03Z</time>
      </trkpt>
      <trkpt lat="53.487941000" lon="6.153150000">
        <ele>3.700</ele>
        <time>2023-08-06T15:36:05Z</time>
      </trkpt>
      <trkpt lat="53.487894000" lon="6.153023000">
        <ele>3.700</ele>
        <time>2023-08-06T15:36:13Z</time>
      </trkpt>
      <trkpt lat="53.487790000" lon="6.152788000">
        <ele>3.600</ele>
        <time>2023-08-06T15:36:25Z</time>
      </trkpt>
      <trkpt lat="53.487715000" lon="6.152682000">
        <ele>3.600</ele>
        <time>2023-08-06T15:36:31Z</time>
      </trkpt>
      <trkpt lat="53.487690000" lon="6.152622000">
        <ele>3.600</ele>
        <time>2023-08-06T15:36:33Z</time>
      </trkpt>
      <trkpt lat="53.487657000" lon="6.152576000">
        <ele>3.600</ele>
        <time>2023-08-06T15:36:35Z</time>
      </trkpt>
      <trkpt lat="53.487614000" lon="6.152476000">
        <ele>3.600</ele>
        <time>2023-08-06T15:36:39Z</time>
      </trkpt>
      <trkpt lat="53.487586000" lon="6.152441000">
        <ele>3.700</ele>
        <time>2023-08-06T15:36:41Z</time>
      </trkpt>
      <trkpt lat="53.487448000" lon="6.152180000">
        <ele>3.700</ele>
        <time>2023-08-06T15:36:49Z</time>
      </trkpt>
      <trkpt lat="53.487415000" lon="6.152063000">
        <ele>3.800</ele>
        <time>2023-08-06T15:36:51Z</time>
      </trkpt>
      <trkpt lat="53.487399000" lon="6.151919000">
        <ele>3.800</ele>
        <time>2023-08-06T15:36:54Z</time>
      </trkpt>
      <trkpt lat="53.487406000" lon="6.151636000">
        <ele>3.800</ele>
        <time>2023-08-06T15:36:59Z</time>
      </trkpt>
      <trkpt lat="53.487399000" lon="6.151580000">
        <ele>3.800</ele>
        <time>2023-08-06T15:37:00Z</time>
      </trkpt>
      <trkpt lat="53.487422000" lon="6.151049000">
        <ele>3.800</ele>
        <time>2023-08-06T15:37:09Z</time>
      </trkpt>
      <trkpt lat="53.487478000" lon="6.150440000">
        <ele>3.900</ele>
        <time>2023-08-06T15:37:18Z</time>
      </trkpt>
      <trkpt lat="53.487494000" lon="6.150128000">
        <ele>4.000</ele>
        <time>2023-08-06T15:37:24Z</time>
      </trkpt>
      <trkpt lat="53.487490000" lon="6.149802000">
        <ele>4.400</ele>
        <time>2023-08-06T15:37:28Z</time>
      </trkpt>
      <trkpt lat="53.487463000" lon="6.149642000">
        <ele>4.800</ele>
        <time>2023-08-06T15:37:31Z</time>
      </trkpt>
      <trkpt lat="53.487449000" lon="6.149615000">
        <ele>4.900</ele>
        <time>2023-08-06T15:37:32Z</time>
      </trkpt>
      <trkpt lat="53.487450000" lon="6.149574000">
        <ele>4.900</ele>
        <time>2023-08-06T15:37:34Z</time>
      </trkpt>
      <trkpt lat="53.487435000" lon="6.149495000">
        <ele>5.100</ele>
        <time>2023-08-06T15:37:36Z</time>
      </trkpt>
      <trkpt lat="53.487423000" lon="6.149178000">
        <ele>5.700</ele>
        <time>2023-08-06T15:37:44Z</time>
      </trkpt>
      <trkpt lat="53.487401000" lon="6.149008000">
        <ele>5.900</ele>
        <time>2023-08-06T15:37:47Z</time>
      </trkpt>
      <trkpt lat="53.487392000" lon="6.148873000">
        <ele>6.000</ele>
        <time>2023-08-06T15:37:50Z</time>
      </trkpt>
      <trkpt lat="53.487354000" lon="6.148698000">
        <ele>6.200</ele>
        <time>2023-08-06T15:37:54Z</time>
      </trkpt>
      <trkpt lat="53.487355000" lon="6.148648000">
        <ele>6.300</ele>
        <time>2023-08-06T15:37:55Z</time>
      </trkpt>
      <trkpt lat="53.487285000" lon="6.148340000">
        <ele>6.900</ele>
        <time>2023-08-06T15:38:02Z</time>
      </trkpt>
      <trkpt lat="53.487250000" lon="6.148129000">
        <ele>7.500</ele>
        <time>2023-08-06T15:38:07Z</time>
      </trkpt>
      <trkpt lat="53.487248000" lon="6.147964000">
        <ele>7.900</ele>
        <time>2023-08-06T15:38:12Z</time>
      </trkpt>
      <trkpt lat="53.487225000" lon="6.147832000">
        <ele>8.300</ele>
        <time>2023-08-06T15:38:16Z</time>
      </trkpt>
      <trkpt lat="53.487178000" lon="6.147664000">
        <ele>8.800</ele>
        <time>2023-08-06T15:38:22Z</time>
      </trkpt>
      <trkpt lat="53.487069000" lon="6.147478000">
        <ele>9.500</ele>
        <time>2023-08-06T15:38:31Z</time>
      </trkpt>
      <trkpt lat="53.487004000" lon="6.147411000">
        <ele>9.800</ele>
        <time>2023-08-06T15:38:35Z</time>
      </trkpt>
      <trkpt lat="53.486996000" lon="6.147389000">
        <ele>9.800</ele>
        <time>2023-08-06T15:38:36Z</time>
      </trkpt>
      <trkpt lat="53.486923000" lon="6.147310000">
        <ele>10.000</ele>
        <time>2023-08-06T15:38:41Z</time>
      </trkpt>
      <trkpt lat="53.486780000" lon="6.147056000">
        <ele>10.300</ele>
        <time>2023-08-06T15:38:51Z</time>
      </trkpt>
      <trkpt lat="53.486763000" lon="6.146982000">
        <ele>10.300</ele>
        <time>2023-08-06T15:38:54Z</time>
      </trkpt>
      <trkpt lat="53.486784000" lon="6.146933000">
        <ele>10.400</ele>
        <time>2023-08-06T15:38:56Z</time>
      </trkpt>
      <trkpt lat="53.486786000" lon="6.146904000">
        <ele>10.400</ele>
        <time>2023-08-06T15:38:57Z</time>
      </trkpt>
      <trkpt lat="53.486833000" lon="6.146764000">
        <ele>10.300</ele>
        <time>2023-08-06T15:39:02Z</time>
      </trkpt>
      <trkpt lat="53.486774000" lon="6.146642000">
        <ele>10.200</ele>
        <time>2023-08-06T15:39:32Z</time>
      </trkpt>
      <trkpt lat="53.486763000" lon="6.146557000">
        <ele>10.300</ele>
        <time>2023-08-06T15:39:38Z</time>
      </trkpt>
      <trkpt lat="53.486794000" lon="6.146472000">
        <ele>10.400</ele>
        <time>2023-08-06T15:39:43Z</time>
      </trkpt>
      <trkpt lat="53.486830000" lon="6.146328000">
        <ele>10.600</ele>
        <time>2023-08-06T15:39:54Z</time>
      </trkpt>
      <trkpt lat="53.486840000" lon="6.146255000">
        <ele>10.600</ele>
        <time>2023-08-06T15:39:58Z</time>
      </trkpt>
      <trkpt lat="53.486877000" lon="6.146211000">
        <ele>10.500</ele>
        <time>2023-08-06T15:41:32Z</time>
      </trkpt>
      <trkpt lat="53.486903000" lon="6.146097000">
        <ele>10.100</ele>
        <time>2023-08-06T15:41:38Z</time>
      </trkpt>
      <trkpt lat="53.486914000" lon="6.146086000">
        <ele>9.900</ele>
        <time>2023-08-06T15:41:48Z</time>
      </trkpt>
    </trkseg>
  </trk>
</gpx>
