{"type":"FeatureCollection","features":[{"type":"Feature","properties":{"name":"Vélo en soirée","type":"vélo","time":"2023-08-06T13:15:49Z","coordTimes":["2023-08-06T13:15:49Z","2023-08-06T13:16:04Z","2023-08-06T13:16:08Z","2023-08-06T13:16:11Z","2023-08-06T13:16:12Z","2023-08-06T13:16:16Z","2023-08-06T13:16:18Z","2023-08-06T13:16:28Z","2023-08-06T13:16:32Z","2023-08-06T13:16:33Z","2023-08-06T13:16:40Z","2023-08-06T13:16:42Z","2023-08-06T13:16:44Z","2023-08-06T13:16:47Z","2023-08-06T13:16:51Z","2023-08-06T13:16:52Z","2023-08-06T13:16:54Z","2023-08-06T13:17:29Z","2023-08-06T13:17:36Z","2023-08-06T13:17:45Z","2023-08-06T13:17:47Z","2023-08-06T13:17:49Z","2023-08-06T13:17:50Z","2023-08-06T13:17:56Z","2023-08-06T13:17:57Z","2023-08-06T13:18:02Z","2023-08-06T13:18:03Z","2023-08-06T13:18:04Z","2023-08-06T13:18:05Z","2023-08-06T13:18:06Z","2023-08-06T13:18:14Z","2023-08-06T13:18:23Z","2023-08-06T13:18:25Z","2023-08-06T13:18:27Z","2023-08-06T13:18:31Z","2023-08-06T13:18:36Z","2023-08-06T13:18:38Z","2023-08-06T13:18:46Z","2023-08-06T13:18:52Z","2023-08-06T13:19:00Z","2023-08-06T13:19:05Z","2023-08-06T13:19:14Z","2023-08-06T13:19:15Z","2023-08-06T13:19:18Z","2023-08-06T13:19:22Z","2023-08-06T13:19:25Z","2023-08-06T13:19:28Z","2023-08-06T13:19:30Z","2023-08-06T13:19:37Z","2023-08-06T13:19:42Z","2023-08-06T13:19:46Z","2023-08-06T13:19:49Z","2023-08-06T13:19:52Z","2023-08-06T13:19:59Z","2023-08-06T13:20:00Z","2023-08-06T13:20:02Z","2023-08-06T13:20:03Z","2023-08-06T13:20:05Z","2023-08-06T13:20:07Z","2023-08-06T13:20:10Z","2023-08-06T13:20:13Z","2023-08-06T13:20:15Z","2023-08-06T13:20:19Z","2023-08-06T13:20:25Z","2023-08-06T13:20:29Z","2023-08-06T13:20:31Z","2023-08-06T13:20:32Z","2023-08-06T13:20:39Z","2023-08-06T13:20:42Z","2023-08-06T13:20:43Z","2023-08-06T13:20:44Z","2023-08-06T13:20:48Z","2023-08-06T13:20:56Z","2023-08-06T13:20:58Z","2023-08-06T13:21:06Z","2023-08-06T13:21:10Z","2023-08-06T13:21:12Z","2023-08-06T13:21:16Z","2023-08-06T13:21:27Z","2023-08-06T13:21:34Z","2023-08-06T13:21:38Z","2023-08-06T13:21:42Z","2023-08-06T13:21:47Z","2023-08-06T13:21:49Z","2023-08-06T13:21:50Z","2023-08-06T13:21:53Z","2023-08-06T13:21:54Z","2023-08-06T13:22:00Z","2023-08-06T13:22:04Z","2023-08-06T13:22:09Z","2023-08-06T13:22:12Z","2023-08-06T13:22:16Z","2023-08-06T13:22:18Z","2023-08-06T13:22:21Z","2023-08-06T13:22:23Z","2023-08-06T13:22:32Z","2023-08-06T13:22:36Z","2023-08-06T13:22:38Z","2023-08-06T13:22:39Z","2023-08-06T13:22:40Z","2023-08-06T13:22:42Z","2023-08-06T13:22:45Z","2023-08-06T13:22:48Z","2023-08-06T13:22:49Z","2023-08-06T14:12:57Z","2023-08-06T14:12:59Z","2023-08-06T14:13:03Z","2023-08-06T14:13:04Z","2023-08-06T14:13:06Z","2023-08-06T14:13:14Z","2023-08-06T14:13:16Z","2023-08-06T14:13:17Z","2023-08-06T14:13:21Z","2023-08-06T14:13:23Z","2023-08-06T14:13:26Z","2023-08-06T14:13:30Z","2023-08-06T14:13:34Z","2023-08-06T14:13:37Z","2023-08-06T14:13:42Z","2023-08-06T14:13:48Z","2023-08-06T14:13:51Z","2023-08-06T14:13:54Z","2023-08-06T14:13:57Z","2023-08-06T14:13:58Z","2023-08-06T14:14:00Z","2023-08-06T14:14:02Z","2023-08-06T14:14:07Z","2023-08-06T14:14:12Z","2023-08-06T14:14:21Z","2023-08-06T14:14:22Z","2023-08-06T14:14:26Z","2023-08-06T14:14:30Z","2023-08-06T14:14:32Z","2023-08-06T14:14:35Z","2023-08-06T14:14:38Z","2023-08-06T14:14:44Z","2023-08-06T14:14:47Z","2023-08-06T14:14:53Z","2023-08-06T14:14:56Z","2023-08-06T14:14:58Z","2023-08-06T14:15:00Z","2023-08-06T14:15:01Z","2023-08-06T14:15:03Z","2023-08-06T14:15:06Z","2023-08-06T14:15:07Z","2023-08-06T14:15:08Z","2023-08-06T14:15:14Z","2023-08-06T14:15:20Z","2023-08-06T14:15:23Z","2023-08-06T14:15:24Z","2023-08-06T14:15:26Z","2023-08-06T14:15:29Z","2023-08-06T14:15:32Z","2023-08-06T14:15:37Z","2023-08-06T14:15:40Z","2023-08-06T14:15:42Z","2023-08-06T14:15:44Z","2023-08-06T14:15:45Z","2023-08-06T14:15:49Z","2023-08-06T14:15:51Z","2023-08-06T14:15:53Z","2023-08-06T14:15:59Z","2023-08-06T14:16:04Z","2023-08-06T14:16:08Z","2023-08-06T14:16:19Z","2023-08-06T14:16:33Z","2023-08-06T14:16:35Z","2023-08-06T14:16:36Z","2023-08-06T14:16:40Z","2023-08-06T14:16:42Z","2023-08-06T14:16:44Z","2023-08-06T14:16:53Z","2023-08-06T14:16:55Z","2023-08-06T14:39:04Z","2023-08-06T14:39:08Z","2023-08-06T14:39:11Z","2023-08-06T14:39:15Z","2023-08-06T14:39:17Z","2023-08-06T14:39:24Z","2023-08-06T14:39:29Z","2023-08-06T14:39:33Z","2023-08-06T14:39:34Z","2023-08-06T14:39:39Z","2023-08-06T14:39:43Z","2023-08-06T14:39:48Z","2023-08-06T14:39:49Z","2023-08-06T14:39:50Z","2023-08-06T14:39:51Z","2023-08-06T14:39:57Z","2023-08-06T14:40:02Z","2023-08-06T14:40:12Z","2023-08-06T14:40:13Z","2023-08-06T14:40:25Z","2023-08-06T14:40:31Z","2023-08-06T14:40:38Z","2023-08-06T14:40:40Z","2023-08-06T14:40:52Z","2023-08-06T14:40:56Z","2023-08-06T14:41:03Z","2023-08-06T14:41:06Z","2023-08-06T14:41:14Z","2023-08-06T14:41:16Z","2023-08-06T14:41:20Z","2023-08-06T14:41:23Z","2023-08-06T14:41:27Z","2023-08-06T14:41:41Z","2023-08-06T14:41:43Z","2023-08-06T14:41:47Z","2023-08-06T14:41:50Z","2023-08-06T14:41:54Z","2023-08-06T14:41:57Z","2023-08-06T14:41:59Z","2023-08-06T14:42:02Z","2023-08-06T14:42:04Z","2023-08-06T14:42:09Z","2023-08-06T14:42:20Z","2023-08-06T14:42:23Z","2023-08-06T14:42:26Z","2023-08-06T14:42:30Z","2023-08-06T14:42:32Z","2023-08-06T14:42:33Z","2023-08-06T14:42:35Z","2023-08-06T14:42:48Z","2023-08-06T14:42:54Z","2023-08-06T14:42:55Z","2023-08-06T14:42:58Z","2023-08-06T14:43:00Z","2023-08-06T14:43:03Z","2023-08-06T14:43:04Z","2023-08-06T14:43:10Z","2023-08-06T14:43:11Z","2023-08-06T14:43:20Z","2023-08-06T14:43:22Z","2023-08-06T14:43:25Z","2023-08-06T14:43:27Z","2023-08-06T14:43:28Z","2023-08-06T14:43:34Z","2023-08-06T14:44:00Z","2023-08-06T14:44:45Z","2023-08-06T14:44:46Z","2023-08-06T14:44:51Z","2023-08-06T14:44:53Z","2023-08-06T14:44:56Z","2023-08-06T14:45:07Z","2023-08-06T14:45:09Z","2023-08-06T14:45:10Z","2023-08-06T14:45:13Z","2023-08-06T14:45:18Z","2023-08-06T14:45:20Z","2023-08-06T14:45:25Z","2023-08-06T14:45:26Z","2023-08-06T14:45:27Z","2023-08-06T14:45:31Z","2023-08-06T14:46:33Z","2023-08-06T14:46:34Z","2023-08-06T15:13:27Z","2023-08-06T15:13:33Z","2023-08-06T15:13:35Z","2023-08-06T15:13:36Z","2023-08-06T15:13:40Z","2023-08-06T15:13:42Z","2023-08-06T15:13:44Z","2023-08-06T15:13:47Z","2023-08-06T15:13:49Z","2023-08-06T15:13:57Z","2023-08-06T15:13:58Z","2023-08-06T15:14:03Z","2023-08-06T15:14:12Z","2023-08-06T15:14:13Z","2023-08-06T15:14:16Z","2023-08-06T15:14:18Z","2023-08-06T15:14:22Z","2023-08-06T15:14:23Z","2023-08-06T15:14:26Z","2023-08-06T15:14:30Z","2023-08-06T15:14:32Z","2023-08-06T15:14:34Z","2023-08-06T15:14:35Z","2023-08-06T15:14:43Z","2023-08-06T15:14:49Z","2023-08-06T15:14:50Z","2023-08-06T15:14:51Z","2023-08-06T15:14:54Z","2023-08-06T15:15:00Z","2023-08-06T15:15:02Z","2023-08-06T15:15:03Z","2023-08-06T15:15:05Z","2023-08-06T15:15:07Z","2023-08-06T15:15:10Z","2023-08-06T15:15:14Z","2023-08-06T15:15:17Z","2023-08-06T15:15:21Z","2023-08-06T15:15:27Z","2023-08-06T15:15:28Z","2023-08-06T15:15:32Z","2023-08-06T15:15:38Z","2023-08-06T15:15:43Z","2023-08-06T15:15:47Z","2023-08-06T15:15:51Z","2023-08-06T15:15:54Z","2023-08-06T15:16:01Z","2023-08-06T15:16:06Z","2023-08-06T15:16:12Z","2023-08-06T15:16:14Z","2023-08-06T15:16:18Z","2023-08-06T15:16:22Z","2023-08-06T15:16:23Z","2023-08-06T15:16:25Z","2023-08-06T15:16:26Z","2023-08-06T15:16:29Z","2023-08-06T15:16:31Z","2023-08-06T15:16:37Z","2023-08-06T15:16:43Z","2023-08-06T15:16:50Z","2023-08-06T15:16:54Z","2023-08-06T15:16:57Z","2023-08-06T15:17:01Z","2023-08-06T15:17:07Z","2023-08-06T15:17:08Z","2023-08-06T15:17:11Z","2023-08-06T15:17:14Z","2023-08-06T15:17:22Z","2023-08-06T15:17:27Z","2023-08-06T15:17:33Z","2023-08-06T15:17:35Z","2023-08-06T15:17:37Z","2023-08-06T15:17:43Z","2023-08-06T15:17:49Z","2023-08-06T15:17:51Z","2023-08-06T15:17:55Z","2023-08-06T15:17:56Z","2023-08-06T15:17:58Z","2023-08-06T15:18:01Z","2023-08-06T15:18:02Z","2023-08-06T15:18:04Z","2023-08-06T15:18:06Z","2023-08-06T15:18:14Z","2023-08-06T15:18:22Z","2023-08-06T15:18:24Z","2023-08-06T15:18:30Z","2023-08-06T15:18:31Z","2023-08-06T15:18:34Z","2023-08-06T15:18:35Z","2023-08-06T15:18:37Z","2023-08-06T15:18:39Z","2023-08-06T15:18:43Z","2023-08-06T15:18:44Z","2023-08-06T15:18:52Z","2023-08-06T15:18:54Z","2023-08-06T15:18:58Z","2023-08-06T15:18:59Z","2023-08-06T15:19:00Z","2023-08-06T15:19:07Z","2023-08-06T15:19:09Z","2023-08-06T15:19:11Z","2023-08-06T15:19:12Z","2023-08-06T15:19:21Z","2023-08-06T15:19:30Z","2023-08-06T15:19:33Z","2023-08-06T15:19:43Z","2023-08-06T15:19:44Z","2023-08-06T15:19:53Z","2023-08-06T15:19:54Z","2023-08-06T15:19:56Z","2023-08-06T15:20:01Z","2023-08-06T15:20:03Z","2023-08-06T15:20:04Z","2023-08-06T15:20:11Z","2023-08-06T15:20:12Z","2023-08-06T15:20:14Z","2023-08-06T15:20:20Z","2023-08-06T15:20:22Z","2023-08-06T15:20:30Z","2023-08-06T15:20:39Z","2023-08-06T15:20:45Z","2023-08-06T15:20:49Z","2023-08-06T15:20:51Z","2023-08-06T15:20:57Z","2023-08-06T15:21:00Z","2023-08-06T15:21:02Z","2023-08-06T15:21:04Z","2023-08-06T15:21:05Z","2023-08-06T15:21:08Z","2023-08-06T15:21:11Z","2023-08-06T15:21:13Z","2023-08-06T15:21:16Z","2023-08-06T15:21:21Z","2023-08-06T15:21:26Z","2023-08-06T15:21:34Z","2023-08-06T15:21:35Z","2023-08-06T15:21:37Z","2023-08-06T15:21:38Z","2023-08-06T15:22:14Z","2023-08-06T15:22:17Z","2023-08-06T15:22:21Z","2023-08-06T15:22:24Z","2023-08-06T15:22:27Z","2023-08-06T15:22:31Z","2023-08-06T15:22:32Z","2023-08-06T15:22:34Z","2023-08-06T15:22:38Z","2023-08-06T15:22:41Z","2023-08-06T15:22:44Z","2023-08-06T15:22:47Z","2023-08-06T15:22:51Z","2023-08-06T15:22:52Z","2023-08-06T15:22:53Z","2023-08-06T15:22:54Z","2023-08-06T15:22:56Z","2023-08-06T15:22:59Z","2023-08-06T15:23:01Z","2023-08-06T15:23:02Z","2023-08-06T15:23:05Z","2023-08-06T15:23:08Z","2023-08-06T15:23:10Z","2023-08-06T15:23:11Z","2023-08-06T15:23:17Z","2023-08-06T15:23:23Z","2023-08-06T15:23:25Z","2023-08-06T15:23:28Z","2023-08-06T15:23:32Z","2023-08-06T15:23:33Z","2023-08-06T15:23:37Z","2023-08-06T15:23:39Z","2023-08-06T15:23:44Z","2023-08-06T15:23:48Z","2023-08-06T15:23:50Z","2023-08-06T15:23:52Z","2023-08-06T15:23:57Z","2023-08-06T15:24:01Z","2023-08-06T15:24:06Z","2023-08-06T15:24:07Z","2023-08-06T15:24:10Z","2023-08-06T15:24:13Z","2023-08-06T15:24:20Z","2023-08-06T15:24:26Z","2023-08-06T15:24:27Z","2023-08-06T15:24:29Z","2023-08-06T15:24:30Z","2023-08-06T15:24:31Z","2023-08-06T15:24:36Z","2023-08-06T15:24:39Z","2023-08-06T15:24:41Z","2023-08-06T15:24:43Z","2023-08-06T15:24:47Z","2023-08-06T15:24:48Z","2023-08-06T15:24:51Z","2023-08-06T15:24:52Z","2023-08-06T15:24:56Z","2023-08-06T15:24:58Z","2023-08-06T15:25:10Z","2023-08-06T15:25:16Z","2023-08-06T15:25:18Z","2023-08-06T15:25:20Z","2023-08-06T15:25:22Z","2023-08-06T15:25:23Z","2023-08-06T15:25:24Z","2023-08-06T15:25:26Z","2023-08-06T15:25:30Z","2023-08-06T15:25:32Z","2023-08-06T15:25:35Z","2023-08-06T15:26:49Z","2023-08-06T15:26:50Z","2023-08-06T15:26:54Z","2023-08-06T15:27:01Z","2023-08-06T15:27:09Z","2023-08-06T15:27:12Z","2023-08-06T15:27:22Z","2023-08-06T15:27:23Z","2023-08-06T15:27:35Z","2023-08-06T15:27:37Z","2023-08-06T15:27:40Z","2023-08-06T15:27:42Z","2023-08-06T15:27:47Z","2023-08-06T15:27:49Z","2023-08-06T15:27:52Z","2023-08-06T15:27:57Z","2023-08-06T15:28:00Z","2023-08-06T15:28:06Z","2023-08-06T15:28:13Z","2023-08-06T15:28:14Z","2023-08-06T15:28:15Z","2023-08-06T15:28:17Z","2023-08-06T15:28:20Z","2023-08-06T15:28:29Z","2023-08-06T15:28:33Z","2023-08-06T15:28:35Z","2023-08-06T15:28:38Z","2023-08-06T15:28:43Z","2023-08-06T15:28:49Z","2023-08-06T15:28:50Z","2023-08-06T15:28:52Z","2023-08-06T15:28:53Z","2023-08-06T15:28:54Z","2023-08-06T15:28:55Z","2023-08-06T15:28:57Z","2023-08-06T15:28:59Z","2023-08-06T15:29:02Z","2023-08-06T15:29:12Z","2023-08-06T15:29:19Z","2023-08-06T15:29:20Z","2023-08-06T15:34:52Z","2023-08-06T15:34:53Z","2023-08-06T15:34:54Z","2023-08-06T15:35:03Z","2023-08-06T15:35:13Z","2023-08-06T15:35:15Z","2023-08-06T15:35:19Z","2023-08-06T15:35:23Z","2023-08-06T15:35:25Z","2023-08-06T15:35:29Z","2023-08-06T15:35:34Z","2023-08-06T15:35:36Z","2023-08-06T15:35:41Z","2023-08-06T15:35:42Z","2023-08-06T15:35:44Z","2023-08-06T15:35:45Z","2023-08-06T15:35:49Z","2023-08-06T15:35:54Z","2023-08-06T15:35:58Z","2023-08-06T15:36:03Z","2023-08-06T15:36:05Z","2023-08-06T15:36:13Z","2023-08-06T15:36:25Z","2023-08-06T15:36:31Z","2023-08-06T15:36:33Z","2023-08-06T15:36:35Z","2023-08-06T15:36:39Z","2023-08-06T15:36:41Z","2023-08-06T15:36:49Z","2023-08-06T15:36:51Z","2023-08-06T15:36:54Z","2023-08-06T15:36:59Z","2023-08-06T15:37:00Z","2023-08-06T15:37:09Z","2023-08-06T15:37:18Z","2023-08-06T15:37:24Z","2023-08-06T15:37:28Z","2023-08-06T15:37:31Z","2023-08-06T15:37:32Z","2023-08-06T15:37:34Z","2023-08-06T15:37:36Z","2023-08-06T15:37:44Z","2023-08-06T15:37:47Z","2023-08-06T15:37:50Z","2023-08-06T15:37:54Z","2023-08-06T15:37:55Z","2023-08-06T15:38:02Z","2023-08-06T15:38:07Z","2023-08-06T15:38:12Z","2023-08-06T15:38:16Z","2023-08-06T15:38:22Z","2023-08-06T15:38:31Z","2023-08-06T15:38:35Z","2023-08-06T15:38:36Z","2023-08-06T15:38:41Z","2023-08-06T15:38:51Z","2023-08-06T15:38:54Z","2023-08-06T15:38:56Z","2023-08-06T15:38:57Z","2023-08-06T15:39:02Z","2023-08-06T15:39:32Z","2023-08-06T15:39:38Z","2023-08-06T15:39:43Z","2023-08-06T15:39:54Z","2023-08-06T15:39:58Z","2023-08-06T15:41:32Z","2023-08-06T15:41:38Z","2023-08-06T15:41:48Z"],"month":"2023-08-01"},"geometry":{"type":"LineString","coordinates":[[6.156985,53.483356,4.8],[6.156962,53.483338,4.8],[6.156935,53.483349,4.8],[6.15696,53.483311,4.8],[6.157007,53.483306,4.8],[6.157109,53.483365,4.7],[6.15717,53.483372,4.7],[6.157467,53.483474,4.7],[6.157584,53.483524,4.7],[6.157639,53.483537,4.7],[6.157847,53.483613,4.7],[6.157909,53.483648,4.7],[6.15798,53.483666,4.8],[6.158087,53.483709,4.8],[6.158182,53.483772,4.8],[6.158207,53.48378,4.8],[6.158241,53.48378,4.8],[6.158316,53.483759,4.7],[6.158413,53.483645,4.6],[6.158617,53.483472,4.6],[6.158668,53.483408,4.6],[6.158724,53.48337,4.6],[6.158756,53.483332,4.6],[6.158916,53.483192,4.7],[6.158935,53.483156,4.7],[6.159064,53.483023,4.8],[6.159097,53.483,4.8],[6.159142,53.482995,4.8],[6.159191,53.483011,4.8],[6.159223,53.483032,4.8],[6.15939,53.483289,4.6],[6.159494,53.483587,4.6],[6.159554,53.483645,4.6],[6.159664,53.483679,4.6],[6.159885,53.48371,4.5],[6.16016,53.483708,4.4],[6.160239,53.4837,4.4],[6.160647,53.48373,4.3],[6.160933,53.48373,4.3],[6.16144,53.483714,4.2],[6.161677,53.483693,4.3],[6.162151,53.483612,4.3],[6.162224,53.483594,4.3],[6.162373,53.483573,4.4],[6.162603,53.483567,4.4],[6.16284,53.483595,4.6],[6.16299,53.483644,4.7],[6.163171,53.483679,4.9],[6.163682,53.483732,5.2],[6.164195,53.48387,5.2],[6.164431,53.483945,5.1],[6.164626,53.483978,5.1],[6.164832,53.484,5],[6.165341,53.484073,4.9],[6.165404,53.484073,4.9],[6.165582,53.48405,4.9],[6.165614,53.484038,4.9],[6.165712,53.484022,4.9],[6.165781,53.483998,5],[6.165936,53.48397,5],[6.166196,53.483939,5],[6.166458,53.483891,4.8],[6.1666,53.483911,4.7],[6.166754,53.483947,4.6],[6.167047,53.483954,4.6],[6.167211,53.483973,4.6],[6.167308,53.484015,4.6],[6.16778,53.484111,4.6],[6.167967,53.484163,4.7],[6.168017,53.484194,4.7],[6.16807,53.484213,4.7],[6.168251,53.484304,4.7],[6.168593,53.484433,4.7],[6.168668,53.484473,4.8],[6.168963,53.484589,4.9],[6.16907,53.484664,5.1],[6.169152,53.484708,5.2],[6.169345,53.484776,5.4],[6.169842,53.484903,6.2],[6.17017,53.485005,6.7],[6.170303,53.485029,6.8],[6.1705,53.485047,6.6],[6.170823,53.48505,6.3],[6.170929,53.485074,6.3],[6.170985,53.485075,6.2],[6.171096,53.485119,6.1],[6.171161,53.48513,6],[6.171472,53.48523,5.7],[6.171671,53.485309,5.6],[6.171871,53.485429,5.4],[6.171976,53.485481,5.2],[6.172217,53.485553,4.8],[6.172354,53.485571,4.7],[6.172551,53.485617,4.6],[6.17268,53.485626,4.5],[6.173331,53.485733,4.1],[6.173507,53.485771,4.1],[6.173603,53.485772,4.1],[6.173647,53.485761,4.1],[6.173681,53.485741,4.1],[6.173708,53.485699,4],[6.173699,53.485718,4],[6.173685,53.485713,4],[6.173684,53.485721,4],[6.173576,53.48579,3.9],[6.173558,53.485822,3.9],[6.173556,53.48588,3.9],[6.173575,53.485937,3.9],[6.173558,53.485993,3.9],[6.173565,53.486203,3.9],[6.173518,53.486267,3.8],[6.173486,53.486293,3.8],[6.173315,53.486389,3.8],[6.173226,53.486423,3.8],[6.173101,53.486495,3.8],[6.172991,53.486606,3.8],[6.17298,53.486681,3.7],[6.172933,53.486759,3.7],[6.172761,53.48694,3.7],[6.172707,53.487156,3.8],[6.172725,53.487274,3.8],[6.172717,53.487394,3.8],[6.172728,53.487492,3.9],[6.172742,53.487523,3.9],[6.17281,53.487546,3.9],[6.172928,53.487552,4],[6.173153,53.487541,4],[6.17336,53.487488,4.1],[6.173738,53.487411,4],[6.173792,53.487407,3.9],[6.17398,53.487364,3.9],[6.174151,53.487305,4],[6.174243,53.487287,4],[6.174364,53.487243,4],[6.174498,53.487223,4.1],[6.174715,53.487232,4.1],[6.174874,53.487215,4],[6.175268,53.487153,3.9],[6.175444,53.487134,3.8],[6.175527,53.487101,3.8],[6.175642,53.487071,3.8],[6.175706,53.487068,3.8],[6.175815,53.487042,3.8],[6.175987,53.487019,3.7],[6.17605,53.48702,3.8],[6.176111,53.487031,3.8],[6.176465,53.487031,3.8],[6.176749,53.486984,3.7],[6.17687,53.486938,3.6],[6.176908,53.486915,3.6],[6.177153,53.486841,3.6],[6.177303,53.486764,3.6],[6.177471,53.486713,3.6],[6.177778,53.486658,3.8],[6.177952,53.48665,3.9],[6.178073,53.486661,3.9],[6.178185,53.486687,3.9],[6.178208,53.486736,3.9],[6.178343,53.486828,3.9],[6.178427,53.486861,4],[6.178527,53.486874,4.1],[6.178801,53.486872,4.4],[6.179023,53.486849,4.6],[6.179429,53.486841,5.3],[6.17991,53.486901,5.9],[6.180532,53.486938,7.1],[6.180615,53.486933,7.4],[6.18065,53.486911,7.6],[6.180686,53.486864,7.5],[6.180724,53.486855,7.4],[6.18076,53.486858,7.3],[6.180731,53.486856,7.2],[6.180737,53.486863,7.2],[6.180015,53.486908,6],[6.179825,53.486907,5.8],[6.179763,53.486913,5.8],[6.179723,53.48694,5.7],[6.17975,53.487006,5.8],[6.179802,53.487244,6.1],[6.179901,53.487423,6.3],[6.180007,53.487568,6.3],[6.180054,53.48759,6.4],[6.180249,53.487717,6.6],[6.180414,53.487796,6.8],[6.180596,53.487907,6.9],[6.18065,53.487923,6.9],[6.180685,53.487947,6.9],[6.180693,53.487975,6.9],[6.181023,53.488211,6.6],[6.181276,53.488439,6.2],[6.181949,53.488995,6.8],[6.182019,53.489039,6.9],[6.182506,53.489463,7.6],[6.182718,53.489636,7.6],[6.182927,53.48987,7.4],[6.183001,53.489938,7.3],[6.183387,53.490472,6.3],[6.183495,53.490638,6.3],[6.183693,53.490866,6.3],[6.183744,53.490956,6.3],[6.183944,53.491212,6.1],[6.18398,53.491272,6],[6.184086,53.49139,6],[6.184124,53.491474,6.1],[6.184199,53.491564,6],[6.184426,53.492115,4.4],[6.184478,53.492212,4.1],[6.184546,53.492405,3.8],[6.184581,53.492547,3.7],[6.184681,53.492757,3.4],[6.184788,53.49291,3.2],[6.184828,53.493027,3.1],[6.184904,53.493186,3.1],[6.18494,53.493298,3.1],[6.185045,53.493545,3.1],[6.18524,53.494088,3],[6.185274,53.494221,3.1],[6.185343,53.494353,3.1],[6.18539,53.494538,3.1],[6.185424,53.494626,3.1],[6.185451,53.49465,3.1],[6.185472,53.494759,3.1],[6.185643,53.495321,2.8],[6.185724,53.495543,3],[6.185753,53.495587,3.1],[6.185775,53.495696,3.2],[6.185797,53.495734,3.2],[6.185813,53.495821,3.1],[6.185834,53.495864,3.1],[6.185964,53.49602,3],[6.186009,53.496039,3],[6.186412,53.496109,2.8],[6.18653,53.49612,2.8],[6.186668,53.496163,2.8],[6.186743,53.496201,2.8],[6.186793,53.496212,2.8],[6.186944,53.496308,2.7],[6.187077,53.496321,2.7],[6.187034,53.496371,2.7],[6.187032,53.496401,2.7],[6.187132,53.496447,2.6],[6.187185,53.496462,2.6],[6.18724,53.4965,2.5],[6.187519,53.496625,2.3],[6.187596,53.496639,2.2],[6.187662,53.496627,2.2],[6.187784,53.496583,2.2],[6.187962,53.49654,2.1],[6.188019,53.496541,2.1],[6.188077,53.496587,2.1],[6.188073,53.496595,2.1],[6.188066,53.496591,2.1],[6.188096,53.496609,2.1],[6.188014,53.49656,2.1],[6.188026,53.496554,2.1],[6.187921,53.496557,2.1],[6.187987,53.496544,2.1],[6.187991,53.496557,2.1],[6.187965,53.496557,2.1],[6.187756,53.496629,2.1],[6.187651,53.496652,2.2],[6.18754,53.496659,2.3],[6.187364,53.496646,2.4],[6.187256,53.496646,2.5],[6.186827,53.496669,2.7],[6.186736,53.496684,2.7],[6.186444,53.496708,2.9],[6.185943,53.496731,3.1],[6.185939,53.496725,3.1],[6.185814,53.496704,3],[6.185742,53.496672,3],[6.185592,53.496578,2.9],[6.185537,53.49656,2.9],[6.185428,53.496486,2.9],[6.185308,53.496382,2.9],[6.185246,53.496306,2.9],[6.185163,53.496245,3],[6.185115,53.496233,2.9],[6.184689,53.496222,2.9],[6.184328,53.496231,2.9],[6.18427,53.496249,2.9],[6.184204,53.496255,2.9],[6.184024,53.496294,2.8],[6.183774,53.496368,2.8],[6.183706,53.496402,2.9],[6.183667,53.496434,2.9],[6.183578,53.496471,3],[6.183516,53.49651,3],[6.183382,53.496562,3.2],[6.183201,53.496608,3.4],[6.183062,53.496623,3.6],[6.182879,53.496628,3.8],[6.18261,53.49667,4],[6.182563,53.49666,4],[6.182316,53.496713,3.9],[6.181806,53.496764,4.2],[6.181578,53.496777,4.6],[6.181451,53.496775,4.7],[6.181285,53.496758,4.8],[6.181161,53.496728,4.7],[6.180691,53.496662,4.7],[6.180416,53.496662,4.8],[6.180122,53.496619,4.9],[6.180023,53.496618,4.8],[6.179801,53.496639,4.8],[6.179551,53.496627,4.9],[6.179493,53.496612,4.9],[6.179415,53.496565,4.9],[6.179393,53.496538,4.9],[6.179313,53.496497,4.8],[6.179263,53.496452,4.6],[6.179017,53.496275,4],[6.178748,53.496054,3.6],[6.178493,53.495826,3.5],[6.178245,53.495725,3.6],[6.178047,53.495673,3.7],[6.177816,53.495631,3.7],[6.177555,53.495604,3.7],[6.17748,53.495606,3.6],[6.177298,53.495628,3.5],[6.176992,53.49564,3.3],[6.176468,53.495588,2.9],[6.176099,53.495577,2.8],[6.17573,53.495586,3],[6.175646,53.495574,3.1],[6.175547,53.495543,3.3],[6.175346,53.495444,3.5],[6.174951,53.495314,3.5],[6.174827,53.495299,3.4],[6.174646,53.495302,3.2],[6.174581,53.495289,3.2],[6.174451,53.495285,3.1],[6.174262,53.49531,3],[6.174088,53.495317,2.9],[6.173962,53.495344,2.9],[6.17384,53.495356,2.8],[6.173343,53.495355,2.9],[6.17286,53.495399,3],[6.172729,53.495404,3],[6.172378,53.495437,3],[6.17232,53.495435,3],[6.172198,53.495446,3],[6.17215,53.495458,3],[6.172046,53.495469,3],[6.171952,53.495489,3.1],[6.17161,53.495473,3.1],[6.171556,53.495459,3.2],[6.171157,53.495294,3.2],[6.171052,53.495264,3.3],[6.170867,53.495195,3.3],[6.170812,53.495166,3.4],[6.17077,53.495158,3.4],[6.170576,53.49508,3.6],[6.17048,53.495065,3.7],[6.170407,53.495064,3.7],[6.170352,53.495055,3.8],[6.169972,53.495039,4],[6.169676,53.495043,4.5],[6.169571,53.495061,4.7],[6.169262,53.495143,4.9],[6.169198,53.495148,4.9],[6.168865,53.495212,4.5],[6.1688,53.495212,4.4],[6.168728,53.4952,4.3],[6.168444,53.495235,3.9],[6.168271,53.495239,3.8],[6.168203,53.495249,3.8],[6.167756,53.495356,4.3],[6.167689,53.495353,4.4],[6.167557,53.495368,4.6],[6.167144,53.495391,4.9],[6.167025,53.495388,4.9],[6.166625,53.495415,5.1],[6.166222,53.495458,5.3],[6.165981,53.495475,5.1],[6.165625,53.495521,4.7],[6.165486,53.495527,4.6],[6.165057,53.495579,4.5],[6.164846,53.49563,4.6],[6.164715,53.49564,4.9],[6.1646,53.495623,5.3],[6.164577,53.495599,5.4],[6.164458,53.495574,5.9],[6.164376,53.495569,6.2],[6.164319,53.495548,6.4],[6.16419,53.495552,6.9],[6.164022,53.495528,7.5],[6.16386,53.495477,7.9],[6.163664,53.495393,7.9],[6.163606,53.495387,7.8],[6.163494,53.495401,7.5],[6.16345,53.495375,7.4],[6.163418,53.495251,6.8],[6.163307,53.495127,6.2],[6.163068,53.49493,5.3],[6.162915,53.494731,4.8],[6.162829,53.494526,4.6],[6.162741,53.494237,4.9],[6.162693,53.49417,5],[6.162595,53.494074,5],[6.162337,53.493919,4.6],[6.162081,53.493805,4.4],[6.161842,53.493725,4.4],[6.161622,53.493638,4.2],[6.161418,53.493492,3.8],[6.161332,53.493467,3.7],[6.161228,53.493462,3.6],[6.161134,53.493471,3.6],[6.160956,53.493509,3.7],[6.160731,53.493526,3.8],[6.160591,53.493523,4],[6.160526,53.493538,4],[6.16036,53.493517,4.1],[6.160217,53.493444,4.1],[6.160132,53.493374,4.1],[6.160102,53.493338,4.1],[6.159817,53.493155,4.1],[6.159614,53.493037,4.1],[6.15953,53.492998,4.1],[6.159381,53.492951,4],[6.159095,53.492914,3.8],[6.158905,53.49285,3.6],[6.158612,53.492818,3.4],[6.158486,53.492796,3.3],[6.158145,53.492754,3.2],[6.15787,53.492734,3.2],[6.157738,53.492717,3.2],[6.157632,53.492693,3.2],[6.157314,53.492646,3.4],[6.157188,53.492605,3.4],[6.156923,53.49254,3.3],[6.156861,53.492518,3.2],[6.156532,53.492456,3.1],[6.15631,53.492439,3.2],[6.155876,53.492431,3.4],[6.155529,53.492449,3.3],[6.155466,53.492464,3.3],[6.155328,53.492471,3.3],[6.155256,53.492466,3.3],[6.155224,53.492478,3.3],[6.154894,53.492527,3.4],[6.154731,53.492526,3.5],[6.154619,53.492498,3.4],[6.154522,53.492446,3.3],[6.154351,53.492308,3.3],[6.15432,53.49227,3.3],[6.154272,53.492145,3.5],[6.15424,53.492105,3.5],[6.15415,53.492038,3.5],[6.154053,53.491995,3.5],[6.15334,53.491773,3.4],[6.153081,53.491714,3.6],[6.152992,53.49168,3.6],[6.152865,53.491646,3.6],[6.152728,53.491595,3.7],[6.152661,53.491553,3.8],[6.152601,53.491543,3.9],[6.152498,53.491502,4.2],[6.152412,53.491446,4.7],[6.152462,53.491451,4.9],[6.152397,53.491445,5.1],[6.152278,53.491386,5.7],[6.15226,53.491388,5.7],[6.152209,53.491367,6],[6.152088,53.491341,6.3],[6.151959,53.491344,6.6],[6.151903,53.491362,6.8],[6.151714,53.491385,7],[6.1517,53.491396,7.1],[6.151608,53.491388,7.1],[6.151549,53.491397,7],[6.15143,53.491372,6.8],[6.151327,53.491322,6.5],[6.151091,53.491171,5.7],[6.151016,53.491087,5.3],[6.150957,53.49093,4.7],[6.150912,53.490673,4.5],[6.150833,53.490565,4.8],[6.15065,53.490453,5.6],[6.150613,53.490422,5.9],[6.150598,53.490419,6],[6.150605,53.490415,6],[6.150584,53.490397,6.1],[6.150505,53.490375,6.5],[6.150392,53.490316,7],[6.15032,53.490315,7.1],[6.150287,53.490307,7.2],[6.150253,53.490283,7.3],[6.150171,53.490272,7.5],[6.150062,53.490271,7.8],[6.150051,53.490261,7.8],[6.150006,53.490261,7.8],[6.149976,53.490251,7.8],[6.149947,53.490254,7.8],[6.149925,53.490244,7.8],[6.149873,53.490239,7.8],[6.149822,53.490221,7.8],[6.149831,53.49022,7.8],[6.149722,53.490146,7.8],[6.149721,53.490118,7.8],[6.149728,53.490123,7.8],[6.149843,53.490102,7.8],[6.149797,53.490076,7.7],[6.14979,53.490089,7.7],[6.149839,53.49001,7.6],[6.150292,53.489794,6.8],[6.150394,53.489734,6.6],[6.150635,53.489614,6.1],[6.150896,53.489461,5.6],[6.151054,53.489387,5.3],[6.151369,53.48921,4.7],[6.151772,53.488959,4],[6.151925,53.488848,3.9],[6.152412,53.488541,3.6],[6.152485,53.488485,3.6],[6.152647,53.488393,3.6],[6.152712,53.488342,3.6],[6.152992,53.488177,3.6],[6.153209,53.488028,3.6],[6.153212,53.487973,3.6],[6.153179,53.487942,3.7],[6.15315,53.487941,3.7],[6.153023,53.487894,3.7],[6.152788,53.48779,3.6],[6.152682,53.487715,3.6],[6.152622,53.48769,3.6],[6.152576,53.487657,3.6],[6.152476,53.487614,3.6],[6.152441,53.487586,3.7],[6.15218,53.487448,3.7],[6.152063,53.487415,3.8],[6.151919,53.487399,3.8],[6.151636,53.487406,3.8],[6.15158,53.487399,3.8],[6.151049,53.487422,3.8],[6.15044,53.487478,3.9],[6.150128,53.487494,4],[6.149802,53.48749,4.4],[6.149642,53.487463,4.8],[6.149615,53.487449,4.9],[6.149574,53.48745,4.9],[6.149495,53.487435,5.1],[6.149178,53.487423,5.7],[6.149008,53.487401,5.9],[6.148873,53.487392,6],[6.148698,53.487354,6.2],[6.148648,53.487355,6.3],[6.14834,53.487285,6.9],[6.148129,53.48725,7.5],[6.147964,53.487248,7.9],[6.147832,53.487225,8.3],[6.147664,53.487178,8.8],[6.147478,53.487069,9.5],[6.147411,53.487004,9.8],[6.147389,53.486996,9.8],[6.14731,53.486923,10],[6.147056,53.48678,10.3],[6.146982,53.486763,10.3],[6.146933,53.486784,10.4],[6.146904,53.486786,10.4],[6.146764,53.486833,10.3],[6.146642,53.486774,10.2],[6.146557,53.486763,10.3],[6.146472,53.486794,10.4],[6.146328,53.48683,10.6],[6.146255,53.48684,10.6],[6.146211,53.486877,10.5],[6.146097,53.486903,10.1],[6.146086,53.486914,9.9]]}}]}