{"type":"FeatureCollection","features":[{"type":"Feature","properties":{"name":"De Gare du Nord au 211","type":"marche","time":"2026-01-22T17:42:00Z","coordTimes":["2026-01-22T17:42:00Z","2026-01-22T17:42:17Z","2026-01-22T17:42:22Z","2026-01-22T17:42:23Z","2026-01-22T17:42:25Z","2026-01-22T17:42:35Z","2026-01-22T17:42:37Z","2026-01-22T17:42:39Z","2026-01-22T17:42:46Z","2026-01-22T17:42:50Z","2026-01-22T17:42:56Z","2026-01-22T17:42:58Z","2026-01-22T17:43:00Z","2026-01-22T17:43:08Z","2026-01-22T17:43:11Z","2026-01-22T17:43:24Z","2026-01-22T17:43:25Z","2026-01-22T17:43:27Z","2026-01-22T17:43:28Z","2026-01-22T17:43:35Z","2026-01-22T17:43:39Z","2026-01-22T17:43:41Z","2026-01-22T17:43:47Z","2026-01-22T17:43:48Z","2026-01-22T17:43:49Z","2026-01-22T17:43:51Z","2026-01-22T17:43:54Z","2026-01-22T17:43:55Z","2026-01-22T17:44:17Z","2026-01-22T17:44:23Z","2026-01-22T17:44:28Z","2026-01-22T17:44:47Z","2026-01-22T17:44:49Z","2026-01-22T17:44:53Z","2026-01-22T17:44:54Z","2026-01-22T17:44:56Z","2026-01-22T17:44:57Z","2026-01-22T17:44:59Z","2026-01-22T17:45:00Z","2026-01-22T17:45:03Z","2026-01-22T17:45:04Z","2026-01-22T17:45:06Z","2026-01-22T17:45:11Z","2026-01-22T17:45:15Z","2026-01-22T17:45:16Z","2026-01-22T17:45:21Z","2026-01-22T17:45:24Z","2026-01-22T17:45:26Z","2026-01-22T17:45:32Z","2026-01-22T17:45:33Z","2026-01-22T17:45:35Z","2026-01-22T17:45:42Z","2026-01-22T17:45:44Z","2026-01-22T17:45:52Z","2026-01-22T17:45:53Z","2026-01-22T17:45:55Z","2026-01-22T17:45:58Z","2026-01-22T17:46:01Z","2026-01-22T17:46:02Z","2026-01-22T17:46:32Z","2026-01-22T17:46:34Z","2026-01-22T17:46:37Z","2026-01-22T17:46:39Z","2026-01-22T17:46:44Z","2026-01-22T17:46:46Z","2026-01-22T17:46:48Z","2026-01-22T17:46:53Z","2026-01-22T17:46:54Z","2026-01-22T17:46:56Z","2026-01-22T17:47:00Z","2026-01-22T17:47:06Z","2026-01-22T17:47:07Z","2026-01-22T17:47:17Z","2026-01-22T17:47:33Z","2026-01-22T17:47:37Z","2026-01-22T17:47:44Z","2026-01-22T17:47:46Z","2026-01-22T17:47:49Z","2026-01-22T17:47:59Z","2026-01-22T17:48:00Z","2026-01-22T17:48:04Z","2026-01-22T17:48:09Z","2026-01-22T17:48:11Z","2026-01-22T17:48:15Z","2026-01-22T17:48:17Z","2026-01-22T17:48:50Z","2026-01-22T17:48:53Z","2026-01-22T17:48:59Z","2026-01-22T17:49:03Z","2026-01-22T17:49:05Z","2026-01-22T17:49:10Z","2026-01-22T17:49:18Z","2026-01-22T17:49:20Z","2026-01-22T17:49:25Z","2026-01-22T17:49:32Z","2026-01-22T17:49:34Z","2026-01-22T17:49:40Z","2026-01-22T17:49:44Z","2026-01-22T17:49:46Z","2026-01-22T17:49:49Z","2026-01-22T17:49:57Z","2026-01-22T17:49:59Z","2026-01-22T17:50:13Z","2026-01-22T17:50:23Z","2026-01-22T17:50:25Z","2026-01-22T17:50:34Z","2026-01-22T17:50:39Z","2026-01-22T17:50:46Z","2026-01-22T17:50:49Z","2026-01-22T17:50:50Z","2026-01-22T17:50:56Z","2026-01-22T17:50:59Z","2026-01-22T17:51:06Z","2026-01-22T17:51:10Z","2026-01-22T17:51:14Z","2026-01-22T17:51:18Z","2026-01-22T17:51:21Z","2026-01-22T17:51:27Z","2026-01-22T17:51:29Z","2026-01-22T17:51:31Z","2026-01-22T17:51:33Z","2026-01-22T17:51:35Z","2026-01-22T17:51:38Z","2026-01-22T17:51:41Z","2026-01-22T17:51:51Z","2026-01-22T17:51:57Z","2026-01-22T17:52:00Z","2026-01-22T17:52:03Z","2026-01-22T17:52:04Z","2026-01-22T17:52:05Z","2026-01-22T17:52:06Z","2026-01-22T17:52:09Z","2026-01-22T17:52:11Z","2026-01-22T17:52:15Z","2026-01-22T17:52:17Z","2026-01-22T17:52:18Z","2026-01-22T17:52:19Z","2026-01-22T17:52:20Z","2026-01-22T17:52:22Z","2026-01-22T17:52:25Z","2026-01-22T17:52:30Z","2026-01-22T17:52:32Z","2026-01-22T17:52:35Z","2026-01-22T17:52:39Z","2026-01-22T17:52:40Z","2026-01-22T17:52:41Z","2026-01-22T17:52:47Z","2026-01-22T17:52:50Z","2026-01-22T17:52:51Z","2026-01-22T17:52:56Z","2026-01-22T17:53:03Z","2026-01-22T17:53:08Z","2026-01-22T17:53:10Z","2026-01-22T17:53:12Z","2026-01-22T17:53:15Z","2026-01-22T17:53:16Z","2026-01-22T17:53:19Z","2026-01-22T17:53:23Z","2026-01-22T17:53:25Z","2026-01-22T17:53:27Z","2026-01-22T17:53:29Z","2026-01-22T17:53:39Z","2026-01-22T17:53:41Z","2026-01-22T17:53:46Z","2026-01-22T17:53:49Z","2026-01-22T17:53:52Z","2026-01-22T17:53:55Z","2026-01-22T17:53:57Z","2026-01-22T17:54:10Z","2026-01-22T17:54:11Z","2026-01-22T17:54:12Z","2026-01-22T17:54:33Z","2026-01-22T17:54:38Z","2026-01-22T17:54:45Z","2026-01-22T17:54:47Z","2026-01-22T17:54:51Z","2026-01-22T17:54:54Z","2026-01-22T17:55:03Z","2026-01-22T17:55:09Z","2026-01-22T17:55:18Z","2026-01-22T17:55:21Z","2026-01-22T17:55:23Z","2026-01-22T17:55:26Z","2026-01-22T17:55:28Z","2026-01-22T17:55:30Z","2026-01-22T17:55:38Z","2026-01-22T17:55:39Z","2026-01-22T17:55:44Z","2026-01-22T17:55:45Z","2026-01-22T17:55:50Z","2026-01-22T17:55:54Z","2026-01-22T17:55:56Z","2026-01-22T17:56:03Z","2026-01-22T17:56:04Z","2026-01-22T17:56:05Z","2026-01-22T17:56:11Z","2026-01-22T17:56:18Z","2026-01-22T17:56:19Z","2026-01-22T17:56:21Z","2026-01-22T17:56:22Z","2026-01-22T17:56:23Z","2026-01-22T17:56:30Z","2026-01-22T17:56:33Z","2026-01-22T17:56:36Z","2026-01-22T17:56:38Z","2026-01-22T17:56:41Z","2026-01-22T17:56:44Z","2026-01-22T17:56:46Z","2026-01-22T17:56:52Z","2026-01-22T17:56:54Z","2026-01-22T17:56:56Z","2026-01-22T17:56:58Z","2026-01-22T17:57:01Z","2026-01-22T17:57:04Z","2026-01-22T17:57:06Z","2026-01-22T17:58:30Z","2026-01-22T17:58:35Z","2026-01-22T17:58:43Z","2026-01-22T17:58:48Z","2026-01-22T17:58:50Z","2026-01-22T17:58:54Z","2026-01-22T17:58:56Z","2026-01-22T17:59:01Z","2026-01-22T17:59:03Z","2026-01-22T17:59:06Z","2026-01-22T17:59:08Z","2026-01-22T18:00:22Z","2026-01-22T18:00:25Z","2026-01-22T18:00:29Z","2026-01-22T18:00:31Z","2026-01-22T18:00:33Z","2026-01-22T18:00:48Z","2026-01-22T18:00:55Z","2026-01-22T18:00:58Z","2026-01-22T18:01:05Z","2026-01-22T18:01:08Z","2026-01-22T18:01:13Z","2026-01-22T18:01:14Z","2026-01-22T18:01:30Z","2026-01-22T18:01:35Z","2026-01-22T18:01:37Z","2026-01-22T18:01:40Z","2026-01-22T18:01:45Z","2026-01-22T18:01:51Z","2026-01-22T18:02:03Z","2026-01-22T18:02:12Z","2026-01-22T18:02:18Z","2026-01-22T18:02:43Z","2026-01-22T18:02:49Z","2026-01-22T18:02:53Z","2026-01-22T18:03:03Z","2026-01-22T18:04:02Z","2026-01-22T18:04:12Z","2026-01-22T18:04:13Z","2026-01-22T18:04:14Z","2026-01-22T18:04:18Z","2026-01-22T18:04:22Z","2026-01-22T18:04:23Z","2026-01-22T18:04:30Z","2026-01-22T18:04:35Z","2026-01-22T18:04:38Z","2026-01-22T18:04:44Z","2026-01-22T18:04:51Z","2026-01-22T18:04:59Z","2026-01-22T18:05:02Z","2026-01-22T18:05:16Z","2026-01-22T18:05:55Z","2026-01-22T18:05:59Z","2026-01-22T18:06:07Z","2026-01-22T18:06:13Z","2026-01-22T18:06:22Z","2026-01-22T18:06:42Z","2026-01-22T18:06:46Z","2026-01-22T18:06:50Z","2026-01-22T18:07:05Z","2026-01-22T18:07:13Z","2026-01-22T18:07:15Z","2026-01-22T18:07:18Z","2026-01-22T18:07:19Z","2026-01-22T18:07:22Z","2026-01-22T18:08:17Z","2026-01-22T18:08:24Z","2026-01-22T18:08:33Z","2026-01-22T18:08:40Z","2026-01-22T18:08:43Z","2026-01-22T18:08:48Z","2026-01-22T18:09:00Z","2026-01-22T18:09:08Z","2026-01-22T18:09:13Z","2026-01-22T18:09:18Z","2026-01-22T18:09:31Z","2026-01-22T18:09:46Z","2026-01-22T18:09:50Z","2026-01-22T18:09:55Z","2026-01-22T18:09:57Z","2026-01-22T18:10:05Z","2026-01-22T18:10:06Z","2026-01-22T18:10:09Z","2026-01-22T18:10:16Z","2026-01-22T18:10:23Z","2026-01-22T18:10:24Z","2026-01-22T18:10:50Z","2026-01-22T18:10:55Z","2026-01-22T18:11:07Z","2026-01-22T18:11:17Z","2026-01-22T18:11:19Z","2026-01-22T18:11:26Z","2026-01-22T18:11:33Z","2026-01-22T18:11:47Z","2026-01-22T18:11:58Z","2026-01-22T18:12:02Z","2026-01-22T18:12:10Z","2026-01-22T18:12:12Z","2026-01-22T18:12:17Z","2026-01-22T18:12:25Z","2026-01-22T18:12:30Z","2026-01-22T18:12:37Z","2026-01-22T18:12:40Z","2026-01-22T18:12:45Z","2026-01-22T18:12:56Z","2026-01-22T18:12:58Z","2026-01-22T18:13:07Z","2026-01-22T18:13:11Z","2026-01-22T18:13:14Z","2026-01-22T18:13:20Z","2026-01-22T18:13:24Z","2026-01-22T18:13:31Z","2026-01-22T18:13:51Z","2026-01-22T18:13:58Z","2026-01-22T18:14:11Z","2026-01-22T18:14:28Z","2026-01-22T18:14:30Z","2026-01-22T18:14:36Z","2026-01-22T18:14:49Z","2026-01-22T18:14:51Z","2026-01-22T18:15:10Z","2026-01-22T18:15:25Z","2026-01-22T18:15:41Z","2026-01-22T18:15:42Z","2026-01-22T18:15:50Z","2026-01-22T18:15:56Z","2026-01-22T18:16:04Z","2026-01-22T18:16:07Z","2026-01-22T18:16:12Z","2026-01-22T18:16:18Z","2026-01-22T18:16:19Z","2026-01-22T18:16:21Z","2026-01-22T18:16:24Z","2026-01-22T18:16:29Z","2026-01-22T18:16:32Z","2026-01-22T18:16:58Z","2026-01-22T18:16:59Z","2026-01-22T18:17:01Z","2026-01-22T18:17:02Z","2026-01-22T18:17:03Z","2026-01-22T18:17:06Z","2026-01-22T18:17:10Z","2026-01-22T18:17:25Z","2026-01-22T18:17:26Z","2026-01-22T18:17:30Z","2026-01-22T18:17:39Z","2026-01-22T18:17:45Z","2026-01-22T18:17:48Z","2026-01-22T18:17:53Z","2026-01-22T18:17:56Z","2026-01-22T18:17:58Z","2026-01-22T18:18:01Z","2026-01-22T18:18:07Z","2026-01-22T18:18:11Z","2026-01-22T18:18:14Z","2026-01-22T18:18:22Z","2026-01-22T18:18:26Z","2026-01-22T18:18:27Z","2026-01-22T18:18:30Z","2026-01-22T18:18:32Z","2026-01-22T18:18:37Z","2026-01-22T18:18:40Z","2026-01-22T18:18:42Z","2026-01-22T18:18:44Z","2026-01-22T18:19:11Z","2026-01-22T18:19:18Z","2026-01-22T18:19:29Z","2026-01-22T18:19:34Z","2026-01-22T18:19:41Z","2026-01-22T18:19:47Z","2026-01-22T18:19:55Z","2026-01-22T18:20:13Z","2026-01-22T18:20:19Z","2026-01-22T18:20:27Z","2026-01-22T18:20:45Z","2026-01-22T18:20:50Z","2026-01-22T18:20:53Z","2026-01-22T18:21:03Z","2026-01-22T18:21:15Z","2026-01-22T18:21:27Z","2026-01-22T18:21:29Z","2026-01-22T18:21:40Z","2026-01-22T18:21:41Z","2026-01-22T18:21:47Z","2026-01-22T18:21:52Z","2026-01-22T18:21:54Z","2026-01-22T18:22:00Z","2026-01-22T18:22:05Z","2026-01-22T18:22:24Z","2026-01-22T18:22:26Z","2026-01-22T18:22:30Z","2026-01-22T18:22:32Z","2026-01-22T18:22:41Z","2026-01-22T18:22:43Z","2026-01-22T18:22:46Z","2026-01-22T18:22:58Z","2026-01-22T18:23:00Z","2026-01-22T18:23:02Z","2026-01-22T18:23:03Z","2026-01-22T18:23:05Z","2026-01-22T18:23:06Z","2026-01-22T18:23:11Z","2026-01-22T18:23:13Z","2026-01-22T18:23:18Z","2026-01-22T18:23:21Z","2026-01-22T18:23:22Z","2026-01-22T18:23:28Z","2026-01-22T18:23:33Z","2026-01-22T18:23:35Z","2026-01-22T18:23:41Z","2026-01-22T18:23:42Z","2026-01-22T18:23:45Z","2026-01-22T18:23:47Z","2026-01-22T18:23:48Z","2026-01-22T18:23:49Z","2026-01-22T18:23:50Z","2026-01-22T18:23:51Z","2026-01-22T18:23:54Z","2026-01-22T18:23:55Z","2026-01-22T18:23:57Z","2026-01-22T18:23:58Z","2026-01-22T18:24:00Z","2026-01-22T18:24:01Z","2026-01-22T18:24:02Z","2026-01-22T18:24:04Z","2026-01-22T18:24:05Z","2026-01-22T18:24:07Z","2026-01-22T18:24:08Z","2026-01-22T18:24:09Z","2026-01-22T18:24:12Z","2026-01-22T18:24:13Z","2026-01-22T18:24:14Z","2026-01-22T18:24:16Z","2026-01-22T18:24:25Z","2026-01-22T18:24:38Z","2026-01-22T18:24:43Z","2026-01-22T18:24:49Z","2026-01-22T18:24:51Z","2026-01-22T18:24:55Z","2026-01-22T18:24:57Z","2026-01-22T18:24:59Z","2026-01-22T18:25:02Z","2026-01-22T18:25:05Z","2026-01-22T18:25:07Z","2026-01-22T18:25:08Z","2026-01-22T18:25:13Z","2026-01-22T18:25:15Z","2026-01-22T18:25:17Z","2026-01-22T18:25:19Z","2026-01-22T18:25:23Z","2026-01-22T18:25:26Z","2026-01-22T18:25:28Z","2026-01-22T18:25:30Z","2026-01-22T18:25:32Z","2026-01-22T18:25:37Z","2026-01-22T18:25:38Z","2026-01-22T18:25:41Z","2026-01-22T18:25:42Z","2026-01-22T18:25:43Z","2026-01-22T18:25:47Z","2026-01-22T18:25:50Z","2026-01-22T18:25:52Z","2026-01-22T18:25:57Z","2026-01-22T18:25:59Z","2026-01-22T18:26:01Z","2026-01-22T18:26:03Z","2026-01-22T18:26:04Z","2026-01-22T18:26:12Z","2026-01-22T18:26:13Z","2026-01-22T18:26:16Z","2026-01-22T18:26:19Z","2026-01-22T18:26:23Z","2026-01-22T18:26:26Z","2026-01-22T18:26:28Z","2026-01-22T18:26:30Z","2026-01-22T18:26:36Z","2026-01-22T18:26:40Z","2026-01-22T18:26:43Z","2026-01-22T18:26:47Z","2026-01-22T18:26:59Z","2026-01-22T18:27:03Z","2026-01-22T18:27:05Z","2026-01-22T18:27:11Z","2026-01-22T18:27:20Z","2026-01-22T18:27:24Z","2026-01-22T18:27:26Z","2026-01-22T18:27:30Z","2026-01-22T18:27:35Z","2026-01-22T18:27:39Z","2026-01-22T18:27:45Z","2026-01-22T18:27:52Z","2026-01-22T18:27:53Z","2026-01-22T18:28:04Z","2026-01-22T18:28:05Z","2026-01-22T18:28:10Z","2026-01-22T18:28:13Z","2026-01-22T18:28:15Z","2026-01-22T18:28:18Z","2026-01-22T18:28:23Z","2026-01-22T18:28:27Z","2026-01-22T18:28:28Z","2026-01-22T18:28:39Z","2026-01-22T18:28:41Z","2026-01-22T18:28:54Z","2026-01-22T18:29:01Z","2026-01-22T18:29:08Z","2026-01-22T18:29:19Z","2026-01-22T18:29:24Z","2026-01-22T18:29:28Z","2026-01-22T18:29:30Z","2026-01-22T18:29:57Z","2026-01-22T18:29:59Z","2026-01-22T18:30:08Z","2026-01-22T18:30:11Z","2026-01-22T18:30:14Z","2026-01-22T18:30:17Z","2026-01-22T18:30:21Z","2026-01-22T18:30:26Z","2026-01-22T18:30:32Z","2026-01-22T18:30:35Z","2026-01-22T18:30:43Z","2026-01-22T18:30:44Z","2026-01-22T18:30:49Z","2026-01-22T18:30:51Z","2026-01-22T18:30:54Z","2026-01-22T18:30:56Z","2026-01-22T18:31:01Z","2026-01-22T18:31:10Z","2026-01-22T18:31:15Z","2026-01-22T18:31:21Z","2026-01-22T18:31:28Z","2026-01-22T18:31:35Z","2026-01-22T18:31:39Z","2026-01-22T18:31:42Z","2026-01-22T18:31:45Z","2026-01-22T18:31:48Z","2026-01-22T18:31:51Z","2026-01-22T18:32:00Z","2026-01-22T18:32:09Z","2026-01-22T18:32:11Z","2026-01-22T18:32:15Z","2026-01-22T18:32:17Z","2026-01-22T18:32:19Z","2026-01-22T18:32:20Z","2026-01-22T18:32:23Z","2026-01-22T18:32:34Z","2026-01-22T18:32:43Z","2026-01-22T18:32:46Z","2026-01-22T18:32:49Z"],"heartRates":[98,98,104,101,101,97,97,97,98,97,96,96,96,96,96,102,102,102,102,103,103,103,102,102,102,102,102,102,99,101,98,94,93,93,93,93,93,100,99,99,97,97,97,101,101,101,101,101,104,104,104,105,105,105,105,105,105,105,105,99,104,104,105,105,102,102,102,102,103,103,102,102,104,107,107,106,106,107,109,109,108,108,108,107,106,99,99,105,102,102,102,101,101,101,100,100,101,101,101,101,104,102,95,100,100,99,99,100,100,103,103,103,103,104,104,105,105,105,105,105,105,105,107,107,106,107,106,106,106,106,106,107,107,108,108,108,108,108,108,108,109,109,109,109,109,109,107,106,106,106,107,107,107,107,106,106,106,104,104,104,107,108,108,108,107,107,107,107,105,105,105,106,109,111,111,111,110,107,108,111,111,111,110,110,109,110,110,108,108,108,108,108,109,109,109,111,112,112,112,112,112,110,109,109,109,111,111,111,111,112,112,112,112,111,110,97,106,103,104,106,106,105,105,105,108,108,99,105,104,104,101,102,105,105,106,107,107,107,108,110,110,110,112,111,107,106,106,106,108,108,107,101,104,104,105,105,102,102,103,106,106,107,108,109,113,119,120,120,112,112,104,98,104,103,105,105,107,106,106,105,104,105,103,102,103,103,104,104,104,104,107,107,109,109,109,109,109,109,109,108,108,108,108,106,106,106,107,108,110,108,108,108,108,108,108,109,110,110,110,113,113,111,112,112,111,112,112,109,102,107,108,108,107,108,109,109,109,109,109,108,109,109,111,110,109,109,109,109,110,111,110,110,113,113,113,113,112,109,109,109,110,110,111,112,112,112,113,113,112,112,112,111,111,111,110,110,110,107,107,104,111,109,109,107,107,106,108,107,106,106,105,108,108,107,105,105,107,107,109,106,106,106,106,105,105,104,104,107,107,107,110,112,112,112,112,112,112,112,111,111,110,112,112,112,111,111,111,113,113,113,113,113,113,113,113,114,114,114,114,115,115,117,117,117,117,117,117,127,128,129,123,119,119,119,118,117,117,113,112,112,112,112,112,112,112,111,111,110,110,108,108,108,108,106,106,106,107,107,106,106,107,107,107,107,107,107,107,107,107,107,107,107,108,107,109,109,109,110,108,111,111,111,110,109,109,108,108,109,109,110,112,112,113,113,113,113,112,112,108,109,111,108,110,110,110,116,116,118,119,119,118,118,117,116,116,116,117,119,119,120,120,118,119,119,117,118,118,118,118,117,117,115,114,113,113,110,110,110,110,110,103,105,105,105],"month":"2026-01-01"},"geometry":{"type":"LineString","coordinates":[[2.35656,48.880067,61],[2.356536,48.880052,61],[2.356512,48.880064,60.9],[2.3565,48.880058,60.9],[2.356504,48.880023,60.8],[2.356468,48.879803,60.4],[2.356488,48.879818,60.4],[2.356527,48.879814,60.4],[2.356575,48.879793,60.4],[2.356598,48.879763,60.4],[2.356623,48.879757,60.4],[2.356624,48.879742,60.4],[2.35665,48.879745,60.5],[2.356721,48.879731,60.6],[2.356737,48.87972,60.6],[2.356932,48.879683,60.8],[2.356945,48.879693,60.9],[2.356969,48.879687,60.9],[2.356977,48.879696,60.9],[2.35707,48.879666,61],[2.357135,48.879674,61.1],[2.357126,48.879667,61.1],[2.357162,48.879668,61.1],[2.35717,48.879675,61.1],[2.357178,48.87967,61.1],[2.357166,48.879673,61.1],[2.357205,48.879644,61.1],[2.357206,48.879634,61.1],[2.357332,48.879581,61],[2.357375,48.879552,61],[2.357438,48.879549,60.9],[2.35748,48.879564,60.9],[2.357503,48.879549,60.8],[2.357561,48.879535,60.8],[2.357578,48.879523,60.8],[2.357612,48.87952,60.8],[2.357626,48.879531,60.8],[2.357656,48.879535,60.8],[2.357663,48.879526,60.8],[2.357706,48.879527,60.8],[2.357714,48.879537,60.8],[2.35776,48.879542,60.8],[2.357871,48.879582,60.7],[2.357942,48.879625,60.8],[2.357942,48.87964,60.8],[2.358004,48.879689,60.8],[2.358065,48.879714,60.8],[2.358094,48.879737,60.8],[2.358222,48.87979,60.8],[2.358237,48.879803,60.8],[2.358266,48.879808,60.8],[2.358366,48.879862,60.8],[2.358415,48.879868,60.8],[2.358522,48.879932,60.8],[2.358527,48.879949,60.8],[2.358554,48.879972,60.8],[2.358595,48.87998,60.8],[2.358616,48.879997,60.7],[2.358614,48.879988,60.7],[2.358762,48.879935,60.6],[2.358823,48.879921,60.6],[2.35889,48.879925,60.5],[2.358936,48.879945,60.5],[2.359036,48.879953,60.4],[2.359069,48.879965,60.3],[2.359088,48.879982,60.3],[2.359185,48.879998,60.2],[2.359207,48.880008,60.2],[2.359259,48.880014,60.2],[2.359331,48.880039,60.1],[2.359414,48.880082,60],[2.359437,48.880082,60],[2.359627,48.880135,59.8],[2.359899,48.880258,59.7],[2.359971,48.880276,59.6],[2.360128,48.880276,59.6],[2.360171,48.880289,59.6],[2.360229,48.88032,59.6],[2.360428,48.880369,59.5],[2.360461,48.880359,59.5],[2.360531,48.88036,59.5],[2.360619,48.88038,59.4],[2.360649,48.880404,59.4],[2.360708,48.880413,59.4],[2.360683,48.880429,59.4],[2.360843,48.880376,59.3],[2.360905,48.88039,59.3],[2.360999,48.880435,59.2],[2.361079,48.880455,59.2],[2.361115,48.880451,59.1],[2.361194,48.880457,59.1],[2.361341,48.8805,59],[2.361382,48.880502,59],[2.361475,48.88054,58.9],[2.361591,48.880572,58.8],[2.361617,48.880586,58.7],[2.361716,48.880608,58.7],[2.361772,48.880631,58.6],[2.361807,48.880629,58.6],[2.361855,48.880637,58.5],[2.361945,48.880676,58.4],[2.361948,48.880653,58.3],[2.362112,48.880674,58],[2.362238,48.880744,57.9],[2.362281,48.880782,57.8],[2.362363,48.880827,57.7],[2.362461,48.880845,57.7],[2.362575,48.880834,57.7],[2.362635,48.880849,57.7],[2.36266,48.880843,57.7],[2.362782,48.880881,57.6],[2.362825,48.88093,57.6],[2.362933,48.880977,57.6],[2.363022,48.88099,57.6],[2.363056,48.881023,57.6],[2.363146,48.881034,57.6],[2.363177,48.881047,57.6],[2.363288,48.88106,57.5],[2.363335,48.881075,57.5],[2.363361,48.881103,57.5],[2.363395,48.881106,57.5],[2.363413,48.881118,57.5],[2.36348,48.881129,57.4],[2.363521,48.88117,57.4],[2.363686,48.881239,57.3],[2.363813,48.881256,57.2],[2.363864,48.881273,57.1],[2.36394,48.881259,57.1],[2.363952,48.881266,57.1],[2.363977,48.881266,57.1],[2.363997,48.881275,57.1],[2.364062,48.881279,57],[2.364098,48.881297,57],[2.364187,48.881307,57],[2.364229,48.881323,57],[2.364272,48.881327,57],[2.364279,48.881322,57],[2.364294,48.881328,57],[2.364321,48.881313,57],[2.364388,48.881323,56.9],[2.364464,48.881353,56.9],[2.364487,48.881372,56.9],[2.364545,48.881388,56.9],[2.364612,48.881422,56.8],[2.364608,48.881428,56.7],[2.364622,48.881424,56.7],[2.364708,48.881432,56.6],[2.364762,48.881416,56.5],[2.364781,48.881417,56.5],[2.364883,48.88146,56.4],[2.36499,48.881481,56.3],[2.365067,48.881517,56.3],[2.365099,48.881523,56.3],[2.365127,48.881544,56.2],[2.365176,48.88156,56.2],[2.365235,48.881556,56.2],[2.365276,48.881562,56.2],[2.365297,48.881598,56.2],[2.365357,48.881609,56.1],[2.36541,48.881628,56.1],[2.365443,48.881627,56.1],[2.365671,48.881672,56.1],[2.365708,48.881669,56.1],[2.365789,48.881686,56.1],[2.365838,48.881713,56.1],[2.365867,48.881742,56.1],[2.365871,48.881767,56.1],[2.365886,48.881762,56.1],[2.36603,48.881819,56.1],[2.366043,48.881815,56.1],[2.366036,48.881809,56.1],[2.366225,48.881835,56],[2.366306,48.881825,56],[2.366428,48.881841,56],[2.366464,48.881859,56],[2.366524,48.88187,56],[2.36656,48.881895,56],[2.366706,48.881953,56.1],[2.366835,48.881967,56.1],[2.366999,48.881999,56.2],[2.367027,48.882024,56.2],[2.367059,48.882032,56.2],[2.367103,48.882072,56.2],[2.367144,48.882082,56.2],[2.367182,48.882111,56.2],[2.36733,48.882141,56.2],[2.367339,48.882152,56.2],[2.367412,48.882184,56.2],[2.367435,48.882186,56.2],[2.367514,48.882229,56.2],[2.36758,48.882248,56.3],[2.367616,48.88224,56.3],[2.367763,48.882266,56.3],[2.367765,48.882273,56.3],[2.367794,48.882271,56.3],[2.367878,48.882291,56.3],[2.368032,48.882303,56.3],[2.368046,48.882321,56.3],[2.368078,48.882334,56.3],[2.3681,48.882334,56.3],[2.368117,48.882345,56.3],[2.368241,48.882375,56.4],[2.368275,48.8824,56.4],[2.368329,48.882403,56.4],[2.368359,48.88242,56.4],[2.3684,48.88242,56.4],[2.368446,48.882444,56.4],[2.368495,48.882447,56.4],[2.368587,48.882497,56.5],[2.368632,48.882505,56.5],[2.368673,48.882533,56.5],[2.36871,48.882547,56.5],[2.36876,48.882544,56.4],[2.368801,48.882552,56.4],[2.368805,48.88257,56.4],[2.369004,48.882571,56.3],[2.369071,48.882603,56.3],[2.369192,48.88263,56.2],[2.369258,48.882636,56.2],[2.369276,48.882652,56.2],[2.36935,48.882661,56.2],[2.369376,48.882681,56.2],[2.369457,48.882706,56.3],[2.369486,48.882699,56.3],[2.369507,48.882728,56.3],[2.36952,48.882716,56.3],[2.369635,48.882736,56.4],[2.369632,48.882762,56.5],[2.369651,48.882779,56.5],[2.369641,48.882776,56.5],[2.369652,48.882769,56.5],[2.369741,48.882776,56.5],[2.369833,48.882821,56.5],[2.369898,48.882837,56.5],[2.370039,48.88293,56.5],[2.370107,48.882961,56.3],[2.370191,48.88302,56.2],[2.370192,48.883046,56.2],[2.370085,48.883236,56],[2.37011,48.883298,55.9],[2.370105,48.883322,55.9],[2.370074,48.883359,55.8],[2.370066,48.88342,55.8],[2.370109,48.8835,55.7],[2.370226,48.883629,55.7],[2.370341,48.88371,55.8],[2.37039,48.88378,55.9],[2.370774,48.883986,56],[2.370872,48.884027,56.1],[2.370927,48.884059,56.1],[2.371068,48.884101,56],[2.370996,48.884056,55.6],[2.370915,48.884029,55.5],[2.370906,48.884007,55.5],[2.370888,48.883994,55.5],[2.370816,48.883976,55.4],[2.370749,48.883945,55.4],[2.370733,48.88393,55.3],[2.370632,48.883879,55.2],[2.370578,48.883838,55.1],[2.370569,48.883811,55],[2.370653,48.883766,54.9],[2.370713,48.883758,54.9],[2.370798,48.883731,54.8],[2.370809,48.883705,55.1],[2.370925,48.883622,56.1],[2.371016,48.883597,56.1],[2.371052,48.883594,56.1],[2.371106,48.883606,56],[2.371124,48.883628,56],[2.371146,48.88373,55.9],[2.371249,48.883831,55.9],[2.371282,48.883875,55.8],[2.371327,48.883908,55.8],[2.371545,48.884018,55.8],[2.371665,48.884064,55.8],[2.371677,48.884082,55.8],[2.371665,48.884112,55.8],[2.371654,48.884117,55.8],[2.371653,48.884112,55.8],[2.371708,48.884126,55.8],[2.3718,48.884173,55.8],[2.371943,48.884227,55.7],[2.372031,48.884285,55.7],[2.372087,48.884295,55.7],[2.372163,48.884331,55.7],[2.372327,48.88443,55.7],[2.37245,48.884479,55.7],[2.37252,48.88452,55.7],[2.372599,48.884551,55.7],[2.372773,48.884653,55.7],[2.373015,48.884757,55.6],[2.373073,48.884793,55.6],[2.373149,48.884814,55.6],[2.373176,48.884833,55.6],[2.373295,48.884879,55.6],[2.373305,48.884896,55.6],[2.373344,48.884923,55.6],[2.373462,48.884965,55.6],[2.373555,48.885022,55.6],[2.373572,48.885025,55.6],[2.373949,48.885228,55.6],[2.374032,48.885258,55.6],[2.374197,48.885352,55.7],[2.374341,48.88542,55.7],[2.374363,48.885437,55.7],[2.374468,48.885485,55.7],[2.374564,48.885547,55.7],[2.374772,48.885638,55.6],[2.374936,48.885733,55.6],[2.374997,48.885754,55.6],[2.375108,48.885812,55.6],[2.375147,48.885824,55.6],[2.375212,48.885881,55.6],[2.375334,48.885938,55.6],[2.375425,48.885958,55.6],[2.375539,48.886021,55.6],[2.375586,48.886036,55.6],[2.37567,48.886088,55.6],[2.375842,48.886166,55.6],[2.375871,48.886193,55.6],[2.376008,48.886265,55.6],[2.376068,48.886285,55.6],[2.376104,48.886316,55.6],[2.376194,48.886361,55.6],[2.376255,48.886376,55.6],[2.376365,48.886421,55.6],[2.376655,48.88658,55.6],[2.37676,48.886628,55.6],[2.376954,48.886741,55.6],[2.377189,48.886852,55.6],[2.377207,48.886868,55.6],[2.377299,48.886904,55.6],[2.377484,48.887004,55.6],[2.377517,48.887014,55.6],[2.377792,48.887154,55.6],[2.377997,48.887269,55.6],[2.378227,48.887366,55.6],[2.378245,48.887367,55.6],[2.378342,48.887439,55.6],[2.378443,48.887477,55.6],[2.37855,48.887537,55.6],[2.378594,48.887572,55.6],[2.378683,48.8876,55.6],[2.378792,48.887648,55.7],[2.378815,48.887647,55.7],[2.378852,48.887631,55.7],[2.3789,48.88759,55.7],[2.379014,48.887566,55.7],[2.379046,48.88758,55.7],[2.378998,48.887677,55.8],[2.379018,48.887686,55.8],[2.379052,48.887679,55.8],[2.379068,48.887684,55.9],[2.379085,48.887679,55.9],[2.379138,48.887687,55.9],[2.379194,48.887683,55.9],[2.379401,48.887813,56.1],[2.379421,48.887818,56.1],[2.37948,48.887874,56.1],[2.379608,48.887933,56.3],[2.379704,48.887955,56.3],[2.379723,48.887981,56.4],[2.379703,48.888016,56.4],[2.379677,48.888025,56.4],[2.37966,48.888048,56.5],[2.379624,48.888064,56.5],[2.379547,48.888133,56.6],[2.379516,48.888174,56.6],[2.379476,48.888199,56.6],[2.379561,48.888288,56.6],[2.379656,48.888305,56.7],[2.379676,48.888302,56.7],[2.379691,48.888342,56.7],[2.379714,48.888364,56.7],[2.379804,48.888383,56.7],[2.379835,48.888409,56.7],[2.379825,48.888415,56.7],[2.379849,48.888428,56.7],[2.379995,48.888457,56.6],[2.380124,48.888502,56.6],[2.380278,48.888604,56.5],[2.380352,48.88864,56.5],[2.380446,48.8887,56.4],[2.380544,48.888734,56.4],[2.380654,48.888796,56.3],[2.380933,48.888922,56.3],[2.38101,48.88897,56.3],[2.381142,48.889015,56.2],[2.381399,48.889154,56.1],[2.381459,48.889198,56.1],[2.381517,48.889213,56.1],[2.381656,48.889293,56],[2.381841,48.889371,55.9],[2.382011,48.889464,55.8],[2.382045,48.889473,55.8],[2.382203,48.889562,55.7],[2.38222,48.889557,55.7],[2.382293,48.889614,55.7],[2.382368,48.889652,55.7],[2.382393,48.889675,55.7],[2.382484,48.889713,55.6],[2.38255,48.889759,55.6],[2.382828,48.889879,55.5],[2.382859,48.889881,55.5],[2.382913,48.889851,55.5],[2.382941,48.889848,55.5],[2.383014,48.88988,55.5],[2.383014,48.889871,55.5],[2.383039,48.889883,55.5],[2.383117,48.88999,55.6],[2.383179,48.889981,55.6],[2.383206,48.89,55.6],[2.383244,48.889985,55.6],[2.383284,48.88999,55.6],[2.383305,48.889985,55.4],[2.383379,48.890005,55.3],[2.383403,48.890032,55.5],[2.38349,48.890051,55.5],[2.383544,48.890041,55.6],[2.383546,48.890014,55.7],[2.383579,48.889952,56],[2.383574,48.889878,56.2],[2.383605,48.889854,56.4],[2.383627,48.889779,56.7],[2.383649,48.889769,56.7],[2.383658,48.889735,56.9],[2.383644,48.889736,56.9],[2.38364,48.889719,57],[2.383615,48.889723,57],[2.383617,48.88973,57.1],[2.383627,48.889729,57.1],[2.383621,48.88971,57.2],[2.383599,48.889714,57.2],[2.383651,48.889704,57.4],[2.383661,48.889687,57.4],[2.383639,48.889691,57.5],[2.383646,48.88969,57.5],[2.383639,48.889694,57.5],[2.383669,48.889681,57.6],[2.383678,48.889659,57.7],[2.383687,48.889683,57.8],[2.38369,48.889677,57.9],[2.383686,48.889684,57.9],[2.383703,48.889684,58],[2.383685,48.88968,58],[2.383705,48.88968,58.1],[2.383696,48.889693,58.1],[2.383713,48.889693,58.2],[2.383777,48.889659,58.4],[2.383763,48.88962,58.6],[2.383773,48.88957,58.9],[2.383796,48.889561,58.8],[2.383824,48.889584,58.8],[2.383852,48.889586,58.8],[2.383874,48.889579,58.7],[2.383919,48.889583,58.7],[2.383965,48.889598,58.5],[2.383995,48.88958,58.4],[2.384012,48.889586,58.4],[2.384064,48.889573,58.3],[2.384092,48.889576,58.3],[2.384133,48.889595,58.2],[2.384176,48.889632,58.1],[2.38425,48.889667,58],[2.384255,48.889696,57.9],[2.384281,48.889717,57.9],[2.384283,48.889729,57.8],[2.384325,48.889766,57.7],[2.384333,48.889803,57.7],[2.384325,48.88981,57.6],[2.384349,48.889839,57.6],[2.384379,48.88984,57.5],[2.3844,48.889849,57.5],[2.384514,48.889865,57.4],[2.384596,48.889855,57.3],[2.384625,48.88986,57.2],[2.384688,48.889893,57.1],[2.384704,48.889921,57],[2.3847,48.889942,57],[2.384767,48.889914,56.9],[2.384785,48.889915,56.8],[2.384882,48.890045,56.5],[2.384904,48.890053,56.5],[2.384939,48.890088,56.4],[2.385,48.890124,56.3],[2.385038,48.890168,56.3],[2.385028,48.890211,56.3],[2.385007,48.89023,56.3],[2.385014,48.890256,56.3],[2.384963,48.890322,56.3],[2.384939,48.890379,56.2],[2.384934,48.890421,56.2],[2.384955,48.890479,56.1],[2.384921,48.890627,55.9],[2.38494,48.890675,55.8],[2.384934,48.890702,55.8],[2.38496,48.890759,55.6],[2.385064,48.890833,55.6],[2.385124,48.890857,55.6],[2.385173,48.890866,55.6],[2.385204,48.890894,55.6],[2.3853,48.890935,55.6],[2.385345,48.890968,55.6],[2.385381,48.891036,55.7],[2.385407,48.891133,55.7],[2.385425,48.891151,55.7],[2.385579,48.891226,55.8],[2.3856,48.891229,55.8],[2.385686,48.891276,55.8],[2.385719,48.891308,55.8],[2.385751,48.891319,55.9],[2.385792,48.891348,55.9],[2.385865,48.891379,55.9],[2.385915,48.891419,56],[2.385934,48.891421,56],[2.386108,48.891502,56.2],[2.386133,48.891522,56.2],[2.386348,48.891611,56.4],[2.386478,48.891624,56.4],[2.386579,48.891665,56.4],[2.386723,48.891759,56.4],[2.386805,48.89179,56.3],[2.386856,48.891836,56.2],[2.386892,48.891845,56.2],[2.386954,48.891885,56.1],[2.386943,48.891869,56],[2.386883,48.891843,55.9],[2.386841,48.891863,55.9],[2.386815,48.891891,55.8],[2.386834,48.891933,55.7],[2.386894,48.891954,55.7],[2.386958,48.891991,55.6],[2.386979,48.892016,55.5],[2.387125,48.892016,55.3],[2.387263,48.892029,55.3],[2.387278,48.892036,55.3],[2.387355,48.892041,55.3],[2.387375,48.89205,55.3],[2.387404,48.89205,55.3],[2.38743,48.892088,55.2],[2.387522,48.892096,55.2],[2.387673,48.892153,55.1],[2.387767,48.892178,55.1],[2.387881,48.892196,55.1],[2.387988,48.892222,55],[2.388101,48.892237,55],[2.388129,48.89225,55],[2.388128,48.892269,55],[2.388117,48.892262,55],[2.388111,48.892269,55],[2.388111,48.892254,55],[2.388094,48.892251,55],[2.388108,48.892261,54.9],[2.388109,48.892254,54.9],[2.388098,48.89226,54.9],[2.388107,48.892274,54.9],[2.388093,48.892266,54.9],[2.388092,48.892274,54.9],[2.388094,48.892264,54.9],[2.388141,48.892235,54.9],[2.388129,48.892233,54.9],[2.388141,48.89223,54.9],[2.388133,48.892235,54.9]]}}]}