{"type":"FeatureCollection","features":[{"type":"Feature","properties":{"name":"unnamed","time":"2008-09-03T22:39:12Z","coordTimes":["2008-09-03T22:39:12Z","2008-09-03T22:39:47Z","2008-09-03T22:41:22Z","2008-09-03T22:41:50Z","2008-09-03T22:43:26Z","2008-09-03T22:48:05Z","2008-09-03T22:48:18Z","2008-09-03T22:48:38Z","2008-09-03T22:48:58Z","2008-09-03T22:49:15Z"],"type":"marche","month":"2008-09-01"},"geometry":{"type":"LineString","coordinates":[[-70.820466,47.007886,96.75],[-70.820482,47.008015,96.27],[-70.820507,47.00798,95.79],[-70.820525,47.007984,95.79],[-70.820492,47.00797,95.79],[-70.820565,47.007949,83.29],[-70.820552,47.007933,79.93],[-70.820532,47.007849,77.04],[-70.820403,47.007632,77.04],[-70.820242,47.007472,77.04]]}}]}