{"type":"FeatureCollection","features":[{"type":"Feature","properties":{"name":"Costa Rica - Bateau jusqu'à Isla del Caño","type":"bateau","time":"2026-08-26T16:05:04Z","coordTimes":["2026-08-26T16:05:04Z","2026-08-26T16:05:13Z","2026-08-26T16:05:28Z","2026-08-26T16:05:36Z","2026-08-26T16:05:43Z","2026-08-26T16:05:45Z","2026-08-26T16:05:52Z","2026-08-26T16:05:56Z","2026-08-26T16:06:01Z","2026-08-26T16:06:11Z","2026-08-26T16:06:15Z","2026-08-26T16:06:21Z","2026-08-26T16:06:36Z","2026-08-26T16:06:44Z","2026-08-26T16:06:50Z","2026-08-26T16:07:02Z","2026-08-26T16:07:03Z","2026-08-26T16:07:07Z","2026-08-26T16:07:12Z","2026-08-26T16:07:16Z","2026-08-26T16:07:20Z","2026-08-26T16:07:29Z","2026-08-26T16:07:41Z","2026-08-26T16:07:43Z","2026-08-26T16:07:45Z","2026-08-26T16:07:50Z","2026-08-26T16:07:55Z","2026-08-26T16:07:58Z","2026-08-26T16:08:04Z","2026-08-26T16:08:10Z","2026-08-26T16:08:17Z","2026-08-26T16:08:25Z","2026-08-26T16:08:26Z","2026-08-26T16:08:34Z","2026-08-26T16:08:39Z","2026-08-26T16:08:49Z","2026-08-26T16:08:51Z","2026-08-26T16:08:55Z","2026-08-26T16:08:57Z","2026-08-26T16:09:02Z","2026-08-26T16:09:04Z","2026-08-26T16:09:06Z","2026-08-26T16:09:09Z","2026-08-26T16:09:11Z","2026-08-26T16:09:17Z","2026-08-26T16:09:20Z","2026-08-26T16:09:23Z","2026-08-26T16:09:25Z","2026-08-26T16:09:28Z","2026-08-26T16:09:30Z","2026-08-26T16:09:33Z","2026-08-26T16:09:38Z","2026-08-26T16:09:45Z","2026-08-26T16:09:49Z","2026-08-26T16:09:53Z","2026-08-26T16:09:58Z","2026-08-26T16:10:03Z","2026-08-26T16:10:06Z","2026-08-26T16:10:09Z","2026-08-26T16:10:15Z","2026-08-26T16:10:22Z","2026-08-26T16:10:26Z","2026-08-26T16:10:31Z","2026-08-26T16:10:33Z","2026-08-26T16:10:42Z","2026-08-26T16:10:49Z","2026-08-26T16:11:00Z","2026-08-26T16:11:04Z","2026-08-26T16:11:12Z","2026-08-26T16:11:14Z","2026-08-26T16:11:20Z","2026-08-26T16:11:23Z","2026-08-26T16:11:40Z","2026-08-26T16:11:42Z","2026-08-26T16:11:46Z","2026-08-26T16:11:53Z","2026-08-26T16:11:59Z","2026-08-26T16:12:08Z","2026-08-26T16:12:11Z","2026-08-26T16:12:17Z","2026-08-26T16:12:20Z","2026-08-26T16:12:25Z","2026-08-26T16:12:31Z","2026-08-26T16:12:33Z","2026-08-26T16:12:37Z","2026-08-26T16:12:40Z","2026-08-26T16:12:49Z","2026-08-26T16:12:55Z","2026-08-26T16:13:02Z","2026-08-26T16:13:07Z","2026-08-26T16:13:10Z","2026-08-26T16:13:13Z","2026-08-26T16:13:18Z","2026-08-26T16:13:28Z","2026-08-26T16:13:33Z","2026-08-26T16:13:36Z","2026-08-26T16:13:40Z","2026-08-26T16:13:46Z","2026-08-26T16:13:52Z","2026-08-26T16:13:57Z","2026-08-26T16:14:08Z","2026-08-26T16:14:12Z","2026-08-26T16:14:24Z","2026-08-26T16:14:31Z","2026-08-26T16:14:37Z","2026-08-26T16:14:40Z","2026-08-26T16:14:46Z","2026-08-26T16:14:51Z","2026-08-26T16:14:53Z","2026-08-26T16:14:58Z","2026-08-26T16:15:00Z","2026-08-26T16:15:09Z","2026-08-26T16:15:14Z","2026-08-26T16:15:17Z","2026-08-26T16:15:20Z","2026-08-26T16:15:26Z","2026-08-26T16:15:30Z","2026-08-26T16:15:38Z","2026-08-26T16:15:41Z","2026-08-26T16:15:45Z","2026-08-26T16:15:46Z","2026-08-26T16:15:54Z","2026-08-26T16:16:04Z","2026-08-26T16:16:13Z","2026-08-26T16:16:15Z","2026-08-26T16:16:19Z","2026-08-26T16:16:26Z","2026-08-26T16:16:27Z","2026-08-26T16:16:35Z","2026-08-26T16:16:38Z","2026-08-26T16:16:41Z","2026-08-26T16:16:46Z","2026-08-26T16:16:53Z","2026-08-26T16:17:18Z","2026-08-26T16:17:41Z","2026-08-26T16:18:04Z","2026-08-26T16:18:07Z","2026-08-26T16:18:22Z"],"heartRates":[89,91,93,91,91,91,95,95,95,95,95,96,90,90,93,96,96,96,96,96,96,95,95,95,95,97,97,96,93,93,92,92,92,94,94,94,95,95,95,98,98,98,98,98,97,97,95,95,93,93,94,94,90,92,92,89,88,88,89,89,88,88,87,88,88,87,88,87,87,89,86,87,88,88,88,87,87,87,87,88,88,88,88,89,90,90,91,90,90,88,88,88,88,88,89,89,90,89,90,90,89,91,95,92,97,97,100,97,99,101,101,104,104,104,104,103,103,100,98,98,98,98,95,101,101,108,107,107,104,102,100,98,97,95,95,93,93,94],"month":"2026-08-01"},"geometry":{"type":"LineString","coordinates":[[-83.871823,8.716089,15.1],[-83.871805,8.7162,14.5],[-83.871812,8.716446,13.6],[-83.871853,8.716585,12.9],[-83.871913,8.716691,12.6],[-83.871936,8.716719,12.4],[-83.872039,8.716807,12.1],[-83.872075,8.71686,11.9],[-83.872152,8.716912,11.7],[-83.872305,8.716976,11.4],[-83.872371,8.716992,11.3],[-83.872464,8.717034,11.1],[-83.872685,8.717112,10.7],[-83.872812,8.717192,10.3],[-83.87288,8.717266,10],[-83.87306,8.717332,9.7],[-83.873067,8.717348,9.6],[-83.873131,8.717388,9.4],[-83.873209,8.717419,9.3],[-83.873233,8.717486,9],[-83.873287,8.717527,8.8],[-83.873353,8.717646,8.4],[-83.87349,8.717774,7.8],[-83.873519,8.717789,7.8],[-83.873533,8.71782,7.7],[-83.873613,8.717876,7.5],[-83.873663,8.717938,7.2],[-83.873708,8.717958,7.1],[-83.873763,8.718046,6.8],[-83.873821,8.718094,6.7],[-83.873893,8.71817,6.4],[-83.873952,8.718281,6],[-83.873967,8.71829,5.9],[-83.874034,8.718404,5.5],[-83.874094,8.718463,5.4],[-83.87427,8.718612,4.9],[-83.874304,8.718655,4.8],[-83.874389,8.718727,4.5],[-83.874445,8.718753,4.4],[-83.874581,8.71885,4.1],[-83.874653,8.718889,3.9],[-83.874711,8.718937,3.8],[-83.874804,8.718986,3.7],[-83.874864,8.719029,3.6],[-83.875077,8.719141,3.2],[-83.875185,8.71917,3],[-83.875283,8.719211,2.9],[-83.87536,8.719229,2.8],[-83.875464,8.719276,2.7],[-83.875547,8.719292,2.6],[-83.875667,8.719329,2.5],[-83.875859,8.719376,2.3],[-83.876172,8.719388,2.1],[-83.876345,8.719406,2],[-83.876531,8.719416,1.9],[-83.876758,8.719413,1.8],[-83.87698,8.719419,1.6],[-83.877107,8.719411,1.6],[-83.877229,8.719393,1.5],[-83.877473,8.719335,1.5],[-83.877766,8.719278,1.4],[-83.877944,8.719222,1.3],[-83.878177,8.719121,1.3],[-83.878277,8.719069,1.3],[-83.878777,8.718875,1.1],[-83.879177,8.718692,0.9],[-83.879795,8.718359,0.6],[-83.880014,8.71823,0.6],[-83.880445,8.717945,0.3],[-83.880556,8.71788,0.2],[-83.880874,8.71767,-0.3],[-83.88103,8.717545,-0.3],[-83.88195,8.716896,-0.8],[-83.882053,8.716812,-0.8],[-83.882247,8.716634,-0.8],[-83.882604,8.71635,-0.8],[-83.882902,8.71608,-0.7],[-83.883397,8.715724,-0.4],[-83.883563,8.715612,-0.3],[-83.883875,8.71538,0],[-83.884028,8.715253,0.2],[-83.884251,8.715035,0.6],[-83.88453,8.714799,1.1],[-83.884626,8.714732,1.3],[-83.884809,8.714558,1.8],[-83.884941,8.714397,2.3],[-83.885294,8.713924,4.1],[-83.88551,8.713595,5.7],[-83.885675,8.713239,7.6],[-83.885781,8.71297,9.3],[-83.885855,8.712807,10.1],[-83.885914,8.712655,-19.2],[-83.885979,8.712442,-96],[-83.886103,8.712127,-250.5],[-83.886141,8.711986,-2.8],[-83.886147,8.711899,-1.6],[-83.886171,8.711768,-0.2],[-83.886215,8.711598,1.8],[-83.886248,8.711421,3.8],[-83.88625,8.711261,7.2],[-83.886216,8.710953,11.5],[-83.886248,8.710889,12.4],[-83.886336,8.710841,12.4],[-83.886322,8.710845,12.7],[-83.886278,8.71081,13],[-83.886267,8.710785,13.5],[-83.886244,8.710774,13.5],[-83.88625,8.710789,13.5],[-83.886258,8.710782,13.5],[-83.886259,8.710799,13.5],[-83.886269,8.710789,13.5],[-83.886293,8.710836,12.7],[-83.886313,8.710835,12.7],[-83.886306,8.710837,12.7],[-83.886297,8.710826,12.7],[-83.886274,8.71075,14.1],[-83.886256,8.710742,14.1],[-83.886222,8.710695,15.2],[-83.886228,8.710712,15.2],[-83.88622,8.710707,15.2],[-83.886219,8.710715,15.2],[-83.886226,8.710717,15.2],[-83.88623,8.7107,15.2],[-83.886215,8.710635,17.6],[-83.8862,8.710628,17.6],[-83.88619,8.710604,17.9],[-83.886173,8.710586,19.1],[-83.88618,8.710579,19.1],[-83.886164,8.710514,20.3],[-83.886157,8.710524,20.3],[-83.886155,8.710513,20.3],[-83.886171,8.710504,21.5],[-83.886163,8.710538,20.3],[-83.886153,8.710534,20.3],[-83.886155,8.710522,20.3],[-83.886143,8.710527,20.6],[-83.886147,8.710524,20.6],[-83.886144,8.71053,20.6]]}}]}