{"type":"FeatureCollection","features":[{"type":"Feature","properties":{"name":"Costa Rica - Découverte de la faune nocturne à Layo’s Trail","type":"marche","time":"2026-08-17T23:47:16Z","coordTimes":["2026-08-17T23:47:16Z","2026-08-17T23:49:10Z","2026-08-17T23:50:44Z","2026-08-17T23:51:44Z","2026-08-17T23:52:05Z","2026-08-17T23:52:06Z","2026-08-17T23:52:08Z","2026-08-17T23:52:09Z","2026-08-17T23:52:11Z","2026-08-17T23:52:15Z","2026-08-17T23:52:17Z","2026-08-17T23:52:26Z","2026-08-17T23:52:31Z","2026-08-17T23:52:34Z","2026-08-17T23:52:37Z","2026-08-17T23:52:38Z","2026-08-17T23:52:40Z","2026-08-17T23:52:54Z","2026-08-17T23:52:59Z","2026-08-17T23:53:11Z","2026-08-17T23:53:28Z","2026-08-17T23:53:32Z","2026-08-17T23:53:41Z","2026-08-17T23:53:45Z","2026-08-17T23:53:49Z","2026-08-17T23:53:51Z","2026-08-17T23:53:56Z","2026-08-17T23:54:01Z","2026-08-17T23:54:07Z","2026-08-17T23:54:10Z","2026-08-17T23:54:11Z","2026-08-17T23:54:15Z","2026-08-17T23:54:18Z","2026-08-17T23:54:19Z","2026-08-17T23:54:23Z","2026-08-17T23:54:30Z","2026-08-17T23:54:35Z","2026-08-17T23:54:39Z","2026-08-17T23:54:42Z","2026-08-17T23:54:45Z","2026-08-17T23:54:48Z","2026-08-17T23:54:53Z","2026-08-17T23:55:42Z","2026-08-17T23:55:47Z","2026-08-17T23:55:48Z","2026-08-17T23:55:50Z","2026-08-17T23:55:53Z","2026-08-17T23:55:56Z","2026-08-17T23:55:58Z","2026-08-17T23:56:03Z","2026-08-17T23:56:04Z","2026-08-17T23:56:06Z","2026-08-17T23:56:07Z","2026-08-17T23:56:10Z","2026-08-17T23:56:12Z","2026-08-17T23:56:13Z","2026-08-17T23:56:14Z","2026-08-17T23:56:16Z","2026-08-17T23:56:19Z","2026-08-17T23:56:20Z","2026-08-17T23:56:22Z","2026-08-17T23:56:25Z","2026-08-17T23:56:32Z","2026-08-17T23:56:37Z","2026-08-17T23:56:38Z","2026-08-17T23:56:41Z","2026-08-17T23:56:45Z","2026-08-17T23:56:47Z","2026-08-17T23:56:50Z","2026-08-17T23:56:54Z","2026-08-17T23:56:58Z","2026-08-17T23:57:00Z","2026-08-17T23:57:08Z","2026-08-17T23:57:13Z","2026-08-17T23:57:17Z","2026-08-17T23:57:20Z","2026-08-17T23:57:22Z","2026-08-17T23:57:24Z","2026-08-17T23:57:36Z","2026-08-17T23:57:38Z","2026-08-17T23:57:41Z","2026-08-17T23:57:45Z","2026-08-17T23:57:48Z","2026-08-17T23:58:01Z","2026-08-17T23:58:03Z","2026-08-17T23:58:10Z","2026-08-17T23:58:11Z","2026-08-17T23:58:17Z","2026-08-17T23:58:19Z","2026-08-17T23:58:22Z","2026-08-17T23:58:32Z","2026-08-17T23:58:33Z","2026-08-17T23:58:34Z","2026-08-17T23:58:37Z","2026-08-17T23:58:39Z","2026-08-17T23:58:43Z","2026-08-17T23:58:46Z","2026-08-17T23:59:23Z","2026-08-17T23:59:29Z","2026-08-17T23:59:32Z","2026-08-17T23:59:41Z","2026-08-17T23:59:42Z","2026-08-17T23:59:43Z","2026-08-17T23:59:47Z","2026-08-17T23:59:55Z","2026-08-17T23:59:58Z","2026-08-18T00:00:00Z","2026-08-18T00:00:05Z","2026-08-18T00:00:08Z","2026-08-18T00:00:12Z","2026-08-18T00:00:15Z","2026-08-18T00:00:19Z","2026-08-18T00:00:29Z","2026-08-18T00:00:32Z","2026-08-18T00:00:33Z","2026-08-18T00:00:34Z","2026-08-18T00:00:37Z","2026-08-18T00:00:39Z","2026-08-18T00:00:42Z","2026-08-18T00:00:45Z","2026-08-18T00:00:51Z","2026-08-18T00:00:54Z","2026-08-18T00:00:56Z","2026-08-18T00:01:03Z","2026-08-18T00:01:05Z","2026-08-18T00:01:10Z","2026-08-18T00:01:11Z","2026-08-18T00:01:17Z","2026-08-18T00:01:18Z","2026-08-18T00:01:28Z","2026-08-18T00:01:30Z","2026-08-18T00:01:33Z","2026-08-18T00:01:34Z","2026-08-18T00:01:35Z","2026-08-18T00:01:37Z","2026-08-18T00:01:40Z","2026-08-18T00:01:43Z","2026-08-18T00:01:46Z","2026-08-18T00:01:50Z","2026-08-18T00:01:53Z","2026-08-18T00:01:54Z","2026-08-18T00:02:00Z","2026-08-18T00:02:05Z","2026-08-18T00:02:07Z","2026-08-18T00:02:13Z","2026-08-18T00:02:14Z","2026-08-18T00:02:18Z","2026-08-18T00:02:31Z","2026-08-18T00:02:41Z","2026-08-18T00:02:43Z","2026-08-18T00:02:45Z","2026-08-18T00:02:48Z","2026-08-18T00:02:52Z","2026-08-18T00:02:55Z","2026-08-18T00:03:07Z","2026-08-18T00:03:09Z","2026-08-18T00:03:10Z","2026-08-18T00:03:18Z","2026-08-18T00:03:21Z","2026-08-18T00:03:23Z","2026-08-18T00:03:26Z","2026-08-18T00:03:28Z","2026-08-18T00:03:33Z","2026-08-18T00:03:41Z","2026-08-18T00:03:45Z","2026-08-18T00:03:49Z","2026-08-18T00:03:50Z","2026-08-18T00:03:53Z","2026-08-18T00:04:00Z","2026-08-18T00:04:04Z","2026-08-18T00:04:06Z","2026-08-18T00:04:11Z","2026-08-18T00:04:18Z","2026-08-18T00:04:48Z","2026-08-18T00:04:52Z","2026-08-18T00:04:57Z","2026-08-18T00:05:05Z","2026-08-18T00:05:07Z","2026-08-18T00:05:10Z","2026-08-18T00:05:12Z","2026-08-18T00:05:18Z","2026-08-18T00:05:19Z","2026-08-18T00:05:20Z","2026-08-18T00:05:22Z","2026-08-18T00:05:23Z","2026-08-18T00:05:24Z","2026-08-18T00:05:28Z","2026-08-18T00:05:35Z","2026-08-18T00:05:41Z","2026-08-18T00:05:42Z","2026-08-18T00:05:45Z","2026-08-18T00:05:46Z","2026-08-18T00:05:52Z","2026-08-18T00:06:01Z","2026-08-18T00:06:06Z","2026-08-18T00:06:07Z","2026-08-18T00:06:09Z","2026-08-18T00:06:11Z","2026-08-18T00:06:14Z","2026-08-18T00:06:17Z","2026-08-18T00:06:21Z","2026-08-18T00:06:23Z","2026-08-18T00:06:26Z","2026-08-18T00:06:28Z","2026-08-18T00:06:32Z","2026-08-18T00:06:34Z","2026-08-18T00:06:35Z","2026-08-18T00:06:37Z","2026-08-18T00:06:38Z","2026-08-18T00:06:44Z","2026-08-18T00:06:46Z","2026-08-18T00:06:48Z","2026-08-18T00:06:49Z","2026-08-18T00:06:50Z","2026-08-18T00:06:51Z","2026-08-18T00:06:52Z","2026-08-18T00:06:53Z","2026-08-18T00:06:58Z","2026-08-18T00:06:59Z","2026-08-18T00:07:03Z","2026-08-18T00:07:10Z","2026-08-18T00:07:11Z","2026-08-18T00:07:13Z","2026-08-18T00:07:17Z","2026-08-18T00:07:19Z","2026-08-18T00:07:20Z","2026-08-18T00:07:22Z","2026-08-18T00:07:24Z","2026-08-18T00:07:31Z","2026-08-18T00:07:32Z","2026-08-18T00:07:33Z","2026-08-18T00:07:38Z","2026-08-18T00:07:43Z","2026-08-18T00:07:48Z","2026-08-18T00:07:49Z","2026-08-18T00:07:51Z","2026-08-18T00:07:53Z","2026-08-18T00:07:56Z","2026-08-18T00:07:59Z","2026-08-18T00:08:01Z","2026-08-18T00:08:04Z","2026-08-18T00:08:08Z","2026-08-18T00:08:25Z","2026-08-18T00:08:37Z","2026-08-18T00:08:49Z","2026-08-18T00:08:51Z","2026-08-18T00:08:55Z","2026-08-18T00:08:59Z","2026-08-18T00:09:00Z","2026-08-18T00:09:18Z","2026-08-18T00:09:30Z","2026-08-18T00:09:32Z","2026-08-18T00:09:33Z","2026-08-18T00:09:38Z","2026-08-18T00:09:39Z","2026-08-18T00:09:43Z","2026-08-18T00:09:45Z","2026-08-18T00:09:46Z","2026-08-18T00:09:47Z","2026-08-18T00:09:48Z","2026-08-18T00:09:50Z","2026-08-18T00:09:57Z","2026-08-18T00:10:01Z","2026-08-18T00:10:04Z","2026-08-18T00:10:06Z","2026-08-18T00:10:13Z","2026-08-18T00:10:18Z","2026-08-18T00:10:19Z","2026-08-18T00:10:22Z","2026-08-18T00:10:24Z","2026-08-18T00:10:26Z","2026-08-18T00:10:33Z","2026-08-18T00:10:35Z","2026-08-18T00:10:37Z","2026-08-18T00:10:43Z","2026-08-18T00:10:45Z","2026-08-18T00:10:47Z","2026-08-18T00:10:53Z","2026-08-18T00:10:55Z","2026-08-18T00:10:57Z","2026-08-18T00:10:58Z","2026-08-18T00:11:10Z","2026-08-18T00:11:17Z","2026-08-18T00:11:21Z","2026-08-18T00:11:23Z","2026-08-18T00:11:32Z","2026-08-18T00:11:34Z","2026-08-18T00:11:37Z","2026-08-18T00:11:38Z","2026-08-18T00:11:41Z","2026-08-18T00:11:56Z","2026-08-18T00:11:57Z","2026-08-18T00:11:58Z","2026-08-18T00:12:00Z","2026-08-18T00:12:02Z","2026-08-18T00:12:06Z","2026-08-18T00:12:15Z","2026-08-18T00:12:16Z","2026-08-18T00:12:20Z","2026-08-18T00:12:23Z","2026-08-18T00:12:25Z","2026-08-18T00:12:27Z","2026-08-18T00:12:30Z","2026-08-18T00:12:31Z","2026-08-18T00:12:32Z","2026-08-18T00:12:36Z","2026-08-18T00:12:39Z","2026-08-18T00:12:45Z","2026-08-18T00:14:06Z","2026-08-18T00:14:14Z","2026-08-18T00:14:16Z","2026-08-18T00:14:20Z","2026-08-18T00:14:24Z","2026-08-18T00:14:33Z","2026-08-18T00:14:36Z","2026-08-18T00:14:39Z","2026-08-18T00:14:47Z","2026-08-18T00:14:51Z","2026-08-18T00:15:03Z","2026-08-18T00:15:06Z","2026-08-18T00:15:13Z","2026-08-18T00:15:23Z","2026-08-18T00:15:27Z","2026-08-18T00:15:34Z","2026-08-18T00:15:39Z","2026-08-18T00:15:43Z","2026-08-18T00:15:46Z","2026-08-18T00:15:48Z","2026-08-18T00:15:49Z","2026-08-18T00:15:52Z","2026-08-18T00:15:54Z","2026-08-18T00:15:55Z","2026-08-18T00:15:56Z","2026-08-18T00:15:59Z","2026-08-18T00:16:01Z","2026-08-18T00:16:08Z","2026-08-18T00:16:17Z","2026-08-18T00:16:47Z","2026-08-18T00:17:38Z","2026-08-18T00:17:53Z","2026-08-18T00:18:00Z","2026-08-18T00:18:17Z","2026-08-18T00:18:18Z","2026-08-18T00:18:20Z","2026-08-18T00:18:24Z","2026-08-18T00:18:28Z","2026-08-18T00:18:35Z","2026-08-18T00:18:38Z","2026-08-18T00:18:40Z","2026-08-18T00:18:44Z","2026-08-18T00:18:45Z","2026-08-18T00:19:47Z","2026-08-18T00:19:48Z","2026-08-18T00:20:01Z","2026-08-18T00:21:38Z","2026-08-18T00:21:43Z","2026-08-18T00:21:44Z","2026-08-18T00:21:53Z","2026-08-18T00:21:56Z","2026-08-18T00:21:57Z","2026-08-18T00:21:59Z","2026-08-18T00:22:02Z","2026-08-18T00:22:09Z","2026-08-18T00:22:15Z","2026-08-18T00:22:17Z","2026-08-18T00:22:19Z","2026-08-18T00:22:20Z","2026-08-18T00:22:25Z","2026-08-18T00:22:26Z","2026-08-18T00:22:29Z","2026-08-18T00:22:30Z","2026-08-18T00:22:32Z","2026-08-18T00:22:36Z","2026-08-18T00:22:37Z","2026-08-18T00:22:40Z","2026-08-18T00:22:41Z","2026-08-18T00:22:51Z","2026-08-18T00:22:53Z","2026-08-18T00:22:55Z","2026-08-18T00:22:59Z","2026-08-18T00:23:05Z","2026-08-18T00:23:08Z","2026-08-18T00:23:10Z","2026-08-18T00:23:11Z","2026-08-18T00:23:12Z","2026-08-18T00:23:16Z","2026-08-18T00:23:18Z","2026-08-18T00:23:20Z","2026-08-18T00:23:24Z","2026-08-18T00:23:25Z","2026-08-18T00:23:26Z","2026-08-18T00:23:29Z","2026-08-18T00:23:32Z","2026-08-18T00:23:34Z","2026-08-18T00:23:36Z","2026-08-18T00:23:39Z","2026-08-18T00:23:40Z","2026-08-18T00:23:42Z","2026-08-18T00:23:43Z","2026-08-18T00:23:48Z","2026-08-18T00:23:50Z","2026-08-18T00:23:55Z","2026-08-18T00:23:57Z","2026-08-18T00:24:02Z","2026-08-18T00:24:10Z","2026-08-18T00:24:13Z","2026-08-18T00:24:21Z","2026-08-18T00:24:25Z","2026-08-18T00:24:31Z","2026-08-18T00:24:36Z","2026-08-18T00:24:40Z","2026-08-18T00:24:42Z","2026-08-18T00:24:43Z","2026-08-18T00:24:44Z","2026-08-18T00:24:53Z","2026-08-18T00:25:00Z","2026-08-18T00:25:04Z","2026-08-18T00:25:08Z","2026-08-18T00:25:10Z","2026-08-18T00:25:12Z","2026-08-18T00:25:15Z","2026-08-18T00:25:18Z","2026-08-18T00:25:20Z","2026-08-18T00:25:24Z","2026-08-18T00:25:26Z","2026-08-18T00:25:29Z","2026-08-18T00:25:33Z","2026-08-18T00:25:35Z","2026-08-18T00:25:37Z","2026-08-18T00:25:39Z","2026-08-18T00:25:40Z","2026-08-18T00:25:41Z","2026-08-18T00:25:44Z","2026-08-18T00:25:46Z","2026-08-18T00:25:48Z","2026-08-18T00:25:50Z","2026-08-18T00:25:51Z","2026-08-18T00:25:54Z","2026-08-18T00:25:57Z","2026-08-18T00:26:05Z","2026-08-18T00:26:10Z","2026-08-18T00:26:12Z","2026-08-18T00:26:14Z","2026-08-18T00:26:18Z","2026-08-18T00:26:21Z","2026-08-18T00:26:24Z","2026-08-18T00:26:25Z","2026-08-18T00:26:28Z","2026-08-18T00:26:29Z","2026-08-18T00:26:35Z","2026-08-18T00:26:37Z","2026-08-18T00:26:55Z","2026-08-18T00:26:58Z","2026-08-18T00:27:02Z","2026-08-18T00:27:04Z","2026-08-18T00:27:05Z","2026-08-18T00:27:07Z","2026-08-18T00:27:08Z","2026-08-18T00:27:16Z","2026-08-18T00:27:19Z","2026-08-18T00:27:21Z","2026-08-18T00:27:26Z","2026-08-18T00:27:30Z","2026-08-18T00:27:32Z","2026-08-18T00:27:39Z","2026-08-18T00:27:43Z","2026-08-18T00:27:46Z","2026-08-18T00:27:47Z","2026-08-18T00:27:48Z","2026-08-18T00:27:52Z","2026-08-18T00:27:54Z","2026-08-18T00:27:56Z","2026-08-18T00:27:58Z","2026-08-18T00:28:02Z","2026-08-18T00:28:05Z","2026-08-18T00:28:15Z","2026-08-18T00:28:25Z","2026-08-18T00:28:27Z","2026-08-18T00:28:35Z","2026-08-18T00:28:36Z","2026-08-18T00:28:40Z","2026-08-18T00:28:44Z","2026-08-18T00:28:45Z","2026-08-18T00:28:46Z","2026-08-18T00:28:50Z","2026-08-18T00:28:52Z","2026-08-18T00:28:55Z","2026-08-18T00:28:57Z","2026-08-18T00:28:59Z","2026-08-18T00:29:02Z","2026-08-18T00:29:06Z","2026-08-18T00:29:08Z","2026-08-18T00:29:12Z","2026-08-18T00:29:14Z","2026-08-18T00:29:18Z","2026-08-18T00:29:20Z","2026-08-18T00:29:24Z","2026-08-18T00:29:25Z","2026-08-18T00:29:26Z","2026-08-18T00:29:29Z","2026-08-18T00:29:32Z","2026-08-18T00:29:33Z","2026-08-18T00:29:35Z","2026-08-18T00:29:38Z","2026-08-18T00:29:39Z","2026-08-18T00:29:55Z","2026-08-18T00:29:57Z","2026-08-18T00:30:01Z","2026-08-18T00:30:02Z","2026-08-18T00:30:08Z","2026-08-18T00:30:11Z","2026-08-18T00:30:14Z","2026-08-18T00:30:17Z","2026-08-18T00:30:21Z","2026-08-18T00:30:23Z","2026-08-18T00:30:25Z","2026-08-18T00:30:26Z","2026-08-18T00:30:28Z","2026-08-18T00:30:30Z","2026-08-18T00:30:32Z","2026-08-18T00:30:33Z","2026-08-18T00:30:39Z","2026-08-18T00:30:44Z","2026-08-18T00:30:45Z","2026-08-18T00:30:50Z","2026-08-18T00:30:52Z","2026-08-18T00:30:54Z","2026-08-18T00:30:59Z","2026-08-18T00:31:01Z","2026-08-18T00:31:06Z","2026-08-18T00:31:11Z","2026-08-18T00:31:15Z","2026-08-18T00:31:19Z","2026-08-18T00:31:21Z","2026-08-18T00:31:23Z","2026-08-18T00:31:25Z","2026-08-18T00:31:27Z","2026-08-18T00:31:28Z","2026-08-18T00:31:30Z","2026-08-18T00:31:34Z","2026-08-18T00:31:38Z","2026-08-18T00:31:40Z","2026-08-18T00:31:41Z","2026-08-18T00:31:45Z","2026-08-18T00:31:48Z","2026-08-18T00:31:49Z","2026-08-18T00:31:50Z","2026-08-18T00:31:53Z","2026-08-18T00:31:55Z","2026-08-18T00:32:00Z","2026-08-18T00:32:07Z","2026-08-18T00:32:08Z","2026-08-18T00:32:09Z","2026-08-18T00:32:10Z","2026-08-18T00:32:11Z","2026-08-18T00:32:12Z","2026-08-18T00:32:13Z","2026-08-18T00:32:16Z","2026-08-18T00:32:18Z","2026-08-18T00:32:19Z","2026-08-18T00:32:23Z","2026-08-18T00:32:25Z","2026-08-18T00:32:26Z","2026-08-18T00:32:27Z","2026-08-18T00:32:28Z","2026-08-18T00:32:30Z","2026-08-18T00:32:33Z","2026-08-18T00:32:34Z","2026-08-18T00:32:35Z","2026-08-18T00:32:38Z","2026-08-18T00:32:40Z","2026-08-18T00:32:43Z","2026-08-18T00:32:47Z","2026-08-18T00:32:51Z","2026-08-18T00:32:55Z","2026-08-18T00:33:10Z","2026-08-18T00:33:20Z","2026-08-18T00:33:27Z","2026-08-18T00:33:29Z","2026-08-18T00:33:32Z","2026-08-18T00:33:33Z","2026-08-18T00:33:36Z","2026-08-18T00:33:37Z","2026-08-18T00:33:39Z","2026-08-18T00:33:43Z","2026-08-18T00:34:21Z","2026-08-18T00:34:23Z","2026-08-18T00:34:28Z","2026-08-18T00:34:33Z","2026-08-18T00:34:34Z","2026-08-18T00:34:36Z","2026-08-18T00:34:40Z","2026-08-18T00:34:42Z","2026-08-18T00:34:48Z","2026-08-18T00:34:50Z","2026-08-18T00:34:54Z","2026-08-18T00:35:04Z","2026-08-18T00:35:07Z","2026-08-18T00:35:11Z","2026-08-18T00:35:15Z","2026-08-18T00:35:26Z","2026-08-18T00:35:29Z","2026-08-18T00:35:30Z","2026-08-18T00:35:32Z","2026-08-18T00:35:35Z","2026-08-18T00:35:40Z","2026-08-18T00:35:42Z","2026-08-18T00:35:46Z","2026-08-18T00:35:50Z","2026-08-18T00:35:53Z","2026-08-18T00:35:56Z","2026-08-18T00:35:59Z","2026-08-18T00:36:03Z","2026-08-18T00:36:04Z","2026-08-18T00:36:09Z","2026-08-18T00:36:11Z","2026-08-18T00:36:16Z","2026-08-18T00:36:21Z","2026-08-18T00:36:25Z","2026-08-18T00:36:28Z","2026-08-18T00:36:29Z","2026-08-18T00:36:31Z","2026-08-18T00:36:32Z","2026-08-18T00:36:41Z","2026-08-18T00:36:44Z","2026-08-18T00:36:45Z","2026-08-18T00:36:50Z","2026-08-18T00:36:52Z","2026-08-18T00:36:55Z","2026-08-18T00:37:10Z","2026-08-18T00:37:12Z","2026-08-18T00:37:18Z","2026-08-18T00:37:19Z","2026-08-18T00:37:25Z","2026-08-18T00:37:26Z","2026-08-18T00:37:28Z","2026-08-18T00:37:29Z","2026-08-18T00:38:02Z","2026-08-18T00:38:11Z","2026-08-18T00:38:14Z","2026-08-18T00:38:17Z","2026-08-18T00:38:25Z","2026-08-18T00:38:28Z","2026-08-18T00:38:31Z","2026-08-18T00:38:38Z","2026-08-18T00:38:54Z","2026-08-18T00:39:01Z","2026-08-18T00:39:04Z","2026-08-18T00:39:12Z","2026-08-18T00:39:21Z","2026-08-18T00:39:28Z","2026-08-18T00:39:31Z","2026-08-18T00:39:33Z","2026-08-18T00:39:34Z","2026-08-18T00:39:36Z","2026-08-18T00:39:41Z","2026-08-18T00:39:43Z","2026-08-18T00:39:48Z","2026-08-18T00:40:03Z","2026-08-18T00:40:08Z","2026-08-18T00:40:10Z","2026-08-18T00:40:14Z","2026-08-18T00:40:21Z","2026-08-18T00:40:24Z","2026-08-18T00:40:26Z","2026-08-18T00:40:32Z","2026-08-18T00:40:33Z","2026-08-18T00:40:34Z","2026-08-18T00:40:37Z","2026-08-18T00:40:38Z","2026-08-18T00:40:39Z","2026-08-18T00:40:46Z","2026-08-18T00:40:49Z","2026-08-18T00:40:51Z","2026-08-18T00:40:55Z","2026-08-18T00:40:57Z","2026-08-18T00:40:58Z","2026-08-18T00:41:00Z","2026-08-18T00:41:03Z","2026-08-18T00:41:05Z","2026-08-18T00:41:08Z","2026-08-18T00:41:09Z","2026-08-18T00:41:11Z","2026-08-18T00:41:15Z","2026-08-18T00:41:17Z","2026-08-18T00:41:21Z","2026-08-18T00:41:22Z","2026-08-18T00:41:24Z","2026-08-18T00:41:25Z","2026-08-18T00:41:31Z","2026-08-18T00:41:35Z","2026-08-18T00:41:36Z","2026-08-18T00:41:38Z","2026-08-18T00:41:46Z","2026-08-18T00:41:51Z","2026-08-18T00:41:56Z","2026-08-18T00:42:01Z","2026-08-18T00:42:02Z","2026-08-18T00:42:03Z","2026-08-18T00:42:04Z","2026-08-18T00:42:05Z","2026-08-18T00:42:07Z","2026-08-18T00:42:08Z","2026-08-18T00:42:09Z","2026-08-18T00:42:11Z","2026-08-18T00:42:17Z","2026-08-18T00:42:18Z","2026-08-18T00:42:20Z","2026-08-18T00:42:23Z","2026-08-18T00:42:24Z","2026-08-18T00:42:27Z","2026-08-18T00:42:29Z","2026-08-18T00:42:31Z","2026-08-18T00:42:40Z","2026-08-18T00:42:42Z","2026-08-18T00:42:44Z","2026-08-18T00:42:51Z","2026-08-18T00:42:53Z","2026-08-18T00:42:56Z","2026-08-18T00:42:58Z","2026-08-18T00:43:01Z","2026-08-18T00:43:03Z","2026-08-18T00:43:06Z","2026-08-18T00:43:14Z","2026-08-18T00:43:16Z","2026-08-18T00:43:20Z","2026-08-18T00:43:23Z","2026-08-18T00:43:33Z","2026-08-18T00:43:35Z","2026-08-18T00:43:36Z","2026-08-18T00:43:39Z","2026-08-18T00:43:47Z","2026-08-18T00:43:52Z","2026-08-18T00:43:54Z","2026-08-18T00:44:00Z","2026-08-18T00:44:03Z","2026-08-18T00:44:05Z","2026-08-18T00:44:08Z","2026-08-18T00:44:12Z","2026-08-18T00:45:01Z","2026-08-18T00:45:02Z","2026-08-18T00:45:05Z","2026-08-18T00:45:08Z","2026-08-18T00:45:12Z","2026-08-18T00:45:17Z","2026-08-18T00:45:19Z","2026-08-18T00:45:20Z","2026-08-18T00:45:22Z","2026-08-18T00:45:24Z","2026-08-18T00:45:26Z","2026-08-18T00:45:27Z","2026-08-18T00:45:30Z","2026-08-18T00:45:34Z","2026-08-18T00:45:36Z","2026-08-18T00:45:37Z","2026-08-18T00:45:41Z","2026-08-18T00:45:47Z","2026-08-18T00:45:50Z","2026-08-18T00:45:53Z","2026-08-18T00:45:54Z","2026-08-18T00:45:55Z","2026-08-18T00:46:00Z","2026-08-18T00:46:05Z","2026-08-18T00:46:07Z","2026-08-18T00:46:12Z","2026-08-18T00:46:14Z","2026-08-18T00:46:19Z","2026-08-18T00:46:24Z","2026-08-18T00:46:26Z","2026-08-18T00:46:29Z","2026-08-18T00:46:31Z","2026-08-18T00:46:33Z","2026-08-18T00:46:37Z","2026-08-18T00:46:40Z","2026-08-18T00:46:41Z","2026-08-18T00:46:44Z","2026-08-18T00:46:45Z","2026-08-18T00:46:47Z","2026-08-18T00:46:49Z","2026-08-18T00:46:51Z","2026-08-18T00:46:56Z","2026-08-18T00:47:07Z","2026-08-18T00:47:11Z","2026-08-18T00:47:13Z","2026-08-18T00:47:14Z","2026-08-18T00:47:21Z","2026-08-18T00:47:24Z","2026-08-18T00:47:26Z","2026-08-18T00:47:30Z","2026-08-18T00:47:31Z","2026-08-18T00:47:37Z","2026-08-18T00:47:42Z","2026-08-18T00:47:50Z","2026-08-18T00:47:53Z","2026-08-18T00:47:54Z","2026-08-18T00:47:59Z","2026-08-18T00:48:01Z","2026-08-18T00:48:04Z","2026-08-18T00:48:08Z","2026-08-18T00:48:11Z","2026-08-18T00:48:13Z","2026-08-18T00:48:14Z","2026-08-18T00:48:16Z","2026-08-18T00:48:17Z","2026-08-18T00:48:19Z","2026-08-18T00:48:21Z","2026-08-18T00:48:23Z","2026-08-18T00:48:27Z","2026-08-18T00:48:29Z","2026-08-18T00:48:33Z","2026-08-18T00:48:38Z","2026-08-18T00:48:43Z","2026-08-18T00:48:44Z","2026-08-18T00:48:46Z","2026-08-18T00:48:48Z","2026-08-18T00:48:51Z","2026-08-18T00:48:56Z","2026-08-18T00:48:58Z","2026-08-18T00:49:00Z","2026-08-18T00:49:03Z","2026-08-18T00:49:04Z","2026-08-18T00:49:07Z","2026-08-18T00:49:09Z","2026-08-18T00:49:13Z","2026-08-18T00:49:19Z","2026-08-18T00:49:21Z","2026-08-18T00:49:24Z","2026-08-18T00:49:29Z","2026-08-18T00:49:32Z","2026-08-18T00:49:33Z","2026-08-18T00:49:34Z","2026-08-18T00:49:35Z","2026-08-18T00:49:38Z","2026-08-18T00:49:41Z","2026-08-18T00:49:45Z","2026-08-18T00:49:50Z","2026-08-18T00:49:54Z","2026-08-18T00:49:57Z","2026-08-18T00:50:00Z","2026-08-18T00:50:03Z","2026-08-18T00:50:05Z","2026-08-18T00:50:14Z","2026-08-18T00:50:15Z","2026-08-18T00:50:18Z","2026-08-18T00:50:22Z","2026-08-18T00:50:26Z","2026-08-18T00:50:31Z","2026-08-18T00:50:33Z","2026-08-18T00:50:34Z","2026-08-18T00:50:35Z","2026-08-18T00:50:40Z","2026-08-18T00:50:43Z","2026-08-18T00:50:45Z","2026-08-18T00:50:51Z","2026-08-18T00:50:53Z","2026-08-18T00:50:55Z","2026-08-18T00:50:56Z","2026-08-18T00:50:58Z","2026-08-18T00:51:00Z","2026-08-18T00:51:02Z","2026-08-18T00:51:06Z","2026-08-18T00:51:12Z","2026-08-18T00:51:15Z","2026-08-18T00:51:21Z","2026-08-18T00:51:25Z","2026-08-18T00:51:26Z","2026-08-18T00:51:29Z","2026-08-18T00:51:30Z","2026-08-18T00:51:33Z","2026-08-18T00:51:37Z","2026-08-18T00:51:42Z","2026-08-18T00:51:46Z","2026-08-18T00:51:51Z","2026-08-18T00:51:59Z","2026-08-18T00:52:02Z","2026-08-18T00:52:05Z","2026-08-18T00:52:09Z","2026-08-18T00:52:12Z","2026-08-18T00:52:16Z","2026-08-18T00:52:18Z","2026-08-18T00:52:24Z","2026-08-18T00:52:27Z","2026-08-18T00:52:31Z","2026-08-18T00:52:34Z","2026-08-18T00:52:37Z","2026-08-18T00:52:38Z","2026-08-18T00:52:39Z","2026-08-18T00:52:41Z","2026-08-18T00:52:43Z","2026-08-18T00:52:44Z","2026-08-18T00:52:47Z","2026-08-18T00:52:48Z","2026-08-18T00:52:49Z","2026-08-18T00:53:52Z","2026-08-18T00:54:20Z","2026-08-18T00:54:22Z","2026-08-18T00:54:27Z","2026-08-18T00:54:38Z","2026-08-18T00:54:40Z","2026-08-18T00:54:42Z","2026-08-18T00:54:45Z","2026-08-18T00:54:51Z","2026-08-18T00:55:10Z","2026-08-18T00:55:14Z","2026-08-18T00:55:16Z","2026-08-18T00:55:17Z","2026-08-18T00:55:18Z","2026-08-18T00:55:21Z","2026-08-18T00:55:23Z","2026-08-18T00:55:25Z","2026-08-18T00:55:27Z","2026-08-18T00:55:33Z","2026-08-18T00:55:34Z","2026-08-18T00:55:37Z","2026-08-18T00:55:43Z","2026-08-18T00:55:44Z","2026-08-18T00:55:47Z","2026-08-18T00:55:48Z","2026-08-18T00:55:49Z","2026-08-18T00:55:50Z","2026-08-18T00:55:53Z","2026-08-18T00:55:56Z","2026-08-18T00:55:59Z","2026-08-18T00:56:00Z","2026-08-18T00:56:04Z","2026-08-18T00:56:05Z","2026-08-18T00:56:07Z","2026-08-18T00:56:14Z","2026-08-18T00:56:16Z","2026-08-18T00:56:19Z","2026-08-18T00:56:21Z","2026-08-18T00:56:22Z","2026-08-18T00:56:24Z","2026-08-18T00:56:26Z","2026-08-18T00:56:29Z","2026-08-18T00:56:31Z","2026-08-18T00:56:32Z","2026-08-18T00:56:33Z","2026-08-18T00:56:36Z","2026-08-18T00:56:37Z","2026-08-18T00:56:38Z","2026-08-18T00:56:39Z","2026-08-18T00:56:41Z","2026-08-18T00:56:42Z","2026-08-18T00:56:50Z","2026-08-18T00:56:51Z","2026-08-18T00:56:52Z","2026-08-18T00:56:56Z","2026-08-18T00:57:05Z","2026-08-18T00:57:08Z","2026-08-18T00:57:13Z","2026-08-18T00:57:14Z","2026-08-18T00:57:17Z","2026-08-18T00:57:21Z","2026-08-18T00:57:22Z","2026-08-18T00:57:29Z","2026-08-18T00:57:32Z","2026-08-18T00:57:33Z","2026-08-18T00:57:38Z","2026-08-18T00:57:39Z","2026-08-18T00:57:42Z","2026-08-18T00:57:43Z","2026-08-18T00:57:45Z","2026-08-18T00:57:47Z","2026-08-18T00:57:49Z","2026-08-18T00:57:51Z","2026-08-18T00:57:53Z","2026-08-18T00:57:55Z","2026-08-18T00:57:57Z","2026-08-18T00:57:58Z","2026-08-18T00:58:00Z","2026-08-18T00:58:01Z","2026-08-18T00:58:03Z","2026-08-18T00:58:07Z","2026-08-18T00:58:08Z","2026-08-18T00:58:11Z","2026-08-18T00:58:16Z","2026-08-18T00:58:19Z","2026-08-18T00:58:23Z","2026-08-18T00:58:25Z","2026-08-18T00:58:28Z","2026-08-18T00:58:30Z","2026-08-18T00:58:31Z","2026-08-18T00:58:33Z","2026-08-18T00:58:35Z","2026-08-18T00:58:37Z","2026-08-18T00:58:41Z","2026-08-18T00:58:46Z","2026-08-18T00:58:53Z","2026-08-18T00:59:03Z","2026-08-18T00:59:10Z","2026-08-18T00:59:14Z","2026-08-18T00:59:15Z","2026-08-18T00:59:17Z","2026-08-18T00:59:22Z","2026-08-18T00:59:24Z","2026-08-18T00:59:33Z","2026-08-18T00:59:36Z","2026-08-18T01:00:02Z","2026-08-18T01:00:12Z","2026-08-18T01:00:13Z","2026-08-18T01:00:17Z","2026-08-18T01:00:30Z","2026-08-18T01:00:33Z","2026-08-18T01:00:45Z","2026-08-18T01:00:50Z","2026-08-18T01:00:52Z","2026-08-18T01:00:54Z","2026-08-18T01:01:01Z","2026-08-18T01:01:07Z","2026-08-18T01:01:29Z","2026-08-18T01:01:33Z","2026-08-18T01:01:45Z","2026-08-18T01:01:46Z","2026-08-18T01:02:11Z","2026-08-18T01:02:12Z","2026-08-18T01:02:17Z","2026-08-18T01:02:19Z","2026-08-18T01:02:22Z","2026-08-18T01:02:28Z","2026-08-18T01:02:43Z","2026-08-18T01:02:53Z","2026-08-18T01:03:02Z","2026-08-18T01:03:07Z","2026-08-18T01:03:14Z","2026-08-18T01:03:25Z","2026-08-18T01:03:30Z","2026-08-18T01:03:34Z","2026-08-18T01:03:40Z","2026-08-18T01:03:42Z","2026-08-18T01:03:45Z","2026-08-18T01:03:47Z","2026-08-18T01:03:53Z","2026-08-18T01:03:55Z","2026-08-18T01:03:59Z","2026-08-18T01:04:03Z","2026-08-18T01:04:06Z","2026-08-18T01:04:14Z","2026-08-18T01:04:48Z","2026-08-18T01:04:49Z","2026-08-18T01:04:52Z","2026-08-18T01:04:54Z","2026-08-18T01:04:58Z","2026-08-18T01:04:59Z","2026-08-18T01:05:01Z","2026-08-18T01:05:03Z","2026-08-18T01:05:06Z","2026-08-18T01:05:14Z","2026-08-18T01:05:17Z","2026-08-18T01:06:11Z","2026-08-18T01:06:15Z","2026-08-18T01:06:19Z","2026-08-18T01:06:29Z","2026-08-18T01:06:32Z","2026-08-18T01:06:43Z","2026-08-18T01:06:45Z","2026-08-18T01:06:47Z","2026-08-18T01:06:53Z","2026-08-18T01:07:06Z","2026-08-18T01:07:11Z","2026-08-18T01:07:15Z","2026-08-18T01:07:18Z","2026-08-18T01:07:20Z","2026-08-18T01:07:21Z","2026-08-18T01:07:23Z","2026-08-18T01:07:24Z","2026-08-18T01:07:25Z","2026-08-18T01:07:37Z","2026-08-18T01:07:43Z","2026-08-18T01:07:48Z","2026-08-18T01:08:22Z","2026-08-18T01:08:28Z","2026-08-18T01:08:29Z","2026-08-18T01:08:31Z","2026-08-18T01:08:34Z","2026-08-18T01:08:38Z","2026-08-18T01:08:39Z","2026-08-18T01:08:40Z","2026-08-18T01:08:44Z","2026-08-18T01:09:03Z","2026-08-18T01:09:19Z","2026-08-18T01:09:49Z","2026-08-18T01:10:09Z","2026-08-18T01:10:11Z","2026-08-18T01:10:29Z","2026-08-18T01:10:33Z","2026-08-18T01:10:34Z","2026-08-18T01:10:36Z","2026-08-18T01:10:41Z","2026-08-18T01:11:36Z","2026-08-18T01:11:37Z","2026-08-18T01:11:48Z","2026-08-18T01:11:49Z","2026-08-18T01:11:56Z","2026-08-18T01:11:58Z","2026-08-18T01:11:59Z","2026-08-18T01:12:01Z","2026-08-18T01:12:10Z","2026-08-18T01:12:11Z","2026-08-18T01:12:14Z","2026-08-18T01:12:16Z","2026-08-18T01:12:19Z","2026-08-18T01:12:22Z","2026-08-18T01:12:25Z","2026-08-18T01:12:28Z","2026-08-18T01:12:29Z","2026-08-18T01:12:37Z","2026-08-18T01:12:39Z","2026-08-18T01:12:42Z","2026-08-18T01:12:48Z","2026-08-18T01:12:50Z","2026-08-18T01:13:00Z","2026-08-18T01:13:03Z","2026-08-18T01:13:06Z","2026-08-18T01:13:07Z","2026-08-18T01:13:09Z","2026-08-18T01:13:38Z","2026-08-18T01:13:50Z","2026-08-18T01:14:24Z","2026-08-18T01:14:34Z","2026-08-18T01:14:46Z","2026-08-18T01:14:53Z","2026-08-18T01:14:57Z","2026-08-18T01:14:59Z","2026-08-18T01:15:24Z","2026-08-18T01:15:26Z","2026-08-18T01:15:28Z","2026-08-18T01:16:30Z","2026-08-18T01:16:34Z","2026-08-18T01:20:30Z","2026-08-18T01:20:31Z","2026-08-18T01:20:33Z","2026-08-18T01:20:47Z","2026-08-18T01:20:49Z","2026-08-18T01:20:53Z","2026-08-18T01:21:05Z","2026-08-18T01:21:08Z","2026-08-18T01:21:10Z","2026-08-18T01:21:11Z","2026-08-18T01:21:17Z","2026-08-18T01:21:19Z","2026-08-18T01:21:21Z","2026-08-18T01:21:22Z","2026-08-18T01:21:23Z","2026-08-18T01:21:26Z","2026-08-18T01:21:27Z","2026-08-18T01:21:30Z","2026-08-18T01:21:32Z","2026-08-18T01:21:34Z","2026-08-18T01:21:38Z","2026-08-18T01:21:42Z","2026-08-18T01:21:46Z","2026-08-18T01:21:50Z","2026-08-18T01:21:53Z","2026-08-18T01:21:58Z","2026-08-18T01:22:36Z","2026-08-18T01:22:41Z","2026-08-18T01:22:42Z","2026-08-18T01:22:44Z","2026-08-18T01:22:45Z","2026-08-18T01:22:47Z","2026-08-18T01:22:48Z","2026-08-18T01:22:49Z","2026-08-18T01:22:50Z","2026-08-18T01:22:53Z","2026-08-18T01:22:54Z","2026-08-18T01:22:55Z","2026-08-18T01:22:56Z","2026-08-18T01:22:57Z","2026-08-18T01:22:58Z","2026-08-18T01:22:59Z","2026-08-18T01:23:00Z","2026-08-18T01:23:11Z","2026-08-18T01:23:14Z","2026-08-18T01:23:17Z","2026-08-18T01:23:21Z","2026-08-18T01:23:25Z","2026-08-18T01:23:31Z","2026-08-18T01:23:34Z","2026-08-18T01:23:37Z","2026-08-18T01:23:57Z","2026-08-18T01:24:02Z","2026-08-18T01:24:05Z","2026-08-18T01:24:08Z","2026-08-18T01:24:15Z","2026-08-18T01:24:21Z","2026-08-18T01:24:25Z","2026-08-18T01:24:31Z","2026-08-18T01:24:39Z","2026-08-18T01:24:43Z","2026-08-18T01:24:47Z","2026-08-18T01:24:49Z","2026-08-18T01:24:52Z","2026-08-18T01:24:54Z","2026-08-18T01:24:56Z","2026-08-18T01:24:58Z","2026-08-18T01:25:01Z","2026-08-18T01:25:02Z","2026-08-18T01:25:05Z","2026-08-18T01:25:09Z","2026-08-18T01:25:10Z","2026-08-18T01:25:11Z","2026-08-18T01:25:18Z","2026-08-18T01:25:21Z","2026-08-18T01:25:34Z","2026-08-18T01:25:37Z","2026-08-18T01:25:40Z","2026-08-18T01:25:45Z","2026-08-18T01:25:49Z","2026-08-18T01:25:52Z","2026-08-18T01:26:03Z","2026-08-18T01:26:04Z"],"heartRates":[86,91,83,87,88,88,87,87,87,87,87,87,87,88,88,88,89,92,91,90,91,91,89,87,87,87,87,92,91,91,91,90,90,90,90,92,97,98,94,94,94,95,86,89,89,89,89,85,85,85,85,82,82,82,82,82,86,86,85,85,85,86,86,86,84,84,85,84,84,84,84,84,84,83,85,85,85,84,85,85,85,85,85,81,81,87,87,87,84,86,87,87,87,86,86,87,89,88,89,89,86,86,86,84,80,80,80,80,83,83,83,82,84,84,85,85,85,87,89,89,91,90,89,88,88,82,82,82,82,87,83,83,83,83,83,83,81,81,83,82,82,83,84,84,84,84,85,82,86,86,86,88,88,88,85,85,85,88,88,88,88,88,88,86,86,86,86,85,84,85,85,86,85,88,88,85,88,88,86,86,86,88,88,88,88,88,88,90,91,91,93,93,93,91,90,90,90,90,89,89,91,90,90,90,90,91,90,90,90,88,88,88,88,86,86,86,86,86,87,87,85,85,85,84,84,84,84,84,84,84,84,85,85,88,88,88,88,84,85,85,89,88,91,91,96,96,98,98,98,90,81,81,81,81,85,85,85,85,85,85,84,83,83,81,81,81,83,83,83,87,87,87,83,83,83,90,88,88,87,87,87,85,83,83,83,84,85,85,85,86,87,87,87,89,89,89,84,84,88,88,88,88,87,87,87,87,87,86,84,87,86,86,87,84,84,85,84,84,87,90,91,86,86,84,85,85,87,87,87,87,88,88,88,92,92,98,95,93,88,88,91,88,88,88,87,88,88,85,85,85,85,95,95,93,87,87,80,79,80,80,80,80,84,86,86,87,87,87,87,88,88,88,88,88,90,90,91,91,92,91,92,91,91,91,91,92,92,92,87,87,87,87,89,89,89,85,85,85,85,86,86,85,83,83,82,83,83,82,82,80,80,80,80,86,83,84,88,88,84,84,84,84,83,83,83,83,83,83,83,83,83,83,87,87,87,87,87,87,89,88,89,89,89,89,86,86,86,88,88,85,85,88,82,82,82,84,84,84,86,82,82,81,81,81,81,80,80,80,80,84,84,84,83,83,81,87,85,84,89,89,91,90,90,90,91,91,91,98,98,98,100,100,100,104,104,104,108,109,109,109,110,110,110,110,110,107,107,106,108,106,106,100,100,99,99,99,99,99,92,91,91,87,88,88,88,86,86,88,88,86,86,86,84,84,84,84,84,84,84,82,82,82,83,82,82,82,82,82,81,81,84,84,84,84,84,84,84,84,84,84,86,86,86,86,86,85,85,85,85,85,86,85,85,85,87,87,90,90,89,89,89,89,86,86,87,82,81,82,83,83,83,83,83,84,84,85,85,83,83,88,85,85,87,87,87,91,88,88,88,88,88,84,83,83,84,83,83,82,82,82,84,85,85,89,88,88,87,88,88,85,85,84,84,85,85,85,86,95,94,94,94,91,91,88,85,83,87,87,88,87,86,85,85,87,87,87,87,86,87,87,87,90,90,90,88,88,88,88,80,80,80,83,83,79,81,81,81,84,83,83,83,83,83,83,85,85,84,84,84,85,85,87,87,88,88,89,91,91,90,90,90,90,90,90,90,94,94,94,91,91,91,91,90,86,86,86,84,84,84,84,84,84,83,85,85,85,86,85,85,85,88,88,84,84,84,84,84,84,84,97,96,96,94,94,93,93,93,93,93,89,89,90,90,90,90,90,84,83,83,83,83,84,87,87,87,87,87,88,88,87,87,87,87,85,85,85,84,84,84,84,85,87,87,86,86,86,86,85,86,86,86,86,85,86,86,90,90,90,91,90,90,91,91,91,91,87,87,89,89,90,90,90,90,90,90,100,103,103,103,109,109,113,113,115,116,116,117,117,116,116,115,115,115,109,109,105,105,101,100,97,97,92,92,92,88,90,88,88,88,88,85,85,84,83,83,83,81,81,83,83,86,84,84,85,84,84,84,84,84,84,84,85,87,88,96,96,98,98,92,91,91,91,84,84,83,83,83,83,83,83,83,83,83,83,81,81,85,83,83,83,82,79,80,82,82,82,82,82,82,82,80,83,83,83,84,84,82,82,82,82,82,82,81,81,82,82,82,84,84,86,86,86,86,88,88,88,88,88,88,88,87,87,87,86,86,81,81,81,81,81,77,77,77,82,82,79,79,79,81,81,81,82,82,82,82,82,82,87,87,87,95,95,95,101,101,102,104,106,106,108,108,109,109,110,110,110,108,108,107,108,107,104,104,104,98,98,95,90,82,83,83,83,83,80,82,81,82,82,82,81,85,83,87,87,86,86,84,84,84,87,82,84,83,83,87,86,86,86,86,90,90,92,91,89,89,90,90,86,86,86,89,89,88,88,88,88,88,88,85,83,83,81,78,78,77,77,77,77,80,81,83,84,84,84,84,84,84,88,89,89,90,92,92,92,93,93,93,93,89,83,83,88,87,88,87,79,79,79,80,87,87,88,88,87,86,86,86,83,83,85,88,88,88,84,84,84,82,82,82,81,81,81,81,81,81,81,84,81,83,83,81,83,83,81,76,76,78,84,82,91,91,91,90,90,90,86,85,85,85,82,82,82,82,82,82,82,80,80,80,81,80,82,82,82,84,83,85,85,85,85,87,87,87,87,87,93,93,93,93,93,90,90,84,84,80,80,73,74,74,74,80,80,86,86,78,79,84,83,83,83,85,85,87,87,85,86,90,90,90,96,96,96,95,93,88,88,88,82,82,78,79,79],"month":"2026-08-01"},"geometry":{"type":"LineString","coordinates":[[-84.574373,10.452327,109.1],[-84.574373,10.45232,108.5],[-84.574394,10.452394,110.4],[-84.574428,10.452352,110.5],[-84.574363,10.45243,110.2],[-84.574371,10.45244,110.2],[-84.574333,10.452473,110],[-84.574365,10.452451,110.4],[-84.574371,10.452427,110.2],[-84.57437,10.452432,110.2],[-84.574352,10.452429,110.2],[-84.574368,10.45241,110.2],[-84.574396,10.452412,110.7],[-84.57435,10.452431,110.2],[-84.574364,10.452417,110.2],[-84.574375,10.452418,110.2],[-84.574351,10.45244,110.2],[-84.574369,10.452477,110.4],[-84.574397,10.452448,110.8],[-84.574342,10.45247,110.4],[-84.574316,10.452447,109.6],[-84.574338,10.452419,109.6],[-84.574341,10.452398,109],[-84.574354,10.452406,110.2],[-84.574365,10.452396,109.8],[-84.574364,10.452386,109.8],[-84.574347,10.452375,109.8],[-84.574364,10.452322,109.1],[-84.574378,10.452313,108.5],[-84.574371,10.452314,108.5],[-84.574377,10.452315,108.5],[-84.574363,10.452318,108.5],[-84.574366,10.452304,108.5],[-84.574363,10.45231,108.5],[-84.574374,10.4523,108.5],[-84.574393,10.452348,109.9],[-84.574392,10.452406,110.7],[-84.574419,10.452414,110.7],[-84.574408,10.452425,110.7],[-84.57442,10.452419,110.7],[-84.574392,10.452435,110.7],[-84.574317,10.452424,109.6],[-84.574333,10.452417,109.6],[-84.574321,10.452418,109.6],[-84.574328,10.452398,109],[-84.574373,10.452422,110.2],[-84.574416,10.452389,110.4],[-84.574375,10.452382,109.8],[-84.574315,10.452405,109],[-84.574359,10.45242,110.2],[-84.574356,10.452425,110.2],[-84.574376,10.452427,110.2],[-84.574376,10.452432,110.2],[-84.574386,10.45242,110.7],[-84.57437,10.452436,110.2],[-84.574363,10.452432,110.2],[-84.574365,10.452437,110.2],[-84.574347,10.452449,110.4],[-84.574356,10.452493,110.3],[-84.574367,10.452494,110.3],[-84.574356,10.452535,110.1],[-84.574371,10.452567,110.1],[-84.574371,10.452602,109.7],[-84.574362,10.452607,109.7],[-84.574367,10.452602,109.7],[-84.574361,10.452598,109.7],[-84.574379,10.452591,109.7],[-84.574389,10.4526,109.9],[-84.57441,10.452594,109.9],[-84.574413,10.452614,109.9],[-84.574396,10.452643,109.5],[-84.574379,10.452651,109.4],[-84.574378,10.452671,109.1],[-84.574344,10.452678,109.1],[-84.574346,10.452691,109.1],[-84.574346,10.452677,109.1],[-84.574334,10.452694,109.1],[-84.574319,10.452693,109.1],[-84.574285,10.452721,109.2],[-84.574281,10.452709,109.2],[-84.574242,10.452716,109.4],[-84.574225,10.452739,109.4],[-84.57423,10.452759,109.3],[-84.57421,10.452733,109.5],[-84.574217,10.45273,109.4],[-84.574189,10.452781,109.6],[-84.574179,10.452783,109.6],[-84.574161,10.452808,109.8],[-84.574149,10.4528,109.8],[-84.574133,10.452806,109.8],[-84.574121,10.452767,110],[-84.574099,10.452768,110],[-84.574098,10.452763,110],[-84.574103,10.45277,110],[-84.574114,10.452767,110],[-84.574108,10.452742,109.9],[-84.574094,10.452742,109.9],[-84.574105,10.452769,110],[-84.574114,10.452773,110],[-84.57412,10.452765,110],[-84.574085,10.452755,110],[-84.574079,10.452746,110.2],[-84.574088,10.452736,109.9],[-84.574052,10.452751,110.2],[-84.574049,10.452738,110.1],[-84.574029,10.452745,110.5],[-84.574013,10.452738,110.3],[-84.574026,10.452735,110.3],[-84.574015,10.452741,110.3],[-84.574016,10.452763,110.5],[-84.574006,10.452762,110.5],[-84.574015,10.452753,110.5],[-84.574,10.452752,110.5],[-84.574011,10.452727,110.3],[-84.573994,10.452735,110.6],[-84.574003,10.452745,110.5],[-84.574027,10.452736,110.3],[-84.574033,10.452747,110.5],[-84.574041,10.452741,110.3],[-84.574041,10.452758,110.5],[-84.574002,10.452768,110.5],[-84.574003,10.452777,110.5],[-84.573995,10.452781,110.9],[-84.574003,10.452789,110.6],[-84.574005,10.452783,110.5],[-84.574006,10.45279,110.6],[-84.574003,10.452785,110.5],[-84.57399,10.452798,111],[-84.573999,10.4528,110.6],[-84.574054,10.452775,110.2],[-84.57405,10.452772,110.2],[-84.57406,10.452755,110.2],[-84.574049,10.452747,110.2],[-84.574058,10.452738,110.1],[-84.574063,10.452743,110.1],[-84.574032,10.452727,110.3],[-84.574057,10.452744,110.2],[-84.574045,10.452768,110.2],[-84.574054,10.452788,110.3],[-84.574042,10.452799,110.3],[-84.574048,10.4528,110.3],[-84.574015,10.452829,110.7],[-84.574031,10.45283,110.7],[-84.574031,10.452838,110.7],[-84.573996,10.452859,111],[-84.57399,10.452854,111],[-84.573981,10.452876,111],[-84.573942,10.452901,111.4],[-84.573966,10.452876,111],[-84.573959,10.452864,111],[-84.573968,10.452859,111],[-84.573956,10.452863,111],[-84.573968,10.452872,111],[-84.573955,10.452863,111.4],[-84.573968,10.452886,111],[-84.573966,10.452903,111],[-84.573958,10.452906,111],[-84.573993,10.452893,111],[-84.573966,10.452895,111],[-84.573973,10.452903,111],[-84.573969,10.452928,110.9],[-84.573977,10.452952,110.9],[-84.573988,10.452958,110.9],[-84.573969,10.45295,110.9],[-84.573974,10.452965,110.9],[-84.573948,10.452957,111.2],[-84.573947,10.452964,111.2],[-84.573952,10.452962,111.2],[-84.573944,10.452916,111.3],[-84.573974,10.452931,110.9],[-84.573961,10.452925,110.9],[-84.573978,10.452949,110.9],[-84.57395,10.452928,111.3],[-84.573855,10.45296,111.5],[-84.573868,10.452952,111.6],[-84.573866,10.452941,111.6],[-84.573849,10.452936,111.6],[-84.573846,10.452917,111.6],[-84.573887,10.452896,111.6],[-84.573908,10.452877,111.6],[-84.573938,10.452893,111.4],[-84.573935,10.452885,111.4],[-84.57392,10.452892,111.4],[-84.573937,10.452887,111.4],[-84.573938,10.452881,111.4],[-84.573929,10.452879,111.4],[-84.573913,10.452892,111.4],[-84.573901,10.452857,111.6],[-84.573915,10.452822,111.4],[-84.573908,10.452821,111.6],[-84.573912,10.452833,111.6],[-84.573928,10.452817,111.4],[-84.573963,10.452814,111],[-84.574062,10.452835,110.4],[-84.574072,10.452808,110.3],[-84.574064,10.452808,110.3],[-84.57407,10.452821,110.3],[-84.574076,10.452811,110.3],[-84.574093,10.452809,110.1],[-84.574084,10.452815,110.3],[-84.574078,10.452839,110.4],[-84.574091,10.452839,110.1],[-84.574098,10.452816,110.1],[-84.574112,10.452813,110.1],[-84.574131,10.452847,109.9],[-84.574131,10.452862,109.9],[-84.57414,10.452856,109.9],[-84.574126,10.452874,110.2],[-84.574125,10.452888,110.2],[-84.574158,10.452929,110],[-84.574146,10.452933,110],[-84.574147,10.452928,110],[-84.574149,10.452939,110],[-84.574163,10.452942,110],[-84.574151,10.452947,110],[-84.574158,10.452934,110],[-84.57414,10.452921,110],[-84.574204,10.452897,109.7],[-84.57421,10.452886,109.7],[-84.574268,10.452856,109],[-84.574305,10.452869,108.6],[-84.574298,10.45287,109],[-84.574313,10.452881,108.5],[-84.574331,10.452873,108.5],[-84.574324,10.452867,108.6],[-84.574318,10.452873,108.5],[-84.574318,10.452863,108.6],[-84.574312,10.45287,108.5],[-84.574318,10.452884,108.5],[-84.57431,10.45289,108.5],[-84.574312,10.452899,108.5],[-84.574279,10.452945,108.8],[-84.574311,10.452933,108.3],[-84.574289,10.452925,108.8],[-84.574312,10.452918,108.3],[-84.574309,10.452909,108.5],[-84.574285,10.452921,108.8],[-84.574311,10.452916,108.3],[-84.574338,10.452891,108.5],[-84.574353,10.452893,108.1],[-84.574383,10.452879,108.1],[-84.574402,10.452892,107.7],[-84.574391,10.452915,107.4],[-84.5744,10.452918,107.4],[-84.574394,10.452903,107.7],[-84.574402,10.452896,107.7],[-84.574377,10.452879,108.1],[-84.574345,10.452882,108.1],[-84.574368,10.452872,108.1],[-84.574416,10.452915,107.4],[-84.574455,10.452875,107.4],[-84.574445,10.452872,107.4],[-84.574447,10.452867,107.8],[-84.574416,10.452864,108],[-84.574424,10.45286,108],[-84.574413,10.452881,107.7],[-84.574435,10.452869,107.8],[-84.574429,10.452874,107.4],[-84.574432,10.452864,107.8],[-84.574442,10.452864,107.8],[-84.57444,10.452869,107.8],[-84.574502,10.452845,107.7],[-84.574476,10.452843,107.7],[-84.574484,10.45282,108.2],[-84.574507,10.452802,108.2],[-84.574555,10.452782,108.8],[-84.574507,10.452806,108.2],[-84.574515,10.452814,108.3],[-84.574498,10.452821,108.2],[-84.574513,10.452815,108.2],[-84.574506,10.452818,108.2],[-84.574522,10.452791,108.3],[-84.574514,10.452793,108.3],[-84.574525,10.452801,108.3],[-84.574497,10.452797,108.2],[-84.574502,10.452793,108.2],[-84.574493,10.452801,108.2],[-84.574493,10.452779,108.7],[-84.5745,10.45278,108.7],[-84.5745,10.452772,108.7],[-84.574506,10.452774,108.7],[-84.574549,10.452733,109.3],[-84.574563,10.452745,109],[-84.574539,10.452781,108.8],[-84.57455,10.452788,108.3],[-84.574539,10.452809,108.3],[-84.574511,10.452805,108.2],[-84.574518,10.452799,108.3],[-84.574513,10.452792,108.2],[-84.574516,10.452803,108.3],[-84.574547,10.452782,108.8],[-84.574557,10.452783,109],[-84.57455,10.452791,108.3],[-84.574562,10.452791,108.5],[-84.574552,10.452791,108.3],[-84.574548,10.4528,108.3],[-84.574557,10.452801,108.5],[-84.574556,10.452793,108.3],[-84.574569,10.452799,108.5],[-84.574579,10.452829,107.9],[-84.574605,10.452847,108.1],[-84.574613,10.452835,108.1],[-84.574617,10.45285,108.1],[-84.574612,10.452852,108.1],[-84.574616,10.452859,108.1],[-84.574593,10.452891,107.3],[-84.574593,10.452883,107.3],[-84.574511,10.452921,106.9],[-84.574468,10.452702,109],[-84.574514,10.45272,109.3],[-84.574517,10.45271,109.3],[-84.574505,10.452695,109.6],[-84.574515,10.452692,109.8],[-84.57449,10.452697,109.6],[-84.574501,10.452686,109.6],[-84.574498,10.452679,109.6],[-84.574515,10.452654,110.3],[-84.574518,10.45268,109.8],[-84.574506,10.452703,109.1],[-84.574512,10.452704,109.1],[-84.574501,10.452721,109.1],[-84.57448,10.452698,109.6],[-84.574475,10.452678,109.6],[-84.574517,10.452667,109.8],[-84.574501,10.452683,109.6],[-84.574516,10.452695,109.8],[-84.574531,10.452695,109.8],[-84.574531,10.452703,109.3],[-84.574534,10.452699,109.8],[-84.574514,10.452702,109.3],[-84.574535,10.452693,109.8],[-84.574523,10.452696,109.8],[-84.574533,10.452699,109.8],[-84.574545,10.452689,109.8],[-84.574527,10.452693,109.8],[-84.574555,10.452681,109.8],[-84.574577,10.452682,110.1],[-84.574566,10.452703,109.6],[-84.574487,10.452695,109.6],[-84.574535,10.452677,109.8],[-84.574553,10.45272,109.3],[-84.574534,10.452698,109.8],[-84.574529,10.452701,109.3],[-84.574542,10.452698,109.8],[-84.574549,10.452726,109.3],[-84.574542,10.452743,109.3],[-84.574523,10.452719,109.3],[-84.574527,10.452711,109.3],[-84.574536,10.452715,109.3],[-84.574515,10.452712,109.3],[-84.574502,10.452725,109.1],[-84.574453,10.452676,109.3],[-84.574497,10.452762,108.7],[-84.574501,10.452788,108.2],[-84.574459,10.452755,108.6],[-84.574401,10.452764,108.6],[-84.574414,10.452742,108.9],[-84.574464,10.452751,108.6],[-84.574482,10.452774,108.7],[-84.574472,10.452784,108.7],[-84.57448,10.452775,108.7],[-84.574457,10.452769,108.6],[-84.574496,10.452787,108.2],[-84.574462,10.452826,108.2],[-84.574464,10.45284,107.8],[-84.574473,10.452842,107.7],[-84.574468,10.452843,107.8],[-84.574472,10.452873,107.3],[-84.574467,10.452882,107.4],[-84.574476,10.452883,107.3],[-84.574475,10.452888,107.3],[-84.574473,10.452881,107.3],[-84.574479,10.452894,107.3],[-84.574488,10.452895,107.3],[-84.574522,10.45287,107.2],[-84.57452,10.452865,107.7],[-84.574579,10.452819,108.5],[-84.574572,10.452822,108.5],[-84.574578,10.452828,107.9],[-84.574617,10.452811,108.7],[-84.574654,10.452818,109],[-84.574644,10.452817,109],[-84.574651,10.452817,109],[-84.574654,10.452826,109],[-84.574649,10.452825,109],[-84.574666,10.452804,109],[-84.574679,10.452803,109],[-84.574668,10.4528,109],[-84.574693,10.452795,109.3],[-84.574688,10.452794,109.3],[-84.574702,10.452791,109.3],[-84.574675,10.452782,109.5],[-84.574701,10.452772,109.8],[-84.574682,10.452771,109.5],[-84.57468,10.452778,109.5],[-84.574647,10.452773,109.5],[-84.574642,10.452762,109.3],[-84.57468,10.45276,109.5],[-84.574685,10.452766,109.5],[-84.574756,10.452748,110],[-84.574751,10.452743,110.5],[-84.574821,10.452706,110.9],[-84.574844,10.452715,110.9],[-84.574904,10.452714,111.4],[-84.574892,10.452738,111.1],[-84.574918,10.452743,111.4],[-84.574919,10.452767,111],[-84.574866,10.452727,111.1],[-84.574815,10.452717,110.9],[-84.574791,10.452704,110.7],[-84.574832,10.452694,111.4],[-84.574819,10.45269,111.4],[-84.574827,10.452679,111.4],[-84.574823,10.45267,111.4],[-84.574831,10.452647,111.9],[-84.57489,10.452633,112.2],[-84.574922,10.452647,112.5],[-84.574956,10.452641,112.9],[-84.574975,10.45265,112.9],[-84.574992,10.452669,112.7],[-84.575032,10.452674,112.9],[-84.575053,10.452669,112.9],[-84.575057,10.452676,112.9],[-84.575073,10.452671,112.9],[-84.575087,10.452685,112.9],[-84.575093,10.452667,112.9],[-84.575079,10.452655,113.3],[-84.575086,10.45265,113.3],[-84.575081,10.452657,113.3],[-84.575088,10.452651,113.3],[-84.575079,10.452653,113.3],[-84.575086,10.452658,113.3],[-84.575074,10.452663,112.9],[-84.575088,10.452654,113.3],[-84.575104,10.452655,113.3],[-84.575109,10.452649,113.3],[-84.575108,10.452655,113.3],[-84.575126,10.452649,113.1],[-84.575145,10.452661,112.6],[-84.575137,10.452683,112.6],[-84.575119,10.452657,113.1],[-84.575128,10.452661,112.6],[-84.575125,10.452669,112.6],[-84.575139,10.452681,112.6],[-84.575142,10.452647,113.1],[-84.575165,10.452631,112.7],[-84.575159,10.452631,112.7],[-84.575163,10.452639,112.7],[-84.575168,10.452634,112.7],[-84.575155,10.452644,113.1],[-84.575172,10.45264,112.7],[-84.575245,10.452574,113.3],[-84.575281,10.452572,113.3],[-84.575274,10.452575,112.8],[-84.575284,10.452567,113.3],[-84.575289,10.452571,113.2],[-84.575271,10.452571,113.3],[-84.575266,10.45258,112.8],[-84.575239,10.452584,112.9],[-84.575219,10.452579,112.9],[-84.575226,10.452589,112.9],[-84.575215,10.452603,112.9],[-84.575227,10.452593,112.9],[-84.575231,10.4526,112.9],[-84.575271,10.452601,112.8],[-84.575269,10.452629,112.2],[-84.575297,10.452629,112.2],[-84.575302,10.452623,112.2],[-84.575297,10.452616,112.7],[-84.575313,10.452603,112.7],[-84.575298,10.452589,112.7],[-84.575278,10.452584,112.8],[-84.575294,10.452589,112.7],[-84.57528,10.452601,112.8],[-84.575284,10.452579,112.8],[-84.575334,10.452551,113.1],[-84.575354,10.452568,113.1],[-84.575367,10.452557,113.1],[-84.575341,10.45252,113.4],[-84.575335,10.452528,113.4],[-84.575299,10.452516,113.6],[-84.575314,10.452479,114],[-84.575325,10.452477,114],[-84.575318,10.452467,114],[-84.57533,10.452429,114],[-84.575312,10.45242,114.4],[-84.575321,10.452415,114.4],[-84.57532,10.452423,114.4],[-84.575357,10.452406,114],[-84.57537,10.452413,114],[-84.575411,10.452409,113.8],[-84.575399,10.452432,113.8],[-84.57534,10.452427,114],[-84.575335,10.452404,114.4],[-84.575309,10.452371,114.7],[-84.575312,10.452356,115],[-84.575269,10.452332,115.2],[-84.575268,10.452325,115.2],[-84.575277,10.452321,115.4],[-84.575277,10.452298,115.4],[-84.575289,10.452287,115.1],[-84.575296,10.452289,115.1],[-84.575288,10.452297,115.1],[-84.575319,10.452281,115.1],[-84.575348,10.452283,114.9],[-84.575469,10.452259,114],[-84.575467,10.452265,114],[-84.575486,10.452282,114],[-84.575489,10.452278,114],[-84.575458,10.452291,114],[-84.575453,10.452286,114.3],[-84.575464,10.452282,114],[-84.575463,10.452299,114],[-84.575427,10.452295,114.3],[-84.575421,10.452283,114.3],[-84.575441,10.452279,114.3],[-84.575448,10.452284,114.3],[-84.575442,10.452284,114.3],[-84.575471,10.452279,114],[-84.575471,10.452271,114],[-84.575473,10.452282,114],[-84.575502,10.452247,113.7],[-84.57553,10.45224,113.7],[-84.575542,10.452228,113.5],[-84.575602,10.45222,113.2],[-84.575586,10.452218,113.2],[-84.575595,10.452223,113.2],[-84.575628,10.452216,113.2],[-84.575609,10.45222,113.2],[-84.575631,10.452223,113.3],[-84.575651,10.452212,113.3],[-84.575612,10.452233,113.2],[-84.57562,10.452244,113.4],[-84.575619,10.452258,113.4],[-84.575604,10.452278,113.4],[-84.575591,10.452271,113.4],[-84.575594,10.452254,113.4],[-84.575587,10.452251,113.4],[-84.575602,10.452241,113.4],[-84.575599,10.452221,113.2],[-84.575618,10.452209,113.2],[-84.575632,10.452209,113.3],[-84.575625,10.452211,113.2],[-84.57564,10.452215,113.3],[-84.57566,10.452209,113.3],[-84.575652,10.45221,113.3],[-84.575659,10.452201,113.3],[-84.575699,10.452191,113.4],[-84.575706,10.452183,113.4],[-84.575732,10.452196,113.6],[-84.575765,10.452169,113.7],[-84.575747,10.452178,113.6],[-84.575744,10.452193,113.6],[-84.575759,10.452191,113.7],[-84.575758,10.452183,113.7],[-84.575767,10.452181,113.7],[-84.575761,10.452177,113.7],[-84.575791,10.452193,113.7],[-84.575779,10.452186,113.7],[-84.575788,10.452198,113.6],[-84.575799,10.452194,113.7],[-84.575803,10.452199,113.5],[-84.575816,10.452188,113.6],[-84.575809,10.452192,113.6],[-84.575813,10.452197,113.5],[-84.57581,10.452189,113.6],[-84.575814,10.452195,113.5],[-84.575808,10.452189,113.6],[-84.575803,10.452196,113.5],[-84.575793,10.452193,113.7],[-84.575788,10.452207,113.6],[-84.575835,10.452217,113.5],[-84.575901,10.452217,112.7],[-84.575878,10.452206,113.2],[-84.575917,10.452228,112.7],[-84.57598,10.452247,111.4],[-84.575941,10.45226,112.1],[-84.575975,10.452237,111.4],[-84.57597,10.452231,112.1],[-84.575965,10.452235,112.1],[-84.575971,10.452231,112.1],[-84.575994,10.452247,111.4],[-84.576008,10.452247,111.4],[-84.576017,10.452255,110.6],[-84.576045,10.452252,110.6],[-84.576054,10.452239,110.6],[-84.576043,10.452253,110.6],[-84.576028,10.452246,110.6],[-84.576023,10.452217,110.5],[-84.576036,10.452213,110.5],[-84.576049,10.452195,110.5],[-84.576055,10.452169,110.5],[-84.576048,10.452163,110.5],[-84.576126,10.452142,109.1],[-84.576175,10.452141,108.5],[-84.576232,10.452176,107.6],[-84.576268,10.452219,107.5],[-84.576258,10.45222,107.5],[-84.576294,10.452202,107.3],[-84.576278,10.452189,107.3],[-84.57629,10.452215,107.3],[-84.576297,10.452213,107.3],[-84.576292,10.452214,107.3],[-84.576302,10.452214,107.3],[-84.576324,10.452193,107.2],[-84.576335,10.45217,107.2],[-84.576368,10.452174,107.3],[-84.576384,10.452193,107.3],[-84.576425,10.452211,107.3],[-84.576447,10.452256,107.6],[-84.57646,10.452261,107.6],[-84.576445,10.452262,107.6],[-84.576481,10.452249,107.6],[-84.57649,10.452256,107.9],[-84.576471,10.45228,107.7],[-84.576482,10.452289,107.7],[-84.576504,10.452286,108],[-84.576495,10.45231,108],[-84.576468,10.452313,107.7],[-84.576465,10.452322,107.9],[-84.57646,10.452319,107.7],[-84.576467,10.452313,107.7],[-84.576474,10.452319,107.7],[-84.57649,10.452303,108],[-84.576498,10.452312,108],[-84.576501,10.452307,108],[-84.576555,10.452326,108.1],[-84.576568,10.452321,108.2],[-84.576561,10.452316,108.2],[-84.576608,10.452338,108.2],[-84.576619,10.452327,108.2],[-84.576603,10.452339,108.2],[-84.576605,10.452333,108.2],[-84.576586,10.452354,108.2],[-84.576585,10.452375,107.9],[-84.576577,10.45238,107.9],[-84.576582,10.452383,107.9],[-84.576592,10.452364,107.9],[-84.576581,10.45237,107.9],[-84.576596,10.452375,107.9],[-84.576594,10.45238,107.9],[-84.576611,10.452382,107.9],[-84.576603,10.452389,107.9],[-84.576608,10.452384,107.9],[-84.576609,10.452398,107.9],[-84.576625,10.452383,107.8],[-84.576614,10.452371,107.9],[-84.576608,10.452377,107.9],[-84.57662,10.452385,107.8],[-84.576603,10.452394,107.9],[-84.576582,10.452392,107.9],[-84.57658,10.4524,107.9],[-84.576559,10.452403,108],[-84.576564,10.452398,108],[-84.576549,10.452396,108],[-84.576554,10.452395,108],[-84.576553,10.452373,108],[-84.576559,10.452367,108],[-84.576575,10.452376,107.9],[-84.576597,10.452352,108.2],[-84.576592,10.452356,108.2],[-84.576598,10.452374,107.9],[-84.576613,10.452369,107.9],[-84.576607,10.452366,107.9],[-84.576609,10.452358,108.2],[-84.576591,10.452361,108.2],[-84.57658,10.452372,107.9],[-84.576585,10.452378,107.9],[-84.576586,10.452365,107.9],[-84.576599,10.452361,108.2],[-84.5766,10.45237,107.9],[-84.576638,10.452359,108.2],[-84.576638,10.452348,108.2],[-84.576646,10.452343,108.2],[-84.576628,10.45235,108.2],[-84.57664,10.452349,108.2],[-84.576634,10.452352,108.2],[-84.576644,10.452338,108.2],[-84.57667,10.452334,108.1],[-84.576668,10.452341,108.1],[-84.576687,10.452344,108.1],[-84.57669,10.452339,108.1],[-84.576678,10.452343,108.1],[-84.576679,10.452359,108.1],[-84.576671,10.452355,108.1],[-84.576663,10.452379,107.8],[-84.576656,10.452382,107.8],[-84.576659,10.452368,107.8],[-84.576668,10.452367,107.8],[-84.576686,10.452338,108.1],[-84.576722,10.452361,108],[-84.57673,10.452357,108],[-84.576723,10.45235,108],[-84.576745,10.452344,108],[-84.576718,10.452339,108],[-84.576736,10.452342,108],[-84.576724,10.452359,108],[-84.576728,10.452352,108],[-84.576763,10.452368,107.7],[-84.576781,10.452385,107.7],[-84.576785,10.452399,107.7],[-84.576757,10.452378,107.7],[-84.576758,10.452369,107.7],[-84.576771,10.452369,107.7],[-84.576761,10.452354,108],[-84.57679,10.452405,107.8],[-84.576784,10.452418,107.5],[-84.576796,10.452464,107.6],[-84.576821,10.45246,107.6],[-84.576822,10.452453,107.6],[-84.57685,10.452458,107.7],[-84.576866,10.452474,107.7],[-84.576864,10.452493,107.8],[-84.576912,10.452534,108.1],[-84.576907,10.452547,108.1],[-84.576917,10.452548,108.4],[-84.576935,10.452586,108.4],[-84.576929,10.452588,108.4],[-84.576934,10.452615,108.4],[-84.576918,10.452616,108.4],[-84.576928,10.45262,108.4],[-84.576929,10.452612,108.4],[-84.576917,10.452608,108.4],[-84.576937,10.452606,108.4],[-84.576933,10.4526,108.4],[-84.576936,10.452622,108.4],[-84.57692,10.452635,108.4],[-84.576942,10.452601,108.4],[-84.576931,10.452588,108.4],[-84.576923,10.452595,108.4],[-84.576907,10.452588,108.2],[-84.576857,10.452591,107.9],[-84.576826,10.452578,107.7],[-84.576814,10.452585,107.7],[-84.576775,10.452524,107.5],[-84.576761,10.452485,107.5],[-84.576766,10.452468,107.5],[-84.576759,10.452447,107.5],[-84.57679,10.452433,107.7],[-84.576795,10.452398,107.8],[-84.5768,10.452423,107.7],[-84.576824,10.452442,107.7],[-84.576828,10.452414,107.7],[-84.576826,10.452425,107.7],[-84.576826,10.452392,107.8],[-84.576812,10.452397,107.8],[-84.576811,10.452415,107.7],[-84.576815,10.452399,107.8],[-84.576798,10.452409,107.7],[-84.576766,10.452413,107.5],[-84.576766,10.452421,107.5],[-84.576739,10.452422,107.5],[-84.57675,10.452429,107.5],[-84.576747,10.452419,107.5],[-84.576734,10.452425,107.5],[-84.576715,10.452404,107.7],[-84.576644,10.452409,107.5],[-84.576647,10.452398,107.8],[-84.576624,10.452403,107.8],[-84.576627,10.452412,107.5],[-84.576619,10.452418,107.5],[-84.576571,10.452419,107.9],[-84.576554,10.452436,107.9],[-84.576553,10.452427,107.9],[-84.57652,10.452407,108.1],[-84.576512,10.452421,108.1],[-84.576468,10.45241,108.3],[-84.576421,10.452383,108.1],[-84.576417,10.45237,108.1],[-84.576387,10.452352,107.6],[-84.576372,10.452356,107.6],[-84.57637,10.452349,107.6],[-84.576353,10.452355,107.6],[-84.576344,10.452351,107.6],[-84.576341,10.452339,107.6],[-84.576308,10.452336,107.7],[-84.576308,10.45233,107.7],[-84.576297,10.452328,107.7],[-84.576317,10.452315,107.4],[-84.576326,10.4523,107.4],[-84.576321,10.452322,107.6],[-84.576251,10.452296,107.7],[-84.576215,10.45227,107.9],[-84.576196,10.45227,107.9],[-84.576193,10.452277,107.9],[-84.576216,10.452246,107.9],[-84.576174,10.452254,108.4],[-84.576145,10.452268,108.4],[-84.576126,10.452303,109.1],[-84.57613,10.4523,109.1],[-84.576125,10.452338,109.3],[-84.57607,10.452363,110],[-84.576017,10.452418,111.2],[-84.575984,10.452415,111.8],[-84.575979,10.452401,111.7],[-84.575938,10.452399,112.3],[-84.575935,10.452385,112.3],[-84.575937,10.452391,112.3],[-84.575916,10.45238,112.8],[-84.575922,10.45237,112.8],[-84.575902,10.452364,112.8],[-84.575909,10.452364,112.8],[-84.575902,10.452361,112.8],[-84.575914,10.452343,112.8],[-84.575895,10.452342,112.8],[-84.575874,10.45233,113.1],[-84.575871,10.452339,113.1],[-84.575827,10.452334,113.4],[-84.575836,10.452322,113.4],[-84.575795,10.452292,113.5],[-84.575807,10.452254,113.4],[-84.575784,10.452222,113.6],[-84.575788,10.452214,113.6],[-84.575766,10.452219,113.6],[-84.575742,10.452212,113.6],[-84.575746,10.45222,113.6],[-84.575701,10.45222,113.4],[-84.5757,10.452213,113.4],[-84.575691,10.452231,113.4],[-84.575663,10.452254,113.4],[-84.575664,10.452265,113.4],[-84.575647,10.452274,113.4],[-84.575639,10.45229,113.5],[-84.575653,10.452287,113.5],[-84.575614,10.45231,113.5],[-84.575585,10.452318,113.6],[-84.575562,10.452334,113.7],[-84.575525,10.452328,113.7],[-84.575502,10.452315,113.8],[-84.5755,10.452321,114],[-84.57551,10.452327,113.7],[-84.575505,10.452324,113.7],[-84.575478,10.452344,113.9],[-84.575457,10.452372,113.8],[-84.575415,10.452388,113.8],[-84.575371,10.452392,114.4],[-84.575371,10.452365,114.4],[-84.575399,10.45235,114.3],[-84.575408,10.45233,114.3],[-84.575426,10.452324,114.1],[-84.575402,10.452315,114.6],[-84.575381,10.452336,114.3],[-84.575388,10.452335,114.3],[-84.575405,10.452351,114.3],[-84.575401,10.452387,114.1],[-84.575421,10.452423,113.6],[-84.575414,10.452468,113.5],[-84.575422,10.452484,113.4],[-84.575411,10.45249,113.3],[-84.575411,10.452501,113.3],[-84.575441,10.452545,113.1],[-84.575436,10.452574,113.1],[-84.575414,10.452585,112.8],[-84.575411,10.452618,112.3],[-84.575398,10.452635,112.3],[-84.575396,10.452663,111.6],[-84.575403,10.452663,111.6],[-84.575402,10.452657,112.3],[-84.575394,10.452659,111.6],[-84.57539,10.452649,112.3],[-84.575357,10.452629,112.2],[-84.57532,10.452661,111.6],[-84.575323,10.452684,111.6],[-84.57529,10.452716,111],[-84.575252,10.452725,111.1],[-84.575245,10.452721,111.1],[-84.575222,10.452729,111.4],[-84.575205,10.452718,111.4],[-84.575209,10.452707,111.4],[-84.575197,10.452702,111.8],[-84.575206,10.452711,111.4],[-84.5752,10.452702,111.8],[-84.575207,10.452696,111.9],[-84.575202,10.4527,111.9],[-84.575216,10.452704,111.4],[-84.575206,10.452715,111.4],[-84.575222,10.452727,111.4],[-84.575201,10.452724,111.4],[-84.575178,10.452771,111.3],[-84.575162,10.452785,111.3],[-84.57509,10.452811,111.3],[-84.575078,10.452826,111.3],[-84.575045,10.452787,111.3],[-84.575,10.452785,111.7],[-84.574995,10.452794,111.2],[-84.574989,10.452791,111.2],[-84.574995,10.452789,111.2],[-84.574981,10.452776,111.3],[-84.57499,10.452776,111.7],[-84.57499,10.45277,111.7],[-84.574996,10.452784,111.7],[-84.574999,10.452779,111.7],[-84.57498,10.452773,111.3],[-84.57498,10.452661,112.4],[-84.574964,10.452691,112.4],[-84.574955,10.452693,112.4],[-84.57496,10.452711,111.8],[-84.574885,10.45275,110.7],[-84.574868,10.452771,110.7],[-84.57486,10.45277,110.7],[-84.574875,10.452767,110.7],[-84.574875,10.452756,110.7],[-84.574852,10.452767,110.4],[-84.574831,10.452746,110.4],[-84.574815,10.452752,110.4],[-84.574807,10.452747,110.2],[-84.574811,10.452742,110.7],[-84.574786,10.45276,110.2],[-84.574771,10.452753,110.2],[-84.574776,10.452745,110.2],[-84.574763,10.452744,110],[-84.574755,10.452716,110.5],[-84.57476,10.452716,110.5],[-84.574749,10.452709,110.5],[-84.574766,10.452666,111],[-84.574779,10.452665,111.2],[-84.574794,10.452645,111.7],[-84.57479,10.452657,111.7],[-84.574797,10.452659,111.2],[-84.574788,10.452658,111.7],[-84.574802,10.452641,111.7],[-84.574783,10.452623,111.7],[-84.574806,10.452597,112.2],[-84.574798,10.452578,112.2],[-84.574757,10.452541,112.3],[-84.574773,10.452538,112.6],[-84.574777,10.452584,112.2],[-84.574754,10.452644,111.5],[-84.574767,10.452639,111.5],[-84.574746,10.452647,111.5],[-84.574739,10.452642,111.5],[-84.574751,10.45263,111.5],[-84.574755,10.452613,111.9],[-84.574767,10.452609,111.9],[-84.574743,10.452624,111.5],[-84.57476,10.452612,111.9],[-84.574756,10.452606,111.9],[-84.574756,10.452615,111.9],[-84.574746,10.452614,111.9],[-84.574751,10.452613,111.9],[-84.574745,10.452624,111.5],[-84.574757,10.452623,111.5],[-84.574752,10.452627,111.5],[-84.574763,10.452624,111.5],[-84.574774,10.452656,111.7],[-84.574777,10.45265,111.7],[-84.574771,10.452655,111.7],[-84.57479,10.452609,112.2],[-84.574782,10.452609,112.2],[-84.574791,10.452599,112.2],[-84.574775,10.452587,112.2],[-84.574772,10.452592,112.2],[-84.574747,10.452588,111.9],[-84.574756,10.452612,111.9],[-84.574754,10.452605,111.9],[-84.574774,10.45263,111.7],[-84.574759,10.452614,111.9],[-84.574771,10.452607,112.2],[-84.574733,10.452594,111.9],[-84.574725,10.452597,111.7],[-84.574752,10.452603,111.9],[-84.574753,10.452589,111.9],[-84.574772,10.452596,112.2],[-84.574786,10.452589,112.2],[-84.57475,10.452592,111.9],[-84.574738,10.452574,112.3],[-84.574714,10.452569,111.9],[-84.574693,10.452577,111.7],[-84.574707,10.452585,111.7],[-84.574719,10.452581,111.7],[-84.574721,10.452566,111.9],[-84.574715,10.452584,111.7],[-84.574703,10.452593,111.7],[-84.574686,10.45257,111.9],[-84.574674,10.45257,111.6],[-84.574652,10.452522,111.8],[-84.574653,10.452438,112.2],[-84.574637,10.452406,111.9],[-84.574619,10.452414,111.9],[-84.574617,10.452427,111.9],[-84.574598,10.452445,111.7],[-84.574623,10.452439,111.9],[-84.574616,10.452446,111.9],[-84.574627,10.452435,111.9],[-84.574618,10.452433,111.9],[-84.574622,10.452428,111.9],[-84.574594,10.45242,111.7],[-84.57463,10.4524,112.1],[-84.57465,10.452399,112.4],[-84.574661,10.452406,112.2],[-84.574663,10.4524,112.4],[-84.574645,10.452399,112.4],[-84.574647,10.452406,112.2],[-84.574636,10.452397,112.1],[-84.574659,10.452402,112.4],[-84.574666,10.45241,112.2],[-84.57468,10.452372,112.4],[-84.574686,10.452377,112.8],[-84.574657,10.452379,112.4],[-84.574644,10.45239,112.4],[-84.574643,10.452382,112.4],[-84.574637,10.452398,112.1],[-84.574639,10.452375,112.1],[-84.574645,10.45239,112.4],[-84.57462,10.452397,112.1],[-84.57463,10.452378,112.1],[-84.574642,10.452376,112.1],[-84.574633,10.452376,112.1],[-84.574648,10.452393,112.4],[-84.574643,10.45239,112.4],[-84.57466,10.45237,112.4],[-84.574658,10.452363,112.7],[-84.574641,10.452369,112.1],[-84.574633,10.452399,112.1],[-84.574532,10.452415,111.5],[-84.574538,10.452398,111.5],[-84.57459,10.452382,111.8],[-84.574593,10.452403,111.8],[-84.574583,10.452421,111.7],[-84.574563,10.452435,111.7],[-84.574553,10.452423,111.5],[-84.574534,10.452456,111.4],[-84.574516,10.452459,111.4],[-84.574507,10.452446,111.3],[-84.574505,10.452418,111.3],[-84.574538,10.452409,111.5],[-84.574528,10.452405,111.5],[-84.574531,10.452399,111.5],[-84.574524,10.452402,111.5],[-84.57454,10.452413,111.5],[-84.574528,10.452416,111.5],[-84.574547,10.452415,111.5],[-84.574547,10.452407,111.5],[-84.574543,10.45242,111.5],[-84.57455,10.452408,111.5],[-84.574566,10.452433,111.7],[-84.57455,10.452453,111.4],[-84.574577,10.452442,111.7],[-84.574523,10.452461,111.4],[-84.574528,10.452459,111.4],[-84.574523,10.45247,111.4],[-84.574536,10.452467,111.4],[-84.5745,10.452473,111.3],[-84.574493,10.452463,111.3],[-84.574469,10.452464,111.1],[-84.574452,10.45245,111.1],[-84.574433,10.452458,111.1],[-84.574476,10.452433,111.3],[-84.574466,10.45242,111],[-84.574484,10.452448,111.3],[-84.574386,10.452519,110.6],[-84.574375,10.452516,110.3],[-84.574337,10.452531,110],[-84.574343,10.45253,110.3],[-84.574318,10.452524,110],[-84.574331,10.452524,110],[-84.574317,10.452521,110],[-84.574324,10.45254,109.9],[-84.574335,10.452537,109.9],[-84.574336,10.452529,110],[-84.574363,10.452523,110.3],[-84.574377,10.452489,110.4],[-84.574371,10.452471,110.4],[-84.574356,10.452468,110.4],[-84.574352,10.452475,110.4],[-84.574363,10.452482,110.4],[-84.574363,10.452491,110.3],[-84.574398,10.452479,110.8],[-84.574432,10.452444,111],[-84.574464,10.452431,111],[-84.574419,10.452425,110.7],[-84.574352,10.452445,110.2],[-84.574402,10.452434,110.7],[-84.574416,10.452439,110.7],[-84.574443,10.452427,111],[-84.574419,10.45244,110.7],[-84.574425,10.452441,110.7],[-84.574423,10.452447,110.7],[-84.574442,10.452438,111],[-84.574492,10.452453,111.3],[-84.574476,10.452478,111.3],[-84.574529,10.452449,111.4],[-84.574385,10.452441,110.7],[-84.574352,10.452446,110.2],[-84.574416,10.452472,110.8],[-84.574426,10.452489,110.8],[-84.574428,10.452481,111.1],[-84.574455,10.452473,111.1],[-84.574439,10.452491,110.9],[-84.574459,10.452449,111.1],[-84.574453,10.452455,111.1],[-84.574398,10.452457,110.8],[-84.574403,10.452451,110.8],[-84.574394,10.452476,110.8],[-84.574364,10.452501,110.3],[-84.574365,10.452495,110.3],[-84.574346,10.452509,110.3],[-84.574349,10.452535,110.1],[-84.574355,10.452537,110.1],[-84.574351,10.45254,110.1],[-84.574365,10.452537,110.1],[-84.574346,10.452535,110.1],[-84.574358,10.452525,110.3],[-84.574376,10.452528,110.3],[-84.574359,10.452525,110.3],[-84.574368,10.452529,110.3],[-84.574316,10.45253,110],[-84.574324,10.452527,110],[-84.574323,10.452534,109.9],[-84.574349,10.45253,110.3],[-84.574345,10.452539,110.1],[-84.574339,10.452521,110],[-84.574351,10.452512,110.3],[-84.574351,10.452538,110.1],[-84.574342,10.452542,110.1],[-84.574353,10.452545,110.1],[-84.574324,10.452528,110],[-84.574329,10.452537,109.9],[-84.574344,10.45254,110.1],[-84.574355,10.452555,110.1],[-84.574357,10.452536,110.1],[-84.574376,10.452528,110.3],[-84.574381,10.452504,110.3],[-84.574368,10.452502,110.3],[-84.574357,10.452535,110.1],[-84.574352,10.452533,110.1],[-84.574371,10.452533,110.1],[-84.574348,10.452551,110.1],[-84.574363,10.452566,110.1],[-84.574356,10.452547,110.1],[-84.574353,10.452553,110.1],[-84.574344,10.452551,110.1],[-84.574348,10.452554,110.1],[-84.574324,10.452562,109.9],[-84.574338,10.452555,109.9],[-84.574336,10.452514,110],[-84.574347,10.452495,110.3],[-84.574344,10.452489,110.4],[-84.57435,10.452494,110.3],[-84.574338,10.452462,110],[-84.574318,10.452466,110],[-84.574321,10.452476,110],[-84.574316,10.452478,110],[-84.574317,10.452473,110],[-84.574326,10.452484,110],[-84.574332,10.45248,110],[-84.574334,10.452443,109.6],[-84.574345,10.452421,110.2],[-84.574362,10.452424,110.2],[-84.574366,10.452409,110.2],[-84.5744,10.452375,110.4],[-84.574411,10.452403,110.4],[-84.574381,10.452391,109.8],[-84.574408,10.452377,110.4],[-84.574396,10.452399,110.4],[-84.574307,10.452449,110],[-84.574341,10.452435,109.6],[-84.574356,10.452442,110.2],[-84.574326,10.452431,109.6],[-84.574341,10.452445,109.6],[-84.574335,10.452463,110],[-84.574321,10.452461,110],[-84.574348,10.452462,110.4],[-84.574345,10.452448,110.4],[-84.574383,10.452463,110.4],[-84.574399,10.452446,110.7],[-84.574428,10.452438,111],[-84.574389,10.452466,110.8],[-84.574401,10.452461,110.8],[-84.574377,10.452438,110.2],[-84.574363,10.45244,110.2],[-84.574355,10.452457,110.4],[-84.574329,10.452476,110],[-84.574294,10.452475,109.5],[-84.574297,10.452426,109],[-84.5743,10.452457,110],[-84.574308,10.452466,110],[-84.574313,10.452459,110],[-84.574303,10.452452,110],[-84.574347,10.452437,110.2],[-84.574363,10.452414,110.2],[-84.574322,10.452442,109.6],[-84.574352,10.452439,110.2],[-84.574347,10.452425,110.2],[-84.574367,10.452389,109.8],[-84.574352,10.452373,109.8],[-84.574356,10.452355,109.1],[-84.57435,10.452339,109.1],[-84.574368,10.452324,109.1],[-84.574401,10.452337,109.9],[-84.574406,10.452353,109.9],[-84.5744,10.452361,109.9],[-84.574404,10.452374,110.4],[-84.574412,10.452368,110.4],[-84.57441,10.452359,109.9],[-84.574413,10.452372,110.4],[-84.57442,10.452372,110.4],[-84.574417,10.45238,110.4],[-84.574412,10.452366,110.4],[-84.5744,10.452367,110.4],[-84.574405,10.452362,109.9],[-84.574405,10.452367,110.4],[-84.574428,10.452366,110.8],[-84.574428,10.452382,110.8],[-84.574379,10.452362,109.1],[-84.574374,10.452348,109.1],[-84.574385,10.452335,109.9],[-84.574408,10.452327,109.9],[-84.574401,10.452331,109.9],[-84.574412,10.452321,109.4],[-84.574375,10.452305,108.5],[-84.574372,10.45231,108.5]]}}]}