{"type":"FeatureCollection","features":[{"type":"Feature","properties":{"name":"Entraînement","type":"tennis","time":"2025-11-05T19:36:31Z","coordTimes":["2025-11-05T19:36:31Z","2025-11-05T19:36:34Z","2025-11-05T19:36:38Z","2025-11-05T19:36:40Z","2025-11-05T19:36:44Z","2025-11-05T19:36:47Z","2025-11-05T19:36:49Z","2025-11-05T19:36:53Z","2025-11-05T19:36:58Z","2025-11-05T19:37:04Z","2025-11-05T19:37:06Z","2025-11-05T19:37:12Z","2025-11-05T19:37:16Z","2025-11-05T19:37:20Z","2025-11-05T19:37:23Z","2025-11-05T19:37:24Z","2025-11-05T19:37:25Z","2025-11-05T19:37:29Z","2025-11-05T19:37:31Z","2025-11-05T19:37:33Z","2025-11-05T19:37:34Z","2025-11-05T19:37:47Z","2025-11-05T19:37:52Z","2025-11-05T19:37:58Z","2025-11-05T19:38:05Z","2025-11-05T19:38:06Z","2025-11-05T19:38:09Z","2025-11-05T19:38:13Z","2025-11-05T19:38:14Z","2025-11-05T19:38:16Z","2025-11-05T19:38:17Z","2025-11-05T19:38:19Z","2025-11-05T19:38:20Z","2025-11-05T19:38:22Z","2025-11-05T19:38:24Z","2025-11-05T19:38:25Z","2025-11-05T19:38:26Z","2025-11-05T19:38:27Z","2025-11-05T19:38:28Z","2025-11-05T19:38:30Z","2025-11-05T19:38:31Z","2025-11-05T19:38:32Z","2025-11-05T19:38:34Z","2025-11-05T19:38:37Z","2025-11-05T19:38:38Z","2025-11-05T19:38:39Z","2025-11-05T19:38:42Z","2025-11-05T19:38:43Z","2025-11-05T19:38:44Z","2025-11-05T19:38:46Z","2025-11-05T19:38:47Z","2025-11-05T19:38:50Z","2025-11-05T19:38:53Z","2025-11-05T19:38:55Z","2025-11-05T19:38:56Z","2025-11-05T19:38:59Z","2025-11-05T19:39:00Z","2025-11-05T19:39:03Z","2025-11-05T19:39:04Z","2025-11-05T19:39:05Z","2025-11-05T19:39:06Z","2025-11-05T19:39:07Z","2025-11-05T19:39:08Z","2025-11-05T19:39:09Z","2025-11-05T19:39:13Z","2025-11-05T19:39:17Z","2025-11-05T19:39:18Z","2025-11-05T19:39:19Z","2025-11-05T19:39:20Z","2025-11-05T19:39:22Z","2025-11-05T19:39:23Z","2025-11-05T19:39:24Z","2025-11-05T19:39:26Z","2025-11-05T19:39:30Z","2025-11-05T19:39:31Z","2025-11-05T19:39:32Z","2025-11-05T19:39:35Z","2025-11-05T19:39:36Z","2025-11-05T19:39:39Z","2025-11-05T19:39:40Z","2025-11-05T19:39:41Z","2025-11-05T19:39:43Z","2025-11-05T19:39:45Z","2025-11-05T19:39:47Z","2025-11-05T19:39:49Z","2025-11-05T19:39:51Z","2025-11-05T19:40:01Z","2025-11-05T19:40:03Z","2025-11-05T19:40:04Z","2025-11-05T19:40:07Z","2025-11-05T19:40:08Z","2025-11-05T19:40:10Z","2025-11-05T19:40:11Z","2025-11-05T19:40:13Z","2025-11-05T19:40:16Z","2025-11-05T19:40:20Z","2025-11-05T19:40:23Z","2025-11-05T19:40:27Z","2025-11-05T19:40:29Z","2025-11-05T19:40:30Z","2025-11-05T19:40:31Z","2025-11-05T19:40:32Z","2025-11-05T19:40:35Z","2025-11-05T19:40:37Z","2025-11-05T19:40:38Z","2025-11-05T19:40:40Z","2025-11-05T19:40:42Z","2025-11-05T19:40:44Z","2025-11-05T19:40:45Z","2025-11-05T19:40:46Z","2025-11-05T19:40:48Z","2025-11-05T19:40:50Z","2025-11-05T19:40:53Z","2025-11-05T19:40:54Z","2025-11-05T19:40:55Z","2025-11-05T19:40:56Z","2025-11-05T19:40:57Z","2025-11-05T19:41:00Z","2025-11-05T19:41:01Z","2025-11-05T19:41:02Z","2025-11-05T19:41:03Z","2025-11-05T19:41:05Z","2025-11-05T19:41:06Z","2025-11-05T19:41:07Z","2025-11-05T19:41:08Z","2025-11-05T19:41:10Z","2025-11-05T19:41:12Z","2025-11-05T19:41:13Z","2025-11-05T19:41:16Z","2025-11-05T19:41:17Z","2025-11-05T19:41:20Z","2025-11-05T19:41:23Z","2025-11-05T19:41:24Z","2025-11-05T19:41:25Z","2025-11-05T19:41:26Z","2025-11-05T19:41:27Z","2025-11-05T19:41:28Z","2025-11-05T19:41:29Z","2025-11-05T19:41:30Z","2025-11-05T19:41:31Z","2025-11-05T19:41:33Z","2025-11-05T19:41:35Z","2025-11-05T19:41:38Z","2025-11-05T19:41:39Z","2025-11-05T19:41:40Z","2025-11-05T19:41:41Z","2025-11-05T19:41:42Z","2025-11-05T19:41:44Z","2025-11-05T19:41:45Z","2025-11-05T19:41:46Z","2025-11-05T19:41:48Z","2025-11-05T19:41:49Z","2025-11-05T19:41:50Z","2025-11-05T19:41:52Z","2025-11-05T19:41:54Z","2025-11-05T19:42:00Z","2025-11-05T19:42:03Z","2025-11-05T19:42:09Z","2025-11-05T19:42:11Z","2025-11-05T19:42:13Z","2025-11-05T19:42:18Z","2025-11-05T19:42:20Z","2025-11-05T19:42:21Z","2025-11-05T19:42:23Z","2025-11-05T19:42:26Z","2025-11-05T19:42:29Z","2025-11-05T19:42:30Z","2025-11-05T19:42:31Z","2025-11-05T19:42:34Z","2025-11-05T19:42:36Z","2025-11-05T19:42:39Z","2025-11-05T19:42:43Z","2025-11-05T19:42:44Z","2025-11-05T19:42:46Z","2025-11-05T19:42:47Z","2025-11-05T19:42:50Z","2025-11-05T19:42:52Z","2025-11-05T19:42:54Z","2025-11-05T19:43:00Z","2025-11-05T19:43:11Z","2025-11-05T19:43:14Z","2025-11-05T19:43:15Z","2025-11-05T19:43:16Z","2025-11-05T19:43:19Z","2025-11-05T19:43:20Z","2025-11-05T19:43:23Z","2025-11-05T19:43:24Z","2025-11-05T19:43:26Z","2025-11-05T19:43:28Z","2025-11-05T19:43:30Z","2025-11-05T19:43:33Z","2025-11-05T19:43:34Z","2025-11-05T19:43:35Z","2025-11-05T19:43:37Z","2025-11-05T19:43:38Z","2025-11-05T19:43:39Z","2025-11-05T19:43:40Z","2025-11-05T19:43:42Z","2025-11-05T19:43:43Z","2025-11-05T19:43:44Z","2025-11-05T19:43:45Z","2025-11-05T19:43:47Z","2025-11-05T19:43:48Z","2025-11-05T19:43:51Z","2025-11-05T19:43:54Z","2025-11-05T19:43:58Z","2025-11-05T19:44:01Z","2025-11-05T19:44:03Z","2025-11-05T19:44:04Z","2025-11-05T19:44:08Z","2025-11-05T19:44:09Z","2025-11-05T19:44:10Z","2025-11-05T19:44:12Z","2025-11-05T19:44:13Z","2025-11-05T19:44:16Z","2025-11-05T19:44:19Z","2025-11-05T19:44:20Z","2025-11-05T19:44:22Z","2025-11-05T19:44:23Z","2025-11-05T19:44:24Z","2025-11-05T19:44:27Z","2025-11-05T19:44:29Z","2025-11-05T19:44:30Z","2025-11-05T19:44:33Z","2025-11-05T19:44:34Z","2025-11-05T19:44:36Z","2025-11-05T19:44:38Z","2025-11-05T19:44:40Z","2025-11-05T19:44:41Z","2025-11-05T19:44:43Z","2025-11-05T19:44:47Z","2025-11-05T19:44:49Z","2025-11-05T19:44:51Z","2025-11-05T19:44:55Z","2025-11-05T19:44:57Z","2025-11-05T19:44:59Z","2025-11-05T19:45:01Z","2025-11-05T19:45:05Z","2025-11-05T19:45:07Z","2025-11-05T19:45:08Z","2025-11-05T19:45:10Z","2025-11-05T19:45:14Z","2025-11-05T19:45:15Z","2025-11-05T19:45:17Z","2025-11-05T19:45:20Z","2025-11-05T19:45:22Z","2025-11-05T19:45:23Z","2025-11-05T19:45:24Z","2025-11-05T19:45:26Z","2025-11-05T19:45:31Z","2025-11-05T19:45:33Z","2025-11-05T19:45:34Z","2025-11-05T19:45:35Z","2025-11-05T19:45:36Z","2025-11-05T19:45:37Z","2025-11-05T19:45:38Z","2025-11-05T19:45:39Z","2025-11-05T19:45:40Z","2025-11-05T19:45:42Z","2025-11-05T19:45:43Z","2025-11-05T19:45:44Z","2025-11-05T19:45:45Z","2025-11-05T19:45:47Z","2025-11-05T19:45:49Z","2025-11-05T19:45:52Z","2025-11-05T19:45:53Z","2025-11-05T19:45:54Z","2025-11-05T19:45:56Z","2025-11-05T19:45:57Z","2025-11-05T19:45:59Z","2025-11-05T19:46:01Z","2025-11-05T19:46:04Z","2025-11-05T19:46:05Z","2025-11-05T19:46:07Z","2025-11-05T19:46:10Z","2025-11-05T19:46:12Z","2025-11-05T19:46:15Z","2025-11-05T19:46:19Z","2025-11-05T19:46:21Z","2025-11-05T19:46:25Z","2025-11-05T19:46:26Z","2025-11-05T19:46:28Z","2025-11-05T19:46:31Z","2025-11-05T19:46:32Z","2025-11-05T19:46:33Z","2025-11-05T19:46:35Z","2025-11-05T19:46:36Z","2025-11-05T19:46:38Z","2025-11-05T19:46:39Z","2025-11-05T19:46:40Z","2025-11-05T19:46:42Z","2025-11-05T19:46:45Z","2025-11-05T19:46:46Z","2025-11-05T19:46:50Z","2025-11-05T19:46:51Z","2025-11-05T19:46:52Z","2025-11-05T19:46:54Z","2025-11-05T19:46:58Z","2025-11-05T19:47:02Z","2025-11-05T19:47:04Z","2025-11-05T19:47:08Z","2025-11-05T19:47:09Z","2025-11-05T19:47:10Z","2025-11-05T19:47:11Z","2025-11-05T19:47:14Z","2025-11-05T19:47:17Z","2025-11-05T19:47:18Z","2025-11-05T19:47:20Z","2025-11-05T19:47:22Z","2025-11-05T19:47:23Z","2025-11-05T19:47:24Z","2025-11-05T19:47:25Z","2025-11-05T19:47:26Z","2025-11-05T19:47:27Z","2025-11-05T19:47:28Z","2025-11-05T19:47:29Z","2025-11-05T19:47:31Z","2025-11-05T19:47:33Z","2025-11-05T19:47:34Z","2025-11-05T19:47:36Z","2025-11-05T19:47:37Z","2025-11-05T19:47:39Z","2025-11-05T19:47:40Z","2025-11-05T19:47:41Z","2025-11-05T19:47:43Z","2025-11-05T19:47:46Z","2025-11-05T19:47:47Z","2025-11-05T19:47:48Z","2025-11-05T19:47:51Z","2025-11-05T19:47:56Z","2025-11-05T19:47:59Z","2025-11-05T19:48:02Z","2025-11-05T19:48:03Z","2025-11-05T19:48:04Z","2025-11-05T19:48:05Z","2025-11-05T19:48:06Z","2025-11-05T19:48:08Z","2025-11-05T19:48:11Z","2025-11-05T19:48:13Z","2025-11-05T19:48:14Z","2025-11-05T19:48:16Z","2025-11-05T19:48:18Z","2025-11-05T19:48:21Z","2025-11-05T19:48:23Z","2025-11-05T19:48:24Z","2025-11-05T19:48:25Z","2025-11-05T19:48:26Z","2025-11-05T19:48:27Z","2025-11-05T19:48:28Z","2025-11-05T19:48:32Z","2025-11-05T19:48:34Z","2025-11-05T19:48:36Z","2025-11-05T19:48:38Z","2025-11-05T19:48:39Z","2025-11-05T19:48:40Z","2025-11-05T19:48:41Z","2025-11-05T19:48:43Z","2025-11-05T19:48:44Z","2025-11-05T19:48:48Z","2025-11-05T19:48:50Z","2025-11-05T19:48:51Z","2025-11-05T19:48:52Z","2025-11-05T19:48:53Z","2025-11-05T19:48:55Z","2025-11-05T19:48:56Z","2025-11-05T19:48:57Z","2025-11-05T19:48:58Z","2025-11-05T19:49:00Z","2025-11-05T19:49:02Z","2025-11-05T19:49:04Z","2025-11-05T19:49:07Z","2025-11-05T19:49:08Z","2025-11-05T19:49:10Z","2025-11-05T19:49:14Z","2025-11-05T19:49:16Z","2025-11-05T19:49:17Z","2025-11-05T19:49:18Z","2025-11-05T19:49:19Z","2025-11-05T19:49:22Z","2025-11-05T19:49:23Z","2025-11-05T19:49:26Z","2025-11-05T19:49:28Z","2025-11-05T19:49:30Z","2025-11-05T19:49:32Z","2025-11-05T19:49:36Z","2025-11-05T19:49:38Z","2025-11-05T19:49:41Z","2025-11-05T19:49:43Z","2025-11-05T19:49:44Z","2025-11-05T19:49:46Z","2025-11-05T19:49:47Z","2025-11-05T19:49:48Z","2025-11-05T19:49:49Z","2025-11-05T19:49:50Z","2025-11-05T19:49:51Z","2025-11-05T19:49:52Z","2025-11-05T19:49:54Z","2025-11-05T19:49:56Z","2025-11-05T19:49:58Z","2025-11-05T19:50:00Z","2025-11-05T19:50:01Z","2025-11-05T19:50:02Z","2025-11-05T19:50:03Z","2025-11-05T19:50:05Z","2025-11-05T19:50:06Z","2025-11-05T19:50:07Z","2025-11-05T19:50:08Z","2025-11-05T19:50:09Z","2025-11-05T19:50:10Z","2025-11-05T19:50:11Z","2025-11-05T19:50:13Z","2025-11-05T19:50:15Z","2025-11-05T19:50:16Z","2025-11-05T19:50:19Z","2025-11-05T19:50:22Z","2025-11-05T19:50:26Z","2025-11-05T19:50:27Z","2025-11-05T19:50:29Z","2025-11-05T19:50:31Z","2025-11-05T19:50:32Z","2025-11-05T19:50:34Z","2025-11-05T19:50:35Z","2025-11-05T19:50:36Z","2025-11-05T19:50:40Z","2025-11-05T19:50:41Z","2025-11-05T19:50:50Z","2025-11-05T19:50:51Z","2025-11-05T19:50:52Z","2025-11-05T19:50:53Z","2025-11-05T19:50:55Z","2025-11-05T19:50:59Z","2025-11-05T19:51:01Z","2025-11-05T19:51:03Z","2025-11-05T19:51:07Z","2025-11-05T19:51:10Z","2025-11-05T19:51:13Z","2025-11-05T19:51:16Z","2025-11-05T19:51:18Z","2025-11-05T19:51:20Z","2025-11-05T19:51:22Z","2025-11-05T19:51:25Z","2025-11-05T19:51:26Z","2025-11-05T19:51:40Z","2025-11-05T19:51:42Z","2025-11-05T19:51:45Z","2025-11-05T19:52:10Z","2025-11-05T19:52:27Z","2025-11-05T19:52:31Z","2025-11-05T19:52:36Z","2025-11-05T19:52:37Z","2025-11-05T19:52:40Z","2025-11-05T19:52:47Z","2025-11-05T19:52:50Z","2025-11-05T19:53:04Z","2025-11-05T19:53:33Z","2025-11-05T19:53:46Z","2025-11-05T19:53:51Z","2025-11-05T19:53:52Z","2025-11-05T19:53:55Z","2025-11-05T19:54:06Z","2025-11-05T19:54:19Z","2025-11-05T19:54:26Z","2025-11-05T19:54:40Z","2025-11-05T19:55:30Z","2025-11-05T19:55:45Z","2025-11-05T19:55:47Z","2025-11-05T19:55:54Z","2025-11-05T19:55:56Z","2025-11-05T19:56:03Z","2025-11-05T19:56:20Z","2025-11-05T19:56:26Z","2025-11-05T19:56:33Z","2025-11-05T19:56:44Z","2025-11-05T19:56:45Z","2025-11-05T19:56:46Z","2025-11-05T19:56:49Z","2025-11-05T19:56:54Z","2025-11-05T19:56:57Z","2025-11-05T19:57:01Z","2025-11-05T19:57:05Z","2025-11-05T19:57:11Z","2025-11-05T19:57:12Z","2025-11-05T19:57:15Z","2025-11-05T19:57:21Z","2025-11-05T19:57:42Z","2025-11-05T19:57:44Z","2025-11-05T19:57:46Z","2025-11-05T19:57:48Z","2025-11-05T19:57:51Z","2025-11-05T19:57:55Z","2025-11-05T19:57:56Z","2025-11-05T19:57:58Z","2025-11-05T19:57:59Z","2025-11-05T19:58:01Z","2025-11-05T19:58:02Z","2025-11-05T19:58:03Z","2025-11-05T19:58:04Z","2025-11-05T19:58:06Z","2025-11-05T19:58:07Z","2025-11-05T19:58:08Z","2025-11-05T19:58:10Z","2025-11-05T19:58:11Z","2025-11-05T19:58:12Z","2025-11-05T19:58:13Z","2025-11-05T19:58:14Z","2025-11-05T19:58:15Z","2025-11-05T19:58:16Z","2025-11-05T19:58:17Z","2025-11-05T19:58:18Z","2025-11-05T19:58:20Z","2025-11-05T19:58:22Z","2025-11-05T19:58:24Z","2025-11-05T19:58:25Z","2025-11-05T19:58:26Z","2025-11-05T19:58:28Z","2025-11-05T19:58:29Z","2025-11-05T19:58:31Z","2025-11-05T19:58:33Z","2025-11-05T19:58:37Z","2025-11-05T19:58:38Z","2025-11-05T19:58:39Z","2025-11-05T19:58:40Z","2025-11-05T19:58:42Z","2025-11-05T19:58:45Z","2025-11-05T19:58:49Z","2025-11-05T19:58:51Z","2025-11-05T19:58:52Z","2025-11-05T19:58:54Z","2025-11-05T19:58:57Z","2025-11-05T19:58:58Z","2025-11-05T19:58:59Z","2025-11-05T19:59:00Z","2025-11-05T19:59:03Z","2025-11-05T19:59:06Z","2025-11-05T19:59:07Z","2025-11-05T19:59:10Z","2025-11-05T19:59:11Z","2025-11-05T19:59:13Z","2025-11-05T19:59:16Z","2025-11-05T19:59:18Z","2025-11-05T19:59:23Z","2025-11-05T19:59:28Z","2025-11-05T19:59:32Z","2025-11-05T19:59:33Z","2025-11-05T19:59:34Z","2025-11-05T19:59:36Z","2025-11-05T19:59:39Z","2025-11-05T19:59:42Z","2025-11-05T19:59:45Z","2025-11-05T19:59:46Z","2025-11-05T19:59:50Z","2025-11-05T19:59:51Z","2025-11-05T19:59:52Z","2025-11-05T19:59:54Z","2025-11-05T19:59:55Z","2025-11-05T20:00:01Z","2025-11-05T20:00:02Z","2025-11-05T20:00:03Z","2025-11-05T20:00:06Z","2025-11-05T20:00:09Z","2025-11-05T20:00:12Z","2025-11-05T20:00:14Z","2025-11-05T20:00:16Z","2025-11-05T20:00:19Z","2025-11-05T20:00:22Z","2025-11-05T20:00:24Z","2025-11-05T20:00:27Z","2025-11-05T20:00:29Z","2025-11-05T20:00:30Z","2025-11-05T20:00:32Z","2025-11-05T20:00:35Z","2025-11-05T20:00:39Z","2025-11-05T20:00:41Z","2025-11-05T20:00:43Z","2025-11-05T20:00:44Z","2025-11-05T20:00:48Z","2025-11-05T20:00:50Z","2025-11-05T20:00:51Z","2025-11-05T20:00:52Z","2025-11-05T20:00:53Z","2025-11-05T20:00:56Z","2025-11-05T20:00:57Z","2025-11-05T20:01:00Z","2025-11-05T20:01:01Z","2025-11-05T20:01:05Z","2025-11-05T20:01:09Z","2025-11-05T20:01:11Z","2025-11-05T20:01:17Z","2025-11-05T20:01:19Z","2025-11-05T20:01:20Z","2025-11-05T20:01:23Z","2025-11-05T20:01:26Z","2025-11-05T20:01:28Z","2025-11-05T20:01:32Z","2025-11-05T20:01:37Z","2025-11-05T20:01:39Z","2025-11-05T20:01:40Z","2025-11-05T20:01:43Z","2025-11-05T20:01:44Z","2025-11-05T20:01:47Z","2025-11-05T20:01:48Z","2025-11-05T20:01:50Z","2025-11-05T20:01:54Z","2025-11-05T20:01:55Z","2025-11-05T20:01:59Z","2025-11-05T20:02:01Z","2025-11-05T20:02:02Z","2025-11-05T20:02:05Z","2025-11-05T20:02:06Z","2025-11-05T20:02:08Z","2025-11-05T20:02:12Z","2025-11-05T20:02:16Z","2025-11-05T20:02:17Z","2025-11-05T20:02:21Z","2025-11-05T20:02:22Z","2025-11-05T20:02:23Z","2025-11-05T20:02:26Z","2025-11-05T20:02:29Z","2025-11-05T20:02:31Z","2025-11-05T20:02:32Z","2025-11-05T20:02:35Z","2025-11-05T20:02:38Z","2025-11-05T20:02:39Z","2025-11-05T20:02:42Z","2025-11-05T20:02:44Z","2025-11-05T20:02:48Z","2025-11-05T20:02:51Z","2025-11-05T20:02:54Z","2025-11-05T20:02:55Z","2025-11-05T20:02:59Z","2025-11-05T20:03:02Z","2025-11-05T20:03:03Z","2025-11-05T20:03:05Z","2025-11-05T20:03:07Z","2025-11-05T20:03:12Z","2025-11-05T20:03:13Z","2025-11-05T20:03:16Z","2025-11-05T20:03:18Z","2025-11-05T20:03:19Z","2025-11-05T20:03:22Z","2025-11-05T20:03:25Z","2025-11-05T20:03:27Z","2025-11-05T20:03:28Z","2025-11-05T20:03:29Z","2025-11-05T20:03:31Z","2025-11-05T20:03:32Z","2025-11-05T20:03:33Z","2025-11-05T20:03:34Z","2025-11-05T20:03:35Z","2025-11-05T20:03:37Z","2025-11-05T20:03:40Z","2025-11-05T20:03:44Z","2025-11-05T20:03:48Z","2025-11-05T20:03:51Z","2025-11-05T20:03:55Z","2025-11-05T20:03:57Z","2025-11-05T20:03:59Z","2025-11-05T20:04:00Z","2025-11-05T20:04:03Z","2025-11-05T20:04:06Z","2025-11-05T20:04:09Z","2025-11-05T20:04:11Z","2025-11-05T20:04:13Z","2025-11-05T20:04:15Z","2025-11-05T20:04:18Z","2025-11-05T20:04:19Z","2025-11-05T20:04:21Z","2025-11-05T20:04:22Z","2025-11-05T20:04:25Z","2025-11-05T20:04:26Z","2025-11-05T20:04:27Z","2025-11-05T20:04:28Z","2025-11-05T20:04:30Z","2025-11-05T20:04:32Z","2025-11-05T20:04:33Z","2025-11-05T20:04:36Z","2025-11-05T20:04:44Z","2025-11-05T20:04:48Z","2025-11-05T20:04:50Z","2025-11-05T20:04:53Z","2025-11-05T20:04:54Z","2025-11-05T20:04:55Z","2025-11-05T20:04:57Z","2025-11-05T20:05:01Z","2025-11-05T20:05:04Z","2025-11-05T20:05:07Z","2025-11-05T20:05:09Z","2025-11-05T20:05:11Z","2025-11-05T20:05:14Z","2025-11-05T20:05:16Z","2025-11-05T20:05:18Z","2025-11-05T20:05:19Z","2025-11-05T20:05:20Z","2025-11-05T20:05:21Z","2025-11-05T20:05:22Z","2025-11-05T20:05:23Z","2025-11-05T20:05:25Z","2025-11-05T20:05:27Z","2025-11-05T20:05:30Z","2025-11-05T20:05:31Z","2025-11-05T20:05:32Z","2025-11-05T20:05:35Z","2025-11-05T20:05:38Z","2025-11-05T20:05:39Z","2025-11-05T20:05:40Z","2025-11-05T20:05:42Z","2025-11-05T20:05:43Z","2025-11-05T20:05:46Z","2025-11-05T20:05:47Z","2025-11-05T20:05:50Z","2025-11-05T20:05:55Z","2025-11-05T20:06:00Z","2025-11-05T20:06:02Z","2025-11-05T20:06:05Z","2025-11-05T20:06:09Z","2025-11-05T20:06:10Z","2025-11-05T20:06:11Z","2025-11-05T20:06:13Z","2025-11-05T20:06:14Z","2025-11-05T20:06:15Z","2025-11-05T20:06:16Z","2025-11-05T20:06:17Z","2025-11-05T20:06:18Z","2025-11-05T20:06:20Z","2025-11-05T20:06:22Z","2025-11-05T20:06:25Z","2025-11-05T20:06:28Z","2025-11-05T20:06:29Z","2025-11-05T20:06:30Z","2025-11-05T20:06:31Z","2025-11-05T20:06:35Z","2025-11-05T20:06:36Z","2025-11-05T20:06:42Z","2025-11-05T20:06:46Z","2025-11-05T20:06:47Z","2025-11-05T20:06:49Z","2025-11-05T20:06:51Z","2025-11-05T20:06:54Z","2025-11-05T20:06:57Z","2025-11-05T20:06:59Z","2025-11-05T20:07:02Z","2025-11-05T20:07:05Z","2025-11-05T20:07:06Z","2025-11-05T20:07:07Z","2025-11-05T20:07:10Z","2025-11-05T20:07:15Z","2025-11-05T20:07:17Z","2025-11-05T20:07:24Z","2025-11-05T20:07:25Z","2025-11-05T20:07:26Z","2025-11-05T20:07:36Z","2025-11-05T20:07:40Z","2025-11-05T20:07:44Z","2025-11-05T20:07:47Z","2025-11-05T20:08:48Z","2025-11-05T20:09:47Z","2025-11-05T20:10:11Z","2025-11-05T20:10:15Z","2025-11-05T20:10:18Z","2025-11-05T20:10:20Z","2025-11-05T20:10:21Z","2025-11-05T20:10:23Z","2025-11-05T20:10:25Z","2025-11-05T20:10:28Z","2025-11-05T20:10:30Z","2025-11-05T20:10:32Z","2025-11-05T20:10:33Z","2025-11-05T20:10:34Z","2025-11-05T20:10:39Z","2025-11-05T20:10:40Z","2025-11-05T20:11:04Z","2025-11-05T20:11:07Z","2025-11-05T20:11:09Z","2025-11-05T20:11:11Z","2025-11-05T20:11:13Z","2025-11-05T20:11:14Z","2025-11-05T20:11:16Z","2025-11-05T20:11:20Z","2025-11-05T20:11:21Z","2025-11-05T20:11:23Z","2025-11-05T20:11:25Z","2025-11-05T20:11:26Z","2025-11-05T20:11:31Z","2025-11-05T20:11:35Z","2025-11-05T20:11:36Z","2025-11-05T20:11:37Z","2025-11-05T20:11:40Z","2025-11-05T20:11:42Z","2025-11-05T20:11:47Z","2025-11-05T20:11:52Z","2025-11-05T20:11:54Z","2025-11-05T20:12:01Z","2025-11-05T20:12:03Z","2025-11-05T20:12:06Z","2025-11-05T20:12:08Z","2025-11-05T20:12:09Z","2025-11-05T20:12:10Z","2025-11-05T20:12:11Z","2025-11-05T20:12:13Z","2025-11-05T20:12:14Z","2025-11-05T20:12:17Z","2025-11-05T20:12:20Z","2025-11-05T20:12:22Z","2025-11-05T20:12:28Z","2025-11-05T20:12:39Z","2025-11-05T20:12:45Z","2025-11-05T20:12:50Z","2025-11-05T20:12:51Z","2025-11-05T20:12:52Z","2025-11-05T20:12:53Z","2025-11-05T20:12:54Z","2025-11-05T20:12:55Z","2025-11-05T20:12:56Z","2025-11-05T20:12:58Z","2025-11-05T20:12:59Z","2025-11-05T20:13:00Z","2025-11-05T20:13:04Z","2025-11-05T20:13:06Z","2025-11-05T20:13:07Z","2025-11-05T20:13:09Z","2025-11-05T20:13:11Z","2025-11-05T20:13:14Z","2025-11-05T20:13:17Z","2025-11-05T20:13:22Z","2025-11-05T20:13:25Z","2025-11-05T20:13:28Z","2025-11-05T20:13:30Z","2025-11-05T20:13:32Z","2025-11-05T20:13:44Z","2025-11-05T20:13:45Z","2025-11-05T20:13:49Z","2025-11-05T20:13:52Z","2025-11-05T20:13:53Z","2025-11-05T20:13:55Z","2025-11-05T20:13:56Z","2025-11-05T20:13:59Z","2025-11-05T20:14:00Z","2025-11-05T20:14:02Z","2025-11-05T20:14:04Z","2025-11-05T20:14:05Z","2025-11-05T20:14:09Z","2025-11-05T20:14:13Z","2025-11-05T20:14:14Z","2025-11-05T20:14:16Z","2025-11-05T20:14:21Z","2025-11-05T20:14:27Z","2025-11-05T20:14:28Z","2025-11-05T20:14:31Z","2025-11-05T20:14:32Z","2025-11-05T20:14:33Z","2025-11-05T20:14:34Z","2025-11-05T20:14:35Z","2025-11-05T20:14:40Z","2025-11-05T20:14:43Z","2025-11-05T20:14:46Z","2025-11-05T20:14:49Z","2025-11-05T20:14:51Z","2025-11-05T20:14:52Z","2025-11-05T20:14:54Z","2025-11-05T20:14:57Z","2025-11-05T20:14:58Z","2025-11-05T20:14:59Z","2025-11-05T20:15:00Z","2025-11-05T20:15:01Z","2025-11-05T20:15:03Z","2025-11-05T20:15:04Z","2025-11-05T20:15:06Z","2025-11-05T20:15:10Z","2025-11-05T20:15:13Z","2025-11-05T20:15:16Z","2025-11-05T20:15:19Z","2025-11-05T20:15:28Z","2025-11-05T20:15:37Z","2025-11-05T20:15:38Z","2025-11-05T20:15:41Z","2025-11-05T20:15:42Z","2025-11-05T20:15:43Z","2025-11-05T20:15:44Z","2025-11-05T20:15:45Z","2025-11-05T20:15:47Z","2025-11-05T20:15:49Z","2025-11-05T20:15:52Z","2025-11-05T20:15:58Z","2025-11-05T20:16:05Z","2025-11-05T20:16:08Z","2025-11-05T20:16:10Z","2025-11-05T20:16:11Z","2025-11-05T20:16:12Z","2025-11-05T20:16:14Z","2025-11-05T20:16:19Z","2025-11-05T20:16:34Z","2025-11-05T20:16:35Z","2025-11-05T20:16:39Z","2025-11-05T20:16:42Z","2025-11-05T20:16:43Z","2025-11-05T20:16:47Z","2025-11-05T20:16:48Z","2025-11-05T20:16:50Z","2025-11-05T20:16:57Z","2025-11-05T20:16:59Z","2025-11-05T20:17:06Z","2025-11-05T20:17:11Z","2025-11-05T20:17:13Z","2025-11-05T20:17:14Z","2025-11-05T20:17:15Z","2025-11-05T20:17:16Z","2025-11-05T20:17:17Z","2025-11-05T20:17:20Z","2025-11-05T20:17:22Z","2025-11-05T20:17:23Z","2025-11-05T20:17:24Z","2025-11-05T20:17:25Z","2025-11-05T20:17:29Z","2025-11-05T20:17:35Z","2025-11-05T20:17:39Z","2025-11-05T20:17:40Z","2025-11-05T20:17:41Z","2025-11-05T20:17:56Z","2025-11-05T20:17:57Z","2025-11-05T20:18:01Z","2025-11-05T20:18:05Z","2025-11-05T20:18:07Z","2025-11-05T20:18:08Z","2025-11-05T20:18:09Z","2025-11-05T20:18:10Z","2025-11-05T20:18:12Z","2025-11-05T20:18:17Z","2025-11-05T20:18:22Z","2025-11-05T20:18:26Z","2025-11-05T20:18:28Z","2025-11-05T20:18:29Z","2025-11-05T20:18:31Z","2025-11-05T20:18:32Z","2025-11-05T20:18:35Z","2025-11-05T20:18:36Z","2025-11-05T20:18:39Z","2025-11-05T20:18:41Z","2025-11-05T20:18:44Z","2025-11-05T20:18:45Z","2025-11-05T20:18:46Z","2025-11-05T20:18:48Z","2025-11-05T20:18:50Z","2025-11-05T20:18:52Z","2025-11-05T20:18:56Z","2025-11-05T20:18:58Z","2025-11-05T20:19:01Z","2025-11-05T20:19:02Z","2025-11-05T20:19:03Z","2025-11-05T20:19:04Z","2025-11-05T20:19:05Z","2025-11-05T20:19:06Z","2025-11-05T20:19:07Z","2025-11-05T20:19:09Z","2025-11-05T20:19:12Z","2025-11-05T20:19:17Z","2025-11-05T20:19:28Z","2025-11-05T20:19:35Z","2025-11-05T20:19:38Z","2025-11-05T20:19:40Z","2025-11-05T20:19:43Z","2025-11-05T20:19:48Z","2025-11-05T20:19:49Z","2025-11-05T20:19:51Z","2025-11-05T20:19:53Z","2025-11-05T20:20:00Z","2025-11-05T20:20:03Z","2025-11-05T20:20:07Z","2025-11-05T20:20:11Z","2025-11-05T20:20:12Z","2025-11-05T20:20:14Z","2025-11-05T20:20:15Z","2025-11-05T20:20:16Z","2025-11-05T20:20:17Z","2025-11-05T20:20:18Z","2025-11-05T20:20:21Z","2025-11-05T20:20:22Z","2025-11-05T20:20:25Z","2025-11-05T20:20:28Z","2025-11-05T20:20:31Z","2025-11-05T20:20:36Z","2025-11-05T20:20:39Z","2025-11-05T20:20:40Z","2025-11-05T20:20:41Z","2025-11-05T20:20:42Z","2025-11-05T20:20:43Z","2025-11-05T20:20:44Z","2025-11-05T20:20:45Z","2025-11-05T20:20:46Z","2025-11-05T20:20:47Z","2025-11-05T20:20:48Z","2025-11-05T20:20:50Z","2025-11-05T20:20:54Z","2025-11-05T20:20:57Z","2025-11-05T20:21:00Z","2025-11-05T20:21:01Z","2025-11-05T20:21:05Z","2025-11-05T20:21:08Z","2025-11-05T20:21:10Z","2025-11-05T20:21:12Z","2025-11-05T20:21:16Z","2025-11-05T20:21:27Z","2025-11-05T20:21:28Z","2025-11-05T20:21:32Z","2025-11-05T20:21:34Z","2025-11-05T20:21:35Z","2025-11-05T20:21:36Z","2025-11-05T20:21:38Z","2025-11-05T20:21:40Z","2025-11-05T20:21:42Z","2025-11-05T20:21:46Z","2025-11-05T20:21:48Z","2025-11-05T20:21:52Z","2025-11-05T20:21:55Z","2025-11-05T20:21:57Z","2025-11-05T20:21:59Z","2025-11-05T20:22:03Z","2025-11-05T20:22:06Z","2025-11-05T20:22:08Z","2025-11-05T20:22:10Z","2025-11-05T20:22:12Z","2025-11-05T20:22:16Z","2025-11-05T20:22:17Z","2025-11-05T20:22:25Z","2025-11-05T20:22:27Z","2025-11-05T20:22:28Z","2025-11-05T20:22:31Z","2025-11-05T20:22:37Z","2025-11-05T20:22:39Z","2025-11-05T20:22:41Z","2025-11-05T20:22:44Z","2025-11-05T20:22:45Z","2025-11-05T20:22:46Z","2025-11-05T20:22:48Z","2025-11-05T20:22:55Z","2025-11-05T20:23:00Z","2025-11-05T20:23:01Z","2025-11-05T20:23:03Z","2025-11-05T20:23:06Z","2025-11-05T20:23:09Z","2025-11-05T20:23:10Z","2025-11-05T20:23:13Z","2025-11-05T20:23:19Z","2025-11-05T20:23:22Z","2025-11-05T20:23:23Z","2025-11-05T20:23:25Z","2025-11-05T20:23:26Z","2025-11-05T20:23:31Z","2025-11-05T20:23:32Z","2025-11-05T20:23:38Z","2025-11-05T20:23:45Z","2025-11-05T20:23:48Z","2025-11-05T20:23:50Z","2025-11-05T20:23:53Z","2025-11-05T20:23:56Z","2025-11-05T20:24:00Z","2025-11-05T20:24:05Z","2025-11-05T20:24:06Z","2025-11-05T20:24:08Z","2025-11-05T20:24:11Z","2025-11-05T20:24:12Z","2025-11-05T20:24:13Z","2025-11-05T20:24:14Z","2025-11-05T20:24:16Z","2025-11-05T20:24:17Z","2025-11-05T20:24:18Z","2025-11-05T20:24:19Z","2025-11-05T20:24:23Z","2025-11-05T20:24:27Z","2025-11-05T20:24:33Z","2025-11-05T20:24:59Z","2025-11-05T20:25:01Z","2025-11-05T20:25:03Z","2025-11-05T20:25:04Z","2025-11-05T20:25:05Z","2025-11-05T20:25:06Z","2025-11-05T20:25:09Z","2025-11-05T20:25:13Z","2025-11-05T20:25:14Z","2025-11-05T20:25:15Z","2025-11-05T20:25:16Z","2025-11-05T20:25:17Z","2025-11-05T20:25:18Z","2025-11-05T20:25:19Z","2025-11-05T20:25:20Z","2025-11-05T20:25:23Z","2025-11-05T20:25:24Z","2025-11-05T20:25:25Z","2025-11-05T20:25:28Z","2025-11-05T20:25:30Z","2025-11-05T20:25:32Z","2025-11-05T20:25:35Z","2025-11-05T20:25:41Z","2025-11-05T20:25:43Z","2025-11-05T20:25:44Z","2025-11-05T20:25:49Z","2025-11-05T20:25:51Z","2025-11-05T20:25:53Z","2025-11-05T20:25:56Z","2025-11-05T20:25:58Z","2025-11-05T20:26:01Z","2025-11-05T20:26:07Z","2025-11-05T20:26:08Z","2025-11-05T20:26:11Z","2025-11-05T20:26:13Z","2025-11-05T20:26:14Z","2025-11-05T20:26:15Z","2025-11-05T20:26:16Z","2025-11-05T20:26:17Z","2025-11-05T20:26:23Z","2025-11-05T20:26:24Z","2025-11-05T20:26:25Z","2025-11-05T20:26:28Z","2025-11-05T20:26:29Z","2025-11-05T20:26:30Z","2025-11-05T20:26:34Z","2025-11-05T20:26:45Z","2025-11-05T20:26:52Z","2025-11-05T20:26:53Z","2025-11-05T20:26:56Z","2025-11-05T20:26:57Z","2025-11-05T20:26:59Z","2025-11-05T20:27:01Z","2025-11-05T20:27:03Z","2025-11-05T20:27:04Z","2025-11-05T20:27:05Z","2025-11-05T20:27:06Z","2025-11-05T20:27:07Z","2025-11-05T20:27:08Z","2025-11-05T20:27:10Z","2025-11-05T20:27:11Z","2025-11-05T20:27:13Z","2025-11-05T20:27:14Z","2025-11-05T20:27:16Z","2025-11-05T20:27:17Z","2025-11-05T20:27:18Z","2025-11-05T20:27:19Z","2025-11-05T20:27:20Z","2025-11-05T20:27:21Z","2025-11-05T20:27:22Z","2025-11-05T20:27:23Z","2025-11-05T20:27:26Z","2025-11-05T20:27:29Z","2025-11-05T20:27:41Z","2025-11-05T20:27:43Z","2025-11-05T20:27:46Z","2025-11-05T20:27:54Z","2025-11-05T20:28:00Z","2025-11-05T20:28:06Z","2025-11-05T20:28:07Z","2025-11-05T20:28:11Z","2025-11-05T20:28:14Z","2025-11-05T20:28:16Z","2025-11-05T20:28:17Z","2025-11-05T20:28:18Z","2025-11-05T20:28:19Z","2025-11-05T20:28:20Z","2025-11-05T20:28:22Z","2025-11-05T20:28:27Z","2025-11-05T20:28:35Z","2025-11-05T20:28:37Z","2025-11-05T20:28:56Z","2025-11-05T20:28:57Z","2025-11-05T20:28:59Z","2025-11-05T20:29:02Z","2025-11-05T20:29:05Z","2025-11-05T20:29:08Z","2025-11-05T20:29:09Z","2025-11-05T20:29:10Z","2025-11-05T20:29:14Z","2025-11-05T20:29:18Z","2025-11-05T20:29:19Z","2025-11-05T20:29:20Z","2025-11-05T20:29:21Z","2025-11-05T20:29:22Z","2025-11-05T20:29:23Z","2025-11-05T20:29:28Z","2025-11-05T20:29:31Z","2025-11-05T20:29:33Z","2025-11-05T20:29:34Z","2025-11-05T20:29:36Z","2025-11-05T20:29:39Z","2025-11-05T20:29:41Z","2025-11-05T20:29:45Z","2025-11-05T20:29:49Z","2025-11-05T20:29:53Z","2025-11-05T20:29:55Z","2025-11-05T20:29:56Z","2025-11-05T20:29:58Z","2025-11-05T20:30:00Z","2025-11-05T20:30:03Z","2025-11-05T20:30:04Z","2025-11-05T20:30:05Z","2025-11-05T20:30:07Z","2025-11-05T20:30:08Z","2025-11-05T20:30:10Z","2025-11-05T20:30:11Z","2025-11-05T20:30:12Z","2025-11-05T20:30:13Z","2025-11-05T20:30:14Z","2025-11-05T20:30:16Z","2025-11-05T20:30:17Z","2025-11-05T20:30:18Z","2025-11-05T20:30:21Z","2025-11-05T20:30:22Z","2025-11-05T20:30:24Z","2025-11-05T20:30:52Z","2025-11-05T20:30:55Z","2025-11-05T20:30:57Z","2025-11-05T20:30:58Z","2025-11-05T20:31:01Z","2025-11-05T20:31:03Z","2025-11-05T20:31:04Z","2025-11-05T20:31:05Z","2025-11-05T20:31:06Z","2025-11-05T20:31:08Z","2025-11-05T20:31:10Z","2025-11-05T20:31:13Z","2025-11-05T20:31:14Z","2025-11-05T20:31:16Z","2025-11-05T20:31:17Z","2025-11-05T20:31:18Z","2025-11-05T20:31:19Z","2025-11-05T20:31:20Z","2025-11-05T20:31:21Z","2025-11-05T20:31:22Z","2025-11-05T20:31:24Z","2025-11-05T20:31:28Z","2025-11-05T20:31:33Z","2025-11-05T20:31:36Z","2025-11-05T20:31:37Z","2025-11-05T20:31:47Z","2025-11-05T20:31:53Z","2025-11-05T20:31:57Z","2025-11-05T20:31:58Z","2025-11-05T20:32:01Z","2025-11-05T20:32:03Z","2025-11-05T20:32:07Z","2025-11-05T20:32:08Z","2025-11-05T20:32:10Z","2025-11-05T20:32:11Z","2025-11-05T20:32:12Z","2025-11-05T20:32:14Z","2025-11-05T20:32:16Z","2025-11-05T20:32:20Z","2025-11-05T20:32:22Z","2025-11-05T20:32:25Z","2025-11-05T20:32:26Z","2025-11-05T20:32:27Z","2025-11-05T20:32:30Z","2025-11-05T20:32:33Z","2025-11-05T20:32:34Z","2025-11-05T20:32:36Z","2025-11-05T20:32:38Z","2025-11-05T20:32:41Z","2025-11-05T20:32:45Z","2025-11-05T20:32:46Z","2025-11-05T20:32:48Z","2025-11-05T20:32:49Z","2025-11-05T20:32:51Z","2025-11-05T20:32:52Z","2025-11-05T20:32:54Z","2025-11-05T20:32:55Z","2025-11-05T20:32:57Z","2025-11-05T20:33:00Z","2025-11-05T20:33:01Z","2025-11-05T20:33:04Z","2025-11-05T20:33:05Z","2025-11-05T20:33:09Z","2025-11-05T20:33:10Z","2025-11-05T20:33:12Z","2025-11-05T20:33:14Z","2025-11-05T20:33:19Z","2025-11-05T20:33:22Z","2025-11-05T20:33:25Z","2025-11-05T20:33:26Z","2025-11-05T20:33:34Z","2025-11-05T20:34:29Z","2025-11-05T20:34:30Z","2025-11-05T20:34:33Z","2025-11-05T20:34:40Z","2025-11-05T20:34:42Z","2025-11-05T20:34:44Z","2025-11-05T20:34:51Z","2025-11-05T20:35:00Z","2025-11-05T20:35:03Z","2025-11-05T20:35:05Z","2025-11-05T20:35:08Z","2025-11-05T20:35:10Z","2025-11-05T20:35:13Z","2025-11-05T20:35:15Z","2025-11-05T20:35:18Z","2025-11-05T20:35:19Z","2025-11-05T20:35:21Z","2025-11-05T20:35:25Z","2025-11-05T20:35:27Z","2025-11-05T20:35:29Z","2025-11-05T20:35:30Z","2025-11-05T20:35:31Z","2025-11-05T20:35:33Z","2025-11-05T20:35:35Z","2025-11-05T20:35:36Z","2025-11-05T20:35:38Z","2025-11-05T20:35:39Z","2025-11-05T20:35:41Z","2025-11-05T20:35:43Z","2025-11-05T20:35:46Z","2025-11-05T20:35:50Z","2025-11-05T20:35:52Z","2025-11-05T20:35:55Z","2025-11-05T20:35:58Z","2025-11-05T20:36:01Z","2025-11-05T20:36:02Z","2025-11-05T20:36:05Z","2025-11-05T20:36:06Z","2025-11-05T20:36:09Z","2025-11-05T20:36:12Z","2025-11-05T20:36:19Z","2025-11-05T20:36:28Z","2025-11-05T20:36:33Z","2025-11-05T20:36:35Z","2025-11-05T20:36:36Z","2025-11-05T20:36:38Z","2025-11-05T20:36:40Z","2025-11-05T20:36:42Z","2025-11-05T20:36:43Z","2025-11-05T20:36:46Z","2025-11-05T20:36:48Z","2025-11-05T20:36:51Z","2025-11-05T20:36:57Z","2025-11-05T20:36:59Z","2025-11-05T20:37:01Z","2025-11-05T20:37:04Z","2025-11-05T20:37:06Z","2025-11-05T20:37:07Z","2025-11-05T20:37:08Z","2025-11-05T20:37:09Z","2025-11-05T20:37:11Z","2025-11-05T20:37:12Z","2025-11-05T20:37:13Z","2025-11-05T20:37:14Z","2025-11-05T20:37:17Z","2025-11-05T20:37:18Z","2025-11-05T20:37:20Z","2025-11-05T20:37:21Z","2025-11-05T20:37:22Z","2025-11-05T20:37:38Z","2025-11-05T20:37:41Z","2025-11-05T20:37:43Z","2025-11-05T20:37:47Z","2025-11-05T20:37:49Z","2025-11-05T20:37:52Z","2025-11-05T20:37:55Z","2025-11-05T20:37:56Z","2025-11-05T20:37:58Z","2025-11-05T20:37:59Z","2025-11-05T20:38:00Z","2025-11-05T20:38:02Z","2025-11-05T20:38:06Z","2025-11-05T20:38:10Z","2025-11-05T20:38:11Z","2025-11-05T20:38:12Z","2025-11-05T20:38:13Z","2025-11-05T20:38:15Z","2025-11-05T20:38:20Z","2025-11-05T20:38:22Z","2025-11-05T20:38:23Z","2025-11-05T20:38:24Z","2025-11-05T20:38:25Z","2025-11-05T20:38:26Z","2025-11-05T20:38:27Z","2025-11-05T20:38:29Z","2025-11-05T20:38:31Z","2025-11-05T20:38:34Z","2025-11-05T20:38:36Z","2025-11-05T20:38:37Z","2025-11-05T20:38:44Z","2025-11-05T20:38:51Z","2025-11-05T20:38:53Z","2025-11-05T20:38:56Z","2025-11-05T20:38:58Z","2025-11-05T20:39:00Z","2025-11-05T20:39:07Z","2025-11-05T20:39:08Z","2025-11-05T20:39:12Z","2025-11-05T20:39:13Z","2025-11-05T20:39:15Z","2025-11-05T20:39:16Z","2025-11-05T20:39:17Z","2025-11-05T20:39:18Z","2025-11-05T20:39:19Z","2025-11-05T20:39:22Z","2025-11-05T20:39:24Z","2025-11-05T20:39:28Z","2025-11-05T20:39:33Z","2025-11-05T20:39:35Z","2025-11-05T20:39:37Z","2025-11-05T20:39:39Z","2025-11-05T20:39:40Z","2025-11-05T20:39:45Z","2025-11-05T20:39:46Z","2025-11-05T20:39:48Z","2025-11-05T20:39:49Z","2025-11-05T20:39:50Z","2025-11-05T20:39:52Z","2025-11-05T20:39:54Z","2025-11-05T20:39:55Z","2025-11-05T20:39:57Z","2025-11-05T20:40:04Z","2025-11-05T20:40:09Z","2025-11-05T20:40:10Z","2025-11-05T20:40:11Z","2025-11-05T20:40:12Z","2025-11-05T20:40:14Z","2025-11-05T20:40:15Z","2025-11-05T20:40:18Z","2025-11-05T20:40:20Z","2025-11-05T20:40:22Z","2025-11-05T20:40:24Z","2025-11-05T20:40:29Z","2025-11-05T20:40:30Z","2025-11-05T20:40:34Z","2025-11-05T20:40:36Z","2025-11-05T20:40:38Z","2025-11-05T20:40:39Z","2025-11-05T20:40:43Z","2025-11-05T20:40:44Z","2025-11-05T20:40:50Z","2025-11-05T20:40:52Z","2025-11-05T20:40:57Z","2025-11-05T20:41:01Z","2025-11-05T20:41:02Z","2025-11-05T20:41:05Z","2025-11-05T20:41:08Z","2025-11-05T20:41:09Z","2025-11-05T20:41:10Z","2025-11-05T20:41:12Z","2025-11-05T20:41:14Z","2025-11-05T20:41:15Z","2025-11-05T20:41:16Z","2025-11-05T20:41:17Z","2025-11-05T20:41:18Z","2025-11-05T20:41:19Z","2025-11-05T20:41:21Z","2025-11-05T20:41:27Z","2025-11-05T20:41:30Z","2025-11-05T20:41:34Z","2025-11-05T20:41:37Z","2025-11-05T20:41:38Z","2025-11-05T20:41:39Z","2025-11-05T20:41:42Z","2025-11-05T20:41:52Z","2025-11-05T20:41:54Z","2025-11-05T20:41:55Z","2025-11-05T20:41:58Z","2025-11-05T20:42:03Z","2025-11-05T20:42:05Z","2025-11-05T20:42:06Z","2025-11-05T20:42:07Z","2025-11-05T20:42:09Z","2025-11-05T20:42:12Z","2025-11-05T20:42:13Z","2025-11-05T20:42:18Z","2025-11-05T20:42:29Z","2025-11-05T20:42:30Z","2025-11-05T20:42:31Z","2025-11-05T20:42:33Z","2025-11-05T20:42:35Z","2025-11-05T20:42:37Z","2025-11-05T20:42:38Z","2025-11-05T20:42:40Z","2025-11-05T20:42:41Z","2025-11-05T20:42:42Z","2025-11-05T20:42:43Z","2025-11-05T20:42:45Z","2025-11-05T20:42:46Z","2025-11-05T20:42:47Z","2025-11-05T20:42:53Z","2025-11-05T20:42:54Z","2025-11-05T20:42:56Z","2025-11-05T20:42:59Z","2025-11-05T20:43:02Z","2025-11-05T20:43:03Z","2025-11-05T20:43:05Z","2025-11-05T20:43:08Z","2025-11-05T20:43:16Z","2025-11-05T20:43:22Z","2025-11-05T20:43:24Z","2025-11-05T20:43:27Z","2025-11-05T20:43:30Z","2025-11-05T20:43:31Z","2025-11-05T20:43:32Z","2025-11-05T20:43:33Z","2025-11-05T20:43:35Z","2025-11-05T20:43:36Z","2025-11-05T20:43:39Z","2025-11-05T20:43:40Z","2025-11-05T20:43:43Z","2025-11-05T20:43:45Z","2025-11-05T20:43:46Z","2025-11-05T20:43:47Z","2025-11-05T20:43:48Z","2025-11-05T20:43:52Z","2025-11-05T20:43:56Z","2025-11-05T20:44:12Z","2025-11-05T20:44:16Z","2025-11-05T20:44:17Z","2025-11-05T20:44:19Z","2025-11-05T20:44:22Z","2025-11-05T20:44:24Z","2025-11-05T20:44:26Z","2025-11-05T20:44:27Z","2025-11-05T20:44:29Z","2025-11-05T20:44:30Z","2025-11-05T20:44:31Z","2025-11-05T20:44:33Z","2025-11-05T20:44:34Z","2025-11-05T20:44:36Z","2025-11-05T20:44:37Z","2025-11-05T20:44:40Z","2025-11-05T20:44:42Z","2025-11-05T20:44:44Z","2025-11-05T20:44:46Z","2025-11-05T20:44:47Z","2025-11-05T20:44:48Z","2025-11-05T20:44:49Z","2025-11-05T20:44:50Z","2025-11-05T20:44:52Z","2025-11-05T20:44:54Z","2025-11-05T20:44:56Z","2025-11-05T20:44:57Z","2025-11-05T20:44:59Z","2025-11-05T20:45:00Z","2025-11-05T20:45:01Z","2025-11-05T20:45:03Z","2025-11-05T20:45:05Z","2025-11-05T20:45:06Z","2025-11-05T20:45:09Z","2025-11-05T20:45:13Z","2025-11-05T20:45:14Z","2025-11-05T20:45:15Z","2025-11-05T20:45:17Z","2025-11-05T20:45:24Z","2025-11-05T20:45:28Z","2025-11-05T20:45:30Z","2025-11-05T20:45:34Z","2025-11-05T20:45:35Z","2025-11-05T20:45:36Z","2025-11-05T20:45:37Z","2025-11-05T20:45:38Z","2025-11-05T20:45:40Z","2025-11-05T20:45:41Z","2025-11-05T20:45:42Z","2025-11-05T20:45:43Z","2025-11-05T20:45:46Z","2025-11-05T20:45:51Z","2025-11-05T20:45:53Z","2025-11-05T20:45:55Z","2025-11-05T20:45:57Z","2025-11-05T20:45:58Z","2025-11-05T20:45:59Z","2025-11-05T20:46:00Z","2025-11-05T20:46:01Z","2025-11-05T20:46:03Z","2025-11-05T20:46:04Z","2025-11-05T20:46:06Z","2025-11-05T20:46:07Z","2025-11-05T20:46:08Z","2025-11-05T20:46:11Z","2025-11-05T20:46:12Z","2025-11-05T20:46:13Z","2025-11-05T20:46:15Z","2025-11-05T20:46:16Z","2025-11-05T20:46:17Z","2025-11-05T20:46:20Z","2025-11-05T20:46:21Z","2025-11-05T20:46:22Z","2025-11-05T20:46:23Z","2025-11-05T20:46:25Z","2025-11-05T20:46:30Z","2025-11-05T20:46:40Z","2025-11-05T20:46:42Z","2025-11-05T20:46:44Z","2025-11-05T20:46:45Z","2025-11-05T20:46:47Z","2025-11-05T20:46:48Z","2025-11-05T20:46:51Z","2025-11-05T20:46:56Z","2025-11-05T20:46:59Z","2025-11-05T20:47:03Z","2025-11-05T20:47:05Z","2025-11-05T20:47:15Z","2025-11-05T20:47:17Z","2025-11-05T20:47:21Z","2025-11-05T20:47:22Z","2025-11-05T20:47:23Z","2025-11-05T20:47:25Z","2025-11-05T20:47:27Z","2025-11-05T20:47:28Z","2025-11-05T20:47:29Z","2025-11-05T20:47:30Z","2025-11-05T20:47:33Z","2025-11-05T20:47:34Z","2025-11-05T20:47:36Z","2025-11-05T20:47:37Z","2025-11-05T20:47:38Z","2025-11-05T20:47:39Z","2025-11-05T20:47:42Z","2025-11-05T20:47:43Z","2025-11-05T20:47:45Z","2025-11-05T20:47:47Z","2025-11-05T20:47:53Z","2025-11-05T20:47:54Z","2025-11-05T20:48:01Z","2025-11-05T20:48:03Z","2025-11-05T20:48:05Z","2025-11-05T20:48:12Z","2025-11-05T20:48:13Z","2025-11-05T20:48:15Z","2025-11-05T20:48:17Z","2025-11-05T20:48:18Z","2025-11-05T20:48:22Z","2025-11-05T20:48:31Z","2025-11-05T20:48:32Z","2025-11-05T20:48:38Z","2025-11-05T20:48:41Z","2025-11-05T20:48:43Z","2025-11-05T20:48:44Z","2025-11-05T20:48:46Z","2025-11-05T20:48:51Z","2025-11-05T20:48:54Z","2025-11-05T20:48:55Z","2025-11-05T20:48:56Z","2025-11-05T20:48:59Z","2025-11-05T20:49:00Z","2025-11-05T20:49:02Z","2025-11-05T20:49:04Z","2025-11-05T20:49:05Z","2025-11-05T20:49:06Z","2025-11-05T20:49:08Z","2025-11-05T20:49:10Z","2025-11-05T20:49:11Z","2025-11-05T20:49:15Z","2025-11-05T20:49:17Z","2025-11-05T20:49:20Z","2025-11-05T20:49:21Z","2025-11-05T20:49:23Z","2025-11-05T20:49:25Z","2025-11-05T20:49:26Z","2025-11-05T20:49:28Z","2025-11-05T20:49:29Z","2025-11-05T20:49:33Z","2025-11-05T20:49:35Z","2025-11-05T20:49:36Z","2025-11-05T20:49:38Z","2025-11-05T20:49:40Z","2025-11-05T20:49:42Z","2025-11-05T20:49:44Z","2025-11-05T20:49:51Z","2025-11-05T20:49:54Z","2025-11-05T20:49:57Z","2025-11-05T20:49:59Z","2025-11-05T20:50:02Z","2025-11-05T20:50:04Z","2025-11-05T20:50:05Z","2025-11-05T20:50:06Z","2025-11-05T20:50:10Z","2025-11-05T20:50:12Z","2025-11-05T20:50:14Z","2025-11-05T20:50:17Z","2025-11-05T20:50:19Z","2025-11-05T20:50:20Z","2025-11-05T20:50:24Z","2025-11-05T20:50:26Z","2025-11-05T20:50:27Z","2025-11-05T20:50:28Z","2025-11-05T20:50:30Z","2025-11-05T20:50:34Z","2025-11-05T20:50:36Z","2025-11-05T20:50:39Z","2025-11-05T20:50:40Z","2025-11-05T20:50:43Z","2025-11-05T20:50:44Z","2025-11-05T20:50:48Z","2025-11-05T20:50:50Z","2025-11-05T20:50:51Z","2025-11-05T20:50:55Z","2025-11-05T20:50:57Z","2025-11-05T20:51:00Z","2025-11-05T20:51:04Z","2025-11-05T20:51:15Z","2025-11-05T20:51:16Z","2025-11-05T20:51:18Z","2025-11-05T20:51:20Z","2025-11-05T20:51:24Z","2025-11-05T20:51:44Z","2025-11-05T20:51:45Z","2025-11-05T20:51:46Z","2025-11-05T20:51:50Z","2025-11-05T20:51:54Z","2025-11-05T20:51:56Z","2025-11-05T20:51:59Z","2025-11-05T20:52:02Z","2025-11-05T20:52:08Z","2025-11-05T20:52:13Z","2025-11-05T20:52:15Z","2025-11-05T20:52:19Z","2025-11-05T20:52:23Z","2025-11-05T20:52:29Z","2025-11-05T20:52:32Z","2025-11-05T20:52:34Z","2025-11-05T20:52:35Z","2025-11-05T20:52:41Z","2025-11-05T20:52:45Z","2025-11-05T20:52:49Z","2025-11-05T20:52:52Z","2025-11-05T20:52:54Z","2025-11-05T20:52:56Z","2025-11-05T20:53:02Z","2025-11-05T20:53:04Z","2025-11-05T20:53:06Z","2025-11-05T20:53:09Z","2025-11-05T20:53:11Z","2025-11-05T20:53:13Z","2025-11-05T20:53:19Z","2025-11-05T20:53:20Z","2025-11-05T20:53:21Z","2025-11-05T20:53:22Z","2025-11-05T20:53:23Z","2025-11-05T20:53:26Z","2025-11-05T20:53:28Z","2025-11-05T20:53:29Z","2025-11-05T20:53:30Z","2025-11-05T20:53:32Z","2025-11-05T20:53:34Z","2025-11-05T20:53:35Z","2025-11-05T20:53:38Z","2025-11-05T20:53:40Z","2025-11-05T20:53:42Z","2025-11-05T20:53:45Z","2025-11-05T20:53:46Z","2025-11-05T20:53:48Z","2025-11-05T20:53:50Z","2025-11-05T20:53:53Z","2025-11-05T20:53:54Z","2025-11-05T20:53:58Z","2025-11-05T20:54:01Z","2025-11-05T20:54:03Z","2025-11-05T20:54:04Z","2025-11-05T20:54:05Z","2025-11-05T20:54:06Z","2025-11-05T20:54:07Z","2025-11-05T20:54:10Z","2025-11-05T20:54:11Z","2025-11-05T20:54:12Z","2025-11-05T20:54:13Z","2025-11-05T20:54:14Z","2025-11-05T20:54:15Z","2025-11-05T20:54:16Z","2025-11-05T20:54:18Z","2025-11-05T20:54:25Z","2025-11-05T20:54:30Z","2025-11-05T20:54:31Z","2025-11-05T20:54:35Z","2025-11-05T20:54:38Z","2025-11-05T20:54:40Z","2025-11-05T20:54:45Z","2025-11-05T20:54:46Z","2025-11-05T20:54:48Z","2025-11-05T20:54:50Z","2025-11-05T20:54:51Z","2025-11-05T20:54:53Z","2025-11-05T20:54:54Z","2025-11-05T20:54:59Z","2025-11-05T20:55:22Z","2025-11-05T20:55:24Z","2025-11-05T20:55:36Z","2025-11-05T20:55:42Z","2025-11-05T20:55:46Z","2025-11-05T20:55:48Z","2025-11-05T20:55:51Z","2025-11-05T20:55:53Z","2025-11-05T20:56:02Z","2025-11-05T20:56:15Z","2025-11-05T20:56:29Z","2025-11-05T20:56:40Z","2025-11-05T20:56:55Z","2025-11-05T20:57:13Z","2025-11-05T20:57:43Z","2025-11-05T20:57:52Z","2025-11-05T20:57:56Z","2025-11-05T20:58:08Z","2025-11-05T20:58:15Z","2025-11-05T20:58:30Z","2025-11-05T20:58:41Z","2025-11-05T20:58:53Z","2025-11-05T20:59:03Z","2025-11-05T20:59:29Z","2025-11-05T20:59:47Z","2025-11-05T20:59:56Z","2025-11-05T21:00:34Z","2025-11-05T21:00:57Z","2025-11-05T21:01:01Z","2025-11-05T21:01:05Z","2025-11-05T21:01:41Z","2025-11-05T21:01:48Z","2025-11-05T21:02:03Z","2025-11-05T21:02:09Z","2025-11-05T21:02:16Z","2025-11-05T21:02:29Z","2025-11-05T21:02:32Z","2025-11-05T21:02:33Z","2025-11-05T21:02:35Z","2025-11-05T21:02:38Z","2025-11-05T21:02:42Z","2025-11-05T21:02:44Z","2025-11-05T21:02:47Z","2025-11-05T21:02:48Z","2025-11-05T21:02:49Z","2025-11-05T21:02:52Z","2025-11-05T21:02:54Z","2025-11-05T21:02:58Z","2025-11-05T21:03:00Z","2025-11-05T21:03:03Z","2025-11-05T21:03:07Z","2025-11-05T21:03:08Z","2025-11-05T21:03:10Z","2025-11-05T21:03:15Z","2025-11-05T21:03:16Z","2025-11-05T21:03:19Z","2025-11-05T21:03:27Z","2025-11-05T21:03:33Z","2025-11-05T21:03:37Z","2025-11-05T21:03:40Z","2025-11-05T21:03:46Z","2025-11-05T21:03:48Z","2025-11-05T21:03:50Z","2025-11-05T21:03:59Z","2025-11-05T21:04:03Z","2025-11-05T21:04:05Z","2025-11-05T21:04:07Z","2025-11-05T21:04:13Z","2025-11-05T21:04:17Z","2025-11-05T21:04:28Z","2025-11-05T21:04:35Z","2025-11-05T21:04:38Z","2025-11-05T21:04:39Z","2025-11-05T21:04:41Z","2025-11-05T21:04:43Z","2025-11-05T21:04:47Z","2025-11-05T21:04:54Z","2025-11-05T21:04:55Z","2025-11-05T21:04:56Z","2025-11-05T21:05:04Z","2025-11-05T21:05:10Z","2025-11-05T21:05:16Z","2025-11-05T21:05:19Z","2025-11-05T21:05:23Z","2025-11-05T21:05:28Z","2025-11-05T21:05:29Z","2025-11-05T21:05:30Z","2025-11-05T21:05:33Z","2025-11-05T21:05:36Z","2025-11-05T21:05:39Z","2025-11-05T21:05:41Z","2025-11-05T21:05:42Z","2025-11-05T21:05:46Z","2025-11-05T21:05:50Z","2025-11-05T21:05:51Z","2025-11-05T21:06:03Z"],"heartRates":[94,94,94,94,94,94,94,94,94,96,96,91,91,91,92,92,92,92,100,100,100,96,96,93,86,86,86,99,99,104,104,105,105,105,105,105,105,105,105,107,107,107,107,108,108,108,108,108,108,114,114,114,113,113,113,113,113,115,115,115,115,115,115,115,113,123,123,122,122,122,122,119,119,119,119,119,119,119,117,117,117,117,114,114,114,111,108,105,105,108,108,108,108,108,116,118,118,118,118,118,121,121,123,123,123,128,129,129,129,129,132,132,132,131,131,131,131,131,130,130,130,130,133,133,133,136,136,137,137,137,137,137,137,137,132,132,132,132,131,131,130,130,130,130,130,130,131,131,131,131,139,139,139,139,139,139,138,138,137,136,134,134,134,134,130,130,130,130,128,128,128,128,128,123,123,122,122,122,122,115,115,115,115,116,116,117,117,117,117,117,117,117,117,120,120,120,120,122,122,122,122,122,127,127,128,128,125,125,125,125,125,125,125,125,124,122,122,122,122,122,122,122,124,124,124,124,122,122,122,122,120,120,120,118,118,118,119,119,119,118,118,118,119,119,120,120,120,120,125,126,126,126,126,126,126,129,129,129,129,129,129,129,125,125,124,124,124,124,124,124,123,123,123,125,125,125,125,126,126,128,128,129,129,129,129,132,132,134,134,134,134,131,131,131,129,129,129,129,129,129,132,133,133,133,132,132,132,132,132,132,132,132,132,132,132,132,131,131,131,132,132,132,132,132,134,134,134,134,131,130,130,128,128,128,128,128,128,128,128,128,129,129,128,126,126,126,126,126,126,127,127,126,127,127,127,127,126,126,126,126,126,126,126,126,125,125,125,127,127,127,127,127,127,126,126,126,126,126,126,126,126,123,123,123,122,122,123,122,122,122,122,122,122,122,122,124,124,124,124,124,127,127,127,129,129,129,129,129,129,131,131,131,131,131,134,134,134,134,134,134,134,136,136,134,134,129,129,129,129,129,127,127,127,124,124,122,122,119,119,119,119,115,115,115,115,107,107,105,107,107,100,103,103,109,101,102,101,101,101,100,101,103,99,100,101,97,104,104,96,97,98,98,95,95,95,95,100,100,98,98,100,100,100,98,97,97,97,97,96,96,96,94,94,94,94,97,97,99,99,99,100,100,100,100,100,100,100,100,111,111,111,120,120,120,125,125,125,125,124,124,124,124,124,126,126,126,135,135,139,139,139,139,141,142,142,142,142,143,142,142,139,137,136,136,136,138,138,139,138,138,138,138,136,136,137,137,137,142,143,143,143,143,143,139,137,137,132,132,132,132,132,130,130,131,131,131,129,129,129,129,127,127,127,127,136,138,137,135,135,135,134,134,133,136,137,136,136,136,134,134,134,134,138,138,139,139,139,138,138,138,140,140,140,139,139,140,140,141,141,141,144,144,144,145,145,149,149,146,146,146,145,145,145,144,143,143,144,144,144,146,148,148,148,148,148,148,147,147,147,147,152,151,150,149,147,147,147,147,145,145,147,147,147,147,146,146,146,146,146,146,143,143,143,143,145,145,144,143,143,140,140,140,140,140,138,139,139,139,140,140,140,140,140,140,140,140,140,140,143,143,143,143,143,143,143,143,142,142,142,142,142,142,142,142,142,141,141,141,140,140,140,140,140,142,142,143,143,144,144,144,144,144,137,137,137,134,134,133,133,133,131,130,130,130,130,126,126,127,127,127,125,126,125,125,118,107,108,108,108,108,108,113,113,111,111,111,112,112,111,111,112,112,115,115,115,115,115,116,116,116,116,116,116,113,113,113,113,113,123,122,122,117,117,117,117,117,117,118,118,118,118,126,126,124,114,113,113,113,113,113,113,113,113,117,117,117,119,119,118,118,118,118,118,118,119,119,119,119,119,119,121,121,121,120,120,120,120,120,126,126,129,129,129,129,123,123,123,124,124,124,124,124,128,131,131,126,126,126,128,128,128,130,130,130,130,130,130,147,158,160,160,153,149,149,146,146,146,146,146,146,142,141,137,132,132,132,132,132,132,138,129,129,129,129,130,130,130,129,122,122,123,123,123,123,119,119,119,119,119,124,124,124,124,121,121,121,121,121,121,119,120,120,120,120,120,120,133,137,136,134,134,134,134,134,135,135,135,131,131,131,131,131,131,130,130,128,128,128,128,128,128,129,129,129,136,133,134,134,134,136,135,135,128,128,135,136,134,132,132,131,131,131,131,131,137,137,137,142,142,142,140,140,140,140,140,140,140,140,140,140,140,150,150,156,154,154,148,147,147,147,137,137,134,134,134,134,131,131,131,129,129,128,128,128,125,125,125,126,125,125,125,125,128,125,125,125,119,119,119,123,123,123,123,122,119,119,119,113,113,113,114,115,119,119,119,119,112,112,111,112,114,114,113,113,113,113,113,122,122,122,127,127,127,127,129,129,132,132,128,120,121,121,121,121,121,121,127,127,127,127,127,124,124,124,125,126,126,126,126,126,123,122,122,122,122,122,122,121,121,122,122,115,114,114,114,114,114,114,116,116,116,117,117,117,122,119,115,115,118,118,121,121,121,121,121,120,120,120,120,120,122,122,122,127,127,127,127,129,129,129,129,131,127,127,127,123,123,123,123,123,127,127,129,129,129,129,129,128,130,130,123,123,123,123,121,121,121,121,125,125,125,125,125,125,131,138,138,137,137,135,135,135,131,131,129,129,128,128,129,129,131,131,131,131,131,131,131,140,140,140,142,142,142,142,142,129,130,130,130,130,130,130,130,133,133,133,140,140,139,139,139,139,139,139,139,142,151,157,158,158,156,150,148,148,148,148,147,147,147,148,148,148,147,147,143,143,143,143,135,135,135,135,130,129,127,127,127,127,130,130,130,130,130,130,130,130,130,127,127,126,126,124,123,124,124,126,114,114,114,114,117,117,111,115,115,116,116,116,131,131,132,132,132,126,126,125,125,125,125,125,125,125,124,124,124,124,129,127,126,126,123,123,123,123,125,125,129,123,123,123,123,123,125,125,125,126,126,126,123,123,123,121,121,122,122,122,122,122,122,122,122,129,129,129,129,128,127,127,131,131,131,131,131,131,131,131,131,122,118,118,118,118,123,123,123,123,122,122,122,122,122,122,135,138,138,143,141,141,141,142,142,141,135,135,135,134,134,134,134,134,134,134,136,134,134,134,132,132,129,129,129,129,131,131,131,131,133,131,129,129,129,129,129,129,130,130,132,132,132,132,124,124,124,124,122,122,126,121,118,118,118,119,119,119,119,119,121,121,122,122,122,122,122,129,133,132,133,133,133,138,136,133,133,133,127,126,126,126,126,126,125,126,130,130,130,130,128,128,128,126,126,126,126,126,126,126,124,124,124,121,121,121,122,122,123,125,125,124,124,124,125,125,125,128,131,131,131,131,131,132,132,132,131,124,124,124,124,124,123,123,123,123,123,123,122,122,122,122,118,118,120,120,120,120,120,120,132,132,139,139,139,139,139,145,145,145,145,148,148,148,146,144,143,143,140,140,140,140,140,140,140,137,137,138,134,134,130,130,130,130,130,130,137,137,138,138,138,137,137,137,137,137,141,141,141,141,141,139,139,132,132,132,132,132,132,132,132,129,127,127,122,122,122,122,128,128,128,129,129,129,131,131,131,131,131,131,133,133,133,133,137,137,131,131,131,130,130,128,128,128,129,130,124,127,126,126,126,126,125,122,122,122,123,123,123,123,123,123,138,139,139,139,139,154,154,156,156,156,156,156,155,156,156,156,156,156,157,153,153,151,151,146,146,146,146,143,143,138,138,136,136,135,135,135,135,135,146,147,147,146,146,146,149,149,149,151,151,151,145,137,137,134,134,133,126,126,126,124,126,126,126,126,123,122,122,119,118,118,118,120,120,123,123,119,119,117,116,116,115,115,115,116,116,118,118,118,118,120,120,120,120,120,120,120,120,120,121,121,121,121,124,124,125,125,125,123,123,123,123,123,123,123,123,123,123,126,126,126,126,127,124,123,123,121,121,121,121,121,120,120,120,120,120,117,117,117,113,112,112,112,115,110,110,108,108,107,108,107,108,109,112,106,104,106,104,106,102,104,106,104,105,103,102,103,103,103,103,101,98,99,99,99,99,100,100,100,100,100,105,105,104,104,104,107,107,107,111,111,111,113,115,117,117,113,113,113,109,109,109,109,107,107,108,110,112,112,112,112,108,109,109,109,113,111,111,110,109,108,108,108,109,109,104,104,103,103,106,106,101],"month":"2025-11-01"},"geometry":{"type":"LineString","coordinates":[[2.48082,48.713541,37],[2.480824,48.713561,37],[2.480808,48.713574,37],[2.480818,48.713576,37],[2.480806,48.713585,37],[2.480787,48.713584,37.1],[2.480786,48.713591,37.1],[2.480762,48.713599,37.1],[2.480729,48.713598,37.1],[2.480693,48.713612,37.1],[2.480871,48.71357,36.9],[2.480839,48.713581,37],[2.480863,48.713578,36.9],[2.48085,48.713576,37],[2.480897,48.713598,37],[2.480907,48.713618,37],[2.480895,48.71363,37.1],[2.480865,48.713633,37.1],[2.480873,48.713656,37.2],[2.480863,48.713667,37.2],[2.480874,48.713665,37.2],[2.480857,48.713643,37.1],[2.480868,48.71367,37.2],[2.480875,48.71366,37.2],[2.480834,48.713666,37.2],[2.480836,48.713675,37.2],[2.480892,48.713629,37.1],[2.480857,48.713684,37.3],[2.480856,48.713675,37.2],[2.480877,48.713657,37.2],[2.480909,48.713666,37.1],[2.480894,48.713667,37.1],[2.480881,48.713693,37.3],[2.480873,48.713676,37.3],[2.480905,48.713693,37.2],[2.480889,48.713694,37.3],[2.480885,48.713681,37.3],[2.480902,48.713679,37.2],[2.48088,48.713685,37.3],[2.480896,48.713682,37.2],[2.480878,48.713649,37.2],[2.480883,48.713657,37.2],[2.480845,48.713674,37.2],[2.48086,48.713663,37.2],[2.480872,48.71367,37.2],[2.48088,48.713658,37.2],[2.480875,48.71368,37.3],[2.480897,48.713682,37.2],[2.480901,48.713704,37.3],[2.480901,48.713693,37.2],[2.480881,48.713696,37.3],[2.480897,48.713681,37.2],[2.480834,48.713674,37.2],[2.480824,48.713629,37.1],[2.480838,48.713623,37.1],[2.480875,48.71357,36.9],[2.480864,48.713582,36.9],[2.480893,48.713627,37.1],[2.480874,48.713647,37.1],[2.480874,48.713642,37.1],[2.480852,48.713658,37.2],[2.480852,48.713672,37.2],[2.480841,48.713679,37.3],[2.48085,48.713676,37.3],[2.480837,48.713693,37.3],[2.480857,48.713687,37.3],[2.480854,48.713671,37.2],[2.480845,48.713671,37.2],[2.480853,48.713667,37.2],[2.48088,48.713682,37.3],[2.480863,48.713679,37.3],[2.480871,48.713676,37.3],[2.48085,48.713674,37.2],[2.480857,48.713694,37.3],[2.480861,48.713688,37.3],[2.480846,48.713691,37.3],[2.480863,48.713705,37.3],[2.480881,48.713702,37.3],[2.480888,48.713664,37.2],[2.480903,48.71367,37.1],[2.480876,48.713685,37.3],[2.480885,48.713675,37.2],[2.480863,48.713676,37.3],[2.48088,48.713675,37.2],[2.480854,48.713677,37.3],[2.480886,48.713693,37.3],[2.480862,48.713673,37.2],[2.480865,48.713698,37.3],[2.480821,48.713698,37.3],[2.480865,48.713682,37.3],[2.480877,48.713688,37.3],[2.480859,48.713665,37.2],[2.480864,48.713647,37.1],[2.480818,48.713635,37.1],[2.480836,48.713627,37.1],[2.480863,48.713544,36.9],[2.480862,48.713579,36.9],[2.480894,48.713669,37.1],[2.480923,48.713692,37.2],[2.480894,48.713701,37.2],[2.480875,48.713688,37.3],[2.480878,48.713679,37.3],[2.480965,48.713676,37.2],[2.480902,48.71368,37.2],[2.480887,48.71369,37.3],[2.480903,48.713706,37.3],[2.480893,48.713718,37.3],[2.480892,48.713689,37.3],[2.480878,48.713684,37.3],[2.48087,48.713691,37.3],[2.480905,48.713694,37.2],[2.480891,48.713691,37.3],[2.480902,48.713671,37.1],[2.480925,48.71366,37.1],[2.480871,48.713673,37.2],[2.480859,48.713655,37.2],[2.480885,48.713674,37.2],[2.480839,48.713661,37.2],[2.480854,48.713666,37.2],[2.480829,48.713665,37.2],[2.480846,48.713671,37.2],[2.480825,48.71367,37.2],[2.480843,48.713666,37.2],[2.480854,48.713672,37.2],[2.48085,48.713666,37.2],[2.480869,48.713657,37.2],[2.480856,48.713665,37.2],[2.480863,48.713672,37.2],[2.480876,48.713658,37.2],[2.480884,48.713665,37.2],[2.480825,48.713644,37.1],[2.480871,48.713685,37.3],[2.480852,48.713684,37.3],[2.480864,48.71368,37.3],[2.480873,48.713695,37.3],[2.480878,48.71369,37.3],[2.480845,48.713692,37.3],[2.480861,48.713688,37.3],[2.480843,48.713678,37.3],[2.480846,48.713663,37.2],[2.48082,48.713634,37.1],[2.480876,48.71369,37.3],[2.480847,48.713663,37.2],[2.480866,48.713635,37.1],[2.480873,48.713581,36.9],[2.480865,48.71355,36.9],[2.480876,48.713566,36.9],[2.480896,48.713568,36.9],[2.480881,48.71357,36.9],[2.480888,48.713567,36.9],[2.480892,48.713573,36.9],[2.480883,48.71357,36.9],[2.480885,48.71356,36.9],[2.480908,48.71359,36.9],[2.480903,48.713616,37],[2.480867,48.713665,37.2],[2.480833,48.713683,37.3],[2.480859,48.713674,37.2],[2.480857,48.713679,37.3],[2.480846,48.713675,37.2],[2.480852,48.713678,37.3],[2.48084,48.71369,37.3],[2.480831,48.713683,37.3],[2.480865,48.713664,37.2],[2.480853,48.713684,37.3],[2.480883,48.713665,37.2],[2.480894,48.713673,37.1],[2.480886,48.713673,37.2],[2.480888,48.713684,37.3],[2.480858,48.713672,37.2],[2.480877,48.713675,37.2],[2.48084,48.713667,37.2],[2.480861,48.713665,37.2],[2.48087,48.71369,37.3],[2.480842,48.713673,37.2],[2.480818,48.713704,37.4],[2.480814,48.713755,37.4],[2.480873,48.713748,37.4],[2.480882,48.713708,37.3],[2.480916,48.713698,37.2],[2.480895,48.713698,37.2],[2.480909,48.713698,37.2],[2.480888,48.713725,37.3],[2.480921,48.713674,37.1],[2.480869,48.71367,37.2],[2.480876,48.713689,37.3],[2.480901,48.713697,37.2],[2.480895,48.713713,37.3],[2.480864,48.713697,37.3],[2.480874,48.713667,37.2],[2.480863,48.713683,37.3],[2.480875,48.713681,37.3],[2.480877,48.713668,37.2],[2.48091,48.713644,37.1],[2.480909,48.713666,37.1],[2.480912,48.713661,37.1],[2.480898,48.713664,37.1],[2.480905,48.713659,37.1],[2.480936,48.713679,37.2],[2.480933,48.713687,37.2],[2.480916,48.713684,37.2],[2.480911,48.713646,37.1],[2.480892,48.713645,37.1],[2.480866,48.713664,37.2],[2.480875,48.713658,37.2],[2.480867,48.713666,37.2],[2.48088,48.713669,37.2],[2.480868,48.713686,37.3],[2.480875,48.713678,37.3],[2.48086,48.713667,37.2],[2.480859,48.713678,37.3],[2.480857,48.713661,37.2],[2.480853,48.713671,37.2],[2.480843,48.713664,37.2],[2.480851,48.713654,37.2],[2.480844,48.713665,37.2],[2.480823,48.713671,37.2],[2.480873,48.713676,37.3],[2.480866,48.713679,37.3],[2.480868,48.713653,37.2],[2.48087,48.713693,37.3],[2.480865,48.713672,37.2],[2.480855,48.713679,37.3],[2.480864,48.713687,37.3],[2.48088,48.713682,37.3],[2.480887,48.713664,37.2],[2.480883,48.713702,37.3],[2.48089,48.713691,37.3],[2.48091,48.713715,37.3],[2.480914,48.713667,37.1],[2.480889,48.713659,37.2],[2.480883,48.713665,37.2],[2.480893,48.713671,37.2],[2.480881,48.713672,37.2],[2.480863,48.713659,37.2],[2.480877,48.713649,37.2],[2.480879,48.713655,37.2],[2.48086,48.713649,37.2],[2.480877,48.713657,37.2],[2.480865,48.713657,37.2],[2.480853,48.71368,37.3],[2.48092,48.713638,37.1],[2.480917,48.713646,37.1],[2.480869,48.713666,37.2],[2.480849,48.713667,37.2],[2.480868,48.713671,37.2],[2.480867,48.71369,37.3],[2.480885,48.713685,37.3],[2.480855,48.713685,37.3],[2.480903,48.713671,37.1],[2.480872,48.713676,37.3],[2.48088,48.713681,37.3],[2.480857,48.713672,37.2],[2.48086,48.713685,37.3],[2.480844,48.713685,37.3],[2.480865,48.713679,37.3],[2.48086,48.713691,37.3],[2.48088,48.713676,37.3],[2.480877,48.713662,37.2],[2.480914,48.713648,37.1],[2.480931,48.713655,37.1],[2.480923,48.713662,37.1],[2.480936,48.713665,37.1],[2.480924,48.713651,37.1],[2.480914,48.713599,37],[2.480924,48.713587,36.9],[2.480912,48.713578,36.9],[2.480891,48.713585,36.9],[2.480863,48.713583,36.9],[2.480909,48.713622,37.1],[2.480905,48.713645,37.1],[2.48092,48.713675,37.1],[2.480903,48.713693,37.2],[2.480865,48.713707,37.3],[2.480917,48.713689,37.2],[2.480919,48.713666,37.1],[2.480934,48.713665,37.1],[2.480879,48.713684,37.3],[2.480904,48.713681,37.2],[2.480888,48.713678,37.3],[2.480876,48.713661,37.2],[2.480844,48.713673,37.2],[2.48086,48.713659,37.2],[2.480884,48.713684,37.3],[2.480904,48.713692,37.2],[2.480894,48.713704,37.3],[2.480857,48.713698,37.3],[2.48088,48.713684,37.3],[2.480897,48.71365,37.1],[2.480908,48.713657,37.1],[2.480892,48.713674,37.2],[2.480911,48.71365,37.1],[2.480894,48.713648,37.1],[2.480862,48.713669,37.2],[2.480862,48.713656,37.2],[2.480877,48.713664,37.2],[2.480883,48.713688,37.3],[2.480824,48.713687,37.3],[2.480936,48.713667,37.1],[2.480905,48.713676,37.2],[2.480909,48.71365,37.1],[2.480887,48.713649,37.2],[2.480862,48.713667,37.2],[2.480853,48.713705,37.3],[2.480895,48.713698,37.2],[2.480861,48.713692,37.3],[2.480862,48.71367,37.2],[2.480873,48.713666,37.2],[2.480853,48.713665,37.2],[2.480861,48.713659,37.2],[2.480853,48.713647,37.1],[2.480868,48.713649,37.2],[2.48086,48.713669,37.2],[2.48084,48.713679,37.3],[2.480842,48.713672,37.2],[2.480851,48.713677,37.3],[2.480817,48.713697,37.3],[2.480832,48.713652,37.2],[2.480818,48.713657,37.2],[2.480856,48.713649,37.2],[2.480875,48.713637,37.1],[2.480876,48.713614,37],[2.48089,48.713601,37],[2.480893,48.71358,36.9],[2.480917,48.713566,36.9],[2.480883,48.713579,36.9],[2.480862,48.713574,36.9],[2.480873,48.713579,36.9],[2.48087,48.71363,37.1],[2.480912,48.713663,37.1],[2.480871,48.713684,37.3],[2.480891,48.713654,37.2],[2.480886,48.713647,37.1],[2.480853,48.713648,37.2],[2.480851,48.713663,37.2],[2.480815,48.713674,37.2],[2.480837,48.713672,37.2],[2.4808,48.713664,37.2],[2.480789,48.713676,37.3],[2.480778,48.713674,37.2],[2.480824,48.713664,37.2],[2.480832,48.713681,37.3],[2.480848,48.713675,37.2],[2.480839,48.713692,37.3],[2.480837,48.713682,37.3],[2.480843,48.71369,37.3],[2.480865,48.713686,37.3],[2.480861,48.713681,37.3],[2.480828,48.713688,37.3],[2.480905,48.713684,37.2],[2.480868,48.713673,37.2],[2.4809,48.713673,37.1],[2.480904,48.713683,37.2],[2.480915,48.713677,37.2],[2.480888,48.713671,37.2],[2.480889,48.713658,37.2],[2.480863,48.713684,37.3],[2.480871,48.713677,37.3],[2.480866,48.713651,37.2],[2.480845,48.713672,37.2],[2.480859,48.713685,37.3],[2.480873,48.713685,37.3],[2.480885,48.713698,37.3],[2.480878,48.713669,37.2],[2.480871,48.713681,37.3],[2.480844,48.713694,37.3],[2.480831,48.713689,37.3],[2.480843,48.713683,37.3],[2.480856,48.713706,37.3],[2.480859,48.713672,37.2],[2.480857,48.713699,37.3],[2.480863,48.713687,37.3],[2.480848,48.713676,37.3],[2.480925,48.713708,37.3],[2.480884,48.713663,37.2],[2.480867,48.713671,37.2],[2.480864,48.713689,37.3],[2.480875,48.71369,37.3],[2.480881,48.71365,37.2],[2.480891,48.713647,37.1],[2.480909,48.713593,37],[2.480888,48.713577,36.9],[2.480889,48.713603,37],[2.480917,48.713631,37.1],[2.480906,48.713678,37.2],[2.480872,48.713696,37.3],[2.480886,48.713679,37.3],[2.480843,48.713682,37.3],[2.480837,48.713676,37.3],[2.480873,48.713648,37.2],[2.480908,48.713649,37.1],[2.480891,48.71365,37.2],[2.48088,48.713671,37.2],[2.48089,48.713677,37.3],[2.480867,48.71369,37.3],[2.480871,48.713685,37.3],[2.480838,48.713708,37.4],[2.480849,48.713687,37.3],[2.480827,48.713681,37.3],[2.480829,48.7137,37.3],[2.480821,48.713684,37.3],[2.480807,48.713682,37.3],[2.480813,48.713662,37.2],[2.480859,48.713675,37.2],[2.480866,48.713686,37.3],[2.480848,48.713693,37.3],[2.480862,48.713692,37.3],[2.480853,48.713692,37.3],[2.480875,48.713695,37.3],[2.480868,48.713687,37.3],[2.480842,48.713699,37.3],[2.480882,48.713688,37.3],[2.480935,48.713687,37.2],[2.480847,48.713662,37.2],[2.480857,48.713669,37.2],[2.480854,48.713649,37.2],[2.480864,48.713639,37.1],[2.480899,48.713672,37.1],[2.480868,48.713686,37.3],[2.480883,48.713676,37.3],[2.48088,48.713662,37.2],[2.480858,48.713646,37.1],[2.480865,48.713653,37.2],[2.480851,48.71371,37.3],[2.480858,48.713718,37.3],[2.480856,48.713575,36.9],[2.480871,48.713557,36.9],[2.480892,48.71356,36.9],[2.480892,48.713569,36.9],[2.480916,48.713554,36.8],[2.480859,48.713563,36.9],[2.480836,48.71356,36.9],[2.480849,48.713543,36.9],[2.480857,48.71349,36.7],[2.480884,48.713465,36.7],[2.4809,48.713426,36.6],[2.480925,48.71341,36.5],[2.480923,48.713437,36.6],[2.480941,48.713456,36.6],[2.480978,48.713461,36.6],[2.480973,48.713431,36.6],[2.480978,48.713436,36.6],[2.480966,48.713419,36.5],[2.480981,48.713416,36.5],[2.480966,48.713427,36.6],[2.480933,48.713432,36.6],[2.480955,48.713439,36.6],[2.48094,48.713429,36.6],[2.480969,48.713413,36.5],[2.480973,48.713418,36.5],[2.480976,48.71341,36.5],[2.480975,48.713437,36.6],[2.480965,48.71344,36.6],[2.480986,48.713427,36.6],[2.48101,48.713451,36.6],[2.480973,48.713431,36.6],[2.48101,48.713425,36.6],[2.481006,48.713434,36.6],[2.481015,48.713434,36.6],[2.481007,48.71344,36.6],[2.481025,48.713428,36.5],[2.480992,48.713443,36.6],[2.480986,48.713415,36.5],[2.481012,48.713415,36.5],[2.480994,48.71342,36.5],[2.480994,48.713413,36.5],[2.48098,48.713422,36.6],[2.480985,48.713411,36.5],[2.480973,48.713412,36.5],[2.480996,48.713404,36.5],[2.480977,48.713407,36.5],[2.480965,48.71342,36.5],[2.480961,48.713414,36.5],[2.480964,48.713426,36.6],[2.480948,48.713443,36.6],[2.480941,48.713474,36.6],[2.480901,48.713541,36.8],[2.480873,48.713566,36.9],[2.480876,48.713598,37],[2.480856,48.713637,37.1],[2.480865,48.713684,37.3],[2.480862,48.713676,37.3],[2.48084,48.713673,37.2],[2.480825,48.713685,37.3],[2.480786,48.713686,37.3],[2.480798,48.71369,37.3],[2.4808,48.713713,37.4],[2.48083,48.713726,37.4],[2.480824,48.713721,37.4],[2.480899,48.713755,37.4],[2.480878,48.713758,37.4],[2.48084,48.713733,37.4],[2.480835,48.713737,37.4],[2.480877,48.713748,37.4],[2.480909,48.71373,37.3],[2.480923,48.713693,37.2],[2.480909,48.713671,37.1],[2.480924,48.713669,37.1],[2.480936,48.713683,37.2],[2.480984,48.713694,37.2],[2.481011,48.713646,37],[2.481013,48.713654,37.1],[2.481,48.713627,37],[2.480976,48.713607,37],[2.480976,48.713573,36.9],[2.481016,48.713564,36.9],[2.481076,48.713567,36.8],[2.481089,48.713541,36.8],[2.481089,48.713499,36.6],[2.481068,48.713432,36.5],[2.481083,48.713414,36.5],[2.481065,48.713416,36.5],[2.481048,48.713404,36.5],[2.48103,48.713406,36.5],[2.481032,48.713415,36.5],[2.481019,48.713412,36.5],[2.480982,48.71343,36.6],[2.480904,48.713431,36.6],[2.480963,48.713451,36.6],[2.48097,48.71346,36.6],[2.480931,48.713474,36.6],[2.480889,48.713502,36.7],[2.480898,48.713562,36.8],[2.480876,48.713647,37.1],[2.480898,48.7137,37.2],[2.480914,48.713695,37.2],[2.480914,48.713687,37.2],[2.480907,48.713694,37.2],[2.480963,48.713691,37.2],[2.480949,48.713663,37.1],[2.480947,48.713614,37],[2.480907,48.713612,37],[2.480988,48.713592,36.9],[2.481053,48.713596,36.9],[2.48107,48.713579,36.8],[2.481069,48.713539,36.8],[2.481084,48.713526,36.7],[2.481077,48.713499,36.6],[2.481045,48.713464,36.6],[2.481012,48.713451,36.6],[2.480905,48.713432,36.6],[2.480983,48.713471,36.6],[2.480885,48.713558,36.9],[2.480865,48.713586,36.9],[2.480863,48.713611,37],[2.480881,48.713642,37.1],[2.480884,48.713674,37.2],[2.480934,48.713698,37.2],[2.480922,48.713679,37.2],[2.480891,48.713688,37.3],[2.48095,48.71363,37],[2.480939,48.713625,37],[2.480904,48.713639,37.1],[2.480923,48.713593,37],[2.480942,48.71359,36.9],[2.480853,48.713577,36.9],[2.480849,48.713567,37],[2.480868,48.713552,36.9],[2.480891,48.713498,36.7],[2.480932,48.713478,36.7],[2.480981,48.713468,36.6],[2.480938,48.713479,36.7],[2.48091,48.7135,36.7],[2.480893,48.71354,36.9],[2.480899,48.713573,36.9],[2.480876,48.71359,36.9],[2.480873,48.713627,37.1],[2.480885,48.713655,37.2],[2.4809,48.713662,37.1],[2.480949,48.713654,37.1],[2.480903,48.713688,37.2],[2.480903,48.713731,37.3],[2.480923,48.713718,37.3],[2.480916,48.713711,37.3],[2.480933,48.713702,37.2],[2.480915,48.713667,37.1],[2.480944,48.713648,37.1],[2.480959,48.713606,37],[2.480948,48.713638,37],[2.480926,48.713625,37.1],[2.480933,48.713599,37],[2.480908,48.71358,36.9],[2.480842,48.713568,37],[2.480835,48.71356,36.9],[2.480867,48.713499,36.7],[2.480862,48.713433,36.6],[2.480886,48.713407,36.5],[2.48098,48.713475,36.6],[2.480962,48.713504,36.7],[2.480933,48.713514,36.8],[2.480865,48.713579,36.9],[2.480872,48.713654,37.2],[2.48086,48.713699,37.3],[2.480912,48.713711,37.3],[2.48094,48.713681,37.2],[2.480933,48.713679,37.2],[2.480942,48.713676,37.2],[2.480933,48.713666,37.1],[2.480964,48.713667,37.1],[2.4809,48.713618,37],[2.480902,48.713591,37],[2.480878,48.713569,36.9],[2.481018,48.713582,36.9],[2.481042,48.713577,36.8],[2.481088,48.713463,36.6],[2.481127,48.713415,36.5],[2.481122,48.713409,36.5],[2.481072,48.713454,36.6],[2.481048,48.713454,36.6],[2.481026,48.713469,36.6],[2.480926,48.713459,36.6],[2.480986,48.713489,36.7],[2.480982,48.713505,36.7],[2.480904,48.713557,36.8],[2.480891,48.713584,36.9],[2.480863,48.71361,37],[2.480875,48.713674,37.2],[2.48092,48.713702,37.2],[2.480902,48.713727,37.3],[2.480906,48.713709,37.3],[2.48099,48.713687,37.2],[2.480915,48.713637,37.1],[2.480936,48.713614,37],[2.481004,48.713597,36.9],[2.481032,48.713603,36.9],[2.481039,48.713538,36.8],[2.481019,48.713489,36.7],[2.481025,48.71344,36.5],[2.481015,48.713431,36.6],[2.48106,48.713444,36.5],[2.480978,48.713477,36.6],[2.480961,48.713477,36.6],[2.48096,48.713488,36.7],[2.480998,48.713494,36.7],[2.480867,48.713598,37],[2.480871,48.713602,37],[2.480921,48.713586,36.9],[2.480897,48.713604,37],[2.480906,48.713641,37.1],[2.480952,48.713692,37.2],[2.480887,48.713671,37.2],[2.480914,48.713671,37.1],[2.480954,48.713683,37.2],[2.48098,48.713669,37.1],[2.480961,48.713657,37.1],[2.480959,48.713622,37],[2.480991,48.713601,36.9],[2.481003,48.713581,36.9],[2.481021,48.713574,36.9],[2.481065,48.713576,36.8],[2.481038,48.713532,36.7],[2.481039,48.713472,36.6],[2.481076,48.713418,36.5],[2.481048,48.713443,36.5],[2.480963,48.713471,36.6],[2.48097,48.713485,36.7],[2.480912,48.713503,36.7],[2.480886,48.713519,36.8],[2.480854,48.713587,36.9],[2.480844,48.713652,37.2],[2.480871,48.713681,37.3],[2.480885,48.713676,37.3],[2.480915,48.713686,37.2],[2.480928,48.71368,37.2],[2.480913,48.71368,37.2],[2.48092,48.713675,37.1],[2.480911,48.713658,37.1],[2.480878,48.713646,37.1],[2.480971,48.71366,37.1],[2.480964,48.713655,37.1],[2.480981,48.713639,37],[2.480991,48.713645,37],[2.48098,48.713597,36.9],[2.480991,48.713575,36.9],[2.480973,48.713585,36.9],[2.481049,48.713596,36.9],[2.48103,48.713484,36.7],[2.481038,48.713427,36.5],[2.481024,48.713433,36.5],[2.480953,48.713434,36.6],[2.48095,48.713442,36.6],[2.480969,48.713457,36.6],[2.480977,48.713485,36.7],[2.480898,48.71356,36.8],[2.480854,48.713624,37.1],[2.480873,48.713682,37.3],[2.480865,48.713698,37.3],[2.480894,48.713708,37.3],[2.480902,48.713694,37.2],[2.480882,48.713693,37.3],[2.480965,48.713672,37.1],[2.480979,48.713653,37.1],[2.480981,48.713618,36.9],[2.480957,48.713601,37],[2.480952,48.713577,36.9],[2.480975,48.713572,36.9],[2.480948,48.713594,37],[2.480907,48.7136,37],[2.480856,48.713583,36.9],[2.480856,48.71357,36.9],[2.480874,48.713562,36.9],[2.480884,48.713491,36.7],[2.480862,48.713443,36.6],[2.480855,48.713447,36.6],[2.480857,48.713428,36.6],[2.480889,48.713416,36.5],[2.480919,48.713426,36.6],[2.480971,48.713465,36.6],[2.480973,48.713476,36.6],[2.480908,48.713508,36.8],[2.480872,48.713595,37],[2.480876,48.713691,37.3],[2.4809,48.713712,37.3],[2.480938,48.71371,37.3],[2.480901,48.713694,37.2],[2.480913,48.713691,37.2],[2.4809,48.713697,37.2],[2.480892,48.713674,37.2],[2.480912,48.713682,37.2],[2.480929,48.713677,37.2],[2.480956,48.713683,37.2],[2.480983,48.713677,37.2],[2.48099,48.713657,37.1],[2.480979,48.713615,36.9],[2.480959,48.713589,36.9],[2.480914,48.713578,36.9],[2.480851,48.713589,36.9],[2.480848,48.713596,37.1],[2.480836,48.713589,37],[2.48084,48.713594,37.1],[2.480851,48.713552,36.9],[2.480844,48.71354,36.9],[2.480893,48.713472,36.7],[2.480923,48.713451,36.6],[2.480952,48.713444,36.6],[2.480995,48.713459,36.6],[2.481003,48.713439,36.6],[2.481071,48.713412,36.5],[2.481031,48.713428,36.5],[2.480999,48.713425,36.6],[2.48096,48.713434,36.6],[2.480928,48.713419,36.5],[2.480914,48.713427,36.6],[2.48091,48.713444,36.6],[2.480949,48.713474,36.6],[2.480916,48.713492,36.7],[2.480915,48.713519,36.8],[2.480852,48.713597,37],[2.480856,48.713603,37],[2.480853,48.713592,37],[2.480877,48.713566,36.9],[2.48086,48.713567,36.9],[2.480872,48.713569,36.9],[2.480872,48.713563,36.9],[2.480855,48.713572,36.9],[2.480871,48.713581,36.9],[2.480839,48.713571,37],[2.480882,48.713573,36.9],[2.480885,48.713553,36.9],[2.480869,48.713522,36.8],[2.48086,48.713522,36.8],[2.480898,48.713528,36.8],[2.480892,48.713488,36.7],[2.480918,48.713464,36.6],[2.480896,48.713463,36.6],[2.480882,48.713476,36.7],[2.48089,48.713482,36.7],[2.480889,48.713475,36.7],[2.480929,48.713462,36.6],[2.480938,48.713452,36.6],[2.480914,48.713434,36.6],[2.480916,48.713416,36.5],[2.480917,48.713423,36.6],[2.48095,48.713429,36.6],[2.480982,48.71345,36.6],[2.481004,48.713454,36.6],[2.480981,48.713454,36.6],[2.480981,48.713463,36.6],[2.48093,48.713465,36.6],[2.480905,48.713457,36.6],[2.480893,48.713467,36.7],[2.480892,48.713459,36.7],[2.480921,48.713454,36.6],[2.480979,48.713467,36.6],[2.480977,48.713459,36.6],[2.480934,48.713465,36.6],[2.480885,48.713446,36.6],[2.480893,48.713435,36.6],[2.480947,48.713436,36.6],[2.480954,48.713445,36.6],[2.480949,48.71344,36.6],[2.480999,48.713457,36.6],[2.481008,48.713469,36.6],[2.480988,48.713484,36.7],[2.480972,48.713471,36.6],[2.480983,48.713479,36.7],[2.480976,48.713494,36.7],[2.480935,48.713484,36.7],[2.480903,48.713486,36.7],[2.480891,48.713497,36.7],[2.48087,48.713481,36.7],[2.480928,48.71347,36.6],[2.480921,48.713454,36.6],[2.480956,48.713443,36.6],[2.480984,48.713446,36.6],[2.480981,48.71346,36.6],[2.481011,48.713481,36.7],[2.480997,48.713491,36.7],[2.480988,48.713489,36.7],[2.481005,48.713472,36.6],[2.480991,48.713479,36.7],[2.481,48.713491,36.7],[2.480972,48.713503,36.7],[2.480988,48.713486,36.7],[2.481007,48.713489,36.7],[2.480984,48.713502,36.7],[2.480932,48.713465,36.6],[2.480948,48.713435,36.6],[2.480998,48.713425,36.6],[2.481093,48.713427,36.5],[2.481112,48.713433,36.5],[2.481072,48.713443,36.5],[2.480992,48.713449,36.6],[2.480936,48.71347,36.6],[2.480904,48.713465,36.6],[2.480897,48.713484,36.7],[2.480887,48.713485,36.7],[2.480901,48.713488,36.7],[2.480973,48.713453,36.6],[2.48097,48.713458,36.6],[2.481027,48.713456,36.6],[2.480981,48.71346,36.6],[2.480934,48.713454,36.6],[2.480993,48.713485,36.7],[2.480973,48.713511,36.8],[2.48098,48.713569,36.9],[2.480965,48.71357,36.9],[2.480941,48.713587,36.9],[2.480894,48.713576,36.9],[2.480872,48.713558,36.9],[2.480853,48.713494,36.7],[2.480883,48.713465,36.7],[2.480882,48.713471,36.7],[2.480882,48.713463,36.7],[2.480905,48.713473,36.6],[2.481002,48.713458,36.6],[2.481005,48.713463,36.6],[2.480965,48.713487,36.7],[2.480956,48.713528,36.8],[2.480969,48.713562,36.8],[2.480961,48.713576,36.9],[2.480938,48.713576,36.9],[2.480875,48.713503,36.7],[2.480896,48.713466,36.6],[2.480938,48.71345,36.6],[2.480956,48.713464,36.6],[2.481,48.713473,36.6],[2.480984,48.713482,36.7],[2.480927,48.713462,36.6],[2.480957,48.713494,36.7],[2.48103,48.713505,36.7],[2.480995,48.713493,36.7],[2.480997,48.713503,36.7],[2.480936,48.713497,36.7],[2.480919,48.713525,36.8],[2.480959,48.713546,36.8],[2.480953,48.713511,36.8],[2.480906,48.713449,36.6],[2.480912,48.713416,36.5],[2.480983,48.713417,36.5],[2.480977,48.713425,36.6],[2.481025,48.713408,36.5],[2.481005,48.713438,36.6],[2.481017,48.713443,36.6],[2.481004,48.713445,36.6],[2.481013,48.713452,36.6],[2.480979,48.713444,36.6],[2.480992,48.713457,36.6],[2.480974,48.71345,36.6],[2.480942,48.713466,36.6],[2.480916,48.71346,36.6],[2.48094,48.713462,36.6],[2.480978,48.713438,36.6],[2.481023,48.713475,36.6],[2.480976,48.713475,36.6],[2.481026,48.71348,36.7],[2.481022,48.713484,36.7],[2.481028,48.713477,36.6],[2.480976,48.713452,36.6],[2.480889,48.713452,36.7],[2.48095,48.713469,36.6],[2.480972,48.713463,36.6],[2.481005,48.713469,36.6],[2.480965,48.713474,36.6],[2.480968,48.713482,36.7],[2.48088,48.713477,36.7],[2.480892,48.713477,36.7],[2.480901,48.713467,36.6],[2.480971,48.713441,36.6],[2.480958,48.71344,36.6],[2.480972,48.713432,36.6],[2.480998,48.713451,36.6],[2.480989,48.713457,36.6],[2.480967,48.713454,36.6],[2.480933,48.713466,36.6],[2.480951,48.713476,36.6],[2.480954,48.713499,36.7],[2.480887,48.713471,36.7],[2.480889,48.713464,36.7],[2.480895,48.713467,36.6],[2.480898,48.713459,36.6],[2.480905,48.713463,36.6],[2.480934,48.713454,36.6],[2.48102,48.71346,36.6],[2.480981,48.713469,36.6],[2.480986,48.713497,36.7],[2.481,48.713491,36.7],[2.480935,48.713412,36.5],[2.480949,48.713408,36.5],[2.480993,48.713453,36.6],[2.480917,48.713459,36.6],[2.480983,48.713485,36.7],[2.480965,48.713498,36.7],[2.480927,48.7135,36.7],[2.480898,48.713488,36.7],[2.480883,48.713464,36.7],[2.480913,48.713446,36.6],[2.480929,48.713467,36.6],[2.480989,48.713465,36.6],[2.480978,48.713481,36.7],[2.48095,48.713447,36.6],[2.480961,48.713461,36.6],[2.480953,48.713476,36.6],[2.480917,48.713462,36.6],[2.480926,48.713461,36.6],[2.48093,48.713473,36.6],[2.480954,48.713464,36.6],[2.481007,48.713472,36.6],[2.481003,48.713483,36.7],[2.480981,48.713484,36.7],[2.480963,48.713504,36.7],[2.480938,48.713506,36.8],[2.48091,48.713491,36.7],[2.480942,48.713469,36.6],[2.480979,48.713475,36.6],[2.480938,48.713484,36.7],[2.480937,48.713492,36.7],[2.480894,48.713497,36.7],[2.480914,48.713509,36.8],[2.480888,48.713506,36.8],[2.48094,48.713523,36.8],[2.480978,48.713521,36.8],[2.480998,48.713475,36.6],[2.48099,48.713445,36.6],[2.480938,48.713435,36.6],[2.480928,48.713412,36.5],[2.480968,48.71341,36.5],[2.480966,48.713424,36.6],[2.480978,48.713437,36.6],[2.480973,48.713457,36.6],[2.480932,48.713487,36.7],[2.480955,48.713502,36.7],[2.481038,48.713511,36.7],[2.481068,48.7135,36.6],[2.48098,48.713452,36.6],[2.480943,48.713452,36.6],[2.480982,48.713482,36.7],[2.480961,48.713482,36.7],[2.480969,48.713466,36.6],[2.480947,48.713498,36.7],[2.480971,48.713516,36.8],[2.480954,48.713507,36.8],[2.480908,48.713522,36.8],[2.480891,48.713515,36.8],[2.480886,48.71347,36.7],[2.480904,48.713469,36.6],[2.480954,48.713446,36.6],[2.480948,48.713436,36.6],[2.480993,48.713439,36.6],[2.481033,48.713468,36.6],[2.481034,48.71348,36.7],[2.481023,48.713475,36.6],[2.481,48.71348,36.7],[2.481,48.71347,36.6],[2.480997,48.713484,36.7],[2.481025,48.713504,36.7],[2.48104,48.713528,36.7],[2.48101,48.713548,36.8],[2.481,48.713539,36.8],[2.480979,48.713538,36.8],[2.481014,48.713538,36.8],[2.48104,48.713507,36.7],[2.481072,48.713495,36.6],[2.481044,48.713464,36.6],[2.481052,48.713456,36.6],[2.480993,48.713438,36.6],[2.481023,48.713446,36.5],[2.480985,48.713454,36.6],[2.48099,48.713423,36.6],[2.480929,48.713405,36.5],[2.48106,48.713418,36.5],[2.481062,48.713413,36.5],[2.48112,48.713419,36.5],[2.481106,48.713423,36.5],[2.481112,48.71344,36.5],[2.481094,48.713444,36.5],[2.481068,48.71347,36.6],[2.481018,48.713487,36.7],[2.480995,48.713504,36.7],[2.480913,48.713508,36.8],[2.480871,48.713496,36.7],[2.480838,48.713449,36.7],[2.480867,48.713445,36.6],[2.48089,48.713468,36.7],[2.480885,48.713486,36.7],[2.480906,48.713509,36.8],[2.480895,48.713519,36.8],[2.480911,48.713527,36.8],[2.480893,48.713531,36.8],[2.480896,48.713541,36.8],[2.480872,48.713559,36.9],[2.480881,48.71356,36.9],[2.480857,48.713624,37.1],[2.480861,48.713603,37],[2.480871,48.713603,37],[2.480868,48.71359,36.9],[2.48085,48.71358,37],[2.480857,48.713577,36.9],[2.480861,48.713583,36.9],[2.480848,48.713573,37],[2.480852,48.713579,36.9],[2.48086,48.713575,36.9],[2.480883,48.713583,36.9],[2.480874,48.713556,36.9],[2.480869,48.713564,36.9],[2.480877,48.713561,36.9],[2.480858,48.713566,36.9],[2.480866,48.713571,36.9],[2.480849,48.713581,37],[2.48086,48.713575,36.9],[2.480858,48.7136,37],[2.480915,48.713686,37.2],[2.480931,48.713696,37.2],[2.480934,48.71369,37.2],[2.480919,48.713712,37.3],[2.480925,48.713705,37.3],[2.480916,48.713695,37.2],[2.480927,48.713691,37.2],[2.48092,48.713674,37.1],[2.480903,48.713671,37.1],[2.480912,48.713675,37.1],[2.480902,48.713671,37.1],[2.480906,48.713658,37.1],[2.480901,48.713676,37.2],[2.480901,48.713661,37.1],[2.480942,48.713681,37.2],[2.480935,48.713666,37.1],[2.480924,48.713674,37.1],[2.480917,48.713662,37.1],[2.480902,48.713668,37.1],[2.480912,48.713657,37.1],[2.480887,48.713649,37.2],[2.480845,48.713676,37.3],[2.480883,48.713674,37.2],[2.480915,48.713688,37.2],[2.480924,48.7137,37.2],[2.480891,48.713713,37.3],[2.480902,48.713709,37.3],[2.480891,48.713707,37.3],[2.480867,48.713724,37.3],[2.480881,48.713709,37.3],[2.480866,48.713692,37.3],[2.48087,48.713684,37.3],[2.480824,48.713681,37.3],[2.48085,48.713689,37.3],[2.480903,48.713675,37.1],[2.480894,48.713665,37.1],[2.480886,48.713671,37.2],[2.480896,48.713661,37.1],[2.480906,48.713667,37.1],[2.480896,48.71368,37.2],[2.480897,48.713671,37.1],[2.480877,48.713668,37.2],[2.48086,48.71368,37.3],[2.480916,48.713692,37.2],[2.480929,48.713682,37.2],[2.480952,48.713703,37.2],[2.48096,48.713738,37.3],[2.480944,48.713719,37.3],[2.480952,48.713707,37.3],[2.480938,48.713709,37.3],[2.480926,48.713724,37.3],[2.480928,48.713717,37.3],[2.480936,48.713722,37.3],[2.480924,48.713712,37.3],[2.480921,48.713718,37.3],[2.480917,48.713713,37.3],[2.480929,48.713719,37.3],[2.480926,48.713714,37.3],[2.480923,48.71372,37.3],[2.48092,48.713704,37.3],[2.480909,48.713703,37.2],[2.480916,48.713686,37.2],[2.480898,48.713676,37.2],[2.480864,48.713677,37.3],[2.480862,48.71369,37.3],[2.480884,48.713688,37.3],[2.480876,48.713693,37.3],[2.480872,48.713666,37.2],[2.480856,48.713678,37.3],[2.480867,48.71367,37.2],[2.480928,48.713673,37.1],[2.480942,48.713692,37.2],[2.480935,48.713716,37.3],[2.480899,48.713724,37.3],[2.480875,48.713701,37.3],[2.480891,48.713687,37.3],[2.480887,48.71368,37.3],[2.480907,48.713652,37.1],[2.480898,48.713655,37.1],[2.480901,48.713688,37.2],[2.480889,48.71368,37.3],[2.480885,48.713693,37.3],[2.480874,48.713689,37.3],[2.480878,48.71368,37.3],[2.48086,48.71368,37.3],[2.480875,48.713685,37.3],[2.480881,48.713675,37.2],[2.480809,48.713674,37.2],[2.480804,48.713687,37.3],[2.480885,48.713681,37.3],[2.480908,48.713686,37.2],[2.480927,48.713671,37.1],[2.480897,48.713689,37.2],[2.480907,48.713696,37.2],[2.48092,48.713679,37.2],[2.480882,48.713706,37.3],[2.480889,48.713713,37.3],[2.48093,48.713716,37.3],[2.480959,48.713729,37.3],[2.48091,48.713761,37.4],[2.480896,48.713738,37.4],[2.480912,48.713702,37.2],[2.480891,48.713704,37.3],[2.480904,48.71371,37.3],[2.480904,48.713701,37.2],[2.480901,48.713709,37.3],[2.480906,48.713666,37.1],[2.480902,48.713685,37.2],[2.480963,48.713676,37.2],[2.480915,48.713681,37.2],[2.480905,48.713666,37.1],[2.480919,48.713678,37.2],[2.480902,48.713679,37.2],[2.480898,48.713668,37.1],[2.480901,48.713681,37.2],[2.480918,48.713667,37.1],[2.480867,48.713726,37.3],[2.480945,48.713726,37.3],[2.480935,48.713732,37.4],[2.480916,48.713693,37.2],[2.480938,48.713681,37.2],[2.480909,48.713661,37.1],[2.480901,48.713665,37.1],[2.480894,48.713651,37.1],[2.480926,48.713672,37.1],[2.480959,48.713662,37.1],[2.480917,48.713654,37.1],[2.480839,48.713664,37.2],[2.48094,48.713668,37.1],[2.480912,48.713672,37.1],[2.480897,48.713702,37.2],[2.480904,48.713713,37.3],[2.480927,48.713697,37.2],[2.480948,48.713664,37.1],[2.480981,48.713742,37.3],[2.480952,48.713743,37.3],[2.48094,48.71376,37.3],[2.480925,48.713754,37.4],[2.480886,48.713762,37.5],[2.480837,48.71375,37.4],[2.480879,48.713738,37.4],[2.480957,48.713735,37.3],[2.480993,48.713715,37.2],[2.480968,48.713728,37.3],[2.480943,48.713728,37.3],[2.480926,48.713711,37.3],[2.480911,48.713672,37.1],[2.480891,48.713673,37.2],[2.480887,48.713684,37.3],[2.480867,48.713681,37.3],[2.480868,48.713673,37.2],[2.480908,48.713689,37.2],[2.480901,48.71367,37.1],[2.480876,48.713659,37.2],[2.480864,48.713675,37.2],[2.480881,48.713663,37.2],[2.48087,48.713654,37.2],[2.480883,48.713673,37.2],[2.480883,48.713699,37.3],[2.480882,48.713691,37.3],[2.480904,48.713684,37.2],[2.480881,48.713679,37.3],[2.480876,48.71369,37.3],[2.48092,48.713669,37.1],[2.480817,48.713686,37.3],[2.480845,48.713671,37.2],[2.480849,48.713657,37.2],[2.480858,48.713669,37.2],[2.480932,48.713666,37.1],[2.48091,48.713649,37.1],[2.480877,48.71368,37.3],[2.48085,48.713689,37.3],[2.480866,48.713709,37.3],[2.480938,48.713709,37.3],[2.480952,48.713689,37.2],[2.480901,48.713693,37.2],[2.480912,48.713693,37.2],[2.480868,48.713693,37.3],[2.480873,48.713688,37.3],[2.480924,48.71369,37.2],[2.48094,48.713679,37.2],[2.48093,48.713666,37.1],[2.48088,48.713659,37.2],[2.48086,48.713668,37.2],[2.480883,48.71367,37.2],[2.48087,48.713705,37.3],[2.480916,48.713718,37.3],[2.480941,48.71371,37.3],[2.480933,48.713707,37.3],[2.480904,48.713722,37.3],[2.480918,48.713698,37.2],[2.480902,48.713679,37.2],[2.480894,48.7137,37.2],[2.480859,48.713704,37.3],[2.48091,48.713677,37.2],[2.480876,48.713669,37.2],[2.480885,48.713673,37.2],[2.48091,48.713659,37.1],[2.480918,48.713664,37.1],[2.480908,48.713687,37.2],[2.480936,48.713722,37.3],[2.480969,48.713722,37.3],[2.480933,48.713729,37.3],[2.480914,48.713717,37.3],[2.480884,48.713713,37.3],[2.480884,48.713695,37.3],[2.480863,48.713697,37.3],[2.480812,48.713726,37.4],[2.480848,48.713661,37.2],[2.480873,48.713644,37.1],[2.480871,48.713632,37.1],[2.480893,48.713608,37],[2.48095,48.713585,36.9],[2.4809,48.713583,36.9],[2.480872,48.713573,36.9],[2.480872,48.713565,36.9],[2.480865,48.713578,36.9],[2.480868,48.713573,36.9],[2.480853,48.713585,36.9],[2.480825,48.71359,37],[2.480815,48.713583,37],[2.480838,48.713548,36.9],[2.480831,48.713517,36.8],[2.48084,48.713513,36.8],[2.480846,48.71348,36.8],[2.480859,48.713484,36.7],[2.480905,48.713539,36.8],[2.480903,48.713555,36.8],[2.480867,48.713578,36.9],[2.480863,48.713592,37],[2.480868,48.713579,36.9],[2.480875,48.713595,37],[2.480849,48.713602,37.1],[2.480874,48.713587,36.9],[2.480912,48.713589,36.9],[2.480867,48.713593,37],[2.480847,48.713562,36.9],[2.480898,48.713539,36.8],[2.48095,48.713481,36.7],[2.480996,48.713479,36.7],[2.481003,48.713484,36.7],[2.481014,48.713476,36.6],[2.481014,48.713485,36.7],[2.48102,48.71348,36.7],[2.481065,48.713485,36.6],[2.48106,48.713513,36.7],[2.481038,48.713504,36.7],[2.480993,48.713465,36.6],[2.480961,48.713456,36.6],[2.480978,48.713442,36.6],[2.480979,48.713452,36.6],[2.480996,48.713462,36.6],[2.481013,48.713492,36.7],[2.481026,48.713495,36.7],[2.481041,48.713476,36.6],[2.481019,48.713465,36.6],[2.480996,48.713477,36.6],[2.480997,48.713492,36.7],[2.480992,48.713487,36.7],[2.481008,48.713483,36.7],[2.480974,48.713471,36.6],[2.480949,48.713475,36.6],[2.480974,48.713475,36.6],[2.480996,48.713456,36.6],[2.481011,48.713461,36.6],[2.481024,48.71344,36.5],[2.481032,48.713441,36.5],[2.481018,48.713456,36.6],[2.481018,48.713476,36.6],[2.481045,48.713481,36.7],[2.481006,48.713482,36.7],[2.480962,48.713495,36.7],[2.480966,48.713477,36.6],[2.480928,48.713455,36.6],[2.480936,48.713441,36.6],[2.480942,48.713454,36.6],[2.48093,48.713472,36.6],[2.480987,48.7135,36.7],[2.481051,48.713481,36.7],[2.481054,48.713488,36.7],[2.480983,48.713496,36.7],[2.480999,48.713503,36.7],[2.481067,48.713488,36.6],[2.481095,48.713502,36.6],[2.481068,48.71349,36.6],[2.481061,48.713473,36.6],[2.481032,48.713459,36.6],[2.480972,48.713451,36.6],[2.480983,48.713443,36.6],[2.481009,48.713468,36.6],[2.481015,48.713488,36.7],[2.481033,48.713489,36.7],[2.481035,48.713496,36.7],[2.481016,48.713503,36.7],[2.480992,48.713501,36.7],[2.48103,48.71351,36.7],[2.48102,48.713512,36.7],[2.481047,48.713533,36.7],[2.481085,48.713518,36.7],[2.481053,48.713497,36.7],[2.481035,48.713495,36.7],[2.481027,48.713459,36.6],[2.481003,48.713451,36.6],[2.480989,48.713454,36.6],[2.480982,48.7134,36.5],[2.481002,48.713424,36.6],[2.480997,48.713452,36.6],[2.481032,48.713474,36.6],[2.481026,48.713466,36.6],[2.480989,48.713482,36.7],[2.480935,48.713437,36.6],[2.480933,48.713426,36.6],[2.48095,48.713409,36.5],[2.480963,48.713415,36.5],[2.480963,48.713425,36.6],[2.481002,48.713427,36.6],[2.481019,48.713461,36.6],[2.481071,48.713482,36.6],[2.48105,48.713486,36.7],[2.481074,48.713519,36.7],[2.481028,48.713517,36.7],[2.481,48.713472,36.6],[2.480998,48.7135,36.7],[2.481012,48.713495,36.7],[2.481033,48.713505,36.7],[2.481038,48.713497,36.7],[2.481036,48.713502,36.7],[2.481003,48.713502,36.7],[2.480974,48.713492,36.7],[2.480989,48.713501,36.7],[2.480949,48.713495,36.7],[2.480993,48.713518,36.7],[2.480927,48.713475,36.6],[2.480934,48.713462,36.6],[2.480975,48.713438,36.6],[2.481049,48.713485,36.7],[2.481055,48.713469,36.6],[2.480997,48.713474,36.6],[2.480962,48.713452,36.6],[2.480985,48.713434,36.6],[2.480976,48.713427,36.6],[2.480994,48.713433,36.6],[2.481034,48.71348,36.7],[2.481031,48.713487,36.7],[2.48104,48.713485,36.7],[2.481035,48.713464,36.6],[2.481055,48.713484,36.7],[2.481041,48.713504,36.7],[2.480994,48.713504,36.7],[2.480961,48.713447,36.6],[2.480982,48.71343,36.6],[2.480987,48.713449,36.6],[2.481021,48.71348,36.7],[2.481069,48.713474,36.6],[2.481059,48.713463,36.6],[2.480993,48.713465,36.6],[2.480992,48.713471,36.6],[2.481025,48.713472,36.6],[2.481046,48.713456,36.6],[2.480997,48.713469,36.6],[2.481019,48.71347,36.6],[2.481008,48.713481,36.7],[2.480966,48.713461,36.6],[2.480953,48.713437,36.6],[2.480964,48.713437,36.6],[2.480971,48.713424,36.6],[2.481012,48.713437,36.6],[2.481039,48.713479,36.7],[2.481056,48.71348,36.7],[2.481048,48.713488,36.7],[2.481014,48.713494,36.7],[2.481037,48.713494,36.7],[2.481055,48.713478,36.7],[2.480997,48.713505,36.7],[2.480991,48.713466,36.6],[2.480958,48.713457,36.6],[2.480974,48.713446,36.6],[2.481002,48.713476,36.6],[2.48099,48.713477,36.6],[2.480986,48.713487,36.7],[2.481004,48.713485,36.7],[2.481013,48.71347,36.6],[2.480991,48.713469,36.6],[2.480956,48.713426,36.6],[2.480937,48.713429,36.6],[2.480941,48.71344,36.6],[2.480932,48.713437,36.6],[2.480963,48.713452,36.6],[2.480981,48.713479,36.7],[2.480989,48.713476,36.6],[2.481001,48.713494,36.7],[2.481066,48.713499,36.6],[2.481059,48.713508,36.7],[2.480999,48.713513,36.7],[2.480966,48.713505,36.7],[2.48099,48.713512,36.7],[2.481036,48.71349,36.7],[2.481071,48.713515,36.7],[2.481066,48.713525,36.7],[2.481023,48.713493,36.7],[2.481052,48.713481,36.7],[2.481025,48.713444,36.5],[2.480938,48.713425,36.6],[2.480978,48.713424,36.6],[2.481004,48.713457,36.6],[2.481102,48.713477,36.6],[2.481092,48.713487,36.6],[2.481053,48.71348,36.7],[2.480999,48.713449,36.6],[2.481012,48.71357,36.9],[2.480996,48.713599,36.9],[2.480993,48.713588,36.9],[2.48094,48.713576,36.9],[2.480906,48.713509,36.8],[2.480897,48.713515,36.8],[2.480884,48.713508,36.8],[2.480882,48.713495,36.7],[2.480859,48.713488,36.7],[2.480855,48.713511,36.8],[2.480847,48.713509,36.8],[2.480866,48.713583,36.9],[2.480866,48.713706,37.3],[2.480846,48.713716,37.4],[2.480836,48.713707,37.4],[2.480841,48.713732,37.4],[2.480826,48.713739,37.4],[2.480846,48.713731,37.4],[2.48087,48.713742,37.4],[2.480873,48.713723,37.3],[2.480892,48.713731,37.3],[2.48089,48.713741,37.4],[2.480877,48.713744,37.4],[2.480885,48.713737,37.4],[2.480889,48.713742,37.4],[2.480894,48.713734,37.4],[2.480955,48.713733,37.3],[2.480965,48.713724,37.3],[2.481004,48.713723,37.2],[2.480955,48.71373,37.3],[2.480875,48.713713,37.3],[2.480889,48.713724,37.3],[2.480893,48.713711,37.3],[2.480875,48.713737,37.4],[2.480864,48.713705,37.3],[2.480887,48.713686,37.3],[2.480923,48.713673,37.1],[2.480912,48.713675,37.1],[2.480911,48.713689,37.2],[2.480905,48.713685,37.2],[2.480918,48.713698,37.2],[2.480893,48.713709,37.3],[2.480902,48.713681,37.2],[2.480892,48.713676,37.3],[2.480884,48.713688,37.3],[2.480882,48.713683,37.3],[2.480904,48.713681,37.2],[2.480864,48.713721,37.3],[2.480872,48.713725,37.3],[2.480876,48.713718,37.3],[2.48089,48.713731,37.3],[2.480922,48.713726,37.3],[2.480913,48.713728,37.3],[2.48087,48.713708,37.3],[2.480866,48.713694,37.3],[2.480878,48.713686,37.3],[2.480876,48.71367,37.2],[2.480892,48.713687,37.3],[2.480885,48.713699,37.3],[2.480882,48.713689,37.3],[2.480842,48.713701,37.3],[2.48089,48.713695,37.3],[2.480899,48.713703,37.2],[2.480879,48.713701,37.3],[2.480873,48.713676,37.3],[2.480883,48.713678,37.3],[2.480863,48.713681,37.3],[2.480891,48.713686,37.3],[2.480898,48.713673,37.1],[2.480837,48.713681,37.3],[2.480907,48.713686,37.2],[2.480983,48.713662,37.1],[2.480961,48.713672,37.1],[2.480959,48.713691,37.2],[2.480971,48.713687,37.2],[2.480946,48.713686,37.2],[2.480888,48.7137,37.3],[2.480904,48.713694,37.2],[2.480903,48.713676,37.2],[2.480868,48.71369,37.3],[2.480906,48.713687,37.2],[2.480907,48.713682,37.2],[2.480887,48.713686,37.3],[2.480858,48.713653,37.2],[2.480865,48.713702,37.3],[2.480845,48.713722,37.4],[2.480805,48.713728,37.4],[2.48081,48.713703,37.3],[2.480838,48.713695,37.3],[2.480865,48.713701,37.3],[2.480878,48.713713,37.3],[2.480932,48.713714,37.3],[2.480908,48.713714,37.3],[2.480927,48.713711,37.3],[2.480924,48.713683,37.2],[2.480932,48.713676,37.2],[2.480903,48.713696,37.2],[2.480912,48.713692,37.2],[2.480898,48.713693,37.2],[2.480915,48.713701,37.2],[2.480911,48.713687,37.2],[2.480901,48.713687,37.2],[2.480911,48.713685,37.2],[2.480907,48.713672,37.1],[2.48092,48.713682,37.2],[2.480902,48.713682,37.2],[2.480883,48.713695,37.3],[2.480863,48.713665,37.2],[2.480851,48.713662,37.2],[2.480865,48.713671,37.2],[2.480907,48.713674,37.1],[2.480915,48.713694,37.2],[2.480906,48.713682,37.2],[2.480896,48.713683,37.2],[2.480898,48.713703,37.2],[2.480903,48.713698,37.2],[2.480844,48.713705,37.4],[2.480914,48.71367,37.1],[2.480939,48.713634,37],[2.480931,48.713622,37.1],[2.480978,48.713668,37.1],[2.481011,48.713686,37.2],[2.481017,48.713709,37.2],[2.480984,48.713728,37.2],[2.480974,48.713722,37.3],[2.480979,48.71373,37.2],[2.480969,48.713741,37.3],[2.480938,48.713728,37.3],[2.480897,48.713734,37.4],[2.480871,48.713723,37.3],[2.480911,48.713713,37.3],[2.480997,48.71367,37.1],[2.481008,48.713671,37.1],[2.480976,48.713723,37.3],[2.480958,48.713732,37.3],[2.480911,48.713735,37.4],[2.48086,48.713722,37.3],[2.480871,48.713698,37.3],[2.480897,48.713675,37.1],[2.480891,48.71368,37.3],[2.480878,48.713661,37.2],[2.480894,48.713658,37.1],[2.480862,48.713672,37.2],[2.48088,48.713671,37.2],[2.480884,48.713661,37.2],[2.480892,48.713671,37.2],[2.480921,48.713673,37.1],[2.480887,48.713698,37.3],[2.480867,48.7137,37.3],[2.480866,48.713687,37.3],[2.48089,48.713712,37.3],[2.48089,48.713702,37.3],[2.48095,48.713695,37.2],[2.480932,48.713678,37.2],[2.480905,48.713673,37.1],[2.480879,48.713688,37.3],[2.48095,48.713715,37.3],[2.480965,48.713712,37.3],[2.481011,48.713726,37.2],[2.481058,48.713727,37.2],[2.480951,48.713729,37.3],[2.480939,48.713738,37.3],[2.480832,48.71374,37.4],[2.480849,48.713728,37.4],[2.480893,48.713722,37.3],[2.480893,48.713677,37.3],[2.480901,48.713677,37.2],[2.480895,48.713689,37.2],[2.480904,48.713669,37.1],[2.480906,48.713674,37.1],[2.480882,48.713679,37.3],[2.480893,48.713675,37.2],[2.480876,48.713691,37.3],[2.480904,48.713691,37.2],[2.480854,48.713684,37.3],[2.480882,48.713676,37.3],[2.480871,48.713674,37.2],[2.480865,48.713683,37.3],[2.480862,48.713662,37.2],[2.480857,48.713669,37.2],[2.480832,48.713673,37.2],[2.480872,48.71367,37.2],[2.480883,48.713686,37.3],[2.480915,48.713688,37.2],[2.48092,48.713615,37],[2.480961,48.713627,37],[2.480937,48.713626,37],[2.480945,48.713655,37.1],[2.480874,48.713611,37],[2.48087,48.713567,36.9],[2.48086,48.713589,36.9],[2.480921,48.713618,37],[2.480889,48.713644,37.1],[2.480885,48.713675,37.2],[2.480867,48.713683,37.3],[2.480881,48.713686,37.3],[2.480886,48.713702,37.3],[2.480902,48.713697,37.2],[2.480889,48.713686,37.3],[2.480857,48.713682,37.3],[2.48095,48.713649,37.1],[2.480943,48.713672,37.1],[2.480958,48.7137,37.2],[2.480977,48.713708,37.3],[2.480951,48.713732,37.3],[2.480958,48.713733,37.3],[2.480925,48.713747,37.4],[2.480814,48.71372,37.4],[2.480823,48.713708,37.4],[2.480812,48.713718,37.4],[2.480805,48.71371,37.4],[2.480818,48.713699,37.3],[2.480804,48.713695,37.3],[2.48081,48.713701,37.3],[2.480807,48.713689,37.3],[2.480842,48.713712,37.4],[2.480881,48.713709,37.3],[2.480912,48.713698,37.2],[2.480917,48.713677,37.2],[2.480903,48.713666,37.1],[2.480905,48.713679,37.2],[2.480952,48.713686,37.2],[2.480958,48.713672,37.1],[2.480965,48.713678,37.2],[2.480958,48.713686,37.2],[2.480886,48.713694,37.3],[2.480891,48.713682,37.3],[2.480875,48.713687,37.3],[2.48093,48.713698,37.2],[2.480939,48.713689,37.2],[2.480906,48.713638,37.1],[2.480917,48.713599,37],[2.480882,48.713641,37.1],[2.480873,48.713673,37.2],[2.480858,48.713681,37.3],[2.480853,48.71372,37.3],[2.480874,48.713719,37.3],[2.480911,48.713735,37.4],[2.480941,48.713718,37.3],[2.480927,48.713711,37.3],[2.480932,48.713702,37.2],[2.480921,48.713692,37.2],[2.480936,48.713676,37.2],[2.480847,48.713735,37.4],[2.480786,48.713727,37.4],[2.480784,48.71371,37.4],[2.480803,48.713709,37.4],[2.480848,48.713674,37.2],[2.480856,48.713626,37.1],[2.480871,48.713604,37],[2.480863,48.713573,36.9],[2.480879,48.713551,36.9],[2.480847,48.713492,36.8],[2.480879,48.713538,36.9],[2.480885,48.713567,36.9],[2.480867,48.713594,37],[2.480898,48.713571,36.9],[2.480873,48.713572,36.9],[2.480866,48.713584,36.9],[2.480843,48.713585,37],[2.480849,48.713594,37.1],[2.48086,48.71353,36.8],[2.480893,48.71349,36.7],[2.4809,48.71345,36.6],[2.480928,48.71342,36.5],[2.480953,48.713412,36.5],[2.480948,48.713407,36.5],[2.480958,48.713467,36.6],[2.480977,48.713463,36.6],[2.480948,48.713453,36.6],[2.480987,48.713442,36.6],[2.480959,48.713476,36.6],[2.480969,48.713448,36.6],[2.481005,48.713406,36.5],[2.481048,48.713384,36.4],[2.480982,48.713409,36.5],[2.480967,48.713404,36.5],[2.480974,48.713399,36.5],[2.480966,48.713434,36.6],[2.480973,48.713456,36.6],[2.48096,48.713456,36.6],[2.48097,48.713449,36.6],[2.480951,48.713458,36.6],[2.480963,48.713457,36.6],[2.48097,48.713445,36.6],[2.480954,48.713467,36.6],[2.48096,48.713456,36.6],[2.48098,48.713469,36.6],[2.480964,48.713435,36.6],[2.480979,48.71341,36.5],[2.48097,48.713435,36.6],[2.480946,48.71343,36.6],[2.480943,48.713418,36.5],[2.480949,48.71343,36.6],[2.48091,48.71347,36.6],[2.480946,48.713454,36.6],[2.480931,48.713457,36.6],[2.480931,48.713468,36.6],[2.480925,48.713455,36.6],[2.480947,48.713445,36.6],[2.480933,48.713458,36.6],[2.481061,48.713395,36.5],[2.481172,48.713362,36.4],[2.481135,48.713391,36.4],[2.480973,48.713435,36.6],[2.480944,48.713426,36.6],[2.480964,48.713403,36.5],[2.480987,48.713402,36.5],[2.480977,48.713404,36.5],[2.480969,48.713424,36.6],[2.481,48.713426,36.6],[2.481014,48.713418,36.5],[2.481011,48.713431,36.6],[2.481054,48.713441,36.5],[2.481075,48.713461,36.6],[2.481127,48.713445,36.5],[2.481028,48.713461,36.6],[2.481036,48.71347,36.6],[2.48102,48.713466,36.6],[2.481029,48.713461,36.6],[2.481032,48.713487,36.7],[2.481013,48.713482,36.7],[2.480997,48.713429,36.6],[2.481038,48.713463,36.6],[2.481027,48.713457,36.6],[2.481014,48.713469,36.6],[2.481013,48.713461,36.6],[2.481005,48.713463,36.6],[2.481013,48.713468,36.6],[2.480994,48.713465,36.6],[2.480989,48.713456,36.6],[2.480988,48.713462,36.6],[2.480993,48.713457,36.6],[2.480989,48.713467,36.6],[2.480982,48.713464,36.6],[2.48099,48.713463,36.6],[2.480992,48.713472,36.6],[2.481021,48.713467,36.6],[2.481013,48.713473,36.6],[2.481021,48.713483,36.7],[2.481022,48.713467,36.6],[2.481012,48.713464,36.6],[2.481021,48.713462,36.6],[2.481016,48.713469,36.6],[2.481012,48.713462,36.6],[2.481036,48.71345,36.6],[2.481048,48.713459,36.6],[2.481037,48.713462,36.6],[2.481045,48.713452,36.6],[2.480994,48.713439,36.6],[2.481008,48.713447,36.6],[2.480993,48.713445,36.6],[2.481,48.713445,36.6],[2.480963,48.713437,36.6],[2.480986,48.713436,36.6],[2.481031,48.713448,36.5],[2.480997,48.713438,36.6],[2.481021,48.713448,36.6],[2.480992,48.713448,36.6],[2.480989,48.713464,36.6],[2.480993,48.713458,36.6],[2.481014,48.713467,36.6],[2.48102,48.713518,36.7],[2.480979,48.713584,36.9],[2.480985,48.713593,36.9],[2.481067,48.713592,36.9],[2.48108,48.713599,36.9],[2.481082,48.713622,37],[2.481045,48.713681,37.1],[2.481015,48.713696,37.2],[2.480976,48.713733,37.3],[2.481018,48.713748,37.3],[2.481049,48.713734,37.2],[2.481029,48.713752,37.2],[2.481027,48.713737,37.2],[2.48103,48.713748,37.2],[2.480998,48.713744,37.3],[2.48099,48.713749,37.3],[2.480985,48.713738,37.3],[2.48089,48.713673,37.2],[2.480842,48.713613,37.1],[2.480832,48.713574,37],[2.48085,48.713549,36.9],[2.48091,48.713507,36.8],[2.48092,48.713511,36.8],[2.480918,48.713533,36.8],[2.480854,48.713592,37],[2.480877,48.713585,36.9],[2.480874,48.713594,37],[2.480881,48.713585,36.9],[2.480881,48.713599,37],[2.480877,48.713577,36.9],[2.480848,48.713607,37.1],[2.480885,48.713582,36.9],[2.480893,48.713591,37],[2.480882,48.713597,37],[2.480887,48.713589,36.9],[2.480881,48.713592,37],[2.48091,48.713586,36.9],[2.480916,48.713559,36.8],[2.480912,48.713567,36.9],[2.480923,48.713564,36.9],[2.480899,48.71358,36.9],[2.480906,48.713593,37],[2.480936,48.713574,36.9],[2.480922,48.71358,36.9],[2.480922,48.71359,36.9],[2.480895,48.713582,36.9],[2.480877,48.713586,36.9],[2.480861,48.71358,36.9],[2.480876,48.713585,36.9],[2.48086,48.713589,36.9],[2.48087,48.713594,37],[2.480861,48.713596,37],[2.480875,48.713592,37],[2.480838,48.713583,37],[2.480849,48.713596,37.1],[2.480856,48.713582,36.9],[2.480896,48.713582,36.9]]}}]}