<?xml version="1.0" encoding="UTF-8"?>
<gpx creator="gps4cam - http://gps4cam.com" version="1.1" schemaLocation="http://www.topografix.com/GPX/1/1 http://www.topografix.com/GPX/1/1/gpx.xsd" xmlns="http://www.topografix.com/GPX/1/1" xmlns:xsi="http://www.w3.org/2001/XMLSchema-instance" xsi:schemaLocation="http://www.topografix.com/GPX/1/1 http://www.topografix.com/GPX/1/1/gpx.xsd http://www.garmin.com/xmlschemas/GpxExtensions/v3 http://www.garmin.com/xmlschemas/GpxExtensionsv3.xsd http://www.garmin.com/xmlschemas/TrackPointExtension/v1 http://www.garmin.com/xmlschemas/TrackPointExtensionv1.xsd http://www.garmin.com/xmlschemas/PowerExtension/v1 http://www.garmin.com/xmlschemas/PowerExtensionv1.xsd http://www.topografix.com/GPX/gpx_style/0/2 http://www.topografix.com/GPX/gpx_style/0/2/gpx_style.xsd" xmlns:gpxtpx="http://www.garmin.com/xmlschemas/TrackPointExtension/v1" xmlns:gpxx="http://www.garmin.com/xmlschemas/GpxExtensions/v3" xmlns:gpxpx="http://www.garmin.com/xmlschemas/PowerExtension/v1" xmlns:gpx_style="http://www.topografix.com/GPX/gpx_style/0/2">
  <metadata>
    <name>gps4cam trip started at 2018-02-28 12-59 decoded at 2018-02-28 21-11-23</name>
    <author>
      <name>gpx.studio</name>
      <link href="https://gpx.studio"/>
    </author>
    <link href="http://gps4cam.com">
      <text>gps4cam</text>
    </link>
    <time>2018-02-28T20:11:24.000Z</time>
  </metadata>
  <trk>
    <name>gps4cam trip started at: 2018-02-28T11:59:06Z</name>
    <trkseg>
      <trkpt lat="19.2757984914" lon="-69.4566298101">
        <time>2018-02-28T16:35:11.000Z</time>
      </trkpt>
      <trkpt lat="19.2759770824" lon="-69.456636355">
        <time>2018-02-28T16:35:12.000Z</time>
      </trkpt>
      <trkpt lat="19.2764765993" lon="-69.4564583819">
        <time>2018-02-28T16:35:14.000Z</time>
      </trkpt>
      <trkpt lat="19.2766803638" lon="-69.4562940153">
        <time>2018-02-28T16:35:27.000Z</time>
      </trkpt>
      <trkpt lat="19.2767503364" lon="-69.456431029">
        <time>2018-02-28T16:36:31.000Z</time>
      </trkpt>
      <trkpt lat="19.2768616081" lon="-69.4565452317">
        <time>2018-02-28T16:36:35.000Z</time>
      </trkpt>
      <trkpt lat="19.2769154192" lon="-69.4563533199">
        <time>2018-02-28T16:36:46.000Z</time>
      </trkpt>
      <trkpt lat="19.276784517" lon="-69.4563162868">
        <time>2018-02-28T16:36:52.000Z</time>
      </trkpt>
      <trkpt lat="19.2766469942" lon="-69.4563140017">
        <time>2018-02-28T16:37:59.000Z</time>
      </trkpt>
      <trkpt lat="19.2768002591" lon="-69.4563241732">
        <time>2018-02-28T16:38:27.000Z</time>
      </trkpt>
      <trkpt lat="19.2766564626" lon="-69.456316026">
        <time>2018-02-28T16:39:05.000Z</time>
      </trkpt>
      <trkpt lat="19.2765233272" lon="-69.456355363">
        <time>2018-02-28T16:39:39.000Z</time>
      </trkpt>
      <trkpt lat="19.2766609656" lon="-69.4563441112">
        <time>2018-02-28T16:41:04.000Z</time>
      </trkpt>
      <trkpt lat="19.2766240167" lon="-69.4562277204">
        <time>2018-02-28T17:04:31.000Z</time>
      </trkpt>
      <trkpt lat="19.276697531" lon="-69.4563202871">
        <time>2018-02-28T17:11:00.000Z</time>
      </trkpt>
      <trkpt lat="19.2765409558" lon="-69.4563274893">
        <time>2018-02-28T17:14:35.000Z</time>
      </trkpt>
      <trkpt lat="19.2764097067" lon="-69.4563310666">
        <time>2018-02-28T17:14:50.000Z</time>
      </trkpt>
      <trkpt lat="19.2764251022" lon="-69.4563795626">
        <time>2018-02-28T17:17:00.000Z</time>
      </trkpt>
      <trkpt lat="19.2764251022" lon="-69.4563795626">
        <time>2018-02-28T17:17:01.000Z</time>
      </trkpt>
      <trkpt lat="19.2764221387" lon="-69.4563563269">
        <time>2018-02-28T17:17:05.000Z</time>
      </trkpt>
      <trkpt lat="19.2762915829" lon="-69.4562786856">
        <time>2018-02-28T17:18:27.000Z</time>
      </trkpt>
      <trkpt lat="19.276399892" lon="-69.4563696511">
        <time>2018-02-28T17:18:42.000Z</time>
      </trkpt>
      <trkpt lat="19.2762775335" lon="-69.4564429356">
        <time>2018-02-28T17:21:54.000Z</time>
      </trkpt>
      <trkpt lat="19.2761611803" lon="-69.4563683313">
        <time>2018-02-28T17:22:59.000Z</time>
      </trkpt>
      <trkpt lat="19.2760370135" lon="-69.456283016">
        <time>2018-02-28T17:24:12.000Z</time>
      </trkpt>
      <trkpt lat="19.2759303591" lon="-69.4561833643">
        <time>2018-02-28T17:24:29.000Z</time>
      </trkpt>
      <trkpt lat="19.2758077313" lon="-69.4561028996">
        <time>2018-02-28T17:24:47.000Z</time>
      </trkpt>
      <trkpt lat="19.2759034538" lon="-69.4560013166">
        <time>2018-02-28T17:25:30.000Z</time>
      </trkpt>
      <trkpt lat="19.27578556" lon="-69.4559218646">
        <time>2018-02-28T17:25:48.000Z</time>
      </trkpt>
      <trkpt lat="19.2758624606" lon="-69.4558026959">
        <time>2018-02-28T17:26:06.000Z</time>
      </trkpt>
      <trkpt lat="19.2759315476" lon="-69.4556728157">
        <time>2018-02-28T17:26:21.000Z</time>
      </trkpt>
      <trkpt lat="19.2758693855" lon="-69.4555465157">
        <time>2018-02-28T17:26:46.000Z</time>
      </trkpt>
      <trkpt lat="19.2757331718" lon="-69.455576157">
        <time>2018-02-28T17:27:01.000Z</time>
      </trkpt>
      <trkpt lat="19.2755967276" lon="-69.4556328714">
        <time>2018-02-28T17:27:21.000Z</time>
      </trkpt>
      <trkpt lat="19.2754697519" lon="-69.4556916103">
        <time>2018-02-28T17:27:36.000Z</time>
      </trkpt>
      <trkpt lat="19.2753309198" lon="-69.4556574073">
        <time>2018-02-28T17:27:55.000Z</time>
      </trkpt>
      <trkpt lat="19.2752130249" lon="-69.4555779575">
        <time>2018-02-28T17:28:11.000Z</time>
      </trkpt>
      <trkpt lat="19.2750725377" lon="-69.4555524423">
        <time>2018-02-28T17:28:30.000Z</time>
      </trkpt>
      <trkpt lat="19.2749754643" lon="-69.4554412822">
        <time>2018-02-28T17:28:46.000Z</time>
      </trkpt>
      <trkpt lat="19.2748846644" lon="-69.4553359842">
        <time>2018-02-28T17:29:01.000Z</time>
      </trkpt>
      <trkpt lat="19.2747683083" lon="-69.4552613856">
        <time>2018-02-28T17:29:21.000Z</time>
      </trkpt>
      <trkpt lat="19.2746775078" lon="-69.4551560883">
        <time>2018-02-28T17:29:53.000Z</time>
      </trkpt>
      <trkpt lat="19.2746407831" lon="-69.4550126282">
        <time>2018-02-28T17:30:24.000Z</time>
      </trkpt>
      <trkpt lat="19.2746341182" lon="-69.4548665537">
        <time>2018-02-28T17:30:42.000Z</time>
      </trkpt>
      <trkpt lat="19.2745321469" lon="-69.4545870983">
        <time>2018-02-28T17:31:13.000Z</time>
      </trkpt>
      <trkpt lat="19.2744891465" lon="-69.4544377774">
        <time>2018-02-28T17:31:24.000Z</time>
      </trkpt>
      <trkpt lat="19.2744269791" lon="-69.4543114814">
        <time>2018-02-28T17:31:42.000Z</time>
      </trkpt>
      <trkpt lat="19.2743010379" lon="-69.4542483985">
        <time>2018-02-28T17:31:56.000Z</time>
      </trkpt>
      <trkpt lat="19.2741863343" lon="-69.4541651168">
        <time>2018-02-28T17:32:11.000Z</time>
      </trkpt>
      <trkpt lat="19.2740684361" lon="-69.454085673">
        <time>2018-02-28T17:32:24.000Z</time>
      </trkpt>
      <trkpt lat="19.2739505376" lon="-69.4540062297">
        <time>2018-02-28T17:32:46.000Z</time>
      </trkpt>
      <trkpt lat="19.2737129711" lon="-69.4538695672">
        <time>2018-02-28T17:33:29.000Z</time>
      </trkpt>
      <trkpt lat="19.2735721393" lon="-69.453884669">
        <time>2018-02-28T17:33:43.000Z</time>
      </trkpt>
      <trkpt lat="19.2734436271" lon="-69.4539385661">
        <time>2018-02-28T17:33:57.000Z</time>
      </trkpt>
      <trkpt lat="19.2733111816" lon="-69.4538966977">
        <time>2018-02-28T17:34:19.000Z</time>
      </trkpt>
      <trkpt lat="19.2731919094" lon="-69.4539796913">
        <time>2018-02-28T17:34:31.000Z</time>
      </trkpt>
      <trkpt lat="19.2730649374" lon="-69.4540384382">
        <time>2018-02-28T17:34:45.000Z</time>
      </trkpt>
      <trkpt lat="19.2729410454" lon="-69.4541068838">
        <time>2018-02-28T17:34:56.000Z</time>
      </trkpt>
      <trkpt lat="19.2728186934" lon="-69.4541801788">
        <time>2018-02-28T17:35:07.000Z</time>
      </trkpt>
      <trkpt lat="19.2727026157" lon="-69.454259335">
        <time>2018-02-28T17:35:19.000Z</time>
      </trkpt>
      <trkpt lat="19.2725975465" lon="-69.4543453641">
        <time>2018-02-28T17:35:31.000Z</time>
      </trkpt>
      <trkpt lat="19.2724751946" lon="-69.4544186591">
        <time>2018-02-28T17:35:43.000Z</time>
      </trkpt>
      <trkpt lat="19.2723356742" lon="-69.4544656837">
        <time>2018-02-28T17:35:55.000Z</time>
      </trkpt>
      <trkpt lat="19.2721986085" lon="-69.4544092686">
        <time>2018-02-28T17:36:08.000Z</time>
      </trkpt>
      <trkpt lat="19.2720743197" lon="-69.4543375039">
        <time>2018-02-28T17:36:20.000Z</time>
      </trkpt>
      <trkpt lat="19.271936911" lon="-69.4543216982">
        <time>2018-02-28T17:36:33.000Z</time>
      </trkpt>
      <trkpt lat="19.271797391" lon="-69.4543687241">
        <time>2018-02-28T17:36:45.000Z</time>
      </trkpt>
      <trkpt lat="19.2716626054" lon="-69.454416762">
        <time>2018-02-28T17:36:57.000Z</time>
      </trkpt>
      <trkpt lat="19.2715248539" lon="-69.4544415652">
        <time>2018-02-28T17:37:09.000Z</time>
      </trkpt>
      <trkpt lat="19.2713889851" lon="-69.4544306098">
        <time>2018-02-28T17:37:21.000Z</time>
      </trkpt>
      <trkpt lat="19.2712494654" lon="-69.4544776364">
        <time>2018-02-28T17:37:35.000Z</time>
      </trkpt>
      <trkpt lat="19.2711490179" lon="-69.4545782146">
        <time>2018-02-28T17:37:49.000Z</time>
      </trkpt>
      <trkpt lat="19.2711043562" lon="-69.4544375859">
        <time>2018-02-28T17:38:03.000Z</time>
      </trkpt>
      <trkpt lat="19.2710342542" lon="-69.4543141216">
        <time>2018-02-28T17:38:15.000Z</time>
      </trkpt>
      <trkpt lat="19.2709880515" lon="-69.4541686441">
        <time>2018-02-28T17:38:27.000Z</time>
      </trkpt>
      <trkpt lat="19.2709322658" lon="-69.4540346794">
        <time>2018-02-28T17:38:39.000Z</time>
      </trkpt>
      <trkpt lat="19.2707950846" lon="-69.453991805">
        <time>2018-02-28T17:38:50.000Z</time>
      </trkpt>
      <trkpt lat="19.2706738742" lon="-69.4539297431">
        <time>2018-02-28T17:39:01.000Z</time>
      </trkpt>
      <trkpt lat="19.2705576257" lon="-69.4538416213">
        <time>2018-02-28T17:39:14.000Z</time>
      </trkpt>
      <trkpt lat="19.270441377" lon="-69.4537534999">
        <time>2018-02-28T17:39:27.000Z</time>
      </trkpt>
      <trkpt lat="19.2703426389" lon="-69.4536510402">
        <time>2018-02-28T17:39:40.000Z</time>
      </trkpt>
      <trkpt lat="19.2702247357" lon="-69.4535716066">
        <time>2018-02-28T17:39:56.000Z</time>
      </trkpt>
      <trkpt lat="19.2701355793" lon="-69.4534576349">
        <time>2018-02-28T17:40:12.000Z</time>
      </trkpt>
      <trkpt lat="19.2700046718" lon="-69.4534206246">
        <time>2018-02-28T17:40:30.000Z</time>
      </trkpt>
      <trkpt lat="19.2698671486" lon="-69.453418362">
        <time>2018-02-28T17:40:58.000Z</time>
      </trkpt>
      <trkpt lat="19.2697779914" lon="-69.4533043913">
        <time>2018-02-28T17:41:28.000Z</time>
      </trkpt>
      <trkpt lat="19.2697237416" lon="-69.4531752787">
        <time>2018-02-28T17:41:44.000Z</time>
      </trkpt>
      <trkpt lat="19.2696058371" lon="-69.4530958476">
        <time>2018-02-28T17:41:58.000Z</time>
      </trkpt>
      <trkpt lat="19.269474929" lon="-69.4530588395">
        <time>2018-02-28T17:42:09.000Z</time>
      </trkpt>
      <trkpt lat="19.2693936989" lon="-69.452942044">
        <time>2018-02-28T17:42:29.000Z</time>
      </trkpt>
      <trkpt lat="19.2692711727" lon="-69.4528480669">
        <time>2018-02-28T17:42:39.000Z</time>
      </trkpt>
      <trkpt lat="19.2691627358" lon="-69.4527706604">
        <time>2018-02-28T17:42:46.000Z</time>
      </trkpt>
      <trkpt lat="19.2690544121" lon="-69.4526797185">
        <time>2018-02-28T17:43:05.000Z</time>
      </trkpt>
      <trkpt lat="19.2690398015" lon="-69.4525364762">
        <time>2018-02-28T17:43:21.000Z</time>
      </trkpt>
      <trkpt lat="19.268979274" lon="-69.4524015052">
        <time>2018-02-28T17:43:35.000Z</time>
      </trkpt>
      <trkpt lat="19.2688933073" lon="-69.4522837004">
        <time>2018-02-28T17:43:47.000Z</time>
      </trkpt>
      <trkpt lat="19.2687977584" lon="-69.4521774091">
        <time>2018-02-28T17:43:59.000Z</time>
      </trkpt>
      <trkpt lat="19.2686927404" lon="-69.4520690956">
        <time>2018-02-28T17:44:12.000Z</time>
      </trkpt>
      <trkpt lat="19.2686194353" lon="-69.4519494768">
        <time>2018-02-28T17:44:25.000Z</time>
      </trkpt>
      <trkpt lat="19.2685684874" lon="-69.4518029939">
        <time>2018-02-28T17:44:39.000Z</time>
      </trkpt>
      <trkpt lat="19.2685981366" lon="-69.4516601671">
        <time>2018-02-28T17:44:54.000Z</time>
      </trkpt>
      <trkpt lat="19.2686073075" lon="-69.451508446">
        <time>2018-02-28T17:45:09.000Z</time>
      </trkpt>
      <trkpt lat="19.2685926932" lon="-69.4513652045">
        <time>2018-02-28T17:45:24.000Z</time>
      </trkpt>
      <trkpt lat="19.2685163055" lon="-69.4512358888">
        <time>2018-02-28T17:45:36.000Z</time>
      </trkpt>
      <trkpt lat="19.2684891404" lon="-69.4510809271">
        <time>2018-02-28T17:45:49.000Z</time>
      </trkpt>
      <trkpt lat="19.2685471941" lon="-69.450944167">
        <time>2018-02-28T17:46:03.000Z</time>
      </trkpt>
      <trkpt lat="19.2684755398" lon="-69.4508158632">
        <time>2018-02-28T17:46:12.000Z</time>
      </trkpt>
      <trkpt lat="19.2683705188" lon="-69.4507075532">
        <time>2018-02-28T17:46:23.000Z</time>
      </trkpt>
      <trkpt lat="19.2682892821" lon="-69.4505907636">
        <time>2018-02-28T17:46:36.000Z</time>
      </trkpt>
      <trkpt lat="19.2681809539" lon="-69.4504998281">
        <time>2018-02-28T17:46:50.000Z</time>
      </trkpt>
      <trkpt lat="19.2680997165" lon="-69.4503830392">
        <time>2018-02-28T17:47:04.000Z</time>
      </trkpt>
      <trkpt lat="19.2679930409" lon="-69.4502834178">
        <time>2018-02-28T17:47:18.000Z</time>
      </trkpt>
      <trkpt lat="19.2679101496" lon="-69.4501753165">
        <time>2018-02-28T17:47:38.000Z</time>
      </trkpt>
      <trkpt lat="19.2679081932" lon="-69.4500302604">
        <time>2018-02-28T17:47:56.000Z</time>
      </trkpt>
      <trkpt lat="19.2678920331" lon="-69.4498821712">
        <time>2018-02-28T17:48:22.000Z</time>
      </trkpt>
      <trkpt lat="19.2679343389" lon="-69.4497375276">
        <time>2018-02-28T17:48:47.000Z</time>
      </trkpt>
      <trkpt lat="19.267927647" lon="-69.4495914605">
        <time>2018-02-28T17:49:09.000Z</time>
      </trkpt>
      <trkpt lat="19.2678956295" lon="-69.4494490252">
        <time>2018-02-28T17:49:31.000Z</time>
      </trkpt>
      <trkpt lat="19.2679237309" lon="-69.4493013483">
        <time>2018-02-28T17:49:56.000Z</time>
      </trkpt>
      <trkpt lat="19.2678615407" lon="-69.44917507">
        <time>2018-02-28T17:50:09.000Z</time>
      </trkpt>
      <trkpt lat="19.2677330372" lon="-69.4492289884">
        <time>2018-02-28T17:50:22.000Z</time>
      </trkpt>
      <trkpt lat="19.2675969423" lon="-69.4492451265">
        <time>2018-02-28T17:50:39.000Z</time>
      </trkpt>
      <trkpt lat="19.267457766" lon="-69.449251567">
        <time>2018-02-28T17:50:59.000Z</time>
      </trkpt>
      <trkpt lat="19.2673291505" lon="-69.4493190217">
        <time>2018-02-28T17:51:12.000Z</time>
      </trkpt>
      <trkpt lat="19.2672015448" lon="-69.4492646546">
        <time>2018-02-28T17:51:38.000Z</time>
      </trkpt>
      <trkpt lat="19.267072286" lon="-69.4492189748">
        <time>2018-02-28T17:51:50.000Z</time>
      </trkpt>
      <trkpt lat="19.2671224044" lon="-69.4490850396">
        <time>2018-02-28T17:52:07.000Z</time>
      </trkpt>
      <trkpt lat="19.2671725227" lon="-69.4489511043">
        <time>2018-02-28T17:52:26.000Z</time>
      </trkpt>
      <trkpt lat="19.2672021622" lon="-69.4488082763">
        <time>2018-02-28T17:52:47.000Z</time>
      </trkpt>
      <trkpt lat="19.2672239852" lon="-69.4486547396">
        <time>2018-02-28T17:53:07.000Z</time>
      </trkpt>
      <trkpt lat="19.2672504304" lon="-69.4485157495">
        <time>2018-02-28T17:53:24.000Z</time>
      </trkpt>
      <trkpt lat="19.2672104808" lon="-69.4483761429">
        <time>2018-02-28T17:53:37.000Z</time>
      </trkpt>
      <trkpt lat="19.2671371657" lon="-69.4482565321">
        <time>2018-02-28T17:53:56.000Z</time>
      </trkpt>
      <trkpt lat="19.2671525999" lon="-69.4481106713">
        <time>2018-02-28T17:54:24.000Z</time>
      </trkpt>
      <trkpt lat="19.2672702039" lon="-69.4480363426">
        <time>2018-02-28T17:55:02.000Z</time>
      </trkpt>
      <trkpt lat="19.2674075036" lon="-69.4480656566">
        <time>2018-02-28T17:55:12.000Z</time>
      </trkpt>
      <trkpt lat="19.2675406283" lon="-69.4480262812">
        <time>2018-02-28T17:55:26.000Z</time>
      </trkpt>
      <trkpt lat="19.2676813453" lon="-69.4480246862">
        <time>2018-02-28T17:55:49.000Z</time>
      </trkpt>
      <trkpt lat="19.2678144701" lon="-69.4479853112">
        <time>2018-02-28T17:55:57.000Z</time>
      </trkpt>
      <trkpt lat="19.2679274522" lon="-69.4478964365">
        <time>2018-02-28T17:56:11.000Z</time>
      </trkpt>
      <trkpt lat="19.2679839565" lon="-69.447754824">
        <time>2018-02-28T17:56:22.000Z</time>
      </trkpt>
      <trkpt lat="19.2681141115" lon="-69.4476922152">
        <time>2018-02-28T17:56:36.000Z</time>
      </trkpt>
      <trkpt lat="19.2682472363" lon="-69.4476528402">
        <time>2018-02-28T17:56:59.000Z</time>
      </trkpt>
      <trkpt lat="19.2683680345" lon="-69.447574674">
        <time>2018-02-28T17:57:09.000Z</time>
      </trkpt>
      <trkpt lat="19.2684934553" lon="-69.4475110546">
        <time>2018-02-28T17:57:26.000Z</time>
      </trkpt>
      <trkpt lat="19.2686265802" lon="-69.4474716798">
        <time>2018-02-28T17:57:43.000Z</time>
      </trkpt>
      <trkpt lat="19.2687002579" lon="-69.4473563331">
        <time>2018-02-28T17:58:27.000Z</time>
      </trkpt>
      <trkpt lat="19.2688382293" lon="-69.4473044333">
        <time>2018-02-28T17:59:47.000Z</time>
      </trkpt>
      <trkpt lat="19.268972895" lon="-69.4472699075">
        <time>2018-02-28T18:00:12.000Z</time>
      </trkpt>
      <trkpt lat="19.2691105305" lon="-69.4472586157">
        <time>2018-02-28T18:00:31.000Z</time>
      </trkpt>
      <trkpt lat="19.2692125033" lon="-69.4471628704">
        <time>2018-02-28T18:00:49.000Z</time>
      </trkpt>
      <trkpt lat="19.2692878342" lon="-69.4470388366">
        <time>2018-02-28T18:01:06.000Z</time>
      </trkpt>
      <trkpt lat="19.2693709811" lon="-69.4469255114">
        <time>2018-02-28T18:01:20.000Z</time>
      </trkpt>
      <trkpt lat="19.269462056" lon="-69.4468093589">
        <time>2018-02-28T18:01:36.000Z</time>
      </trkpt>
      <trkpt lat="19.2695703038" lon="-69.4467194729">
        <time>2018-02-28T18:02:07.000Z</time>
      </trkpt>
      <trkpt lat="19.2696393591" lon="-69.4465895787">
        <time>2018-02-28T18:02:24.000Z</time>
      </trkpt>
      <trkpt lat="19.2697413315" lon="-69.4464938326">
        <time>2018-02-28T18:02:46.000Z</time>
      </trkpt>
      <trkpt lat="19.2698575073" lon="-69.446401119">
        <time>2018-02-28T18:03:06.000Z</time>
      </trkpt>
      <trkpt lat="19.2698839523" lon="-69.4462621265">
        <time>2018-02-28T18:03:43.000Z</time>
      </trkpt>
      <trkpt lat="19.2697804657" lon="-69.4461586714">
        <time>2018-02-28T18:03:56.000Z</time>
      </trkpt>
      <trkpt lat="19.269684907" lon="-69.4460523895">
        <time>2018-02-28T18:04:15.000Z</time>
      </trkpt>
      <trkpt lat="19.2695668808" lon="-69.4459865107">
        <time>2018-02-28T18:04:54.000Z</time>
      </trkpt>
      <trkpt lat="19.2695681109" lon="-69.4458376151">
        <time>2018-02-28T18:05:20.000Z</time>
      </trkpt>
      <trkpt lat="19.2695360875" lon="-69.4456951799">
        <time>2018-02-28T18:05:53.000Z</time>
      </trkpt>
      <trkpt lat="19.2696583136" lon="-69.4456353959">
        <time>2018-02-28T18:06:52.000Z</time>
      </trkpt>
      <trkpt lat="19.2697858093" lon="-69.4457032955">
        <time>2018-02-28T18:07:19.000Z</time>
      </trkpt>
      <trkpt lat="19.2699070293" lon="-69.4457653358">
        <time>2018-02-28T18:07:41.000Z</time>
      </trkpt>
      <trkpt lat="19.2700361773" lon="-69.4458245492">
        <time>2018-02-28T18:08:01.000Z</time>
      </trkpt>
      <trkpt lat="19.2701738126" lon="-69.4458132558">
        <time>2018-02-28T18:08:21.000Z</time>
      </trkpt>
      <trkpt lat="19.2703111122" lon="-69.4458425707">
        <time>2018-02-28T18:09:01.000Z</time>
      </trkpt>
      <trkpt lat="19.2703463277" lon="-69.445981169">
        <time>2018-02-28T18:09:35.000Z</time>
      </trkpt>
      <trkpt lat="19.270394904" lon="-69.4458423816">
        <time>2018-02-28T18:20:57.000Z</time>
      </trkpt>
      <trkpt lat="19.2702674093" lon="-69.4457744798">
        <time>2018-02-28T18:21:12.000Z</time>
      </trkpt>
      <trkpt lat="19.2701389072" lon="-69.4458284026">
        <time>2018-02-28T18:21:38.000Z</time>
      </trkpt>
      <trkpt lat="19.2700337675" lon="-69.4457336348">
        <time>2018-02-28T18:22:03.000Z</time>
      </trkpt>
      <trkpt lat="19.2699046196" lon="-69.4456744212">
        <time>2018-02-28T18:22:26.000Z</time>
      </trkpt>
      <trkpt lat="19.2697688606" lon="-69.4456499563">
        <time>2018-02-28T18:22:59.000Z</time>
      </trkpt>
      <trkpt lat="19.2696380597" lon="-69.4455994306">
        <time>2018-02-28T18:23:14.000Z</time>
      </trkpt>
      <trkpt lat="19.2694988836" lon="-69.4456058765">
        <time>2018-02-28T18:23:49.000Z</time>
      </trkpt>
      <trkpt lat="19.269418821" lon="-69.4457289015">
        <time>2018-02-28T18:24:28.000Z</time>
      </trkpt>
      <trkpt lat="19.2694429168" lon="-69.4458741639">
        <time>2018-02-28T18:25:02.000Z</time>
      </trkpt>
      <trkpt lat="19.2694622777" lon="-69.4460184155">
        <time>2018-02-28T18:25:30.000Z</time>
      </trkpt>
      <trkpt lat="19.2694974943" lon="-69.4461570127">
        <time>2018-02-28T18:25:58.000Z</time>
      </trkpt>
      <trkpt lat="19.2696233368" lon="-69.4462336001">
        <time>2018-02-28T18:26:15.000Z</time>
      </trkpt>
      <trkpt lat="19.2697429036" lon="-69.4463043283">
        <time>2018-02-28T18:26:42.000Z</time>
      </trkpt>
      <trkpt lat="19.2698689695" lon="-69.4463538448">
        <time>2018-02-28T18:30:27.000Z</time>
      </trkpt>
      <trkpt lat="19.2700020944" lon="-69.4463144696">
        <time>2018-02-28T18:32:43.000Z</time>
      </trkpt>
      <trkpt lat="19.2699161172" lon="-69.4461966727">
        <time>2018-02-28T18:35:15.000Z</time>
      </trkpt>
      <trkpt lat="19.2697937782" lon="-69.4462699908">
        <time>2018-02-28T18:36:59.000Z</time>
      </trkpt>
      <trkpt lat="19.2697121728" lon="-69.4463881658">
        <time>2018-02-28T18:37:20.000Z</time>
      </trkpt>
      <trkpt lat="19.2696100886" lon="-69.4464974481">
        <time>2018-02-28T18:37:39.000Z</time>
      </trkpt>
      <trkpt lat="19.2695159324" lon="-69.4466039031">
        <time>2018-02-28T18:37:52.000Z</time>
      </trkpt>
      <trkpt lat="19.2693903997" lon="-69.4466810589">
        <time>2018-02-28T18:38:05.000Z</time>
      </trkpt>
      <trkpt lat="19.2693134167" lon="-69.4468137802">
        <time>2018-02-28T18:38:18.000Z</time>
      </trkpt>
      <trkpt lat="19.2692209132" lon="-69.4469115479">
        <time>2018-02-28T18:38:30.000Z</time>
      </trkpt>
      <trkpt lat="19.2691613269" lon="-69.4470434636">
        <time>2018-02-28T18:38:45.000Z</time>
      </trkpt>
      <trkpt lat="19.2690717929" lon="-69.4471644648">
        <time>2018-02-28T18:39:04.000Z</time>
      </trkpt>
      <trkpt lat="19.2689557289" lon="-69.4472436417">
        <time>2018-02-28T18:39:34.000Z</time>
      </trkpt>
      <trkpt lat="19.2688335016" lon="-69.4473034228">
        <time>2018-02-28T18:40:43.000Z</time>
      </trkpt>
      <trkpt lat="19.2687032343" lon="-69.4473795671">
        <time>2018-02-28T18:42:42.000Z</time>
      </trkpt>
      <trkpt lat="19.2685934456" lon="-69.4474646038">
        <time>2018-02-28T18:43:00.000Z</time>
      </trkpt>
      <trkpt lat="19.2684603207" lon="-69.4475039785">
        <time>2018-02-28T18:43:15.000Z</time>
      </trkpt>
      <trkpt lat="19.2683191557" lon="-69.4475597163">
        <time>2018-02-28T18:43:34.000Z</time>
      </trkpt>
      <trkpt lat="19.2681767859" lon="-69.4475699978">
        <time>2018-02-28T18:43:51.000Z</time>
      </trkpt>
      <trkpt lat="19.2680452019" lon="-69.4476142219">
        <time>2018-02-28T18:44:02.000Z</time>
      </trkpt>
      <trkpt lat="19.2679351899" lon="-69.4477263306">
        <time>2018-02-28T18:44:13.000Z</time>
      </trkpt>
      <trkpt lat="19.2678676761" lon="-69.4478610726">
        <time>2018-02-28T18:44:22.000Z</time>
      </trkpt>
      <trkpt lat="19.267728276" lon="-69.4478945879">
        <time>2018-02-28T18:44:37.000Z</time>
      </trkpt>
      <trkpt lat="19.2675904168" lon="-69.4479329522">
        <time>2018-02-28T18:44:47.000Z</time>
      </trkpt>
      <trkpt lat="19.2674433125" lon="-69.4479422234">
        <time>2018-02-28T18:44:56.000Z</time>
      </trkpt>
      <trkpt lat="19.2673108592" lon="-69.4479003844">
        <time>2018-02-28T18:45:08.000Z</time>
      </trkpt>
      <trkpt lat="19.2671687131" lon="-69.4478835957">
        <time>2018-02-28T18:45:21.000Z</time>
      </trkpt>
      <trkpt lat="19.2670871088" lon="-69.4480017695">
        <time>2018-02-28T18:45:35.000Z</time>
      </trkpt>
      <trkpt lat="19.2670306058" lon="-69.4481433819">
        <time>2018-02-28T18:45:49.000Z</time>
      </trkpt>
      <trkpt lat="19.2671454132" lon="-69.4484074471">
        <time>2018-02-28T18:46:13.000Z</time>
      </trkpt>
      <trkpt lat="19.2671631197" lon="-69.4485603839">
        <time>2018-02-28T18:46:24.000Z</time>
      </trkpt>
      <trkpt lat="19.2671429501" lon="-69.4487052337">
        <time>2018-02-28T18:46:38.000Z</time>
      </trkpt>
      <trkpt lat="19.267114852" lon="-69.4488529106">
        <time>2018-02-28T18:46:57.000Z</time>
      </trkpt>
      <trkpt lat="19.2670884065" lon="-69.4489919006">
        <time>2018-02-28T18:47:14.000Z</time>
      </trkpt>
      <trkpt lat="19.2670350947" lon="-69.4491296739">
        <time>2018-02-28T18:47:33.000Z</time>
      </trkpt>
      <trkpt lat="19.2670878178" lon="-69.4492539288">
        <time>2018-02-28T18:47:47.000Z</time>
      </trkpt>
      <trkpt lat="19.2671610191" lon="-69.4493870765">
        <time>2018-02-28T18:47:59.000Z</time>
      </trkpt>
      <trkpt lat="19.2672980939" lon="-69.4494434653">
        <time>2018-02-28T18:48:14.000Z</time>
      </trkpt>
      <trkpt lat="19.2674312194" lon="-69.4494040933">
        <time>2018-02-28T18:48:24.000Z</time>
      </trkpt>
      <trkpt lat="19.2675738139" lon="-69.4493667433">
        <time>2018-02-28T18:48:35.000Z</time>
      </trkpt>
      <trkpt lat="19.2676914199" lon="-69.4492924181">
        <time>2018-02-28T18:48:48.000Z</time>
      </trkpt>
      <trkpt lat="19.2678257496" lon="-69.4492985027">
        <time>2018-02-28T18:49:05.000Z</time>
      </trkpt>
      <trkpt lat="19.2678071175" lon="-69.4494482016">
        <time>2018-02-28T18:49:31.000Z</time>
      </trkpt>
      <trkpt lat="19.2678708482" lon="-69.449579329">
        <time>2018-02-28T18:49:52.000Z</time>
      </trkpt>
      <trkpt lat="19.2678949375" lon="-69.4497245911">
        <time>2018-02-28T18:50:11.000Z</time>
      </trkpt>
      <trkpt lat="19.2679099743" lon="-69.4500080384">
        <time>2018-02-28T18:50:56.000Z</time>
      </trkpt>
      <trkpt lat="19.2679071966" lon="-69.4501520835">
        <time>2018-02-28T18:51:12.000Z</time>
      </trkpt>
      <trkpt lat="19.2679692724" lon="-69.4502918987">
        <time>2018-02-28T18:51:29.000Z</time>
      </trkpt>
      <trkpt lat="19.2680903766" lon="-69.4503674814">
        <time>2018-02-28T18:51:44.000Z</time>
      </trkpt>
      <trkpt lat="19.2681748081" lon="-69.4504804321">
        <time>2018-02-28T18:51:59.000Z</time>
      </trkpt>
      <trkpt lat="19.2682575861" lon="-69.4506020701">
        <time>2018-02-28T18:52:13.000Z</time>
      </trkpt>
      <trkpt lat="19.2683371698" lon="-69.4507275463">
        <time>2018-02-28T18:52:26.000Z</time>
      </trkpt>
      <trkpt lat="19.2684040905" lon="-69.4508548383">
        <time>2018-02-28T18:52:38.000Z</time>
      </trkpt>
      <trkpt lat="19.2683981158" lon="-69.4510027216">
        <time>2018-02-28T18:52:52.000Z</time>
      </trkpt>
      <trkpt lat="19.2684222005" lon="-69.4511479851">
        <time>2018-02-28T18:53:08.000Z</time>
      </trkpt>
      <trkpt lat="19.2684732636" lon="-69.451280931">
        <time>2018-02-28T18:53:19.000Z</time>
      </trkpt>
      <trkpt lat="19.2685226728" lon="-69.451422564">
        <time>2018-02-28T18:53:30.000Z</time>
      </trkpt>
      <trkpt lat="19.2685166965" lon="-69.4515704473">
        <time>2018-02-28T18:53:43.000Z</time>
      </trkpt>
      <trkpt lat="19.2685033155" lon="-69.4518478288">
        <time>2018-02-28T18:54:12.000Z</time>
      </trkpt>
      <trkpt lat="19.2685749678" lon="-69.4519761339">
        <time>2018-02-28T18:54:24.000Z</time>
      </trkpt>
      <trkpt lat="19.2686673237" lon="-69.4520862618">
        <time>2018-02-28T18:54:35.000Z</time>
      </trkpt>
      <trkpt lat="19.268775536" lon="-69.4521907372">
        <time>2018-02-28T18:54:46.000Z</time>
      </trkpt>
      <trkpt lat="19.2688791267" lon="-69.4522806658">
        <time>2018-02-28T18:54:59.000Z</time>
      </trkpt>
      <trkpt lat="19.2689699412" lon="-69.4523859458">
        <time>2018-02-28T18:55:11.000Z</time>
      </trkpt>
      <trkpt lat="19.2690592835" lon="-69.4526671929">
        <time>2018-02-28T18:55:40.000Z</time>
      </trkpt>
      <trkpt lat="19.2691230047" lon="-69.4527983265">
        <time>2018-02-28T18:55:53.000Z</time>
      </trkpt>
      <trkpt lat="19.2692296746" lon="-69.4528979553">
        <time>2018-02-28T18:56:12.000Z</time>
      </trkpt>
      <trkpt lat="19.2693204875" lon="-69.4530032371">
        <time>2018-02-28T18:56:29.000Z</time>
      </trkpt>
      <trkpt lat="19.2694144941" lon="-69.4531046816">
        <time>2018-02-28T18:56:40.000Z</time>
      </trkpt>
      <trkpt lat="19.2696489907" lon="-69.4532316213">
        <time>2018-02-28T18:57:08.000Z</time>
      </trkpt>
      <trkpt lat="19.2697813254" lon="-69.4532870151">
        <time>2018-02-28T18:57:24.000Z</time>
      </trkpt>
      <trkpt lat="19.269873677" lon="-69.4533971479">
        <time>2018-02-28T18:57:46.000Z</time>
      </trkpt>
      <trkpt lat="19.2700109729" lon="-69.4534264821">
        <time>2018-02-28T18:58:02.000Z</time>
      </trkpt>
      <trkpt lat="19.2701337248" lon="-69.4534933901">
        <time>2018-02-28T18:58:21.000Z</time>
      </trkpt>
      <trkpt lat="19.2702356579" lon="-69.4535920111">
        <time>2018-02-28T18:58:36.000Z</time>
      </trkpt>
      <trkpt lat="19.2703519073" lon="-69.4536801313">
        <time>2018-02-28T18:58:50.000Z</time>
      </trkpt>
      <trkpt lat="19.2704521858" lon="-69.45378744">
        <time>2018-02-28T18:59:04.000Z</time>
      </trkpt>
      <trkpt lat="19.2705429953" lon="-69.4538927259">
        <time>2018-02-28T18:59:18.000Z</time>
      </trkpt>
      <trkpt lat="19.2706575899" lon="-69.4539895343">
        <time>2018-02-28T18:59:30.000Z</time>
      </trkpt>
      <trkpt lat="19.2707963114" lon="-69.4540372572">
        <time>2018-02-28T18:59:40.000Z</time>
      </trkpt>
      <trkpt lat="19.2708949345" lon="-69.4541532544">
        <time>2018-02-28T18:59:51.000Z</time>
      </trkpt>
      <trkpt lat="19.2709760461" lon="-69.4542835906">
        <time>2018-02-28T19:00:03.000Z</time>
      </trkpt>
      <trkpt lat="19.2710572712" lon="-69.4544003911">
        <time>2018-02-28T19:00:16.000Z</time>
      </trkpt>
      <trkpt lat="19.2711225248" lon="-69.4545363797">
        <time>2018-02-28T19:00:28.000Z</time>
      </trkpt>
      <trkpt lat="19.2712555418" lon="-69.4545105638">
        <time>2018-02-28T19:00:44.000Z</time>
      </trkpt>
      <trkpt lat="19.271387247" lon="-69.4544528267">
        <time>2018-02-28T19:00:59.000Z</time>
      </trkpt>
      <trkpt lat="19.2715233442" lon="-69.4544367098">
        <time>2018-02-28T19:01:12.000Z</time>
      </trkpt>
      <trkpt lat="19.2716609814" lon="-69.4544254423">
        <time>2018-02-28T19:01:24.000Z</time>
      </trkpt>
      <trkpt lat="19.2717910327" lon="-69.4543763925">
        <time>2018-02-28T19:01:36.000Z</time>
      </trkpt>
      <trkpt lat="19.2719319784" lon="-69.4543477518">
        <time>2018-02-28T19:01:48.000Z</time>
      </trkpt>
      <trkpt lat="19.2720563817" lon="-69.4544059797">
        <time>2018-02-28T19:02:00.000Z</time>
      </trkpt>
      <trkpt lat="19.2721871733" lon="-69.4544565329">
        <time>2018-02-28T19:02:13.000Z</time>
      </trkpt>
      <trkpt lat="19.2723132306" lon="-69.4545060748">
        <time>2018-02-28T19:02:25.000Z</time>
      </trkpt>
      <trkpt lat="19.2724552592" lon="-69.4545364295">
        <time>2018-02-28T19:02:38.000Z</time>
      </trkpt>
      <trkpt lat="19.2725760713" lon="-69.4544582854">
        <time>2018-02-28T19:02:48.000Z</time>
      </trkpt>
      <trkpt lat="19.2727880928" lon="-69.454250468">
        <time>2018-02-28T19:03:12.000Z</time>
      </trkpt>
      <trkpt lat="19.2729042849" lon="-69.4541577756">
        <time>2018-02-28T19:03:24.000Z</time>
      </trkpt>
      <trkpt lat="19.2730298312" lon="-69.454080643">
        <time>2018-02-28T19:03:37.000Z</time>
      </trkpt>
      <trkpt lat="19.2731646174" lon="-69.4540326066">
        <time>2018-02-28T19:03:49.000Z</time>
      </trkpt>
      <trkpt lat="19.2732822352" lon="-69.4539582998">
        <time>2018-02-28T19:04:03.000Z</time>
      </trkpt>
      <trkpt lat="19.2734231814" lon="-69.4539296611">
        <time>2018-02-28T19:04:21.000Z</time>
      </trkpt>
      <trkpt lat="19.2735476982" lon="-69.4539743551">
        <time>2018-02-28T19:04:40.000Z</time>
      </trkpt>
      <trkpt lat="19.2736916099" lon="-69.4539689519">
        <time>2018-02-28T19:05:02.000Z</time>
      </trkpt>
      <trkpt lat="19.2737839542" lon="-69.4540790943">
        <time>2018-02-28T19:05:32.000Z</time>
      </trkpt>
      <trkpt lat="19.2739249006" lon="-69.4540504568">
        <time>2018-02-28T19:05:48.000Z</time>
      </trkpt>
      <trkpt lat="19.2740061214" lon="-69.4541672628">
        <time>2018-02-28T19:06:15.000Z</time>
      </trkpt>
      <trkpt lat="19.2741367973" lon="-69.4542313564">
        <time>2018-02-28T19:06:33.000Z</time>
      </trkpt>
      <trkpt lat="19.2742724365" lon="-69.4542693898">
        <time>2018-02-28T19:06:50.000Z</time>
      </trkpt>
      <trkpt lat="19.2743951834" lon="-69.4543363098">
        <time>2018-02-28T19:07:04.000Z</time>
      </trkpt>
      <trkpt lat="19.2744955032" lon="-69.4546244506">
        <time>2018-02-28T19:07:26.000Z</time>
      </trkpt>
      <trkpt lat="19.2745227609" lon="-69.4547658861">
        <time>2018-02-28T19:07:38.000Z</time>
      </trkpt>
      <trkpt lat="19.2745706099" lon="-69.4549026829">
        <time>2018-02-28T19:07:54.000Z</time>
      </trkpt>
      <trkpt lat="19.2746247325" lon="-69.4550453414">
        <time>2018-02-28T19:08:03.000Z</time>
      </trkpt>
      <trkpt lat="19.2747042954" lon="-69.4551708372">
        <time>2018-02-28T19:08:22.000Z</time>
      </trkpt>
      <trkpt lat="19.2747934414" lon="-69.4552848212">
        <time>2018-02-28T19:08:37.000Z</time>
      </trkpt>
      <trkpt lat="19.2748921704" lon="-69.4553872935">
        <time>2018-02-28T19:08:49.000Z</time>
      </trkpt>
      <trkpt lat="19.2749988279" lon="-69.4554869408">
        <time>2018-02-28T19:09:00.000Z</time>
      </trkpt>
      <trkpt lat="19.2751071399" lon="-69.4555779018">
        <time>2018-02-28T19:09:12.000Z</time>
      </trkpt>
      <trkpt lat="19.2752395832" lon="-69.4556197783">
        <time>2018-02-28T19:09:24.000Z</time>
      </trkpt>
      <trkpt lat="19.275375221" lon="-69.4556578179">
        <time>2018-02-28T19:09:39.000Z</time>
      </trkpt>
      <trkpt lat="19.2755159384" lon="-69.4556562609">
        <time>2018-02-28T19:09:53.000Z</time>
      </trkpt>
      <trkpt lat="19.2756444537" lon="-69.4556023714">
        <time>2018-02-28T19:10:08.000Z</time>
      </trkpt>
      <trkpt lat="19.2757837466" lon="-69.4555824288">
        <time>2018-02-28T19:10:26.000Z</time>
      </trkpt>
      <trkpt lat="19.2759228092" lon="-69.4555895593">
        <time>2018-02-28T19:10:46.000Z</time>
      </trkpt>
      <trkpt lat="19.2758552621" lon="-69.4557242892">
        <time>2018-02-28T19:11:08.000Z</time>
      </trkpt>
      <trkpt lat="19.2758640794" lon="-69.4559883557">
        <time>2018-02-28T19:11:49.000Z</time>
      </trkpt>
      <trkpt lat="19.2757698966" lon="-69.4560947883">
        <time>2018-02-28T19:12:33.000Z</time>
      </trkpt>
      <trkpt lat="19.27588933" lon="-69.4561790899">
        <time>2018-02-28T19:12:46.000Z</time>
      </trkpt>
      <trkpt lat="19.2759895955" lon="-69.4562864158">
        <time>2018-02-28T19:12:57.000Z</time>
      </trkpt>
      <trkpt lat="19.2760787373" lon="-69.4564004044">
        <time>2018-02-28T19:13:09.000Z</time>
      </trkpt>
      <trkpt lat="19.27620148" lon="-69.4564673336">
        <time>2018-02-28T19:13:26.000Z</time>
      </trkpt>
      <trkpt lat="19.2763339221" lon="-69.456509215">
        <time>2018-02-28T19:13:39.000Z</time>
      </trkpt>
      <trkpt lat="19.2763950827" lon="-69.4563821608">
        <time>2018-02-28T19:15:23.000Z</time>
      </trkpt>
      <trkpt lat="19.2763042866" lon="-69.4562768582">
        <time>2018-02-28T19:18:28.000Z</time>
      </trkpt>
      <trkpt lat="19.2763950829" lon="-69.4563821606">
        <time>2018-02-28T19:20:23.000Z</time>
      </trkpt>
      <trkpt lat="19.2764587822" lon="-69.456513312">
        <time>2018-02-28T19:21:24.000Z</time>
      </trkpt>
      <trkpt lat="19.2765136693" lon="-69.4563803959">
        <time>2018-02-28T19:22:10.000Z</time>
      </trkpt>
      <trkpt lat="19.2764585923" lon="-69.4561652005">
        <time>2018-02-28T19:23:08.000Z</time>
      </trkpt>
      <trkpt lat="19.2765863002" lon="-69.4562060694">
        <time>2018-02-28T19:24:43.000Z</time>
      </trkpt>
      <trkpt lat="19.2766882198" lon="-69.45630471">
        <time>2018-02-28T19:25:49.000Z</time>
      </trkpt>
      <trkpt lat="19.2767439898" lon="-69.4564386867">
        <time>2018-02-28T19:25:59.000Z</time>
      </trkpt>
      <trkpt lat="19.2768747764" lon="-69.4564892562">
        <time>2018-02-28T19:26:10.000Z</time>
      </trkpt>
      <trkpt lat="19.2770279256" lon="-69.4565129653">
        <time>2018-02-28T19:26:19.000Z</time>
      </trkpt>
    </trkseg>
  </trk>
</gpx>
