{"type":"FeatureCollection","features":[{"type":"Feature","properties":{"name":"Initiation au golf","type":"golf","time":"2025-09-06T07:00:00Z","coordTimes":["2025-09-06T07:00:00Z","2025-09-06T07:00:21Z","2025-09-06T07:00:31Z","2025-09-06T07:00:39Z","2025-09-06T07:00:41Z","2025-09-06T07:01:05Z","2025-09-06T07:01:35Z","2025-09-06T07:01:36Z","2025-09-06T07:01:49Z","2025-09-06T07:02:02Z","2025-09-06T07:02:07Z","2025-09-06T07:02:08Z","2025-09-06T07:02:10Z","2025-09-06T07:02:11Z","2025-09-06T07:02:12Z","2025-09-06T07:02:14Z","2025-09-06T07:02:16Z","2025-09-06T07:02:17Z","2025-09-06T07:02:24Z","2025-09-06T07:02:26Z","2025-09-06T07:02:28Z","2025-09-06T07:02:33Z","2025-09-06T07:02:35Z","2025-09-06T07:02:38Z","2025-09-06T07:02:45Z","2025-09-06T07:02:48Z","2025-09-06T07:02:53Z","2025-09-06T07:02:55Z","2025-09-06T07:03:00Z","2025-09-06T07:03:04Z","2025-09-06T07:03:16Z","2025-09-06T07:03:31Z","2025-09-06T07:03:35Z","2025-09-06T07:03:43Z","2025-09-06T07:03:48Z","2025-09-06T07:03:49Z","2025-09-06T07:03:54Z","2025-09-06T07:04:05Z","2025-09-06T07:04:25Z","2025-09-06T07:04:33Z","2025-09-06T07:05:14Z","2025-09-06T07:05:32Z","2025-09-06T07:05:35Z","2025-09-06T07:05:41Z","2025-09-06T07:05:44Z","2025-09-06T07:05:45Z","2025-09-06T07:05:50Z","2025-09-06T07:05:54Z","2025-09-06T07:05:58Z","2025-09-06T07:06:01Z","2025-09-06T07:06:05Z","2025-09-06T07:06:07Z","2025-09-06T07:06:09Z","2025-09-06T07:06:12Z","2025-09-06T07:06:21Z","2025-09-06T07:06:53Z","2025-09-06T07:06:56Z","2025-09-06T07:07:01Z","2025-09-06T07:07:18Z","2025-09-06T07:07:19Z","2025-09-06T07:07:29Z","2025-09-06T07:07:33Z","2025-09-06T07:07:43Z","2025-09-06T07:07:48Z","2025-09-06T07:07:55Z","2025-09-06T07:07:58Z","2025-09-06T07:08:05Z","2025-09-06T07:08:10Z","2025-09-06T07:08:12Z","2025-09-06T07:08:17Z","2025-09-06T07:08:19Z","2025-09-06T07:08:21Z","2025-09-06T07:08:29Z","2025-09-06T07:08:32Z","2025-09-06T07:08:35Z","2025-09-06T07:08:37Z","2025-09-06T07:08:43Z","2025-09-06T07:08:50Z","2025-09-06T07:08:51Z","2025-09-06T07:08:58Z","2025-09-06T07:09:04Z","2025-09-06T07:09:05Z","2025-09-06T07:09:11Z","2025-09-06T07:09:16Z","2025-09-06T07:09:47Z","2025-09-06T07:09:49Z","2025-09-06T07:09:52Z","2025-09-06T07:09:54Z","2025-09-06T07:09:56Z","2025-09-06T07:10:10Z","2025-09-06T07:10:15Z","2025-09-06T07:10:17Z","2025-09-06T07:10:19Z","2025-09-06T07:10:22Z","2025-09-06T07:10:27Z","2025-09-06T07:10:29Z","2025-09-06T07:10:37Z","2025-09-06T07:10:41Z","2025-09-06T07:11:11Z","2025-09-06T07:11:14Z","2025-09-06T07:11:18Z","2025-09-06T07:11:42Z","2025-09-06T07:11:49Z","2025-09-06T07:12:26Z","2025-09-06T07:12:40Z","2025-09-06T07:12:47Z","2025-09-06T07:12:50Z","2025-09-06T07:12:56Z","2025-09-06T07:13:03Z","2025-09-06T07:13:05Z","2025-09-06T07:13:42Z","2025-09-06T07:13:46Z","2025-09-06T07:14:08Z","2025-09-06T07:14:26Z","2025-09-06T07:14:28Z","2025-09-06T07:14:32Z","2025-09-06T07:15:05Z","2025-09-06T07:15:22Z","2025-09-06T07:15:31Z","2025-09-06T07:15:42Z","2025-09-06T07:16:08Z","2025-09-06T07:16:15Z","2025-09-06T07:16:18Z","2025-09-06T07:16:22Z","2025-09-06T07:16:23Z","2025-09-06T07:16:29Z","2025-09-06T07:16:40Z","2025-09-06T07:16:42Z","2025-09-06T07:16:43Z","2025-09-06T07:16:44Z","2025-09-06T07:16:50Z","2025-09-06T07:16:54Z","2025-09-06T07:16:56Z","2025-09-06T07:16:58Z","2025-09-06T07:17:02Z","2025-09-06T07:17:04Z","2025-09-06T07:17:07Z","2025-09-06T07:17:09Z","2025-09-06T07:17:10Z","2025-09-06T07:17:11Z","2025-09-06T07:17:14Z","2025-09-06T07:17:17Z","2025-09-06T07:17:18Z","2025-09-06T07:17:22Z","2025-09-06T07:17:23Z","2025-09-06T07:17:24Z","2025-09-06T07:17:26Z","2025-09-06T07:17:27Z","2025-09-06T07:17:29Z","2025-09-06T07:17:32Z","2025-09-06T07:17:36Z","2025-09-06T07:17:38Z","2025-09-06T07:17:41Z","2025-09-06T07:17:42Z","2025-09-06T07:17:44Z","2025-09-06T07:17:45Z","2025-09-06T07:17:49Z","2025-09-06T07:17:50Z","2025-09-06T07:17:58Z","2025-09-06T07:18:02Z","2025-09-06T07:18:05Z","2025-09-06T07:18:08Z","2025-09-06T07:18:18Z","2025-09-06T07:18:19Z","2025-09-06T07:18:22Z","2025-09-06T07:18:29Z","2025-09-06T07:18:37Z","2025-09-06T07:18:38Z","2025-09-06T07:18:39Z","2025-09-06T07:18:40Z","2025-09-06T07:18:43Z","2025-09-06T07:18:45Z","2025-09-06T07:18:46Z","2025-09-06T07:18:47Z","2025-09-06T07:18:50Z","2025-09-06T07:18:53Z","2025-09-06T07:18:55Z","2025-09-06T07:18:57Z","2025-09-06T07:19:00Z","2025-09-06T07:19:08Z","2025-09-06T07:19:10Z","2025-09-06T07:19:13Z","2025-09-06T07:19:21Z","2025-09-06T07:20:00Z","2025-09-06T07:20:10Z","2025-09-06T07:20:12Z","2025-09-06T07:20:13Z","2025-09-06T07:20:18Z","2025-09-06T07:20:27Z","2025-09-06T07:20:29Z","2025-09-06T07:20:30Z","2025-09-06T07:20:33Z","2025-09-06T07:20:35Z","2025-09-06T07:20:37Z","2025-09-06T07:20:42Z","2025-09-06T07:20:47Z","2025-09-06T07:20:48Z","2025-09-06T07:20:51Z","2025-09-06T07:20:54Z","2025-09-06T07:20:55Z","2025-09-06T07:20:57Z","2025-09-06T07:20:59Z","2025-09-06T07:21:11Z","2025-09-06T07:21:16Z","2025-09-06T07:21:19Z","2025-09-06T07:21:21Z","2025-09-06T07:21:27Z","2025-09-06T07:21:34Z","2025-09-06T07:21:38Z","2025-09-06T07:21:41Z","2025-09-06T07:21:43Z","2025-09-06T07:21:45Z","2025-09-06T07:21:46Z","2025-09-06T07:21:47Z","2025-09-06T07:21:53Z","2025-09-06T07:21:57Z","2025-09-06T07:22:03Z","2025-09-06T07:22:08Z","2025-09-06T07:22:09Z","2025-09-06T07:22:10Z","2025-09-06T07:22:12Z","2025-09-06T07:22:14Z","2025-09-06T07:22:16Z","2025-09-06T07:22:17Z","2025-09-06T07:22:31Z","2025-09-06T07:22:32Z","2025-09-06T07:22:33Z","2025-09-06T07:22:36Z","2025-09-06T07:22:38Z","2025-09-06T07:22:40Z","2025-09-06T07:22:42Z","2025-09-06T07:22:43Z","2025-09-06T07:22:46Z","2025-09-06T07:22:54Z","2025-09-06T07:22:57Z","2025-09-06T07:22:58Z","2025-09-06T07:22:59Z","2025-09-06T07:23:01Z","2025-09-06T07:23:04Z","2025-09-06T07:23:12Z","2025-09-06T07:23:28Z","2025-09-06T07:23:47Z","2025-09-06T07:23:48Z","2025-09-06T07:24:02Z","2025-09-06T07:24:04Z","2025-09-06T07:24:07Z","2025-09-06T07:24:10Z","2025-09-06T07:24:18Z","2025-09-06T07:24:19Z","2025-09-06T07:24:22Z","2025-09-06T07:24:27Z","2025-09-06T07:24:28Z","2025-09-06T07:24:29Z","2025-09-06T07:24:34Z","2025-09-06T07:24:35Z","2025-09-06T07:24:40Z","2025-09-06T07:24:46Z","2025-09-06T07:24:48Z","2025-09-06T07:26:42Z","2025-09-06T07:26:44Z","2025-09-06T07:26:48Z","2025-09-06T07:26:55Z","2025-09-06T07:27:06Z","2025-09-06T07:27:35Z","2025-09-06T07:28:06Z","2025-09-06T07:28:08Z","2025-09-06T07:28:09Z","2025-09-06T07:28:10Z","2025-09-06T07:28:11Z","2025-09-06T07:28:13Z","2025-09-06T07:28:16Z","2025-09-06T07:28:17Z","2025-09-06T07:28:26Z","2025-09-06T07:28:28Z","2025-09-06T07:28:31Z","2025-09-06T07:28:32Z","2025-09-06T07:28:34Z","2025-09-06T07:28:36Z","2025-09-06T07:28:40Z","2025-09-06T07:28:42Z","2025-09-06T07:28:44Z","2025-09-06T07:28:46Z","2025-09-06T07:28:52Z","2025-09-06T07:28:57Z","2025-09-06T07:28:59Z","2025-09-06T07:29:01Z","2025-09-06T07:29:04Z","2025-09-06T07:29:13Z","2025-09-06T07:29:15Z","2025-09-06T07:29:16Z","2025-09-06T07:29:17Z","2025-09-06T07:29:21Z","2025-09-06T07:29:22Z","2025-09-06T07:29:32Z","2025-09-06T07:29:35Z","2025-09-06T07:29:37Z","2025-09-06T07:29:38Z","2025-09-06T07:29:41Z","2025-09-06T07:29:42Z","2025-09-06T07:29:50Z","2025-09-06T07:29:56Z","2025-09-06T07:30:01Z","2025-09-06T07:30:03Z","2025-09-06T07:30:04Z","2025-09-06T07:30:05Z","2025-09-06T07:30:06Z","2025-09-06T07:30:07Z","2025-09-06T07:30:08Z","2025-09-06T07:30:15Z","2025-09-06T07:30:23Z","2025-09-06T07:30:26Z","2025-09-06T07:30:29Z","2025-09-06T07:30:31Z","2025-09-06T07:30:32Z","2025-09-06T07:30:36Z","2025-09-06T07:30:39Z","2025-09-06T07:30:44Z","2025-09-06T07:30:46Z","2025-09-06T07:30:47Z","2025-09-06T07:30:53Z","2025-09-06T07:30:57Z","2025-09-06T07:30:58Z","2025-09-06T07:30:59Z","2025-09-06T07:31:04Z","2025-09-06T07:31:05Z","2025-09-06T07:31:09Z","2025-09-06T07:31:13Z","2025-09-06T07:31:15Z","2025-09-06T07:31:16Z","2025-09-06T07:31:20Z","2025-09-06T07:31:24Z","2025-09-06T07:31:30Z","2025-09-06T07:31:33Z","2025-09-06T07:31:38Z","2025-09-06T07:31:44Z","2025-09-06T07:31:45Z","2025-09-06T07:31:46Z","2025-09-06T07:31:49Z","2025-09-06T07:31:51Z","2025-09-06T07:31:57Z","2025-09-06T07:31:58Z","2025-09-06T07:32:00Z","2025-09-06T07:32:01Z","2025-09-06T07:32:02Z","2025-09-06T07:32:04Z","2025-09-06T07:32:06Z","2025-09-06T07:32:12Z","2025-09-06T07:32:15Z","2025-09-06T07:32:18Z","2025-09-06T07:32:21Z","2025-09-06T07:32:24Z","2025-09-06T07:32:26Z","2025-09-06T07:32:29Z","2025-09-06T07:32:34Z","2025-09-06T07:32:36Z","2025-09-06T07:32:40Z","2025-09-06T07:32:44Z","2025-09-06T07:32:46Z","2025-09-06T07:32:48Z","2025-09-06T07:32:51Z","2025-09-06T07:32:52Z","2025-09-06T07:32:53Z","2025-09-06T07:32:55Z","2025-09-06T07:33:03Z","2025-09-06T07:33:04Z","2025-09-06T07:33:05Z","2025-09-06T07:33:08Z","2025-09-06T07:33:12Z","2025-09-06T07:33:15Z","2025-09-06T07:33:18Z","2025-09-06T07:33:26Z","2025-09-06T07:33:52Z","2025-09-06T07:34:01Z","2025-09-06T07:34:20Z","2025-09-06T07:34:21Z","2025-09-06T07:34:28Z","2025-09-06T07:34:46Z","2025-09-06T07:34:47Z","2025-09-06T07:34:50Z","2025-09-06T07:34:56Z","2025-09-06T07:34:57Z","2025-09-06T07:34:58Z","2025-09-06T07:35:00Z","2025-09-06T07:35:02Z","2025-09-06T07:35:04Z","2025-09-06T07:35:06Z","2025-09-06T07:35:09Z","2025-09-06T07:35:17Z","2025-09-06T07:35:21Z","2025-09-06T07:35:22Z","2025-09-06T07:35:26Z","2025-09-06T07:35:31Z","2025-09-06T07:35:32Z","2025-09-06T07:35:34Z","2025-09-06T07:35:35Z","2025-09-06T07:35:38Z","2025-09-06T07:35:39Z","2025-09-06T07:35:40Z","2025-09-06T07:35:44Z","2025-09-06T07:35:46Z","2025-09-06T07:35:48Z","2025-09-06T07:35:53Z","2025-09-06T07:35:58Z","2025-09-06T07:35:59Z","2025-09-06T07:36:02Z","2025-09-06T07:36:03Z","2025-09-06T07:36:08Z","2025-09-06T07:36:09Z","2025-09-06T07:36:11Z","2025-09-06T07:36:13Z","2025-09-06T07:36:26Z","2025-09-06T07:36:30Z","2025-09-06T07:36:31Z","2025-09-06T07:36:34Z","2025-09-06T07:36:35Z","2025-09-06T07:36:37Z","2025-09-06T07:36:39Z","2025-09-06T07:36:40Z","2025-09-06T07:36:42Z","2025-09-06T07:36:43Z","2025-09-06T07:36:45Z","2025-09-06T07:36:52Z","2025-09-06T07:36:59Z","2025-09-06T07:37:03Z","2025-09-06T07:37:08Z","2025-09-06T07:37:19Z","2025-09-06T07:37:20Z","2025-09-06T07:37:22Z","2025-09-06T07:37:23Z","2025-09-06T07:37:24Z","2025-09-06T07:37:26Z","2025-09-06T07:37:27Z","2025-09-06T07:37:28Z","2025-09-06T07:37:30Z","2025-09-06T07:37:31Z","2025-09-06T07:37:36Z","2025-09-06T07:37:37Z","2025-09-06T07:37:38Z","2025-09-06T07:37:39Z","2025-09-06T07:37:44Z","2025-09-06T07:37:50Z","2025-09-06T07:37:51Z","2025-09-06T07:37:57Z","2025-09-06T07:38:01Z","2025-09-06T07:38:03Z","2025-09-06T07:38:07Z","2025-09-06T07:38:17Z","2025-09-06T07:38:18Z","2025-09-06T07:38:19Z","2025-09-06T07:38:20Z","2025-09-06T07:38:21Z","2025-09-06T07:38:23Z","2025-09-06T07:38:25Z","2025-09-06T07:38:26Z","2025-09-06T07:38:31Z","2025-09-06T07:38:32Z","2025-09-06T07:38:34Z","2025-09-06T07:38:39Z","2025-09-06T07:38:46Z","2025-09-06T07:38:50Z","2025-09-06T07:38:57Z","2025-09-06T07:38:59Z","2025-09-06T07:39:01Z","2025-09-06T07:39:04Z","2025-09-06T07:39:07Z","2025-09-06T07:39:10Z","2025-09-06T07:39:11Z","2025-09-06T07:39:12Z","2025-09-06T07:39:19Z","2025-09-06T07:39:20Z","2025-09-06T07:39:21Z","2025-09-06T07:39:22Z","2025-09-06T07:39:24Z","2025-09-06T07:39:29Z","2025-09-06T07:39:30Z","2025-09-06T07:39:31Z","2025-09-06T07:39:32Z","2025-09-06T07:39:43Z","2025-09-06T07:39:44Z","2025-09-06T07:39:45Z","2025-09-06T07:39:49Z","2025-09-06T07:39:50Z","2025-09-06T07:39:56Z","2025-09-06T07:39:58Z","2025-09-06T07:40:00Z","2025-09-06T07:40:03Z","2025-09-06T07:40:04Z","2025-09-06T07:40:09Z","2025-09-06T07:40:10Z","2025-09-06T07:40:12Z","2025-09-06T07:40:13Z","2025-09-06T07:40:15Z","2025-09-06T07:40:23Z","2025-09-06T07:40:24Z","2025-09-06T07:40:26Z","2025-09-06T07:40:27Z","2025-09-06T07:40:29Z","2025-09-06T07:40:32Z","2025-09-06T07:40:35Z","2025-09-06T07:40:36Z","2025-09-06T07:40:38Z","2025-09-06T07:40:39Z","2025-09-06T07:40:41Z","2025-09-06T07:40:42Z","2025-09-06T07:40:50Z","2025-09-06T07:40:51Z","2025-09-06T07:40:52Z","2025-09-06T07:40:55Z","2025-09-06T07:40:56Z","2025-09-06T07:40:58Z","2025-09-06T07:41:01Z","2025-09-06T07:41:05Z","2025-09-06T07:41:08Z","2025-09-06T07:41:09Z","2025-09-06T07:41:10Z","2025-09-06T07:41:11Z","2025-09-06T07:41:15Z","2025-09-06T07:41:18Z","2025-09-06T07:41:20Z","2025-09-06T07:41:26Z","2025-09-06T07:41:29Z","2025-09-06T07:41:30Z","2025-09-06T07:41:31Z","2025-09-06T07:41:32Z","2025-09-06T07:41:35Z","2025-09-06T07:41:36Z","2025-09-06T07:41:38Z","2025-09-06T07:41:40Z","2025-09-06T07:41:44Z","2025-09-06T07:41:49Z","2025-09-06T07:41:50Z","2025-09-06T07:41:52Z","2025-09-06T07:41:55Z","2025-09-06T07:41:56Z","2025-09-06T07:41:59Z","2025-09-06T07:42:02Z","2025-09-06T07:42:04Z","2025-09-06T07:42:07Z","2025-09-06T07:42:09Z","2025-09-06T07:42:12Z","2025-09-06T07:42:22Z","2025-09-06T07:42:23Z","2025-09-06T07:44:32Z","2025-09-06T07:44:36Z","2025-09-06T07:44:37Z","2025-09-06T07:44:40Z","2025-09-06T07:44:43Z","2025-09-06T07:44:44Z","2025-09-06T07:44:47Z","2025-09-06T07:44:49Z","2025-09-06T07:44:54Z","2025-09-06T07:45:06Z","2025-09-06T07:45:07Z","2025-09-06T07:45:08Z","2025-09-06T07:45:12Z","2025-09-06T07:45:13Z","2025-09-06T07:45:15Z","2025-09-06T07:45:17Z","2025-09-06T07:45:24Z","2025-09-06T07:45:27Z","2025-09-06T07:45:28Z","2025-09-06T07:45:30Z","2025-09-06T07:45:31Z","2025-09-06T07:45:32Z","2025-09-06T07:45:33Z","2025-09-06T07:45:34Z","2025-09-06T07:45:35Z","2025-09-06T07:45:36Z","2025-09-06T07:45:37Z","2025-09-06T07:45:40Z","2025-09-06T07:45:46Z","2025-09-06T07:45:47Z","2025-09-06T07:45:48Z","2025-09-06T07:45:50Z","2025-09-06T07:45:54Z","2025-09-06T07:45:55Z","2025-09-06T07:45:58Z","2025-09-06T07:46:00Z","2025-09-06T07:46:02Z","2025-09-06T07:46:03Z","2025-09-06T07:46:06Z","2025-09-06T07:46:08Z","2025-09-06T07:46:11Z","2025-09-06T07:46:17Z","2025-09-06T07:46:20Z","2025-09-06T07:46:21Z","2025-09-06T07:46:22Z","2025-09-06T07:46:24Z","2025-09-06T07:46:25Z","2025-09-06T07:46:27Z","2025-09-06T07:46:32Z","2025-09-06T07:46:36Z","2025-09-06T07:46:39Z","2025-09-06T07:46:42Z","2025-09-06T07:46:46Z","2025-09-06T07:46:49Z","2025-09-06T07:46:51Z","2025-09-06T07:46:54Z","2025-09-06T07:46:55Z","2025-09-06T07:46:59Z","2025-09-06T07:47:00Z","2025-09-06T07:47:01Z","2025-09-06T07:47:03Z","2025-09-06T07:47:07Z","2025-09-06T07:47:10Z","2025-09-06T07:47:12Z","2025-09-06T07:47:13Z","2025-09-06T07:47:17Z","2025-09-06T07:47:18Z","2025-09-06T07:47:20Z","2025-09-06T07:47:21Z","2025-09-06T07:47:22Z","2025-09-06T07:47:29Z","2025-09-06T07:47:31Z","2025-09-06T07:47:35Z","2025-09-06T07:47:36Z","2025-09-06T07:47:37Z","2025-09-06T07:47:38Z","2025-09-06T07:47:41Z","2025-09-06T07:47:44Z","2025-09-06T07:47:54Z","2025-09-06T07:47:55Z","2025-09-06T07:47:57Z","2025-09-06T07:48:01Z","2025-09-06T07:48:04Z","2025-09-06T07:48:06Z","2025-09-06T07:48:08Z","2025-09-06T07:48:10Z","2025-09-06T07:48:17Z","2025-09-06T07:48:18Z","2025-09-06T07:48:22Z","2025-09-06T07:48:25Z","2025-09-06T07:48:26Z","2025-09-06T07:48:29Z","2025-09-06T07:48:31Z","2025-09-06T07:48:32Z","2025-09-06T07:48:33Z","2025-09-06T07:48:37Z","2025-09-06T07:48:38Z","2025-09-06T07:48:40Z","2025-09-06T07:48:42Z","2025-09-06T07:48:46Z","2025-09-06T07:48:50Z","2025-09-06T07:48:51Z","2025-09-06T07:49:05Z","2025-09-06T07:49:13Z","2025-09-06T07:49:16Z","2025-09-06T07:49:17Z","2025-09-06T07:49:23Z","2025-09-06T07:49:25Z","2025-09-06T07:49:29Z","2025-09-06T07:49:32Z","2025-09-06T07:49:34Z","2025-09-06T07:49:39Z","2025-09-06T07:49:41Z","2025-09-06T07:49:42Z","2025-09-06T07:49:45Z","2025-09-06T07:49:47Z","2025-09-06T07:49:50Z","2025-09-06T07:49:53Z","2025-09-06T07:49:59Z","2025-09-06T07:50:00Z","2025-09-06T07:50:01Z","2025-09-06T07:50:02Z","2025-09-06T07:50:05Z","2025-09-06T07:50:14Z","2025-09-06T07:50:17Z","2025-09-06T07:50:20Z","2025-09-06T07:50:24Z","2025-09-06T07:50:27Z","2025-09-06T07:50:32Z","2025-09-06T07:50:35Z","2025-09-06T07:50:41Z","2025-09-06T07:50:45Z","2025-09-06T07:50:49Z","2025-09-06T07:51:06Z","2025-09-06T07:51:19Z","2025-09-06T07:51:21Z","2025-09-06T07:51:32Z","2025-09-06T07:51:44Z","2025-09-06T07:51:47Z","2025-09-06T07:51:52Z","2025-09-06T07:51:53Z","2025-09-06T07:51:58Z","2025-09-06T07:52:01Z","2025-09-06T07:52:10Z","2025-09-06T07:52:18Z","2025-09-06T07:52:21Z","2025-09-06T07:52:26Z","2025-09-06T07:52:33Z","2025-09-06T07:52:35Z","2025-09-06T07:52:40Z","2025-09-06T07:52:41Z","2025-09-06T07:52:52Z","2025-09-06T07:52:53Z","2025-09-06T07:52:58Z","2025-09-06T07:53:00Z","2025-09-06T07:53:07Z","2025-09-06T07:53:21Z","2025-09-06T07:53:25Z","2025-09-06T07:53:30Z","2025-09-06T07:53:43Z","2025-09-06T07:53:45Z","2025-09-06T07:53:55Z","2025-09-06T07:54:00Z","2025-09-06T07:54:03Z","2025-09-06T07:54:06Z","2025-09-06T07:54:11Z","2025-09-06T07:54:20Z","2025-09-06T07:54:22Z","2025-09-06T07:54:25Z","2025-09-06T07:54:26Z","2025-09-06T07:54:28Z","2025-09-06T07:54:29Z","2025-09-06T07:54:31Z","2025-09-06T07:54:34Z","2025-09-06T07:54:35Z","2025-09-06T07:54:37Z","2025-09-06T07:54:38Z","2025-09-06T07:54:39Z","2025-09-06T07:54:40Z","2025-09-06T07:54:41Z","2025-09-06T07:54:45Z","2025-09-06T07:54:47Z","2025-09-06T07:54:48Z","2025-09-06T07:54:49Z","2025-09-06T07:54:50Z","2025-09-06T07:54:52Z","2025-09-06T07:54:53Z","2025-09-06T07:54:56Z","2025-09-06T07:54:58Z","2025-09-06T07:54:59Z","2025-09-06T07:55:01Z","2025-09-06T07:55:02Z","2025-09-06T07:55:03Z","2025-09-06T07:55:07Z","2025-09-06T07:55:08Z","2025-09-06T07:55:09Z","2025-09-06T07:55:10Z","2025-09-06T07:55:14Z","2025-09-06T07:55:18Z","2025-09-06T07:55:22Z","2025-09-06T07:55:28Z","2025-09-06T07:55:44Z","2025-09-06T07:55:46Z","2025-09-06T07:56:02Z","2025-09-06T07:56:06Z","2025-09-06T07:56:09Z","2025-09-06T07:56:30Z","2025-09-06T07:56:34Z","2025-09-06T07:56:35Z","2025-09-06T07:56:37Z","2025-09-06T07:56:39Z","2025-09-06T07:56:41Z","2025-09-06T07:56:42Z","2025-09-06T07:56:43Z","2025-09-06T07:56:44Z","2025-09-06T07:56:46Z","2025-09-06T07:56:47Z","2025-09-06T07:56:53Z","2025-09-06T07:56:54Z","2025-09-06T07:56:55Z","2025-09-06T07:56:56Z","2025-09-06T07:57:08Z","2025-09-06T07:57:28Z","2025-09-06T07:57:31Z","2025-09-06T07:57:38Z","2025-09-06T07:57:43Z","2025-09-06T07:57:44Z","2025-09-06T07:58:14Z","2025-09-06T07:58:31Z","2025-09-06T07:58:32Z","2025-09-06T07:58:43Z","2025-09-06T07:58:46Z","2025-09-06T07:58:50Z","2025-09-06T07:58:51Z","2025-09-06T07:58:54Z","2025-09-06T07:58:57Z","2025-09-06T07:59:00Z","2025-09-06T07:59:03Z","2025-09-06T08:01:01Z"],"heartRates":[72,72,72,76,76,71,73,73,76,75,80,80,80,80,84,84,84,84,87,87,91,93,93,95,94,94,94,94,96,96,87,89,93,91,91,93,93,95,86,86,73,73,77,77,90,90,90,90,94,94,94,94,92,92,83,81,81,82,71,72,81,82,82,84,88,92,93,93,93,92,92,92,92,92,87,87,85,83,83,79,78,78,79,79,72,71,71,71,71,75,74,74,74,74,80,75,74,74,77,77,80,79,79,80,80,80,80,81,83,83,81,80,82,79,76,76,82,79,85,81,78,83,83,84,84,89,91,91,94,94,96,95,95,95,94,96,96,98,98,98,98,98,99,99,101,101,101,101,101,100,101,101,102,102,102,102,103,103,105,105,105,105,105,104,104,105,105,105,105,105,105,107,107,107,107,104,104,104,104,101,98,98,94,86,85,85,83,89,88,88,88,91,91,91,97,99,99,100,100,100,100,100,102,101,101,101,101,97,97,97,97,97,102,102,103,101,101,101,101,101,105,105,105,105,101,101,101,101,103,103,103,103,106,104,104,104,104,105,106,107,103,94,94,95,95,96,96,97,97,96,100,100,100,100,104,104,101,101,85,85,83,84,80,82,86,86,86,86,86,86,86,86,93,93,93,93,95,95,98,99,99,99,100,101,101,102,103,102,102,102,101,101,105,106,105,105,105,106,106,110,106,106,106,106,106,106,106,106,107,107,105,105,105,105,106,105,105,105,105,107,107,107,107,109,109,109,108,108,108,109,108,105,105,103,104,104,104,104,104,105,105,105,105,106,106,106,109,112,110,110,110,108,107,107,108,109,109,109,110,110,110,110,110,110,110,110,108,108,108,102,96,88,91,86,85,85,85,86,86,94,94,94,94,96,96,99,99,99,98,98,97,96,95,95,95,95,95,95,95,103,103,100,100,100,100,100,103,103,103,104,103,102,102,103,103,103,107,107,107,107,107,105,101,99,101,98,97,97,97,97,97,101,101,101,101,105,107,107,107,107,106,106,102,102,101,101,103,103,103,103,102,102,102,102,108,108,105,105,107,106,104,104,104,104,107,107,108,108,105,105,105,105,105,107,107,108,108,108,108,108,105,105,108,108,108,105,105,107,109,108,108,108,107,107,107,105,105,105,105,107,107,107,107,108,112,112,112,110,110,110,113,113,109,109,109,109,109,108,108,106,106,106,106,107,107,107,107,109,110,110,110,109,109,110,110,109,109,108,108,108,108,108,97,96,96,96,95,95,96,96,99,96,96,96,98,98,98,99,102,102,102,102,102,102,102,102,102,102,102,102,101,103,103,103,103,103,103,103,103,103,104,104,108,108,108,108,108,109,109,109,110,109,109,107,107,107,107,109,109,109,109,109,109,111,112,112,112,112,111,111,111,111,111,109,109,109,110,110,110,112,110,110,110,110,110,110,110,111,113,113,113,113,113,115,115,115,115,116,116,116,116,110,109,109,105,103,108,108,112,112,112,112,112,110,112,112,112,113,113,113,109,109,103,103,103,102,102,102,102,107,107,102,100,100,100,97,101,101,100,100,100,96,96,97,97,96,92,90,92,93,93,93,93,91,91,92,92,90,90,90,91,94,94,92,92,88,88,88,90,90,90,92,92,92,92,92,92,90,90,90,90,90,90,88,88,88,88,88,89,89,89,89,89,89,89,89,89,89,91,91,91,95,92,95,95,92,92,92,91,91,91,91,93,93,93,93,93,94,94,89,89,89,89,84,84,84,87,87,87,86,87,87,88,88,88,88,90,90,90,87,90],"month":"2025-09-01"},"geometry":{"type":"LineString","coordinates":[[2.485274,48.63252,82.5],[2.485276,48.632525,82.5],[2.485267,48.632524,82.5],[2.485297,48.632524,82.4],[2.485283,48.632531,82.4],[2.485294,48.632527,82.4],[2.485219,48.632513,82.4],[2.485215,48.632533,82.4],[2.485243,48.632544,82.4],[2.485249,48.63259,82.3],[2.485224,48.6326,82.3],[2.48523,48.632589,82.3],[2.485264,48.632588,82.3],[2.485256,48.632594,82.3],[2.485271,48.632598,82.3],[2.485273,48.63261,82.3],[2.485233,48.632628,82.3],[2.48522,48.632627,82.3],[2.485222,48.632742,82.2],[2.485249,48.63277,82.1],[2.485255,48.632797,82.1],[2.485336,48.632843,82],[2.48536,48.632866,81.9],[2.485415,48.632882,81.8],[2.485499,48.632949,81.7],[2.485469,48.632974,81.7],[2.485389,48.633,81.7],[2.485359,48.632997,81.6],[2.485361,48.632984,81.6],[2.485356,48.632993,81.6],[2.485357,48.632977,81.6],[2.485237,48.633071,81.5],[2.485175,48.633098,81.5],[2.485096,48.633175,81.5],[2.485074,48.633224,81.4],[2.485055,48.633235,81.4],[2.484955,48.63321,81.4],[2.484803,48.633235,81.3],[2.484816,48.633253,81.3],[2.484815,48.633238,81.3],[2.484828,48.63323,81.3],[2.484811,48.633237,81.2],[2.484774,48.633216,81.2],[2.484713,48.633135,81.1],[2.484669,48.633122,81],[2.484658,48.633112,81],[2.484546,48.633091,81],[2.484466,48.633099,80.9],[2.484396,48.633134,80.9],[2.484365,48.633164,80.9],[2.484299,48.633195,80.9],[2.484291,48.633213,80.9],[2.484305,48.633236,80.9],[2.484297,48.633262,80.9],[2.484321,48.633264,81],[2.484351,48.633285,81],[2.484355,48.633279,81],[2.48434,48.633279,81],[2.484361,48.633286,81],[2.484362,48.63328,81],[2.48425,48.633315,81],[2.484167,48.63332,81.1],[2.483989,48.633364,81.1],[2.483885,48.633381,81.3],[2.48376,48.633425,81.2],[2.483684,48.633438,81.3],[2.483573,48.63349,81.2],[2.483536,48.633545,81.1],[2.483547,48.63356,81.1],[2.483554,48.63355,81.1],[2.483547,48.633541,81.1],[2.483552,48.633553,81.1],[2.483556,48.633535,81.1],[2.483552,48.63355,81.1],[2.483549,48.633545,81.1],[2.48356,48.633549,81.1],[2.483552,48.633544,81.1],[2.483545,48.633568,81],[2.483552,48.633551,81.1],[2.483547,48.633585,81],[2.483551,48.633574,81],[2.48354,48.633577,81],[2.48352,48.633559,81.1],[2.483533,48.633568,81],[2.483511,48.633551,81.1],[2.483506,48.633559,81.1],[2.483506,48.633553,81.1],[2.483499,48.633558,81.1],[2.483506,48.633559,81.1],[2.483491,48.633589,81],[2.483484,48.633587,81],[2.483505,48.633573,81],[2.48348,48.633594,81],[2.483478,48.633585,81],[2.483501,48.633578,81.1],[2.483478,48.633585,81.1],[2.483496,48.633579,81.1],[2.483478,48.633585,81.1],[2.48351,48.633558,81.1],[2.483487,48.633579,81.1],[2.48351,48.633558,81.1],[2.483491,48.633581,81.1],[2.483494,48.633575,81.1],[2.48352,48.633576,81.1],[2.483521,48.633562,81.1],[2.483515,48.633574,81.1],[2.483526,48.633568,81.1],[2.483522,48.633562,81.1],[2.48352,48.633569,81.1],[2.483523,48.633562,81.1],[2.483489,48.633563,81.1],[2.483493,48.633558,81.2],[2.483508,48.633566,81.1],[2.483479,48.633585,81.1],[2.483508,48.633564,81.1],[2.483493,48.633578,81.1],[2.48351,48.633566,81.1],[2.483506,48.633559,81.2],[2.483507,48.633564,81.2],[2.483505,48.633557,81.2],[2.483536,48.633568,81.2],[2.483529,48.633576,81.2],[2.483537,48.633576,81.2],[2.483533,48.633561,81.2],[2.483538,48.633569,81.2],[2.483531,48.633555,81.2],[2.483545,48.633573,81.2],[2.483539,48.633566,81.2],[2.483546,48.63357,81.2],[2.483544,48.633559,81.2],[2.483542,48.633576,81.2],[2.483533,48.633572,81.2],[2.483536,48.633577,81.2],[2.483525,48.633556,81.2],[2.483529,48.633565,81.2],[2.483531,48.633558,81.2],[2.483528,48.633572,81.2],[2.48354,48.633552,81.2],[2.483538,48.633566,81.2],[2.483536,48.633561,81.2],[2.483532,48.633569,81.2],[2.483532,48.633561,81.2],[2.483528,48.633568,81.2],[2.483548,48.633568,81.2],[2.483554,48.63356,81.3],[2.483555,48.633568,81.2],[2.483548,48.633545,81.2],[2.48354,48.633551,81.2],[2.483554,48.633557,81.3],[2.48355,48.63354,81.2],[2.48355,48.633556,81.3],[2.483539,48.633556,81.3],[2.483546,48.633557,81.3],[2.483542,48.633551,81.3],[2.483542,48.633558,81.3],[2.483563,48.633556,81.3],[2.483549,48.633555,81.3],[2.483553,48.633549,81.3],[2.483544,48.633561,81.2],[2.483563,48.633564,81.2],[2.483551,48.63357,81.2],[2.483559,48.633574,81.2],[2.483567,48.633567,81.2],[2.483559,48.633565,81.2],[2.483572,48.633553,81.3],[2.483543,48.633567,81.2],[2.483539,48.633556,81.3],[2.483548,48.633557,81.3],[2.483542,48.633554,81.3],[2.48355,48.633554,81.3],[2.483548,48.633566,81.2],[2.483546,48.633548,81.3],[2.483537,48.633548,81.3],[2.483539,48.633561,81.2],[2.483549,48.633564,81.2],[2.483538,48.633568,81.2],[2.483545,48.633564,81.2],[2.483523,48.633563,81.2],[2.48356,48.633539,81.3],[2.483566,48.633549,81.3],[2.483557,48.633547,81.3],[2.483555,48.633555,81.3],[2.483563,48.633544,81.3],[2.483542,48.633559,81.3],[2.48354,48.633554,81.3],[2.483527,48.633566,81.3],[2.483548,48.633575,81.3],[2.483531,48.633576,81.3],[2.483555,48.633576,81.3],[2.483548,48.633567,81.3],[2.483558,48.633569,81.3],[2.483554,48.633562,81.3],[2.483565,48.633563,81.3],[2.483557,48.633551,81.3],[2.483546,48.63357,81.3],[2.483552,48.633562,81.3],[2.48355,48.63357,81.3],[2.483548,48.633544,81.3],[2.483538,48.633552,81.3],[2.483554,48.63354,81.3],[2.48356,48.633552,81.3],[2.483542,48.633557,81.3],[2.483541,48.633568,81.3],[2.48354,48.633559,81.3],[2.48352,48.633567,81.3],[2.483541,48.633553,81.3],[2.483556,48.633566,81.3],[2.483541,48.633566,81.3],[2.48354,48.633558,81.3],[2.483547,48.633564,81.3],[2.483558,48.63355,81.3],[2.483551,48.633553,81.3],[2.483558,48.633554,81.3],[2.483543,48.633548,81.3],[2.483551,48.633567,81.3],[2.483544,48.633567,81.3],[2.483556,48.633572,81.3],[2.483557,48.633557,81.3],[2.483548,48.633563,81.3],[2.483545,48.633556,81.3],[2.483564,48.633552,81.3],[2.483556,48.63356,81.3],[2.483561,48.633554,81.3],[2.483564,48.63356,81.3],[2.483536,48.633564,81.3],[2.483547,48.633557,81.4],[2.48355,48.633563,81.3],[2.483568,48.633543,81.4],[2.48356,48.633547,81.4],[2.483546,48.633533,81.4],[2.483548,48.633563,81.3],[2.483545,48.633558,81.4],[2.48356,48.633565,81.3],[2.483529,48.633563,81.3],[2.483547,48.633575,81.3],[2.483551,48.633562,81.3],[2.483562,48.633569,81.3],[2.483554,48.633569,81.3],[2.483562,48.633575,81.3],[2.483547,48.633572,81.3],[2.483562,48.633578,81.3],[2.483557,48.633572,81.3],[2.483576,48.633564,81.3],[2.483559,48.633561,81.3],[2.48355,48.633567,81.3],[2.483559,48.633568,81.3],[2.483549,48.633574,81.3],[2.483539,48.633563,81.3],[2.483554,48.633559,81.4],[2.483547,48.633563,81.3],[2.483563,48.633577,81.3],[2.483555,48.63358,81.3],[2.483564,48.633582,81.3],[2.483535,48.633574,81.3],[2.483548,48.633569,81.3],[2.483529,48.633569,81.3],[2.483559,48.633571,81.3],[2.483577,48.633552,81.4],[2.483597,48.633583,81.4],[2.483594,48.633558,81.4],[2.483565,48.633554,81.4],[2.483572,48.633554,81.4],[2.483517,48.633531,81.5],[2.483511,48.633568,81.4],[2.483628,48.633554,81.5],[2.48366,48.633544,81.5],[2.483692,48.633513,81.5],[2.483595,48.633507,81.5],[2.483528,48.633544,81.5],[2.48355,48.633556,81.5],[2.483525,48.633577,81.4],[2.483536,48.633569,81.4],[2.483549,48.633572,81.4],[2.483543,48.633565,81.4],[2.483551,48.63356,81.5],[2.483545,48.633568,81.4],[2.48354,48.633548,81.5],[2.483538,48.63356,81.5],[2.483534,48.633555,81.5],[2.483549,48.633554,81.5],[2.483546,48.633562,81.4],[2.483541,48.633555,81.5],[2.483559,48.63356,81.5],[2.483553,48.633541,81.5],[2.483541,48.633557,81.5],[2.483553,48.633555,81.5],[2.483531,48.633562,81.4],[2.48356,48.633572,81.4],[2.483557,48.633548,81.5],[2.483561,48.633553,81.5],[2.483569,48.633528,81.5],[2.48354,48.633557,81.5],[2.483552,48.633548,81.5],[2.483546,48.63357,81.4],[2.483546,48.633555,81.5],[2.483552,48.633561,81.4],[2.48356,48.633557,81.5],[2.483564,48.633565,81.4],[2.483577,48.633558,81.5],[2.48355,48.633569,81.4],[2.483572,48.633565,81.4],[2.483563,48.633549,81.5],[2.483569,48.633555,81.5],[2.483563,48.63355,81.5],[2.483585,48.63355,81.5],[2.483574,48.633549,81.5],[2.483574,48.633556,81.5],[2.48356,48.633556,81.5],[2.483554,48.633566,81.5],[2.483548,48.633555,81.5],[2.483545,48.633567,81.5],[2.483553,48.633542,81.5],[2.483544,48.633554,81.5],[2.483557,48.633555,81.5],[2.48354,48.633561,81.5],[2.483547,48.633566,81.5],[2.483571,48.633557,81.5],[2.483554,48.633557,81.5],[2.483561,48.633564,81.5],[2.483562,48.633548,81.5],[2.483553,48.633566,81.5],[2.483554,48.63356,81.5],[2.48355,48.633567,81.5],[2.483521,48.633539,81.5],[2.483533,48.633531,81.6],[2.483555,48.633553,81.5],[2.483566,48.633522,81.6],[2.483563,48.63354,81.5],[2.483552,48.633546,81.5],[2.483564,48.633554,81.5],[2.483545,48.633559,81.5],[2.483555,48.633567,81.5],[2.483543,48.633556,81.5],[2.483565,48.633553,81.5],[2.483557,48.633568,81.5],[2.483551,48.633554,81.5],[2.483545,48.633567,81.5],[2.483557,48.633565,81.5],[2.483545,48.633575,81.5],[2.483539,48.633568,81.5],[2.483548,48.633557,81.5],[2.483553,48.633565,81.5],[2.483544,48.633557,81.5],[2.483553,48.633552,81.5],[2.483559,48.633561,81.5],[2.483567,48.633539,81.5],[2.483551,48.63357,81.5],[2.48354,48.633573,81.5],[2.483538,48.633564,81.5],[2.483529,48.633564,81.5],[2.48355,48.633564,81.5],[2.483542,48.633566,81.5],[2.483557,48.633564,81.5],[2.483529,48.633571,81.5],[2.483536,48.633573,81.5],[2.483525,48.633579,81.5],[2.483543,48.63357,81.5],[2.483532,48.633569,81.5],[2.483551,48.633573,81.5],[2.483541,48.633574,81.5],[2.483544,48.633567,81.5],[2.483547,48.633575,81.5],[2.483559,48.633569,81.5],[2.483524,48.633563,81.5],[2.48353,48.633571,81.5],[2.483531,48.633555,81.6],[2.48356,48.633553,81.6],[2.483545,48.633553,81.6],[2.483555,48.633558,81.6],[2.483541,48.633556,81.6],[2.483554,48.633551,81.6],[2.483551,48.633535,81.6],[2.483561,48.633549,81.6],[2.483542,48.633544,81.6],[2.483552,48.633552,81.6],[2.483548,48.633548,81.6],[2.483522,48.633578,81.5],[2.48353,48.633578,81.5],[2.48352,48.633574,81.5],[2.483533,48.63358,81.5],[2.483529,48.633575,81.5],[2.483546,48.633582,81.5],[2.483544,48.633554,81.6],[2.483542,48.633565,81.5],[2.483545,48.633548,81.6],[2.483554,48.633558,81.6],[2.483558,48.633544,81.6],[2.483536,48.633548,81.6],[2.48354,48.63356,81.6],[2.483549,48.633559,81.6],[2.483538,48.633569,81.6],[2.483529,48.633557,81.6],[2.483526,48.633565,81.6],[2.483541,48.63356,81.6],[2.483534,48.63355,81.6],[2.483553,48.633557,81.6],[2.483544,48.63355,81.6],[2.483567,48.633556,81.6],[2.483552,48.633552,81.6],[2.483552,48.633559,81.6],[2.483562,48.633558,81.6],[2.483548,48.633571,81.6],[2.483541,48.633563,81.6],[2.483555,48.633574,81.6],[2.483552,48.633556,81.6],[2.48356,48.633562,81.6],[2.483568,48.633549,81.6],[2.483556,48.633554,81.6],[2.483574,48.633558,81.6],[2.483568,48.633564,81.6],[2.483546,48.633554,81.6],[2.48355,48.633545,81.6],[2.483562,48.633552,81.6],[2.483542,48.633547,81.6],[2.483553,48.633549,81.6],[2.483557,48.633537,81.6],[2.483578,48.633555,81.6],[2.48357,48.633559,81.6],[2.483577,48.633571,81.6],[2.483567,48.633564,81.6],[2.48357,48.633571,81.6],[2.483539,48.633561,81.6],[2.483543,48.633582,81.6],[2.483533,48.63358,81.6],[2.483549,48.633584,81.6],[2.483537,48.633572,81.6],[2.483541,48.633584,81.6],[2.483541,48.633573,81.6],[2.48353,48.633569,81.6],[2.48354,48.633578,81.6],[2.483544,48.633571,81.6],[2.483525,48.633571,81.6],[2.483525,48.633565,81.6],[2.48355,48.633567,81.6],[2.483542,48.633567,81.6],[2.48357,48.633574,81.6],[2.483566,48.633568,81.6],[2.483559,48.633579,81.6],[2.483567,48.633575,81.6],[2.483546,48.633578,81.6],[2.483531,48.633561,81.6],[2.483519,48.633567,81.6],[2.483532,48.633568,81.6],[2.483543,48.633556,81.7],[2.483518,48.633555,81.7],[2.483545,48.633561,81.6],[2.483519,48.633567,81.6],[2.48353,48.633572,81.6],[2.48353,48.633565,81.6],[2.483542,48.633566,81.6],[2.483542,48.633556,81.7],[2.483559,48.633562,81.6],[2.483538,48.633545,81.7],[2.483538,48.633523,81.7],[2.48356,48.633556,81.7],[2.483572,48.63355,81.7],[2.48356,48.633565,81.6],[2.483552,48.633539,81.7],[2.483539,48.633576,81.6],[2.483547,48.633569,81.6],[2.483528,48.633562,81.6],[2.483536,48.633563,81.6],[2.483531,48.633556,81.7],[2.483546,48.633562,81.6],[2.483529,48.633559,81.7],[2.483535,48.633569,81.6],[2.483539,48.633565,81.6],[2.483537,48.633575,81.6],[2.483539,48.63357,81.6],[2.483527,48.633574,81.6],[2.483531,48.63357,81.6],[2.483543,48.633581,81.6],[2.48355,48.63357,81.6],[2.483538,48.633569,81.6],[2.483556,48.633569,81.6],[2.483554,48.633575,81.6],[2.483568,48.633574,81.6],[2.483565,48.63356,81.7],[2.483579,48.633573,81.6],[2.48357,48.633578,81.6],[2.483562,48.633572,81.6],[2.48356,48.633579,81.6],[2.483553,48.63357,81.6],[2.483547,48.633573,81.6],[2.483556,48.633579,81.6],[2.483574,48.633553,81.7],[2.483578,48.633561,81.6],[2.483526,48.633541,81.7],[2.48355,48.633554,81.7],[2.483543,48.633562,81.6],[2.483552,48.633553,81.7],[2.483535,48.633563,81.6],[2.48358,48.633557,81.7],[2.483537,48.63356,81.7],[2.483535,48.633548,81.7],[2.483524,48.633554,81.7],[2.483534,48.633556,81.7],[2.483523,48.633566,81.7],[2.483545,48.633564,81.7],[2.483509,48.633558,81.7],[2.48354,48.633563,81.7],[2.48355,48.633555,81.7],[2.483541,48.633558,81.7],[2.483542,48.633553,81.7],[2.483539,48.633568,81.7],[2.483551,48.633564,81.7],[2.483544,48.63357,81.7],[2.48354,48.633558,81.7],[2.483536,48.633571,81.7],[2.48355,48.63356,81.7],[2.483539,48.633562,81.7],[2.483535,48.633576,81.7],[2.483551,48.633571,81.7],[2.483557,48.633576,81.7],[2.483535,48.633548,81.7],[2.483543,48.633541,81.7],[2.483539,48.633576,81.7],[2.483548,48.633571,81.7],[2.483545,48.633577,81.7],[2.483538,48.633571,81.7],[2.483557,48.633565,81.7],[2.483548,48.633566,81.7],[2.483567,48.633555,81.7],[2.483561,48.633567,81.7],[2.483573,48.633561,81.7],[2.483558,48.633568,81.7],[2.48358,48.633562,81.7],[2.483563,48.633566,81.7],[2.483549,48.633561,81.7],[2.483545,48.633566,81.7],[2.483537,48.633561,81.7],[2.483534,48.633566,81.7],[2.483535,48.633552,81.7],[2.483529,48.633559,81.7],[2.48354,48.63356,81.7],[2.483533,48.63355,81.7],[2.48354,48.633556,81.7],[2.48353,48.633554,81.7],[2.483548,48.633565,81.7],[2.483538,48.633556,81.7],[2.483545,48.633573,81.7],[2.483535,48.633554,81.7],[2.483558,48.633506,81.8],[2.483542,48.633542,81.8],[2.483536,48.633532,81.8],[2.483553,48.633505,81.8],[2.48353,48.633541,81.8],[2.483519,48.633543,81.8],[2.483529,48.633558,81.8],[2.483534,48.633553,81.8],[2.483544,48.633566,81.7],[2.483548,48.633552,81.8],[2.483543,48.633563,81.7],[2.483546,48.633556,81.8],[2.483548,48.633562,81.7],[2.483552,48.633546,81.8],[2.483545,48.63356,81.8],[2.483547,48.633555,81.8],[2.483545,48.633571,81.8],[2.483542,48.633555,81.8],[2.48354,48.633561,81.8],[2.483536,48.63355,81.8],[2.483536,48.633555,81.8],[2.483544,48.63355,81.8],[2.483541,48.633559,81.8],[2.483547,48.633555,81.8],[2.483555,48.633561,81.8],[2.483562,48.633555,81.8],[2.483556,48.633559,81.8],[2.483558,48.633547,81.8],[2.483558,48.633561,81.8],[2.483551,48.633559,81.8],[2.483548,48.633569,81.8],[2.483539,48.633568,81.8],[2.483549,48.633571,81.8],[2.483545,48.633562,81.8],[2.483559,48.633568,81.8],[2.483557,48.633555,81.8],[2.483577,48.63356,81.8],[2.483569,48.633561,81.8],[2.483584,48.633549,81.8],[2.483564,48.633555,81.8],[2.483577,48.633564,81.8],[2.483549,48.633563,81.8],[2.483547,48.633544,81.8],[2.483533,48.633547,81.8],[2.483546,48.633549,81.8],[2.483547,48.633556,81.8],[2.483549,48.633545,81.8],[2.483563,48.633554,81.8],[2.483563,48.633569,81.8],[2.483556,48.633563,81.8],[2.483544,48.633571,81.8],[2.483538,48.633562,81.8],[2.483541,48.633569,81.8],[2.483541,48.633557,81.8],[2.48355,48.633564,81.8],[2.483554,48.633558,81.8],[2.483547,48.633559,81.8],[2.483581,48.633569,81.8],[2.483558,48.633565,81.8],[2.483554,48.633572,81.8],[2.483547,48.633567,81.8],[2.483548,48.633573,81.8],[2.483556,48.63356,81.8],[2.483548,48.633566,81.8],[2.483558,48.633552,81.8],[2.483547,48.633568,81.8],[2.483543,48.633557,81.8],[2.483546,48.633569,81.8],[2.483549,48.633563,81.8],[2.483541,48.633571,81.8],[2.483536,48.633563,81.8],[2.48354,48.633567,81.8],[2.483568,48.633552,81.9],[2.483571,48.633563,81.8],[2.48356,48.633563,81.8],[2.483549,48.633542,81.8],[2.483565,48.633567,81.8],[2.483554,48.633571,81.8],[2.483561,48.633577,81.8],[2.483551,48.633571,81.8],[2.483568,48.633574,81.8],[2.483582,48.633565,81.8],[2.483575,48.63357,81.8],[2.48358,48.633566,81.8],[2.483565,48.633572,81.8],[2.483575,48.633569,81.8],[2.483563,48.633567,81.8],[2.483585,48.633565,81.8],[2.483568,48.633563,81.8],[2.483576,48.633572,81.8],[2.483567,48.633566,81.8],[2.483578,48.633561,81.8],[2.483574,48.633552,81.9],[2.483585,48.633557,81.9],[2.483573,48.633558,81.9],[2.483587,48.63354,81.9],[2.483578,48.633552,81.9],[2.483568,48.633546,81.9],[2.483581,48.633547,81.9],[2.483551,48.633562,81.8],[2.483557,48.633555,81.9],[2.48356,48.633562,81.8],[2.48354,48.633564,81.8],[2.483537,48.633546,81.9],[2.483554,48.633558,81.9],[2.483539,48.633566,81.8],[2.483559,48.633564,81.8],[2.483545,48.633569,81.8],[2.483537,48.633561,81.8],[2.483547,48.633569,81.8],[2.483556,48.633557,81.9],[2.483588,48.633577,81.8],[2.483572,48.633577,81.8],[2.483583,48.633576,81.8],[2.483562,48.633574,81.8],[2.483561,48.633579,81.8],[2.483545,48.63357,81.8],[2.483554,48.633564,81.8],[2.483536,48.633564,81.8],[2.483533,48.633575,81.8],[2.483579,48.633561,81.8],[2.483542,48.633579,81.8],[2.48357,48.633582,81.8],[2.483553,48.63357,81.8],[2.483556,48.633559,81.9],[2.483547,48.633561,81.8],[2.483564,48.633552,81.9],[2.483563,48.633538,81.9],[2.48356,48.633548,81.9],[2.483587,48.633541,81.9],[2.483626,48.633504,82],[2.483665,48.63349,82],[2.483686,48.63347,82.1],[2.483862,48.6334,82.1],[2.484,48.633373,82],[2.484012,48.633364,82],[2.484147,48.633342,82],[2.484276,48.633302,81.9],[2.484307,48.633277,81.9],[2.484359,48.633271,81.9],[2.484362,48.633265,81.9],[2.484353,48.633264,81.9],[2.484361,48.633262,81.9],[2.484369,48.633205,82],[2.48441,48.633147,82],[2.484441,48.63312,81.9],[2.4845,48.633096,81.9],[2.484581,48.633078,81.9],[2.484602,48.633066,81.8],[2.484668,48.633066,81.8],[2.484683,48.633059,81.7],[2.484836,48.63309,81.6],[2.484854,48.633084,81.5],[2.484886,48.63305,81.6],[2.48488,48.633054,81.6],[2.484906,48.633032,81.6],[2.484915,48.632974,81.7],[2.484937,48.63294,81.7],[2.484982,48.632901,81.8],[2.485133,48.63284,81.8],[2.485145,48.632822,81.9],[2.485234,48.632808,81.9],[2.485227,48.632809,81.9],[2.485231,48.632799,81.9],[2.485249,48.632806,81.9],[2.485324,48.632785,82.1],[2.48545,48.632732,82.4],[2.48547,48.632716,82.4],[2.485454,48.632731,82.4],[2.485468,48.632724,82.4],[2.485448,48.632706,82.5],[2.48546,48.632673,82.5],[2.485484,48.632657,82.5],[2.48556,48.632659,82.7],[2.485546,48.632688,82.7],[2.48558,48.632703,82.8],[2.485569,48.632707,82.7],[2.485525,48.632686,82.6],[2.485507,48.632623,82.7],[2.485572,48.632568,83],[2.485468,48.632772,82.4],[2.485572,48.632835,82.6],[2.48548,48.632777,82.4],[2.485434,48.632769,82.3],[2.485396,48.63272,82.3],[2.485535,48.632678,82.7],[2.485647,48.632659,82.9],[2.485597,48.632757,82.7],[2.485578,48.632748,82.7],[2.485571,48.632775,82.7],[2.485529,48.632816,82.5],[2.485525,48.632801,82.4],[2.485516,48.632806,82.4],[2.485474,48.632771,82.4],[2.485482,48.632768,82.4],[2.485468,48.632771,82.4],[2.485462,48.632757,82.4],[2.485509,48.632709,82.6],[2.485472,48.632756,82.4],[2.48543,48.63277,82.3],[2.485442,48.632763,82.3],[2.485443,48.632712,82.5],[2.485476,48.632682,82.5],[2.485545,48.632649,82.8],[2.485522,48.63265,82.7],[2.485514,48.632611,82.8],[2.485578,48.632582,83],[2.485638,48.632588,83.1],[2.485648,48.632579,83.1],[2.4856,48.63257,83],[2.485527,48.632518,83],[2.485515,48.632458,83.2],[2.485494,48.632457,83.2],[2.485488,48.632464,83.2],[2.485496,48.632462,83.2],[2.485509,48.632411,83.4],[2.485504,48.632385,83.5],[2.485426,48.632404,83.3],[2.485457,48.632406,83.4],[2.485442,48.632399,83.3],[2.485452,48.632441,83.3],[2.485437,48.632452,83.2],[2.485457,48.632474,83.2],[2.485466,48.632473,83.2],[2.485485,48.632497,83.1],[2.485534,48.632508,83.2],[2.485533,48.632516,83.1],[2.485575,48.632525,83.2],[2.485486,48.632521,83],[2.485473,48.63254,82.9],[2.485346,48.632555,82.7],[2.485259,48.632554,82.5],[2.485157,48.632525,82.5],[2.485131,48.632539,82.4],[2.485053,48.632637,82.4],[2.485032,48.632733,82.3],[2.485029,48.632835,82.3],[2.485051,48.632817,82.3],[2.485078,48.632817,82.3]]}}]}