{"type":"FeatureCollection","features":[{"type":"Feature","properties":{"name":"Pour bien lancer le week-end !","type":"cycling","time":"2025-04-04T17:25:22Z","coordTimes":["2025-04-04T17:25:22Z","2025-04-04T17:25:27Z","2025-04-04T17:25:28Z","2025-04-04T17:25:29Z","2025-04-04T17:25:30Z","2025-04-04T17:25:32Z","2025-04-04T17:25:34Z","2025-04-04T17:26:05Z","2025-04-04T17:26:10Z","2025-04-04T17:26:23Z","2025-04-04T17:26:27Z","2025-04-04T17:26:33Z","2025-04-04T17:26:39Z","2025-04-04T17:26:48Z","2025-04-04T17:26:59Z","2025-04-04T17:27:13Z","2025-04-04T17:27:14Z","2025-04-04T17:27:15Z","2025-04-04T17:27:16Z","2025-04-04T17:27:19Z","2025-04-04T17:27:20Z","2025-04-04T17:27:22Z","2025-04-04T17:27:24Z","2025-04-04T17:27:28Z","2025-04-04T17:27:30Z","2025-04-04T17:27:43Z","2025-04-04T17:27:45Z","2025-04-04T17:27:47Z","2025-04-04T17:27:59Z","2025-04-04T17:28:03Z","2025-04-04T17:28:05Z","2025-04-04T17:28:06Z","2025-04-04T17:28:08Z","2025-04-04T17:28:09Z","2025-04-04T17:28:12Z","2025-04-04T17:28:14Z","2025-04-04T17:28:16Z","2025-04-04T17:28:29Z","2025-04-04T17:28:32Z","2025-04-04T17:28:36Z","2025-04-04T17:28:55Z","2025-04-04T17:28:57Z","2025-04-04T17:28:59Z","2025-04-04T17:29:04Z","2025-04-04T17:29:05Z","2025-04-04T17:29:06Z","2025-04-04T17:29:07Z","2025-04-04T17:29:08Z","2025-04-04T17:29:09Z","2025-04-04T17:29:19Z","2025-04-04T17:29:24Z","2025-04-04T17:29:29Z","2025-04-04T17:29:31Z","2025-04-04T17:29:32Z","2025-04-04T17:29:45Z","2025-04-04T17:29:48Z","2025-04-04T17:29:49Z","2025-04-04T17:30:01Z","2025-04-04T17:30:02Z","2025-04-04T17:30:09Z","2025-04-04T17:30:14Z","2025-04-04T17:30:15Z","2025-04-04T17:30:16Z","2025-04-04T17:30:17Z","2025-04-04T17:30:19Z","2025-04-04T17:30:29Z","2025-04-04T17:30:36Z","2025-04-04T17:30:38Z","2025-04-04T17:30:47Z","2025-04-04T17:30:51Z","2025-04-04T17:30:58Z","2025-04-04T17:31:05Z","2025-04-04T17:31:08Z","2025-04-04T17:31:10Z","2025-04-04T17:31:12Z","2025-04-04T17:31:17Z","2025-04-04T17:31:20Z","2025-04-04T17:31:22Z","2025-04-04T17:31:24Z","2025-04-04T17:31:26Z","2025-04-04T17:31:30Z","2025-04-04T17:31:35Z","2025-04-04T17:31:40Z","2025-04-04T17:31:44Z","2025-04-04T17:31:47Z","2025-04-04T17:31:50Z","2025-04-04T17:31:51Z","2025-04-04T17:32:09Z","2025-04-04T17:32:13Z","2025-04-04T17:32:16Z","2025-04-04T17:32:20Z","2025-04-04T17:32:22Z","2025-04-04T17:32:27Z","2025-04-04T17:32:29Z","2025-04-04T17:32:37Z","2025-04-04T17:32:55Z","2025-04-04T17:32:57Z","2025-04-04T17:33:10Z","2025-04-04T17:33:16Z","2025-04-04T17:33:17Z","2025-04-04T17:33:18Z","2025-04-04T17:33:19Z","2025-04-04T17:33:20Z","2025-04-04T17:33:21Z","2025-04-04T17:33:27Z","2025-04-04T17:33:29Z","2025-04-04T17:33:32Z","2025-04-04T17:33:39Z","2025-04-04T17:33:43Z","2025-04-04T17:33:44Z","2025-04-04T17:33:45Z","2025-04-04T17:33:48Z","2025-04-04T17:33:49Z","2025-04-04T17:33:50Z","2025-04-04T17:33:52Z","2025-04-04T17:34:05Z","2025-04-04T17:34:09Z","2025-04-04T17:34:10Z","2025-04-04T17:34:16Z","2025-04-04T17:34:19Z","2025-04-04T17:34:21Z","2025-04-04T17:34:28Z","2025-04-04T17:34:29Z","2025-04-04T17:34:30Z","2025-04-04T17:34:31Z","2025-04-04T17:34:32Z","2025-04-04T17:34:33Z","2025-04-04T17:34:36Z","2025-04-04T17:34:38Z","2025-04-04T17:34:42Z","2025-04-04T17:34:46Z","2025-04-04T17:34:51Z","2025-04-04T17:34:54Z","2025-04-04T17:34:55Z","2025-04-04T17:34:56Z","2025-04-04T17:34:58Z","2025-04-04T17:35:02Z","2025-04-04T17:35:03Z","2025-04-04T17:35:11Z","2025-04-04T17:35:12Z","2025-04-04T17:35:14Z","2025-04-04T17:35:19Z","2025-04-04T17:35:50Z","2025-04-04T17:35:54Z","2025-04-04T17:35:58Z","2025-04-04T17:36:02Z","2025-04-04T17:36:08Z","2025-04-04T17:36:16Z","2025-04-04T17:36:20Z","2025-04-04T17:36:25Z","2025-04-04T17:36:27Z","2025-04-04T17:36:28Z","2025-04-04T17:36:29Z","2025-04-04T17:36:31Z","2025-04-04T17:36:36Z","2025-04-04T17:37:26Z","2025-04-04T17:37:28Z","2025-04-04T17:37:31Z","2025-04-04T17:37:33Z","2025-04-04T17:37:35Z","2025-04-04T17:37:38Z","2025-04-04T17:37:42Z","2025-04-04T17:37:48Z","2025-04-04T17:37:52Z","2025-04-04T17:37:53Z","2025-04-04T17:38:02Z","2025-04-04T17:38:04Z","2025-04-04T17:38:09Z","2025-04-04T17:38:10Z","2025-04-04T17:38:11Z","2025-04-04T17:38:14Z","2025-04-04T17:38:19Z","2025-04-04T17:38:22Z","2025-04-04T17:38:33Z","2025-04-04T17:38:39Z","2025-04-04T17:38:49Z","2025-04-04T17:38:52Z","2025-04-04T17:38:54Z","2025-04-04T17:38:57Z","2025-04-04T17:39:00Z","2025-04-04T17:39:05Z","2025-04-04T17:39:07Z","2025-04-04T17:39:09Z","2025-04-04T17:39:13Z","2025-04-04T17:39:15Z","2025-04-04T17:39:20Z","2025-04-04T17:39:31Z","2025-04-04T17:39:32Z","2025-04-04T17:39:44Z","2025-04-04T17:39:48Z","2025-04-04T17:39:56Z","2025-04-04T17:40:03Z","2025-04-04T17:40:07Z","2025-04-04T17:40:09Z","2025-04-04T17:40:21Z","2025-04-04T17:40:24Z","2025-04-04T17:40:26Z","2025-04-04T17:40:28Z","2025-04-04T17:40:30Z","2025-04-04T17:40:32Z","2025-04-04T17:40:34Z","2025-04-04T17:40:36Z","2025-04-04T17:40:39Z","2025-04-04T17:40:43Z","2025-04-04T17:40:44Z","2025-04-04T17:40:46Z","2025-04-04T17:40:47Z","2025-04-04T17:41:01Z","2025-04-04T17:41:02Z","2025-04-04T17:41:03Z","2025-04-04T17:41:12Z","2025-04-04T17:41:13Z","2025-04-04T17:41:14Z","2025-04-04T17:41:15Z","2025-04-04T17:41:17Z","2025-04-04T17:41:18Z","2025-04-04T17:41:19Z","2025-04-04T17:41:21Z","2025-04-04T17:41:22Z","2025-04-04T17:41:23Z","2025-04-04T17:41:26Z","2025-04-04T17:41:44Z","2025-04-04T17:41:45Z","2025-04-04T17:41:50Z","2025-04-04T17:41:51Z","2025-04-04T17:41:58Z","2025-04-04T17:42:01Z","2025-04-04T17:42:06Z","2025-04-04T17:42:11Z","2025-04-04T17:42:13Z","2025-04-04T17:42:17Z","2025-04-04T17:42:19Z","2025-04-04T17:42:21Z","2025-04-04T17:42:25Z","2025-04-04T17:42:29Z","2025-04-04T17:42:36Z","2025-04-04T17:42:37Z","2025-04-04T17:42:42Z","2025-04-04T17:42:43Z","2025-04-04T17:42:51Z","2025-04-04T17:42:52Z","2025-04-04T17:42:53Z","2025-04-04T17:42:55Z","2025-04-04T17:42:56Z","2025-04-04T17:42:59Z","2025-04-04T17:43:01Z","2025-04-04T17:43:08Z","2025-04-04T17:43:10Z","2025-04-04T17:43:11Z","2025-04-04T17:43:12Z","2025-04-04T17:43:13Z","2025-04-04T17:43:14Z","2025-04-04T17:43:15Z","2025-04-04T17:43:17Z","2025-04-04T17:43:20Z","2025-04-04T17:43:22Z","2025-04-04T17:43:23Z","2025-04-04T17:43:36Z","2025-04-04T17:43:41Z","2025-04-04T17:43:43Z","2025-04-04T17:43:44Z","2025-04-04T17:43:51Z","2025-04-04T17:43:53Z","2025-04-04T17:44:00Z","2025-04-04T17:44:01Z","2025-04-04T17:44:07Z","2025-04-04T17:44:09Z","2025-04-04T17:44:10Z","2025-04-04T17:44:11Z","2025-04-04T17:44:12Z","2025-04-04T17:44:13Z","2025-04-04T17:44:16Z","2025-04-04T17:44:17Z","2025-04-04T17:44:19Z","2025-04-04T17:44:23Z","2025-04-04T17:44:24Z","2025-04-04T17:44:26Z","2025-04-04T17:44:27Z","2025-04-04T17:44:30Z","2025-04-04T17:44:31Z","2025-04-04T17:44:33Z","2025-04-04T17:44:36Z","2025-04-04T17:44:40Z","2025-04-04T17:44:44Z","2025-04-04T17:44:45Z","2025-04-04T17:44:51Z","2025-04-04T17:44:56Z","2025-04-04T17:44:57Z","2025-04-04T17:44:58Z","2025-04-04T17:44:59Z","2025-04-04T17:45:00Z","2025-04-04T17:45:01Z","2025-04-04T17:45:03Z","2025-04-04T17:45:05Z","2025-04-04T17:45:07Z","2025-04-04T17:45:10Z","2025-04-04T17:45:14Z","2025-04-04T17:45:17Z","2025-04-04T17:45:21Z","2025-04-04T17:45:22Z","2025-04-04T17:45:23Z","2025-04-04T17:45:30Z","2025-04-04T17:45:31Z","2025-04-04T17:45:32Z","2025-04-04T17:45:37Z","2025-04-04T17:45:39Z","2025-04-04T17:45:41Z","2025-04-04T17:45:43Z","2025-04-04T17:45:45Z","2025-04-04T17:45:49Z","2025-04-04T17:45:51Z","2025-04-04T17:45:52Z","2025-04-04T17:45:54Z","2025-04-04T17:45:58Z","2025-04-04T17:46:01Z","2025-04-04T17:46:04Z","2025-04-04T17:46:06Z","2025-04-04T17:46:08Z","2025-04-04T17:46:09Z","2025-04-04T17:46:11Z","2025-04-04T17:46:12Z","2025-04-04T17:46:14Z","2025-04-04T17:46:21Z","2025-04-04T17:46:25Z","2025-04-04T17:46:30Z","2025-04-04T17:46:32Z","2025-04-04T17:46:35Z","2025-04-04T17:46:36Z","2025-04-04T17:46:38Z","2025-04-04T17:46:40Z","2025-04-04T17:46:45Z","2025-04-04T17:46:46Z","2025-04-04T17:46:47Z","2025-04-04T17:46:52Z","2025-04-04T17:47:02Z","2025-04-04T17:47:05Z","2025-04-04T17:47:11Z","2025-04-04T17:47:13Z","2025-04-04T17:47:15Z","2025-04-04T17:47:17Z","2025-04-04T17:47:18Z","2025-04-04T17:47:21Z","2025-04-04T17:47:25Z","2025-04-04T17:47:28Z","2025-04-04T17:47:29Z","2025-04-04T17:47:31Z","2025-04-04T17:47:33Z","2025-04-04T17:47:35Z","2025-04-04T17:47:37Z","2025-04-04T17:47:40Z","2025-04-04T17:47:41Z","2025-04-04T17:47:43Z","2025-04-04T17:47:45Z","2025-04-04T17:47:47Z","2025-04-04T17:47:49Z","2025-04-04T17:47:53Z","2025-04-04T17:47:55Z","2025-04-04T17:47:56Z","2025-04-04T17:47:58Z","2025-04-04T17:48:00Z","2025-04-04T17:48:03Z","2025-04-04T17:48:07Z","2025-04-04T17:48:08Z","2025-04-04T17:48:14Z","2025-04-04T17:48:15Z","2025-04-04T17:48:18Z","2025-04-04T17:48:21Z","2025-04-04T17:48:22Z","2025-04-04T17:48:24Z","2025-04-04T17:48:26Z","2025-04-04T17:48:28Z","2025-04-04T17:48:30Z","2025-04-04T17:48:31Z","2025-04-04T17:48:32Z","2025-04-04T17:48:35Z","2025-04-04T17:48:38Z","2025-04-04T17:48:40Z","2025-04-04T17:48:44Z","2025-04-04T17:48:45Z","2025-04-04T17:48:46Z","2025-04-04T17:49:40Z","2025-04-04T17:49:45Z","2025-04-04T17:49:54Z","2025-04-04T17:49:59Z","2025-04-04T17:50:07Z","2025-04-04T17:50:09Z","2025-04-04T17:50:15Z","2025-04-04T17:50:16Z","2025-04-04T17:50:19Z","2025-04-04T17:50:20Z","2025-04-04T17:50:25Z","2025-04-04T17:50:26Z","2025-04-04T17:50:28Z","2025-04-04T17:50:32Z","2025-04-04T17:50:37Z","2025-04-04T17:50:38Z","2025-04-04T17:50:40Z","2025-04-04T17:50:41Z","2025-04-04T17:50:47Z","2025-04-04T17:50:49Z","2025-04-04T17:50:51Z","2025-04-04T17:50:54Z","2025-04-04T17:50:55Z","2025-04-04T17:50:58Z","2025-04-04T17:50:59Z","2025-04-04T17:51:01Z","2025-04-04T17:51:03Z","2025-04-04T17:51:08Z","2025-04-04T17:51:10Z","2025-04-04T17:51:11Z","2025-04-04T17:51:16Z","2025-04-04T17:51:18Z","2025-04-04T17:51:20Z","2025-04-04T17:51:24Z","2025-04-04T17:51:28Z","2025-04-04T17:51:30Z","2025-04-04T17:51:33Z","2025-04-04T17:51:37Z","2025-04-04T17:51:39Z","2025-04-04T17:51:42Z","2025-04-04T17:51:45Z","2025-04-04T17:51:47Z","2025-04-04T17:51:49Z","2025-04-04T17:51:50Z","2025-04-04T17:51:51Z","2025-04-04T17:51:54Z","2025-04-04T17:51:59Z","2025-04-04T17:52:02Z","2025-04-04T17:52:08Z","2025-04-04T17:52:10Z","2025-04-04T17:52:11Z","2025-04-04T17:52:12Z","2025-04-04T17:52:13Z","2025-04-04T17:52:22Z","2025-04-04T17:52:23Z","2025-04-04T17:52:28Z","2025-04-04T17:52:32Z","2025-04-04T17:52:35Z","2025-04-04T17:52:37Z","2025-04-04T17:52:43Z","2025-04-04T17:52:44Z","2025-04-04T17:52:45Z","2025-04-04T17:52:47Z","2025-04-04T17:52:51Z","2025-04-04T17:52:52Z","2025-04-04T17:52:53Z","2025-04-04T17:52:54Z","2025-04-04T17:52:55Z","2025-04-04T17:52:58Z","2025-04-04T17:53:02Z","2025-04-04T17:53:04Z","2025-04-04T17:53:11Z","2025-04-04T17:53:19Z","2025-04-04T17:53:22Z","2025-04-04T17:53:24Z","2025-04-04T17:53:35Z","2025-04-04T17:53:42Z","2025-04-04T17:53:43Z","2025-04-04T17:53:44Z","2025-04-04T17:53:47Z","2025-04-04T17:53:49Z","2025-04-04T17:53:50Z","2025-04-04T17:53:51Z","2025-04-04T17:53:52Z","2025-04-04T17:53:56Z","2025-04-04T17:53:57Z","2025-04-04T17:53:59Z","2025-04-04T17:54:02Z","2025-04-04T17:54:15Z","2025-04-04T17:54:25Z","2025-04-04T17:54:26Z","2025-04-04T17:54:29Z","2025-04-04T17:54:31Z","2025-04-04T17:54:41Z","2025-04-04T17:54:42Z","2025-04-04T17:54:44Z","2025-04-04T17:54:47Z","2025-04-04T17:54:52Z","2025-04-04T17:54:55Z","2025-04-04T17:54:56Z","2025-04-04T17:55:01Z","2025-04-04T17:55:04Z","2025-04-04T17:55:07Z","2025-04-04T17:55:08Z","2025-04-04T17:55:09Z","2025-04-04T17:55:11Z","2025-04-04T17:55:17Z","2025-04-04T17:55:21Z","2025-04-04T17:55:24Z","2025-04-04T17:55:26Z","2025-04-04T17:55:29Z","2025-04-04T17:55:30Z","2025-04-04T17:55:34Z","2025-04-04T17:55:37Z","2025-04-04T17:55:38Z","2025-04-04T17:55:40Z","2025-04-04T17:55:42Z","2025-04-04T17:55:44Z","2025-04-04T17:55:46Z","2025-04-04T17:55:47Z","2025-04-04T17:55:48Z","2025-04-04T17:55:51Z","2025-04-04T17:55:54Z","2025-04-04T17:55:58Z","2025-04-04T17:56:00Z","2025-04-04T17:56:04Z","2025-04-04T17:56:06Z","2025-04-04T17:56:09Z","2025-04-04T17:56:13Z","2025-04-04T17:56:14Z","2025-04-04T17:56:16Z","2025-04-04T17:56:17Z","2025-04-04T17:56:19Z","2025-04-04T17:56:20Z","2025-04-04T17:56:21Z","2025-04-04T17:56:22Z","2025-04-04T17:56:23Z","2025-04-04T17:56:24Z","2025-04-04T17:56:28Z","2025-04-04T17:56:30Z","2025-04-04T17:56:32Z","2025-04-04T17:56:33Z","2025-04-04T17:56:35Z","2025-04-04T17:56:38Z","2025-04-04T17:56:39Z","2025-04-04T17:56:42Z","2025-04-04T17:56:43Z","2025-04-04T17:56:45Z","2025-04-04T17:56:47Z","2025-04-04T17:56:48Z","2025-04-04T17:56:49Z","2025-04-04T17:56:50Z","2025-04-04T17:56:51Z","2025-04-04T17:56:52Z","2025-04-04T17:56:53Z","2025-04-04T17:56:54Z","2025-04-04T17:56:56Z","2025-04-04T17:56:58Z","2025-04-04T17:56:59Z","2025-04-04T17:57:00Z","2025-04-04T17:57:03Z","2025-04-04T17:57:07Z","2025-04-04T17:57:09Z","2025-04-04T17:57:13Z","2025-04-04T17:57:16Z","2025-04-04T17:57:18Z","2025-04-04T17:57:20Z","2025-04-04T17:57:22Z","2025-04-04T17:57:25Z","2025-04-04T17:57:26Z","2025-04-04T17:57:28Z","2025-04-04T17:57:29Z","2025-04-04T17:57:32Z","2025-04-04T17:57:35Z","2025-04-04T17:57:37Z","2025-04-04T17:57:43Z","2025-04-04T17:57:45Z","2025-04-04T17:57:47Z","2025-04-04T17:57:49Z","2025-04-04T17:57:53Z","2025-04-04T17:57:55Z","2025-04-04T17:57:56Z","2025-04-04T17:57:59Z","2025-04-04T17:58:01Z","2025-04-04T17:58:02Z","2025-04-04T17:58:03Z","2025-04-04T17:58:04Z","2025-04-04T17:58:05Z","2025-04-04T17:58:08Z","2025-04-04T17:58:10Z","2025-04-04T17:58:13Z","2025-04-04T17:58:17Z","2025-04-04T17:58:18Z","2025-04-04T17:58:20Z","2025-04-04T17:58:21Z","2025-04-04T17:58:27Z","2025-04-04T17:58:28Z","2025-04-04T17:58:30Z","2025-04-04T17:58:31Z","2025-04-04T17:58:32Z","2025-04-04T17:58:33Z","2025-04-04T17:58:35Z","2025-04-04T17:58:38Z","2025-04-04T17:58:42Z","2025-04-04T17:58:44Z","2025-04-04T17:58:47Z","2025-04-04T17:58:53Z","2025-04-04T17:58:54Z","2025-04-04T17:58:55Z","2025-04-04T17:59:00Z","2025-04-04T17:59:05Z","2025-04-04T17:59:10Z","2025-04-04T17:59:11Z","2025-04-04T17:59:12Z","2025-04-04T17:59:13Z","2025-04-04T17:59:15Z","2025-04-04T17:59:18Z","2025-04-04T17:59:28Z","2025-04-04T17:59:30Z","2025-04-04T17:59:33Z","2025-04-04T17:59:35Z","2025-04-04T17:59:36Z","2025-04-04T17:59:41Z","2025-04-04T17:59:44Z","2025-04-04T17:59:50Z","2025-04-04T17:59:54Z","2025-04-04T17:59:58Z","2025-04-04T17:59:59Z","2025-04-04T18:00:01Z","2025-04-04T18:00:05Z","2025-04-04T18:00:06Z","2025-04-04T18:00:09Z","2025-04-04T18:00:10Z","2025-04-04T18:00:12Z","2025-04-04T18:00:15Z","2025-04-04T18:00:17Z","2025-04-04T18:00:21Z","2025-04-04T18:00:23Z","2025-04-04T18:00:55Z","2025-04-04T18:00:58Z","2025-04-04T18:01:04Z","2025-04-04T18:01:08Z","2025-04-04T18:01:10Z","2025-04-04T18:01:12Z","2025-04-04T18:01:13Z","2025-04-04T18:01:14Z","2025-04-04T18:01:15Z","2025-04-04T18:01:22Z","2025-04-04T18:01:25Z","2025-04-04T18:01:27Z","2025-04-04T18:01:28Z","2025-04-04T18:01:29Z","2025-04-04T18:01:31Z","2025-04-04T18:01:34Z","2025-04-04T18:01:35Z","2025-04-04T18:01:39Z","2025-04-04T18:01:50Z","2025-04-04T18:02:02Z","2025-04-04T18:02:08Z","2025-04-04T18:02:14Z","2025-04-04T18:02:18Z","2025-04-04T18:02:22Z","2025-04-04T18:02:26Z","2025-04-04T18:02:28Z","2025-04-04T18:02:31Z","2025-04-04T18:02:33Z","2025-04-04T18:02:35Z","2025-04-04T18:02:39Z","2025-04-04T18:02:41Z","2025-04-04T18:02:42Z","2025-04-04T18:02:46Z","2025-04-04T18:02:48Z","2025-04-04T18:02:49Z","2025-04-04T18:02:50Z","2025-04-04T18:02:51Z","2025-04-04T18:02:52Z","2025-04-04T18:02:58Z","2025-04-04T18:02:59Z","2025-04-04T18:03:00Z","2025-04-04T18:03:02Z","2025-04-04T18:03:03Z","2025-04-04T18:03:05Z","2025-04-04T18:03:08Z","2025-04-04T18:03:09Z","2025-04-04T18:03:10Z","2025-04-04T18:03:15Z","2025-04-04T18:03:18Z","2025-04-04T18:03:20Z","2025-04-04T18:03:23Z","2025-04-04T18:03:27Z","2025-04-04T18:03:29Z","2025-04-04T18:03:32Z","2025-04-04T18:03:33Z","2025-04-04T18:03:34Z","2025-04-04T18:03:36Z","2025-04-04T18:03:37Z","2025-04-04T18:03:39Z","2025-04-04T18:03:41Z","2025-04-04T18:03:43Z","2025-04-04T18:03:46Z","2025-04-04T18:03:48Z","2025-04-04T18:03:50Z","2025-04-04T18:03:54Z","2025-04-04T18:03:56Z","2025-04-04T18:03:59Z","2025-04-04T18:04:01Z","2025-04-04T18:04:05Z","2025-04-04T18:04:06Z","2025-04-04T18:04:09Z","2025-04-04T18:04:16Z","2025-04-04T18:04:18Z","2025-04-04T18:04:20Z","2025-04-04T18:04:21Z","2025-04-04T18:04:22Z","2025-04-04T18:04:26Z","2025-04-04T18:04:27Z","2025-04-04T18:04:28Z","2025-04-04T18:04:30Z","2025-04-04T18:04:31Z","2025-04-04T18:04:32Z","2025-04-04T18:04:34Z","2025-04-04T18:04:35Z","2025-04-04T18:04:37Z","2025-04-04T18:04:39Z","2025-04-04T18:04:40Z","2025-04-04T18:04:41Z","2025-04-04T18:04:42Z","2025-04-04T18:04:43Z","2025-04-04T18:04:44Z","2025-04-04T18:04:45Z","2025-04-04T18:04:49Z","2025-04-04T18:04:50Z","2025-04-04T18:04:53Z","2025-04-04T18:04:56Z","2025-04-04T18:04:57Z","2025-04-04T18:04:59Z","2025-04-04T18:05:00Z","2025-04-04T18:05:02Z","2025-04-04T18:05:07Z","2025-04-04T18:05:09Z","2025-04-04T18:05:10Z","2025-04-04T18:05:12Z","2025-04-04T18:05:14Z","2025-04-04T18:05:16Z","2025-04-04T18:05:17Z","2025-04-04T18:05:19Z","2025-04-04T18:05:20Z","2025-04-04T18:05:22Z","2025-04-04T18:05:23Z","2025-04-04T18:05:27Z","2025-04-04T18:05:28Z","2025-04-04T18:05:30Z","2025-04-04T18:05:32Z","2025-04-04T18:05:33Z","2025-04-04T18:05:35Z","2025-04-04T18:05:37Z","2025-04-04T18:05:42Z","2025-04-04T18:05:47Z","2025-04-04T18:05:48Z","2025-04-04T18:05:50Z","2025-04-04T18:05:52Z","2025-04-04T18:05:54Z","2025-04-04T18:05:55Z","2025-04-04T18:05:58Z","2025-04-04T18:06:00Z","2025-04-04T18:06:01Z","2025-04-04T18:06:02Z","2025-04-04T18:06:04Z","2025-04-04T18:06:05Z","2025-04-04T18:06:06Z","2025-04-04T18:06:07Z","2025-04-04T18:06:08Z","2025-04-04T18:06:11Z","2025-04-04T18:06:12Z","2025-04-04T18:06:15Z","2025-04-04T18:06:20Z","2025-04-04T18:06:21Z","2025-04-04T18:06:23Z","2025-04-04T18:06:25Z","2025-04-04T18:06:26Z","2025-04-04T18:06:28Z","2025-04-04T18:06:29Z","2025-04-04T18:06:36Z","2025-04-04T18:06:38Z","2025-04-04T18:06:42Z","2025-04-04T18:06:45Z","2025-04-04T18:06:52Z","2025-04-04T18:06:53Z","2025-04-04T18:06:54Z","2025-04-04T18:06:55Z","2025-04-04T18:06:56Z","2025-04-04T18:06:57Z","2025-04-04T18:06:59Z","2025-04-04T18:07:08Z","2025-04-04T18:07:09Z","2025-04-04T18:07:11Z","2025-04-04T18:07:15Z","2025-04-04T18:07:19Z","2025-04-04T18:07:31Z","2025-04-04T18:07:33Z","2025-04-04T18:07:38Z","2025-04-04T18:07:46Z","2025-04-04T18:07:53Z","2025-04-04T18:07:54Z","2025-04-04T18:07:55Z","2025-04-04T18:07:58Z","2025-04-04T18:08:00Z","2025-04-04T18:08:02Z","2025-04-04T18:08:05Z","2025-04-04T18:08:06Z","2025-04-04T18:08:10Z","2025-04-04T18:08:13Z","2025-04-04T18:08:15Z","2025-04-04T18:08:17Z","2025-04-04T18:08:19Z","2025-04-04T18:08:22Z","2025-04-04T18:08:24Z","2025-04-04T18:08:25Z","2025-04-04T18:08:27Z","2025-04-04T18:08:29Z","2025-04-04T18:08:32Z","2025-04-04T18:08:34Z","2025-04-04T18:08:36Z","2025-04-04T18:08:37Z","2025-04-04T18:08:38Z","2025-04-04T18:08:39Z","2025-04-04T18:08:40Z","2025-04-04T18:08:43Z","2025-04-04T18:08:47Z","2025-04-04T18:08:50Z","2025-04-04T18:08:54Z","2025-04-04T18:09:02Z","2025-04-04T18:09:05Z","2025-04-04T18:09:07Z","2025-04-04T18:09:13Z","2025-04-04T18:09:20Z","2025-04-04T18:09:23Z","2025-04-04T18:09:24Z","2025-04-04T18:09:25Z","2025-04-04T18:09:28Z","2025-04-04T18:09:36Z","2025-04-04T18:09:39Z","2025-04-04T18:09:41Z","2025-04-04T18:09:47Z","2025-04-04T18:09:48Z","2025-04-04T18:09:54Z","2025-04-04T18:09:57Z","2025-04-04T18:10:00Z","2025-04-04T18:10:05Z","2025-04-04T18:10:07Z","2025-04-04T18:10:09Z","2025-04-04T18:10:11Z","2025-04-04T18:10:18Z","2025-04-04T18:10:20Z","2025-04-04T18:10:25Z","2025-04-04T18:10:28Z","2025-04-04T18:10:29Z","2025-04-04T18:10:30Z","2025-04-04T18:10:36Z","2025-04-04T18:10:41Z","2025-04-04T18:11:17Z","2025-04-04T18:11:28Z","2025-04-04T18:11:33Z","2025-04-04T18:11:36Z","2025-04-04T18:11:42Z","2025-04-04T18:11:49Z","2025-04-04T18:11:50Z","2025-04-04T18:11:55Z","2025-04-04T18:12:01Z","2025-04-04T18:12:03Z","2025-04-04T18:12:06Z","2025-04-04T18:12:08Z","2025-04-04T18:12:11Z","2025-04-04T18:12:12Z","2025-04-04T18:12:20Z","2025-04-04T18:12:30Z","2025-04-04T18:12:31Z","2025-04-04T18:12:33Z","2025-04-04T18:12:37Z","2025-04-04T18:12:39Z","2025-04-04T18:12:40Z","2025-04-04T18:12:44Z","2025-04-04T18:12:45Z","2025-04-04T18:12:49Z","2025-04-04T18:13:00Z","2025-04-04T18:13:01Z","2025-04-04T18:13:11Z","2025-04-04T18:13:14Z","2025-04-04T18:13:20Z","2025-04-04T18:13:34Z","2025-04-04T18:13:43Z","2025-04-04T18:13:47Z","2025-04-04T18:13:53Z","2025-04-04T18:13:55Z","2025-04-04T18:13:56Z","2025-04-04T18:13:58Z","2025-04-04T18:14:01Z","2025-04-04T18:14:05Z","2025-04-04T18:14:08Z","2025-04-04T18:14:11Z","2025-04-04T18:14:19Z","2025-04-04T18:14:20Z","2025-04-04T18:14:21Z","2025-04-04T18:14:23Z","2025-04-04T18:14:25Z","2025-04-04T18:14:32Z","2025-04-04T18:14:35Z","2025-04-04T18:14:37Z","2025-04-04T18:14:39Z","2025-04-04T18:14:40Z","2025-04-04T18:14:41Z","2025-04-04T18:14:43Z","2025-04-04T18:14:44Z","2025-04-04T18:14:49Z","2025-04-04T18:14:50Z","2025-04-04T18:14:53Z","2025-04-04T18:14:54Z","2025-04-04T18:14:56Z","2025-04-04T18:14:57Z","2025-04-04T18:15:00Z","2025-04-04T18:15:02Z","2025-04-04T18:15:04Z","2025-04-04T18:15:06Z","2025-04-04T18:15:09Z","2025-04-04T18:15:14Z","2025-04-04T18:15:15Z","2025-04-04T18:15:17Z","2025-04-04T18:15:19Z","2025-04-04T18:15:21Z","2025-04-04T18:15:22Z","2025-04-04T18:15:23Z","2025-04-04T18:15:26Z","2025-04-04T18:15:29Z","2025-04-04T18:15:32Z","2025-04-04T18:15:33Z","2025-04-04T18:15:37Z","2025-04-04T18:15:41Z","2025-04-04T18:15:42Z","2025-04-04T18:15:47Z","2025-04-04T18:15:51Z","2025-04-04T18:15:52Z","2025-04-04T18:15:53Z","2025-04-04T18:15:55Z","2025-04-04T18:15:56Z","2025-04-04T18:15:57Z","2025-04-04T18:15:59Z","2025-04-04T18:16:01Z","2025-04-04T18:16:02Z","2025-04-04T18:16:05Z","2025-04-04T18:16:06Z","2025-04-04T18:16:09Z","2025-04-04T18:16:11Z","2025-04-04T18:16:20Z","2025-04-04T18:16:40Z","2025-04-04T18:16:44Z","2025-04-04T18:16:53Z","2025-04-04T18:16:54Z","2025-04-04T18:16:56Z","2025-04-04T18:17:04Z","2025-04-04T18:17:05Z","2025-04-04T18:17:06Z","2025-04-04T18:17:07Z","2025-04-04T18:17:09Z","2025-04-04T18:17:10Z","2025-04-04T18:17:13Z","2025-04-04T18:17:15Z","2025-04-04T18:17:19Z","2025-04-04T18:17:20Z","2025-04-04T18:17:21Z","2025-04-04T18:17:23Z","2025-04-04T18:17:24Z","2025-04-04T18:17:25Z","2025-04-04T18:17:29Z","2025-04-04T18:17:30Z","2025-04-04T18:17:32Z","2025-04-04T18:17:36Z","2025-04-04T18:17:38Z","2025-04-04T18:17:40Z","2025-04-04T18:17:42Z","2025-04-04T18:17:44Z","2025-04-04T18:17:48Z","2025-04-04T18:17:50Z","2025-04-04T18:17:53Z","2025-04-04T18:17:54Z","2025-04-04T18:17:59Z","2025-04-04T18:18:12Z","2025-04-04T18:18:14Z","2025-04-04T18:18:26Z","2025-04-04T18:18:28Z","2025-04-04T18:18:34Z","2025-04-04T18:18:35Z","2025-04-04T18:18:40Z","2025-04-04T18:18:43Z","2025-04-04T18:18:51Z","2025-04-04T18:18:53Z","2025-04-04T18:18:54Z","2025-04-04T18:18:55Z","2025-04-04T18:18:56Z","2025-04-04T18:19:11Z","2025-04-04T18:19:13Z","2025-04-04T18:19:20Z","2025-04-04T18:19:22Z","2025-04-04T18:19:42Z","2025-04-04T18:19:45Z","2025-04-04T18:19:54Z","2025-04-04T18:20:00Z","2025-04-04T18:20:01Z","2025-04-04T18:20:11Z","2025-04-04T18:20:13Z","2025-04-04T18:20:15Z","2025-04-04T18:20:19Z","2025-04-04T18:20:27Z","2025-04-04T18:20:30Z","2025-04-04T18:20:31Z","2025-04-04T18:20:34Z","2025-04-04T18:20:35Z","2025-04-04T18:20:36Z","2025-04-04T18:20:37Z","2025-04-04T18:20:38Z","2025-04-04T18:20:39Z","2025-04-04T18:20:41Z","2025-04-04T18:20:42Z","2025-04-04T18:20:43Z","2025-04-04T18:20:44Z","2025-04-04T18:20:46Z","2025-04-04T18:20:49Z","2025-04-04T18:20:53Z","2025-04-04T18:21:08Z","2025-04-04T18:21:15Z","2025-04-04T18:21:19Z","2025-04-04T18:21:20Z","2025-04-04T18:21:22Z","2025-04-04T18:21:25Z","2025-04-04T18:21:27Z","2025-04-04T18:21:29Z","2025-04-04T18:21:32Z","2025-04-04T18:21:39Z","2025-04-04T18:21:44Z","2025-04-04T18:21:51Z","2025-04-04T18:21:53Z","2025-04-04T18:22:02Z","2025-04-04T18:22:06Z","2025-04-04T18:22:07Z","2025-04-04T18:22:08Z","2025-04-04T18:22:09Z","2025-04-04T18:22:11Z","2025-04-04T18:22:19Z","2025-04-04T18:22:22Z","2025-04-04T18:22:33Z","2025-04-04T18:22:39Z","2025-04-04T18:22:49Z","2025-04-04T18:22:54Z","2025-04-04T18:22:59Z","2025-04-04T18:23:10Z","2025-04-04T18:23:23Z","2025-04-04T18:23:26Z","2025-04-04T18:23:27Z","2025-04-04T18:23:29Z","2025-04-04T18:23:30Z","2025-04-04T18:23:31Z","2025-04-04T18:23:39Z","2025-04-04T18:23:41Z","2025-04-04T18:23:42Z","2025-04-04T18:23:43Z","2025-04-04T18:23:44Z","2025-04-04T18:23:45Z","2025-04-04T18:23:47Z","2025-04-04T18:23:55Z","2025-04-04T18:24:00Z","2025-04-04T18:24:01Z","2025-04-04T18:24:02Z","2025-04-04T18:24:03Z","2025-04-04T18:24:06Z","2025-04-04T18:24:13Z","2025-04-04T18:24:15Z","2025-04-04T18:24:16Z","2025-04-04T18:24:17Z","2025-04-04T18:24:22Z","2025-04-04T18:24:24Z","2025-04-04T18:24:27Z","2025-04-04T18:24:30Z","2025-04-04T18:24:32Z","2025-04-04T18:24:34Z","2025-04-04T18:24:36Z","2025-04-04T18:24:37Z","2025-04-04T18:24:41Z","2025-04-04T18:24:46Z","2025-04-04T18:24:49Z","2025-04-04T18:24:51Z","2025-04-04T18:24:54Z","2025-04-04T18:24:56Z","2025-04-04T18:25:00Z","2025-04-04T18:25:04Z","2025-04-04T18:25:09Z","2025-04-04T18:25:11Z","2025-04-04T18:25:13Z","2025-04-04T18:25:21Z","2025-04-04T18:25:23Z","2025-04-04T18:25:25Z","2025-04-04T18:25:28Z","2025-04-04T18:25:29Z","2025-04-04T18:25:31Z","2025-04-04T18:25:33Z","2025-04-04T18:25:34Z","2025-04-04T18:25:35Z","2025-04-04T18:25:36Z","2025-04-04T18:25:37Z","2025-04-04T18:25:39Z","2025-04-04T18:25:44Z","2025-04-04T18:25:45Z","2025-04-04T18:25:46Z","2025-04-04T18:25:50Z","2025-04-04T18:25:51Z","2025-04-04T18:25:52Z","2025-04-04T18:25:54Z","2025-04-04T18:25:56Z","2025-04-04T18:26:05Z","2025-04-04T18:26:15Z","2025-04-04T18:26:18Z","2025-04-04T18:26:19Z","2025-04-04T18:26:21Z","2025-04-04T18:26:23Z","2025-04-04T18:26:24Z","2025-04-04T18:26:27Z","2025-04-04T18:26:28Z","2025-04-04T18:26:30Z","2025-04-04T18:26:39Z","2025-04-04T18:26:46Z","2025-04-04T18:26:49Z","2025-04-04T18:26:50Z","2025-04-04T18:26:51Z","2025-04-04T18:26:52Z","2025-04-04T18:26:53Z","2025-04-04T18:26:54Z","2025-04-04T18:26:56Z","2025-04-04T18:26:58Z","2025-04-04T18:26:59Z","2025-04-04T18:27:00Z","2025-04-04T18:27:01Z","2025-04-04T18:27:02Z","2025-04-04T18:27:03Z","2025-04-04T18:27:04Z","2025-04-04T18:27:06Z","2025-04-04T18:27:07Z","2025-04-04T18:27:08Z","2025-04-04T18:27:09Z","2025-04-04T18:27:10Z","2025-04-04T18:27:13Z","2025-04-04T18:27:17Z","2025-04-04T18:27:18Z","2025-04-04T18:27:23Z","2025-04-04T18:27:28Z","2025-04-04T18:27:30Z","2025-04-04T18:27:33Z","2025-04-04T18:27:34Z","2025-04-04T18:27:36Z","2025-04-04T18:27:37Z","2025-04-04T18:27:41Z","2025-04-04T18:27:46Z","2025-04-04T18:27:50Z","2025-04-04T18:27:51Z","2025-04-04T18:27:52Z","2025-04-04T18:27:53Z","2025-04-04T18:27:54Z","2025-04-04T18:27:55Z","2025-04-04T18:27:56Z","2025-04-04T18:27:58Z","2025-04-04T18:27:59Z","2025-04-04T18:28:00Z","2025-04-04T18:28:02Z","2025-04-04T18:28:04Z","2025-04-04T18:28:07Z","2025-04-04T18:28:18Z","2025-04-04T18:28:20Z","2025-04-04T18:28:23Z","2025-04-04T18:28:27Z","2025-04-04T18:28:33Z","2025-04-04T18:28:47Z","2025-04-04T18:28:52Z","2025-04-04T18:29:02Z","2025-04-04T18:29:05Z","2025-04-04T18:29:07Z","2025-04-04T18:29:12Z","2025-04-04T18:29:21Z","2025-04-04T18:29:23Z","2025-04-04T18:29:25Z","2025-04-04T18:29:29Z","2025-04-04T18:29:40Z","2025-04-04T18:30:02Z","2025-04-04T18:30:04Z","2025-04-04T18:30:05Z","2025-04-04T18:30:08Z","2025-04-04T18:30:11Z","2025-04-04T18:30:14Z","2025-04-04T18:30:15Z","2025-04-04T18:30:16Z","2025-04-04T18:30:17Z","2025-04-04T18:30:18Z","2025-04-04T18:30:20Z","2025-04-04T18:30:22Z","2025-04-04T18:30:23Z","2025-04-04T18:30:25Z","2025-04-04T18:30:27Z","2025-04-04T18:30:28Z","2025-04-04T18:30:29Z","2025-04-04T18:30:32Z","2025-04-04T18:30:34Z","2025-04-04T18:30:38Z","2025-04-04T18:30:43Z","2025-04-04T18:30:46Z","2025-04-04T18:30:48Z","2025-04-04T18:30:51Z","2025-04-04T18:30:53Z","2025-04-04T18:30:55Z","2025-04-04T18:30:58Z","2025-04-04T18:30:59Z","2025-04-04T18:31:00Z","2025-04-04T18:31:04Z","2025-04-04T18:31:06Z","2025-04-04T18:31:08Z","2025-04-04T18:31:10Z","2025-04-04T18:31:13Z","2025-04-04T18:31:14Z","2025-04-04T18:31:17Z","2025-04-04T18:31:25Z","2025-04-04T18:31:42Z","2025-04-04T18:31:47Z","2025-04-04T18:31:54Z","2025-04-04T18:32:06Z","2025-04-04T18:32:09Z","2025-04-04T18:32:16Z","2025-04-04T18:32:17Z","2025-04-04T18:32:18Z","2025-04-04T18:32:19Z","2025-04-04T18:32:22Z","2025-04-04T18:32:28Z","2025-04-04T18:32:33Z","2025-04-04T18:32:40Z","2025-04-04T18:32:46Z","2025-04-04T18:32:49Z","2025-04-04T18:32:51Z","2025-04-04T18:33:00Z","2025-04-04T18:33:02Z","2025-04-04T18:33:04Z","2025-04-04T18:33:11Z","2025-04-04T18:33:13Z","2025-04-04T18:33:16Z"],"heartRates":[108,105,105,105,108,108,108,115,115,116,116,116,116,122,122,105,105,105,105,110,110,110,118,121,121,117,117,110,110,112,112,116,116,116,116,119,119,122,128,128,130,130,130,130,130,130,130,130,130,130,128,128,129,129,126,126,126,126,126,126,129,130,130,130,130,130,130,130,131,131,131,131,131,131,131,131,131,131,131,131,131,131,131,131,131,131,130,128,128,128,128,129,129,129,130,129,129,130,130,130,130,130,130,130,130,130,130,130,130,130,130,130,130,130,130,130,131,131,130,127,127,127,127,127,127,127,129,129,129,129,130,131,131,131,131,131,131,131,134,134,132,129,129,130,130,130,126,126,124,125,125,125,125,126,125,125,109,109,109,109,109,111,111,112,112,114,115,117,117,117,117,126,127,124,126,125,136,136,135,135,136,136,137,137,137,139,142,142,140,140,149,149,150,150,152,151,151,150,150,149,149,149,149,153,155,155,155,153,153,154,152,152,152,152,154,154,154,154,150,150,150,149,149,148,148,149,147,146,144,144,149,149,148,148,150,150,150,150,150,148,148,148,148,148,148,149,148,146,146,146,146,146,140,139,139,139,137,137,139,139,143,144,143,143,143,144,144,144,144,144,144,144,144,144,145,145,145,145,145,145,145,145,145,142,142,140,138,138,138,138,138,137,137,137,135,136,136,135,133,132,132,132,125,124,124,124,124,129,129,131,131,135,135,138,138,138,138,138,138,139,139,139,140,140,140,138,137,137,137,135,135,135,135,136,131,131,128,128,132,132,132,135,135,135,135,135,134,134,134,134,135,135,135,136,136,136,136,139,139,139,139,139,139,138,138,138,137,137,137,138,138,139,139,139,138,137,137,137,137,138,138,128,122,121,120,120,120,118,118,118,120,120,120,120,122,122,125,125,127,127,127,128,128,128,128,128,129,128,128,128,132,132,134,134,136,136,136,139,139,139,141,141,142,142,142,142,142,143,144,144,144,142,142,141,141,141,141,141,141,141,142,142,142,143,143,143,141,141,142,142,142,141,143,143,144,146,145,145,145,145,145,145,145,138,137,137,137,131,131,127,127,127,127,128,126,126,126,125,124,124,122,122,122,122,122,118,118,120,120,120,120,120,122,122,122,124,124,124,124,126,126,126,128,128,130,130,130,129,129,129,129,129,129,129,129,129,129,129,129,129,131,131,131,131,131,132,132,130,130,129,129,129,129,129,129,129,129,125,125,125,125,126,127,127,124,124,124,124,124,124,124,124,124,124,125,127,127,128,129,129,129,129,129,129,129,129,129,129,129,131,131,129,129,128,128,127,127,127,127,127,127,130,130,129,128,128,124,124,124,122,122,119,119,119,119,119,119,121,126,126,126,128,128,128,131,132,132,132,132,132,132,135,135,135,135,135,129,129,129,127,127,127,127,127,127,128,128,126,124,124,122,122,122,122,122,122,125,124,130,130,130,128,129,129,132,132,134,134,134,133,132,130,130,130,130,130,122,122,122,122,122,122,117,117,117,126,129,129,127,127,127,122,122,122,122,122,122,122,122,122,122,122,122,122,122,122,119,119,118,117,119,119,121,121,121,118,118,118,118,119,119,119,121,121,121,120,120,121,121,121,124,124,124,122,122,122,122,122,125,127,127,127,128,128,128,128,127,127,127,129,129,129,127,126,126,126,125,122,122,122,122,122,122,121,121,121,121,120,120,120,120,120,118,118,117,118,118,118,118,118,118,118,118,122,125,125,125,125,125,125,125,122,122,120,120,120,117,114,122,119,119,116,117,117,117,117,117,115,115,113,113,113,121,121,125,125,125,125,134,137,137,138,138,138,138,138,138,149,149,149,149,144,143,143,143,145,146,146,146,146,147,147,147,147,147,147,147,147,133,133,133,133,137,137,137,141,141,141,150,159,145,142,138,137,136,136,136,135,136,137,137,137,135,135,136,135,138,138,140,140,140,143,143,143,144,144,148,148,147,143,141,139,138,137,137,137,137,137,137,137,138,138,137,137,137,135,135,134,132,132,132,132,132,131,131,131,131,131,132,132,132,132,132,134,134,134,136,136,137,137,138,138,138,136,136,136,136,135,134,134,132,132,131,131,131,131,131,131,132,132,132,132,131,131,128,129,129,129,129,129,129,129,129,129,130,130,130,130,130,130,130,130,131,133,133,133,134,134,134,133,130,130,130,130,127,130,130,132,133,133,133,137,137,139,139,139,137,137,138,138,138,138,136,136,136,136,136,140,140,140,141,144,144,144,144,144,144,144,144,144,144,144,144,144,144,144,146,148,147,147,147,149,149,151,151,152,152,152,152,152,152,152,152,152,150,150,145,145,147,148,149,149,150,144,148,148,148,148,148,148,146,146,146,146,146,146,146,145,144,144,144,144,144,147,147,147,147,146,146,144,143,143,143,143,147,147,148,147,147,147,147,148,148,147,147,147,148,148,148,148,148,146,146,146,144,144,144,144,141,141,141,141,141,141,141,141,142,143,143,143,143,143,143,144,144,144,147,151,152,152,152,152,152,153,153,152,152,152,152,152,152,148,148,148,148,148,142,142,142,142,142,142,142,142,142,142,142,143,143,144,144,144,144,144,144,144,139,139,139,138,139,139,137,136,136,136,133,133,131,128,127,127,126,124,124,124,127,128,133,135,135,135,135,132,132,132,132,132,137,137,138,138,138,138,138,142,142,142,142,142,148,148,149,149,147,147,147,147,147,147,147,147,147,151,156,162,162,163,165,164,165,165,165,165,165,164,164,160,159,159,159,152,152,152,149,149,149]},"geometry":{"type":"LineString","coordinates":[[2.453649,48.700904,83.5],[2.453613,48.70066,83.7],[2.453616,48.700616,83.8],[2.453642,48.700567,83.8],[2.453698,48.700528,83.8],[2.453828,48.700473,83.9],[2.453937,48.700396,84],[2.455401,48.699067,84.9],[2.455624,48.698834,85],[2.456344,48.698172,85],[2.456595,48.69796,85.1],[2.456922,48.697639,85.1],[2.457249,48.697335,85.2],[2.457628,48.697002,85.3],[2.457718,48.696904,85.4],[2.457821,48.696824,85.4],[2.457862,48.696802,85.4],[2.457919,48.69679,85.5],[2.457976,48.696791,85.5],[2.458134,48.696831,85.5],[2.458191,48.696837,85.5],[2.458304,48.696828,85.5],[2.458405,48.696848,85.5],[2.458629,48.696926,85.5],[2.458765,48.696964,85.5],[2.459677,48.697266,85.3],[2.459841,48.697331,85.2],[2.460008,48.69736,85.2],[2.46082,48.697656,85.2],[2.461098,48.697707,85],[2.461186,48.69775,84.9],[2.461249,48.697762,84.9],[2.46141,48.697739,84.9],[2.461479,48.697688,84.8],[2.461598,48.697513,84.8],[2.461715,48.69741,84.8],[2.461813,48.697302,84.8],[2.46254,48.696586,85.1],[2.462722,48.696435,85.1],[2.462916,48.696207,85.2],[2.463979,48.695161,85.4],[2.464081,48.69505,85.4],[2.464205,48.694937,85.5],[2.464471,48.694663,85.7],[2.464474,48.694597,85.8],[2.464407,48.694542,85.8],[2.464334,48.694496,85.9],[2.464294,48.694444,86],[2.464317,48.694383,85.9],[2.46489,48.69384,85.9],[2.46516,48.693556,85.9],[2.465446,48.693276,85.8],[2.465555,48.693156,85.8],[2.46562,48.693103,85.8],[2.466326,48.692382,85.5],[2.466469,48.692211,85.5],[2.466536,48.692162,85.5],[2.467211,48.691511,85.9],[2.46728,48.691458,85.9],[2.467644,48.691073,86.2],[2.467916,48.690814,86.5],[2.467953,48.690759,86.6],[2.467969,48.690699,86.6],[2.467956,48.690634,86.7],[2.467898,48.690515,86.8],[2.467708,48.689896,86.7],[2.467522,48.689429,87],[2.467461,48.689311,87.2],[2.46729,48.68875,87.4],[2.467184,48.688499,87.4],[2.467027,48.688045,87.5],[2.466857,48.687601,87.8],[2.466762,48.687421,87.8],[2.466731,48.687294,87.9],[2.466731,48.687168,88.1],[2.46663,48.686882,88.4],[2.466519,48.686717,88.6],[2.466495,48.68661,88.6],[2.466444,48.686507,88.6],[2.466431,48.686391,88.6],[2.466364,48.686189,88.4],[2.466308,48.685927,88.3],[2.466224,48.685658,88.1],[2.466163,48.685418,87.9],[2.466104,48.685242,87.9],[2.466065,48.685066,87.9],[2.466041,48.685008,87.9],[2.465773,48.683932,87.6],[2.465696,48.683676,87.6],[2.46565,48.68348,87.6],[2.465607,48.683222,87.6],[2.465557,48.683097,87.6],[2.465468,48.682771,87.7],[2.465414,48.682645,87.7],[2.46529,48.682132,87.9],[2.464959,48.680965,87.5],[2.464931,48.680835,87.4],[2.464686,48.679955,87],[2.464588,48.679546,86.9],[2.46456,48.679477,87],[2.464512,48.679417,87],[2.464442,48.67937,87],[2.464354,48.679327,87],[2.464265,48.679295,86.9],[2.463693,48.679132,86.7],[2.46352,48.679074,86.6],[2.463237,48.678996,86.5],[2.462599,48.678792,86.3],[2.462237,48.678696,86.2],[2.462155,48.678667,86.1],[2.462064,48.678646,86.1],[2.461811,48.678562,86],[2.461731,48.678545,86],[2.461655,48.678517,85.9],[2.46149,48.678479,85.8],[2.460406,48.678171,85.2],[2.460083,48.67807,84.9],[2.459999,48.678054,84.8],[2.459468,48.677884,84.2],[2.459223,48.677797,83.9],[2.459031,48.677752,83.8],[2.458412,48.677581,83.7],[2.458318,48.677566,83.7],[2.458219,48.677576,83.7],[2.458126,48.677576,83.7],[2.458038,48.677555,83.7],[2.457959,48.67752,83.7],[2.457764,48.6774,83.9],[2.457622,48.677338,83.9],[2.457307,48.677262,84.1],[2.457012,48.677163,84.5],[2.456672,48.67706,84.9],[2.456483,48.677012,85],[2.456433,48.676989,85.1],[2.456426,48.676953,85.1],[2.456467,48.6769,85.2],[2.456492,48.676803,85.3],[2.456479,48.676788,85.3],[2.456584,48.67669,85.4],[2.456577,48.676695,85.4],[2.456584,48.676686,85.5],[2.456532,48.676686,85.5],[2.456445,48.676595,85.6],[2.456405,48.676591,85.6],[2.456362,48.676569,85.7],[2.456314,48.676566,85.7],[2.45633,48.676567,85.7],[2.456281,48.676567,85.8],[2.456222,48.676555,85.8],[2.456153,48.676551,85.9],[2.456138,48.67656,85.9],[2.456143,48.676568,85.9],[2.456132,48.676568,85.9],[2.456143,48.676573,85.9],[2.456129,48.676571,85.9],[2.456154,48.676614,86],[2.456138,48.67663,86],[2.4561,48.676647,86.1],[2.456087,48.676664,86.1],[2.456056,48.676677,86.2],[2.456019,48.676663,86.2],[2.455943,48.67668,86.3],[2.455839,48.676689,86.3],[2.455798,48.676709,86.4],[2.455789,48.676725,86.4],[2.455697,48.676783,86.5],[2.455678,48.67676,86.5],[2.455531,48.676702,86.5],[2.455483,48.676693,86.5],[2.455441,48.676695,86.5],[2.455325,48.676646,86.6],[2.455078,48.676571,86.6],[2.454895,48.676533,86.7],[2.45417,48.676322,87.2],[2.453748,48.676186,87.5],[2.453004,48.675989,88],[2.452778,48.675915,88.1],[2.452618,48.675873,88.1],[2.452388,48.6758,88.1],[2.452132,48.675743,88.1],[2.45172,48.675611,88],[2.45155,48.675575,88],[2.451384,48.675524,88],[2.451027,48.675443,87.9],[2.450853,48.675396,87.8],[2.450416,48.675298,88],[2.449514,48.675081,88],[2.449425,48.675066,88],[2.448426,48.674833,88.1],[2.448104,48.674742,88.2],[2.447412,48.674598,88.1],[2.446808,48.674439,88.1],[2.446456,48.674359,88],[2.446295,48.674311,88],[2.445229,48.674062,88.1],[2.444971,48.673995,88.1],[2.444804,48.673943,88.1],[2.444649,48.673878,88],[2.444474,48.673819,88.1],[2.444322,48.673738,88.1],[2.444197,48.673649,88.1],[2.444099,48.673539,88.1],[2.443923,48.673393,88],[2.443651,48.673221,88.1],[2.443597,48.673175,88.1],[2.443465,48.67309,88.1],[2.443401,48.673038,88.1],[2.442441,48.672429,88.1],[2.442383,48.672382,88.1],[2.442297,48.672339,88.1],[2.441704,48.671952,88.3],[2.441632,48.671916,88.4],[2.441547,48.671891,88.4],[2.441462,48.671879,88.5],[2.441291,48.67188,88.6],[2.441208,48.671868,88.6],[2.441143,48.671835,88.7],[2.441048,48.671742,88.7],[2.440976,48.671712,88.7],[2.440883,48.671702,88.7],[2.44061,48.671726,88.6],[2.438989,48.671816,89],[2.438891,48.671814,89],[2.438422,48.671841,89],[2.438326,48.67184,89],[2.43765,48.671877,88.7],[2.437352,48.671885,88.6],[2.436846,48.671917,88.2],[2.436326,48.671929,87.7],[2.436112,48.671942,87.5],[2.435687,48.671951,87.2],[2.435468,48.671964,87.1],[2.435247,48.671967,87],[2.434814,48.671989,86.7],[2.43439,48.672025,86.8],[2.433653,48.672055,86.5],[2.433548,48.672066,86.5],[2.433044,48.672089,86.4],[2.432942,48.672086,86.4],[2.432135,48.672119,86.1],[2.432036,48.67213,86.1],[2.431933,48.672125,86.1],[2.431732,48.67213,86.1],[2.431637,48.672141,86.1],[2.431338,48.672154,85.9],[2.431148,48.67217,85.9],[2.430517,48.672203,85.6],[2.430348,48.672204,85.6],[2.43029,48.672221,85.6],[2.430248,48.672262,85.6],[2.430237,48.672312,85.6],[2.430253,48.672357,85.7],[2.430287,48.672397,85.7],[2.430401,48.672464,85.6],[2.430598,48.672561,85.7],[2.430746,48.672614,85.7],[2.430815,48.672652,85.8],[2.431749,48.673063,86.3],[2.432106,48.673232,86.5],[2.432242,48.673281,86.5],[2.432315,48.673323,86.5],[2.432824,48.673552,86.5],[2.432972,48.673627,86.6],[2.433485,48.673849,86.6],[2.433557,48.673868,86.6],[2.433994,48.674071,86.9],[2.434114,48.674152,86.9],[2.43414,48.674206,86.9],[2.434125,48.674266,86.9],[2.434083,48.674313,86.9],[2.434052,48.674372,86.8],[2.434014,48.674559,86.7],[2.433992,48.674618,86.7],[2.433929,48.674729,86.6],[2.433863,48.674973,86.5],[2.433837,48.675033,86.5],[2.433825,48.675149,86.5],[2.433805,48.67521,86.5],[2.433718,48.675388,86.5],[2.433701,48.675443,86.5],[2.433701,48.675561,86.6],[2.433732,48.675716,86.6],[2.433724,48.675934,86.6],[2.433687,48.676083,86.6],[2.433697,48.676112,86.6],[2.433702,48.676352,86.6],[2.433669,48.676469,86.5],[2.433682,48.676488,86.5],[2.433679,48.676505,86.5],[2.433654,48.676509,86.5],[2.433637,48.676492,86.5],[2.433637,48.676479,86.5],[2.433675,48.676459,86.5],[2.433716,48.676415,86.5],[2.433735,48.676358,86.5],[2.433729,48.676238,86.5],[2.43374,48.676111,86.6],[2.433778,48.676025,86.6],[2.433775,48.67593,86.6],[2.433783,48.675906,86.6],[2.433777,48.675882,86.6],[2.433799,48.67572,86.6],[2.433784,48.675701,86.6],[2.433747,48.675682,86.6],[2.433491,48.675603,86.6],[2.433399,48.67555,86.5],[2.433268,48.675491,86.5],[2.433159,48.675459,86.5],[2.433075,48.675398,86.5],[2.43288,48.67531,86.7],[2.432801,48.675242,86.9],[2.432776,48.675203,87],[2.432685,48.67514,87.1],[2.432441,48.675069,87.3],[2.432282,48.674983,87.6],[2.432129,48.674928,88],[2.43205,48.674882,88.4],[2.431982,48.674861,88.5],[2.431987,48.674853,88.6],[2.432005,48.674868,88.5],[2.431999,48.674877,88.5],[2.432038,48.674893,88.4],[2.43218,48.674997,87.8],[2.432286,48.675036,87.7],[2.432411,48.675096,87.4],[2.432472,48.675105,87.4],[2.432532,48.675132,87.4],[2.432563,48.675128,87.4],[2.432613,48.675152,87.4],[2.432656,48.675163,87.4],[2.43273,48.675241,87.3],[2.43273,48.675257,87.3],[2.43275,48.675282,87.2],[2.432846,48.675348,87.1],[2.433057,48.67546,87],[2.433035,48.675478,87],[2.432982,48.675365,87.2],[2.432941,48.67533,87.2],[2.432873,48.675296,87.3],[2.432813,48.675249,87.4],[2.432799,48.675226,87.5],[2.432684,48.675137,87.7],[2.432518,48.675087,87.8],[2.432378,48.675024,88.1],[2.432347,48.675002,88.2],[2.432266,48.674967,88.4],[2.432188,48.674952,88.4],[2.432103,48.674906,88.7],[2.432022,48.674878,89],[2.431897,48.674859,89.2],[2.431856,48.674844,89.3],[2.431773,48.674796,89.5],[2.431699,48.674736,89.6],[2.431605,48.6747,89.6],[2.431531,48.67465,89.6],[2.431349,48.674601,89.5],[2.431267,48.674565,89.4],[2.431216,48.674551,89.4],[2.431156,48.674504,89.4],[2.43107,48.67447,89.3],[2.430961,48.674399,89.1],[2.430818,48.67434,88.9],[2.43079,48.674309,88.9],[2.430581,48.674173,88.4],[2.430534,48.674155,88.2],[2.430436,48.674093,87.9],[2.430314,48.674053,87.5],[2.430298,48.674026,87.4],[2.430222,48.673989,87.1],[2.430148,48.673983,86.8],[2.430101,48.673965,86.7],[2.430026,48.673968,86.5],[2.429993,48.673977,86.4],[2.429966,48.674005,86.4],[2.429967,48.674089,86.5],[2.429945,48.674148,86.5],[2.42993,48.674163,86.5],[2.429918,48.67414,86.5],[2.429921,48.674148,86.5],[2.429918,48.674139,86.5],[2.429891,48.674241,86.5],[2.429912,48.674431,86.5],[2.429888,48.674777,86.6],[2.429921,48.674984,86.7],[2.429941,48.675274,86.7],[2.429917,48.675329,86.7],[2.429923,48.675528,86.8],[2.429938,48.675555,86.8],[2.430069,48.675574,86.8],[2.430087,48.675582,86.8],[2.430254,48.675576,86.8],[2.430286,48.675593,86.8],[2.430307,48.675624,86.8],[2.43042,48.675661,86.8],[2.430581,48.675793,86.8],[2.43062,48.675812,86.8],[2.430721,48.675841,86.7],[2.430759,48.675869,86.7],[2.431014,48.676001,86.7],[2.431106,48.676022,86.7],[2.431157,48.676053,86.7],[2.431269,48.676101,86.7],[2.431309,48.676106,86.7],[2.43142,48.676174,86.7],[2.43146,48.676208,86.7],[2.431545,48.67625,86.7],[2.431609,48.676263,86.7],[2.431783,48.676354,86.7],[2.431888,48.676396,86.8],[2.431922,48.676401,86.8],[2.432129,48.676502,87.1],[2.43222,48.676525,87.2],[2.432301,48.67659,87.4],[2.432473,48.676633,87.6],[2.432609,48.676708,87.7],[2.43268,48.676776,87.7],[2.432807,48.676843,87.5],[2.432953,48.676894,87.2],[2.432998,48.67694,87.1],[2.433076,48.676973,86.8],[2.433179,48.676991,86.5],[2.433227,48.677019,86.3],[2.433267,48.677021,86.2],[2.433304,48.677009,86.1],[2.433335,48.676988,86.1],[2.433386,48.676889,86.1],[2.433544,48.676725,86.3],[2.433633,48.676601,86.4],[2.433746,48.676354,86.5],[2.433762,48.676262,86.5],[2.433754,48.67622,86.5],[2.433762,48.676173,86.6],[2.433755,48.676133,86.6],[2.433768,48.67573,86.6],[2.433757,48.675682,86.6],[2.433744,48.675442,86.6],[2.433831,48.675243,86.5],[2.433888,48.675073,86.5],[2.433898,48.674961,86.5],[2.434013,48.674635,86.6],[2.434048,48.674593,86.7],[2.434071,48.674531,86.7],[2.434091,48.674421,86.8],[2.434154,48.674217,86.9],[2.434153,48.674162,87],[2.43413,48.674111,86.9],[2.434088,48.67407,86.9],[2.434025,48.674032,86.9],[2.433799,48.673952,86.8],[2.433499,48.673823,86.6],[2.433344,48.673765,86.6],[2.432818,48.673515,86.5],[2.432171,48.673227,86.5],[2.431933,48.67313,86.4],[2.43177,48.673053,86.3],[2.430847,48.672659,85.8],[2.430347,48.672436,85.6],[2.430264,48.672426,85.7],[2.430179,48.672426,85.7],[2.429958,48.672475,85.8],[2.429821,48.672483,85.6],[2.42975,48.672477,85.6],[2.429688,48.672457,85.5],[2.429635,48.672428,85.4],[2.429481,48.6723,85.3],[2.429433,48.672282,85.2],[2.429318,48.672261,85.2],[2.429134,48.672287,85.3],[2.428217,48.672311,85.6],[2.427556,48.67235,85.7],[2.427493,48.672346,85.7],[2.427286,48.672362,85.7],[2.427134,48.672364,85.7],[2.426398,48.672401,85.4],[2.426327,48.672423,85.4],[2.426171,48.672415,85.3],[2.425932,48.672433,85.2],[2.425551,48.672446,85],[2.425328,48.672464,85],[2.425251,48.672462,85],[2.424902,48.672478,85],[2.424727,48.672498,85],[2.42457,48.672501,85],[2.42452,48.672511,85.1],[2.424512,48.672552,85.5],[2.424534,48.672641,86.4],[2.424523,48.672883,89.3],[2.42459,48.673055,90.9],[2.424592,48.673188,90.1],[2.424615,48.673282,89.6],[2.424626,48.673413,88.9],[2.424618,48.67345,88.7],[2.424633,48.673598,87.8],[2.424615,48.673706,87.2],[2.424622,48.673735,87],[2.424692,48.673759,86.7],[2.42471,48.673784,86.5],[2.424713,48.67387,86],[2.424735,48.673938,85.6],[2.424756,48.673954,85.4],[2.424808,48.673948,85.4],[2.424947,48.673897,85.5],[2.425058,48.673812,85.5],[2.425225,48.673722,85.4],[2.425345,48.673684,85.3],[2.425548,48.673571,85.3],[2.425666,48.673516,85.3],[2.425866,48.673438,85.3],[2.426056,48.673332,85.3],[2.426088,48.673295,85.3],[2.426196,48.673215,85.3],[2.426256,48.673186,85.3],[2.42639,48.673154,85.3],[2.426453,48.673125,85.3],[2.426491,48.67308,85.3],[2.426509,48.673037,85.3],[2.426556,48.673003,85.3],[2.426621,48.672983,85.2],[2.426914,48.672944,85.2],[2.42703,48.672892,85.2],[2.427129,48.672834,85.2],[2.4272,48.672804,85.2],[2.427319,48.67278,85.3],[2.427463,48.67269,85.3],[2.427494,48.672655,85.3],[2.427636,48.672553,85.5],[2.427663,48.672521,85.5],[2.427641,48.672451,85.6],[2.427658,48.672381,85.7],[2.42767,48.672368,85.7],[2.427707,48.672364,85.7],[2.427728,48.672353,85.7],[2.427709,48.672343,85.7],[2.427681,48.672342,85.7],[2.427651,48.672353,85.7],[2.427637,48.672372,85.7],[2.427643,48.672425,85.7],[2.427628,48.672494,85.7],[2.427649,48.672518,85.6],[2.427645,48.672538,85.6],[2.427527,48.672599,85.5],[2.427378,48.672711,85.3],[2.427286,48.672757,85.3],[2.427089,48.672816,85.2],[2.426914,48.672906,85.2],[2.426796,48.672949,85.2],[2.426657,48.672971,85.2],[2.426526,48.673007,85.2],[2.426436,48.673134,85.3],[2.426385,48.673158,85.3],[2.426263,48.673176,85.3],[2.42619,48.673206,85.3],[2.426055,48.673315,85.3],[2.425924,48.673402,85.3],[2.425791,48.673437,85.3],[2.425418,48.673599,85.3],[2.42531,48.67367,85.3],[2.425196,48.673725,85.4],[2.425076,48.673797,85.4],[2.424899,48.673921,85.5],[2.424802,48.67396,85.4],[2.424786,48.67395,85.5],[2.424757,48.67386,86],[2.424777,48.673776,86.5],[2.424759,48.673763,86.6],[2.424707,48.67375,86.9],[2.424679,48.673711,87.1],[2.4247,48.673683,87.3],[2.424711,48.673554,88.1],[2.424684,48.673457,88.6],[2.42468,48.6733,89.5],[2.42463,48.673101,90.6],[2.424636,48.673059,90.8],[2.424611,48.672961,90.4],[2.424575,48.672915,89.7],[2.424553,48.672628,86.2],[2.424537,48.67257,85.6],[2.424534,48.672506,85],[2.424499,48.672496,85],[2.42444,48.672495,85],[2.424382,48.672504,84.9],[2.424261,48.672505,84.9],[2.424097,48.672519,84.7],[2.423869,48.672519,84.5],[2.423762,48.672534,84.5],[2.423595,48.672526,84.3],[2.42321,48.672543,83.6],[2.423136,48.672552,83.5],[2.423069,48.672571,83.4],[2.422709,48.672593,82.7],[2.422312,48.672606,82],[2.42189,48.672601,81.3],[2.421838,48.672607,81.2],[2.421798,48.672638,81.2],[2.421792,48.672676,81.2],[2.421871,48.672756,81.2],[2.421945,48.672878,81.3],[2.422162,48.673326,82],[2.422192,48.673418,82.1],[2.422269,48.673554,82.3],[2.422339,48.673625,82.4],[2.422367,48.673666,82.5],[2.422444,48.673903,82.8],[2.42252,48.674045,83],[2.422646,48.674336,83.2],[2.422754,48.674508,83.2],[2.422835,48.674684,83.6],[2.422824,48.674708,83.6],[2.422756,48.674775,83.8],[2.422647,48.674941,84.1],[2.42265,48.674969,84.1],[2.422614,48.675052,84],[2.422619,48.675084,84.2],[2.422606,48.675144,84],[2.42255,48.675189,83.8],[2.422531,48.675187,83.8],[2.422543,48.675176,83.9],[2.422556,48.675176,83.9],[2.422379,48.675155,82.9],[2.422351,48.675146,82.8],[2.422362,48.675108,83.1],[2.422316,48.675062,83],[2.422323,48.675011,83],[2.422367,48.674966,83.3],[2.422414,48.674965,83.5],[2.422429,48.674952,83.5],[2.422425,48.674918,83.5],[2.422229,48.674798,82.7],[2.422096,48.674792,82],[2.422009,48.674776,81.6],[2.421984,48.67478,81.6],[2.421968,48.674759,81.5],[2.421982,48.674742,81.6],[2.42203,48.674741,81.8],[2.422037,48.674733,81.8],[2.422002,48.674681,81.6],[2.421993,48.674508,81.1],[2.421959,48.674586,81.4],[2.421957,48.674708,81.7],[2.422014,48.674874,82.3],[2.422015,48.674958,82.4],[2.421997,48.675043,82.3],[2.422041,48.675136,82.4],[2.4221,48.675167,82.8],[2.422132,48.67522,82.7],[2.422124,48.67525,82.7],[2.422096,48.675272,82.5],[2.421937,48.675259,82.2],[2.421887,48.675296,82.1],[2.421855,48.6753,82],[2.421723,48.675273,81.8],[2.421625,48.675293,81.7],[2.421591,48.67531,81.6],[2.42155,48.675301,81.6],[2.421507,48.675276,81.5],[2.421483,48.675245,81.5],[2.421445,48.675032,81.3],[2.421453,48.675,81.3],[2.421474,48.674972,81.3],[2.421518,48.674944,81.3],[2.421511,48.67493,81.2],[2.421461,48.674899,81.2],[2.42143,48.674813,81.2],[2.421395,48.674791,81.3],[2.421348,48.674775,81.3],[2.421106,48.674725,81.1],[2.420966,48.674763,80.7],[2.420872,48.674802,80.5],[2.420712,48.674843,80.2],[2.420491,48.674864,79.8],[2.4204,48.674852,79.7],[2.420243,48.674783,79.4],[2.420195,48.674772,79.4],[2.420168,48.674753,79.3],[2.420141,48.674702,79.3],[2.420107,48.674678,79.2],[2.419995,48.674674,79.1],[2.419896,48.674704,79],[2.419827,48.674756,78.8],[2.419744,48.67485,78.5],[2.41969,48.674897,78.3],[2.419713,48.674951,78.2],[2.419653,48.675043,77.8],[2.419584,48.675092,77.6],[2.419492,48.675176,77.3],[2.419494,48.675224,77.2],[2.419385,48.675292,76.9],[2.419373,48.675309,76.8],[2.419365,48.675368,76.6],[2.419215,48.675543,76],[2.419134,48.675582,75.8],[2.419047,48.675593,75.7],[2.418991,48.675611,75.6],[2.418965,48.675647,75.5],[2.418924,48.675748,75.3],[2.418902,48.675765,75.2],[2.418899,48.675782,75.2],[2.418936,48.67582,75.1],[2.418973,48.675818,75.2],[2.41898,48.675793,75.2],[2.418933,48.675758,75.3],[2.41893,48.675738,75.4],[2.418956,48.675704,75.4],[2.418991,48.675688,75.5],[2.419016,48.675655,75.6],[2.419053,48.675631,75.6],[2.419111,48.675626,75.7],[2.419164,48.675631,75.8],[2.419207,48.675623,75.9],[2.419235,48.675607,75.9],[2.419314,48.675523,76.1],[2.419345,48.675505,76.2],[2.419404,48.675426,76.5],[2.419409,48.67534,76.8],[2.419438,48.675318,76.9],[2.419532,48.675287,77.1],[2.419558,48.675267,77.2],[2.419585,48.675192,77.4],[2.419736,48.675052,77.9],[2.419794,48.675011,78.1],[2.419791,48.674984,78.1],[2.419757,48.674922,78.3],[2.419804,48.674883,78.5],[2.419846,48.674819,78.7],[2.419877,48.674794,78.8],[2.419902,48.674747,78.9],[2.41993,48.674725,78.9],[2.420009,48.67469,78.8],[2.420006,48.67465,78.7],[2.419958,48.674493,78.6],[2.419939,48.674461,78.6],[2.419927,48.674391,78.5],[2.419898,48.674339,78.4],[2.419872,48.674332,78.3],[2.419817,48.674351,78.2],[2.419769,48.674393,78],[2.419604,48.674466,77.6],[2.419394,48.674494,77.1],[2.419351,48.674478,77],[2.419297,48.674431,76.8],[2.419197,48.674415,76.6],[2.4191,48.674376,76.4],[2.419061,48.674371,76.3],[2.418935,48.674331,76.1],[2.418854,48.674319,75.9],[2.418804,48.674293,75.8],[2.418734,48.674281,75.6],[2.418643,48.674291,75.3],[2.418602,48.674273,75.2],[2.418574,48.674238,75],[2.418529,48.674215,74.8],[2.418467,48.674216,74.6],[2.418299,48.674259,74.1],[2.418246,48.674266,74],[2.418147,48.674324,73.7],[2.41791,48.674372,73.2],[2.417876,48.674371,73.1],[2.417838,48.67435,73],[2.417833,48.674327,72.9],[2.417848,48.674323,72.8],[2.417841,48.67431,72.8],[2.417851,48.674321,72.7],[2.417773,48.674454,72.2],[2.417761,48.674503,72],[2.417689,48.674608,71.7],[2.417662,48.674685,71.6],[2.417612,48.67493,71.4],[2.417592,48.674953,71.3],[2.417553,48.67496,71.3],[2.417488,48.674952,71],[2.417429,48.67493,70.8],[2.417359,48.674916,70.5],[2.41722,48.674915,70.1],[2.416614,48.674851,68.3],[2.41658,48.674827,68.1],[2.416596,48.674738,67.8],[2.416602,48.674531,67.5],[2.416573,48.674303,67.3],[2.41667,48.673636,67.4],[2.416712,48.673533,67.4],[2.41679,48.673255,67.3],[2.416883,48.672814,67.9],[2.416947,48.672436,68.3],[2.416922,48.672382,68.2],[2.416862,48.672333,68],[2.416661,48.67221,67.4],[2.416583,48.672147,67.2],[2.416653,48.67211,67.3],[2.416797,48.67209,67.6],[2.416836,48.672074,67.6],[2.416913,48.671968,67.9],[2.417009,48.671911,68],[2.417069,48.671885,68.1],[2.41713,48.671845,68.2],[2.417203,48.671822,68.4],[2.417282,48.671766,68.6],[2.417326,48.671749,68.7],[2.417355,48.671727,68.7],[2.417402,48.671711,68.9],[2.417414,48.671671,69],[2.417498,48.671607,69.3],[2.417586,48.671561,69.6],[2.417655,48.671502,69.9],[2.417676,48.671493,69.9],[2.417689,48.671497,70],[2.417683,48.671505,70],[2.417673,48.6715,70.1],[2.417681,48.671491,70.1],[2.417718,48.671481,70.2],[2.417734,48.671462,70.3],[2.417847,48.671403,70.8],[2.418026,48.671286,71.5],[2.418106,48.671254,71.7],[2.418157,48.671252,71.8],[2.418222,48.671216,72],[2.418323,48.671143,72.2],[2.418356,48.671092,72.4],[2.418357,48.671053,72.4],[2.418393,48.67105,72.5],[2.418448,48.671028,72.6],[2.418607,48.670925,72.8],[2.418689,48.670899,73],[2.418716,48.67085,73.1],[2.418887,48.670754,73.3],[2.418903,48.670738,73.4],[2.419097,48.670638,73.5],[2.419198,48.670574,73.6],[2.419279,48.670537,73.7],[2.419337,48.670459,73.9],[2.419386,48.670449,73.9],[2.419424,48.670428,73.9],[2.419481,48.67041,74],[2.419632,48.670332,74.1],[2.41964,48.670286,74.2],[2.419765,48.67022,74.3],[2.419818,48.670212,74.4],[2.419808,48.670208,74.4],[2.419819,48.670218,74.4],[2.419838,48.670205,74.4],[2.419871,48.670211,74.4],[2.419957,48.670096,74.4],[2.420091,48.670014,74.4],[2.420176,48.669982,74.4],[2.420181,48.669958,74.4],[2.420241,48.669902,74.4],[2.42035,48.669832,74.5],[2.420396,48.669823,74.5],[2.420576,48.669709,74.7],[2.420781,48.669561,74.9],[2.420862,48.669518,75],[2.420979,48.669431,75.1],[2.421069,48.66938,75.2],[2.421217,48.669319,75.4],[2.421252,48.669282,75.4],[2.421587,48.669074,76],[2.422014,48.668834,77.4],[2.422061,48.668815,77.5],[2.422177,48.668845,78.1],[2.422347,48.66893,78.7],[2.422428,48.668959,78.9],[2.422452,48.668979,79],[2.422603,48.669033,79.5],[2.422635,48.669056,79.7],[2.422799,48.669113,80.2],[2.423236,48.669307,81.3],[2.423288,48.669337,81.5],[2.423669,48.669488,82.2],[2.423774,48.669539,82.5],[2.424008,48.669635,82.9],[2.424485,48.669862,83.9],[2.424796,48.669996,84.3],[2.424943,48.670047,84.6],[2.42515,48.670151,84.8],[2.425245,48.670183,84.9],[2.425286,48.670177,84.9],[2.425389,48.670144,84.8],[2.425535,48.670057,84.8],[2.425703,48.669938,84.8],[2.425854,48.669858,84.8],[2.425986,48.669762,84.7],[2.426403,48.669488,84.4],[2.426455,48.669463,84.4],[2.426504,48.669418,84.4],[2.426614,48.669351,84.3],[2.426728,48.669265,84.2],[2.42712,48.669012,83.9],[2.427274,48.668896,83.9],[2.427375,48.668833,83.9],[2.427446,48.668769,83.9],[2.427499,48.668753,84],[2.427552,48.668748,84],[2.427631,48.668773,84.1],[2.427671,48.668777,84.1],[2.427946,48.668895,84.4],[2.428001,48.668894,84.4],[2.428152,48.668941,84.5],[2.428214,48.668945,84.5],[2.428357,48.668931,84.6],[2.428419,48.668934,84.6],[2.428596,48.669002,84.5],[2.428721,48.669071,84.6],[2.428856,48.669108,84.6],[2.428956,48.669169,84.7],[2.429164,48.669245,84.7],[2.429427,48.669393,84.9],[2.429473,48.66943,84.9],[2.429582,48.669485,85],[2.429647,48.669528,85],[2.429723,48.669537,85],[2.429775,48.669522,85.1],[2.429804,48.66949,85.1],[2.429823,48.669379,85.1],[2.429853,48.669293,85.2],[2.42986,48.669213,85.2],[2.429877,48.669186,85.2],[2.429879,48.669034,85.2],[2.429863,48.668875,85.2],[2.429849,48.668837,85.2],[2.429842,48.668635,85.2],[2.42982,48.668513,85.3],[2.429835,48.668497,85.3],[2.429861,48.668498,85.3],[2.429896,48.668534,85.2],[2.429944,48.668544,85.2],[2.429971,48.668564,85.2],[2.430053,48.668568,85.1],[2.430148,48.668558,85],[2.430202,48.668541,84.9],[2.430295,48.668453,84.8],[2.430335,48.66844,84.7],[2.430406,48.668372,84.6],[2.430428,48.668368,84.6],[2.430406,48.668395,84.6],[2.430564,48.668283,84.6],[2.43071,48.668199,84.6],[2.431027,48.667907,84.3],[2.43104,48.667875,84.3],[2.4311,48.667806,84.2],[2.43139,48.66759,83.9],[2.431413,48.667556,83.9],[2.431451,48.667527,83.8],[2.431483,48.667487,83.8],[2.43155,48.667433,83.8],[2.431544,48.667391,83.8],[2.431638,48.667287,83.7],[2.431693,48.667207,83.6],[2.431829,48.667069,83.5],[2.431878,48.667045,83.5],[2.43191,48.667012,83.5],[2.431923,48.66696,83.5],[2.431967,48.666942,83.5],[2.432022,48.666905,83.4],[2.432144,48.666782,83.2],[2.432171,48.666742,83.2],[2.43226,48.666679,83],[2.432373,48.666529,82.9],[2.432438,48.666467,82.8],[2.432511,48.666414,82.8],[2.432581,48.666376,82.7],[2.432668,48.666351,82.7],[2.432831,48.66628,82.7],[2.432862,48.666226,82.6],[2.432959,48.666179,82.6],[2.432999,48.66618,82.7],[2.433178,48.666318,82.8],[2.433833,48.666734,83.4],[2.43393,48.666808,83.5],[2.434577,48.667232,84.1],[2.434676,48.667306,84.2],[2.435001,48.667512,84.4],[2.43506,48.667541,84.4],[2.435291,48.667723,84.6],[2.435443,48.667816,84.8],[2.43581,48.66807,85.3],[2.435897,48.668149,85.4],[2.435908,48.668196,85.5],[2.435883,48.668238,85.5],[2.435838,48.668278,85.5],[2.43502,48.668781,85.5],[2.434921,48.668859,85.4],[2.434517,48.669126,85.1],[2.434395,48.669189,85.1],[2.433258,48.669969,85],[2.433073,48.670081,85],[2.432532,48.670446,85.1],[2.432146,48.670688,85],[2.432087,48.670736,85],[2.431413,48.671169,85.1],[2.431287,48.671262,85.1],[2.431151,48.671348,85.2],[2.430904,48.671526,85.2],[2.43038,48.671875,85.2],[2.430248,48.672033,85.3],[2.430224,48.672091,85.4],[2.430208,48.672279,85.6],[2.430173,48.672337,85.7],[2.430122,48.672387,85.7],[2.430048,48.672425,85.7],[2.429961,48.672454,85.8],[2.429872,48.672471,85.7],[2.429679,48.672474,85.5],[2.42958,48.672484,85.4],[2.429491,48.67251,85.3],[2.429399,48.672552,85.4],[2.429261,48.672647,85.4],[2.429052,48.672775,85.5],[2.428781,48.67297,85.3],[2.427719,48.673661,85.1],[2.427221,48.673969,85],[2.426949,48.674154,84.9],[2.426873,48.674193,84.9],[2.426739,48.674284,84.9],[2.426547,48.674431,84.9],[2.42641,48.674519,84.9],[2.426285,48.674621,84.9],[2.426074,48.674746,84.8],[2.425592,48.675072,84.4],[2.425215,48.675308,84],[2.424723,48.675663,83.4],[2.424563,48.675758,83.3],[2.42387,48.676216,82.6],[2.423593,48.676376,82.2],[2.423568,48.676419,82.1],[2.423566,48.67646,82],[2.4236,48.676494,81.9],[2.423731,48.676525,81.9],[2.424286,48.676742,81.9],[2.424515,48.676814,82],[2.425312,48.677105,82.4],[2.425645,48.677242,82.5],[2.42634,48.677505,82.4],[2.426698,48.677653,82.4],[2.427078,48.677795,82.3],[2.427886,48.678127,82.4],[2.428818,48.678485,82.8],[2.429017,48.678569,83],[2.429042,48.678614,83],[2.428984,48.67871,83],[2.42894,48.678748,83],[2.428887,48.678778,83],[2.428479,48.679126,82.7],[2.428388,48.679227,82.7],[2.428373,48.679286,82.7],[2.428381,48.679343,82.7],[2.428423,48.679396,82.7],[2.428491,48.679442,82.7],[2.42865,48.679505,82.7],[2.429215,48.679774,82.8],[2.429543,48.679914,82.9],[2.429594,48.679952,82.9],[2.429603,48.680005,82.8],[2.429568,48.680063,82.8],[2.429372,48.680198,82.6],[2.428958,48.680545,82],[2.42882,48.680628,81.9],[2.428801,48.680681,81.9],[2.428856,48.680735,81.8],[2.429229,48.680928,81.9],[2.429355,48.681011,82.1],[2.429558,48.681123,82.3],[2.429757,48.681218,82.3],[2.429883,48.681314,82.4],[2.43001,48.681385,82.5],[2.430049,48.681498,82.5],[2.430101,48.681547,82.5],[2.430347,48.681715,82.5],[2.430622,48.681918,82.6],[2.430793,48.682033,82.7],[2.430926,48.682094,82.8],[2.43115,48.682158,83],[2.431262,48.682225,83.1],[2.431448,48.68239,83.1],[2.43167,48.682544,83.1],[2.431967,48.682713,83.2],[2.432079,48.682787,83.2],[2.432205,48.682847,83.3],[2.432616,48.683084,83.7],[2.43262,48.683137,83.6],[2.432585,48.683211,83.6],[2.432477,48.683317,83.5],[2.432453,48.683356,83.5],[2.432378,48.683418,83.4],[2.432292,48.683468,83.4],[2.432259,48.683496,83.3],[2.432238,48.683532,83.3],[2.432246,48.683576,83.3],[2.432288,48.683606,83.3],[2.432408,48.683645,83.3],[2.432656,48.683787,83.4],[2.432676,48.683811,83.4],[2.432671,48.683832,83.4],[2.432757,48.683878,83.4],[2.432763,48.683901,83.4],[2.432804,48.683934,83.4],[2.432931,48.683999,83.5],[2.433053,48.684077,83.5],[2.433635,48.684398,83.6],[2.434325,48.684737,83.5],[2.434488,48.684873,83.4],[2.43453,48.684928,83.4],[2.434591,48.685044,83.3],[2.434638,48.685166,83.2],[2.43465,48.685227,83.1],[2.434636,48.685419,83],[2.434614,48.685481,83],[2.434531,48.6856,82.9],[2.433959,48.686119,82.3],[2.43344,48.686543,81.5],[2.433239,48.686737,81.3],[2.433186,48.686806,81.2],[2.433153,48.68688,81.1],[2.433145,48.686956,81],[2.433159,48.687034,80.9],[2.433191,48.687105,80.9],[2.433271,48.687228,80.7],[2.433327,48.687336,80.6],[2.433364,48.687366,80.5],[2.433426,48.687371,80.5],[2.433485,48.687345,80.4],[2.433505,48.687305,80.2],[2.433543,48.687301,80.1],[2.43356,48.687333,80.1],[2.433498,48.687388,80.1],[2.433454,48.687413,80.1],[2.43343,48.687452,80],[2.433454,48.687499,80],[2.433506,48.687537,79.9],[2.433694,48.687622,79.8],[2.433948,48.687752,79.8],[2.434021,48.687776,79.8],[2.434346,48.687928,79.7],[2.434754,48.688086,79.5],[2.434923,48.688135,79.5],[2.435162,48.688244,79.4],[2.435224,48.688294,79.4],[2.435323,48.688405,79.3],[2.435392,48.688454,79.2],[2.435709,48.688608,79],[2.436081,48.688806,78.8],[2.436367,48.688938,78.8],[2.436446,48.688938,78.9],[2.436511,48.688903,78.9],[2.436548,48.688869,78.9],[2.4366,48.688882,78.9],[2.436651,48.688918,78.9],[2.43667,48.688963,78.8],[2.436688,48.689058,78.7],[2.436715,48.689105,78.6],[2.436769,48.689152,78.5],[2.436906,48.689214,78.4],[2.437058,48.68926,78.3],[2.437243,48.689359,78.1],[2.437867,48.689654,77.7],[2.437964,48.68971,77.6],[2.438071,48.689746,77.5],[2.438049,48.689743,77.5],[2.438043,48.689748,77.5],[2.438126,48.689802,77.4],[2.438327,48.689904,77.3],[2.438834,48.690133,76.7],[2.438958,48.690221,76.5],[2.439079,48.690264,76.4],[2.439461,48.690371,75.5],[2.4403,48.690627,73],[2.440533,48.690682,72.4],[2.440756,48.690751,71.7],[2.441224,48.690914,70.2],[2.442494,48.691424,66.3],[2.444899,48.692422,60.5],[2.445114,48.6925,60.5],[2.445225,48.692532,60.5],[2.445561,48.6926,60.7],[2.445854,48.69269,61],[2.44613,48.692752,61.7],[2.446222,48.692744,61.9],[2.446304,48.692722,62],[2.446386,48.69271,62.2],[2.446472,48.692708,62.4],[2.446638,48.692731,62.9],[2.44675,48.692777,63.3],[2.446823,48.692791,63.4],[2.446935,48.69279,63.6],[2.447023,48.69283,63.7],[2.447045,48.692858,63.8],[2.447094,48.692891,63.9],[2.447214,48.693001,64.2],[2.447332,48.693051,64.4],[2.447583,48.693117,65],[2.447856,48.693216,65.8],[2.447996,48.69325,66.2],[2.448077,48.693249,66.5],[2.448137,48.693269,66.6],[2.448144,48.69329,66.6],[2.448136,48.693312,66.6],[2.448113,48.693319,66.7],[2.448145,48.693329,66.7],[2.448197,48.693361,66.7],[2.448307,48.69351,67.1],[2.448389,48.693565,67.4],[2.448496,48.693618,67.8],[2.448612,48.693659,68.2],[2.448704,48.693777,68.5],[2.448743,48.693811,68.8],[2.448884,48.693879,69.5],[2.449198,48.694055,71.4],[2.449855,48.694396,74.8],[2.450053,48.694485,75.5],[2.45035,48.694599,76.7],[2.450887,48.694779,78.7],[2.451022,48.694837,79.2],[2.451328,48.694941,80.1],[2.451358,48.69497,80.1],[2.451368,48.695003,80.2],[2.451363,48.695037,80.2],[2.451309,48.695143,80.2],[2.451245,48.695391,80.2],[2.451174,48.695604,80.3],[2.45109,48.695913,80.4],[2.451046,48.696196,80.4],[2.451012,48.696337,80.5],[2.451003,48.696436,80.4],[2.450897,48.696889,80.5],[2.450845,48.696983,80.5],[2.450812,48.697084,80.6],[2.45074,48.69745,80.6],[2.450733,48.697557,80.6],[2.450692,48.697712,80.6]]}}]}