{"type":"FeatureCollection","features":[{"type":"Feature","properties":{"name":"gps4cam trip started at: 2018-08-11T10:16:14Z","time":"2018-08-11T10:56:13Z","coordTimes":["2018-08-11T10:56:13Z","2018-08-11T11:01:13Z","2018-08-11T11:06:13Z","2018-08-11T11:11:14Z","2018-08-11T11:16:13Z","2018-08-11T12:01:42Z","2018-08-11T12:06:24Z","2018-08-11T12:11:20Z"],"type":"marche","month":"2018-08-01"},"geometry":{"type":"LineString","coordinates":[[44.78946988,41.6960063],[44.789089373,41.695875247],[44.788921267,41.695894278],[44.789004897,41.696022408],[44.789056002,41.695797915],[44.788888787,41.695527166],[44.788926624,41.695973977],[44.789391695,41.695928891]]}}]}