<?xml version="1.0" encoding="UTF-8"?>
<gpx version="1.1" creator="GPSBabel - https://www.gpsbabel.org" xmlns="http://www.topografix.com/GPX/1/1" xmlns:xsi="http://www.w3.org/2001/XMLSchema-instance" xmlns:gpxtpx="http://www.garmin.com/xmlschemas/TrackPointExtension/v1" xmlns:gpxx="http://www.garmin.com/xmlschemas/GpxExtensions/v3" xmlns:gpxpx="http://www.garmin.com/xmlschemas/PowerExtension/v1" xmlns:gpx_style="http://www.topografix.com/GPX/gpx_style/0/2">
  <metadata>
    <name>gps4cam trip started at 2018-08-26 11-27 decoded at 2018-08-26 18-55-55</name>
    <link href="http://gps4cam.com">
      <text>gps4cam</text>
    </link>
    <time>2025-09-15T10:25:43.688Z</time>
    <bounds minlat="53.478452461" minlon="6.159267600" maxlat="53.496670253" maxlon="6.220382723"/>
  </metadata>
  <trk>
    <name>gps4cam trip started at: 2018-08-26T09:27:21Z</name>
    <trkseg>
      <trkpt lat="53.482993906" lon="6.159267600">
        <time>2018-08-26T09:27:21Z</time>
      </trkpt>
      <trkpt lat="53.482870947" lon="6.159345800">
        <time>2018-08-26T09:27:25Z</time>
      </trkpt>
      <trkpt lat="53.482428941" lon="6.159677706">
        <time>2018-08-26T09:27:40Z</time>
      </trkpt>
      <trkpt lat="53.482284173" lon="6.159799314">
        <time>2018-08-26T09:27:45Z</time>
      </trkpt>
      <trkpt lat="53.482220694" lon="6.160039290">
        <time>2018-08-26T09:27:53Z</time>
      </trkpt>
      <trkpt lat="53.482067565" lon="6.160160416">
        <time>2018-08-26T09:27:57Z</time>
      </trkpt>
      <trkpt lat="53.481926728" lon="6.160294429">
        <time>2018-08-26T09:28:01Z</time>
      </trkpt>
      <trkpt lat="53.481514559" lon="6.160599608">
        <time>2018-08-26T09:28:14Z</time>
      </trkpt>
      <trkpt lat="53.481382577" lon="6.160709765">
        <time>2018-08-26T09:28:20Z</time>
      </trkpt>
      <trkpt lat="53.481270422" lon="6.160873846">
        <time>2018-08-26T09:28:27Z</time>
      </trkpt>
      <trkpt lat="53.481211699" lon="6.161085665">
        <time>2018-08-26T09:28:32Z</time>
      </trkpt>
      <trkpt lat="53.481043832" lon="6.161108488">
        <time>2018-08-26T09:28:37Z</time>
      </trkpt>
      <trkpt lat="53.480903158" lon="6.161234382">
        <time>2018-08-26T09:28:42Z</time>
      </trkpt>
      <trkpt lat="53.480741832" lon="6.161346907">
        <time>2018-08-26T09:28:45Z</time>
      </trkpt>
      <trkpt lat="53.480560680" lon="6.161405505">
        <time>2018-08-26T09:28:48Z</time>
      </trkpt>
      <trkpt lat="53.480370671" lon="6.161487954">
        <time>2018-08-26T09:28:51Z</time>
      </trkpt>
      <trkpt lat="53.480112622" lon="6.161623329">
        <time>2018-08-26T09:28:55Z</time>
      </trkpt>
      <trkpt lat="53.479775562" lon="6.161733852">
        <time>2018-08-26T09:29:01Z</time>
      </trkpt>
      <trkpt lat="53.479633271" lon="6.161733781">
        <time>2018-08-26T09:29:04Z</time>
      </trkpt>
      <trkpt lat="53.479483850" lon="6.161262319">
        <time>2018-08-26T09:29:11Z</time>
      </trkpt>
      <trkpt lat="53.479351904" lon="6.161165400">
        <time>2018-08-26T09:29:15Z</time>
      </trkpt>
      <trkpt lat="53.479224019" lon="6.161279843">
        <time>2018-08-26T09:29:19Z</time>
      </trkpt>
      <trkpt lat="53.479059256" lon="6.161355621">
        <time>2018-08-26T09:29:25Z</time>
      </trkpt>
      <trkpt lat="53.478888117" lon="6.161333589">
        <time>2018-08-26T09:29:28Z</time>
      </trkpt>
      <trkpt lat="53.478717309" lon="6.161295335">
        <time>2018-08-26T09:29:31Z</time>
      </trkpt>
      <trkpt lat="53.478588964" lon="6.161227045">
        <time>2018-08-26T09:29:34Z</time>
      </trkpt>
      <trkpt lat="53.478456026" lon="6.161178792">
        <time>2018-08-26T09:29:41Z</time>
      </trkpt>
      <trkpt lat="53.478452461" lon="6.160943102">
        <time>2018-08-26T09:35:26Z</time>
      </trkpt>
      <trkpt lat="53.478619502" lon="6.160960837">
        <time>2018-08-26T09:39:56Z</time>
      </trkpt>
      <trkpt lat="53.478782776" lon="6.160958056">
        <time>2018-08-26T09:40:02Z</time>
      </trkpt>
      <trkpt lat="53.478945555" lon="6.160979606">
        <time>2018-08-26T09:40:07Z</time>
      </trkpt>
      <trkpt lat="53.479100469" lon="6.160976342">
        <time>2018-08-26T09:40:11Z</time>
      </trkpt>
      <trkpt lat="53.479252443" lon="6.160912007">
        <time>2018-08-26T09:40:16Z</time>
      </trkpt>
      <trkpt lat="53.479414064" lon="6.160990332">
        <time>2018-08-26T09:40:20Z</time>
      </trkpt>
      <trkpt lat="53.479493038" lon="6.161222247">
        <time>2018-08-26T09:40:23Z</time>
      </trkpt>
      <trkpt lat="53.479534142" lon="6.161464164">
        <time>2018-08-26T09:40:26Z</time>
      </trkpt>
      <trkpt lat="53.479570321" lon="6.161742339">
        <time>2018-08-26T09:40:30Z</time>
      </trkpt>
      <trkpt lat="53.479689035" lon="6.162488129">
        <time>2018-08-26T09:40:42Z</time>
      </trkpt>
      <trkpt lat="53.479745826" lon="6.162986745">
        <time>2018-08-26T09:40:51Z</time>
      </trkpt>
      <trkpt lat="53.479791521" lon="6.163208628">
        <time>2018-08-26T09:40:55Z</time>
      </trkpt>
      <trkpt lat="53.479843715" lon="6.163727281">
        <time>2018-08-26T09:41:03Z</time>
      </trkpt>
      <trkpt lat="53.479927278" lon="6.163939167">
        <time>2018-08-26T09:41:08Z</time>
      </trkpt>
      <trkpt lat="53.479990023" lon="6.164145794">
        <time>2018-08-26T09:41:12Z</time>
      </trkpt>
      <trkpt lat="53.480246005" lon="6.165342078">
        <time>2018-08-26T09:41:32Z</time>
      </trkpt>
      <trkpt lat="53.480350211" lon="6.166387513">
        <time>2018-08-26T09:41:48Z</time>
      </trkpt>
      <trkpt lat="53.480496179" lon="6.166822260">
        <time>2018-08-26T09:41:56Z</time>
      </trkpt>
      <trkpt lat="53.480648111" lon="6.166965013">
        <time>2018-08-26T09:42:00Z</time>
      </trkpt>
      <trkpt lat="53.480757082" lon="6.167162133">
        <time>2018-08-26T09:42:05Z</time>
      </trkpt>
      <trkpt lat="53.480842868" lon="6.167674621">
        <time>2018-08-26T09:42:13Z</time>
      </trkpt>
      <trkpt lat="53.480892322" lon="6.167917033">
        <time>2018-08-26T09:42:17Z</time>
      </trkpt>
      <trkpt lat="53.481029452" lon="6.168988753">
        <time>2018-08-26T09:42:33Z</time>
      </trkpt>
      <trkpt lat="53.481064572" lon="6.169522685">
        <time>2018-08-26T09:42:41Z</time>
      </trkpt>
      <trkpt lat="53.481105827" lon="6.169756506">
        <time>2018-08-26T09:42:45Z</time>
      </trkpt>
      <trkpt lat="53.481234567" lon="6.170214639">
        <time>2018-08-26T09:42:52Z</time>
      </trkpt>
      <trkpt lat="53.481292376" lon="6.170457539">
        <time>2018-08-26T09:42:56Z</time>
      </trkpt>
      <trkpt lat="53.481360600" lon="6.171009629">
        <time>2018-08-26T09:43:03Z</time>
      </trkpt>
      <trkpt lat="53.481416697" lon="6.171540718">
        <time>2018-08-26T09:43:11Z</time>
      </trkpt>
      <trkpt lat="53.481551239" lon="6.171714968">
        <time>2018-08-26T09:43:15Z</time>
      </trkpt>
      <trkpt lat="53.481705490" lon="6.171744182">
        <time>2018-08-26T09:43:19Z</time>
      </trkpt>
      <trkpt lat="53.481859409" lon="6.171789619">
        <time>2018-08-26T09:43:23Z</time>
      </trkpt>
      <trkpt lat="53.482007903" lon="6.171895649">
        <time>2018-08-26T09:43:27Z</time>
      </trkpt>
      <trkpt lat="53.482069308" lon="6.172167186">
        <time>2018-08-26T09:43:31Z</time>
      </trkpt>
      <trkpt lat="53.482097106" lon="6.172444903">
        <time>2018-08-26T09:43:35Z</time>
      </trkpt>
      <trkpt lat="53.482137692" lon="6.172711177">
        <time>2018-08-26T09:43:39Z</time>
      </trkpt>
      <trkpt lat="53.482245107" lon="6.173188399">
        <time>2018-08-26T09:43:46Z</time>
      </trkpt>
      <trkpt lat="53.482377601" lon="6.173667072">
        <time>2018-08-26T09:43:53Z</time>
      </trkpt>
      <trkpt lat="53.482578249" lon="6.174291807">
        <time>2018-08-26T09:44:03Z</time>
      </trkpt>
      <trkpt lat="53.482678019" lon="6.174529025">
        <time>2018-08-26T09:44:07Z</time>
      </trkpt>
      <trkpt lat="53.482891177" lon="6.174951466">
        <time>2018-08-26T09:44:15Z</time>
      </trkpt>
      <trkpt lat="53.483070394" lon="6.175396310">
        <time>2018-08-26T09:44:22Z</time>
      </trkpt>
      <trkpt lat="53.483137054" lon="6.175615375">
        <time>2018-08-26T09:44:26Z</time>
      </trkpt>
      <trkpt lat="53.483174202" lon="6.175844915">
        <time>2018-08-26T09:44:30Z</time>
      </trkpt>
      <trkpt lat="53.483190366" lon="6.176077302">
        <time>2018-08-26T09:44:34Z</time>
      </trkpt>
      <trkpt lat="53.483223251" lon="6.176310656">
        <time>2018-08-26T09:44:38Z</time>
      </trkpt>
      <trkpt lat="53.483281215" lon="6.176545463">
        <time>2018-08-26T09:44:42Z</time>
      </trkpt>
      <trkpt lat="53.483385743" lon="6.176754541">
        <time>2018-08-26T09:44:47Z</time>
      </trkpt>
      <trkpt lat="53.483651385" lon="6.177066339">
        <time>2018-08-26T09:44:57Z</time>
      </trkpt>
      <trkpt lat="53.483781658" lon="6.177244425">
        <time>2018-08-26T09:45:02Z</time>
      </trkpt>
      <trkpt lat="53.483904901" lon="6.177357136">
        <time>2018-08-26T09:45:06Z</time>
      </trkpt>
      <trkpt lat="53.484058651" lon="6.177410703">
        <time>2018-08-26T09:45:10Z</time>
      </trkpt>
      <trkpt lat="53.484234051" lon="6.177428977">
        <time>2018-08-26T09:45:13Z</time>
      </trkpt>
      <trkpt lat="53.484362721" lon="6.177481093">
        <time>2018-08-26T09:45:15Z</time>
      </trkpt>
      <trkpt lat="53.484502851" lon="6.177586661">
        <time>2018-08-26T09:45:17Z</time>
      </trkpt>
      <trkpt lat="53.484662634" lon="6.177754278">
        <time>2018-08-26T09:45:19Z</time>
      </trkpt>
      <trkpt lat="53.484788976" lon="6.177919959">
        <time>2018-08-26T09:45:21Z</time>
      </trkpt>
      <trkpt lat="53.484872518" lon="6.178131893">
        <time>2018-08-26T09:45:23Z</time>
      </trkpt>
      <trkpt lat="53.484938176" lon="6.178399641">
        <time>2018-08-26T09:45:26Z</time>
      </trkpt>
      <trkpt lat="53.485166548" lon="6.178896093">
        <time>2018-08-26T09:45:31Z</time>
      </trkpt>
      <trkpt lat="53.485320298" lon="6.178949666">
        <time>2018-08-26T09:45:34Z</time>
      </trkpt>
      <trkpt lat="53.485484072" lon="6.178922603">
        <time>2018-08-26T09:45:37Z</time>
      </trkpt>
      <trkpt lat="53.485651278" lon="6.178932287">
        <time>2018-08-26T09:45:40Z</time>
      </trkpt>
      <trkpt lat="53.485809458" lon="6.178973933">
        <time>2018-08-26T09:45:43Z</time>
      </trkpt>
      <trkpt lat="53.485970737" lon="6.179068550">
        <time>2018-08-26T09:45:46Z</time>
      </trkpt>
      <trkpt lat="53.486124653" lon="6.179114011">
        <time>2018-08-26T09:45:49Z</time>
      </trkpt>
      <trkpt lat="53.486398713" lon="6.179219221">
        <time>2018-08-26T09:45:55Z</time>
      </trkpt>
      <trkpt lat="53.486577544" lon="6.179274247">
        <time>2018-08-26T09:45:59Z</time>
      </trkpt>
      <trkpt lat="53.486730962" lon="6.179344045">
        <time>2018-08-26T09:46:02Z</time>
      </trkpt>
      <trkpt lat="53.486858800" lon="6.179436727">
        <time>2018-08-26T09:46:05Z</time>
      </trkpt>
      <trkpt lat="53.487028273" lon="6.179539943">
        <time>2018-08-26T09:46:09Z</time>
      </trkpt>
      <trkpt lat="53.487151515" lon="6.179652665">
        <time>2018-08-26T09:46:12Z</time>
      </trkpt>
      <trkpt lat="53.487300502" lon="6.179734391">
        <time>2018-08-26T09:46:15Z</time>
      </trkpt>
      <trkpt lat="53.487604510" lon="6.180011901">
        <time>2018-08-26T09:46:22Z</time>
      </trkpt>
      <trkpt lat="53.487701673" lon="6.180171846">
        <time>2018-08-26T09:46:25Z</time>
      </trkpt>
      <trkpt lat="53.487790142" lon="6.180347532">
        <time>2018-08-26T09:46:29Z</time>
      </trkpt>
      <trkpt lat="53.487904191" lon="6.180500335">
        <time>2018-08-26T09:46:33Z</time>
      </trkpt>
      <trkpt lat="53.488021506" lon="6.180697999">
        <time>2018-08-26T09:46:37Z</time>
      </trkpt>
      <trkpt lat="53.488164400" lon="6.180872780">
        <time>2018-08-26T09:46:41Z</time>
      </trkpt>
      <trkpt lat="53.488270088" lon="6.181025100">
        <time>2018-08-26T09:46:44Z</time>
      </trkpt>
      <trkpt lat="53.488417079" lon="6.181204181">
        <time>2018-08-26T09:46:47Z</time>
      </trkpt>
      <trkpt lat="53.488559473" lon="6.181403302">
        <time>2018-08-26T09:46:50Z</time>
      </trkpt>
      <trkpt lat="53.488811152" lon="6.181783384">
        <time>2018-08-26T09:46:56Z</time>
      </trkpt>
      <trkpt lat="53.488958974" lon="6.181921907">
        <time>2018-08-26T09:46:59Z</time>
      </trkpt>
      <trkpt lat="53.489081216" lon="6.182083313">
        <time>2018-08-26T09:47:02Z</time>
      </trkpt>
      <trkpt lat="53.489334892" lon="6.182366051">
        <time>2018-08-26T09:47:09Z</time>
      </trkpt>
      <trkpt lat="53.489473521" lon="6.182544655">
        <time>2018-08-26T09:47:13Z</time>
      </trkpt>
      <trkpt lat="53.489592331" lon="6.182669316">
        <time>2018-08-26T09:47:16Z</time>
      </trkpt>
      <trkpt lat="53.489987797" lon="6.182976524">
        <time>2018-08-26T09:47:25Z</time>
      </trkpt>
      <trkpt lat="53.490131688" lon="6.183102640">
        <time>2018-08-26T09:47:28Z</time>
      </trkpt>
      <trkpt lat="53.490330170" lon="6.183219739">
        <time>2018-08-26T09:47:31Z</time>
      </trkpt>
      <trkpt lat="53.490489449" lon="6.183411730">
        <time>2018-08-26T09:47:34Z</time>
      </trkpt>
      <trkpt lat="53.490663017" lon="6.183519263">
        <time>2018-08-26T09:47:37Z</time>
      </trkpt>
      <trkpt lat="53.490980309" lon="6.183761031">
        <time>2018-08-26T09:47:43Z</time>
      </trkpt>
      <trkpt lat="53.491137988" lon="6.183827031">
        <time>2018-08-26T09:47:46Z</time>
      </trkpt>
      <trkpt lat="53.491298100" lon="6.183978461">
        <time>2018-08-26T09:47:49Z</time>
      </trkpt>
      <trkpt lat="53.491450850" lon="6.184080729">
        <time>2018-08-26T09:47:52Z</time>
      </trkpt>
      <trkpt lat="53.491579185" lon="6.184149091">
        <time>2018-08-26T09:47:54Z</time>
      </trkpt>
      <trkpt lat="53.491757682" lon="6.184220362">
        <time>2018-08-26T09:47:57Z</time>
      </trkpt>
      <trkpt lat="53.491931582" lon="6.184311674">
        <time>2018-08-26T09:48:00Z</time>
      </trkpt>
      <trkpt lat="53.492127632" lon="6.184343349">
        <time>2018-08-26T09:48:03Z</time>
      </trkpt>
      <trkpt lat="53.492268591" lon="6.184408382">
        <time>2018-08-26T09:48:05Z</time>
      </trkpt>
      <trkpt lat="53.492850313" lon="6.184612696">
        <time>2018-08-26T09:48:13Z</time>
      </trkpt>
      <trkpt lat="53.493003729" lon="6.184682514">
        <time>2018-08-26T09:48:15Z</time>
      </trkpt>
      <trkpt lat="53.493284648" lon="6.184861265">
        <time>2018-08-26T09:48:19Z</time>
      </trkpt>
      <trkpt lat="53.493608533" lon="6.184985647">
        <time>2018-08-26T09:48:24Z</time>
      </trkpt>
      <trkpt lat="53.493803085" lon="6.185090345">
        <time>2018-08-26T09:48:27Z</time>
      </trkpt>
      <trkpt lat="53.493981914" lon="6.185145393">
        <time>2018-08-26T09:48:30Z</time>
      </trkpt>
      <trkpt lat="53.494164175" lon="6.185237194">
        <time>2018-08-26T09:48:33Z</time>
      </trkpt>
      <trkpt lat="53.494330215" lon="6.185303686">
        <time>2018-08-26T09:48:36Z</time>
      </trkpt>
      <trkpt lat="53.494488394" lon="6.185345352">
        <time>2018-08-26T09:48:39Z</time>
      </trkpt>
      <trkpt lat="53.494667723" lon="6.185376060">
        <time>2018-08-26T09:48:42Z</time>
      </trkpt>
      <trkpt lat="53.494809182" lon="6.185416757">
        <time>2018-08-26T09:48:45Z</time>
      </trkpt>
      <trkpt lat="53.494958001" lon="6.185506621">
        <time>2018-08-26T09:48:48Z</time>
      </trkpt>
      <trkpt lat="53.495285984" lon="6.185635307">
        <time>2018-08-26T09:48:54Z</time>
      </trkpt>
      <trkpt lat="53.495610868" lon="6.185711012">
        <time>2018-08-26T09:49:01Z</time>
      </trkpt>
      <trkpt lat="53.495751827" lon="6.185776051">
        <time>2018-08-26T09:49:04Z</time>
      </trkpt>
      <trkpt lat="53.495893452" lon="6.185808635">
        <time>2018-08-26T09:49:07Z</time>
      </trkpt>
      <trkpt lat="53.496050632" lon="6.185898986">
        <time>2018-08-26T09:49:10Z</time>
      </trkpt>
      <trkpt lat="53.496127241" lon="6.186244620">
        <time>2018-08-26T09:49:14Z</time>
      </trkpt>
      <trkpt lat="53.496150756" lon="6.186526249">
        <time>2018-08-26T09:49:17Z</time>
      </trkpt>
      <trkpt lat="53.496208044" lon="6.186793589">
        <time>2018-08-26T09:49:20Z</time>
      </trkpt>
      <trkpt lat="53.496320590" lon="6.187019457">
        <time>2018-08-26T09:49:23Z</time>
      </trkpt>
      <trkpt lat="53.496443329" lon="6.187156556">
        <time>2018-08-26T09:49:26Z</time>
      </trkpt>
      <trkpt lat="53.496577525" lon="6.187347125">
        <time>2018-08-26T09:49:29Z</time>
      </trkpt>
      <trkpt lat="53.496670253" lon="6.187519041">
        <time>2018-08-26T09:49:33Z</time>
      </trkpt>
      <trkpt lat="53.496644437" lon="6.187757193">
        <time>2018-08-26T09:49:37Z</time>
      </trkpt>
      <trkpt lat="53.496525089" lon="6.188270183">
        <time>2018-08-26T09:49:46Z</time>
      </trkpt>
      <trkpt lat="53.496352147" lon="6.188743503">
        <time>2018-08-26T09:49:53Z</time>
      </trkpt>
      <trkpt lat="53.496260613" lon="6.188920971">
        <time>2018-08-26T09:49:56Z</time>
      </trkpt>
      <trkpt lat="53.496185133" lon="6.189131865">
        <time>2018-08-26T09:49:59Z</time>
      </trkpt>
      <trkpt lat="53.496141760" lon="6.189409611">
        <time>2018-08-26T09:50:03Z</time>
      </trkpt>
      <trkpt lat="53.496123300" lon="6.189696928">
        <time>2018-08-26T09:50:07Z</time>
      </trkpt>
      <trkpt lat="53.496072566" lon="6.189925504">
        <time>2018-08-26T09:50:10Z</time>
      </trkpt>
      <trkpt lat="53.496050675" lon="6.190176065">
        <time>2018-08-26T09:50:14Z</time>
      </trkpt>
      <trkpt lat="53.496007300" lon="6.190453809">
        <time>2018-08-26T09:50:18Z</time>
      </trkpt>
      <trkpt lat="53.495914763" lon="6.190679956">
        <time>2018-08-26T09:50:22Z</time>
      </trkpt>
      <trkpt lat="53.495847807" lon="6.190883216">
        <time>2018-08-26T09:50:25Z</time>
      </trkpt>
      <trkpt lat="53.495760033" lon="6.191081205">
        <time>2018-08-26T09:50:28Z</time>
      </trkpt>
      <trkpt lat="53.495692910" lon="6.191292579">
        <time>2018-08-26T09:50:31Z</time>
      </trkpt>
      <trkpt lat="53.495605136" lon="6.191490566">
        <time>2018-08-26T09:50:34Z</time>
      </trkpt>
      <trkpt lat="53.495579479" lon="6.191720595">
        <time>2018-08-26T09:50:37Z</time>
      </trkpt>
      <trkpt lat="53.495506922" lon="6.191992577">
        <time>2018-08-26T09:50:41Z</time>
      </trkpt>
      <trkpt lat="53.495444227" lon="6.192192020">
        <time>2018-08-26T09:50:44Z</time>
      </trkpt>
      <trkpt lat="53.495352689" lon="6.192369477">
        <time>2018-08-26T09:50:47Z</time>
      </trkpt>
      <trkpt lat="53.495228210" lon="6.192520647">
        <time>2018-08-26T09:50:50Z</time>
      </trkpt>
      <trkpt lat="53.495111924" lon="6.192680416">
        <time>2018-08-26T09:50:53Z</time>
      </trkpt>
      <trkpt lat="53.494956185" lon="6.193130333">
        <time>2018-08-26T09:51:00Z</time>
      </trkpt>
      <trkpt lat="53.494892987" lon="6.193354112">
        <time>2018-08-26T09:51:03Z</time>
      </trkpt>
      <trkpt lat="53.494636509" lon="6.194021556">
        <time>2018-08-26T09:51:12Z</time>
      </trkpt>
      <trkpt lat="53.494597889" lon="6.194271132">
        <time>2018-08-26T09:51:15Z</time>
      </trkpt>
      <trkpt lat="53.494514540" lon="6.194457181">
        <time>2018-08-26T09:51:18Z</time>
      </trkpt>
      <trkpt lat="53.494287984" lon="6.194890778">
        <time>2018-08-26T09:51:25Z</time>
      </trkpt>
      <trkpt lat="53.494223779" lon="6.195163233">
        <time>2018-08-26T09:51:29Z</time>
      </trkpt>
      <trkpt lat="53.494156815" lon="6.195366478">
        <time>2018-08-26T09:51:32Z</time>
      </trkpt>
      <trkpt lat="53.493797745" lon="6.195934507">
        <time>2018-08-26T09:51:43Z</time>
      </trkpt>
      <trkpt lat="53.493652445" lon="6.196080386">
        <time>2018-08-26T09:51:48Z</time>
      </trkpt>
      <trkpt lat="53.493524867" lon="6.196178558">
        <time>2018-08-26T09:51:53Z</time>
      </trkpt>
      <trkpt lat="53.493167133" lon="6.196275510">
        <time>2018-08-26T09:52:02Z</time>
      </trkpt>
      <trkpt lat="53.493035124" lon="6.196385606">
        <time>2018-08-26T09:52:05Z</time>
      </trkpt>
      <trkpt lat="53.492935219" lon="6.196562555">
        <time>2018-08-26T09:52:08Z</time>
      </trkpt>
      <trkpt lat="53.492695106" lon="6.197247146">
        <time>2018-08-26T09:52:19Z</time>
      </trkpt>
      <trkpt lat="53.492586169" lon="6.197456058">
        <time>2018-08-26T09:52:23Z</time>
      </trkpt>
      <trkpt lat="53.492352411" lon="6.197832337">
        <time>2018-08-26T09:52:31Z</time>
      </trkpt>
      <trkpt lat="53.492207108" lon="6.197978204">
        <time>2018-08-26T09:52:36Z</time>
      </trkpt>
      <trkpt lat="53.492055620" lon="6.198018112">
        <time>2018-08-26T09:52:40Z</time>
      </trkpt>
      <trkpt lat="53.491878381" lon="6.198089010">
        <time>2018-08-26T09:52:44Z</time>
      </trkpt>
      <trkpt lat="53.491750969" lon="6.198179057">
        <time>2018-08-26T09:52:47Z</time>
      </trkpt>
      <trkpt lat="53.491492128" lon="6.198553862">
        <time>2018-08-26T09:52:54Z</time>
      </trkpt>
      <trkpt lat="53.491308024" lon="6.198957387">
        <time>2018-08-26T09:53:02Z</time>
      </trkpt>
      <trkpt lat="53.491151756" lon="6.199431576">
        <time>2018-08-26T09:53:09Z</time>
      </trkpt>
      <trkpt lat="53.490858037" lon="6.200076442">
        <time>2018-08-26T09:53:20Z</time>
      </trkpt>
      <trkpt lat="53.490765312" lon="6.200310650">
        <time>2018-08-26T09:53:24Z</time>
      </trkpt>
      <trkpt lat="53.490560720" lon="6.200692659">
        <time>2018-08-26T09:53:31Z</time>
      </trkpt>
      <trkpt lat="53.490363817" lon="6.201107603">
        <time>2018-08-26T09:53:39Z</time>
      </trkpt>
      <trkpt lat="53.490251447" lon="6.201279740">
        <time>2018-08-26T09:53:42Z</time>
      </trkpt>
      <trkpt lat="53.490146599" lon="6.201492929">
        <time>2018-08-26T09:53:46Z</time>
      </trkpt>
      <trkpt lat="53.490013579" lon="6.201651675">
        <time>2018-08-26T09:53:50Z</time>
      </trkpt>
      <trkpt lat="53.489860581" lon="6.201764580">
        <time>2018-08-26T09:53:55Z</time>
      </trkpt>
      <trkpt lat="53.489585605" lon="6.201906913">
        <time>2018-08-26T09:54:03Z</time>
      </trkpt>
      <trkpt lat="53.489354178" lon="6.202169561">
        <time>2018-08-26T09:54:08Z</time>
      </trkpt>
      <trkpt lat="53.489270815" lon="6.202355568">
        <time>2018-08-26T09:54:11Z</time>
      </trkpt>
      <trkpt lat="53.489219886" lon="6.202592203">
        <time>2018-08-26T09:54:15Z</time>
      </trkpt>
      <trkpt lat="53.489165741" lon="6.203389092">
        <time>2018-08-26T09:54:27Z</time>
      </trkpt>
      <trkpt lat="53.489135962" lon="6.203614777">
        <time>2018-08-26T09:54:30Z</time>
      </trkpt>
      <trkpt lat="53.489108769" lon="6.203917776">
        <time>2018-08-26T09:54:34Z</time>
      </trkpt>
      <trkpt lat="53.489128144" lon="6.204195068">
        <time>2018-08-26T09:54:38Z</time>
      </trkpt>
      <trkpt lat="53.489093932" lon="6.204432677">
        <time>2018-08-26T09:54:42Z</time>
      </trkpt>
      <trkpt lat="53.489092388" lon="6.204911805">
        <time>2018-08-26T09:54:50Z</time>
      </trkpt>
      <trkpt lat="53.489069120" lon="6.205227215">
        <time>2018-08-26T09:54:54Z</time>
      </trkpt>
      <trkpt lat="53.489059147" lon="6.205506853">
        <time>2018-08-26T09:54:58Z</time>
      </trkpt>
      <trkpt lat="53.489015228" lon="6.205808872">
        <time>2018-08-26T09:55:02Z</time>
      </trkpt>
      <trkpt lat="53.488997230" lon="6.206071795">
        <time>2018-08-26T09:55:06Z</time>
      </trkpt>
      <trkpt lat="53.488950390" lon="6.206312725">
        <time>2018-08-26T09:55:10Z</time>
      </trkpt>
      <trkpt lat="53.488877965" lon="6.206576525">
        <time>2018-08-26T09:55:14Z</time>
      </trkpt>
      <trkpt lat="53.488671232" lon="6.207262946">
        <time>2018-08-26T09:55:25Z</time>
      </trkpt>
      <trkpt lat="53.488616534" lon="6.207479047">
        <time>2018-08-26T09:55:29Z</time>
      </trkpt>
      <trkpt lat="53.488409123" lon="6.208197909">
        <time>2018-08-26T09:55:41Z</time>
      </trkpt>
      <trkpt lat="53.488324742" lon="6.208432575">
        <time>2018-08-26T09:55:45Z</time>
      </trkpt>
      <trkpt lat="53.488224313" lon="6.208633811">
        <time>2018-08-26T09:55:49Z</time>
      </trkpt>
      <trkpt lat="53.488103235" lon="6.208821654">
        <time>2018-08-26T09:55:53Z</time>
      </trkpt>
      <trkpt lat="53.487894351" lon="6.209207408">
        <time>2018-08-26T09:56:01Z</time>
      </trkpt>
      <trkpt lat="53.487761320" lon="6.209366121">
        <time>2018-08-26T09:56:06Z</time>
      </trkpt>
      <trkpt lat="53.487621612" lon="6.209443220">
        <time>2018-08-26T09:56:10Z</time>
      </trkpt>
      <trkpt lat="53.487479489" lon="6.209434897">
        <time>2018-08-26T09:56:14Z</time>
      </trkpt>
      <trkpt lat="53.487327324" lon="6.209507205">
        <time>2018-08-26T09:56:19Z</time>
      </trkpt>
      <trkpt lat="53.487351117" lon="6.209772564">
        <time>2018-08-26T09:56:23Z</time>
      </trkpt>
      <trkpt lat="53.487354262" lon="6.210024531">
        <time>2018-08-26T09:56:27Z</time>
      </trkpt>
      <trkpt lat="53.487336927" lon="6.210254993">
        <time>2018-08-26T09:56:31Z</time>
      </trkpt>
      <trkpt lat="53.487293837" lon="6.210516434">
        <time>2018-08-26T09:56:35Z</time>
      </trkpt>
      <trkpt lat="53.487241097" lon="6.211041274">
        <time>2018-08-26T09:56:43Z</time>
      </trkpt>
      <trkpt lat="53.487206366" lon="6.211303204">
        <time>2018-08-26T09:56:47Z</time>
      </trkpt>
      <trkpt lat="53.487184091" lon="6.211569924">
        <time>2018-08-26T09:56:51Z</time>
      </trkpt>
      <trkpt lat="53.487240029" lon="6.212101134">
        <time>2018-08-26T09:56:59Z</time>
      </trkpt>
      <trkpt lat="53.487230544" lon="6.212356421">
        <time>2018-08-26T09:57:03Z</time>
      </trkpt>
      <trkpt lat="53.486984112" lon="6.212735887">
        <time>2018-08-26T09:57:11Z</time>
      </trkpt>
      <trkpt lat="53.486892373" lon="6.212921373">
        <time>2018-08-26T09:57:14Z</time>
      </trkpt>
      <trkpt lat="53.486775047" lon="6.213129722">
        <time>2018-08-26T09:57:18Z</time>
      </trkpt>
      <trkpt lat="53.486543984" lon="6.213575056">
        <time>2018-08-26T09:57:26Z</time>
      </trkpt>
      <trkpt lat="53.486428174" lon="6.213710394">
        <time>2018-08-26T09:57:29Z</time>
      </trkpt>
      <trkpt lat="53.486315785" lon="6.213882481">
        <time>2018-08-26T09:57:33Z</time>
      </trkpt>
      <trkpt lat="53.486249276" lon="6.214666396">
        <time>2018-08-26T09:57:45Z</time>
      </trkpt>
      <trkpt lat="53.486234678" lon="6.214966047">
        <time>2018-08-26T09:57:49Z</time>
      </trkpt>
      <trkpt lat="53.486265977" lon="6.215272453">
        <time>2018-08-26T09:57:53Z</time>
      </trkpt>
      <trkpt lat="53.486272531" lon="6.215561163">
        <time>2018-08-26T09:57:57Z</time>
      </trkpt>
      <trkpt lat="53.486245813" lon="6.215839798">
        <time>2018-08-26T09:58:00Z</time>
      </trkpt>
      <trkpt lat="53.486268629" lon="6.216352814">
        <time>2018-08-26T09:58:06Z</time>
      </trkpt>
      <trkpt lat="53.486236970" lon="6.216667706">
        <time>2018-08-26T09:58:09Z</time>
      </trkpt>
      <trkpt lat="53.486287440" lon="6.217259504">
        <time>2018-08-26T09:58:15Z</time>
      </trkpt>
      <trkpt lat="53.486276426" lon="6.217587792">
        <time>2018-08-26T09:58:18Z</time>
      </trkpt>
      <trkpt lat="53.486257557" lon="6.217891253">
        <time>2018-08-26T09:58:21Z</time>
      </trkpt>
      <trkpt lat="53.486310002" lon="6.218186721">
        <time>2018-08-26T09:58:24Z</time>
      </trkpt>
      <trkpt lat="53.486443134" lon="6.218426019">
        <time>2018-08-26T09:58:27Z</time>
      </trkpt>
      <trkpt lat="53.486499504" lon="6.218733903">
        <time>2018-08-26T09:58:30Z</time>
      </trkpt>
      <trkpt lat="53.486572595" lon="6.219042771">
        <time>2018-08-26T09:58:33Z</time>
      </trkpt>
      <trkpt lat="53.486637155" lon="6.219359260">
        <time>2018-08-26T09:58:36Z</time>
      </trkpt>
      <trkpt lat="53.486665868" lon="6.219588362">
        <time>2018-08-26T09:58:38Z</time>
      </trkpt>
      <trkpt lat="53.486659619" lon="6.219888506">
        <time>2018-08-26T09:58:41Z</time>
      </trkpt>
      <trkpt lat="53.486604392" lon="6.220128916">
        <time>2018-08-26T09:58:44Z</time>
      </trkpt>
      <trkpt lat="53.486569811" lon="6.220382723">
        <time>2018-08-26T09:58:50Z</time>
      </trkpt>
    </trkseg>
  </trk>
</gpx>
