<?xml version="1.0" encoding="UTF-8"?>
<gpx version="1.1" creator="GPSBabel - https://www.gpsbabel.org" xmlns="http://www.topografix.com/GPX/1/1" xmlns:xsi="http://www.w3.org/2001/XMLSchema-instance">
  <metadata>
    <name>Tour</name>
    <time>2025-08-29T17:45:12.094Z</time>
    <bounds minlat="48.689021000" minlon="2.422572000" maxlat="48.704156000" maxlon="2.463873000"/>
  </metadata>
  <trk>
    <name>Tour</name>
    <trkseg>
      <trkpt lat="48.690343000" lon="2.422624000">
        <ele>58.601</ele>
        <time>2022-10-15T07:21:43.772Z</time>
      </trkpt>
      <trkpt lat="48.690251000" lon="2.422605000">
        <ele>58.601</ele>
        <time>2022-10-15T07:21:53.271Z</time>
      </trkpt>
      <trkpt lat="48.690160000" lon="2.422640000">
        <ele>58.601</ele>
        <time>2022-10-15T07:21:57.071Z</time>
      </trkpt>
      <trkpt lat="48.690066000" lon="2.422572000">
        <ele>58.601</ele>
        <time>2022-10-15T07:22:01.999Z</time>
      </trkpt>
      <trkpt lat="48.689972000" lon="2.422583000">
        <ele>58.601</ele>
        <time>2022-10-15T07:22:06.999Z</time>
      </trkpt>
      <trkpt lat="48.689817000" lon="2.422781000">
        <ele>58.601</ele>
        <time>2022-10-15T07:22:15.998Z</time>
      </trkpt>
      <trkpt lat="48.689735000" lon="2.422908000">
        <ele>58.601</ele>
        <time>2022-10-15T07:22:19.999Z</time>
      </trkpt>
      <trkpt lat="48.689638000" lon="2.422989000">
        <ele>58.601</ele>
        <time>2022-10-15T07:22:23.999Z</time>
      </trkpt>
      <trkpt lat="48.689559000" lon="2.423075000">
        <ele>58.599</ele>
        <time>2022-10-15T07:22:27.999Z</time>
      </trkpt>
      <trkpt lat="48.689527000" lon="2.423204000">
        <ele>58.584</ele>
        <time>2022-10-15T07:22:42.999Z</time>
      </trkpt>
      <trkpt lat="48.689600000" lon="2.423342000">
        <ele>58.565</ele>
        <time>2022-10-15T07:22:46.999Z</time>
      </trkpt>
      <trkpt lat="48.689814000" lon="2.423617000">
        <ele>58.519</ele>
        <time>2022-10-15T07:22:55.999Z</time>
      </trkpt>
      <trkpt lat="48.689880000" lon="2.423731000">
        <ele>58.502</ele>
        <time>2022-10-15T07:22:58.999Z</time>
      </trkpt>
      <trkpt lat="48.690179000" lon="2.424147000">
        <ele>58.435</ele>
        <time>2022-10-15T07:23:10.999Z</time>
      </trkpt>
      <trkpt lat="48.690251000" lon="2.424259000">
        <ele>58.418</ele>
        <time>2022-10-15T07:23:13.999Z</time>
      </trkpt>
      <trkpt lat="48.690408000" lon="2.424471000">
        <ele>58.383</ele>
        <time>2022-10-15T07:23:19.999Z</time>
      </trkpt>
      <trkpt lat="48.690711000" lon="2.424914000">
        <ele>58.314</ele>
        <time>2022-10-15T07:23:31.999Z</time>
      </trkpt>
      <trkpt lat="48.690859000" lon="2.425113000">
        <ele>58.525</ele>
        <time>2022-10-15T07:23:38.999Z</time>
      </trkpt>
      <trkpt lat="48.690841000" lon="2.425256000">
        <ele>58.675</ele>
        <time>2022-10-15T07:23:42.998Z</time>
      </trkpt>
      <trkpt lat="48.690680000" lon="2.425459000">
        <ele>59.000</ele>
        <time>2022-10-15T07:23:50Z</time>
      </trkpt>
      <trkpt lat="48.690551000" lon="2.425672000">
        <ele>59.296</ele>
        <time>2022-10-15T07:23:56Z</time>
      </trkpt>
      <trkpt lat="48.690413000" lon="2.426099000">
        <ele>59.783</ele>
        <time>2022-10-15T07:24:08Z</time>
      </trkpt>
      <trkpt lat="48.690353000" lon="2.426244000">
        <ele>59.958</ele>
        <time>2022-10-15T07:24:12Z</time>
      </trkpt>
      <trkpt lat="48.690306000" lon="2.426397000">
        <ele>60.131</ele>
        <time>2022-10-15T07:24:15.999Z</time>
      </trkpt>
      <trkpt lat="48.690221000" lon="2.426490000">
        <ele>60.294</ele>
        <time>2022-10-15T07:24:18.999Z</time>
      </trkpt>
      <trkpt lat="48.690159000" lon="2.426589000">
        <ele>60.434</ele>
        <time>2022-10-15T07:24:21.999Z</time>
      </trkpt>
      <trkpt lat="48.690016000" lon="2.426773000">
        <ele>60.725</ele>
        <time>2022-10-15T07:24:27.999Z</time>
      </trkpt>
      <trkpt lat="48.689890000" lon="2.426982000">
        <ele>61.015</ele>
        <time>2022-10-15T07:24:33.999Z</time>
      </trkpt>
      <trkpt lat="48.689770000" lon="2.427227000">
        <ele>61.239</ele>
        <time>2022-10-15T07:24:42.999Z</time>
      </trkpt>
      <trkpt lat="48.689825000" lon="2.427360000">
        <ele>61.339</ele>
        <time>2022-10-15T07:24:46.999Z</time>
      </trkpt>
      <trkpt lat="48.690089000" lon="2.427604000">
        <ele>61.637</ele>
        <time>2022-10-15T07:24:56.999Z</time>
      </trkpt>
      <trkpt lat="48.690230000" lon="2.427796000">
        <ele>61.819</ele>
        <time>2022-10-15T07:25:02.999Z</time>
      </trkpt>
      <trkpt lat="48.690493000" lon="2.428248000">
        <ele>62.202</ele>
        <time>2022-10-15T07:25:15.999Z</time>
      </trkpt>
      <trkpt lat="48.690810000" lon="2.428753000">
        <ele>62.645</ele>
        <time>2022-10-15T07:25:31.999Z</time>
      </trkpt>
      <trkpt lat="48.690884000" lon="2.428896000">
        <ele>62.760</ele>
        <time>2022-10-15T07:25:35.999Z</time>
      </trkpt>
      <trkpt lat="48.691095000" lon="2.429219000">
        <ele>62.917</ele>
        <time>2022-10-15T07:25:47.998Z</time>
      </trkpt>
      <trkpt lat="48.691314000" lon="2.429577000">
        <ele>63.043</ele>
        <time>2022-10-15T07:26:00Z</time>
      </trkpt>
      <trkpt lat="48.691383000" lon="2.429713000">
        <ele>63.087</ele>
        <time>2022-10-15T07:26:04Z</time>
      </trkpt>
      <trkpt lat="48.691449000" lon="2.429819000">
        <ele>63.125</ele>
        <time>2022-10-15T07:26:07Z</time>
      </trkpt>
      <trkpt lat="48.691703000" lon="2.430296000">
        <ele>63.283</ele>
        <time>2022-10-15T07:26:19Z</time>
      </trkpt>
      <trkpt lat="48.691789000" lon="2.430408000">
        <ele>63.328</ele>
        <time>2022-10-15T07:26:22Z</time>
      </trkpt>
      <trkpt lat="48.692074000" lon="2.430883000">
        <ele>63.494</ele>
        <time>2022-10-15T07:26:33.999Z</time>
      </trkpt>
      <trkpt lat="48.692187000" lon="2.431127000">
        <ele>63.672</ele>
        <time>2022-10-15T07:26:39.999Z</time>
      </trkpt>
      <trkpt lat="48.692272000" lon="2.431229000">
        <ele>63.820</ele>
        <time>2022-10-15T07:26:42.999Z</time>
      </trkpt>
      <trkpt lat="48.692335000" lon="2.431339000">
        <ele>63.952</ele>
        <time>2022-10-15T07:26:45.999Z</time>
      </trkpt>
      <trkpt lat="48.692394000" lon="2.431474000">
        <ele>64.098</ele>
        <time>2022-10-15T07:26:51.999Z</time>
      </trkpt>
      <trkpt lat="48.692535000" lon="2.431668000">
        <ele>64.359</ele>
        <time>2022-10-15T07:26:57.999Z</time>
      </trkpt>
      <trkpt lat="48.692607000" lon="2.431752000">
        <ele>64.483</ele>
        <time>2022-10-15T07:27:00.999Z</time>
      </trkpt>
      <trkpt lat="48.692815000" lon="2.432091000">
        <ele>64.901</ele>
        <time>2022-10-15T07:27:09.999Z</time>
      </trkpt>
      <trkpt lat="48.693041000" lon="2.432417000">
        <ele>65.328</ele>
        <time>2022-10-15T07:27:19.999Z</time>
      </trkpt>
      <trkpt lat="48.693058000" lon="2.432583000">
        <ele>65.480</ele>
        <time>2022-10-15T07:27:23.999Z</time>
      </trkpt>
      <trkpt lat="48.692927000" lon="2.432818000">
        <ele>65.757</ele>
        <time>2022-10-15T07:27:31.999Z</time>
      </trkpt>
      <trkpt lat="48.692710000" lon="2.433146000">
        <ele>66.491</ele>
        <time>2022-10-15T07:27:43.999Z</time>
      </trkpt>
      <trkpt lat="48.692650000" lon="2.433256000">
        <ele>66.838</ele>
        <time>2022-10-15T07:27:47.999Z</time>
      </trkpt>
      <trkpt lat="48.692592000" lon="2.433403000">
        <ele>67.254</ele>
        <time>2022-10-15T07:27:51.999Z</time>
      </trkpt>
      <trkpt lat="48.692335000" lon="2.433901000">
        <ele>68.791</ele>
        <time>2022-10-15T07:28:08Z</time>
      </trkpt>
      <trkpt lat="48.692287000" lon="2.434049000">
        <ele>69.192</ele>
        <time>2022-10-15T07:28:12Z</time>
      </trkpt>
      <trkpt lat="48.692214000" lon="2.434164000">
        <ele>69.580</ele>
        <time>2022-10-15T07:28:16Z</time>
      </trkpt>
      <trkpt lat="48.692031000" lon="2.434368000">
        <ele>70.417</ele>
        <time>2022-10-15T07:28:24Z</time>
      </trkpt>
      <trkpt lat="48.691947000" lon="2.434486000">
        <ele>70.839</ele>
        <time>2022-10-15T07:28:28Z</time>
      </trkpt>
      <trkpt lat="48.691769000" lon="2.434687000">
        <ele>71.656</ele>
        <time>2022-10-15T07:28:35.999Z</time>
      </trkpt>
      <trkpt lat="48.691509000" lon="2.434916000">
        <ele>72.713</ele>
        <time>2022-10-15T07:28:47.999Z</time>
      </trkpt>
      <trkpt lat="48.691327000" lon="2.435015000">
        <ele>73.186</ele>
        <time>2022-10-15T07:28:55.999Z</time>
      </trkpt>
      <trkpt lat="48.691060000" lon="2.435191000">
        <ele>73.897</ele>
        <time>2022-10-15T07:29:07.999Z</time>
      </trkpt>
      <trkpt lat="48.690957000" lon="2.435228000">
        <ele>74.156</ele>
        <time>2022-10-15T07:29:11.999Z</time>
      </trkpt>
      <trkpt lat="48.690607000" lon="2.435487000">
        <ele>75.108</ele>
        <time>2022-10-15T07:29:28.999Z</time>
      </trkpt>
      <trkpt lat="48.690442000" lon="2.435628000">
        <ele>75.571</ele>
        <time>2022-10-15T07:29:36.999Z</time>
      </trkpt>
      <trkpt lat="48.690329000" lon="2.435683000">
        <ele>75.861</ele>
        <time>2022-10-15T07:29:40.999Z</time>
      </trkpt>
      <trkpt lat="48.690141000" lon="2.435813000">
        <ele>76.366</ele>
        <time>2022-10-15T07:29:47.999Z</time>
      </trkpt>
      <trkpt lat="48.689952000" lon="2.435959000">
        <ele>76.885</ele>
        <time>2022-10-15T07:29:55.998Z</time>
      </trkpt>
      <trkpt lat="48.689772000" lon="2.436057000">
        <ele>77.119</ele>
        <time>2022-10-15T07:30:03.998Z</time>
      </trkpt>
      <trkpt lat="48.689675000" lon="2.436098000">
        <ele>77.198</ele>
        <time>2022-10-15T07:30:08Z</time>
      </trkpt>
      <trkpt lat="48.689377000" lon="2.436261000">
        <ele>77.446</ele>
        <time>2022-10-15T07:30:20.999Z</time>
      </trkpt>
      <trkpt lat="48.689268000" lon="2.436298000">
        <ele>77.533</ele>
        <time>2022-10-15T07:30:24.999Z</time>
      </trkpt>
      <trkpt lat="48.689087000" lon="2.436419000">
        <ele>77.688</ele>
        <time>2022-10-15T07:30:33Z</time>
      </trkpt>
      <trkpt lat="48.689021000" lon="2.436515000">
        <ele>77.760</ele>
        <time>2022-10-15T07:30:37Z</time>
      </trkpt>
      <trkpt lat="48.689078000" lon="2.436663000">
        <ele>77.849</ele>
        <time>2022-10-15T07:30:40.999Z</time>
      </trkpt>
      <trkpt lat="48.689163000" lon="2.436745000">
        <ele>77.928</ele>
        <time>2022-10-15T07:30:43.999Z</time>
      </trkpt>
      <trkpt lat="48.689201000" lon="2.436902000">
        <ele>78.014</ele>
        <time>2022-10-15T07:30:47.999Z</time>
      </trkpt>
      <trkpt lat="48.689334000" lon="2.437149000">
        <ele>78.179</ele>
        <time>2022-10-15T07:30:55.999Z</time>
      </trkpt>
      <trkpt lat="48.689588000" lon="2.437657000">
        <ele>78.338</ele>
        <time>2022-10-15T07:31:10.999Z</time>
      </trkpt>
      <trkpt lat="48.689654000" lon="2.437809000">
        <ele>78.256</ele>
        <time>2022-10-15T07:31:14.999Z</time>
      </trkpt>
      <trkpt lat="48.689897000" lon="2.438292000">
        <ele>77.982</ele>
        <time>2022-10-15T07:31:27.999Z</time>
      </trkpt>
      <trkpt lat="48.690120000" lon="2.438850000">
        <ele>77.688</ele>
        <time>2022-10-15T07:31:41.999Z</time>
      </trkpt>
      <trkpt lat="48.690201000" lon="2.438931000">
        <ele>77.622</ele>
        <time>2022-10-15T07:31:44.999Z</time>
      </trkpt>
      <trkpt lat="48.690191000" lon="2.439083000">
        <ele>77.553</ele>
        <time>2022-10-15T07:31:48.999Z</time>
      </trkpt>
      <trkpt lat="48.690101000" lon="2.439175000">
        <ele>77.479</ele>
        <time>2022-10-15T07:31:52.999Z</time>
      </trkpt>
      <trkpt lat="48.690040000" lon="2.439295000">
        <ele>77.411</ele>
        <time>2022-10-15T07:31:56.999Z</time>
      </trkpt>
      <trkpt lat="48.689993000" lon="2.439416000">
        <ele>77.348</ele>
        <time>2022-10-15T07:32:00.998Z</time>
      </trkpt>
      <trkpt lat="48.689916000" lon="2.439497000">
        <ele>77.284</ele>
        <time>2022-10-15T07:32:05.998Z</time>
      </trkpt>
      <trkpt lat="48.689850000" lon="2.439596000">
        <ele>77.220</ele>
        <time>2022-10-15T07:41:28.020Z</time>
      </trkpt>
      <trkpt lat="48.690063000" lon="2.439503000">
        <ele>76.712</ele>
        <time>2022-10-15T07:41:44.999Z</time>
      </trkpt>
      <trkpt lat="48.690127000" lon="2.439385000">
        <ele>76.440</ele>
        <time>2022-10-15T07:41:48.999Z</time>
      </trkpt>
      <trkpt lat="48.690219000" lon="2.439406000">
        <ele>76.189</ele>
        <time>2022-10-15T07:41:52.999Z</time>
      </trkpt>
      <trkpt lat="48.690322000" lon="2.439689000">
        <ele>75.614</ele>
        <time>2022-10-15T07:42:00.999Z</time>
      </trkpt>
      <trkpt lat="48.690396000" lon="2.439798000">
        <ele>75.335</ele>
        <time>2022-10-15T07:42:03.999Z</time>
      </trkpt>
      <trkpt lat="48.690458000" lon="2.439935000">
        <ele>75.039</ele>
        <time>2022-10-15T07:42:06.999Z</time>
      </trkpt>
      <trkpt lat="48.690558000" lon="2.440253000">
        <ele>74.412</ele>
        <time>2022-10-15T07:42:11.998Z</time>
      </trkpt>
      <trkpt lat="48.690644000" lon="2.440565000">
        <ele>73.809</ele>
        <time>2022-10-15T07:42:15.998Z</time>
      </trkpt>
      <trkpt lat="48.690836000" lon="2.441089000">
        <ele>72.742</ele>
        <time>2022-10-15T07:42:21.998Z</time>
      </trkpt>
      <trkpt lat="48.691063000" lon="2.441649000">
        <ele>70.944</ele>
        <time>2022-10-15T07:42:27.998Z</time>
      </trkpt>
      <trkpt lat="48.691209000" lon="2.442052000">
        <ele>69.455</ele>
        <time>2022-10-15T07:42:31.998Z</time>
      </trkpt>
      <trkpt lat="48.691366000" lon="2.442453000">
        <ele>67.945</ele>
        <time>2022-10-15T07:42:35.998Z</time>
      </trkpt>
      <trkpt lat="48.691502000" lon="2.442775000">
        <ele>66.707</ele>
        <time>2022-10-15T07:42:39.998Z</time>
      </trkpt>
      <trkpt lat="48.691564000" lon="2.442874000">
        <ele>66.265</ele>
        <time>2022-10-15T07:42:56.998Z</time>
      </trkpt>
      <trkpt lat="48.691626000" lon="2.443016000">
        <ele>65.713</ele>
        <time>2022-10-15T07:43:11.998Z</time>
      </trkpt>
      <trkpt lat="48.691697000" lon="2.443104000">
        <ele>65.263</ele>
        <time>2022-10-15T07:43:14.998Z</time>
      </trkpt>
      <trkpt lat="48.691761000" lon="2.443239000">
        <ele>64.725</ele>
        <time>2022-10-15T07:43:17.998Z</time>
      </trkpt>
      <trkpt lat="48.691939000" lon="2.443695000">
        <ele>63.441</ele>
        <time>2022-10-15T07:43:26.998Z</time>
      </trkpt>
      <trkpt lat="48.692296000" lon="2.444552000">
        <ele>62.984</ele>
        <time>2022-10-15T07:43:45.999Z</time>
      </trkpt>
      <trkpt lat="48.692359000" lon="2.444683000">
        <ele>62.910</ele>
        <time>2022-10-15T07:43:53.999Z</time>
      </trkpt>
      <trkpt lat="48.692475000" lon="2.444961000">
        <ele>62.762</ele>
        <time>2022-10-15T07:44:04.999Z</time>
      </trkpt>
      <trkpt lat="48.692556000" lon="2.445275000">
        <ele>62.610</ele>
        <time>2022-10-15T07:44:10.999Z</time>
      </trkpt>
      <trkpt lat="48.692594000" lon="2.445454000">
        <ele>62.525</ele>
        <time>2022-10-15T07:44:14.998Z</time>
      </trkpt>
      <trkpt lat="48.692770000" lon="2.446056000">
        <ele>62.589</ele>
        <time>2022-10-15T07:44:28.998Z</time>
      </trkpt>
      <trkpt lat="48.692741000" lon="2.446380000">
        <ele>63.439</ele>
        <time>2022-10-15T07:44:37.998Z</time>
      </trkpt>
      <trkpt lat="48.692748000" lon="2.446517000">
        <ele>63.796</ele>
        <time>2022-10-15T07:44:41.998Z</time>
      </trkpt>
      <trkpt lat="48.692773000" lon="2.446673000">
        <ele>64.213</ele>
        <time>2022-10-15T07:44:45.998Z</time>
      </trkpt>
      <trkpt lat="48.692808000" lon="2.446814000">
        <ele>64.604</ele>
        <time>2022-10-15T07:44:49.998Z</time>
      </trkpt>
      <trkpt lat="48.692823000" lon="2.446984000">
        <ele>65.049</ele>
        <time>2022-10-15T07:44:53.998Z</time>
      </trkpt>
      <trkpt lat="48.692993000" lon="2.447156000">
        <ele>65.854</ele>
        <time>2022-10-15T07:45:00.998Z</time>
      </trkpt>
      <trkpt lat="48.693051000" lon="2.447271000">
        <ele>66.230</ele>
        <time>2022-10-15T07:45:03.998Z</time>
      </trkpt>
      <trkpt lat="48.693098000" lon="2.447433000">
        <ele>66.689</ele>
        <time>2022-10-15T07:45:07.998Z</time>
      </trkpt>
      <trkpt lat="48.693291000" lon="2.448004000">
        <ele>68.356</ele>
        <time>2022-10-15T07:45:23.998Z</time>
      </trkpt>
      <trkpt lat="48.693316000" lon="2.448144000">
        <ele>68.733</ele>
        <time>2022-10-15T07:45:30.998Z</time>
      </trkpt>
      <trkpt lat="48.693571000" lon="2.448364000">
        <ele>70.050</ele>
        <time>2022-10-15T07:46:52.998Z</time>
      </trkpt>
      <trkpt lat="48.693636000" lon="2.448463000">
        <ele>70.525</ele>
        <time>2022-10-15T07:46:55.998Z</time>
      </trkpt>
      <trkpt lat="48.693781000" lon="2.448738000">
        <ele>71.722</ele>
        <time>2022-10-15T07:47:03.998Z</time>
      </trkpt>
      <trkpt lat="48.693835000" lon="2.448864000">
        <ele>72.232</ele>
        <time>2022-10-15T07:47:07.998Z</time>
      </trkpt>
      <trkpt lat="48.693903000" lon="2.448965000">
        <ele>72.723</ele>
        <time>2022-10-15T07:47:10.998Z</time>
      </trkpt>
      <trkpt lat="48.693963000" lon="2.449088000">
        <ele>73.242</ele>
        <time>2022-10-15T07:47:13.998Z</time>
      </trkpt>
      <trkpt lat="48.694161000" lon="2.449422000">
        <ele>74.768</ele>
        <time>2022-10-15T07:47:22.998Z</time>
      </trkpt>
      <trkpt lat="48.694219000" lon="2.449535000">
        <ele>75.255</ele>
        <time>2022-10-15T07:47:25.998Z</time>
      </trkpt>
      <trkpt lat="48.694286000" lon="2.449630000">
        <ele>75.727</ele>
        <time>2022-10-15T07:47:28.998Z</time>
      </trkpt>
      <trkpt lat="48.694526000" lon="2.450138000">
        <ele>77.852</ele>
        <time>2022-10-15T07:47:48.999Z</time>
      </trkpt>
      <trkpt lat="48.694575000" lon="2.450272000">
        <ele>78.372</ele>
        <time>2022-10-15T07:47:54.999Z</time>
      </trkpt>
      <trkpt lat="48.694605000" lon="2.450420000">
        <ele>78.739</ele>
        <time>2022-10-15T07:48:00.999Z</time>
      </trkpt>
      <trkpt lat="48.694823000" lon="2.451115000">
        <ele>79.849</ele>
        <time>2022-10-15T07:48:24.999Z</time>
      </trkpt>
      <trkpt lat="48.695113000" lon="2.452129000">
        <ele>81.444</ele>
        <time>2022-10-15T07:48:55.998Z</time>
      </trkpt>
      <trkpt lat="48.695163000" lon="2.452262000">
        <ele>81.664</ele>
        <time>2022-10-15T07:48:59.998Z</time>
      </trkpt>
      <trkpt lat="48.695322000" lon="2.452838000">
        <ele>82.556</ele>
        <time>2022-10-15T07:49:14.998Z</time>
      </trkpt>
      <trkpt lat="48.695389000" lon="2.453144000">
        <ele>82.700</ele>
        <time>2022-10-15T07:49:22.998Z</time>
      </trkpt>
      <trkpt lat="48.695550000" lon="2.453610000">
        <ele>82.936</ele>
        <time>2022-10-15T07:50:30.999Z</time>
      </trkpt>
      <trkpt lat="48.695606000" lon="2.453741000">
        <ele>83.006</ele>
        <time>2022-10-15T07:50:34.999Z</time>
      </trkpt>
      <trkpt lat="48.695650000" lon="2.453891000">
        <ele>83.079</ele>
        <time>2022-10-15T07:50:38.998Z</time>
      </trkpt>
      <trkpt lat="48.695640000" lon="2.454064000">
        <ele>83.157</ele>
        <time>2022-10-15T07:50:41.998Z</time>
      </trkpt>
      <trkpt lat="48.695705000" lon="2.454206000">
        <ele>83.234</ele>
        <time>2022-10-15T07:50:45.998Z</time>
      </trkpt>
      <trkpt lat="48.695758000" lon="2.454359000">
        <ele>83.311</ele>
        <time>2022-10-15T07:50:49.998Z</time>
      </trkpt>
      <trkpt lat="48.695792000" lon="2.454489000">
        <ele>83.374</ele>
        <time>2022-10-15T07:50:52.998Z</time>
      </trkpt>
      <trkpt lat="48.695926000" lon="2.454900000">
        <ele>83.579</ele>
        <time>2022-10-15T07:51:02.998Z</time>
      </trkpt>
      <trkpt lat="48.696048000" lon="2.455377000">
        <ele>83.820</ele>
        <time>2022-10-15T07:51:14.998Z</time>
      </trkpt>
      <trkpt lat="48.696119000" lon="2.455693000">
        <ele>84.018</ele>
        <time>2022-10-15T07:51:22.998Z</time>
      </trkpt>
      <trkpt lat="48.696204000" lon="2.455972000">
        <ele>84.201</ele>
        <time>2022-10-15T07:51:29.998Z</time>
      </trkpt>
      <trkpt lat="48.696242000" lon="2.456148000">
        <ele>84.310</ele>
        <time>2022-10-15T07:51:33.998Z</time>
      </trkpt>
      <trkpt lat="48.696233000" lon="2.456292000">
        <ele>84.396</ele>
        <time>2022-10-15T07:51:36.998Z</time>
      </trkpt>
      <trkpt lat="48.696280000" lon="2.456435000">
        <ele>84.491</ele>
        <time>2022-10-15T07:51:39.998Z</time>
      </trkpt>
      <trkpt lat="48.696310000" lon="2.456594000">
        <ele>84.589</ele>
        <time>2022-10-15T07:51:43.998Z</time>
      </trkpt>
      <trkpt lat="48.696386000" lon="2.456724000">
        <ele>84.692</ele>
        <time>2022-10-15T07:51:46.998Z</time>
      </trkpt>
      <trkpt lat="48.696429000" lon="2.456862000">
        <ele>84.783</ele>
        <time>2022-10-15T07:51:50.998Z</time>
      </trkpt>
      <trkpt lat="48.696446000" lon="2.457022000">
        <ele>84.879</ele>
        <time>2022-10-15T07:51:56.999Z</time>
      </trkpt>
      <trkpt lat="48.696489000" lon="2.457184000">
        <ele>84.982</ele>
        <time>2022-10-15T07:52:01.999Z</time>
      </trkpt>
      <trkpt lat="48.696630000" lon="2.457600000">
        <ele>85.260</ele>
        <time>2022-10-15T07:52:13.999Z</time>
      </trkpt>
      <trkpt lat="48.696699000" lon="2.457869000">
        <ele>85.387</ele>
        <time>2022-10-15T07:52:20.999Z</time>
      </trkpt>
      <trkpt lat="48.696746000" lon="2.458005000">
        <ele>85.386</ele>
        <time>2022-10-15T07:52:23.999Z</time>
      </trkpt>
      <trkpt lat="48.696922000" lon="2.458739000">
        <ele>85.381</ele>
        <time>2022-10-15T07:52:41.999Z</time>
      </trkpt>
      <trkpt lat="48.697052000" lon="2.459150000">
        <ele>85.378</ele>
        <time>2022-10-15T07:52:51.998Z</time>
      </trkpt>
      <trkpt lat="48.697169000" lon="2.459458000">
        <ele>85.376</ele>
        <time>2022-10-15T07:52:58.998Z</time>
      </trkpt>
      <trkpt lat="48.697205000" lon="2.459602000">
        <ele>85.375</ele>
        <time>2022-10-15T07:53:01.998Z</time>
      </trkpt>
      <trkpt lat="48.697312000" lon="2.459875000">
        <ele>85.372</ele>
        <time>2022-10-15T07:53:08.998Z</time>
      </trkpt>
      <trkpt lat="48.697363000" lon="2.460052000">
        <ele>85.371</ele>
        <time>2022-10-15T07:53:12.998Z</time>
      </trkpt>
      <trkpt lat="48.697383000" lon="2.460189000">
        <ele>85.370</ele>
        <time>2022-10-15T07:53:15.998Z</time>
      </trkpt>
      <trkpt lat="48.697518000" lon="2.460574000">
        <ele>85.209</ele>
        <time>2022-10-15T07:53:24.998Z</time>
      </trkpt>
      <trkpt lat="48.697569000" lon="2.460692000">
        <ele>85.142</ele>
        <time>2022-10-15T07:53:27.998Z</time>
      </trkpt>
      <trkpt lat="48.697631000" lon="2.460797000">
        <ele>85.074</ele>
        <time>2022-10-15T07:53:31.998Z</time>
      </trkpt>
      <trkpt lat="48.697727000" lon="2.460726000">
        <ele>84.996</ele>
        <time>2022-10-15T07:53:43.998Z</time>
      </trkpt>
      <trkpt lat="48.697802000" lon="2.460849000">
        <ele>84.916</ele>
        <time>2022-10-15T07:53:48.998Z</time>
      </trkpt>
      <trkpt lat="48.697853000" lon="2.460977000">
        <ele>84.844</ele>
        <time>2022-10-15T07:53:53.998Z</time>
      </trkpt>
      <trkpt lat="48.697917000" lon="2.461084000">
        <ele>84.775</ele>
        <time>2022-10-15T07:54:06.999Z</time>
      </trkpt>
      <trkpt lat="48.698008000" lon="2.461016000">
        <ele>84.701</ele>
        <time>2022-10-15T07:54:13.999Z</time>
      </trkpt>
      <trkpt lat="48.698093000" lon="2.460904000">
        <ele>84.620</ele>
        <time>2022-10-15T07:54:17.999Z</time>
      </trkpt>
      <trkpt lat="48.698349000" lon="2.460623000">
        <ele>84.390</ele>
        <time>2022-10-15T07:54:29.999Z</time>
      </trkpt>
      <trkpt lat="48.698439000" lon="2.460541000">
        <ele>84.314</ele>
        <time>2022-10-15T07:54:33.999Z</time>
      </trkpt>
      <trkpt lat="48.698523000" lon="2.460487000">
        <ele>84.247</ele>
        <time>2022-10-15T07:54:38.999Z</time>
      </trkpt>
      <trkpt lat="48.698603000" lon="2.460576000">
        <ele>84.175</ele>
        <time>2022-10-15T07:54:45.998Z</time>
      </trkpt>
      <trkpt lat="48.699004000" lon="2.461182000">
        <ele>83.579</ele>
        <time>2022-10-15T07:55:00.998Z</time>
      </trkpt>
      <trkpt lat="48.699076000" lon="2.461312000">
        <ele>83.447</ele>
        <time>2022-10-15T07:55:03.998Z</time>
      </trkpt>
      <trkpt lat="48.699307000" lon="2.461652000">
        <ele>83.069</ele>
        <time>2022-10-15T07:55:12.998Z</time>
      </trkpt>
      <trkpt lat="48.699438000" lon="2.461884000">
        <ele>82.832</ele>
        <time>2022-10-15T07:55:18.998Z</time>
      </trkpt>
      <trkpt lat="48.699653000" lon="2.462211000">
        <ele>82.474</ele>
        <time>2022-10-15T07:55:30.998Z</time>
      </trkpt>
      <trkpt lat="48.699713000" lon="2.462348000">
        <ele>82.347</ele>
        <time>2022-10-15T07:55:33.998Z</time>
      </trkpt>
      <trkpt lat="48.699943000" lon="2.462703000">
        <ele>81.961</ele>
        <time>2022-10-15T07:55:42.998Z</time>
      </trkpt>
      <trkpt lat="48.700173000" lon="2.463095000">
        <ele>81.771</ele>
        <time>2022-10-15T07:55:51.998Z</time>
      </trkpt>
      <trkpt lat="48.700305000" lon="2.463301000">
        <ele>81.671</ele>
        <time>2022-10-15T07:55:57.998Z</time>
      </trkpt>
      <trkpt lat="48.700382000" lon="2.463382000">
        <ele>81.621</ele>
        <time>2022-10-15T07:56:04.997Z</time>
      </trkpt>
      <trkpt lat="48.700482000" lon="2.463301000">
        <ele>81.561</ele>
        <time>2022-10-15T07:56:10.998Z</time>
      </trkpt>
      <trkpt lat="48.700546000" lon="2.463190000">
        <ele>81.510</ele>
        <time>2022-10-15T07:56:13.998Z</time>
      </trkpt>
      <trkpt lat="48.700605000" lon="2.463061000">
        <ele>81.455</ele>
        <time>2022-10-15T07:56:16.998Z</time>
      </trkpt>
      <trkpt lat="48.700669000" lon="2.462962000">
        <ele>81.406</ele>
        <time>2022-10-15T07:56:19.998Z</time>
      </trkpt>
      <trkpt lat="48.700781000" lon="2.462695000">
        <ele>81.296</ele>
        <time>2022-10-15T07:56:25.998Z</time>
      </trkpt>
      <trkpt lat="48.700859000" lon="2.462583000">
        <ele>81.239</ele>
        <time>2022-10-15T07:56:33.998Z</time>
      </trkpt>
      <trkpt lat="48.701091000" lon="2.462904000">
        <ele>81.073</ele>
        <time>2022-10-15T07:56:42.999Z</time>
      </trkpt>
      <trkpt lat="48.701176000" lon="2.462970000">
        <ele>81.022</ele>
        <time>2022-10-15T07:56:45.999Z</time>
      </trkpt>
      <trkpt lat="48.701351000" lon="2.463196000">
        <ele>80.820</ele>
        <time>2022-10-15T07:56:51.999Z</time>
      </trkpt>
      <trkpt lat="48.701459000" lon="2.463224000">
        <ele>80.713</ele>
        <time>2022-10-15T07:56:55.998Z</time>
      </trkpt>
      <trkpt lat="48.701560000" lon="2.463135000">
        <ele>80.600</ele>
        <time>2022-10-15T07:56:59.998Z</time>
      </trkpt>
      <trkpt lat="48.701724000" lon="2.463319000">
        <ele>80.402</ele>
        <time>2022-10-15T07:57:05.998Z</time>
      </trkpt>
      <trkpt lat="48.701799000" lon="2.463464000">
        <ele>80.284</ele>
        <time>2022-10-15T07:57:08.998Z</time>
      </trkpt>
      <trkpt lat="48.702105000" lon="2.463843000">
        <ele>79.900</ele>
        <time>2022-10-15T07:57:20.998Z</time>
      </trkpt>
      <trkpt lat="48.702195000" lon="2.463873000">
        <ele>79.811</ele>
        <time>2022-10-15T07:57:25.998Z</time>
      </trkpt>
      <trkpt lat="48.702278000" lon="2.463760000">
        <ele>79.703</ele>
        <time>2022-10-15T07:57:30.998Z</time>
      </trkpt>
      <trkpt lat="48.702332000" lon="2.463634000">
        <ele>79.607</ele>
        <time>2022-10-15T07:57:34.998Z</time>
      </trkpt>
      <trkpt lat="48.702461000" lon="2.463410000">
        <ele>79.416</ele>
        <time>2022-10-15T07:57:42.998Z</time>
      </trkpt>
      <trkpt lat="48.702545000" lon="2.463306000">
        <ele>79.311</ele>
        <time>2022-10-15T07:57:46.998Z</time>
      </trkpt>
      <trkpt lat="48.702604000" lon="2.463183000">
        <ele>79.281</ele>
        <time>2022-10-15T07:57:50.998Z</time>
      </trkpt>
      <trkpt lat="48.702678000" lon="2.463067000">
        <ele>79.359</ele>
        <time>2022-10-15T07:57:54.998Z</time>
      </trkpt>
      <trkpt lat="48.702749000" lon="2.462976000">
        <ele>79.427</ele>
        <time>2022-10-15T07:57:59.998Z</time>
      </trkpt>
      <trkpt lat="48.702761000" lon="2.462825000">
        <ele>79.501</ele>
        <time>2022-10-15T07:58:06.998Z</time>
      </trkpt>
      <trkpt lat="48.702670000" lon="2.462798000">
        <ele>79.568</ele>
        <time>2022-10-15T07:58:11.999Z</time>
      </trkpt>
      <trkpt lat="48.702586000" lon="2.462721000">
        <ele>79.640</ele>
        <time>2022-10-15T07:58:18.999Z</time>
      </trkpt>
      <trkpt lat="48.702426000" lon="2.462615000">
        <ele>79.768</ele>
        <time>2022-10-15T08:38:40.303Z</time>
      </trkpt>
      <trkpt lat="48.702315000" lon="2.462579000">
        <ele>79.851</ele>
        <time>2022-10-15T08:39:54.998Z</time>
      </trkpt>
      <trkpt lat="48.702246000" lon="2.462465000">
        <ele>79.926</ele>
        <time>2022-10-15T08:40:03.998Z</time>
      </trkpt>
      <trkpt lat="48.702171000" lon="2.462388000">
        <ele>79.992</ele>
        <time>2022-10-15T08:40:08.998Z</time>
      </trkpt>
      <trkpt lat="48.702092000" lon="2.462289000">
        <ele>80.067</ele>
        <time>2022-10-15T08:40:23.998Z</time>
      </trkpt>
      <trkpt lat="48.702182000" lon="2.462297000">
        <ele>80.133</ele>
        <time>2022-10-15T08:41:33.998Z</time>
      </trkpt>
      <trkpt lat="48.702087000" lon="2.462170000">
        <ele>80.225</ele>
        <time>2022-10-15T08:41:40.998Z</time>
      </trkpt>
      <trkpt lat="48.701988000" lon="2.462117000">
        <ele>80.302</ele>
        <time>2022-10-15T08:41:43.998Z</time>
      </trkpt>
      <trkpt lat="48.701956000" lon="2.461968000">
        <ele>80.378</ele>
        <time>2022-10-15T08:41:49.998Z</time>
      </trkpt>
      <trkpt lat="48.701791000" lon="2.461843000">
        <ele>80.513</ele>
        <time>2022-10-15T08:41:55.998Z</time>
      </trkpt>
      <trkpt lat="48.701722000" lon="2.461727000">
        <ele>80.558</ele>
        <time>2022-10-15T08:41:59.998Z</time>
      </trkpt>
      <trkpt lat="48.701553000" lon="2.461536000">
        <ele>80.485</ele>
        <time>2022-10-15T08:42:18.998Z</time>
      </trkpt>
      <trkpt lat="48.701571000" lon="2.461393000">
        <ele>80.452</ele>
        <time>2022-10-15T08:42:27.998Z</time>
      </trkpt>
      <trkpt lat="48.701613000" lon="2.461269000">
        <ele>80.420</ele>
        <time>2022-10-15T08:42:32.998Z</time>
      </trkpt>
      <trkpt lat="48.701675000" lon="2.461133000">
        <ele>80.382</ele>
        <time>2022-10-15T08:42:38.998Z</time>
      </trkpt>
      <trkpt lat="48.701724000" lon="2.460989000">
        <ele>80.346</ele>
        <time>2022-10-15T08:42:42.998Z</time>
      </trkpt>
      <trkpt lat="48.701870000" lon="2.460766000">
        <ele>80.274</ele>
        <time>2022-10-15T08:42:51.999Z</time>
      </trkpt>
      <trkpt lat="48.701974000" lon="2.460522000">
        <ele>80.208</ele>
        <time>2022-10-15T08:43:15.999Z</time>
      </trkpt>
      <trkpt lat="48.702110000" lon="2.460264000">
        <ele>80.132</ele>
        <time>2022-10-15T08:43:24.999Z</time>
      </trkpt>
      <trkpt lat="48.702297000" lon="2.459858000">
        <ele>80.019</ele>
        <time>2022-10-15T08:43:39.998Z</time>
      </trkpt>
      <trkpt lat="48.702497000" lon="2.459501000">
        <ele>79.946</ele>
        <time>2022-10-15T08:43:53.998Z</time>
      </trkpt>
      <trkpt lat="48.702550000" lon="2.459378000">
        <ele>79.946</ele>
        <time>2022-10-15T08:43:57.998Z</time>
      </trkpt>
      <trkpt lat="48.702613000" lon="2.459279000">
        <ele>79.946</ele>
        <time>2022-10-15T08:44:03.998Z</time>
      </trkpt>
      <trkpt lat="48.702706000" lon="2.459197000">
        <ele>79.946</ele>
        <time>2022-10-15T08:44:14.998Z</time>
      </trkpt>
      <trkpt lat="48.702779000" lon="2.459109000">
        <ele>79.946</ele>
        <time>2022-10-15T08:44:28.998Z</time>
      </trkpt>
      <trkpt lat="48.702818000" lon="2.458979000">
        <ele>79.946</ele>
        <time>2022-10-15T08:44:32.998Z</time>
      </trkpt>
      <trkpt lat="48.702870000" lon="2.458865000">
        <ele>79.946</ele>
        <time>2022-10-15T08:44:36.998Z</time>
      </trkpt>
      <trkpt lat="48.703071000" lon="2.458552000">
        <ele>79.946</ele>
        <time>2022-10-15T08:44:58.999Z</time>
      </trkpt>
      <trkpt lat="48.703156000" lon="2.458635000">
        <ele>79.946</ele>
        <time>2022-10-15T08:45:03.999Z</time>
      </trkpt>
      <trkpt lat="48.703232000" lon="2.458526000">
        <ele>79.946</ele>
        <time>2022-10-15T08:45:09.999Z</time>
      </trkpt>
      <trkpt lat="48.703318000" lon="2.458606000">
        <ele>79.946</ele>
        <time>2022-10-15T08:45:13.999Z</time>
      </trkpt>
      <trkpt lat="48.703448000" lon="2.458829000">
        <ele>79.946</ele>
        <time>2022-10-15T08:45:20.999Z</time>
      </trkpt>
      <trkpt lat="48.703706000" lon="2.459175000">
        <ele>79.946</ele>
        <time>2022-10-15T08:45:29.999Z</time>
      </trkpt>
      <trkpt lat="48.703931000" lon="2.459287000">
        <ele>79.946</ele>
        <time>2022-10-15T08:45:35.999Z</time>
      </trkpt>
      <trkpt lat="48.703995000" lon="2.459396000">
        <ele>79.946</ele>
        <time>2022-10-15T08:45:38.999Z</time>
      </trkpt>
      <trkpt lat="48.704156000" lon="2.459578000">
        <ele>79.946</ele>
        <time>2022-10-15T08:45:46.998Z</time>
      </trkpt>
      <trkpt lat="48.704089000" lon="2.459670000">
        <ele>79.946</ele>
        <time>2022-10-15T08:45:54.998Z</time>
      </trkpt>
    </trkseg>
  </trk>
</gpx>
