{"type":"FeatureCollection","features":[{"type":"Feature","properties":{"type":"ski alpin","time":"2022-03-02T13:01:52Z","coordTimes":["2022-03-02T13:01:52Z","2022-03-02T13:01:58Z","2022-03-02T13:02:00Z","2022-03-02T13:02:02Z","2022-03-02T13:02:04Z","2022-03-02T13:02:16Z","2022-03-02T13:02:22Z","2022-03-02T13:02:35Z","2022-03-02T13:02:52Z","2022-03-02T13:03:02Z","2022-03-02T13:03:50Z","2022-03-02T13:03:55Z","2022-03-02T13:04:02Z","2022-03-02T13:04:14Z","2022-03-02T13:04:26Z","2022-03-02T13:04:29Z","2022-03-02T13:04:32Z","2022-03-02T13:04:36Z","2022-03-02T13:04:38Z","2022-03-02T13:04:40Z","2022-03-02T13:04:42Z","2022-03-02T13:04:44Z","2022-03-02T13:04:51Z","2022-03-02T13:04:53Z","2022-03-02T13:04:55Z","2022-03-02T13:04:57Z","2022-03-02T13:05:00Z","2022-03-02T13:05:02Z","2022-03-02T13:05:04Z","2022-03-02T13:05:06Z","2022-03-02T13:05:08Z","2022-03-02T13:05:10Z","2022-03-02T13:05:12Z","2022-03-02T13:05:14Z","2022-03-02T13:05:16Z","2022-03-02T13:05:20Z","2022-03-02T13:05:37Z","2022-03-02T13:06:21Z","2022-03-02T13:06:37Z","2022-03-02T13:06:48Z","2022-03-02T13:06:58Z","2022-03-02T13:07:00Z","2022-03-02T13:07:02Z","2022-03-02T13:07:04Z","2022-03-02T13:07:12Z","2022-03-02T13:07:15Z","2022-03-02T13:07:21Z","2022-03-02T13:07:23Z","2022-03-02T13:07:27Z","2022-03-02T13:07:31Z","2022-03-02T13:07:35Z","2022-03-02T13:07:37Z","2022-03-02T13:07:39Z","2022-03-02T13:07:41Z","2022-03-02T13:07:47Z","2022-03-02T13:07:49Z","2022-03-02T13:07:51Z","2022-03-02T13:07:53Z","2022-03-02T13:08:08Z","2022-03-02T13:08:14Z","2022-03-02T13:08:16Z","2022-03-02T13:08:40Z","2022-03-02T13:08:42Z","2022-03-02T13:08:44Z","2022-03-02T13:09:07Z","2022-03-02T13:09:09Z","2022-03-02T13:09:29Z","2022-03-02T13:09:32Z","2022-03-02T13:09:58Z","2022-03-02T13:10:24Z","2022-03-02T13:10:26Z","2022-03-02T13:10:28Z","2022-03-02T13:10:30Z","2022-03-02T13:10:36Z","2022-03-02T13:10:42Z","2022-03-02T13:10:44Z","2022-03-02T13:10:46Z","2022-03-02T13:10:47Z","2022-03-02T13:10:49Z","2022-03-02T13:10:51Z","2022-03-02T13:10:53Z","2022-03-02T13:10:57Z","2022-03-02T13:11:07Z","2022-03-02T13:11:13Z","2022-03-02T13:11:15Z","2022-03-02T13:11:17Z","2022-03-02T13:11:19Z","2022-03-02T13:11:21Z","2022-03-02T13:11:23Z","2022-03-02T13:11:25Z","2022-03-02T13:11:27Z","2022-03-02T13:11:29Z","2022-03-02T13:11:31Z","2022-03-02T13:11:33Z","2022-03-02T13:11:35Z","2022-03-02T13:11:37Z","2022-03-02T13:11:39Z","2022-03-02T13:11:41Z","2022-03-02T13:11:44Z","2022-03-02T13:11:49Z","2022-03-02T13:11:51Z","2022-03-02T13:11:53Z","2022-03-02T13:11:57Z","2022-03-02T13:11:59Z","2022-03-02T13:12:01Z","2022-03-02T13:12:03Z","2022-03-02T13:12:05Z","2022-03-02T13:12:07Z","2022-03-02T13:12:09Z","2022-03-02T13:12:11Z","2022-03-02T13:12:15Z","2022-03-02T13:12:17Z","2022-03-02T13:12:21Z","2022-03-02T13:12:37Z","2022-03-02T13:13:14Z","2022-03-02T13:14:23Z","2022-03-02T13:17:39Z","2022-03-02T13:18:02Z","2022-03-02T13:18:06Z","2022-03-02T13:18:12Z","2022-03-02T13:18:19Z","2022-03-02T13:18:46Z","2022-03-02T13:19:20Z","2022-03-02T13:19:49Z","2022-03-02T13:19:56Z","2022-03-02T13:20:05Z","2022-03-02T13:20:11Z","2022-03-02T13:20:15Z","2022-03-02T13:20:17Z","2022-03-02T13:20:19Z","2022-03-02T13:20:21Z","2022-03-02T13:20:23Z","2022-03-02T13:20:25Z","2022-03-02T13:20:35Z","2022-03-02T13:20:43Z","2022-03-02T13:20:49Z","2022-03-02T13:20:55Z","2022-03-02T13:21:03Z","2022-03-02T13:21:13Z","2022-03-02T13:21:23Z","2022-03-02T13:21:25Z","2022-03-02T13:21:31Z","2022-03-02T13:21:33Z","2022-03-02T13:21:39Z","2022-03-02T13:21:41Z","2022-03-02T13:21:49Z","2022-03-02T13:21:53Z","2022-03-02T13:21:59Z","2022-03-02T13:22:03Z","2022-03-02T13:22:17Z","2022-03-02T13:22:19Z","2022-03-02T13:22:29Z","2022-03-02T13:22:35Z","2022-03-02T13:22:43Z","2022-03-02T13:22:47Z","2022-03-02T13:22:55Z","2022-03-02T13:22:57Z","2022-03-02T13:22:59Z","2022-03-02T13:23:07Z","2022-03-02T13:23:13Z","2022-03-02T13:23:17Z","2022-03-02T13:23:19Z","2022-03-02T13:23:29Z","2022-03-02T13:23:37Z","2022-03-02T13:23:51Z","2022-03-02T13:23:57Z","2022-03-02T13:24:09Z","2022-03-02T13:24:17Z","2022-03-02T13:24:19Z","2022-03-02T13:24:29Z","2022-03-02T13:24:31Z","2022-03-02T13:24:41Z","2022-03-02T13:24:45Z","2022-03-02T13:24:49Z","2022-03-02T13:25:03Z","2022-03-02T13:25:17Z","2022-03-02T13:25:23Z","2022-03-02T13:25:29Z","2022-03-02T13:25:31Z","2022-03-02T13:25:39Z","2022-03-02T13:25:41Z","2022-03-02T13:25:43Z","2022-03-02T13:25:45Z","2022-03-02T13:25:48Z","2022-03-02T13:25:55Z","2022-03-02T13:26:00Z","2022-03-02T13:26:04Z","2022-03-02T13:26:08Z","2022-03-02T13:26:10Z","2022-03-02T13:26:12Z","2022-03-02T13:26:14Z","2022-03-02T13:26:16Z","2022-03-02T13:26:18Z","2022-03-02T13:26:22Z","2022-03-02T13:26:26Z","2022-03-02T13:26:28Z","2022-03-02T13:26:30Z","2022-03-02T13:26:32Z","2022-03-02T13:26:34Z","2022-03-02T13:26:36Z","2022-03-02T13:26:38Z","2022-03-02T13:26:42Z","2022-03-02T13:26:44Z","2022-03-02T13:26:46Z","2022-03-02T13:26:48Z","2022-03-02T13:26:50Z","2022-03-02T13:26:52Z","2022-03-02T13:26:54Z","2022-03-02T13:26:56Z","2022-03-02T13:26:58Z","2022-03-02T13:27:02Z","2022-03-02T13:27:04Z","2022-03-02T13:27:06Z","2022-03-02T13:27:08Z","2022-03-02T13:27:10Z","2022-03-02T13:27:12Z","2022-03-02T13:27:14Z","2022-03-02T13:27:15Z","2022-03-02T13:27:17Z","2022-03-02T13:27:19Z","2022-03-02T13:27:21Z","2022-03-02T13:27:23Z","2022-03-02T13:27:25Z","2022-03-02T13:27:27Z","2022-03-02T13:27:29Z","2022-03-02T13:27:31Z","2022-03-02T13:27:33Z","2022-03-02T13:27:35Z","2022-03-02T13:27:37Z","2022-03-02T13:27:39Z","2022-03-02T13:27:43Z","2022-03-02T13:27:45Z","2022-03-02T13:27:47Z","2022-03-02T13:27:49Z","2022-03-02T13:27:53Z","2022-03-02T13:27:55Z","2022-03-02T13:27:57Z","2022-03-02T13:27:59Z","2022-03-02T13:28:01Z","2022-03-02T13:28:03Z","2022-03-02T13:28:05Z","2022-03-02T13:28:09Z","2022-03-02T13:28:11Z","2022-03-02T13:28:13Z","2022-03-02T13:28:15Z","2022-03-02T13:28:17Z","2022-03-02T13:28:21Z","2022-03-02T13:28:23Z","2022-03-02T13:28:25Z","2022-03-02T13:28:27Z","2022-03-02T13:28:29Z","2022-03-02T13:28:31Z","2022-03-02T13:28:33Z","2022-03-02T13:28:35Z","2022-03-02T13:28:37Z","2022-03-02T13:28:39Z","2022-03-02T13:28:41Z","2022-03-02T13:28:53Z","2022-03-02T13:29:02Z","2022-03-02T13:29:04Z","2022-03-02T13:29:06Z","2022-03-02T13:29:08Z","2022-03-02T13:29:10Z","2022-03-02T13:29:12Z","2022-03-02T13:29:16Z","2022-03-02T13:29:18Z","2022-03-02T13:29:20Z","2022-03-02T13:29:21Z","2022-03-02T13:29:24Z","2022-03-02T13:29:26Z","2022-03-02T13:29:27Z","2022-03-02T13:29:31Z","2022-03-02T13:29:33Z","2022-03-02T13:29:35Z","2022-03-02T13:29:37Z","2022-03-02T13:30:08Z","2022-03-02T13:30:18Z","2022-03-02T13:30:20Z","2022-03-02T13:30:22Z","2022-03-02T13:30:24Z","2022-03-02T13:30:26Z","2022-03-02T13:30:28Z","2022-03-02T13:30:54Z","2022-03-02T13:30:56Z","2022-03-02T13:30:58Z","2022-03-02T13:31:00Z","2022-03-02T13:31:02Z","2022-03-02T13:31:04Z","2022-03-02T13:31:06Z","2022-03-02T13:31:08Z","2022-03-02T13:31:10Z","2022-03-02T13:31:12Z","2022-03-02T13:31:14Z","2022-03-02T13:31:33Z","2022-03-02T13:32:00Z","2022-03-02T13:32:23Z","2022-03-02T13:32:50Z","2022-03-02T13:33:11Z","2022-03-02T13:33:48Z","2022-03-02T13:33:58Z","2022-03-02T13:34:06Z","2022-03-02T13:34:15Z","2022-03-02T13:34:24Z","2022-03-02T13:34:30Z","2022-03-02T13:34:44Z","2022-03-02T13:34:46Z","2022-03-02T13:34:50Z","2022-03-02T13:34:54Z","2022-03-02T13:34:56Z","2022-03-02T13:34:58Z","2022-03-02T13:35:15Z","2022-03-02T13:35:17Z","2022-03-02T13:35:19Z","2022-03-02T13:35:29Z","2022-03-02T13:35:33Z","2022-03-02T13:35:35Z","2022-03-02T13:35:37Z","2022-03-02T13:35:45Z","2022-03-02T13:35:47Z","2022-03-02T13:35:55Z","2022-03-02T13:35:57Z","2022-03-02T13:36:01Z","2022-03-02T13:36:03Z","2022-03-02T13:36:05Z","2022-03-02T13:36:09Z","2022-03-02T13:36:11Z","2022-03-02T13:36:17Z","2022-03-02T13:36:21Z","2022-03-02T13:36:25Z","2022-03-02T13:36:27Z","2022-03-02T13:36:29Z","2022-03-02T13:36:33Z","2022-03-02T13:36:45Z","2022-03-02T13:36:49Z","2022-03-02T13:36:57Z","2022-03-02T13:37:01Z","2022-03-02T13:37:05Z","2022-03-02T13:37:13Z","2022-03-02T13:37:17Z","2022-03-02T13:37:25Z","2022-03-02T13:37:27Z","2022-03-02T13:37:31Z","2022-03-02T13:37:41Z","2022-03-02T13:37:53Z","2022-03-02T13:38:47Z","2022-03-02T13:39:03Z","2022-03-02T13:39:13Z","2022-03-02T13:39:19Z","2022-03-02T13:39:23Z","2022-03-02T13:39:25Z","2022-03-02T13:39:27Z","2022-03-02T13:39:29Z","2022-03-02T13:39:35Z","2022-03-02T13:39:42Z","2022-03-02T13:39:52Z","2022-03-02T13:39:56Z","2022-03-02T13:40:02Z","2022-03-02T13:40:27Z","2022-03-02T13:40:31Z","2022-03-02T13:40:33Z","2022-03-02T13:40:35Z","2022-03-02T13:40:37Z","2022-03-02T13:40:39Z","2022-03-02T13:40:41Z","2022-03-02T13:40:43Z","2022-03-02T13:40:45Z","2022-03-02T13:40:49Z","2022-03-02T13:40:52Z","2022-03-02T13:40:54Z","2022-03-02T13:40:58Z","2022-03-02T13:41:00Z","2022-03-02T13:41:02Z","2022-03-02T13:41:04Z","2022-03-02T13:41:06Z","2022-03-02T13:41:08Z","2022-03-02T13:41:10Z","2022-03-02T13:41:36Z","2022-03-02T13:41:40Z","2022-03-02T13:41:42Z","2022-03-02T13:41:44Z","2022-03-02T13:41:46Z","2022-03-02T13:41:48Z","2022-03-02T13:41:50Z","2022-03-02T13:41:52Z","2022-03-02T13:41:54Z","2022-03-02T13:41:56Z","2022-03-02T13:41:57Z","2022-03-02T13:41:59Z","2022-03-02T13:42:03Z","2022-03-02T13:42:05Z","2022-03-02T13:42:09Z","2022-03-02T13:42:11Z","2022-03-02T13:42:15Z","2022-03-02T13:42:17Z","2022-03-02T13:42:19Z","2022-03-02T13:42:21Z","2022-03-02T13:42:23Z","2022-03-02T13:42:25Z","2022-03-02T13:42:27Z","2022-03-02T13:42:29Z","2022-03-02T13:42:31Z","2022-03-02T13:42:33Z","2022-03-02T13:42:35Z","2022-03-02T13:42:37Z","2022-03-02T13:42:39Z","2022-03-02T13:42:41Z","2022-03-02T13:42:43Z","2022-03-02T13:42:45Z","2022-03-02T13:42:47Z","2022-03-02T13:42:49Z","2022-03-02T13:42:51Z","2022-03-02T13:42:53Z","2022-03-02T13:42:55Z","2022-03-02T13:43:00Z","2022-03-02T13:43:13Z","2022-03-02T13:43:24Z","2022-03-02T13:43:26Z","2022-03-02T13:43:28Z","2022-03-02T13:43:30Z","2022-03-02T13:43:32Z","2022-03-02T13:43:34Z","2022-03-02T13:43:36Z","2022-03-02T13:43:38Z","2022-03-02T13:43:40Z","2022-03-02T13:43:42Z","2022-03-02T13:43:44Z","2022-03-02T13:43:46Z","2022-03-02T13:43:48Z","2022-03-02T13:43:50Z","2022-03-02T13:43:52Z","2022-03-02T13:43:54Z","2022-03-02T13:43:56Z","2022-03-02T13:43:58Z","2022-03-02T13:44:00Z","2022-03-02T13:44:02Z","2022-03-02T13:44:03Z","2022-03-02T13:44:05Z","2022-03-02T13:44:09Z","2022-03-02T13:44:11Z","2022-03-02T13:44:14Z","2022-03-02T13:44:21Z","2022-03-02T13:44:23Z","2022-03-02T13:44:25Z","2022-03-02T13:44:27Z","2022-03-02T13:44:29Z","2022-03-02T13:44:32Z","2022-03-02T13:44:34Z","2022-03-02T13:44:36Z","2022-03-02T13:44:38Z","2022-03-02T13:44:40Z","2022-03-02T13:44:42Z","2022-03-02T13:44:44Z","2022-03-02T13:44:46Z","2022-03-02T13:44:48Z","2022-03-02T13:44:50Z","2022-03-02T13:45:11Z","2022-03-02T13:45:40Z","2022-03-02T13:46:29Z","2022-03-02T13:46:31Z","2022-03-02T13:46:37Z","2022-03-02T13:46:42Z","2022-03-02T13:46:49Z","2022-03-02T13:46:59Z","2022-03-02T13:47:01Z","2022-03-02T13:47:03Z","2022-03-02T13:47:05Z","2022-03-02T13:47:07Z","2022-03-02T13:47:09Z","2022-03-02T13:47:13Z","2022-03-02T13:47:17Z","2022-03-02T13:47:21Z","2022-03-02T13:47:23Z","2022-03-02T13:47:25Z","2022-03-02T13:47:29Z","2022-03-02T13:47:31Z","2022-03-02T13:47:33Z","2022-03-02T13:47:41Z","2022-03-02T13:47:43Z","2022-03-02T13:47:45Z","2022-03-02T13:47:49Z","2022-03-02T13:48:19Z","2022-03-02T13:48:39Z","2022-03-02T13:49:06Z","2022-03-02T13:49:45Z","2022-03-02T13:49:53Z","2022-03-02T13:50:03Z","2022-03-02T13:50:05Z","2022-03-02T13:50:07Z","2022-03-02T13:50:09Z","2022-03-02T13:50:11Z","2022-03-02T13:50:13Z","2022-03-02T13:50:17Z","2022-03-02T13:50:21Z","2022-03-02T13:50:23Z","2022-03-02T13:50:25Z","2022-03-02T13:50:27Z","2022-03-02T13:50:29Z","2022-03-02T13:50:31Z","2022-03-02T13:50:33Z","2022-03-02T13:50:35Z","2022-03-02T13:50:39Z","2022-03-02T13:50:46Z","2022-03-02T13:50:48Z","2022-03-02T13:50:50Z","2022-03-02T13:50:52Z","2022-03-02T13:50:54Z","2022-03-02T13:50:56Z","2022-03-02T13:50:58Z","2022-03-02T13:51:00Z","2022-03-02T13:51:02Z","2022-03-02T13:51:04Z","2022-03-02T13:51:06Z","2022-03-02T13:51:08Z","2022-03-02T13:51:12Z","2022-03-02T13:51:14Z","2022-03-02T13:51:16Z","2022-03-02T13:51:18Z","2022-03-02T13:51:20Z","2022-03-02T13:51:22Z","2022-03-02T13:51:24Z","2022-03-02T13:51:26Z","2022-03-02T13:51:28Z","2022-03-02T13:51:30Z","2022-03-02T13:51:32Z","2022-03-02T13:51:34Z","2022-03-02T13:51:36Z","2022-03-02T13:51:38Z","2022-03-02T13:51:43Z","2022-03-02T13:51:45Z","2022-03-02T13:51:47Z","2022-03-02T13:51:49Z","2022-03-02T13:51:51Z","2022-03-02T13:51:55Z","2022-03-02T13:51:57Z","2022-03-02T13:51:59Z","2022-03-02T13:52:01Z","2022-03-02T13:52:03Z","2022-03-02T13:52:05Z","2022-03-02T13:52:07Z","2022-03-02T13:52:09Z","2022-03-02T13:52:11Z","2022-03-02T13:52:13Z","2022-03-02T13:52:15Z","2022-03-02T13:52:17Z","2022-03-02T13:52:19Z","2022-03-02T13:52:21Z","2022-03-02T13:52:23Z","2022-03-02T13:52:25Z","2022-03-02T13:52:27Z","2022-03-02T13:52:31Z","2022-03-02T13:52:33Z","2022-03-02T13:52:35Z","2022-03-02T13:52:37Z","2022-03-02T13:52:39Z","2022-03-02T13:52:41Z","2022-03-02T13:52:43Z","2022-03-02T13:52:45Z","2022-03-02T13:52:47Z","2022-03-02T13:52:49Z","2022-03-02T13:52:51Z","2022-03-02T13:52:53Z","2022-03-02T13:52:56Z","2022-03-02T13:53:03Z","2022-03-02T13:53:05Z","2022-03-02T13:53:07Z","2022-03-02T13:53:09Z","2022-03-02T13:53:11Z","2022-03-02T13:53:13Z","2022-03-02T13:53:15Z","2022-03-02T13:53:17Z","2022-03-02T13:53:19Z","2022-03-02T13:53:21Z","2022-03-02T13:53:23Z","2022-03-02T13:53:25Z","2022-03-02T13:53:27Z","2022-03-02T13:53:29Z","2022-03-02T13:53:31Z","2022-03-02T13:53:33Z","2022-03-02T13:53:35Z","2022-03-02T13:53:43Z","2022-03-02T13:53:45Z","2022-03-02T13:53:47Z","2022-03-02T13:53:49Z","2022-03-02T13:53:51Z","2022-03-02T13:53:53Z","2022-03-02T13:53:55Z","2022-03-02T13:53:57Z","2022-03-02T13:53:59Z","2022-03-02T13:54:01Z","2022-03-02T13:54:03Z","2022-03-02T13:54:05Z","2022-03-02T13:54:07Z","2022-03-02T13:54:09Z","2022-03-02T13:54:11Z","2022-03-02T13:54:15Z","2022-03-02T13:54:17Z","2022-03-02T13:54:19Z","2022-03-02T13:54:21Z","2022-03-02T13:54:24Z","2022-03-02T13:54:29Z","2022-03-02T13:54:34Z","2022-03-02T13:54:37Z","2022-03-02T13:54:39Z","2022-03-02T13:54:41Z","2022-03-02T13:54:43Z","2022-03-02T13:54:45Z","2022-03-02T13:54:47Z","2022-03-02T13:54:49Z","2022-03-02T13:54:51Z","2022-03-02T13:55:09Z","2022-03-02T13:55:11Z","2022-03-02T13:55:13Z","2022-03-02T13:55:15Z","2022-03-02T13:55:17Z","2022-03-02T13:55:19Z","2022-03-02T13:55:21Z","2022-03-02T13:55:23Z","2022-03-02T13:55:27Z","2022-03-02T13:55:29Z","2022-03-02T13:55:31Z","2022-03-02T13:55:33Z","2022-03-02T13:55:35Z","2022-03-02T13:55:37Z","2022-03-02T13:55:39Z","2022-03-02T13:55:41Z","2022-03-02T13:55:43Z","2022-03-02T13:55:45Z","2022-03-02T13:55:47Z","2022-03-02T13:55:49Z","2022-03-02T13:55:51Z","2022-03-02T13:55:53Z","2022-03-02T13:55:55Z","2022-03-02T13:55:57Z","2022-03-02T13:55:59Z","2022-03-02T13:56:01Z","2022-03-02T13:56:05Z","2022-03-02T13:56:09Z","2022-03-02T13:56:12Z","2022-03-02T13:56:14Z","2022-03-02T13:56:16Z","2022-03-02T13:56:19Z","2022-03-02T13:56:21Z","2022-03-02T13:56:29Z","2022-03-02T13:56:50Z","2022-03-02T13:57:03Z","2022-03-02T13:57:28Z","2022-03-02T13:57:42Z","2022-03-02T13:58:02Z","2022-03-02T13:58:06Z","2022-03-02T13:58:08Z","2022-03-02T13:58:10Z","2022-03-02T13:58:12Z","2022-03-02T13:58:14Z","2022-03-02T13:58:18Z","2022-03-02T13:58:22Z","2022-03-02T13:58:34Z","2022-03-02T13:58:36Z","2022-03-02T13:58:51Z","2022-03-02T13:59:01Z","2022-03-02T13:59:05Z","2022-03-02T13:59:12Z","2022-03-02T13:59:14Z","2022-03-02T13:59:16Z","2022-03-02T13:59:18Z","2022-03-02T13:59:29Z","2022-03-02T13:59:33Z","2022-03-02T13:59:37Z","2022-03-02T13:59:39Z","2022-03-02T13:59:41Z","2022-03-02T13:59:49Z","2022-03-02T13:59:51Z","2022-03-02T13:59:57Z","2022-03-02T13:59:59Z","2022-03-02T14:00:05Z","2022-03-02T14:00:07Z","2022-03-02T14:00:09Z","2022-03-02T14:00:11Z","2022-03-02T14:00:13Z","2022-03-02T14:00:15Z","2022-03-02T14:00:23Z","2022-03-02T14:00:27Z","2022-03-02T14:00:31Z","2022-03-02T14:00:33Z","2022-03-02T14:00:39Z","2022-03-02T14:00:51Z","2022-03-02T14:00:55Z","2022-03-02T14:01:02Z","2022-03-02T14:01:05Z","2022-03-02T14:01:09Z","2022-03-02T14:01:15Z","2022-03-02T14:01:19Z","2022-03-02T14:01:25Z","2022-03-02T14:01:29Z","2022-03-02T14:01:31Z","2022-03-02T14:01:33Z","2022-03-02T14:01:35Z","2022-03-02T14:01:37Z","2022-03-02T14:01:41Z","2022-03-02T14:01:45Z","2022-03-02T14:01:47Z","2022-03-02T14:01:49Z","2022-03-02T14:01:53Z","2022-03-02T14:01:55Z","2022-03-02T14:02:01Z","2022-03-02T14:02:07Z","2022-03-02T14:02:09Z","2022-03-02T14:02:13Z","2022-03-02T14:02:21Z","2022-03-02T14:02:25Z","2022-03-02T14:02:27Z","2022-03-02T14:02:29Z","2022-03-02T14:02:31Z","2022-03-02T14:02:35Z","2022-03-02T14:02:39Z","2022-03-02T14:02:41Z","2022-03-02T14:02:43Z","2022-03-02T14:02:49Z","2022-03-02T14:02:51Z","2022-03-02T14:02:53Z","2022-03-02T14:02:55Z","2022-03-02T14:02:58Z","2022-03-02T14:03:14Z","2022-03-02T14:03:18Z","2022-03-02T14:03:26Z","2022-03-02T14:04:00Z","2022-03-02T14:04:02Z","2022-03-02T14:04:04Z","2022-03-02T14:04:06Z","2022-03-02T14:04:08Z","2022-03-02T14:04:10Z","2022-03-02T14:04:12Z","2022-03-02T14:04:14Z","2022-03-02T14:04:18Z","2022-03-02T14:04:20Z","2022-03-02T14:04:22Z","2022-03-02T14:04:24Z","2022-03-02T14:04:26Z","2022-03-02T14:04:28Z","2022-03-02T14:04:30Z","2022-03-02T14:04:32Z","2022-03-02T14:05:12Z","2022-03-02T14:05:45Z","2022-03-02T14:06:45Z","2022-03-02T14:07:14Z","2022-03-02T14:07:45Z","2022-03-02T14:07:59Z","2022-03-02T14:08:01Z","2022-03-02T14:08:06Z","2022-03-02T14:08:08Z","2022-03-02T14:08:10Z","2022-03-02T14:08:14Z","2022-03-02T14:08:22Z","2022-03-02T14:08:26Z","2022-03-02T14:08:30Z","2022-03-02T14:08:34Z","2022-03-02T14:08:36Z","2022-03-02T14:08:40Z","2022-03-02T14:08:44Z","2022-03-02T14:08:46Z","2022-03-02T14:08:52Z","2022-03-02T14:08:56Z","2022-03-02T14:09:08Z","2022-03-02T14:09:10Z","2022-03-02T14:09:22Z","2022-03-02T14:09:24Z","2022-03-02T14:09:32Z","2022-03-02T14:09:36Z","2022-03-02T14:09:44Z","2022-03-02T14:09:46Z","2022-03-02T14:09:49Z","2022-03-02T14:09:55Z","2022-03-02T14:10:01Z","2022-03-02T14:10:07Z","2022-03-02T14:10:11Z","2022-03-02T14:10:19Z","2022-03-02T14:10:23Z","2022-03-02T14:10:33Z","2022-03-02T14:10:35Z","2022-03-02T14:10:55Z","2022-03-02T14:10:57Z","2022-03-02T14:10:59Z","2022-03-02T14:11:01Z","2022-03-02T14:11:07Z","2022-03-02T14:11:13Z","2022-03-02T14:11:17Z","2022-03-02T14:11:25Z","2022-03-02T14:11:29Z","2022-03-02T14:11:33Z","2022-03-02T14:11:35Z","2022-03-02T14:11:37Z","2022-03-02T14:11:45Z","2022-03-02T14:11:49Z","2022-03-02T14:11:51Z","2022-03-02T14:11:55Z","2022-03-02T14:12:01Z","2022-03-02T14:12:03Z","2022-03-02T14:12:09Z","2022-03-02T14:12:13Z","2022-03-02T14:12:15Z","2022-03-02T14:12:19Z","2022-03-02T14:12:21Z","2022-03-02T14:12:25Z","2022-03-02T14:12:29Z","2022-03-02T14:12:33Z","2022-03-02T14:12:37Z","2022-03-02T14:12:41Z","2022-03-02T14:12:49Z","2022-03-02T14:12:53Z","2022-03-02T14:12:55Z","2022-03-02T14:12:57Z","2022-03-02T14:13:01Z","2022-03-02T14:13:07Z","2022-03-02T14:13:13Z","2022-03-02T14:13:17Z","2022-03-02T14:13:23Z","2022-03-02T14:13:29Z","2022-03-02T14:13:31Z","2022-03-02T14:13:37Z","2022-03-02T14:13:41Z","2022-03-02T14:13:45Z","2022-03-02T14:13:47Z","2022-03-02T14:13:49Z","2022-03-02T14:13:51Z","2022-03-02T14:13:53Z","2022-03-02T14:13:55Z","2022-03-02T14:14:01Z","2022-03-02T14:14:03Z","2022-03-02T14:14:10Z","2022-03-02T14:14:12Z","2022-03-02T14:14:14Z","2022-03-02T14:14:16Z","2022-03-02T14:14:18Z","2022-03-02T14:14:22Z","2022-03-02T14:14:24Z","2022-03-02T14:14:26Z","2022-03-02T14:14:32Z","2022-03-02T14:14:38Z","2022-03-02T14:14:41Z","2022-03-02T14:14:43Z","2022-03-02T14:14:52Z","2022-03-02T14:14:56Z","2022-03-02T14:14:58Z","2022-03-02T14:15:03Z","2022-03-02T14:15:08Z","2022-03-02T14:15:25Z","2022-03-02T14:15:41Z","2022-03-02T14:15:44Z","2022-03-02T14:15:54Z","2022-03-02T14:16:14Z","2022-03-02T14:17:14Z","2022-03-02T14:17:17Z","2022-03-02T14:17:21Z","2022-03-02T14:17:24Z","2022-03-02T14:17:27Z","2022-03-02T14:17:30Z","2022-03-02T14:17:35Z","2022-03-02T14:17:48Z","2022-03-02T14:19:27Z","2022-03-02T14:19:31Z","2022-03-02T14:19:35Z","2022-03-02T14:19:37Z","2022-03-02T14:19:39Z","2022-03-02T14:19:41Z","2022-03-02T14:19:45Z","2022-03-02T14:19:51Z","2022-03-02T14:20:14Z","2022-03-02T14:20:48Z","2022-03-02T14:21:14Z","2022-03-02T14:21:26Z","2022-03-02T14:21:31Z","2022-03-02T14:21:50Z","2022-03-02T14:24:07Z","2022-03-02T14:24:11Z","2022-03-02T14:24:13Z","2022-03-02T14:24:19Z","2022-03-02T14:24:24Z","2022-03-02T14:24:41Z","2022-03-02T14:24:48Z","2022-03-02T14:25:28Z","2022-03-02T14:26:55Z","2022-03-02T14:27:34Z","2022-03-02T14:27:51Z","2022-03-02T14:28:00Z","2022-03-02T14:29:13Z","2022-03-02T14:29:15Z","2022-03-02T14:29:31Z","2022-03-02T14:30:11Z","2022-03-02T14:30:58Z","2022-03-02T14:38:57Z","2022-03-02T14:41:45Z","2022-03-02T14:48:50Z","2022-03-02T14:48:55Z","2022-03-02T14:49:12Z","2022-03-02T14:49:15Z","2022-03-02T14:49:26Z","2022-03-02T14:49:45Z","2022-03-02T14:49:54Z","2022-03-02T14:50:00Z","2022-03-02T14:50:11Z","2022-03-02T14:50:15Z","2022-03-02T14:50:24Z","2022-03-02T14:50:26Z","2022-03-02T14:50:28Z","2022-03-02T14:50:32Z","2022-03-02T14:50:36Z","2022-03-02T14:50:40Z","2022-03-02T14:50:49Z","2022-03-02T14:50:52Z","2022-03-02T14:50:54Z","2022-03-02T14:50:56Z","2022-03-02T14:50:58Z","2022-03-02T14:51:02Z","2022-03-02T14:51:04Z","2022-03-02T14:51:06Z","2022-03-02T14:51:07Z","2022-03-02T14:51:09Z","2022-03-02T14:51:11Z","2022-03-02T14:51:13Z","2022-03-02T14:51:15Z","2022-03-02T14:51:17Z","2022-03-02T14:51:19Z","2022-03-02T14:51:21Z","2022-03-02T14:51:23Z","2022-03-02T14:51:27Z","2022-03-02T14:51:29Z","2022-03-02T14:51:31Z","2022-03-02T14:51:33Z","2022-03-02T14:51:35Z","2022-03-02T14:51:37Z","2022-03-02T14:51:39Z","2022-03-02T14:51:41Z","2022-03-02T14:51:43Z","2022-03-02T14:51:47Z","2022-03-02T14:51:49Z","2022-03-02T14:51:51Z","2022-03-02T14:51:53Z","2022-03-02T14:51:55Z","2022-03-02T14:51:57Z","2022-03-02T14:51:59Z","2022-03-02T14:52:01Z","2022-03-02T14:52:03Z","2022-03-02T14:52:05Z","2022-03-02T14:52:09Z","2022-03-02T14:52:11Z","2022-03-02T14:52:13Z","2022-03-02T14:52:17Z","2022-03-02T14:52:19Z","2022-03-02T14:52:23Z","2022-03-02T14:52:25Z","2022-03-02T14:52:27Z","2022-03-02T14:52:29Z","2022-03-02T14:52:31Z","2022-03-02T14:52:33Z","2022-03-02T14:52:35Z","2022-03-02T14:52:37Z","2022-03-02T14:52:39Z","2022-03-02T14:52:41Z","2022-03-02T14:52:43Z","2022-03-02T14:52:45Z","2022-03-02T14:52:47Z","2022-03-02T14:52:49Z","2022-03-02T14:52:51Z","2022-03-02T14:52:53Z","2022-03-02T14:52:57Z","2022-03-02T14:53:01Z","2022-03-02T14:53:03Z","2022-03-02T14:53:30Z","2022-03-02T14:53:32Z","2022-03-02T14:53:34Z","2022-03-02T14:53:36Z","2022-03-02T14:53:38Z","2022-03-02T14:53:40Z","2022-03-02T14:53:42Z","2022-03-02T14:53:44Z","2022-03-02T14:53:46Z","2022-03-02T14:53:48Z","2022-03-02T14:53:50Z","2022-03-02T14:53:52Z","2022-03-02T14:53:54Z","2022-03-02T14:53:56Z","2022-03-02T14:53:58Z","2022-03-02T14:54:02Z","2022-03-02T14:54:04Z","2022-03-02T14:54:06Z","2022-03-02T14:54:08Z","2022-03-02T14:54:10Z","2022-03-02T14:54:12Z","2022-03-02T14:54:14Z","2022-03-02T14:54:18Z","2022-03-02T14:54:20Z","2022-03-02T14:54:22Z","2022-03-02T14:54:24Z","2022-03-02T14:54:26Z","2022-03-02T14:54:29Z","2022-03-02T14:54:31Z","2022-03-02T14:54:33Z","2022-03-02T14:54:35Z","2022-03-02T14:54:37Z","2022-03-02T14:54:39Z","2022-03-02T14:54:41Z","2022-03-02T14:54:43Z","2022-03-02T14:54:45Z","2022-03-02T14:54:47Z","2022-03-02T14:54:51Z","2022-03-02T14:54:53Z","2022-03-02T14:54:55Z","2022-03-02T14:54:57Z","2022-03-02T14:54:59Z","2022-03-02T14:55:01Z","2022-03-02T14:55:03Z","2022-03-02T14:55:05Z","2022-03-02T14:55:07Z","2022-03-02T14:55:09Z","2022-03-02T14:55:10Z","2022-03-02T14:55:12Z","2022-03-02T14:55:14Z","2022-03-02T14:55:16Z","2022-03-02T14:55:18Z","2022-03-02T14:55:20Z","2022-03-02T14:55:22Z","2022-03-02T14:55:24Z","2022-03-02T14:55:26Z","2022-03-02T14:55:28Z","2022-03-02T14:55:30Z","2022-03-02T14:55:32Z","2022-03-02T14:55:34Z","2022-03-02T14:55:36Z","2022-03-02T14:55:40Z","2022-03-02T14:55:42Z","2022-03-02T14:55:44Z","2022-03-02T14:55:46Z","2022-03-02T14:55:48Z","2022-03-02T14:55:52Z","2022-03-02T14:55:54Z","2022-03-02T14:55:56Z","2022-03-02T14:55:58Z","2022-03-02T14:56:00Z","2022-03-02T14:56:02Z","2022-03-02T14:56:04Z","2022-03-02T14:56:06Z","2022-03-02T14:56:08Z","2022-03-02T14:56:10Z","2022-03-02T14:56:12Z","2022-03-02T14:56:14Z","2022-03-02T14:56:16Z","2022-03-02T14:56:18Z","2022-03-02T14:56:20Z","2022-03-02T14:56:22Z","2022-03-02T14:56:24Z","2022-03-02T14:56:26Z","2022-03-02T14:56:28Z","2022-03-02T14:56:30Z","2022-03-02T14:56:32Z","2022-03-02T14:56:58Z","2022-03-02T14:57:00Z","2022-03-02T14:57:02Z","2022-03-02T14:57:04Z","2022-03-02T14:57:05Z","2022-03-02T14:57:09Z","2022-03-02T14:57:11Z","2022-03-02T14:57:13Z","2022-03-02T14:58:37Z","2022-03-02T14:59:02Z","2022-03-02T14:59:17Z","2022-03-02T14:59:28Z","2022-03-02T14:59:36Z","2022-03-02T14:59:38Z","2022-03-02T14:59:44Z","2022-03-02T14:59:54Z","2022-03-02T14:59:58Z","2022-03-02T15:00:00Z","2022-03-02T15:00:12Z","2022-03-02T15:00:14Z","2022-03-02T15:00:18Z","2022-03-02T15:00:20Z","2022-03-02T15:00:32Z","2022-03-02T15:01:18Z","2022-03-02T15:01:20Z","2022-03-02T15:01:26Z","2022-03-02T15:02:30Z","2022-03-02T15:03:04Z","2022-03-02T15:03:26Z","2022-03-02T15:03:38Z","2022-03-02T15:03:53Z","2022-03-02T15:04:21Z","2022-03-02T15:04:27Z","2022-03-02T15:04:29Z","2022-03-02T15:04:31Z","2022-03-02T15:04:33Z","2022-03-02T15:04:40Z","2022-03-02T15:04:48Z","2022-03-02T15:04:52Z","2022-03-02T15:04:54Z","2022-03-02T15:04:56Z","2022-03-02T15:05:04Z","2022-03-02T15:05:08Z","2022-03-02T15:05:10Z","2022-03-02T15:05:14Z","2022-03-02T15:05:22Z","2022-03-02T15:05:26Z","2022-03-02T15:05:32Z","2022-03-02T15:05:37Z","2022-03-02T15:05:39Z","2022-03-02T15:05:41Z","2022-03-02T15:05:43Z","2022-03-02T15:05:45Z","2022-03-02T15:05:47Z","2022-03-02T15:05:51Z","2022-03-02T15:05:53Z","2022-03-02T15:06:01Z","2022-03-02T15:06:05Z","2022-03-02T15:06:09Z","2022-03-02T15:06:20Z","2022-03-02T15:06:23Z","2022-03-02T15:06:31Z","2022-03-02T15:06:38Z","2022-03-02T15:06:45Z","2022-03-02T15:06:48Z","2022-03-02T15:06:51Z","2022-03-02T15:06:57Z","2022-03-02T15:07:07Z","2022-03-02T15:07:10Z","2022-03-02T15:07:12Z","2022-03-02T15:07:14Z","2022-03-02T15:07:16Z","2022-03-02T15:07:18Z","2022-03-02T15:07:20Z","2022-03-02T15:07:22Z","2022-03-02T15:07:24Z","2022-03-02T15:07:26Z","2022-03-02T15:07:28Z","2022-03-02T15:07:30Z","2022-03-02T15:07:32Z","2022-03-02T15:07:34Z","2022-03-02T15:07:36Z","2022-03-02T15:07:38Z","2022-03-02T15:07:40Z","2022-03-02T15:07:42Z","2022-03-02T15:07:44Z","2022-03-02T15:07:46Z","2022-03-02T15:07:48Z","2022-03-02T15:07:49Z","2022-03-02T15:07:53Z","2022-03-02T15:07:55Z","2022-03-02T15:07:57Z","2022-03-02T15:08:03Z","2022-03-02T15:08:05Z","2022-03-02T15:08:07Z","2022-03-02T15:08:09Z","2022-03-02T15:08:11Z","2022-03-02T15:08:15Z","2022-03-02T15:08:17Z","2022-03-02T15:08:19Z","2022-03-02T15:08:21Z","2022-03-02T15:08:23Z","2022-03-02T15:08:27Z","2022-03-02T15:08:31Z","2022-03-02T15:08:33Z","2022-03-02T15:08:35Z","2022-03-02T15:08:39Z","2022-03-02T15:08:41Z","2022-03-02T15:08:43Z","2022-03-02T15:08:47Z","2022-03-02T15:08:49Z","2022-03-02T15:08:51Z","2022-03-02T15:08:53Z","2022-03-02T15:08:55Z","2022-03-02T15:08:57Z","2022-03-02T15:08:59Z","2022-03-02T15:09:12Z","2022-03-02T15:09:21Z","2022-03-02T15:09:24Z","2022-03-02T15:09:26Z","2022-03-02T15:09:28Z","2022-03-02T15:09:30Z","2022-03-02T15:09:32Z","2022-03-02T15:09:34Z","2022-03-02T15:09:36Z","2022-03-02T15:09:37Z","2022-03-02T15:09:39Z","2022-03-02T15:09:41Z","2022-03-02T15:09:43Z","2022-03-02T15:09:45Z","2022-03-02T15:09:47Z","2022-03-02T15:09:49Z","2022-03-02T15:09:53Z","2022-03-02T15:09:55Z","2022-03-02T15:09:57Z","2022-03-02T15:09:59Z","2022-03-02T15:10:01Z","2022-03-02T15:10:03Z","2022-03-02T15:10:05Z","2022-03-02T15:11:19Z","2022-03-02T15:11:20Z","2022-03-02T15:11:22Z","2022-03-02T15:11:23Z","2022-03-02T15:11:24Z","2022-03-02T15:11:25Z","2022-03-02T15:11:26Z","2022-03-02T15:11:28Z","2022-03-02T15:11:29Z","2022-03-02T15:11:30Z","2022-03-02T15:11:31Z","2022-03-02T15:11:32Z","2022-03-02T15:11:34Z","2022-03-02T15:11:36Z","2022-03-02T15:11:38Z","2022-03-02T15:11:40Z","2022-03-02T15:11:42Z","2022-03-02T15:11:44Z","2022-03-02T15:11:46Z","2022-03-02T15:11:48Z","2022-03-02T15:11:50Z","2022-03-02T15:11:52Z","2022-03-02T15:11:54Z","2022-03-02T15:11:56Z","2022-03-02T15:11:58Z","2022-03-02T15:12:00Z","2022-03-02T15:12:02Z","2022-03-02T15:12:04Z","2022-03-02T15:12:12Z","2022-03-02T15:12:14Z","2022-03-02T15:12:22Z","2022-03-02T15:12:28Z","2022-03-02T15:12:30Z","2022-03-02T15:12:32Z","2022-03-02T15:12:36Z","2022-03-02T15:12:45Z","2022-03-02T15:12:47Z","2022-03-02T15:12:49Z","2022-03-02T15:12:51Z","2022-03-02T15:12:53Z","2022-03-02T15:13:05Z","2022-03-02T15:13:30Z","2022-03-02T15:13:46Z","2022-03-02T15:13:48Z","2022-03-02T15:14:02Z","2022-03-02T15:14:04Z","2022-03-02T15:14:08Z","2022-03-02T15:14:12Z","2022-03-02T15:14:14Z","2022-03-02T15:14:16Z","2022-03-02T15:14:18Z","2022-03-02T15:14:24Z","2022-03-02T15:14:40Z","2022-03-02T15:14:47Z","2022-03-02T15:14:56Z","2022-03-02T15:15:03Z","2022-03-02T15:15:17Z","2022-03-02T15:15:39Z","2022-03-02T15:15:47Z","2022-03-02T15:15:55Z","2022-03-02T15:15:58Z","2022-03-02T15:16:02Z","2022-03-02T15:16:04Z","2022-03-02T15:16:06Z","2022-03-02T15:16:08Z","2022-03-02T15:16:10Z","2022-03-02T15:16:16Z","2022-03-02T15:16:22Z","2022-03-02T15:16:24Z","2022-03-02T15:16:28Z","2022-03-02T15:16:32Z","2022-03-02T15:16:36Z","2022-03-02T15:16:40Z","2022-03-02T15:16:46Z","2022-03-02T15:16:48Z","2022-03-02T15:16:50Z","2022-03-02T15:17:02Z","2022-03-02T15:17:08Z","2022-03-02T15:17:10Z","2022-03-02T15:17:12Z","2022-03-02T15:17:14Z","2022-03-02T15:17:16Z","2022-03-02T15:17:24Z","2022-03-02T15:17:40Z","2022-03-02T15:17:46Z","2022-03-02T15:17:48Z","2022-03-02T15:17:52Z","2022-03-02T15:17:54Z","2022-03-02T15:17:58Z","2022-03-02T15:18:02Z","2022-03-02T15:18:08Z","2022-03-02T15:18:14Z","2022-03-02T15:18:18Z","2022-03-02T15:18:20Z","2022-03-02T15:18:30Z","2022-03-02T15:18:34Z","2022-03-02T15:18:42Z","2022-03-02T15:18:52Z","2022-03-02T15:19:02Z","2022-03-02T15:19:06Z","2022-03-02T15:19:12Z","2022-03-02T15:19:22Z","2022-03-02T15:19:24Z","2022-03-02T15:19:34Z","2022-03-02T15:19:36Z","2022-03-02T15:19:48Z","2022-03-02T15:20:04Z","2022-03-02T15:20:10Z","2022-03-02T15:20:14Z","2022-03-02T15:20:17Z","2022-03-02T15:20:20Z","2022-03-02T15:20:26Z","2022-03-02T15:20:28Z","2022-03-02T15:20:32Z","2022-03-02T15:20:36Z","2022-03-02T15:20:39Z","2022-03-02T15:20:41Z","2022-03-02T15:20:43Z","2022-03-02T15:20:45Z","2022-03-02T15:20:53Z","2022-03-02T15:20:55Z","2022-03-02T15:20:57Z","2022-03-02T15:20:59Z","2022-03-02T15:21:01Z","2022-03-02T15:21:03Z","2022-03-02T15:21:05Z","2022-03-02T15:21:07Z","2022-03-02T15:21:09Z","2022-03-02T15:21:11Z","2022-03-02T15:21:13Z","2022-03-02T15:21:15Z","2022-03-02T15:21:17Z","2022-03-02T15:21:19Z","2022-03-02T15:21:21Z","2022-03-02T15:21:23Z","2022-03-02T15:21:25Z","2022-03-02T15:21:27Z","2022-03-02T15:21:29Z","2022-03-02T15:21:31Z","2022-03-02T15:21:33Z","2022-03-02T15:21:35Z","2022-03-02T15:21:37Z","2022-03-02T15:21:39Z","2022-03-02T15:21:41Z","2022-03-02T15:21:43Z","2022-03-02T15:21:45Z","2022-03-02T15:21:49Z","2022-03-02T15:21:51Z","2022-03-02T15:21:53Z","2022-03-02T15:21:55Z","2022-03-02T15:21:57Z","2022-03-02T15:21:59Z","2022-03-02T15:22:01Z","2022-03-02T15:22:03Z","2022-03-02T15:22:05Z","2022-03-02T15:22:07Z","2022-03-02T15:22:08Z","2022-03-02T15:22:10Z","2022-03-02T15:22:12Z","2022-03-02T15:22:14Z","2022-03-02T15:22:16Z","2022-03-02T15:22:18Z","2022-03-02T15:22:20Z","2022-03-02T15:22:22Z","2022-03-02T15:22:24Z","2022-03-02T15:22:26Z","2022-03-02T15:22:28Z","2022-03-02T15:22:30Z","2022-03-02T15:22:32Z","2022-03-02T15:22:34Z","2022-03-02T15:22:36Z","2022-03-02T15:22:38Z","2022-03-02T15:22:40Z","2022-03-02T15:22:42Z","2022-03-02T15:22:44Z","2022-03-02T15:22:46Z","2022-03-02T15:22:48Z","2022-03-02T15:22:50Z","2022-03-02T15:22:52Z","2022-03-02T15:22:54Z","2022-03-02T15:22:56Z","2022-03-02T15:22:58Z","2022-03-02T15:23:00Z","2022-03-02T15:23:02Z","2022-03-02T15:23:04Z","2022-03-02T15:23:06Z","2022-03-02T15:23:08Z","2022-03-02T15:23:10Z","2022-03-02T15:23:12Z","2022-03-02T15:23:14Z","2022-03-02T15:23:16Z","2022-03-02T15:23:18Z","2022-03-02T15:23:20Z","2022-03-02T15:23:22Z","2022-03-02T15:23:24Z","2022-03-02T15:23:26Z","2022-03-02T15:23:28Z","2022-03-02T15:23:30Z","2022-03-02T15:23:32Z","2022-03-02T15:23:34Z","2022-03-02T15:23:36Z","2022-03-02T15:23:38Z","2022-03-02T15:23:42Z","2022-03-02T15:23:44Z","2022-03-02T15:23:46Z","2022-03-02T15:23:48Z","2022-03-02T15:23:50Z","2022-03-02T15:23:52Z","2022-03-02T15:23:53Z","2022-03-02T15:23:54Z","2022-03-02T15:23:55Z","2022-03-02T15:23:56Z","2022-03-02T15:23:58Z","2022-03-02T15:24:00Z","2022-03-02T15:24:02Z","2022-03-02T15:24:04Z","2022-03-02T15:24:06Z","2022-03-02T15:24:08Z","2022-03-02T15:24:10Z","2022-03-02T15:24:12Z","2022-03-02T15:24:14Z","2022-03-02T15:24:18Z","2022-03-02T15:24:20Z","2022-03-02T15:24:22Z","2022-03-02T15:24:24Z","2022-03-02T15:24:26Z","2022-03-02T15:24:28Z","2022-03-02T15:24:30Z","2022-03-02T15:24:32Z","2022-03-02T15:24:34Z","2022-03-02T15:24:36Z","2022-03-02T15:24:38Z","2022-03-02T15:24:40Z","2022-03-02T15:24:42Z","2022-03-02T15:24:44Z","2022-03-02T15:24:46Z","2022-03-02T15:24:48Z","2022-03-02T15:24:50Z","2022-03-02T15:24:52Z","2022-03-02T15:24:54Z","2022-03-02T15:24:56Z","2022-03-02T15:24:58Z","2022-03-02T15:25:00Z","2022-03-02T15:25:04Z","2022-03-02T15:25:06Z","2022-03-02T15:25:10Z","2022-03-02T15:25:12Z","2022-03-02T15:25:14Z","2022-03-02T15:25:21Z","2022-03-02T15:25:27Z","2022-03-02T15:27:59Z","2022-03-02T15:28:11Z","2022-03-02T15:28:22Z","2022-03-02T15:28:31Z","2022-03-02T15:28:33Z","2022-03-02T15:28:35Z","2022-03-02T15:28:39Z","2022-03-02T15:28:47Z","2022-03-02T15:28:49Z","2022-03-02T15:28:51Z","2022-03-02T15:29:03Z","2022-03-02T15:29:05Z","2022-03-02T15:29:07Z","2022-03-02T15:29:09Z","2022-03-02T15:29:11Z","2022-03-02T15:29:13Z","2022-03-02T15:29:35Z","2022-03-02T15:29:42Z","2022-03-02T15:29:49Z","2022-03-02T15:30:19Z","2022-03-02T15:30:26Z","2022-03-02T15:30:59Z","2022-03-02T15:31:04Z","2022-03-02T15:31:08Z","2022-03-02T15:31:20Z","2022-03-02T15:31:29Z","2022-03-02T15:31:31Z","2022-03-02T15:31:33Z","2022-03-02T15:32:14Z","2022-03-02T15:32:16Z","2022-03-02T15:32:20Z","2022-03-02T15:32:26Z","2022-03-02T15:32:48Z","2022-03-02T15:33:12Z","2022-03-02T15:33:32Z","2022-03-02T15:33:35Z","2022-03-02T15:33:39Z","2022-03-02T15:33:43Z","2022-03-02T15:33:47Z","2022-03-02T15:33:51Z","2022-03-02T15:33:53Z","2022-03-02T15:33:55Z","2022-03-02T15:34:44Z","2022-03-02T15:35:17Z","2022-03-02T15:35:23Z","2022-03-02T15:36:11Z","2022-03-02T15:36:50Z","2022-03-02T15:37:10Z","2022-03-02T15:37:18Z","2022-03-02T15:37:34Z","2022-03-02T15:37:42Z","2022-03-02T15:38:20Z","2022-03-02T15:38:22Z","2022-03-02T15:38:26Z","2022-03-02T15:38:30Z","2022-03-02T15:38:36Z","2022-03-02T15:38:42Z","2022-03-02T15:38:46Z","2022-03-02T15:38:48Z","2022-03-02T15:38:52Z","2022-03-02T15:39:08Z","2022-03-02T15:39:16Z","2022-03-02T15:39:20Z","2022-03-02T15:39:26Z","2022-03-02T15:39:28Z","2022-03-02T15:39:48Z","2022-03-02T15:39:56Z","2022-03-02T15:39:58Z","2022-03-02T15:40:03Z","2022-03-02T15:40:05Z","2022-03-02T15:40:09Z","2022-03-02T15:40:11Z","2022-03-02T15:40:13Z","2022-03-02T15:40:15Z","2022-03-02T15:40:17Z","2022-03-02T15:40:41Z","2022-03-02T15:40:44Z","2022-03-02T15:40:48Z","2022-03-02T15:40:50Z","2022-03-02T15:40:52Z","2022-03-02T15:40:54Z","2022-03-02T15:40:56Z","2022-03-02T15:40:58Z","2022-03-02T15:41:00Z","2022-03-02T15:41:02Z","2022-03-02T15:41:04Z","2022-03-02T15:41:06Z","2022-03-02T15:41:08Z","2022-03-02T15:41:10Z","2022-03-02T15:41:12Z","2022-03-02T15:41:16Z","2022-03-02T15:41:18Z","2022-03-02T15:41:20Z","2022-03-02T15:41:22Z","2022-03-02T15:41:24Z","2022-03-02T15:41:28Z","2022-03-02T15:41:30Z","2022-03-02T15:41:32Z","2022-03-02T15:41:36Z","2022-03-02T15:41:38Z","2022-03-02T15:41:42Z","2022-03-02T15:41:44Z","2022-03-02T15:41:46Z","2022-03-02T15:41:48Z","2022-03-02T15:41:50Z","2022-03-02T15:41:52Z","2022-03-02T15:41:54Z","2022-03-02T15:41:56Z","2022-03-02T15:41:58Z","2022-03-02T15:42:00Z","2022-03-02T15:42:02Z","2022-03-02T15:42:08Z","2022-03-02T15:42:10Z","2022-03-02T15:42:13Z","2022-03-02T15:42:17Z","2022-03-02T15:42:19Z","2022-03-02T15:42:21Z","2022-03-02T15:42:23Z","2022-03-02T15:42:27Z","2022-03-02T15:42:29Z","2022-03-02T15:42:32Z","2022-03-02T15:42:34Z","2022-03-02T15:42:36Z","2022-03-02T15:42:38Z","2022-03-02T15:42:40Z","2022-03-02T15:42:42Z","2022-03-02T15:42:44Z","2022-03-02T15:42:46Z","2022-03-02T15:42:48Z","2022-03-02T15:42:50Z","2022-03-02T15:42:52Z","2022-03-02T15:42:54Z","2022-03-02T15:42:56Z","2022-03-02T15:43:00Z","2022-03-02T15:43:02Z","2022-03-02T15:43:04Z","2022-03-02T15:43:06Z","2022-03-02T15:43:10Z","2022-03-02T15:43:12Z","2022-03-02T15:43:14Z","2022-03-02T15:43:18Z","2022-03-02T15:43:20Z","2022-03-02T15:43:22Z","2022-03-02T15:43:24Z","2022-03-02T15:43:26Z","2022-03-02T15:43:28Z","2022-03-02T15:43:30Z","2022-03-02T15:43:32Z","2022-03-02T15:43:34Z","2022-03-02T15:43:36Z","2022-03-02T15:43:37Z","2022-03-02T15:43:39Z","2022-03-02T15:43:41Z","2022-03-02T15:43:43Z","2022-03-02T15:43:45Z","2022-03-02T15:43:47Z","2022-03-02T15:43:49Z","2022-03-02T15:43:53Z","2022-03-02T15:43:55Z","2022-03-02T15:43:57Z","2022-03-02T15:43:59Z","2022-03-02T15:44:01Z","2022-03-02T15:44:03Z","2022-03-02T15:44:05Z","2022-03-02T15:44:07Z","2022-03-02T15:44:08Z","2022-03-02T15:44:10Z","2022-03-02T15:44:12Z","2022-03-02T15:44:14Z","2022-03-02T15:44:16Z","2022-03-02T15:44:18Z","2022-03-02T15:44:20Z","2022-03-02T15:44:22Z","2022-03-02T15:44:24Z","2022-03-02T15:44:26Z","2022-03-02T15:44:28Z","2022-03-02T15:44:30Z","2022-03-02T15:44:34Z","2022-03-02T15:44:38Z","2022-03-02T15:44:40Z","2022-03-02T15:44:44Z","2022-03-02T15:44:46Z","2022-03-02T15:44:50Z","2022-03-02T15:44:52Z","2022-03-02T15:44:54Z","2022-03-02T15:44:57Z","2022-03-02T15:44:58Z","2022-03-02T15:45:00Z","2022-03-02T15:45:01Z","2022-03-02T15:45:02Z","2022-03-02T15:45:04Z","2022-03-02T15:45:06Z","2022-03-02T15:45:08Z","2022-03-02T15:45:10Z","2022-03-02T15:45:12Z","2022-03-02T15:45:16Z","2022-03-02T15:45:18Z","2022-03-02T15:45:20Z","2022-03-02T15:45:22Z","2022-03-02T15:45:24Z","2022-03-02T15:45:26Z","2022-03-02T15:45:28Z","2022-03-02T15:45:30Z","2022-03-02T15:45:32Z","2022-03-02T15:45:45Z","2022-03-02T15:45:49Z","2022-03-02T15:45:51Z","2022-03-02T15:45:54Z","2022-03-02T15:46:08Z","2022-03-02T15:46:15Z","2022-03-02T15:46:23Z","2022-03-02T15:46:38Z","2022-03-02T15:47:57Z","2022-03-02T15:48:43Z","2022-03-02T15:48:49Z","2022-03-02T15:48:51Z","2022-03-02T15:48:54Z","2022-03-02T15:49:04Z","2022-03-02T15:49:08Z","2022-03-02T15:49:14Z","2022-03-02T15:49:16Z","2022-03-02T15:49:20Z","2022-03-02T15:49:22Z","2022-03-02T15:49:24Z","2022-03-02T15:49:26Z","2022-03-02T15:49:30Z","2022-03-02T15:49:32Z","2022-03-02T15:49:34Z","2022-03-02T15:49:36Z","2022-03-02T15:49:38Z","2022-03-02T15:49:40Z","2022-03-02T15:49:45Z","2022-03-02T15:49:47Z","2022-03-02T15:49:49Z","2022-03-02T15:49:53Z","2022-03-02T15:50:01Z","2022-03-02T15:50:06Z","2022-03-02T15:50:09Z","2022-03-02T15:50:15Z","2022-03-02T15:50:17Z","2022-03-02T15:50:21Z","2022-03-02T15:50:25Z","2022-03-02T15:50:27Z","2022-03-02T15:50:30Z","2022-03-02T15:50:33Z","2022-03-02T15:50:35Z","2022-03-02T15:50:37Z","2022-03-02T15:50:44Z","2022-03-02T15:50:51Z","2022-03-02T15:50:56Z","2022-03-02T15:51:12Z","2022-03-02T15:51:29Z","2022-03-02T15:52:00Z","2022-03-02T15:52:16Z","2022-03-02T15:52:23Z","2022-03-02T15:52:28Z","2022-03-02T15:52:30Z","2022-03-02T15:52:34Z","2022-03-02T15:52:36Z","2022-03-02T15:52:38Z","2022-03-02T15:52:40Z","2022-03-02T15:52:46Z","2022-03-02T15:52:48Z","2022-03-02T15:52:50Z","2022-03-02T15:52:52Z","2022-03-02T15:52:54Z","2022-03-02T15:52:56Z","2022-03-02T15:52:58Z","2022-03-02T15:53:02Z","2022-03-02T15:53:08Z","2022-03-02T15:53:11Z","2022-03-02T15:53:17Z","2022-03-02T15:53:18Z","2022-03-02T15:53:20Z","2022-03-02T15:53:22Z","2022-03-02T15:53:44Z","2022-03-02T15:53:46Z","2022-03-02T15:54:32Z","2022-03-02T15:54:34Z","2022-03-02T15:54:44Z","2022-03-02T15:54:56Z","2022-03-02T15:55:02Z","2022-03-02T15:55:14Z","2022-03-02T15:55:16Z","2022-03-02T15:55:23Z","2022-03-02T15:55:27Z","2022-03-02T15:55:31Z","2022-03-02T15:55:35Z","2022-03-02T15:55:47Z","2022-03-02T15:55:51Z","2022-03-02T15:55:54Z","2022-03-02T15:55:57Z","2022-03-02T15:55:59Z","2022-03-02T15:56:01Z","2022-03-02T15:56:03Z","2022-03-02T15:56:05Z","2022-03-02T15:56:09Z","2022-03-02T15:56:11Z","2022-03-02T15:56:13Z","2022-03-02T15:56:15Z","2022-03-02T15:56:17Z","2022-03-02T15:56:27Z","2022-03-02T15:56:48Z","2022-03-02T15:56:52Z","2022-03-02T15:56:54Z","2022-03-02T15:56:56Z","2022-03-02T15:56:58Z","2022-03-02T15:57:02Z","2022-03-02T15:57:04Z","2022-03-02T15:57:06Z","2022-03-02T15:57:10Z","2022-03-02T15:57:11Z","2022-03-02T15:57:13Z","2022-03-02T15:57:15Z","2022-03-02T15:57:17Z","2022-03-02T15:57:19Z","2022-03-02T15:57:21Z","2022-03-02T15:57:23Z","2022-03-02T15:57:25Z","2022-03-02T15:57:29Z","2022-03-02T15:57:31Z","2022-03-02T15:57:33Z","2022-03-02T15:57:35Z","2022-03-02T15:57:37Z","2022-03-02T15:57:41Z","2022-03-02T15:57:43Z","2022-03-02T15:57:49Z","2022-03-02T15:57:55Z","2022-03-02T15:57:57Z","2022-03-02T15:57:59Z","2022-03-02T15:58:03Z","2022-03-02T15:58:07Z","2022-03-02T15:58:09Z","2022-03-02T15:58:11Z","2022-03-02T15:58:13Z","2022-03-02T15:58:20Z","2022-03-02T15:59:00Z","2022-03-02T15:59:32Z","2022-03-02T16:00:02Z","2022-03-02T16:00:13Z","2022-03-02T16:00:29Z","2022-03-02T16:01:11Z","2022-03-02T16:01:37Z","2022-03-02T16:01:39Z","2022-03-02T16:01:59Z","2022-03-02T16:02:12Z","2022-03-02T16:02:51Z","2022-03-02T16:03:05Z","2022-03-02T16:03:20Z","2022-03-02T16:04:04Z","2022-03-02T16:04:35Z","2022-03-02T16:05:21Z","2022-03-02T16:05:40Z","2022-03-02T16:06:00Z","2022-03-02T16:06:12Z","2022-03-02T16:08:05Z","2022-03-02T16:08:28Z","2022-03-02T16:08:54Z","2022-03-02T16:09:02Z","2022-03-02T16:09:37Z","2022-03-02T16:09:57Z","2022-03-02T16:10:09Z","2022-03-02T16:11:03Z","2022-03-02T16:11:10Z","2022-03-02T16:11:32Z","2022-03-02T16:11:40Z","2022-03-02T16:11:57Z","2022-03-02T16:12:06Z","2022-03-02T16:12:40Z","2022-03-02T16:13:18Z","2022-03-02T16:13:30Z","2022-03-02T16:14:32Z","2022-03-02T16:15:11Z","2022-03-02T16:15:13Z","2022-03-02T16:15:41Z","2022-03-02T16:16:17Z"],"heartRates":[null,null,null,null,null,114,null,112,null,112,119,null,116,114,null,105,105,null,null,null,null,null,null,null,null,null,112,null,null,null,null,null,null,null,null,null,null,null,null,103,null,null,null,null,null,105,null,null,95,94,null,null,96,null,null,94,95,94,null,96,null,null,92,93,95,96,null,null,98,null,null,103,null,106,null,null,null,109,108,null,null,null,null,107,107,105,101,null,100,null,null,null,null,null,null,null,null,null,null,null,100,null,null,null,null,null,106,null,110,110,null,107,null,103,null,100,null,108,null,null,null,113,100,97,101,null,null,null,null,96,null,93,89,89,90,85,null,null,null,84,null,88,null,88,89,null,null,null,null,null,null,85,null,null,null,null,87,86,89,null,null,null,94,91,null,90,null,null,92,null,88,null,null,null,89,null,90,93,98,97,null,null,null,null,null,107,109,109,107,108,108,107,107,null,null,null,105,null,103,103,102,104,107,107,109,107,null,null,null,null,109,108,107,null,null,null,null,null,null,null,94,90,null,null,84,null,null,null,84,83,84,85,87,85,78,null,null,null,82,82,81,null,null,79,null,null,null,null,null,null,null,78,null,null,null,null,null,82,92,100,106,null,null,null,null,null,null,105,103,104,null,null,null,109,111,106,107,107,null,108,107,106,null,104,105,null,null,null,105,null,null,null,null,null,null,null,null,99,103,null,103,null,null,null,null,null,90,null,null,null,null,null,null,null,84,null,85,null,null,89,null,88,89,88,null,null,85,86,null,null,null,null,null,88,88,89,89,92,null,90,90,null,null,null,null,90,88,94,null,null,null,null,null,98,null,null,null,null,null,100,99,99,100,99,null,null,null,91,null,null,90,88,null,89,89,88,104,104,106,null,null,106,null,null,103,null,null,null,null,null,null,null,null,null,null,null,106,105,null,null,null,null,null,null,null,null,103,102,null,null,103,null,null,null,null,116,null,null,null,null,null,null,null,118,null,null,null,null,119,116,null,115,113,110,null,null,null,null,null,null,107,106,null,null,null,null,118,120,null,120,121,120,121,null,120,111,null,null,104,104,103,106,100,null,null,null,100,99,null,null,null,null,null,null,null,null,null,98,97,null,null,null,49,62,null,null,null,82,null,null,null,null,97,97,null,95,93,93,null,null,93,106,null,null,null,107,107,null,null,null,null,null,null,null,null,null,null,null,null,null,null,102,null,102,null,null,null,null,null,null,null,null,118,null,null,null,null,null,null,119,117,null,117,111,null,null,null,null,null,null,null,null,null,null,81,81,83,83,null,null,null,null,null,null,null,85,null,null,null,88,null,null,null,null,null,null,null,null,null,null,null,null,102,null,null,null,null,null,null,110,null,108,null,null,116,null,null,null,121,121,null,null,null,null,null,122,120,118,117,110,null,null,null,null,null,null,null,114,null,null,null,117,118,null,null,null,null,null,null,null,null,null,null,115,115,null,null,118,117,null,null,114,110,null,null,110,109,106,null,null,null,104,105,104,101,null,null,null,null,null,null,91,92,null,null,null,95,null,94,92,92,null,null,null,null,null,null,null,null,null,92,null,null,null,91,92,91,null,null,null,92,null,94,95,95,null,null,null,null,97,null,null,96,null,null,null,null,95,94,null,95,96,97,95,96,null,98,96,91,91,null,104,null,114,116,117,115,null,114,113,114,null,114,null,null,114,115,null,116,115,100,100,null,null,null,null,null,null,null,null,95,92,null,null,91,92,92,null,88,89,null,87,85,82,null,89,null,91,null,89,null,null,null,90,89,90,null,84,89,91,null,91,90,null,null,86,null,87,null,85,null,null,88,87,85,null,86,87,null,null,null,null,88,85,84,null,null,null,87,86,85,null,null,null,84,86,87,null,null,null,null,null,null,87,null,87,null,null,null,81,null,null,null,null,85,null,null,92,null,94,93,null,null,null,96,96,96,103,null,null,98,103,null,107,107,null,null,null,null,null,null,98,98,null,null,100,null,null,null,107,null,101,102,100,null,null,null,null,108,94,null,101,null,null,null,91,null,null,null,83,null,null,113,110,null,null,null,null,null,116,null,null,null,null,106,104,null,null,null,null,null,null,null,null,null,null,null,null,null,null,null,null,99,null,null,null,null,103,null,null,null,null,100,103,102,103,null,104,null,null,null,null,null,105,104,105,105,103,null,106,104,null,null,106,null,108,null,113,116,115,116,null,null,null,null,114,null,null,null,null,null,null,null,null,null,null,null,null,null,null,null,null,null,null,null,null,null,null,null,null,null,null,null,null,null,null,null,null,null,null,null,null,null,null,null,null,null,null,null,null,null,null,null,null,null,null,null,null,null,null,null,null,null,null,null,null,null,null,null,null,null,null,null,null,null,null,null,null,null,null,null,null,null,null,null,null,null,null,null,null,null,null,null,122,124,null,null,123,122,null,null,94,91,96,null,null,102,null,null,null,null,null,92,null,null,94,null,null,null,null,null,null,null,87,null,null,84,84,84,null,89,null,null,88,null,null,null,null,86,null,85,null,null,null,null,89,88,89,null,null,null,98,115,null,111,110,null,null,null,null,null,null,101,null,null,null,null,null,null,null,null,106,null,null,null,null,null,null,100,100,null,null,null,null,null,null,null,null,null,null,null,null,null,null,null,null,null,null,null,null,null,null,null,null,null,null,null,null,null,null,98,97,98,null,null,null,null,null,103,104,null,null,null,null,null,98,97,96,96,94,92,92,null,100,null,100,null,99,null,null,null,99,null,101,100,102,null,null,null,null,null,null,null,105,104,105,null,107,null,null,110,null,null,104,105,null,105,105,106,null,106,106,null,null,null,105,null,114,116,null,null,112,113,null,117,null,122,null,null,null,109,null,103,102,102,null,101,100,97,94,91,91,92,94,null,null,null,null,88,null,null,null,83,84,null,null,79,null,null,null,84,null,null,null,null,81,null,null,81,78,null,null,81,null,null,84,85,82,82,84,86,87,null,87,87,92,92,90,91,91,92,94,95,94,95,95,null,null,null,98,null,null,null,null,null,null,null,null,97,99,99,null,null,98,99,99,99,null,null,103,103,null,102,103,103,null,102,null,102,null,null,null,null,106,null,108,109,null,113,117,118,null,null,null,118,118,118,117,118,null,116,114,null,null,null,null,null,null,null,null,null,null,null,null,null,null,109,null,106,108,null,108,null,null,null,null,null,null,102,103,null,null,null,102,null,null,null,null,null,null,null,null,null,null,null,null,null,103,103,102,102,102,103,null,null,null,null,null,106,108,null,110,110,112,112,null,null,null,null,null,null,null,89,null,null,null,91,null,null,null,86,null,null,null,85,86,null,null,85,83,83,null,null,null,78,79,null,null,82,85,null,null,null,null,121,119,null,null,null,105,null,104,null,104,76,74,null,79,null,84,null,84,84,null,null,null,85,84,null,null,null,86,82,null,null,null,null,null,null,null,null,null,null,null,88,89,89,91,null,null,null,null,null,null,100,104,106,null,106,105,104,null,104,105,106,105,null,null,null,null,null,null,null,null,102,102,103,null,null,null,null,104,103,null,null,null,102,null,100,null,null,95,98,99,null,101,101,null,null,102,102,100,null,null,null,null,null,null,null,null,null,null,null,null,83,84,83,86,85,84,null,null,82,81,null,82,82,81,81,82,null,null,85,85,87,null,null,89,null,null,null,null,null,89,90,91,93,94,96,96,null,null,null,null,null,null,null,null,102,103,null,102,null,104,106,107,109,111,110,null,null,null,110,111,null,null,109,110,110,null,111,null,110,null,92,null,null,null,null,94,null,92,92,null,null,92,93,null,89,89,null,null,null,null,null,97,null,null,97,null,null,null,null,null,null,null,null,null,null,null,96,96,105,null,null,null,null,98,null,null,null,99,98,95,null,null,null,null,93,92,null,null,null,82,null,null,null,null,79,null,86,84,null,null,null,83,84,null,98,98,null,92,null,null,null,null,null,null,null,null,null,97,null,95,null,null,null,null,null,89,null,null,null,94,null,94,93,null,null,null,95,93,null,null,93,null,95,null,null,null,null,null,null,null,null,95,96,null,88,110,107,108,107,null,114,112,null,108,null,null,106,null,null,99,114,null,101,107,110,100,null,105,117,null,null,null,95,93,null,null,90,101,null,93,null,null,null,null],"month":"2022-03-01"},"geometry":{"type":"LineString","coordinates":[[6.899814,45.452732],[6.90025,45.453037],[6.900322,45.45293],[6.900362,45.452842],[6.900404,45.452857],[6.900422,45.452804],[6.900461,45.45285],[6.900511,45.452888],[6.900563,45.452861],[6.900539,45.452903],[6.90056,45.452857],[6.900483,45.452831],[6.900424,45.4528],[6.900392,45.452758],[6.900264,45.452728],[6.900197,45.452728],[6.900102,45.452678],[6.900047,45.45256],[6.900032,45.452499],[6.899931,45.452537],[6.899859,45.452579],[6.899823,45.452495],[6.899568,45.45256],[6.899531,45.452617],[6.89944,45.452564],[6.899363,45.45261],[6.899259,45.45261,0],[6.899169,45.452629],[6.898996,45.452583],[6.89874,45.452636],[6.898544,45.452709],[6.898568,45.452907],[6.898329,45.452823],[6.898207,45.452869],[6.898152,45.452922],[6.89823,45.452926],[6.898364,45.452911],[6.898421,45.452888],[6.898485,45.452873],[6.898554,45.452873],[6.898723,45.452857],[6.898877,45.452823],[6.898983,45.452777],[6.899077,45.452751],[6.899448,45.452674],[6.899555,45.452663],[6.899803,45.452575],[6.899911,45.45256],[6.900089,45.452522],[6.900308,45.452449],[6.900476,45.452411],[6.900568,45.452381],[6.900654,45.452369],[6.900746,45.452339],[6.900985,45.452289],[6.901063,45.452201],[6.90116,45.452186],[6.90087,45.452255],[6.90101,45.452224],[6.901166,45.452156],[6.90127,45.452144],[6.903088,45.451732],[6.903208,45.451686],[6.903324,45.451679],[6.904348,45.451431],[6.904424,45.451393],[6.905355,45.451175],[6.90541,45.451148],[6.90553,45.45111],[6.905002,45.451271],[6.904915,45.451309],[6.905148,45.451873],[6.905048,45.451934],[6.904748,45.452163],[6.904533,45.452484],[6.904543,45.452598],[6.904539,45.452713],[6.904454,45.452816],[6.904289,45.452857],[6.904114,45.452865],[6.903964,45.452941],[6.903738,45.453121],[6.903364,45.453636],[6.903226,45.453907],[6.903156,45.45399],[6.90305,45.454051],[6.902971,45.454135],[6.903028,45.454219],[6.90301,45.454319],[6.902909,45.454406],[6.902912,45.454509],[6.902851,45.454612],[6.902815,45.454734],[6.90282,45.454833],[6.902688,45.454856],[6.902606,45.45483],[6.902556,45.454784],[6.90248,45.454746],[6.90244,45.454692],[6.902239,45.454582],[6.902083,45.454586],[6.901961,45.45457],[6.901789,45.454624],[6.901708,45.454559],[6.901618,45.454505],[6.90148,45.454502],[6.901301,45.454471],[6.901112,45.45449],[6.900963,45.454563],[6.900879,45.454654],[6.900744,45.4547],[6.900723,45.454746],[6.900718,45.454795],[6.900664,45.454887],[6.900759,45.454952],[6.900787,45.454994],[6.9008,45.454944],[6.900864,45.454936],[6.900938,45.454959],[6.900951,45.45491],[6.900922,45.454868],[6.900885,45.454776],[6.900939,45.454746],[6.900873,45.454708],[6.900931,45.454685],[6.901118,45.454727],[6.901553,45.454727],[6.901834,45.454738],[6.901967,45.454727],[6.902099,45.454742],[6.902232,45.454746],[6.902354,45.454738],[6.902478,45.45475],[6.903061,45.454753],[6.903516,45.454772],[6.903896,45.454772],[6.904241,45.454788],[6.904709,45.454799],[6.90526,45.454833],[6.90581,45.454841],[6.905915,45.454853],[6.906217,45.454853],[6.906311,45.45486],[6.906623,45.45486],[6.906727,45.454853],[6.907155,45.454864],[6.907375,45.454879],[6.907722,45.454891],[6.90792,45.454887],[6.908779,45.454902],[6.908894,45.454914],[6.909468,45.454929],[6.909796,45.454929],[6.910247,45.45494],[6.910474,45.454956],[6.91095,45.454967],[6.91105,45.454975],[6.911154,45.454971],[6.911644,45.454986],[6.912018,45.455017],[6.912245,45.455017],[6.912374,45.455028],[6.912994,45.455043],[6.913474,45.455039],[6.91432,45.455051],[6.914682,45.455074],[6.915385,45.455085],[6.915853,45.455104],[6.915971,45.455097],[6.91656,45.455131],[6.916666,45.455123],[6.917225,45.455135],[6.917442,45.45515],[6.917657,45.455146],[6.918437,45.455169],[6.919232,45.455207],[6.91957,45.455196],[6.919845,45.455211],[6.919906,45.455226],[6.920072,45.455249],[6.920176,45.455287],[6.92029,45.455299],[6.920355,45.455314],[6.92042,45.455341],[6.920488,45.455341],[6.920536,45.455303,0],[6.920604,45.455268],[6.920764,45.45528],[6.920875,45.455238],[6.920958,45.455188],[6.920866,45.455066],[6.920906,45.455001],[6.920936,45.454902],[6.920952,45.454692],[6.920957,45.454414],[6.921458,45.454357],[6.921598,45.454273],[6.921619,45.454017],[6.921787,45.453983],[6.922066,45.453983],[6.922269,45.454021],[6.922552,45.454093],[6.922698,45.454105],[6.922865,45.454101],[6.922984,45.454116],[6.923148,45.454154],[6.923258,45.454189],[6.923406,45.454212],[6.92354,45.454242],[6.923657,45.454254],[6.923908,45.454311],[6.924074,45.454299],[6.924256,45.454307],[6.924408,45.454383],[6.924586,45.454391],[6.924768,45.454368],[6.924969,45.454353],[6.925038,45.45428],[6.925215,45.45433],[6.925406,45.454284],[6.925621,45.454303],[6.9258,45.45425],[6.926008,45.454227],[6.926235,45.454158],[6.926412,45.454074],[6.926624,45.454029],[6.926764,45.453941],[6.926951,45.453914],[6.927127,45.453853],[6.92732,45.453887],[6.927688,45.453849],[6.927832,45.453872],[6.927967,45.453956],[6.928178,45.453926],[6.928554,45.453914],[6.928749,45.453872],[6.92898,45.453899],[6.929158,45.453838],[6.929371,45.453842],[6.929519,45.453777],[6.929659,45.453639],[6.930239,45.453498],[6.930541,45.453433],[6.930784,45.45333],[6.930965,45.453182],[6.931172,45.453113],[6.931671,45.45301],[6.931861,45.453018],[6.932136,45.453048],[6.932361,45.453037],[6.932605,45.453044],[6.93291,45.453071],[6.93314,45.453063],[6.933378,45.453075],[6.933602,45.453067],[6.933793,45.453094],[6.933938,45.45309],[6.93387,45.453086],[6.934215,45.453105],[6.934372,45.453105],[6.934542,45.453094],[6.934812,45.453117],[6.935049,45.453044],[6.935278,45.453041],[6.935552,45.453079],[6.935703,45.453117],[6.935761,45.453144],[6.935846,45.45317],[6.935903,45.453205],[6.936473,45.452777],[6.936547,45.452835],[6.937054,45.452831],[6.937309,45.452857],[6.93751,45.452838],[6.937632,45.452789],[6.937619,45.452747],[6.937674,45.45272],[6.937814,45.452709],[6.937988,45.452716],[6.938129,45.452678],[6.938283,45.452663],[6.938377,45.452629],[6.938435,45.45259],[6.938561,45.452548],[6.938652,45.452491],[6.938818,45.452461],[6.938983,45.452407],[6.939106,45.452327],[6.939256,45.452304],[6.939362,45.452198],[6.939547,45.452156],[6.939683,45.452095],[6.939763,45.45211],[6.939898,45.452045],[6.93996,45.452026],[6.939977,45.45198],[6.940026,45.45195],[6.940041,45.4519],[6.940096,45.451869],[6.940163,45.451847],[6.94021,45.451797],[6.940334,45.451725],[6.940736,45.451408],[6.94102,45.451148],[6.941641,45.450626],[6.941718,45.450572],[6.941902,45.45042],[6.942,45.450325],[6.942088,45.450256],[6.942175,45.450172],[6.942846,45.44963],[6.94292,45.449558],[6.943015,45.449493],[6.943413,45.449161],[6.943553,45.449024],[6.943642,45.448951],[6.943726,45.448867],[6.944075,45.448616],[6.944141,45.448547],[6.944471,45.448249],[6.944553,45.4482],[6.944714,45.448074],[6.944797,45.44802],[6.944882,45.44794],[6.945046,45.447818],[6.945133,45.447742],[6.945366,45.447574],[6.945488,45.447452],[6.945665,45.447303],[6.945744,45.44725],[6.945813,45.447185],[6.946,45.447044],[6.946475,45.446632],[6.946623,45.446475],[6.946961,45.446197],[6.947107,45.446063],[6.94726,45.445938],[6.947597,45.445625],[6.947763,45.44551],[6.94803,45.445278],[6.948113,45.445217],[6.948253,45.445087],[6.948656,45.444774],[6.949156,45.444339],[6.949219,45.444316],[6.949286,45.444305],[6.949561,45.444118],[6.949745,45.443939],[6.949764,45.44387],[6.949825,45.443809],[6.949876,45.443725],[6.94989,45.443664],[6.949903,45.443492],[6.949956,45.443328],[6.949919,45.443286],[6.949908,45.443225],[6.949913,45.443103],[6.949931,45.443035],[6.949757,45.442951],[6.949698,45.442844],[6.949702,45.442733],[6.94957,45.442665],[6.949541,45.44252],[6.949574,45.442337],[6.949499,45.442192],[6.94958,45.442089],[6.949579,45.441993],[6.949596,45.441944],[6.949522,45.441844],[6.9493,45.441696],[6.949198,45.441574,0],[6.949126,45.441421],[6.948963,45.44139],[6.948777,45.441452],[6.948629,45.441352],[6.948598,45.44123],[6.948533,45.441261],[6.948195,45.441356],[6.947958,45.441303],[6.947747,45.441173],[6.947504,45.441131],[6.947264,45.441238],[6.94705,45.44131],[6.946802,45.441314],[6.946577,45.441429],[6.946391,45.441558],[6.946224,45.441566],[6.945996,45.441658],[6.945593,45.441532],[6.945345,45.441612],[6.944619,45.441745],[6.944283,45.441871],[6.943697,45.442062],[6.943563,45.442169],[6.943386,45.442245],[6.943194,45.442279],[6.943062,45.442409],[6.942898,45.442508],[6.942668,45.44255],[6.942584,45.442684],[6.942447,45.442714],[6.942356,45.442829],[6.942235,45.442916],[6.942071,45.442958],[6.942094,45.443088],[6.941971,45.443164],[6.941904,45.443286],[6.941675,45.443336],[6.941417,45.44345],[6.941068,45.443527],[6.940817,45.443496],[6.940641,45.443458],[6.940548,45.443466],[6.9406,45.4435,0],[6.940494,45.443557],[6.940402,45.443584],[6.94023,45.443603],[6.940002,45.443653],[6.939838,45.443675],[6.939621,45.443683],[6.939419,45.443725],[6.939495,45.443862],[6.939585,45.443988],[6.939393,45.444061],[6.939293,45.444202],[6.939378,45.444324],[6.939273,45.444469],[6.939078,45.444568],[6.93911,45.444686],[6.939246,45.444789],[6.939043,45.4449],[6.938928,45.445011],[6.939102,45.445137],[6.939123,45.445281,0],[6.939059,45.445411],[6.939089,45.445541],[6.939055,45.445728],[6.938766,45.445964],[6.938597,45.445991],[6.938539,45.446056],[6.938574,45.446117],[6.938653,45.446178],[6.938761,45.446289],[6.938685,45.44638],[6.938574,45.446392],[6.9385,45.446441],[6.938432,45.446552],[6.938424,45.446723],[6.938282,45.446823],[6.938237,45.446945],[6.938165,45.447059],[6.93807,45.447139],[6.938072,45.447257],[6.938103,45.447383],[6.938075,45.447456],[6.938009,45.447448],[6.93809,45.447456],[6.9381,45.447551],[6.93812,45.447628],[6.938245,45.44791],[6.938278,45.447948],[6.938345,45.448192],[6.938617,45.448657],[6.93875,45.448757],[6.938808,45.448871],[6.938764,45.449031],[6.938828,45.449142],[6.938901,45.449237],[6.938992,45.44947],[6.939123,45.44971],[6.939349,45.449977],[6.939432,45.450122],[6.939502,45.450271],[6.939732,45.450634],[6.939871,45.450809],[6.939954,45.451019],[6.940514,45.451625],[6.940594,45.451725],[6.940704,45.451835],[6.94082,45.452014],[6.941204,45.452995],[6.941496,45.453426],[6.942119,45.453887],[6.942535,45.454235],[6.94296,45.454631],[6.943379,45.45499],[6.943411,45.455055],[6.94352,45.455108],[6.943558,45.455184],[6.943652,45.455211],[6.94361,45.455181],[6.943902,45.45539],[6.944186,45.455482],[6.944461,45.455638],[6.944766,45.456089],[6.944774,45.455875],[6.944385,45.456329],[6.944514,45.456359],[6.944594,45.456314],[6.944679,45.456283],[6.944941,45.456245],[6.945277,45.456218],[6.945348,45.45626],[6.945443,45.456344],[6.94562,45.456314],[6.94575,45.456302],[6.945868,45.456401],[6.946068,45.456401],[6.946174,45.45652,0],[6.946379,45.456581],[6.946594,45.456577],[6.946693,45.456684],[6.94687,45.456691],[6.947142,45.456779],[6.947328,45.456745],[6.947452,45.456809],[6.947575,45.456916],[6.947833,45.45689],[6.948014,45.456951],[6.948214,45.457038],[6.948432,45.457012],[6.948636,45.457096],[6.948884,45.457107],[6.94909,45.457172],[6.949277,45.457218],[6.949406,45.45729],[6.949374,45.45734],[6.949363,45.457386],[6.949366,45.457454],[6.949316,45.457561],[6.949251,45.457656],[6.949222,45.457736],[6.949309,45.457912],[6.949417,45.457984],[6.949469,45.45808],[6.949477,45.458198],[6.949594,45.458213],[6.949636,45.458324],[6.949802,45.458385],[6.949968,45.458358],[6.950153,45.458412],[6.95034,45.458427],[6.950538,45.458377],[6.950738,45.458377],[6.950921,45.458297],[6.951097,45.458339],[6.951278,45.458312],[6.951466,45.458339],[6.951636,45.458389],[6.951926,45.45829],[6.952027,45.458347],[6.952152,45.458465],[6.952336,45.458457],[6.952506,45.458469],[6.952638,45.45853],[6.952786,45.458549],[6.952872,45.45866],[6.953049,45.45866],[6.953196,45.458644],[6.953295,45.458717],[6.953424,45.458705],[6.953439,45.45866],[6.953502,45.458675],[6.953557,45.458724],[6.953544,45.458805],[6.953701,45.458965],[6.953964,45.459049],[6.954179,45.45906],[6.954447,45.459217],[6.954649,45.459194],[6.954896,45.459098],[6.955104,45.459136],[6.95532,45.459148],[6.95551,45.459114],[6.955682,45.459171],[6.955855,45.459156],[6.955977,45.45919],[6.956088,45.459209],[6.956152,45.459205],[6.956105,45.459327],[6.956018,45.4594],[6.95613,45.459453],[6.956245,45.459495],[6.956249,45.459587],[6.956369,45.459636],[6.956523,45.459777],[6.956526,45.459915],[6.956758,45.459953],[6.956928,45.459892],[6.957108,45.459922],[6.957331,45.459976],[6.957478,45.459884],[6.957682,45.459869],[6.957931,45.459899],[6.958316,45.459754],[6.958472,45.459846],[6.958649,45.4598],[6.958814,45.4598],[6.958818,45.459743],[6.958729,45.459716],[6.958833,45.45969],[6.958991,45.459606],[6.959117,45.459629],[6.95925,45.459632],[6.959334,45.459556],[6.959378,45.459476],[6.959449,45.459461],[6.959565,45.459556],[6.959574,45.459613],[6.959736,45.459674],[6.959848,45.459587],[6.959981,45.459568],[6.960124,45.459594],[6.960325,45.459594],[6.960451,45.459651],[6.960627,45.459644],[6.960825,45.459655],[6.961247,45.459716],[6.961329,45.4598],[6.961407,45.459918],[6.961593,45.459999],[6.961571,45.460144],[6.961793,45.460243],[6.961897,45.460384],[6.962113,45.460498],[6.962277,45.460681],[6.962504,45.46083],[6.962825,45.460948],[6.963161,45.461009],[6.963463,45.461017],[6.963738,45.461048],[6.963916,45.461097],[6.964012,45.461051],[6.964072,45.460998],[6.964017,45.460971],[6.964103,45.460929],[6.964207,45.460773],[6.964283,45.46075],[6.96429,45.460838],[6.964172,45.460849],[6.964184,45.460918],[6.964225,45.46099],[6.964041,45.460937],[6.963976,45.460937],[6.963952,45.460868],[6.964042,45.460746],[6.964021,45.460704],[6.963963,45.460723],[6.963895,45.460697],[6.963747,45.460693],[6.963541,45.460655],[6.963406,45.460651],[6.963256,45.460601],[6.962949,45.460556],[6.962692,45.460487],[6.9618,45.460342],[6.961654,45.460311],[6.960601,45.460132],[6.959922,45.460002],[6.959642,45.45996],[6.959165,45.459865],[6.959028,45.45985],[6.958874,45.459815],[6.958744,45.459796],[6.957967,45.459648],[6.957685,45.459587],[6.957395,45.459545],[6.957262,45.459514],[6.957131,45.459499],[6.956578,45.459407],[6.956423,45.459369],[6.955987,45.459281],[6.955846,45.459274],[6.955412,45.459159],[6.955274,45.459114],[6.955122,45.459102],[6.954979,45.459102],[6.954844,45.459064],[6.954701,45.459056],[6.954146,45.458965],[6.95388,45.458992],[6.95361,45.459007],[6.95344,45.458805],[6.953013,45.458705],[6.952157,45.458568],[6.951883,45.458511],[6.951467,45.458446],[6.951171,45.458381],[6.950901,45.458343],[6.950485,45.458267],[6.950206,45.458202],[6.949769,45.458137],[6.949497,45.458087],[6.949356,45.458076],[6.949226,45.458045],[6.949083,45.458026],[6.948936,45.457996],[6.948667,45.457958],[6.948392,45.457904],[6.948246,45.457866],[6.948096,45.457847],[6.947819,45.45779],[6.947681,45.457771],[6.947269,45.457679],[6.946856,45.457611],[6.946705,45.457607],[6.946449,45.45755],[6.945856,45.457443],[6.94558,45.457378],[6.94544,45.457355],[6.945298,45.457317],[6.945141,45.457298],[6.944853,45.457221],[6.944556,45.457172],[6.944409,45.45716],[6.944282,45.457134],[6.943835,45.457084],[6.943677,45.457035],[6.943516,45.457008],[6.943384,45.456962],[6.943273,45.456909],[6.943191,45.45692],[6.943119,45.456943],[6.943087,45.45705],[6.943016,45.457073,0],[6.942969,45.457153],[6.942869,45.457263],[6.942716,45.457363],[6.942638,45.457569],[6.94242,45.457714],[6.942276,45.457862],[6.942097,45.457988],[6.941812,45.458171],[6.941681,45.458339],[6.941516,45.458492],[6.941371,45.45866],[6.941319,45.458858],[6.941264,45.459011],[6.941246,45.459148],[6.941304,45.459213],[6.941276,45.459304],[6.941216,45.459281],[6.941152,45.4593],[6.941087,45.459289],[6.940956,45.459281],[6.940861,45.459289],[6.940785,45.45927],[6.940537,45.459247],[6.940441,45.45922],[6.940331,45.459201],[6.940101,45.45914],[6.93968,45.459079],[6.939471,45.459037],[6.939287,45.459026],[6.939067,45.458992],[6.938972,45.458984],[6.938764,45.458942],[6.938555,45.458911],[6.938457,45.458904],[6.938144,45.458854],[6.937934,45.458805],[6.93735,45.458732],[6.937256,45.458728],[6.936668,45.458637],[6.936553,45.45861],[6.936151,45.458538],[6.935981,45.458526],[6.935602,45.45845],[6.935677,45.45858],[6.935591,45.458576],[6.935251,45.458457],[6.934933,45.4584],[6.934545,45.458312],[6.934344,45.458293],[6.933867,45.458217],[6.93363,45.45816],[6.933081,45.458084],[6.932968,45.458053],[6.932064,45.457931],[6.931936,45.457901],[6.931809,45.457889],[6.931669,45.457851],[6.931351,45.457839],[6.931031,45.457805],[6.930819,45.457752],[6.930439,45.457698],[6.930249,45.457695],[6.930056,45.457675],[6.929937,45.457649],[6.92981,45.457611],[6.929416,45.457557],[6.929231,45.457542],[6.929105,45.457523],[6.928865,45.457458],[6.928537,45.457405],[6.928425,45.457378],[6.928132,45.457359],[6.927928,45.457328],[6.927837,45.457324],[6.927644,45.457286],[6.927539,45.457275],[6.927324,45.457225],[6.927104,45.457195],[6.926917,45.457187],[6.926694,45.457141],[6.926509,45.457126],[6.926051,45.457054],[6.925848,45.457038],[6.925798,45.457084],[6.925729,45.457099],[6.925565,45.457118],[6.925255,45.457035],[6.924855,45.456897],[6.924643,45.456859],[6.924284,45.456768],[6.923979,45.456722],[6.923881,45.456699],[6.923562,45.456661],[6.923324,45.456615],[6.923126,45.456558],[6.923019,45.456535],[6.922919,45.456531],[6.92281,45.456504],[6.922718,45.456501],[6.922649,45.456516],[6.922391,45.456493],[6.922293,45.456497],[6.922121,45.456481],[6.921996,45.456455],[6.921855,45.456413],[6.921774,45.456413],[6.921653,45.456367],[6.921469,45.45634],[6.92139,45.456344],[6.921295,45.456333],[6.920977,45.456275],[6.920672,45.456241],[6.920592,45.456241],[6.920491,45.45623],[6.920253,45.456176],[6.920188,45.456146],[6.920092,45.45613],[6.919959,45.456081],[6.919986,45.456039],[6.919978,45.455989],[6.91984,45.455875],[6.919799,45.455829],[6.919695,45.455768],[6.919661,45.455726],[6.919647,45.45578],[6.919592,45.455829],[6.919536,45.455921],[6.91955,45.455986],[6.919599,45.456016],[6.919639,45.456054],[6.919688,45.456085],[6.919673,45.45613],[6.919741,45.456123],[6.919793,45.456069],[6.919817,45.456016],[6.919797,45.455959],[6.919795,45.455909],[6.91984,45.45586],[6.920013,45.455802],[6.920004,45.455757],[6.920072,45.455772],[6.920083,45.455726],[6.920074,45.45578],[6.920008,45.455749],[6.919968,45.455707],[6.920036,45.455707],[6.920042,45.455661],[6.920068,45.455615],[6.920045,45.455562],[6.920099,45.455528],[6.920187,45.455543],[6.920184,45.455589],[6.920195,45.455642],[6.920282,45.455623],[6.920224,45.455558],[6.920322,45.455642],[6.920271,45.4556],[6.92032,45.455638],[6.920295,45.455642],[6.920188,45.455581],[6.920189,45.455513],[6.920221,45.455562],[6.92019,45.45552],[6.920227,45.455554],[6.920186,45.45552],[6.920075,45.455593],[6.920043,45.455635],[6.92006,45.455738],[6.920129,45.455772],[6.920074,45.455802],[6.920046,45.45576],[6.91999,45.455738],[6.919955,45.455699],[6.919935,45.455654],[6.919962,45.455585],[6.920071,45.455429],[6.920133,45.45539],[6.920222,45.455352],[6.920414,45.455303],[6.920594,45.455284],[6.920701,45.455139],[6.920603,45.455055],[6.920597,45.454994],[6.920552,45.454929],[6.920598,45.454845],[6.920551,45.454738],[6.920613,45.454467],[6.92046,45.454368],[6.920286,45.45428],[6.920103,45.45433],[6.920005,45.454395],[6.919859,45.454441],[6.919698,45.454524],[6.919551,45.454616],[6.919499,45.454765],[6.919336,45.454849],[6.919291,45.454982],[6.919148,45.455055],[6.918792,45.455196],[6.918607,45.455291],[6.918497,45.455421],[6.918263,45.455455],[6.918122,45.455558],[6.917942,45.455646],[6.917744,45.45576],[6.917579,45.455867],[6.917387,45.455951],[6.91707,45.456134],[6.916915,45.456142],[6.916764,45.456169],[6.916764,45.456253],[6.916731,45.456344],[6.916582,45.456325],[6.916439,45.456321],[6.916439,45.456432],[6.916303,45.456493],[6.916129,45.456501],[6.916168,45.456729],[6.916019,45.456752],[6.915884,45.456729],[6.915881,45.456985],[6.915743,45.457023],[6.915643,45.45716],[6.915456,45.457183],[6.915267,45.457229],[6.915247,45.457347],[6.915057,45.457363],[6.914927,45.457427],[6.914792,45.457534],[6.914588,45.45753],[6.914487,45.457626],[6.914298,45.457664],[6.914099,45.457744],[6.913877,45.457851],[6.913515,45.457927],[6.913185,45.458015],[6.912908,45.458019],[6.912688,45.457996],[6.912264,45.457843],[6.911903,45.457828],[6.911747,45.457794],[6.911677,45.457809],[6.91153,45.457813],[6.911397,45.457756],[6.911218,45.457748],[6.911058,45.457702],[6.910872,45.45766],[6.910784,45.457561],[6.910628,45.457565],[6.9105,45.457481],[6.910388,45.457424],[6.910302,45.457317],[6.910159,45.457275],[6.910108,45.457141],[6.909943,45.457092],[6.909887,45.456962],[6.909657,45.456809],[6.909565,45.456695],[6.909414,45.456638],[6.90938,45.45652],[6.909212,45.456462],[6.909184,45.456321],[6.909052,45.456214],[6.908911,45.455978],[6.908931,45.455844],[6.908856,45.455745],[6.908896,45.455631],[6.908801,45.455539],[6.908809,45.455425],[6.908685,45.455333],[6.90875,45.455219],[6.908632,45.455127],[6.908596,45.45502],[6.908642,45.454952],[6.908558,45.454833],[6.908619,45.454734],[6.908493,45.454669],[6.908488,45.454555],[6.908446,45.454326],[6.908468,45.454212],[6.908419,45.454116],[6.908417,45.453983],[6.908333,45.453887],[6.908384,45.453754],[6.90836,45.45367],[6.908288,45.453563],[6.908219,45.453437],[6.908187,45.453319],[6.908201,45.453235],[6.908056,45.453136],[6.908045,45.452983],[6.907967,45.45288],[6.908058,45.452793],[6.908056,45.452693],[6.908206,45.452655],[6.908223,45.452545],[6.908331,45.452465],[6.908316,45.452384],[6.908423,45.45232],[6.908515,45.452243],[6.908506,45.452136],[6.908664,45.452053],[6.908562,45.451885],[6.908649,45.451816],[6.908623,45.451721],[6.908623,45.451622],[6.908649,45.451526],[6.908765,45.45137],[6.908687,45.451313],[6.908744,45.45129],[6.908803,45.451225],[6.908714,45.45119,0],[6.90862,45.451129],[6.908541,45.451026],[6.908496,45.450946],[6.908522,45.450832],[6.908446,45.450763],[6.908331,45.450698],[6.908203,45.450695],[6.908077,45.45074],[6.907917,45.450752],[6.907785,45.450809],[6.907613,45.450813],[6.907423,45.450836],[6.907288,45.45095],[6.907106,45.451007],[6.90697,45.451065],[6.906945,45.451148],[6.906834,45.451145],[6.906708,45.451175,0],[6.906597,45.451179],[6.906462,45.451232],[6.906271,45.451278],[6.905977,45.451389],[6.905879,45.45132],[6.905823,45.451267],[6.905686,45.451225],[6.905642,45.451179],[6.905653,45.451229],[6.905596,45.451206],[6.905677,45.451229],[6.905744,45.45121],[6.906053,45.450996],[6.906563,45.450725],[6.906801,45.45063],[6.906891,45.450576],[6.907564,45.450283],[6.907628,45.450244],[6.907862,45.450141],[6.907976,45.450099],[6.908629,45.449813],[6.911123,45.448677],[6.911228,45.448635],[6.911545,45.448486],[6.915069,45.446926],[6.916829,45.446136],[6.917954,45.445617],[6.918578,45.445343],[6.919382,45.444965],[6.920886,45.444282],[6.921185,45.444129],[6.921267,45.444065],[6.92137,45.444007],[6.921442,45.443927],[6.921601,45.443782],[6.921802,45.443485],[6.922069,45.443363],[6.922169,45.443286],[6.92224,45.443202],[6.922643,45.442935],[6.922819,45.442802],[6.92288,45.442741],[6.923035,45.442634],[6.923331,45.442325],[6.923439,45.442192],[6.923574,45.441989],[6.923635,45.441864],[6.92368,45.441814],[6.924463,45.44197],[6.924614,45.441959],[6.924786,45.441959],[6.925008,45.442012],[6.925342,45.442058],[6.925444,45.442066],[6.925597,45.442031],[6.925766,45.442016],[6.925821,45.441978],[6.925904,45.441993],[6.925944,45.442039],[6.926002,45.442066],[6.926068,45.442077],[6.926149,45.442104],[6.926208,45.442142],[6.926197,45.442188],[6.926088,45.442253],[6.926002,45.442348],[6.925965,45.442489],[6.925813,45.442508],[6.925739,45.442558],[6.925673,45.44263],[6.925568,45.442653],[6.925472,45.44271],[6.925352,45.442825],[6.925343,45.442985],[6.925371,45.443138],[6.925172,45.443248],[6.925127,45.443431],[6.92495,45.443557],[6.924721,45.44363],[6.924579,45.443855],[6.924278,45.443912],[6.923964,45.443992],[6.923708,45.444164],[6.923332,45.444198],[6.923011,45.444244],[6.922708,45.444343],[6.922554,45.444431],[6.921867,45.44466],[6.921617,45.444778],[6.921361,45.444919],[6.92064,45.445365],[6.920392,45.445449],[6.920206,45.445541],[6.91996,45.44559],[6.919783,45.445735],[6.91926,45.445858],[6.918996,45.445995],[6.918771,45.446166],[6.918601,45.446372],[6.918552,45.446586],[6.918607,45.446979],[6.918476,45.447151],[6.918345,45.447208],[6.918166,45.447238],[6.91774,45.447505],[6.917502,45.447689],[6.917256,45.447837],[6.916877,45.448123],[6.916699,45.448226],[6.916527,45.448261],[6.916316,45.448318],[6.916133,45.448379],[6.915977,45.448371],[6.915865,45.44839],[6.915852,45.44844],[6.915822,45.448482],[6.915625,45.448478],[6.915506,45.448547],[6.91531,45.448539],[6.91517,45.448604],[6.914959,45.448657],[6.914748,45.448657],[6.91457,45.448715],[6.914449,45.448707],[6.914258,45.448757],[6.914073,45.44873],[6.913878,45.44873],[6.913706,45.448776],[6.913503,45.448719],[6.913329,45.448772],[6.913,45.448703],[6.912824,45.448745],[6.912657,45.448696],[6.912563,45.448749],[6.912421,45.448776],[6.912328,45.448719],[6.912282,45.448661],[6.912111,45.448665],[6.912052,45.448692],[6.91188,45.448738],[6.911813,45.448787],[6.911766,45.448841],[6.911697,45.44889],[6.911582,45.448879],[6.911388,45.448947],[6.911273,45.44897],[6.911151,45.449005],[6.911043,45.449058],[6.910956,45.449134],[6.910715,45.44918],[6.91052,45.449306],[6.910277,45.449401],[6.910012,45.449466],[6.909824,45.449596],[6.909671,45.449798],[6.909399,45.449935],[6.909117,45.449993],[6.908831,45.450019],[6.908535,45.450061],[6.908341,45.450183],[6.908116,45.450199],[6.907906,45.450244],[6.907767,45.450244,0],[6.907598,45.450313],[6.907427,45.450397],[6.906711,45.450698],[6.906484,45.450805],[6.905659,45.451114],[6.90503,45.45132],[6.904863,45.451351],[6.904724,45.451389],[6.90481,45.451374],[6.904704,45.451396],[6.904583,45.451313],[6.904475,45.451217],[6.904309,45.451244],[6.904233,45.451503],[6.90301,45.451797],[6.900228,45.452426],[6.899017,45.452728],[6.898765,45.452819],[6.897808,45.453262],[6.897569,45.453113],[6.897504,45.453239],[6.897505,45.453392],[6.897482,45.453468],[6.897476,45.453552],[6.897441,45.453609],[6.897413,45.453781],[6.897362,45.453937],[6.897334,45.453979],[6.89727,45.453975],[6.8972,45.453983],[6.897056,45.453983],[6.896985,45.454013],[6.896921,45.45401],[6.896839,45.45399],[6.896751,45.453987],[6.896491,45.454025],[6.896359,45.454032],[6.896262,45.454048],[6.896142,45.454048],[6.896034,45.454063],[6.895709,45.454086],[6.895377,45.454132],[6.895263,45.454139],[6.895061,45.454166],[6.894861,45.454177],[6.894666,45.454208],[6.89443,45.454219],[6.894094,45.45425],[6.893974,45.45425],[6.893875,45.454265],[6.893216,45.454299],[6.892861,45.454345],[6.892745,45.454349],[6.892629,45.454364],[6.892513,45.454368],[6.892398,45.454391],[6.89197,45.454433],[6.891088,45.454486],[6.890786,45.454528],[6.890669,45.454528],[6.890447,45.454544],[6.890347,45.454563],[6.890141,45.454578],[6.889942,45.454605],[6.889621,45.454627],[6.889327,45.454666],[6.889112,45.454681],[6.888989,45.454681],[6.888425,45.454723],[6.888216,45.45475],[6.887776,45.454776],[6.88722,45.454833],[6.886666,45.454879],[6.886432,45.45491],[6.886067,45.454929],[6.885499,45.454986],[6.885376,45.45499],[6.884786,45.455039],[6.884675,45.455055],[6.883973,45.455116],[6.88302,45.455188],[6.882671,45.455226],[6.882589,45.455245],[6.882508,45.455245],[6.882445,45.455211],[6.882356,45.455108],[6.882335,45.455043],[6.88224,45.454925],[6.882124,45.454704],[6.882068,45.45454],[6.882063,45.454441],[6.882087,45.454353],[6.882093,45.454277],[6.882066,45.453975],[6.88209,45.453895],[6.882044,45.453815],[6.882073,45.453723],[6.882167,45.453636],[6.882169,45.453525],[6.882125,45.453445],[6.882166,45.453315],[6.882106,45.453193],[6.882068,45.45306],[6.882199,45.452949],[6.882353,45.452861],[6.882384,45.452735],[6.882397,45.45261],[6.882497,45.452499],[6.88266,45.452453],[6.8828,45.452476],[6.882908,45.452507],[6.882976,45.452453],[6.883008,45.452373],[6.883152,45.452373],[6.883297,45.452411],[6.883392,45.45235],[6.88348,45.452255],[6.883649,45.452278],[6.883812,45.452266],[6.883917,45.452186],[6.884154,45.452167],[6.884264,45.452072],[6.884467,45.452106],[6.884594,45.45206],[6.884651,45.451961],[6.88483,45.451896],[6.884907,45.451774],[6.885128,45.451755],[6.885275,45.451694],[6.885465,45.451759],[6.885579,45.4519],[6.885771,45.451812],[6.885828,45.451702],[6.886017,45.451683],[6.886188,45.451717],[6.886349,45.45161],[6.886537,45.45156],[6.886672,45.451637],[6.886841,45.451572],[6.887013,45.451522],[6.887187,45.451606],[6.887398,45.451526],[6.887598,45.45158],[6.88781,45.451595],[6.887988,45.451583],[6.888154,45.451667],[6.888366,45.451644],[6.888535,45.451698],[6.888661,45.451789],[6.888869,45.451774],[6.889036,45.451816],[6.889185,45.451885],[6.889362,45.451835],[6.889476,45.451923],[6.889686,45.451942],[6.889947,45.451885],[6.890149,45.451965,0],[6.890369,45.45195],[6.890534,45.451881],[6.890656,45.451961],[6.890826,45.451999],[6.890979,45.451919],[6.891133,45.451961],[6.891278,45.452014],[6.891438,45.45203],[6.891605,45.452087],[6.891783,45.452095],[6.891898,45.452201],[6.892072,45.452278],[6.892144,45.452384],[6.892336,45.452423],[6.892461,45.452526],[6.892677,45.452548],[6.892863,45.452514],[6.893062,45.452579],[6.893236,45.452594],[6.893357,45.452365],[6.893536,45.452308],[6.893599,45.452178],[6.893768,45.452095],[6.893802,45.451957],[6.893981,45.451866],[6.894047,45.451808],[6.894074,45.451736],[6.894114,45.451667],[6.89421,45.451618],[6.894405,45.451545],[6.89445,45.4514,0],[6.894545,45.451267],[6.894738,45.451179],[6.894804,45.451042],[6.895015,45.450942],[6.895204,45.450839],[6.895331,45.450736],[6.89555,45.450691],[6.895875,45.4505],[6.896056,45.450538],[6.896258,45.4505],[6.896418,45.450561],[6.896517,45.450626],[6.896707,45.450649],[6.896758,45.450759],[6.896825,45.450866],[6.897046,45.450912],[6.897269,45.450935],[6.897276,45.451068],[6.897243,45.451213],[6.897318,45.451377],[6.897276,45.451576],[6.897163,45.45177],[6.897123,45.451957],[6.897187,45.45214],[6.897276,45.452312],[6.897367,45.452453],[6.897477,45.452575],[6.897594,45.452667],[6.897681,45.452754],[6.897847,45.45288],[6.897938,45.452919],[6.898104,45.45296],[6.898173,45.452987],[6.898248,45.452995],[6.898367,45.452953],[6.898307,45.452972],[6.898439,45.452964],[6.898482,45.453006],[6.898568,45.453006],[6.89858,45.452934],[6.898717,45.452896],[6.898831,45.452842],[6.899029,45.452789],[6.899344,45.452682],[6.899412,45.452667],[6.899485,45.452636],[6.900003,45.45251],[6.900075,45.452499],[6.900129,45.452415],[6.900189,45.4524],[6.900297,45.452392],[6.900384,45.452365],[6.901361,45.452144],[6.901291,45.452167],[6.901356,45.452121],[6.903103,45.45174],[6.903231,45.451698],[6.903527,45.451648],[6.903683,45.451591],[6.903945,45.451538],[6.904934,45.451293],[6.905356,45.451164],[6.905406,45.451137],[6.905492,45.451126],[6.905693,45.451057],[6.905921,45.451362],[6.905859,45.451332],[6.905792,45.451313],[6.905664,45.451293],[6.905637,45.451202],[6.905608,45.451156],[6.905624,45.45111],[6.905705,45.451099],[6.905908,45.450977],[6.906146,45.450901],[6.906363,45.450805],[6.906464,45.450748],[6.906584,45.450706],[6.909223,45.449535],[6.910993,45.44873],[6.911312,45.448596],[6.913941,45.447433],[6.916038,45.446495],[6.917062,45.446025],[6.917473,45.445854],[6.918301,45.445472],[6.918719,45.445289],[6.920744,45.444358],[6.920833,45.444297],[6.921045,45.444194],[6.921235,45.444087],[6.921496,45.443889],[6.921668,45.443691],[6.921754,45.443557],[6.92188,45.44347],[6.922066,45.443325],[6.92277,45.442825],[6.923047,45.442604],[6.923147,45.442512],[6.923518,45.442474],[6.924288,45.442756],[6.925338,45.442317],[6.925682,45.442142],[6.925819,45.442085],[6.925892,45.442073],[6.925997,45.442081],[6.926184,45.442138],[6.926272,45.442199],[6.926196,45.442321],[6.926103,45.442371],[6.9261,45.442436],[6.92606,45.44247],[6.926024,45.442516],[6.925803,45.442661],[6.925775,45.44279],[6.925667,45.442909],[6.925647,45.443046],[6.925552,45.443183],[6.925314,45.443222],[6.925254,45.443424,0],[6.925093,45.443584],[6.924814,45.443611],[6.924703,45.443809],[6.924465,45.443935],[6.924131,45.443946],[6.923915,45.444145],[6.923246,45.444301],[6.922957,45.444461],[6.922548,45.444503],[6.922159,45.44458],[6.921841,45.444728],[6.921325,45.44503],[6.921051,45.445167],[6.920773,45.445285],[6.920246,45.445457],[6.919979,45.44556],[6.919435,45.445804],[6.91915,45.445915],[6.918853,45.445976],[6.91859,45.446086],[6.9185,45.4463],[6.918467,45.446491],[6.918512,45.446655],[6.918512,45.446823],[6.918479,45.446971],[6.918351,45.447093,0],[6.918145,45.447208],[6.91741,45.447647],[6.917188,45.447834],[6.916875,45.448055],[6.916557,45.448261],[6.916393,45.448337],[6.916202,45.448371],[6.916033,45.448444],[6.915841,45.448429],[6.915839,45.448478],[6.915795,45.448516],[6.915657,45.448516],[6.915515,45.448486],[6.9154,45.448585],[6.915228,45.448589],[6.915111,45.448696],[6.914915,45.448707],[6.914774,45.448791],[6.914625,45.448722],[6.914474,45.448791],[6.914328,45.448818],[6.914155,45.448863],[6.913939,45.448822],[6.913565,45.448833,0],[6.913397,45.44886],[6.913225,45.44881],[6.913074,45.448852],[6.912799,45.448764],[6.912663,45.448699],[6.912508,45.448715],[6.912185,45.44873],[6.912059,45.448799],[6.911901,45.44876],[6.91175,45.448802],[6.911577,45.448883],[6.911366,45.448852],[6.911167,45.44897],[6.910936,45.449035],[6.910725,45.449104],[6.910558,45.449218],[6.910442,45.449253],[6.910294,45.449432],[6.910072,45.449527],[6.909814,45.449562],[6.909654,45.449718],[6.909446,45.449821],[6.909251,45.44997],[6.90881,45.450153],[6.908577,45.450229],[6.9084,45.450347],[6.908149,45.450325],[6.907901,45.450405],[6.907788,45.450553],[6.907619,45.450634],[6.907452,45.450759],[6.907397,45.450824],[6.907183,45.450885],[6.907005,45.450992],[6.906807,45.451049],[6.906661,45.451171],[6.90648,45.451259],[6.90638,45.451435],[6.90624,45.451568],[6.906013,45.451622],[6.905781,45.45166],[6.90559,45.451732],[6.90544,45.451801],[6.905105,45.451904],[6.904867,45.452049],[6.904793,45.452159],[6.904695,45.452381],[6.90461,45.452495],[6.904478,45.45272],[6.90435,45.452804],[6.904157,45.452873],[6.903944,45.453052],[6.903854,45.453094],[6.903664,45.453201,0],[6.903597,45.453273],[6.903511,45.45333],[6.903287,45.453426],[6.90319,45.453598],[6.903029,45.453735],[6.903215,45.453926],[6.903143,45.454071],[6.902975,45.454338],[6.90296,45.454437],[6.902913,45.45457],[6.902815,45.454761],[6.902092,45.45486],[6.901811,45.454792],[6.901597,45.454711],[6.901589,45.454776],[6.901452,45.45478],[6.90111,45.454906],[6.90106,45.45494],[6.90078,45.454647],[6.90065,45.454692],[6.90065,45.454792],[6.900628,45.454841],[6.900625,45.454887],[6.90065,45.454982],[6.900716,45.45499],[6.900702,45.455039],[6.900661,45.455101],[6.900669,45.455146],[6.900622,45.4552],[6.900554,45.455181],[6.900484,45.455142],[6.900207,45.45523],[6.900093,45.455257],[6.89979,45.455257],[6.899622,45.455188],[6.899584,45.455047],[6.899532,45.454933],[6.899333,45.454711],[6.899233,45.454586],[6.899233,45.454463],[6.899188,45.454353],[6.899127,45.454277],[6.899131,45.454208],[6.899112,45.454082],[6.899085,45.453983],[6.899084,45.453903],[6.899026,45.453746],[6.899022,45.45351],[6.898969,45.453426],[6.898919,45.45338],[6.898881,45.453281],[6.898875,45.453224],[6.898843,45.453117],[6.898804,45.453067],[6.898741,45.453044],[6.898659,45.453033],[6.898579,45.453041],[6.898496,45.453033],[6.898412,45.453052],[6.898178,45.453033],[6.8982,45.452987],[6.898242,45.452953],[6.898313,45.452919],[6.898379,45.452911],[6.898434,45.452877,0],[6.898503,45.45288],[6.898563,45.452865],[6.898598,45.452827],[6.898687,45.452835],[6.898936,45.452793],[6.899035,45.452766],[6.899124,45.452751],[6.899205,45.452728],[6.899475,45.45269],[6.89958,45.452651],[6.899673,45.452636],[6.899767,45.452606],[6.899847,45.452571],[6.899945,45.452564],[6.900027,45.452529],[6.90021,45.452484],[6.900507,45.452426],[6.900626,45.452411],[6.900927,45.452335],[6.900928,45.452232],[6.901023,45.452209],[6.901127,45.452194],[6.902166,45.451965],[6.90225,45.45193],[6.904352,45.451454],[6.904439,45.451416],[6.904859,45.451309],[6.905383,45.451164],[6.905456,45.451133],[6.905642,45.451362],[6.90564,45.451408],[6.905511,45.451461],[6.905426,45.451469],[6.905359,45.451454],[6.905307,45.451419],[6.905192,45.451362],[6.905143,45.451328],[6.905104,45.451282],[6.905075,45.451217],[6.905083,45.451145],[6.905147,45.451034],[6.90526,45.450939],[6.905411,45.45087],[6.905782,45.450817],[6.905919,45.450721],[6.905977,45.450626],[6.905998,45.450523],[6.905942,45.450447],[6.905992,45.45042],[6.90595,45.450363],[6.905756,45.450248],[6.905569,45.450168],[6.905355,45.450141],[6.90519,45.450038],[6.904801,45.450077],[6.90463,45.449996],[6.904393,45.449989],[6.90403,45.450092],[6.903978,45.450202],[6.903857,45.450279],[6.903725,45.450283],[6.903622,45.450298],[6.903532,45.450336],[6.903459,45.450416],[6.903402,45.450523],[6.903254,45.450599],[6.902905,45.450656],[6.902784,45.450775],[6.902712,45.450927],[6.902584,45.451076],[6.902425,45.451137],[6.902057,45.451259],[6.901914,45.451354],[6.901669,45.451614],[6.901273,45.451896],[6.901096,45.452007],[6.900934,45.452121],[6.900744,45.452293],[6.900626,45.452445],[6.900583,45.452533],[6.900551,45.452629],[6.900549,45.452724],[6.900606,45.45288],[6.900679,45.452854,0],[6.900607,45.452869],[6.900681,45.452873],[6.90071,45.452922],[6.90072,45.452968],[6.900613,45.453269],[6.900589,45.453315],[6.900589,45.453361],[6.900595,45.453273],[6.900586,45.453407],[6.900605,45.453308],[6.900604,45.453376],[6.900613,45.453315],[6.900603,45.453502],[6.900615,45.453254],[6.900595,45.453319],[6.900593,45.453277],[6.900611,45.453334],[6.900597,45.453273],[6.900599,45.453426],[6.900595,45.453273],[6.900587,45.453361],[6.900597,45.453296],[6.900568,45.453227],[6.900495,45.453151],[6.900431,45.453136],[6.900497,45.453189],[6.900427,45.453159],[6.900533,45.453197],[6.900462,45.453155],[6.900555,45.453037],[6.900444,45.452911],[6.900474,45.453029],[6.900464,45.453075],[6.900546,45.453056],[6.900539,45.453105],[6.900551,45.45306],[6.900532,45.453029],[6.90054,45.453079],[6.900447,45.452995]]}}]}