<?xml version="1.0" encoding="UTF-8" standalone="no" ?>
<gpx xmlns="http://www.topografix.com/GPX/1/1" creator="gps4cam - http://gps4cam.com" version="1.1" xmlns:xsi="http://www.w3.org/2001/XMLSchema-instance" xsi:schemaLocation="http://www.topografix.com/GPX/1/1 http://www.topografix.com/GPX/1/1/gpx.xsd">
  <metadata>
    <link href="http://gps4cam.com">
      <text>gps4cam</text>
    </link>
    <time>2018-03-07T23:32:52Z</time>
  </metadata>
  <trk>
    <name>gps4cam trip started at: 2018-03-03T21:51:51Z</name>
    <trkseg>
      <trkpt lat="19.3232008632" lon="-69.4948931896">
        <time>2018-03-03T21:51:51Z</time>
      </trkpt>
      <trkpt lat="19.3230004147" lon="-69.4951801827">
        <time>2018-03-03T21:52:02Z</time>
      </trkpt>
      <trkpt lat="19.3230916731" lon="-69.4950641540">
        <time>2018-03-03T21:56:47Z</time>
      </trkpt>
      <trkpt lat="19.3232125950" lon="-69.4949861766">
        <time>2018-03-03T21:57:05Z</time>
      </trkpt>
      <trkpt lat="19.3233101194" lon="-69.4948760206">
        <time>2018-03-03T21:57:32Z</time>
      </trkpt>
      <trkpt lat="19.3234231087" lon="-69.4948008570">
        <time>2018-03-03T22:04:45Z</time>
      </trkpt>
      <trkpt lat="19.3235049013" lon="-69.4946827887">
        <time>2018-03-03T22:05:50Z</time>
      </trkpt>
      <trkpt lat="19.3235741619" lon="-69.4945529745">
        <time>2018-03-03T22:19:20Z</time>
      </trkpt>
      <trkpt lat="19.3236292237" lon="-69.4944201013">
        <time>2018-03-03T22:19:38Z</time>
      </trkpt>
      <trkpt lat="19.3236937510" lon="-69.4942892671">
        <time>2018-03-03T22:19:51Z</time>
      </trkpt>
      <trkpt lat="19.3237810754" lon="-69.4944121082">
        <time>2018-03-03T22:20:13Z</time>
      </trkpt>
      <trkpt lat="19.3238398688" lon="-69.4945423720">
        <time>2018-03-03T22:21:14Z</time>
      </trkpt>
      <trkpt lat="19.3239805882" lon="-69.4945410275">
        <time>2018-03-03T22:21:28Z</time>
      </trkpt>
      <trkpt lat="19.3241167082" lon="-69.4945251233">
        <time>2018-03-03T22:21:48Z</time>
      </trkpt>
      <trkpt lat="19.3241596356" lon="-69.4946610159">
        <time>2018-03-03T22:22:29Z</time>
      </trkpt>
      <trkpt lat="19.3242429623" lon="-69.4945478011">
        <time>2018-03-03T22:24:42Z</time>
      </trkpt>
      <trkpt lat="19.3243786818" lon="-69.4945725183">
        <time>2018-03-03T22:25:33Z</time>
      </trkpt>
      <trkpt lat="19.3244788034" lon="-69.4946800268">
        <time>2018-03-03T22:25:52Z</time>
      </trkpt>
      <trkpt lat="19.3245041979" lon="-69.4948302348">
        <time>2018-03-03T22:26:05Z</time>
      </trkpt>
      <trkpt lat="19.3245343247" lon="-69.4949814626">
        <time>2018-03-03T22:26:16Z</time>
      </trkpt>
      <trkpt lat="19.3244855260" lon="-69.4951202083">
        <time>2018-03-03T22:26:31Z</time>
      </trkpt>
      <trkpt lat="19.3245807799" lon="-69.4952402386">
        <time>2018-03-03T22:26:41Z</time>
      </trkpt>
      <trkpt lat="19.3247151615" lon="-69.4954003614">
        <time>2018-03-03T22:26:56Z</time>
      </trkpt>
      <trkpt lat="19.3246900256" lon="-69.4955442056">
        <time>2018-03-03T22:27:06Z</time>
      </trkpt>
      <trkpt lat="19.3246932862" lon="-69.4956941687">
        <time>2018-03-03T22:27:17Z</time>
      </trkpt>
      <trkpt lat="19.3247551411" lon="-69.4958341423">
        <time>2018-03-03T22:27:30Z</time>
      </trkpt>
      <trkpt lat="19.3248377276" lon="-69.4959559684">
        <time>2018-03-03T22:27:40Z</time>
      </trkpt>
      <trkpt lat="19.3249733123" lon="-69.4959942310">
        <time>2018-03-03T22:27:49Z</time>
      </trkpt>
      <trkpt lat="19.3250830300" lon="-69.4960902429">
        <time>2018-03-03T22:28:02Z</time>
      </trkpt>
      <trkpt lat="19.3252170816" lon="-69.4961236530">
        <time>2018-03-03T22:28:13Z</time>
      </trkpt>
      <trkpt lat="19.3253380072" lon="-69.4960456811">
        <time>2018-03-03T22:33:50Z</time>
      </trkpt>
      <trkpt lat="19.3254088071" lon="-69.4959207226">
        <time>2018-03-03T22:34:02Z</time>
      </trkpt>
      <trkpt lat="19.3254307457" lon="-69.4957807117">
        <time>2018-03-03T22:34:36Z</time>
      </trkpt>
      <trkpt lat="19.3254386197" lon="-69.4956241008">
        <time>2018-03-03T22:34:49Z</time>
      </trkpt>
      <trkpt lat="19.3254448263" lon="-69.4954761767">
        <time>2018-03-03T22:35:02Z</time>
      </trkpt>
      <trkpt lat="19.3254368341" lon="-69.4953251931">
        <time>2018-03-03T22:35:17Z</time>
      </trkpt>
      <trkpt lat="19.3254288415" lon="-69.4951742095">
        <time>2018-03-03T22:35:32Z</time>
      </trkpt>
      <trkpt lat="19.3253334554" lon="-69.4950677175">
        <time>2018-03-03T22:35:44Z</time>
      </trkpt>
      <trkpt lat="19.3253207291" lon="-69.4949157143">
        <time>2018-03-03T22:36:05Z</time>
      </trkpt>
      <trkpt lat="19.3252524738" lon="-69.4947834077">
        <time>2018-03-03T22:36:19Z</time>
      </trkpt>
      <trkpt lat="19.3251746188" lon="-69.4946626022">
        <time>2018-03-03T22:37:13Z</time>
      </trkpt>
      <trkpt lat="19.3250414308" lon="-69.4947017506">
        <time>2018-03-03T22:37:27Z</time>
      </trkpt>
      <trkpt lat="19.3251560884" lon="-69.4946179020">
        <time>2018-03-03T22:39:27Z</time>
      </trkpt>
      <trkpt lat="19.3250216349" lon="-69.4946251165">
        <time>2018-03-03T22:39:59Z</time>
      </trkpt>
      <trkpt lat="19.3248897128" lon="-69.4946961993">
        <time>2018-03-03T22:40:10Z</time>
      </trkpt>
      <trkpt lat="19.3247719892" lon="-69.4947703413">
        <time>2018-03-03T22:40:22Z</time>
      </trkpt>
      <trkpt lat="19.3249114429" lon="-69.4947370655">
        <time>2018-03-03T22:43:47Z</time>
      </trkpt>
      <trkpt lat="19.3250098966" lon="-69.4948532624">
        <time>2018-03-03T22:44:08Z</time>
      </trkpt>
      <trkpt lat="19.3249974269" lon="-69.4949953130">
        <time>2018-03-03T22:44:26Z</time>
      </trkpt>
      <trkpt lat="19.3251314792" lon="-69.4950287201">
        <time>2018-03-03T22:45:46Z</time>
      </trkpt>
      <trkpt lat="19.3250183539" lon="-69.4951174211">
        <time>2018-03-03T23:00:47Z</time>
      </trkpt>
      <trkpt lat="19.3248897648" lon="-69.4951711287">
        <time>2018-03-03T23:01:17Z</time>
      </trkpt>
      <trkpt lat="19.3247627088" lon="-69.4952296898">
        <time>2018-03-03T23:02:00Z</time>
      </trkpt>
      <trkpt lat="19.3246186558" lon="-69.4952484043">
        <time>2018-03-03T23:02:26Z</time>
      </trkpt>
      <trkpt lat="19.3245184020" lon="-69.4951544345">
        <time>2018-03-03T23:02:58Z</time>
      </trkpt>
      <trkpt lat="19.3244643443" lon="-69.4950251883">
        <time>2018-03-03T23:03:34Z</time>
      </trkpt>
      <trkpt lat="19.3243480910" lon="-69.4949503872">
        <time>2018-03-03T23:03:47Z</time>
      </trkpt>
      <trkpt lat="19.3242090383" lon="-69.4949430426">
        <time>2018-03-03T23:04:23Z</time>
      </trkpt>
      <trkpt lat="19.3240716523" lon="-69.4949270114">
        <time>2018-03-03T23:05:10Z</time>
      </trkpt>
      <trkpt lat="19.3240096607" lon="-69.4948005801">
        <time>2018-03-03T23:05:49Z</time>
      </trkpt>
      <trkpt lat="19.3238918736" lon="-69.4947209273">
        <time>2018-03-03T23:06:08Z</time>
      </trkpt>
      <trkpt lat="19.3238044169" lon="-69.4946116255">
        <time>2018-03-03T23:06:25Z</time>
      </trkpt>
      <trkpt lat="19.3236914956" lon="-69.4945194530">
        <time>2018-03-03T23:06:45Z</time>
      </trkpt>
      <trkpt lat="19.3235478433" lon="-69.4944975512">
        <time>2018-03-03T23:07:03Z</time>
      </trkpt>
      <trkpt lat="19.3234347208" lon="-69.4945862553">
        <time>2018-03-03T23:07:19Z</time>
      </trkpt>
      <trkpt lat="19.3233402631" lon="-69.4947061183">
        <time>2018-03-03T23:07:33Z</time>
      </trkpt>
      <trkpt lat="19.3232852013" lon="-69.4948389912">
        <time>2018-03-03T23:08:20Z</time>
      </trkpt>
      <trkpt lat="19.3231543478" lon="-69.4948017549">
        <time>2018-03-03T23:08:53Z</time>
      </trkpt>
      <trkpt lat="19.3230172282" lon="-69.4947586462">
        <time>2018-03-03T23:09:12Z</time>
      </trkpt>
      <trkpt lat="19.3228865079" lon="-69.4947078705">
        <time>2018-03-03T23:09:28Z</time>
      </trkpt>
      <trkpt lat="19.3228245137" lon="-69.4945814416">
        <time>2018-03-03T23:09:56Z</time>
      </trkpt>
      <trkpt lat="19.3222920996" lon="-69.4945436385">
        <time>2018-03-03T23:10:56Z</time>
      </trkpt>
      <trkpt lat="19.3224260203" lon="-69.4945905783">
        <time>2018-03-03T23:11:04Z</time>
      </trkpt>
      <trkpt lat="19.3226286016" lon="-69.4947291990">
        <time>2018-03-03T23:12:13Z</time>
      </trkpt>
      <trkpt lat="19.3223834849" lon="-69.4937718088">
        <time>2018-03-03T23:12:41Z</time>
      </trkpt>
      <trkpt lat="19.3225888135" lon="-69.4944356770">
        <time>2018-03-03T23:12:42Z</time>
      </trkpt>
      <trkpt lat="19.3226172790" lon="-69.4945955888">
        <time>2018-03-03T23:12:44Z</time>
      </trkpt>
      <trkpt lat="19.3226728745" lon="-69.4947296845">
        <time>2018-03-03T23:12:46Z</time>
      </trkpt>
      <trkpt lat="19.3225517543" lon="-69.4949885381">
        <time>2018-03-03T23:12:49Z</time>
      </trkpt>
      <trkpt lat="19.3226486782" lon="-69.4950998769">
        <time>2018-03-03T23:12:52Z</time>
      </trkpt>
      <trkpt lat="19.3225770187" lon="-69.4948311542">
        <time>2018-03-03T23:12:55Z</time>
      </trkpt>
      <trkpt lat="19.3227279359" lon="-69.4945968112">
        <time>2018-03-03T23:13:49Z</time>
      </trkpt>
      <trkpt lat="19.3227279359" lon="-69.4945968112">
        <time>2018-03-03T23:14:53Z</time>
      </trkpt>
    </trkseg>
  </trk>
</gpx>
