{"type":"FeatureCollection","features":[{"type":"Feature","properties":{"name":"gps4cam trip started at: 2019-02-26T03:12:02Z","time":"2019-02-26T07:07:04Z","coordTimes":["2019-02-26T07:07:04Z","2019-02-26T07:12:08Z","2019-02-26T07:17:05Z","2019-02-26T07:22:05Z","2019-02-26T07:27:11Z","2019-02-26T07:32:04Z","2019-02-26T07:37:02Z","2019-02-26T07:42:15Z","2019-02-26T07:47:04Z","2019-02-26T07:52:05Z","2019-02-26T07:57:02Z","2019-02-26T08:02:28Z","2019-02-26T08:07:02Z","2019-02-26T08:12:04Z","2019-02-26T08:17:04Z","2019-02-26T08:22:06Z","2019-02-26T08:27:04Z","2019-02-26T08:32:04Z","2019-02-26T08:37:12Z","2019-02-26T08:42:02Z"],"type":"marche","month":"2019-02-01"},"geometry":{"type":"LineString","coordinates":[[35.391285749,-1.602167295],[35.38938943,-1.602199325],[35.389163125,-1.602116639],[35.389502337,-1.601787303],[35.38938425,-1.601853814],[35.389416689,-1.601832805],[35.389644281,-1.601451166],[35.389756483,-1.602330401],[35.390089411,-1.601960283],[35.390037127,-1.601839647],[35.38971585,-1.601539377],[35.390388167,-1.601577408],[35.390454193,-1.601639306],[35.390826109,-1.60194665],[35.390837844,-1.602093547],[35.390314607,-1.602347694],[35.389870082,-1.602421287],[35.389512039,-1.602384049],[35.389156583,-1.602968111],[35.389183976,-1.602930434]]}}]}