{"type":"FeatureCollection","features":[{"type":"Feature","properties":{"name":"gps4cam trip started at: 2017-02-25T06:47:14Z","time":"2017-02-25T06:47:14Z","coordTimes":["2017-02-25T06:47:14Z","2017-02-25T06:47:21Z","2017-02-25T06:47:43Z","2017-02-25T06:47:56Z","2017-02-25T06:48:07Z","2017-02-25T06:48:18Z","2017-02-25T06:48:32Z","2017-02-25T06:48:55Z","2017-02-25T06:49:17Z","2017-02-25T06:49:29Z","2017-02-25T06:50:05Z","2017-02-25T06:50:16Z","2017-02-25T06:50:27Z","2017-02-25T06:50:37Z","2017-02-25T06:50:58Z","2017-02-25T06:51:10Z","2017-02-25T06:51:20Z","2017-02-25T06:51:32Z","2017-02-25T06:51:41Z","2017-02-25T06:51:51Z","2017-02-25T06:52:11Z","2017-02-25T06:52:24Z","2017-02-25T06:52:34Z","2017-02-25T06:52:48Z","2017-02-25T06:52:59Z","2017-02-25T06:53:17Z","2017-02-25T06:53:48Z","2017-02-25T06:54:10Z","2017-02-25T06:54:34Z","2017-02-25T06:54:45Z","2017-02-25T06:54:55Z","2017-02-25T06:55:05Z","2017-02-25T06:55:39Z","2017-02-25T06:55:50Z","2017-02-25T06:56:03Z","2017-02-25T06:56:21Z","2017-02-25T06:56:34Z","2017-02-25T06:56:47Z","2017-02-25T06:57:04Z","2017-02-25T06:57:16Z","2017-02-25T06:57:31Z","2017-02-25T06:57:43Z","2017-02-25T06:58:15Z","2017-02-25T06:58:44Z","2017-02-25T06:59:03Z","2017-02-25T06:59:28Z","2017-02-25T06:59:49Z","2017-02-25T07:01:27Z","2017-02-25T07:01:51Z","2017-02-25T07:03:46Z","2017-02-25T07:04:02Z","2017-02-25T07:04:32Z","2017-02-25T07:05:16Z","2017-02-25T07:05:49Z","2017-02-25T07:06:06Z","2017-02-25T07:07:49Z","2017-02-25T07:08:04Z","2017-02-25T07:08:18Z","2017-02-25T07:08:54Z","2017-02-25T07:09:21Z","2017-02-25T07:09:38Z","2017-02-25T07:10:18Z","2017-02-25T07:11:52Z","2017-02-25T07:12:27Z","2017-02-25T07:12:41Z","2017-02-25T07:13:04Z","2017-02-25T07:13:57Z","2017-02-25T07:17:23Z","2017-02-25T07:19:56Z","2017-02-25T07:20:18Z","2017-02-25T07:21:19Z","2017-02-25T07:21:53Z","2017-02-25T07:22:38Z","2017-02-25T07:22:56Z","2017-02-25T07:23:15Z","2017-02-25T07:23:38Z","2017-02-25T07:23:57Z","2017-02-25T07:24:24Z","2017-02-25T07:24:57Z","2017-02-25T07:25:36Z","2017-02-25T07:25:52Z","2017-02-25T07:26:06Z","2017-02-25T07:26:24Z","2017-02-25T07:26:36Z","2017-02-25T07:26:51Z","2017-02-25T07:27:13Z","2017-02-25T07:27:32Z","2017-02-25T07:27:47Z","2017-02-25T07:28:17Z","2017-02-25T07:28:54Z","2017-02-25T07:29:44Z","2017-02-25T07:30:18Z","2017-02-25T07:30:37Z","2017-02-25T07:31:16Z","2017-02-25T07:31:33Z","2017-02-25T07:32:04Z","2017-02-25T07:32:52Z","2017-02-25T07:33:26Z","2017-02-25T07:34:01Z","2017-02-25T07:34:20Z","2017-02-25T07:34:38Z","2017-02-25T07:34:52Z","2017-02-25T07:35:06Z","2017-02-25T07:35:35Z","2017-02-25T07:35:51Z","2017-02-25T07:36:48Z","2017-02-25T07:40:13Z","2017-02-25T07:40:28Z","2017-02-25T07:40:59Z","2017-02-25T07:41:11Z","2017-02-25T07:41:23Z","2017-02-25T07:41:55Z","2017-02-25T07:44:26Z","2017-02-25T07:44:40Z","2017-02-25T07:45:03Z","2017-02-25T07:45:15Z","2017-02-25T07:45:42Z","2017-02-25T07:46:14Z","2017-02-25T07:46:25Z","2017-02-25T07:46:38Z","2017-02-25T07:46:51Z","2017-02-25T07:47:04Z","2017-02-25T07:47:28Z","2017-02-25T07:47:41Z","2017-02-25T07:49:14Z","2017-02-25T07:50:38Z","2017-02-25T07:51:17Z","2017-02-25T07:51:48Z","2017-02-25T07:52:24Z","2017-02-25T07:52:37Z","2017-02-25T07:52:54Z","2017-02-25T07:53:08Z","2017-02-25T07:53:31Z","2017-02-25T07:54:16Z","2017-02-25T07:54:31Z","2017-02-25T07:54:44Z","2017-02-25T07:55:00Z","2017-02-25T07:55:19Z","2017-02-25T07:55:40Z","2017-02-25T07:55:54Z","2017-02-25T07:56:07Z","2017-02-25T07:56:20Z","2017-02-25T07:56:33Z","2017-02-25T07:56:44Z","2017-02-25T07:57:03Z","2017-02-25T07:57:13Z","2017-02-25T07:57:22Z","2017-02-25T07:57:55Z","2017-02-25T07:58:51Z","2017-02-25T07:59:16Z","2017-02-25T08:01:41Z","2017-02-25T08:02:08Z","2017-02-25T08:02:27Z","2017-02-25T08:03:00Z","2017-02-25T08:03:16Z","2017-02-25T08:03:32Z","2017-02-25T08:04:06Z","2017-02-25T08:04:21Z","2017-02-25T08:04:33Z","2017-02-25T08:04:47Z","2017-02-25T08:05:03Z","2017-02-25T08:05:16Z","2017-02-25T08:05:30Z","2017-02-25T08:05:41Z","2017-02-25T08:05:54Z","2017-02-25T08:06:07Z","2017-02-25T08:06:22Z","2017-02-25T08:06:40Z","2017-02-25T08:06:47Z","2017-02-25T08:07:00Z","2017-02-25T08:07:14Z","2017-02-25T08:07:32Z","2017-02-25T08:07:48Z","2017-02-25T08:08:02Z","2017-02-25T08:08:30Z","2017-02-25T08:08:53Z","2017-02-25T08:10:27Z","2017-02-25T08:11:43Z","2017-02-25T08:11:59Z","2017-02-25T08:15:22Z","2017-02-25T08:16:22Z","2017-02-25T08:18:47Z","2017-02-25T08:25:03Z","2017-02-25T08:28:03Z","2017-02-25T08:28:39Z","2017-02-25T08:28:58Z","2017-02-25T08:29:14Z","2017-02-25T08:30:40Z","2017-02-25T08:30:56Z","2017-02-25T08:31:09Z","2017-02-25T08:31:27Z","2017-02-25T08:31:39Z","2017-02-25T08:31:47Z","2017-02-25T08:32:02Z","2017-02-25T08:32:16Z","2017-02-25T08:32:27Z","2017-02-25T08:32:47Z","2017-02-25T08:32:54Z","2017-02-25T08:33:03Z","2017-02-25T08:33:13Z","2017-02-25T08:33:27Z","2017-02-25T08:33:38Z","2017-02-25T08:33:46Z","2017-02-25T08:33:54Z","2017-02-25T08:34:03Z","2017-02-25T08:34:13Z","2017-02-25T08:34:34Z","2017-02-25T08:34:43Z","2017-02-25T08:34:53Z","2017-02-25T08:35:03Z","2017-02-25T08:35:12Z","2017-02-25T08:35:33Z","2017-02-25T08:37:20Z","2017-02-25T08:37:40Z","2017-02-25T08:37:52Z","2017-02-25T08:38:16Z","2017-02-25T08:38:28Z","2017-02-25T08:38:37Z","2017-02-25T08:39:03Z","2017-02-25T08:39:13Z","2017-02-25T08:39:38Z","2017-02-25T08:40:01Z","2017-02-25T08:40:11Z","2017-02-25T08:40:22Z","2017-02-25T08:40:32Z","2017-02-25T08:40:43Z","2017-02-25T08:41:06Z","2017-02-25T08:41:17Z","2017-02-25T08:41:38Z","2017-02-25T08:42:10Z","2017-02-25T08:42:23Z","2017-02-25T08:42:33Z","2017-02-25T08:42:43Z","2017-02-25T08:42:54Z","2017-02-25T08:43:05Z","2017-02-25T08:43:17Z","2017-02-25T08:43:37Z"],"type":"randonnée","month":"2017-02-01"},"geometry":{"type":"LineString","coordinates":[[2.467860297,48.653501828],[2.468068997,48.65352121],[2.468442675,48.653568662],[2.468637599,48.653638339],[2.468835686,48.653678713],[2.469030329,48.653731661],[2.469227713,48.653730211],[2.469321967,48.653465997],[2.469379245,48.653176957],[2.469549701,48.653096229],[2.469946779,48.653013834],[2.470131713,48.652924633],[2.470250289,48.652802457],[2.470398387,48.652696795],[2.470324495,48.652433817],[2.470362373,48.652295503],[2.470470052,48.65217759],[2.470640361,48.652088495],[2.470748038,48.651970581],[2.470877786,48.65186087],[2.470897457,48.651726873],[2.470949812,48.651580086],[2.471046592,48.651466435],[2.471176338,48.651356724],[2.471384607,48.651351005],[2.471557738,48.651429203],[2.471698469,48.65153692],[2.472005307,48.651739617],[2.472322899,48.651929686],[2.472474528,48.652033139],[2.47263691,48.652123963],[2.472759581,48.652244361],[2.473232252,48.652525307],[2.473372847,48.652624657],[2.473535232,48.652715481],[2.473720726,48.652659733],[2.473802599,48.652529458],[2.473910129,48.652403177],[2.474102789,48.65233901],[2.474310636,48.652308193],[2.474496127,48.652252443],[2.474566961,48.652118067],[2.474749188,48.651869928],[2.474637407,48.651745269],[2.474439039,48.651688177],[2.474258734,48.651618402],[2.474153981,48.651476959],[2.474020556,48.651369191],[2.473831767,48.651445879],[2.473847562,48.651299361],[2.473896465,48.651165147],[2.473868541,48.651027319],[2.473981107,48.650767147],[2.47417064,48.650518955],[2.474190159,48.650376592],[2.474042398,48.650285663],[2.473851346,48.650228516],[2.473653126,48.650179788],[2.473771826,48.650065972],[2.473945847,48.649981027],[2.47386331,48.649856151],[2.473956211,48.649729977],[2.474016147,48.649599864],[2.473817787,48.649542772],[2.473626311,48.649460531],[2.473437389,48.649528855],[2.473384762,48.649658914],[2.473269545,48.649546829],[2.473263551,48.649408838],[2.473065193,48.649351745],[2.473095748,48.649213484],[2.473303866,48.649199395],[2.473396767,48.649073221],[2.47353381,48.648963452],[2.473704242,48.648882716],[2.473841425,48.648781311],[2.474034354,48.648733871],[2.474186297,48.648640722],[2.47439026,48.648597382],[2.474587908,48.648612649],[2.47479187,48.648569308],[2.474996401,48.648559426],[2.475189185,48.648503619],[2.475274769,48.648377497],[2.475490335,48.648371715],[2.475683118,48.648315907],[2.475846092,48.648226857],[2.476016518,48.648146117],[2.476213311,48.648111192],[2.476602598,48.648003728],[2.476965659,48.647858812],[2.477088192,48.647970839],[2.477152532,48.64810003],[2.477339407,48.648341247],[2.477555114,48.648343826],[2.477553954,48.648490236],[2.477759339,48.648530537],[2.477963869,48.64852065],[2.478140586,48.648594627],[2.478338519,48.648626617],[2.478523705,48.648554129],[2.478667886,48.648649262],[2.47874685,48.648778344],[2.479042666,48.648976919],[2.479251638,48.649013009],[2.479467063,48.648998855],[2.479191432,48.649126395],[2.479270397,48.649255476],[2.47926924,48.649401886],[2.479300764,48.649535503],[2.479292154,48.649673603],[2.479250721,48.64981613],[2.479405799,48.649906998],[2.479459252,48.650040452],[2.479642842,48.650302607],[2.479765527,48.650422997],[2.479952703,48.650680941],[2.480017051,48.650810132],[2.480037825,48.650956378],[2.480040252,48.651098578],[2.480086396,48.651232086],[2.480110754,48.651374123],[2.480210496,48.651649451],[2.480223817,48.651787387],[2.48012306,48.651666833],[2.479915219,48.651697661],[2.479703509,48.651715968],[2.47954798,48.651813332],[2.479681418,48.651921094],[2.479869041,48.651990807],[2.48000248,48.652098569],[2.479894967,48.652224855],[2.479959315,48.652354046],[2.479930627,48.65260105],[2.480031385,48.652721603],[2.480193782,48.652812418],[2.480239926,48.652945927],[2.480242352,48.653088127],[2.480142146,48.653214359],[2.480118913,48.653352568],[2.480007811,48.653483063],[2.479874493,48.653596993],[2.479938841,48.653726184],[2.479937681,48.653872593],[2.480023962,48.654001621],[2.480189945,48.654088227],[2.480395211,48.654120163],[2.480384298,48.654337754],[2.479906054,48.654805611],[2.479687139,48.655045663],[2.479342064,48.655391223],[2.479245433,48.655513244],[2.479126727,48.655627063],[2.479052169,48.655757286],[2.478940773,48.655871051],[2.478744093,48.655914339],[2.47854599,48.65587398],[2.478337987,48.655896437],[2.478150496,48.655835084],[2.47794881,48.655798934],[2.477796988,48.655900449],[2.477607759,48.655952046],[2.477422683,48.656032892],[2.477333499,48.656163222],[2.477200165,48.656277147],[2.477198851,48.656415192],[2.477146362,48.656553616],[2.476934913,48.656588644],[2.476723039,48.656598578],[2.476521635,48.656579154],[2.476323247,48.656522061],[2.476114958,48.656527785],[2.475916855,48.656487421],[2.475715593,48.65647636],[2.475300005,48.656546358],[2.475014835,48.656761792],[2.474991583,48.656899998],[2.47514667,48.656990876],[2.475247422,48.657111436],[2.475238791,48.657249534],[2.475049555,48.657301127],[2.474767821,48.657503985],[2.474556036,48.657735606],[2.474366937,48.657795561],[2.474176001,48.657746775],[2.473966999,48.65771067],[2.473917145,48.657573003],[2.473816538,48.657460807],[2.47366131,48.657361562],[2.473441414,48.65732972],[2.473264537,48.657247366],[2.473207233,48.657101387],[2.473139174,48.656968037],[2.473034702,48.65684332],[2.472963058,48.656714179],[2.472807834,48.656614934],[2.472725296,48.656490055],[2.472929153,48.656438359],[2.47304415,48.65632039],[2.473118723,48.656190172],[2.473266829,48.656084508],[2.473452054,48.656012033],[2.473567189,48.655902429],[2.473605065,48.655764114],[2.473723642,48.655641936],[2.473772554,48.655507723],[2.474061447,48.655296446],[2.474102905,48.655153922],[2.474122572,48.655019925],[2.4740181,48.65489521],[2.473830475,48.654825486],[2.473427116,48.654753171],[2.473239493,48.654683447],[2.472832268,48.65459861],[2.47264092,48.65452473],[2.472219501,48.654465093],[2.472010372,48.654420623],[2.471822892,48.654359261],[2.471412088,48.654278629],[2.471235364,48.654204639],[2.470828287,48.654128161],[2.470428099,48.654026534],[2.47023001,48.653986162],[2.470038949,48.653929007],[2.469862228,48.653855015],[2.469674894,48.653802015],[2.469263956,48.653713012],[2.469054974,48.653676901],[2.468658377,48.65357106],[2.468038321,48.653437577],[2.467828918,48.65337637],[2.467627248,48.653340204],[2.467439637,48.653270471],[2.467237968,48.653234304],[2.467029129,48.653206556],[2.466816424,48.653166286],[2.466759418,48.653037035]]}}]}