<?xml version="1.0" encoding="UTF-8"?>
<gpx version="1.1" creator="GPSBabel - https://www.gpsbabel.org" xmlns="http://www.topografix.com/GPX/1/1" xmlns:xsi="http://www.w3.org/2001/XMLSchema-instance" xmlns:gpxtpx="http://www.garmin.com/xmlschemas/TrackPointExtension/v1" xmlns:gpxx="http://www.garmin.com/xmlschemas/GpxExtensions/v3" xmlns:gpxpx="http://www.garmin.com/xmlschemas/PowerExtension/v1" xmlns:gpx_style="http://www.topografix.com/GPX/gpx_style/0/2">
  <metadata>
    <name>gps4cam trip started at 2015-08-08 12-06 decoded at 2015-08-09 01-23-53</name>
    <link href="http://gps4cam.com">
      <text>gps4cam</text>
    </link>
    <time>2025-09-03T22:07:31.249Z</time>
    <bounds minlat="22.292897906" minlon="114.168614974" maxlat="22.298396274" maxlon="114.177934433"/>
  </metadata>
  <trk>
    <name>gps4cam trip started at: 2015-08-08T04:06:46Z</name>
    <trkseg>
      <trkpt lat="22.293914570" lon="114.168614974">
        <ele>-18.000</ele>
        <time>2015-08-08T15:27:06Z</time>
      </trkpt>
      <trkpt lat="22.293245247" lon="114.170254247">
        <ele>-15.000</ele>
        <time>2015-08-08T15:31:50Z</time>
      </trkpt>
      <trkpt lat="22.292947198" lon="114.170730328">
        <ele>51.000</ele>
        <time>2015-08-08T15:36:51Z</time>
      </trkpt>
      <trkpt lat="22.293187323" lon="114.170880260">
        <ele>-2.000</ele>
        <time>2015-08-08T15:41:49Z</time>
      </trkpt>
      <trkpt lat="22.293044532" lon="114.170950852">
        <ele>5.000</ele>
        <time>2015-08-08T15:46:49Z</time>
      </trkpt>
      <trkpt lat="22.292980667" lon="114.170881970">
        <ele>15.000</ele>
        <time>2015-08-08T15:51:49Z</time>
      </trkpt>
      <trkpt lat="22.292997274" lon="114.170884157">
        <ele>13.000</ele>
        <time>2015-08-08T15:56:49Z</time>
      </trkpt>
      <trkpt lat="22.292897906" lon="114.171204983">
        <ele>3.000</ele>
        <time>2015-08-08T16:01:49Z</time>
      </trkpt>
      <trkpt lat="22.293031399" lon="114.173496829">
        <ele>17.000</ele>
        <time>2015-08-08T16:06:49Z</time>
      </trkpt>
      <trkpt lat="22.293487480" lon="114.175468347">
        <ele>35.000</ele>
        <time>2015-08-08T16:11:51Z</time>
      </trkpt>
      <trkpt lat="22.294770397" lon="114.176160574">
        <ele>15.000</ele>
        <time>2015-08-08T16:16:51Z</time>
      </trkpt>
      <trkpt lat="22.297053292" lon="114.177513087">
        <ele>38.000</ele>
        <time>2015-08-08T16:21:49Z</time>
      </trkpt>
      <trkpt lat="22.298243994" lon="114.177491223">
        <ele>42.000</ele>
        <time>2015-08-08T16:26:46Z</time>
      </trkpt>
      <trkpt lat="22.298295112" lon="114.177934433">
        <ele>37.000</ele>
        <time>2015-08-08T16:31:46Z</time>
      </trkpt>
      <trkpt lat="22.298396274" lon="114.177784748">
        <ele>43.000</ele>
        <time>2015-08-08T16:41:26Z</time>
      </trkpt>
    </trkseg>
  </trk>
</gpx>
