<?xml version="1.0" encoding="UTF-8"?>
<gpx version="1.1" creator="GPSBabel - https://www.gpsbabel.org" xmlns="http://www.topografix.com/GPX/1/1" xmlns:xsi="http://www.w3.org/2001/XMLSchema-instance" xmlns:gpxtpx="http://www.garmin.com/xmlschemas/TrackPointExtension/v1" xmlns:gpxx="http://www.garmin.com/xmlschemas/GpxExtensions/v3" xmlns:gpxpx="http://www.garmin.com/xmlschemas/PowerExtension/v1" xmlns:gpx_style="http://www.topografix.com/GPX/gpx_style/0/2">
  <metadata>
    <name>gps4cam trip started at 2015-05-24 14-16 decoded at 2015-05-25 19-43-03</name>
    <link href="http://gps4cam.com">
      <text>gps4cam</text>
    </link>
    <time>2025-09-03T22:07:31.095Z</time>
    <bounds minlat="40.642019835" minlon="-73.791914846" maxlat="40.643870701" maxlon="-73.790104824"/>
  </metadata>
  <trk>
    <name>gps4cam trip started at: 2015-05-24T12:16:26Z</name>
    <trkseg>
      <trkpt lat="40.643870701" lon="-73.790104824">
        <time>2015-05-25T00:16:33Z</time>
      </trkpt>
      <trkpt lat="40.643400108" lon="-73.790162767">
        <time>2015-05-25T00:21:26Z</time>
      </trkpt>
      <trkpt lat="40.643385345" lon="-73.790235244">
        <time>2015-05-25T00:26:26Z</time>
      </trkpt>
      <trkpt lat="40.643374645" lon="-73.790174162">
        <time>2015-05-25T00:31:36Z</time>
      </trkpt>
      <trkpt lat="40.643258787" lon="-73.790129819">
        <time>2015-05-25T00:36:26Z</time>
      </trkpt>
      <trkpt lat="40.642990424" lon="-73.790695323">
        <time>2015-05-25T00:41:26Z</time>
      </trkpt>
      <trkpt lat="40.643516255" lon="-73.790885552">
        <time>2015-05-25T00:46:26Z</time>
      </trkpt>
      <trkpt lat="40.643465911" lon="-73.790889260">
        <time>2015-05-25T00:51:26Z</time>
      </trkpt>
      <trkpt lat="40.642370240" lon="-73.791404652">
        <time>2015-05-25T00:56:26Z</time>
      </trkpt>
      <trkpt lat="40.642172980" lon="-73.791696804">
        <time>2015-05-25T01:06:27Z</time>
      </trkpt>
      <trkpt lat="40.642195134" lon="-73.791656570">
        <time>2015-05-25T01:11:26Z</time>
      </trkpt>
      <trkpt lat="40.642207963" lon="-73.791647693">
        <time>2015-05-25T01:16:27Z</time>
      </trkpt>
      <trkpt lat="40.642213593" lon="-73.791600215">
        <time>2015-05-25T01:21:26Z</time>
      </trkpt>
      <trkpt lat="40.642136625" lon="-73.791653477">
        <time>2015-05-25T01:26:26Z</time>
      </trkpt>
      <trkpt lat="40.642171220" lon="-73.791617085">
        <time>2015-05-25T01:31:26Z</time>
      </trkpt>
      <trkpt lat="40.642127686" lon="-73.791672115">
        <time>2015-05-25T01:36:26Z</time>
      </trkpt>
      <trkpt lat="40.642095800" lon="-73.791619469">
        <time>2015-05-25T01:41:26Z</time>
      </trkpt>
      <trkpt lat="40.642022140" lon="-73.791701571">
        <time>2015-05-25T01:46:26Z</time>
      </trkpt>
      <trkpt lat="40.642041215" lon="-73.791900051">
        <time>2015-05-25T01:51:26Z</time>
      </trkpt>
      <trkpt lat="40.642019835" lon="-73.791914846">
        <time>2015-05-25T01:56:26Z</time>
      </trkpt>
      <trkpt lat="40.643378277" lon="-73.791155351">
        <time>2015-05-25T02:01:26Z</time>
      </trkpt>
      <trkpt lat="40.643487131" lon="-73.791154735">
        <time>2015-05-25T02:11:26Z</time>
      </trkpt>
      <trkpt lat="40.643480322" lon="-73.791103414">
        <time>2015-05-25T02:16:26Z</time>
      </trkpt>
      <trkpt lat="40.643457393" lon="-73.791169088">
        <time>2015-05-25T02:21:26Z</time>
      </trkpt>
      <trkpt lat="40.643518401" lon="-73.790952542">
        <time>2015-05-25T02:26:26Z</time>
      </trkpt>
    </trkseg>
  </trk>
</gpx>
