<?xml version="1.0" encoding="UTF-8"?>
<gpx creator="gps4cam - http://gps4cam.com" version="1.1" schemaLocation="http://www.topografix.com/GPX/1/1 http://www.topografix.com/GPX/1/1/gpx.xsd" xmlns="http://www.topografix.com/GPX/1/1" xmlns:xsi="http://www.w3.org/2001/XMLSchema-instance" xsi:schemaLocation="http://www.topografix.com/GPX/1/1 http://www.topografix.com/GPX/1/1/gpx.xsd http://www.garmin.com/xmlschemas/GpxExtensions/v3 http://www.garmin.com/xmlschemas/GpxExtensionsv3.xsd http://www.garmin.com/xmlschemas/TrackPointExtension/v1 http://www.garmin.com/xmlschemas/TrackPointExtensionv1.xsd http://www.garmin.com/xmlschemas/PowerExtension/v1 http://www.garmin.com/xmlschemas/PowerExtensionv1.xsd http://www.topografix.com/GPX/gpx_style/0/2 http://www.topografix.com/GPX/gpx_style/0/2/gpx_style.xsd" xmlns:gpxtpx="http://www.garmin.com/xmlschemas/TrackPointExtension/v1" xmlns:gpxx="http://www.garmin.com/xmlschemas/GpxExtensions/v3" xmlns:gpxpx="http://www.garmin.com/xmlschemas/PowerExtension/v1" xmlns:gpx_style="http://www.topografix.com/GPX/gpx_style/0/2">
  <metadata>
    <name>gps4cam trip started at 2018-08-12 11-20 decoded at 2018-08-15 09-35-27</name>
    <author>
      <name>gpx.studio</name>
      <link href="https://gpx.studio"/>
    </author>
    <link href="http://gps4cam.com">
      <text>gps4cam</text>
    </link>
    <time>2018-08-15T08:09:47.000Z</time>
  </metadata>
  <trk>
    <name>gps4cam trip started at: 2018-08-12T09:20:11Z</name>
    <trkseg>
      <trkpt lat="41.8386233243" lon="44.7344823713">
        <time>2018-08-12T10:25:15.000Z</time>
      </trkpt>
      <trkpt lat="41.8382020545" lon="44.7339787433">
        <time>2018-08-12T10:30:14.000Z</time>
      </trkpt>
      <trkpt lat="41.8380243519" lon="44.7333225936">
        <time>2018-08-12T10:35:30.000Z</time>
      </trkpt>
      <trkpt lat="41.8385729184" lon="44.7335057187">
        <time>2018-08-12T10:40:17.000Z</time>
      </trkpt>
      <trkpt lat="41.8385731612" lon="44.7336179992">
        <time>2018-08-12T10:45:10.000Z</time>
      </trkpt>
      <trkpt lat="41.8381933411" lon="44.7332994785">
        <time>2018-08-12T10:50:23.000Z</time>
      </trkpt>
      <trkpt lat="41.8380873048" lon="44.7345181368">
        <time>2018-08-12T10:55:12.000Z</time>
      </trkpt>
    </trkseg>
  </trk>
</gpx>
