{"type":"FeatureCollection","features":[{"type":"Feature","properties":{"name":"Sortie graVTT digestive","type":"gravel","time":"2024-12-20T12:27:56Z","coordTimes":["2024-12-20T12:27:56Z","2024-12-20T12:28:13Z","2024-12-20T12:28:16Z","2024-12-20T12:28:25Z","2024-12-20T12:28:30Z","2024-12-20T12:28:33Z","2024-12-20T12:28:38Z","2024-12-20T12:28:39Z","2024-12-20T12:28:53Z","2024-12-20T12:28:56Z","2024-12-20T12:28:58Z","2024-12-20T12:29:00Z","2024-12-20T12:29:03Z","2024-12-20T12:29:13Z","2024-12-20T12:29:16Z","2024-12-20T12:29:20Z","2024-12-20T12:29:23Z","2024-12-20T12:29:26Z","2024-12-20T12:29:29Z","2024-12-20T12:29:31Z","2024-12-20T12:29:36Z","2024-12-20T12:29:39Z","2024-12-20T12:29:47Z","2024-12-20T12:29:49Z","2024-12-20T12:29:53Z","2024-12-20T12:30:00Z","2024-12-20T12:30:03Z","2024-12-20T12:30:13Z","2024-12-20T12:30:18Z","2024-12-20T12:30:23Z","2024-12-20T12:30:26Z","2024-12-20T12:30:27Z","2024-12-20T12:30:28Z","2024-12-20T12:30:29Z","2024-12-20T12:30:31Z","2024-12-20T12:30:38Z","2024-12-20T12:30:43Z","2024-12-20T12:30:47Z","2024-12-20T12:30:51Z","2024-12-20T12:30:56Z","2024-12-20T12:30:58Z","2024-12-20T12:31:00Z","2024-12-20T12:31:03Z","2024-12-20T12:31:08Z","2024-12-20T12:31:10Z","2024-12-20T12:31:12Z","2024-12-20T12:31:13Z","2024-12-20T12:31:14Z","2024-12-20T12:31:23Z","2024-12-20T12:31:28Z","2024-12-20T12:31:31Z","2024-12-20T12:31:34Z","2024-12-20T12:31:36Z","2024-12-20T12:31:38Z","2024-12-20T12:31:40Z","2024-12-20T12:31:42Z","2024-12-20T12:31:44Z","2024-12-20T12:31:47Z","2024-12-20T12:31:48Z","2024-12-20T12:31:53Z","2024-12-20T12:31:55Z","2024-12-20T12:31:58Z","2024-12-20T12:32:03Z","2024-12-20T12:32:09Z","2024-12-20T12:32:11Z","2024-12-20T12:32:17Z","2024-12-20T12:32:23Z","2024-12-20T12:32:31Z","2024-12-20T12:32:34Z","2024-12-20T12:32:37Z","2024-12-20T12:32:40Z","2024-12-20T12:32:43Z","2024-12-20T12:32:46Z","2024-12-20T12:32:48Z","2024-12-20T12:32:50Z","2024-12-20T12:32:51Z","2024-12-20T12:32:55Z","2024-12-20T12:32:58Z","2024-12-20T12:33:00Z","2024-12-20T12:33:03Z","2024-12-20T12:33:06Z","2024-12-20T12:33:10Z","2024-12-20T12:33:14Z","2024-12-20T12:33:17Z","2024-12-20T12:33:20Z","2024-12-20T12:33:23Z","2024-12-20T12:33:27Z","2024-12-20T12:33:32Z","2024-12-20T12:33:33Z","2024-12-20T12:33:35Z","2024-12-20T12:33:36Z","2024-12-20T12:33:38Z","2024-12-20T12:33:39Z","2024-12-20T12:33:45Z","2024-12-20T12:33:48Z","2024-12-20T12:33:50Z","2024-12-20T12:33:53Z","2024-12-20T12:33:58Z","2024-12-20T12:33:59Z","2024-12-20T12:34:01Z","2024-12-20T12:34:02Z","2024-12-20T12:34:07Z","2024-12-20T12:34:14Z","2024-12-20T12:34:16Z","2024-12-20T12:34:17Z","2024-12-20T12:34:20Z","2024-12-20T12:34:22Z","2024-12-20T12:34:30Z","2024-12-20T12:34:33Z","2024-12-20T12:34:37Z","2024-12-20T12:34:41Z","2024-12-20T12:34:43Z","2024-12-20T12:34:48Z","2024-12-20T12:34:52Z","2024-12-20T12:34:59Z","2024-12-20T12:35:01Z","2024-12-20T12:35:08Z","2024-12-20T12:35:09Z","2024-12-20T12:35:13Z","2024-12-20T12:35:17Z","2024-12-20T12:35:25Z","2024-12-20T12:35:29Z","2024-12-20T12:35:33Z","2024-12-20T12:35:36Z","2024-12-20T12:35:39Z","2024-12-20T12:35:40Z","2024-12-20T12:35:41Z","2024-12-20T12:35:43Z","2024-12-20T12:35:45Z","2024-12-20T12:35:46Z","2024-12-20T12:35:48Z","2024-12-20T12:35:49Z","2024-12-20T12:35:56Z","2024-12-20T12:35:58Z","2024-12-20T12:36:04Z","2024-12-20T12:36:05Z","2024-12-20T12:36:06Z","2024-12-20T12:36:11Z","2024-12-20T12:36:16Z","2024-12-20T12:36:17Z","2024-12-20T12:36:19Z","2024-12-20T12:36:21Z","2024-12-20T12:36:24Z","2024-12-20T12:36:25Z","2024-12-20T12:36:34Z","2024-12-20T12:36:38Z","2024-12-20T12:36:40Z","2024-12-20T12:36:44Z","2024-12-20T12:36:46Z","2024-12-20T12:36:48Z","2024-12-20T12:36:50Z","2024-12-20T12:36:52Z","2024-12-20T12:36:59Z","2024-12-20T12:37:01Z","2024-12-20T12:37:05Z","2024-12-20T12:37:09Z","2024-12-20T12:37:12Z","2024-12-20T12:37:13Z","2024-12-20T12:37:14Z","2024-12-20T12:37:16Z","2024-12-20T12:37:18Z","2024-12-20T12:37:20Z","2024-12-20T12:37:22Z","2024-12-20T12:37:24Z","2024-12-20T12:37:28Z","2024-12-20T12:37:29Z","2024-12-20T12:37:31Z","2024-12-20T12:37:38Z","2024-12-20T12:37:41Z","2024-12-20T12:37:43Z","2024-12-20T12:37:44Z","2024-12-20T12:37:45Z","2024-12-20T12:37:49Z","2024-12-20T12:37:54Z","2024-12-20T12:38:02Z","2024-12-20T12:38:07Z","2024-12-20T12:38:15Z","2024-12-20T12:38:25Z","2024-12-20T12:38:31Z","2024-12-20T12:38:34Z","2024-12-20T12:38:43Z","2024-12-20T12:38:48Z","2024-12-20T12:39:02Z","2024-12-20T12:39:04Z","2024-12-20T12:39:07Z","2024-12-20T12:39:08Z","2024-12-20T12:39:09Z","2024-12-20T12:39:10Z","2024-12-20T12:39:12Z","2024-12-20T12:39:13Z","2024-12-20T12:39:17Z","2024-12-20T12:39:21Z","2024-12-20T12:39:25Z","2024-12-20T12:39:28Z","2024-12-20T12:39:32Z","2024-12-20T12:39:33Z","2024-12-20T12:39:35Z","2024-12-20T12:39:43Z","2024-12-20T12:39:49Z","2024-12-20T12:40:08Z","2024-12-20T12:40:10Z","2024-12-20T12:40:16Z","2024-12-20T12:40:22Z","2024-12-20T12:40:28Z","2024-12-20T12:40:30Z","2024-12-20T12:40:35Z","2024-12-20T12:40:36Z","2024-12-20T12:40:38Z","2024-12-20T12:40:41Z","2024-12-20T12:40:49Z","2024-12-20T12:40:57Z","2024-12-20T12:41:00Z","2024-12-20T12:41:06Z","2024-12-20T12:41:08Z","2024-12-20T12:41:17Z","2024-12-20T12:41:22Z","2024-12-20T12:41:24Z","2024-12-20T12:41:25Z","2024-12-20T12:41:34Z","2024-12-20T12:41:37Z","2024-12-20T12:41:44Z","2024-12-20T12:41:46Z","2024-12-20T12:41:48Z","2024-12-20T12:41:56Z","2024-12-20T12:42:06Z","2024-12-20T12:42:07Z","2024-12-20T12:42:22Z","2024-12-20T12:42:29Z","2024-12-20T12:42:32Z","2024-12-20T12:42:38Z","2024-12-20T12:42:44Z","2024-12-20T12:42:47Z","2024-12-20T12:42:49Z","2024-12-20T12:42:50Z","2024-12-20T12:42:52Z","2024-12-20T12:42:54Z","2024-12-20T12:42:55Z","2024-12-20T12:42:58Z","2024-12-20T12:43:03Z","2024-12-20T12:43:04Z","2024-12-20T12:43:06Z","2024-12-20T12:43:10Z","2024-12-20T12:43:12Z","2024-12-20T12:43:14Z","2024-12-20T12:43:16Z","2024-12-20T12:43:20Z","2024-12-20T12:43:23Z","2024-12-20T12:43:24Z","2024-12-20T12:43:31Z","2024-12-20T12:43:36Z","2024-12-20T12:43:44Z","2024-12-20T12:43:46Z","2024-12-20T12:43:52Z","2024-12-20T12:43:57Z","2024-12-20T12:44:09Z","2024-12-20T12:44:17Z","2024-12-20T12:44:22Z","2024-12-20T12:44:23Z","2024-12-20T12:44:27Z","2024-12-20T12:44:40Z","2024-12-20T12:44:52Z","2024-12-20T12:44:56Z","2024-12-20T12:44:57Z","2024-12-20T12:45:00Z","2024-12-20T12:45:04Z","2024-12-20T12:45:08Z","2024-12-20T12:45:12Z","2024-12-20T12:45:15Z","2024-12-20T12:45:19Z","2024-12-20T12:45:25Z","2024-12-20T12:45:26Z","2024-12-20T12:45:28Z","2024-12-20T12:45:29Z","2024-12-20T12:45:30Z","2024-12-20T12:45:33Z","2024-12-20T12:45:38Z","2024-12-20T12:45:43Z","2024-12-20T12:45:45Z","2024-12-20T12:45:46Z","2024-12-20T12:45:47Z","2024-12-20T12:45:49Z","2024-12-20T12:45:51Z","2024-12-20T12:45:57Z","2024-12-20T12:46:02Z","2024-12-20T12:46:03Z","2024-12-20T12:46:08Z","2024-12-20T12:46:09Z","2024-12-20T12:46:10Z","2024-12-20T12:46:11Z","2024-12-20T12:46:12Z","2024-12-20T12:46:15Z","2024-12-20T12:46:16Z","2024-12-20T12:46:19Z","2024-12-20T12:46:23Z","2024-12-20T12:46:25Z","2024-12-20T12:46:42Z","2024-12-20T12:46:43Z","2024-12-20T12:46:45Z","2024-12-20T12:46:47Z","2024-12-20T12:46:49Z","2024-12-20T12:46:51Z","2024-12-20T12:46:56Z","2024-12-20T12:47:02Z","2024-12-20T12:47:06Z","2024-12-20T12:47:11Z","2024-12-20T12:47:17Z","2024-12-20T12:47:23Z","2024-12-20T12:47:28Z","2024-12-20T12:47:39Z","2024-12-20T12:47:43Z","2024-12-20T12:47:49Z","2024-12-20T12:47:52Z","2024-12-20T12:47:57Z","2024-12-20T12:48:02Z","2024-12-20T12:48:04Z","2024-12-20T12:48:05Z","2024-12-20T12:48:07Z","2024-12-20T12:48:09Z","2024-12-20T12:48:14Z","2024-12-20T12:48:19Z","2024-12-20T12:48:24Z","2024-12-20T12:48:27Z","2024-12-20T12:48:28Z","2024-12-20T12:48:31Z","2024-12-20T12:48:37Z","2024-12-20T12:48:42Z","2024-12-20T12:48:44Z","2024-12-20T12:48:46Z","2024-12-20T12:48:47Z","2024-12-20T12:48:49Z","2024-12-20T12:48:52Z","2024-12-20T12:48:54Z","2024-12-20T12:48:55Z","2024-12-20T12:48:58Z","2024-12-20T12:49:03Z","2024-12-20T12:49:05Z","2024-12-20T12:49:13Z","2024-12-20T12:49:15Z","2024-12-20T12:49:17Z","2024-12-20T12:49:20Z","2024-12-20T12:49:22Z","2024-12-20T12:49:24Z","2024-12-20T12:49:27Z","2024-12-20T12:49:32Z","2024-12-20T12:49:34Z","2024-12-20T12:49:40Z","2024-12-20T12:49:45Z","2024-12-20T12:49:47Z","2024-12-20T12:49:48Z","2024-12-20T12:49:50Z","2024-12-20T12:49:52Z","2024-12-20T12:50:01Z","2024-12-20T12:50:05Z","2024-12-20T12:50:08Z","2024-12-20T12:50:15Z","2024-12-20T12:50:17Z","2024-12-20T12:50:21Z","2024-12-20T12:50:23Z","2024-12-20T12:50:26Z","2024-12-20T12:50:30Z","2024-12-20T12:50:36Z","2024-12-20T12:50:42Z","2024-12-20T12:50:48Z","2024-12-20T12:50:53Z","2024-12-20T12:51:01Z","2024-12-20T12:51:04Z","2024-12-20T12:51:07Z","2024-12-20T12:51:12Z","2024-12-20T12:51:13Z","2024-12-20T12:51:16Z","2024-12-20T12:51:21Z","2024-12-20T12:51:24Z","2024-12-20T12:51:27Z","2024-12-20T12:51:31Z","2024-12-20T12:51:40Z","2024-12-20T12:51:43Z","2024-12-20T12:51:45Z","2024-12-20T12:51:47Z","2024-12-20T12:51:50Z","2024-12-20T12:51:54Z","2024-12-20T12:51:58Z","2024-12-20T12:52:00Z","2024-12-20T12:52:03Z","2024-12-20T12:52:13Z","2024-12-20T12:52:39Z","2024-12-20T12:52:46Z","2024-12-20T12:52:47Z","2024-12-20T12:52:52Z","2024-12-20T12:52:53Z","2024-12-20T12:52:56Z","2024-12-20T12:52:58Z","2024-12-20T12:53:00Z","2024-12-20T12:53:02Z","2024-12-20T12:53:05Z","2024-12-20T12:53:07Z","2024-12-20T12:53:10Z","2024-12-20T12:53:12Z","2024-12-20T12:53:13Z","2024-12-20T12:53:17Z","2024-12-20T12:53:20Z","2024-12-20T12:53:23Z","2024-12-20T12:53:26Z","2024-12-20T12:53:37Z","2024-12-20T12:53:40Z","2024-12-20T12:53:47Z","2024-12-20T12:53:49Z","2024-12-20T12:53:52Z","2024-12-20T12:53:53Z","2024-12-20T12:53:59Z","2024-12-20T12:54:03Z","2024-12-20T12:54:11Z","2024-12-20T12:54:15Z","2024-12-20T12:54:19Z","2024-12-20T12:54:22Z","2024-12-20T12:54:24Z","2024-12-20T12:54:27Z","2024-12-20T12:54:38Z","2024-12-20T12:54:42Z","2024-12-20T12:54:45Z","2024-12-20T12:54:58Z","2024-12-20T12:55:00Z","2024-12-20T12:55:09Z","2024-12-20T12:55:11Z","2024-12-20T12:55:19Z","2024-12-20T12:55:24Z","2024-12-20T12:55:36Z","2024-12-20T12:55:38Z","2024-12-20T12:55:39Z","2024-12-20T12:55:40Z","2024-12-20T12:55:42Z","2024-12-20T12:55:43Z","2024-12-20T12:55:45Z","2024-12-20T12:55:46Z","2024-12-20T12:55:48Z","2024-12-20T12:55:51Z","2024-12-20T12:55:52Z","2024-12-20T12:55:54Z","2024-12-20T12:55:56Z","2024-12-20T12:55:59Z","2024-12-20T12:56:02Z","2024-12-20T12:56:06Z","2024-12-20T12:56:12Z","2024-12-20T12:56:15Z","2024-12-20T12:56:19Z","2024-12-20T12:56:21Z","2024-12-20T12:56:24Z","2024-12-20T12:56:25Z","2024-12-20T12:56:30Z","2024-12-20T12:56:31Z","2024-12-20T12:56:33Z","2024-12-20T12:56:36Z","2024-12-20T12:56:41Z","2024-12-20T12:56:43Z","2024-12-20T12:56:45Z","2024-12-20T12:56:50Z","2024-12-20T12:56:53Z","2024-12-20T12:56:59Z","2024-12-20T12:57:02Z","2024-12-20T12:57:06Z","2024-12-20T12:57:11Z","2024-12-20T12:57:13Z","2024-12-20T12:57:16Z","2024-12-20T12:57:18Z","2024-12-20T12:57:20Z","2024-12-20T12:57:24Z","2024-12-20T12:57:26Z","2024-12-20T12:57:29Z","2024-12-20T12:57:31Z","2024-12-20T12:57:34Z","2024-12-20T12:57:38Z","2024-12-20T12:57:40Z","2024-12-20T12:57:42Z","2024-12-20T12:57:45Z","2024-12-20T12:57:46Z","2024-12-20T12:57:47Z","2024-12-20T12:57:48Z","2024-12-20T12:57:51Z","2024-12-20T12:57:56Z","2024-12-20T12:57:59Z","2024-12-20T12:58:01Z","2024-12-20T12:58:04Z","2024-12-20T12:58:06Z","2024-12-20T12:58:08Z","2024-12-20T12:58:12Z","2024-12-20T12:58:15Z","2024-12-20T12:58:21Z","2024-12-20T12:58:27Z","2024-12-20T12:58:32Z","2024-12-20T12:58:33Z","2024-12-20T12:58:40Z","2024-12-20T12:58:41Z","2024-12-20T12:58:43Z","2024-12-20T12:58:46Z","2024-12-20T12:58:51Z","2024-12-20T12:58:53Z","2024-12-20T12:58:55Z","2024-12-20T12:58:56Z","2024-12-20T12:59:00Z","2024-12-20T12:59:04Z","2024-12-20T12:59:06Z","2024-12-20T12:59:08Z","2024-12-20T12:59:09Z","2024-12-20T12:59:12Z","2024-12-20T12:59:14Z","2024-12-20T12:59:16Z","2024-12-20T12:59:21Z","2024-12-20T12:59:26Z","2024-12-20T12:59:28Z","2024-12-20T12:59:36Z","2024-12-20T12:59:45Z","2024-12-20T12:59:47Z","2024-12-20T12:59:52Z","2024-12-20T13:00:03Z","2024-12-20T13:00:12Z","2024-12-20T13:00:16Z","2024-12-20T13:00:20Z","2024-12-20T13:00:22Z","2024-12-20T13:00:26Z","2024-12-20T13:00:32Z","2024-12-20T13:00:37Z","2024-12-20T13:00:39Z","2024-12-20T13:00:43Z","2024-12-20T13:00:46Z","2024-12-20T13:00:49Z","2024-12-20T13:00:57Z","2024-12-20T13:01:02Z","2024-12-20T13:01:03Z","2024-12-20T13:01:04Z","2024-12-20T13:01:10Z","2024-12-20T13:01:19Z","2024-12-20T13:01:34Z","2024-12-20T13:01:35Z","2024-12-20T13:01:46Z","2024-12-20T13:02:22Z","2024-12-20T13:02:35Z","2024-12-20T13:02:40Z","2024-12-20T13:02:48Z","2024-12-20T13:02:57Z","2024-12-20T13:03:03Z","2024-12-20T13:03:06Z","2024-12-20T13:03:16Z","2024-12-20T13:03:25Z","2024-12-20T13:03:27Z","2024-12-20T13:03:30Z","2024-12-20T13:03:39Z","2024-12-20T13:03:47Z","2024-12-20T13:03:50Z","2024-12-20T13:03:58Z","2024-12-20T13:04:02Z","2024-12-20T13:04:12Z","2024-12-20T13:04:14Z","2024-12-20T13:04:18Z","2024-12-20T13:04:24Z","2024-12-20T13:04:25Z","2024-12-20T13:04:27Z","2024-12-20T13:04:30Z","2024-12-20T13:04:32Z","2024-12-20T13:04:37Z","2024-12-20T13:04:40Z","2024-12-20T13:04:42Z","2024-12-20T13:04:49Z","2024-12-20T13:04:52Z","2024-12-20T13:04:55Z","2024-12-20T13:04:59Z","2024-12-20T13:05:02Z","2024-12-20T13:05:06Z","2024-12-20T13:05:08Z","2024-12-20T13:05:09Z","2024-12-20T13:05:11Z","2024-12-20T13:05:15Z","2024-12-20T13:05:19Z","2024-12-20T13:05:22Z","2024-12-20T13:05:32Z","2024-12-20T13:05:34Z","2024-12-20T13:05:38Z","2024-12-20T13:05:40Z","2024-12-20T13:05:42Z","2024-12-20T13:05:46Z","2024-12-20T13:05:49Z","2024-12-20T13:05:55Z","2024-12-20T13:05:59Z","2024-12-20T13:06:01Z","2024-12-20T13:06:05Z","2024-12-20T13:06:07Z","2024-12-20T13:06:09Z","2024-12-20T13:06:13Z","2024-12-20T13:06:15Z","2024-12-20T13:06:18Z","2024-12-20T13:06:21Z","2024-12-20T13:06:24Z","2024-12-20T13:06:28Z","2024-12-20T13:06:30Z","2024-12-20T13:06:36Z","2024-12-20T13:06:38Z","2024-12-20T13:06:41Z","2024-12-20T13:06:45Z","2024-12-20T13:06:48Z","2024-12-20T13:06:50Z","2024-12-20T13:06:55Z","2024-12-20T13:07:04Z","2024-12-20T13:07:06Z","2024-12-20T13:07:10Z","2024-12-20T13:07:14Z","2024-12-20T13:07:17Z","2024-12-20T13:07:18Z","2024-12-20T13:07:20Z","2024-12-20T13:07:23Z","2024-12-20T13:07:25Z","2024-12-20T13:07:29Z","2024-12-20T13:07:34Z","2024-12-20T13:07:36Z","2024-12-20T13:07:37Z","2024-12-20T13:07:39Z","2024-12-20T13:07:45Z","2024-12-20T13:07:47Z","2024-12-20T13:07:49Z","2024-12-20T13:07:55Z","2024-12-20T13:07:58Z","2024-12-20T13:08:05Z","2024-12-20T13:08:07Z","2024-12-20T13:08:10Z","2024-12-20T13:08:12Z","2024-12-20T13:08:13Z","2024-12-20T13:08:15Z","2024-12-20T13:08:18Z","2024-12-20T13:08:23Z","2024-12-20T13:08:24Z","2024-12-20T13:08:31Z","2024-12-20T13:08:36Z","2024-12-20T13:08:42Z","2024-12-20T13:08:48Z","2024-12-20T13:08:54Z","2024-12-20T13:08:58Z","2024-12-20T13:08:59Z","2024-12-20T13:09:02Z","2024-12-20T13:09:03Z","2024-12-20T13:09:06Z","2024-12-20T13:09:07Z","2024-12-20T13:09:09Z","2024-12-20T13:09:11Z","2024-12-20T13:09:15Z","2024-12-20T13:09:19Z","2024-12-20T13:09:23Z","2024-12-20T13:09:25Z","2024-12-20T13:09:33Z","2024-12-20T13:09:35Z","2024-12-20T13:09:44Z","2024-12-20T13:09:47Z","2024-12-20T13:09:49Z","2024-12-20T13:09:53Z","2024-12-20T13:09:55Z","2024-12-20T13:09:57Z","2024-12-20T13:10:01Z","2024-12-20T13:10:04Z","2024-12-20T13:10:07Z","2024-12-20T13:10:13Z","2024-12-20T13:10:19Z","2024-12-20T13:10:25Z","2024-12-20T13:10:27Z","2024-12-20T13:10:31Z","2024-12-20T13:10:39Z","2024-12-20T13:10:42Z","2024-12-20T13:10:43Z","2024-12-20T13:10:53Z","2024-12-20T13:11:00Z","2024-12-20T13:11:11Z","2024-12-20T13:11:12Z","2024-12-20T13:11:13Z","2024-12-20T13:11:20Z","2024-12-20T13:11:34Z","2024-12-20T13:11:47Z","2024-12-20T13:11:49Z","2024-12-20T13:11:51Z","2024-12-20T13:11:53Z","2024-12-20T13:11:55Z","2024-12-20T13:11:57Z","2024-12-20T13:12:00Z","2024-12-20T13:12:03Z","2024-12-20T13:12:09Z","2024-12-20T13:12:10Z","2024-12-20T13:12:11Z","2024-12-20T13:12:12Z","2024-12-20T13:12:14Z","2024-12-20T13:12:17Z","2024-12-20T13:12:20Z","2024-12-20T13:12:21Z","2024-12-20T13:12:22Z","2024-12-20T13:12:23Z","2024-12-20T13:12:24Z","2024-12-20T13:12:25Z","2024-12-20T13:12:26Z","2024-12-20T13:12:30Z","2024-12-20T13:12:32Z","2024-12-20T13:12:33Z","2024-12-20T13:12:34Z","2024-12-20T13:12:35Z","2024-12-20T13:12:40Z","2024-12-20T13:12:43Z","2024-12-20T13:12:47Z","2024-12-20T13:12:54Z","2024-12-20T13:12:59Z","2024-12-20T13:13:02Z","2024-12-20T13:13:03Z","2024-12-20T13:13:04Z","2024-12-20T13:13:13Z","2024-12-20T13:13:15Z","2024-12-20T13:13:18Z","2024-12-20T13:13:21Z","2024-12-20T13:13:23Z","2024-12-20T13:13:26Z","2024-12-20T13:13:40Z","2024-12-20T13:13:44Z","2024-12-20T13:13:46Z","2024-12-20T13:13:51Z","2024-12-20T13:14:05Z","2024-12-20T13:14:13Z","2024-12-20T13:14:16Z","2024-12-20T13:14:24Z","2024-12-20T13:14:31Z","2024-12-20T13:14:34Z","2024-12-20T13:14:44Z","2024-12-20T13:14:51Z","2024-12-20T13:14:54Z","2024-12-20T13:15:01Z","2024-12-20T13:15:04Z","2024-12-20T13:15:11Z","2024-12-20T13:15:14Z","2024-12-20T13:15:21Z","2024-12-20T13:15:23Z","2024-12-20T13:15:25Z","2024-12-20T13:15:26Z","2024-12-20T13:15:28Z","2024-12-20T13:15:29Z","2024-12-20T13:15:30Z","2024-12-20T13:15:31Z","2024-12-20T13:15:33Z","2024-12-20T13:15:35Z","2024-12-20T13:15:38Z","2024-12-20T13:15:39Z","2024-12-20T13:15:40Z","2024-12-20T13:15:41Z","2024-12-20T13:15:42Z","2024-12-20T13:15:43Z","2024-12-20T13:15:45Z","2024-12-20T13:15:46Z","2024-12-20T13:15:52Z","2024-12-20T13:15:56Z","2024-12-20T13:15:59Z","2024-12-20T13:16:04Z","2024-12-20T13:16:06Z","2024-12-20T13:16:11Z","2024-12-20T13:16:53Z","2024-12-20T13:17:13Z","2024-12-20T13:17:18Z","2024-12-20T13:17:21Z","2024-12-20T13:17:22Z","2024-12-20T13:17:30Z","2024-12-20T13:17:33Z","2024-12-20T13:17:43Z","2024-12-20T13:17:48Z","2024-12-20T13:17:58Z","2024-12-20T13:18:09Z","2024-12-20T13:18:12Z","2024-12-20T13:18:15Z","2024-12-20T13:18:20Z","2024-12-20T13:18:27Z","2024-12-20T13:18:33Z","2024-12-20T13:18:38Z","2024-12-20T13:18:44Z"],"month":"2024-12-01"},"geometry":{"type":"LineString","coordinates":[[2.451682,48.695001,80.2],[2.452898,48.695331,80.6],[2.453122,48.695379,80.8],[2.453656,48.695535,81.6],[2.453842,48.695578,81.2],[2.4539,48.695566,81.2],[2.45407,48.695578,81],[2.454099,48.695562,81.2],[2.454463,48.695085,81.8],[2.454493,48.695026,82],[2.454555,48.694981,81.8],[2.454593,48.694929,81.8],[2.454646,48.694824,81.8],[2.454946,48.69442,82.4],[2.455035,48.694283,82.6],[2.455171,48.694101,82.6],[2.455256,48.693963,82.6],[2.455369,48.693841,82.8],[2.455459,48.693707,83],[2.455541,48.693626,83],[2.455738,48.69339,82.8],[2.455842,48.693247,82.8],[2.456076,48.692859,82.6],[2.456121,48.692761,82.6],[2.456256,48.692558,82.6],[2.456457,48.692209,82.8],[2.456532,48.692051,82.8],[2.456821,48.691588,82.8],[2.456984,48.691356,82.8],[2.457093,48.691161,82.8],[2.457166,48.691055,82.6],[2.457181,48.691017,82.6],[2.457217,48.690981,82.6],[2.457264,48.690954,82.6],[2.457367,48.690955,82.4],[2.457691,48.691039,82.4],[2.457977,48.691104,82.6],[2.458236,48.691181,82.8],[2.458437,48.691251,83],[2.458657,48.691285,83.2],[2.458736,48.691318,83.2],[2.458843,48.691343,83.2],[2.458993,48.691399,83.2],[2.459276,48.691471,83.4],[2.459367,48.691503,83.6],[2.459444,48.691505,83.6],[2.459479,48.691513,83.6],[2.459507,48.691529,83.8],[2.45995,48.691667,83.6],[2.460197,48.691722,84],[2.460351,48.691767,84],[2.460513,48.691802,84.2],[2.46063,48.691805,84.2],[2.46071,48.691789,84.2],[2.460793,48.691751,84.2],[2.460874,48.691691,84.2],[2.460936,48.691622,84],[2.460994,48.691523,84.2],[2.461025,48.6915,84.2],[2.461255,48.691431,84.4],[2.461361,48.69141,84.6],[2.461533,48.691352,84.6],[2.461842,48.691279,84.6],[2.462139,48.691246,84.8],[2.462238,48.691245,84.8],[2.462526,48.691202,84.8],[2.462866,48.691229,84.8],[2.463315,48.69131,84.4],[2.463502,48.691321,84.2],[2.463671,48.69131,84.2],[2.463818,48.69131,84.6],[2.463994,48.691331,84.8],[2.46418,48.691338,85],[2.464286,48.691324,85],[2.464387,48.691286,85],[2.464439,48.691255,85],[2.464644,48.691165,84.8],[2.46482,48.691122,85],[2.464937,48.691108,85],[2.465104,48.691059,85],[2.465285,48.691029,85.2],[2.465525,48.691009,85.2],[2.465756,48.690969,85.2],[2.465879,48.690978,85.4],[2.466005,48.690931,85.6],[2.466102,48.690882,85.6],[2.466308,48.690836,85.6],[2.466577,48.690798,85.8],[2.466624,48.690784,85.8],[2.466702,48.690736,85.8],[2.466751,48.690718,85.8],[2.466858,48.690704,85.6],[2.466917,48.690681,85.6],[2.467143,48.69051,85.4],[2.467292,48.690435,85.6],[2.467377,48.690369,85.6],[2.467514,48.690294,85.6],[2.467715,48.690239,86],[2.467759,48.690244,86],[2.467808,48.690279,86.2],[2.467813,48.69031,86.2],[2.467887,48.690467,86],[2.467977,48.690708,85.6],[2.468035,48.690757,85.6],[2.468063,48.690757,85.6],[2.468128,48.69071,85.8],[2.468193,48.690679,85.8],[2.468605,48.690524,85.6],[2.468778,48.690481,85.8],[2.46898,48.690402,85.8],[2.469179,48.690304,86],[2.469283,48.690267,86],[2.469581,48.690183,86],[2.469805,48.690103,86],[2.470063,48.689997,86],[2.47007,48.690005,86],[2.469932,48.690032,86],[2.469916,48.690044,86],[2.469739,48.690105,85.8],[2.46953,48.690153,85.8],[2.46909,48.690311,86.2],[2.468882,48.690405,86],[2.468626,48.690476,85.8],[2.468458,48.690549,86],[2.468305,48.690632,86],[2.46825,48.690653,86],[2.468208,48.69066,86.2],[2.46813,48.690639,86.2],[2.468055,48.690634,86.2],[2.468024,48.690623,86.2],[2.46796,48.69058,86.2],[2.467935,48.690546,86.2],[2.467841,48.690264,86],[2.467799,48.690167,86.2],[2.467746,48.689886,85.8],[2.46771,48.68982,85.8],[2.467661,48.689757,85.6],[2.467534,48.689489,85.6],[2.467482,48.689297,86.4],[2.467457,48.689279,86.6],[2.467397,48.68928,86.8],[2.467314,48.689268,86.8],[2.467159,48.689272,86.8],[2.467113,48.689286,86.8],[2.466597,48.689341,85.8],[2.466382,48.689381,86],[2.466281,48.689368,86.4],[2.466052,48.689364,86.6],[2.465945,48.689353,86.8],[2.465861,48.689313,86.8],[2.465769,48.689299,87],[2.465657,48.689302,87],[2.46522,48.689364,87],[2.465096,48.689369,87],[2.46483,48.689402,87],[2.464611,48.689411,86.8],[2.46451,48.689446,86.8],[2.46447,48.68945,86.8],[2.464435,48.689443,86.8],[2.464415,48.689402,86.8],[2.464364,48.689368,86.8],[2.464266,48.689354,86.8],[2.464161,48.689373,86.8],[2.464058,48.689382,86.8],[2.463846,48.689366,86.6],[2.463791,48.689371,86.6],[2.463675,48.689365,86.6],[2.463235,48.68941,86.4],[2.463047,48.689449,86.2],[2.462952,48.689458,86.2],[2.462919,48.689444,86.2],[2.462908,48.68943,86.2],[2.462968,48.68935,86.4],[2.46315,48.689227,86.2],[2.463489,48.68896,86.2],[2.463683,48.688786,86.6],[2.464046,48.688524,86.8],[2.464486,48.688167,86.8],[2.464753,48.687969,87],[2.464899,48.687872,86.8],[2.465314,48.687548,87],[2.465552,48.687384,87],[2.466214,48.686849,87],[2.466275,48.68676,87],[2.4663,48.686619,87],[2.466332,48.686577,87.2],[2.466386,48.686544,87.2],[2.466451,48.686521,87.4],[2.466597,48.686514,87.4],[2.466664,48.686492,87.4],[2.466866,48.686377,87.2],[2.467028,48.68622,87],[2.467212,48.686119,87],[2.467313,48.68602,87],[2.467494,48.685905,87],[2.467518,48.685867,87],[2.467606,48.685779,87],[2.468026,48.68546,87],[2.46831,48.68523,87],[2.469237,48.684539,87.2],[2.469311,48.68447,87.2],[2.469602,48.684264,87],[2.469863,48.684037,87],[2.470153,48.68382,86.2],[2.470239,48.683745,86.2],[2.470488,48.68357,86],[2.470545,48.683538,86],[2.470637,48.683462,86],[2.470762,48.683333,86.2],[2.471155,48.683048,86.4],[2.471474,48.682784,86.2],[2.471612,48.682696,86.4],[2.471876,48.682479,86.2],[2.471976,48.682414,86.2],[2.472434,48.682069,86],[2.472637,48.681873,85.8],[2.47269,48.681795,85.8],[2.472701,48.681763,85.8],[2.472688,48.681467,86.2],[2.472643,48.681364,86.4],[2.47262,48.681106,86.2],[2.472593,48.681037,86.2],[2.47255,48.680975,86.2],[2.472275,48.680769,86],[2.471987,48.68067,86],[2.471964,48.680668,86],[2.471935,48.68069,86.2],[2.471889,48.680684,86],[2.471883,48.680663,85.8],[2.471761,48.680613,85.8],[2.471546,48.680542,85.8],[2.471403,48.680521,86],[2.471301,48.680518,86],[2.471252,48.680531,86],[2.471193,48.680575,86],[2.471155,48.68063,86],[2.471135,48.680641,86],[2.471097,48.680645,86],[2.47101,48.680639,86],[2.470983,48.680644,86],[2.470952,48.680663,86],[2.470902,48.680754,86],[2.470908,48.680799,86],[2.470886,48.680838,86],[2.470833,48.680882,86.2],[2.470779,48.680973,86],[2.470721,48.681024,86],[2.47071,48.681046,86],[2.470713,48.681126,86.2],[2.470702,48.681153,86],[2.470638,48.681161,86],[2.470638,48.681151,86],[2.470489,48.681126,86],[2.470257,48.681056,86],[2.469599,48.680882,86.6],[2.469122,48.680725,86.4],[2.468815,48.680645,86.4],[2.468749,48.680634,86.4],[2.468505,48.680549,86.2],[2.46766,48.680325,85.8],[2.466894,48.680072,86.4],[2.466604,48.679995,86.6],[2.466543,48.679971,86.6],[2.466342,48.679921,86.4],[2.466076,48.679841,86.6],[2.46581,48.679775,86.6],[2.465564,48.679679,86.6],[2.465382,48.679619,86.6],[2.465112,48.679555,86.2],[2.464731,48.679445,86.2],[2.464668,48.67944,86.2],[2.464547,48.679446,86],[2.464491,48.679426,86],[2.464455,48.67939,86],[2.464479,48.679278,86],[2.464426,48.679064,85.8],[2.46435,48.678855,85.8],[2.464326,48.678813,85.8],[2.464339,48.6788,85.8],[2.464353,48.678801,85.8],[2.464364,48.678828,85.8],[2.46436,48.678876,85.8],[2.464425,48.679065,85.8],[2.464451,48.679216,86],[2.464467,48.679249,86],[2.464623,48.67938,86.2],[2.464667,48.679392,86.2],[2.464707,48.679391,86],[2.464731,48.679379,86],[2.464744,48.679357,86],[2.464726,48.679245,85.6],[2.464735,48.6792,85.6],[2.464824,48.679083,85.4],[2.464986,48.678933,85.4],[2.465058,48.678853,85.4],[2.465864,48.678099,86.2],[2.46587,48.678073,86.2],[2.465844,48.678038,86.2],[2.465786,48.67802,86.2],[2.465756,48.677968,86.2],[2.46577,48.677911,86.2],[2.465762,48.677773,86],[2.465778,48.677624,86.2],[2.465828,48.677534,86.2],[2.465956,48.67744,86],[2.466114,48.67734,85.8],[2.466176,48.677225,85.4],[2.466218,48.677191,85.2],[2.4662,48.677236,84.8],[2.466168,48.677271,84.8],[2.466183,48.677346,85],[2.466169,48.677373,85.2],[2.466193,48.677439,85.4],[2.466188,48.677522,85.4],[2.466215,48.67755,85.4],[2.46625,48.677563,85.4],[2.46632,48.677564,85.4],[2.466409,48.677547,85.4],[2.466585,48.677419,85.2],[2.46675,48.677253,85.2],[2.466938,48.677114,85.4],[2.467033,48.67702,85.4],[2.467035,48.676984,85.4],[2.466975,48.676924,85.4],[2.466845,48.676847,85.8],[2.466857,48.676789,85.6],[2.46688,48.676742,85.4],[2.466925,48.676703,85.2],[2.466932,48.676679,85.2],[2.466917,48.676644,85.2],[2.466936,48.676605,85],[2.466969,48.676581,85],[2.466995,48.676576,85],[2.467058,48.67654,85],[2.467143,48.67654,85.4],[2.467172,48.676528,85.8],[2.467258,48.676465,86.8],[2.467314,48.676456,87],[2.467368,48.676432,87.4],[2.467418,48.676386,87.6],[2.467434,48.676357,87.6],[2.467432,48.676334,87.8],[2.467456,48.676313,87.8],[2.467563,48.676271,87.2],[2.467585,48.67624,86],[2.467547,48.676171,85],[2.467489,48.676148,85],[2.467473,48.676121,84.8],[2.467456,48.676112,84.8],[2.467446,48.676091,84.8],[2.467419,48.676075,84.8],[2.46728,48.676057,85.4],[2.46723,48.676041,86.2],[2.467206,48.676022,86.2],[2.467143,48.676,86.4],[2.467099,48.675994,86.4],[2.467048,48.675967,86.4],[2.467011,48.675964,86.4],[2.466953,48.675942,86.4],[2.466833,48.675929,86.4],[2.466653,48.67589,86.4],[2.466485,48.675891,86.2],[2.466322,48.675872,85.4],[2.466251,48.675845,84.8],[2.466215,48.675812,84.8],[2.466149,48.675808,84.6],[2.466079,48.675826,84.6],[2.465982,48.675886,84.6],[2.465964,48.675887,84.6],[2.465937,48.675908,84.6],[2.465899,48.675917,84.6],[2.465867,48.675939,84.6],[2.465825,48.675954,84.6],[2.465766,48.675955,84.4],[2.465767,48.67595,84.6],[2.465705,48.675956,84.6],[2.465672,48.675979,84.6],[2.465657,48.676012,84.4],[2.465614,48.676063,84.4],[2.465541,48.676119,84.4],[2.465497,48.676182,84.4],[2.465494,48.676208,84.4],[2.465465,48.676242,84.4],[2.465438,48.676303,84.6],[2.465466,48.676484,84.8],[2.465457,48.676515,84.8],[2.465483,48.676527,84.8],[2.465514,48.676572,84.8],[2.465508,48.676577,84.8],[2.465541,48.676604,84.8],[2.465585,48.676608,84.8],[2.465638,48.676626,85],[2.465667,48.676655,85],[2.465653,48.67669,85],[2.46561,48.676701,85],[2.465552,48.676681,85],[2.465482,48.67669,84.8],[2.465452,48.676702,84.8],[2.465384,48.676766,84.8],[2.46531,48.676793,84.8],[2.465268,48.676843,84.8],[2.465203,48.676866,84.8],[2.465041,48.677011,85],[2.465013,48.677064,85],[2.464853,48.677252,85],[2.464777,48.677287,85],[2.464646,48.677313,85],[2.464596,48.677316,85],[2.464293,48.677294,85],[2.464132,48.677262,85],[2.463938,48.67726,85],[2.463913,48.677242,84.8],[2.463887,48.677183,85],[2.463874,48.677095,85.2],[2.463853,48.677039,85.2],[2.463815,48.676978,85.2],[2.463707,48.676601,85.2],[2.463668,48.676426,85],[2.463621,48.676293,84.8],[2.463448,48.675695,85],[2.463432,48.675601,84.8],[2.463308,48.675207,84.8],[2.463292,48.675108,84.6],[2.463164,48.674719,84],[2.463109,48.67448,84.2],[2.462961,48.673967,84.4],[2.462953,48.673903,84.4],[2.462936,48.673882,84.4],[2.462905,48.673872,84.4],[2.462842,48.673872,84.4],[2.46282,48.673879,84.4],[2.462812,48.673905,84.4],[2.46282,48.673914,84.4],[2.462799,48.673946,84.4],[2.462714,48.673984,84.2],[2.462704,48.673998,84],[2.462703,48.674036,84],[2.462676,48.67407,84],[2.462578,48.674111,84],[2.462505,48.674166,84],[2.462408,48.674223,84],[2.462386,48.674322,84.2],[2.46233,48.674367,84.2],[2.462216,48.674427,84.2],[2.462225,48.674467,84.2],[2.462266,48.67454,84.2],[2.462273,48.674574,84.2],[2.462266,48.674727,84.2],[2.462246,48.674753,84.2],[2.462184,48.674801,84.2],[2.462117,48.674872,84.2],[2.462019,48.675025,84.4],[2.461953,48.675085,84.4],[2.461867,48.675128,84.4],[2.461648,48.675202,84.4],[2.461508,48.675215,84.4],[2.461377,48.675274,84.6],[2.461345,48.675326,84.4],[2.461241,48.67541,84.2],[2.461191,48.675529,84],[2.461182,48.675583,84],[2.461141,48.675678,84.2],[2.461152,48.675749,84.2],[2.461136,48.675812,84.2],[2.461147,48.675931,84.4],[2.46114,48.675991,84.4],[2.461089,48.676092,84.4],[2.461032,48.676148,84.4],[2.460968,48.676234,84.4],[2.46091,48.676364,84.6],[2.460908,48.676414,84.6],[2.460928,48.676472,84.6],[2.460993,48.676567,84.6],[2.460997,48.676598,84.6],[2.46098,48.676627,84.6],[2.460954,48.676646,84.6],[2.460828,48.676686,84.6],[2.46062,48.676809,84.4],[2.460525,48.676895,84.4],[2.460478,48.676954,84.4],[2.460378,48.677028,84.4],[2.460308,48.6771,84.2],[2.460216,48.677152,84.2],[2.46002,48.677223,84],[2.459876,48.677308,84],[2.459668,48.6775,83.6],[2.459384,48.67766,83.4],[2.459231,48.677787,83.2],[2.459213,48.677793,83.2],[2.458975,48.677717,82.8],[2.458951,48.677723,82.8],[2.458933,48.677755,82.8],[2.458976,48.677808,82.6],[2.459055,48.677872,82.6],[2.459095,48.677894,82.8],[2.459131,48.677891,82.8],[2.459122,48.677882,82.8],[2.459028,48.677861,82.4],[2.458939,48.67779,82.4],[2.458916,48.677746,82.4],[2.45886,48.677716,82.6],[2.458821,48.677709,82.6],[2.458726,48.677658,82.6],[2.458664,48.677684,82.6],[2.458625,48.677733,82.6],[2.458575,48.677871,82.4],[2.458503,48.677976,82.2],[2.458482,48.678035,82.2],[2.458478,48.678256,82],[2.458391,48.678469,81.8],[2.458359,48.678515,81.8],[2.458321,48.678638,81.8],[2.458178,48.678952,81.8],[2.458032,48.67918,81.6],[2.457989,48.679274,81.6],[2.457965,48.679362,81.6],[2.457924,48.679419,81.6],[2.457844,48.679501,81.4],[2.45774,48.679664,81],[2.457621,48.679802,80.4],[2.457554,48.679835,80.4],[2.457413,48.679877,80.4],[2.457359,48.679926,80.8],[2.45731,48.680005,81],[2.457128,48.680146,80.8],[2.457113,48.680182,81],[2.457099,48.680187,81],[2.4571,48.6802,81],[2.457034,48.680239,81],[2.456961,48.680263,80.8],[2.456987,48.680265,81],[2.456995,48.680273,81],[2.456974,48.680274,81],[2.456958,48.680266,80.8],[2.45698,48.68026,80.8],[2.456981,48.680249,80.8],[2.457004,48.680248,80.8],[2.456898,48.680274,81],[2.456826,48.680311,80.8],[2.456773,48.68032,81],[2.45665,48.680393,80.8],[2.456559,48.680466,81],[2.456524,48.68048,81],[2.456493,48.680513,81],[2.456366,48.680587,80.8],[2.45623,48.680708,80.6],[2.456174,48.680738,80.6],[2.456125,48.680801,80.6],[2.456068,48.680836,80.4],[2.455977,48.680921,80.4],[2.455947,48.680938,80.4],[2.455895,48.680929,80.4],[2.45578,48.680972,80.2],[2.455766,48.680988,80.2],[2.455774,48.681012,80],[2.455806,48.681049,79.8],[2.455803,48.68108,79.6],[2.455708,48.681187,79.4],[2.455661,48.681263,79.6],[2.455601,48.681322,79.8],[2.455491,48.681519,80],[2.455415,48.681603,80],[2.455321,48.681655,80],[2.455235,48.681755,79.8],[2.455163,48.681817,79.8],[2.455129,48.681875,79.8],[2.455109,48.681888,79.8],[2.45512,48.681893,79.8],[2.455095,48.681893,80],[2.455068,48.681909,79.8],[2.454983,48.681926,79.6],[2.454932,48.681946,79.6],[2.454869,48.682004,79.8],[2.454832,48.682022,79.8],[2.454744,48.682044,79.6],[2.454701,48.682076,79.6],[2.454657,48.682089,79.6],[2.454591,48.682143,79.6],[2.454571,48.682194,79.6],[2.454473,48.682319,79.6],[2.454454,48.682391,79.4],[2.454425,48.682432,79.4],[2.454384,48.682529,79.4],[2.454386,48.682569,79.4],[2.454371,48.682616,79.4],[2.454298,48.682706,79.4],[2.454288,48.682759,79.4],[2.454297,48.682817,79.4],[2.454325,48.682866,79.4],[2.45433,48.682918,79.4],[2.454282,48.683011,79.4],[2.454241,48.683042,79.4],[2.454166,48.683186,79.2],[2.454127,48.683241,79.2],[2.454091,48.68333,79],[2.453977,48.683448,79],[2.453949,48.683528,78.8],[2.453896,48.683571,78.8],[2.453745,48.683648,78.8],[2.453524,48.68388,79.2],[2.453491,48.68393,79.2],[2.453489,48.684042,79.2],[2.453447,48.684191,78.6],[2.453391,48.684289,78.4],[2.453392,48.68432,78.4],[2.45336,48.684377,78.4],[2.453297,48.684455,78.2],[2.453258,48.684525,78.2],[2.45316,48.684657,78],[2.453068,48.684857,77.8],[2.453022,48.684918,77.8],[2.453013,48.684945,77.8],[2.452965,48.685004,77.6],[2.452877,48.685182,77.4],[2.452814,48.685252,77.4],[2.452732,48.68532,77.2],[2.452629,48.685484,76.8],[2.452616,48.685557,76.8],[2.452491,48.685718,76.4],[2.452428,48.685777,76.2],[2.452365,48.685865,76],[2.452342,48.685923,75.8],[2.452347,48.685944,75.6],[2.452375,48.68597,75.6],[2.452373,48.686034,75.6],[2.452419,48.686162,75.2],[2.452414,48.686183,75],[2.452441,48.686349,74.2],[2.452477,48.686445,74],[2.45248,48.686603,74.2],[2.452414,48.686746,74.4],[2.452376,48.686914,74.2],[2.452307,48.687013,74],[2.452301,48.687036,74],[2.452259,48.687077,73.4],[2.452253,48.687096,73.4],[2.452192,48.687159,73],[2.452199,48.687182,73],[2.452237,48.687218,72.8],[2.452278,48.687277,72.8],[2.45227,48.687398,72.4],[2.452234,48.687503,72],[2.452149,48.68756,71.8],[2.452113,48.687595,71.8],[2.452039,48.687799,71.6],[2.452027,48.687862,71.6],[2.451933,48.688093,71.2],[2.451928,48.688168,71.2],[2.451906,48.688219,71.2],[2.451785,48.688305,71.2],[2.451784,48.688351,71.2],[2.451809,48.688406,71.2],[2.451918,48.68852,71.2],[2.452042,48.688546,71.2],[2.45216,48.688581,71.4],[2.452401,48.688622,71.8],[2.452617,48.688688,72],[2.452857,48.688733,72.4],[2.452925,48.688764,72.6],[2.453048,48.688805,73.2],[2.45331,48.688834,74.2],[2.453391,48.688852,74.4],[2.453417,48.688866,74.6],[2.453712,48.688923,75.4],[2.453925,48.688954,76.2],[2.454248,48.689046,77.4],[2.454263,48.689056,77.6],[2.454259,48.689068,77.6],[2.454152,48.689154,77.8],[2.453835,48.689474,78.2],[2.453467,48.689772,79],[2.453422,48.689823,79],[2.453404,48.689875,79.2],[2.45335,48.689902,79.2],[2.453266,48.689899,79.2],[2.453173,48.689873,79.2],[2.452986,48.689803,78.6],[2.452758,48.689696,77.4],[2.452263,48.689497,75.2],[2.452201,48.689481,75.2],[2.452136,48.689482,75],[2.452086,48.689498,75],[2.45205,48.689551,74.8],[2.452044,48.689641,74.6],[2.452025,48.689722,74.6],[2.452003,48.689744,74.6],[2.45197,48.689753,74.6],[2.451935,48.689742,74.6],[2.45192,48.689722,74.6],[2.45193,48.689698,74.4],[2.451955,48.68968,74.4],[2.452044,48.689562,73.8],[2.452114,48.689507,73.6],[2.452164,48.68949,73.6],[2.452217,48.689484,73.6],[2.452271,48.68949,73.6],[2.452524,48.689586,73.8],[2.45267,48.689633,74.2],[2.452833,48.689708,74.8],[2.453118,48.68982,76.4],[2.453292,48.689904,77.6],[2.453403,48.689906,78.4],[2.453441,48.689919,78.6],[2.453472,48.689941,78.8],[2.453822,48.690089,79.6],[2.453912,48.690114,79.8],[2.454042,48.690171,80.2],[2.454109,48.690249,80.4],[2.454117,48.69031,80.6],[2.454056,48.690403,80.6],[2.453638,48.69078,81],[2.453505,48.690882,81],[2.453417,48.690926,81],[2.453175,48.691011,81],[2.452465,48.691235,81.2],[2.452084,48.691374,81.4],[2.451952,48.691434,81.4],[2.451576,48.69157,81.2],[2.45127,48.691702,81.6],[2.451144,48.691769,81.6],[2.450654,48.691996,81.2],[2.450314,48.692143,80.8],[2.450136,48.692179,80.6],[2.449722,48.692386,79.4],[2.449496,48.692469,78.6],[2.449004,48.692721,76.6],[2.448814,48.692836,75.6],[2.448331,48.693067,74],[2.448176,48.693097,73.6],[2.448014,48.693082,73.4],[2.447937,48.693062,73.2],[2.447804,48.693002,72.8],[2.447743,48.692984,72.6],[2.447675,48.69298,72.4],[2.447613,48.692986,72.2],[2.447486,48.692968,71.6],[2.447354,48.692924,70.8],[2.447154,48.692834,69.8],[2.447111,48.692798,69.4],[2.447098,48.692757,69],[2.44707,48.692733,68.8],[2.447032,48.692725,68.4],[2.446999,48.692736,68.2],[2.446997,48.692787,67.4],[2.447016,48.692816,67.4],[2.447223,48.692994,66.6],[2.447439,48.693082,67],[2.447618,48.69313,67.2],[2.447877,48.693228,67.8],[2.447974,48.693253,68.2],[2.448162,48.693284,68.8],[2.448192,48.693299,69.6],[2.448258,48.693428,69.4],[2.44837,48.693523,69.4],[2.448471,48.693587,69.8],[2.448504,48.693617,69.8],[2.448878,48.693813,71.4],[2.448989,48.693886,72],[2.449399,48.694096,74.4],[2.4496,48.694215,75.8],[2.450003,48.694401,77.8],[2.450439,48.694569,79.6],[2.450568,48.694595,80],[2.450681,48.694631,80.6],[2.450859,48.694704,81.2],[2.451123,48.694772,82],[2.451343,48.69485,82.6],[2.451519,48.694892,83],[2.451706,48.694952,83.6]]}}]}