{"type":"FeatureCollection","features":[{"type":"Feature","properties":{"name":"unnamed","time":"2008-09-04T22:12:54Z","coordTimes":["2008-09-04T22:12:54Z","2008-09-04T22:13:14Z","2008-09-04T22:13:41Z","2008-09-04T22:14:02Z","2008-09-04T22:14:23Z","2008-09-04T22:15:05Z","2008-09-04T22:15:26Z","2008-09-04T22:16:11Z","2008-09-04T22:16:33Z","2008-09-04T22:16:47Z","2008-09-04T22:17:05Z","2008-09-04T22:17:53Z","2008-09-04T22:18:14Z","2008-09-04T22:18:35Z","2008-09-04T22:18:55Z","2008-09-04T22:19:13Z","2008-09-04T22:19:52Z","2008-09-04T22:20:27Z","2008-09-04T22:20:50Z","2008-09-04T22:21:07Z","2008-09-04T22:21:29Z","2008-09-04T22:22:05Z","2008-09-04T22:22:22Z","2008-09-04T22:22:57Z","2008-09-04T22:24:20Z","2008-09-04T22:25:05Z","2008-09-04T22:25:23Z","2008-09-04T22:25:43Z","2008-09-04T22:27:17Z","2008-09-04T22:27:55Z","2008-09-04T22:28:24Z","2008-09-04T22:28:47Z","2008-09-04T22:29:20Z","2008-09-04T22:29:26Z","2008-09-04T22:30:05Z","2008-09-04T22:30:23Z","2008-09-04T22:30:39Z","2008-09-04T22:30:52Z","2008-09-04T22:31:48Z","2008-09-04T22:32:43Z","2008-09-04T22:33:02Z","2008-09-04T22:33:24Z","2008-09-04T22:33:46Z","2008-09-04T22:34:06Z","2008-09-04T22:34:26Z","2008-09-04T22:34:48Z","2008-09-04T22:35:02Z","2008-09-04T22:35:25Z","2008-09-04T22:35:37Z","2008-09-04T22:35:49Z","2008-09-04T22:35:53Z","2008-09-04T22:36:16Z","2008-09-04T22:36:29Z","2008-09-04T22:39:54Z","2008-09-04T22:40:21Z","2008-09-04T23:15:04Z","2008-09-04T23:15:56Z","2008-09-04T23:17:45Z","2008-09-04T23:18:06Z","2008-09-04T23:18:35Z","2008-09-04T23:19:04Z","2008-09-04T23:20:05Z","2008-09-04T23:20:25Z","2008-09-04T23:20:42Z","2008-09-04T23:21:30Z","2008-09-04T23:21:52Z","2008-09-04T23:22:22Z","2008-09-04T23:22:40Z","2008-09-04T23:23:17Z","2008-09-04T23:23:28Z","2008-09-04T23:23:44Z","2008-09-04T23:23:56Z","2008-09-04T23:24:22Z","2008-09-04T23:26:06Z","2008-09-04T23:26:20Z","2008-09-04T23:26:29Z","2008-09-04T23:27:24Z","2008-09-04T23:27:36Z","2008-09-04T23:27:45Z","2008-09-04T23:27:52Z","2008-09-04T23:28:05Z","2008-09-04T23:28:15Z","2008-09-04T23:28:27Z","2008-09-04T23:28:39Z","2008-09-04T23:29:01Z","2008-09-04T23:29:33Z","2008-09-04T23:29:57Z","2008-09-04T23:30:18Z","2008-09-04T23:30:39Z","2008-09-04T23:31:01Z","2008-09-04T23:31:18Z","2008-09-04T23:31:26Z","2008-09-04T23:31:39Z","2008-09-04T23:31:53Z","2008-09-04T23:32:08Z","2008-09-04T23:32:24Z","2008-09-04T23:32:45Z","2008-09-04T23:33:06Z","2008-09-04T23:33:23Z","2008-09-04T23:33:42Z","2008-09-04T23:34:02Z","2008-09-04T23:35:04Z","2008-09-04T23:35:22Z","2008-09-04T23:36:11Z","2008-09-04T23:36:32Z","2008-09-04T23:37:16Z","2008-09-04T23:37:28Z","2008-09-04T23:37:44Z","2008-09-04T23:38:09Z","2008-09-04T23:38:20Z","2008-09-04T23:38:38Z","2008-09-04T23:39:00Z","2008-09-04T23:39:13Z","2008-09-04T23:39:28Z","2008-09-04T23:39:43Z","2008-09-04T23:40:03Z","2008-09-04T23:40:06Z","2008-09-04T23:40:21Z","2008-09-04T23:40:34Z","2008-09-04T23:40:39Z","2008-09-04T23:40:59Z","2008-09-04T23:41:18Z","2008-09-04T23:41:44Z","2008-09-04T23:41:54Z","2008-09-04T23:42:08Z","2008-09-04T23:42:28Z","2008-09-04T23:42:45Z","2008-09-04T23:43:09Z","2008-09-04T23:43:27Z","2008-09-04T23:43:45Z","2008-09-04T23:44:22Z","2008-09-04T23:44:45Z","2008-09-04T23:45:16Z","2008-09-04T23:45:34Z","2008-09-04T23:46:01Z","2008-09-04T23:46:18Z","2008-09-04T23:46:34Z","2008-09-04T23:46:45Z","2008-09-04T23:47:04Z","2008-09-04T23:47:19Z","2008-09-04T23:47:39Z","2008-09-04T23:47:58Z","2008-09-04T23:48:46Z","2008-09-04T23:49:15Z","2008-09-04T23:49:44Z","2008-09-04T23:50:18Z","2008-09-04T23:50:50Z","2008-09-04T23:51:14Z","2008-09-04T23:51:37Z","2008-09-04T23:52:00Z","2008-09-04T23:52:18Z"],"type":"marche","month":"2008-09-01"},"geometry":{"type":"LineString","coordinates":[[-71.207367,46.805257,41.95],[-71.20727,46.805418,41.47],[-71.207095,46.805617,41.95],[-71.206923,46.805717,42.92],[-71.206787,46.805906,43.4],[-71.206484,46.806162,44.84],[-71.206268,46.806286,45.8],[-71.206123,46.806679,46.28],[-71.206077,46.806941,45.32],[-71.20602,46.807067,41.95],[-71.206018,46.807102,40.51],[-71.205835,46.807364,40.51],[-71.205748,46.807624,42.44],[-71.205722,46.807771,43.88],[-71.205624,46.807908,44.36],[-71.205515,46.808011,44.36],[-71.205329,46.80827,40.51],[-71.205191,46.808382,39.07],[-71.204932,46.808557,35.71],[-71.204742,46.808731,32.82],[-71.204557,46.80879,30.9],[-71.204418,46.80891,27.53],[-71.204278,46.808972,26.09],[-71.204256,46.809029,27.05],[-71.20426,46.80917,28.02],[-71.20404,46.809463,20.32],[-71.204056,46.809617,20.81],[-71.204076,46.809664,21.29],[-71.204188,46.809758,22.73],[-71.20412,46.809725,23.69],[-71.20411,46.809864,24.17],[-71.204147,46.810104,25.13],[-71.20414,46.810226,25.13],[-71.204179,46.81027,25.61],[-71.204199,46.810548,26.57],[-71.204238,46.810746,27.05],[-71.204306,46.810741,27.05],[-71.204282,46.810805,27.53],[-71.20428,46.810988,28.5],[-71.204183,46.811291,29.46],[-71.204205,46.811439,29.46],[-71.204255,46.811603,30.42],[-71.204246,46.811676,30.42],[-71.204306,46.811826,30.9],[-71.204434,46.812022,30.9],[-71.204531,46.812068,31.38],[-71.204383,46.81208,30.9],[-71.204439,46.812341,31.86],[-71.204588,46.812355,31.86],[-71.204675,46.812456,32.34],[-71.204711,46.812445,32.82],[-71.20503,46.812516,32.34],[-71.205221,46.812459,32.82],[-71.204663,46.811962,36.19],[-71.204572,46.81194,36.67],[-71.205213,46.811821,36.67],[-71.204324,46.812006,36.19],[-71.205816,46.811913,35.71],[-71.206067,46.812038,35.23],[-71.206119,46.811389,35.23],[-71.205857,46.811762,33.3],[-71.206116,46.812251,38.11],[-71.206327,46.812153,39.55],[-71.206339,46.812243,40.03],[-71.206272,46.812253,41.95],[-71.206619,46.81229,43.4],[-71.206682,46.812148,45.32],[-71.206795,46.81208,46.28],[-71.207457,46.81184,48.68],[-71.208651,46.811829,49.16],[-71.208593,46.811379,50.61],[-71.208631,46.811314,51.57],[-71.209353,46.811429,52.53],[-71.208511,46.811033,51.57],[-71.208576,46.811056,52.05],[-71.208626,46.811113,52.53],[-71.208737,46.811105,52.05],[-71.208743,46.810975,52.53],[-71.208862,46.810978,53.01],[-71.208907,46.810924,53.49],[-71.20902,46.810842,54.45],[-71.209138,46.81084,54.45],[-71.209284,46.810796,54.93],[-71.209392,46.810726,55.41],[-71.209408,46.810632,55.89],[-71.209802,46.810476,57.34],[-71.2102,46.810366,58.78],[-71.210384,46.81016,59.26],[-71.210516,46.810096,59.74],[-71.210731,46.809888,61.18],[-71.210963,46.809748,62.14],[-71.211103,46.809766,62.62],[-71.211185,46.809726,64.55],[-71.211252,46.809662,67.91],[-71.211366,46.809637,70.79],[-71.211394,46.809539,70.79],[-71.211291,46.809457,72.24],[-71.211254,46.809447,72.24],[-71.211289,46.809429,72.24],[-71.211401,46.809602,70.79],[-71.211391,46.809596,71.27],[-71.211352,46.809669,68.39],[-71.211429,46.809756,69.35],[-71.211669,46.810302,67.91],[-71.21172,46.810342,67.91],[-71.21177,46.810467,67.43],[-71.211844,46.810582,66.95],[-71.212016,46.810519,66.95],[-71.212151,46.810521,66.95],[-71.212315,46.810549,66.47],[-71.21249,46.810704,65.99],[-71.212574,46.810831,65.51],[-71.212709,46.810848,65.51],[-71.212843,46.811018,65.03],[-71.212897,46.811155,63.58],[-71.212924,46.811406,61.66],[-71.212942,46.811411,61.66],[-71.212926,46.811584,59.74],[-71.212873,46.811648,59.74],[-71.212816,46.811677,59.26],[-71.212685,46.811683,59.26],[-71.2127,46.811665,59.26],[-71.212732,46.811754,58.78],[-71.212593,46.811813,58.3],[-71.212579,46.8119,58.3],[-71.212677,46.812008,55.41],[-71.212651,46.812162,52.53],[-71.212745,46.812404,49.16],[-71.212852,46.812549,46.28],[-71.212881,46.812712,46.28],[-71.212998,46.812637,47.24],[-71.213038,46.8127,47.72],[-71.213039,46.812724,47.72],[-71.213113,46.812787,47.72],[-71.213137,46.812868,47.72],[-71.213234,46.812916,44.84],[-71.213185,46.812934,41.47],[-71.213211,46.813021,38.59],[-71.213141,46.813114,36.67],[-71.212988,46.812957,36.67],[-71.213156,46.812808,38.59],[-71.21344,46.8128,39.07],[-71.213722,46.812806,39.55],[-71.213725,46.812794,40.03],[-71.213817,46.812734,39.55],[-71.214198,46.812416,40.03],[-71.21467,46.812448,40.03],[-71.214943,46.812454,40.51],[-71.214957,46.812248,41.95],[-71.215423,46.812089,42.92],[-71.215473,46.812081,43.4]]}}]}