{"type":"FeatureCollection","features":[{"type":"Feature","properties":{"name":"Jusqu’ici, tout va bien","type":"tennis","time":"2025-06-11T18:42:20Z","coordTimes":["2025-06-11T18:42:20Z","2025-06-11T18:42:23Z","2025-06-11T18:42:25Z","2025-06-11T18:42:27Z","2025-06-11T18:42:28Z","2025-06-11T18:42:29Z","2025-06-11T18:42:32Z","2025-06-11T18:42:37Z","2025-06-11T18:42:43Z","2025-06-11T18:42:49Z","2025-06-11T18:42:55Z","2025-06-11T18:42:56Z","2025-06-11T18:42:57Z","2025-06-11T18:42:58Z","2025-06-11T18:43:00Z","2025-06-11T18:43:03Z","2025-06-11T18:43:05Z","2025-06-11T18:43:10Z","2025-06-11T18:43:13Z","2025-06-11T18:43:16Z","2025-06-11T18:43:19Z","2025-06-11T18:43:21Z","2025-06-11T18:43:25Z","2025-06-11T18:43:27Z","2025-06-11T18:43:29Z","2025-06-11T18:43:30Z","2025-06-11T18:43:38Z","2025-06-11T18:43:44Z","2025-06-11T18:43:47Z","2025-06-11T18:43:49Z","2025-06-11T18:43:51Z","2025-06-11T18:43:52Z","2025-06-11T18:43:53Z","2025-06-11T18:43:56Z","2025-06-11T18:43:58Z","2025-06-11T18:43:59Z","2025-06-11T18:44:02Z","2025-06-11T18:44:04Z","2025-06-11T18:44:05Z","2025-06-11T18:44:07Z","2025-06-11T18:44:09Z","2025-06-11T18:44:10Z","2025-06-11T18:44:11Z","2025-06-11T18:44:15Z","2025-06-11T18:44:16Z","2025-06-11T18:44:19Z","2025-06-11T18:44:20Z","2025-06-11T18:44:21Z","2025-06-11T18:44:24Z","2025-06-11T18:44:25Z","2025-06-11T18:44:27Z","2025-06-11T18:44:28Z","2025-06-11T18:44:31Z","2025-06-11T18:44:34Z","2025-06-11T18:44:36Z","2025-06-11T18:44:37Z","2025-06-11T18:44:38Z","2025-06-11T18:44:39Z","2025-06-11T18:44:40Z","2025-06-11T18:44:41Z","2025-06-11T18:44:42Z","2025-06-11T18:44:44Z","2025-06-11T18:44:45Z","2025-06-11T18:44:49Z","2025-06-11T18:44:52Z","2025-06-11T18:44:53Z","2025-06-11T18:44:57Z","2025-06-11T18:44:58Z","2025-06-11T18:45:00Z","2025-06-11T18:45:02Z","2025-06-11T18:45:04Z","2025-06-11T18:45:05Z","2025-06-11T18:45:07Z","2025-06-11T18:45:08Z","2025-06-11T18:45:09Z","2025-06-11T18:45:13Z","2025-06-11T18:45:14Z","2025-06-11T18:45:15Z","2025-06-11T18:45:17Z","2025-06-11T18:45:18Z","2025-06-11T18:45:20Z","2025-06-11T18:45:21Z","2025-06-11T18:45:24Z","2025-06-11T18:45:26Z","2025-06-11T18:45:28Z","2025-06-11T18:45:29Z","2025-06-11T18:45:30Z","2025-06-11T18:45:31Z","2025-06-11T18:45:32Z","2025-06-11T18:45:33Z","2025-06-11T18:45:35Z","2025-06-11T18:45:36Z","2025-06-11T18:45:39Z","2025-06-11T18:45:41Z","2025-06-11T18:45:42Z","2025-06-11T18:45:43Z","2025-06-11T18:45:44Z","2025-06-11T18:45:45Z","2025-06-11T18:45:47Z","2025-06-11T18:45:49Z","2025-06-11T18:45:50Z","2025-06-11T18:45:52Z","2025-06-11T18:45:53Z","2025-06-11T18:45:54Z","2025-06-11T18:45:56Z","2025-06-11T18:45:57Z","2025-06-11T18:45:58Z","2025-06-11T18:45:59Z","2025-06-11T18:46:01Z","2025-06-11T18:46:02Z","2025-06-11T18:46:04Z","2025-06-11T18:46:05Z","2025-06-11T18:46:06Z","2025-06-11T18:46:08Z","2025-06-11T18:46:09Z","2025-06-11T18:46:12Z","2025-06-11T18:46:13Z","2025-06-11T18:46:15Z","2025-06-11T18:46:17Z","2025-06-11T18:46:18Z","2025-06-11T18:46:20Z","2025-06-11T18:46:21Z","2025-06-11T18:46:22Z","2025-06-11T18:46:23Z","2025-06-11T18:46:25Z","2025-06-11T18:46:26Z","2025-06-11T18:46:34Z","2025-06-11T18:46:36Z","2025-06-11T18:46:41Z","2025-06-11T18:46:43Z","2025-06-11T18:46:49Z","2025-06-11T18:46:51Z","2025-06-11T18:46:53Z","2025-06-11T18:46:54Z","2025-06-11T18:46:56Z","2025-06-11T18:46:57Z","2025-06-11T18:46:59Z","2025-06-11T18:47:00Z","2025-06-11T18:47:02Z","2025-06-11T18:47:04Z","2025-06-11T18:47:06Z","2025-06-11T18:47:09Z","2025-06-11T18:47:11Z","2025-06-11T18:47:12Z","2025-06-11T18:47:13Z","2025-06-11T18:47:16Z","2025-06-11T18:47:17Z","2025-06-11T18:47:20Z","2025-06-11T18:47:21Z","2025-06-11T18:47:25Z","2025-06-11T18:47:27Z","2025-06-11T18:47:28Z","2025-06-11T18:47:29Z","2025-06-11T18:47:31Z","2025-06-11T18:47:32Z","2025-06-11T18:47:34Z","2025-06-11T18:47:35Z","2025-06-11T18:47:36Z","2025-06-11T18:47:37Z","2025-06-11T18:47:38Z","2025-06-11T18:47:39Z","2025-06-11T18:47:40Z","2025-06-11T18:47:41Z","2025-06-11T18:47:42Z","2025-06-11T18:47:43Z","2025-06-11T18:47:45Z","2025-06-11T18:47:47Z","2025-06-11T18:47:48Z","2025-06-11T18:47:51Z","2025-06-11T18:47:53Z","2025-06-11T18:47:54Z","2025-06-11T18:47:55Z","2025-06-11T18:47:59Z","2025-06-11T18:48:00Z","2025-06-11T18:48:02Z","2025-06-11T18:48:04Z","2025-06-11T18:48:06Z","2025-06-11T18:48:07Z","2025-06-11T18:48:12Z","2025-06-11T18:48:13Z","2025-06-11T18:48:15Z","2025-06-11T18:48:16Z","2025-06-11T18:48:17Z","2025-06-11T18:48:20Z","2025-06-11T18:48:21Z","2025-06-11T18:48:25Z","2025-06-11T18:48:26Z","2025-06-11T18:48:31Z","2025-06-11T18:48:34Z","2025-06-11T18:48:35Z","2025-06-11T18:48:37Z","2025-06-11T18:48:39Z","2025-06-11T18:48:41Z","2025-06-11T18:48:45Z","2025-06-11T18:48:47Z","2025-06-11T18:48:48Z","2025-06-11T18:48:52Z","2025-06-11T18:48:53Z","2025-06-11T18:48:55Z","2025-06-11T18:48:56Z","2025-06-11T18:48:58Z","2025-06-11T18:49:01Z","2025-06-11T18:49:02Z","2025-06-11T18:49:03Z","2025-06-11T18:49:05Z","2025-06-11T18:49:06Z","2025-06-11T18:49:08Z","2025-06-11T18:49:10Z","2025-06-11T18:49:12Z","2025-06-11T18:49:13Z","2025-06-11T18:49:14Z","2025-06-11T18:49:16Z","2025-06-11T18:49:18Z","2025-06-11T18:49:19Z","2025-06-11T18:49:22Z","2025-06-11T18:49:23Z","2025-06-11T18:49:25Z","2025-06-11T18:49:27Z","2025-06-11T18:49:28Z","2025-06-11T18:49:29Z","2025-06-11T18:49:32Z","2025-06-11T18:49:35Z","2025-06-11T18:49:37Z","2025-06-11T18:49:43Z","2025-06-11T18:49:45Z","2025-06-11T18:49:47Z","2025-06-11T18:49:49Z","2025-06-11T18:49:54Z","2025-06-11T18:49:56Z","2025-06-11T18:50:00Z","2025-06-11T18:50:11Z","2025-06-11T18:50:13Z","2025-06-11T18:50:16Z","2025-06-11T18:50:18Z","2025-06-11T18:50:22Z","2025-06-11T18:50:23Z","2025-06-11T18:50:25Z","2025-06-11T18:50:27Z","2025-06-11T18:50:32Z","2025-06-11T18:50:35Z","2025-06-11T18:50:39Z","2025-06-11T18:50:41Z","2025-06-11T18:50:42Z","2025-06-11T18:50:48Z","2025-06-11T18:50:55Z","2025-06-11T18:51:06Z","2025-06-11T18:51:21Z","2025-06-11T18:51:26Z","2025-06-11T18:51:27Z","2025-06-11T18:51:29Z","2025-06-11T18:51:30Z","2025-06-11T18:51:32Z","2025-06-11T18:51:34Z","2025-06-11T18:51:38Z","2025-06-11T18:51:40Z","2025-06-11T18:52:04Z","2025-06-11T18:52:52Z","2025-06-11T18:53:09Z","2025-06-11T18:53:11Z","2025-06-11T18:53:34Z","2025-06-11T18:53:36Z","2025-06-11T18:53:41Z","2025-06-11T18:53:47Z","2025-06-11T18:53:51Z","2025-06-11T18:54:00Z","2025-06-11T18:54:13Z","2025-06-11T18:54:14Z","2025-06-11T18:54:22Z","2025-06-11T18:54:35Z","2025-06-11T18:54:36Z","2025-06-11T18:54:40Z","2025-06-11T18:54:52Z","2025-06-11T18:54:55Z","2025-06-11T18:55:10Z","2025-06-11T18:55:18Z","2025-06-11T18:55:20Z","2025-06-11T18:55:52Z","2025-06-11T18:55:55Z","2025-06-11T18:56:11Z","2025-06-11T18:56:14Z","2025-06-11T18:56:46Z","2025-06-11T18:56:47Z","2025-06-11T18:56:51Z","2025-06-11T18:56:54Z","2025-06-11T18:56:56Z","2025-06-11T18:56:59Z","2025-06-11T18:57:01Z","2025-06-11T18:57:03Z","2025-06-11T18:57:05Z","2025-06-11T18:57:10Z","2025-06-11T18:57:17Z","2025-06-11T18:57:21Z","2025-06-11T18:57:27Z","2025-06-11T18:57:31Z","2025-06-11T18:57:33Z","2025-06-11T18:57:34Z","2025-06-11T18:57:39Z","2025-06-11T18:57:40Z","2025-06-11T18:57:43Z","2025-06-11T18:57:45Z","2025-06-11T18:57:47Z","2025-06-11T18:57:48Z","2025-06-11T18:57:50Z","2025-06-11T18:57:51Z","2025-06-11T18:57:55Z","2025-06-11T18:57:56Z","2025-06-11T18:57:58Z","2025-06-11T18:57:59Z","2025-06-11T18:58:00Z","2025-06-11T18:58:02Z","2025-06-11T18:58:05Z","2025-06-11T18:58:08Z","2025-06-11T18:58:10Z","2025-06-11T18:58:22Z","2025-06-11T18:58:23Z","2025-06-11T18:58:26Z","2025-06-11T18:58:28Z","2025-06-11T18:58:29Z","2025-06-11T18:58:32Z","2025-06-11T18:58:35Z","2025-06-11T18:58:36Z","2025-06-11T18:58:37Z","2025-06-11T18:58:39Z","2025-06-11T18:58:40Z","2025-06-11T18:58:42Z","2025-06-11T18:58:43Z","2025-06-11T18:58:44Z","2025-06-11T18:58:46Z","2025-06-11T18:58:48Z","2025-06-11T18:58:49Z","2025-06-11T18:58:52Z","2025-06-11T18:59:03Z","2025-06-11T18:59:05Z","2025-06-11T18:59:06Z","2025-06-11T18:59:07Z","2025-06-11T18:59:10Z","2025-06-11T18:59:11Z","2025-06-11T18:59:13Z","2025-06-11T18:59:15Z","2025-06-11T18:59:17Z","2025-06-11T18:59:19Z","2025-06-11T18:59:21Z","2025-06-11T18:59:31Z","2025-06-11T18:59:42Z","2025-06-11T18:59:44Z","2025-06-11T18:59:48Z","2025-06-11T18:59:49Z","2025-06-11T18:59:51Z","2025-06-11T18:59:54Z","2025-06-11T18:59:55Z","2025-06-11T18:59:56Z","2025-06-11T18:59:58Z","2025-06-11T18:59:59Z","2025-06-11T19:00:06Z","2025-06-11T19:00:07Z","2025-06-11T19:00:08Z","2025-06-11T19:00:10Z","2025-06-11T19:00:11Z","2025-06-11T19:00:14Z","2025-06-11T19:00:15Z","2025-06-11T19:00:16Z","2025-06-11T19:00:17Z","2025-06-11T19:00:18Z","2025-06-11T19:00:21Z","2025-06-11T19:00:25Z","2025-06-11T19:00:27Z","2025-06-11T19:00:28Z","2025-06-11T19:00:30Z","2025-06-11T19:00:31Z","2025-06-11T19:00:36Z","2025-06-11T19:00:40Z","2025-06-11T19:00:46Z","2025-06-11T19:00:48Z","2025-06-11T19:00:52Z","2025-06-11T19:00:53Z","2025-06-11T19:00:56Z","2025-06-11T19:00:58Z","2025-06-11T19:01:00Z","2025-06-11T19:01:01Z","2025-06-11T19:01:04Z","2025-06-11T19:01:07Z","2025-06-11T19:01:09Z","2025-06-11T19:01:12Z","2025-06-11T19:01:15Z","2025-06-11T19:01:18Z","2025-06-11T19:01:24Z","2025-06-11T19:01:27Z","2025-06-11T19:01:36Z","2025-06-11T19:01:37Z","2025-06-11T19:01:38Z","2025-06-11T19:01:39Z","2025-06-11T19:01:40Z","2025-06-11T19:01:42Z","2025-06-11T19:01:43Z","2025-06-11T19:01:45Z","2025-06-11T19:01:46Z","2025-06-11T19:01:50Z","2025-06-11T19:01:53Z","2025-06-11T19:01:54Z","2025-06-11T19:01:56Z","2025-06-11T19:02:04Z","2025-06-11T19:02:06Z","2025-06-11T19:02:07Z","2025-06-11T19:02:08Z","2025-06-11T19:02:10Z","2025-06-11T19:02:13Z","2025-06-11T19:02:15Z","2025-06-11T19:02:22Z","2025-06-11T19:02:25Z","2025-06-11T19:02:26Z","2025-06-11T19:02:28Z","2025-06-11T19:02:29Z","2025-06-11T19:02:31Z","2025-06-11T19:02:38Z","2025-06-11T19:02:40Z","2025-06-11T19:02:46Z","2025-06-11T19:02:51Z","2025-06-11T19:02:54Z","2025-06-11T19:03:01Z","2025-06-11T19:03:04Z","2025-06-11T19:03:06Z","2025-06-11T19:03:08Z","2025-06-11T19:03:11Z","2025-06-11T19:03:13Z","2025-06-11T19:03:16Z","2025-06-11T19:03:19Z","2025-06-11T19:03:32Z","2025-06-11T19:03:43Z","2025-06-11T19:03:45Z","2025-06-11T19:03:47Z","2025-06-11T19:03:51Z","2025-06-11T19:03:54Z","2025-06-11T19:03:58Z","2025-06-11T19:03:59Z","2025-06-11T19:04:00Z","2025-06-11T19:04:02Z","2025-06-11T19:04:06Z","2025-06-11T19:04:27Z","2025-06-11T19:04:28Z","2025-06-11T19:04:29Z","2025-06-11T19:04:32Z","2025-06-11T19:04:35Z","2025-06-11T19:04:37Z","2025-06-11T19:04:42Z","2025-06-11T19:04:44Z","2025-06-11T19:04:45Z","2025-06-11T19:04:46Z","2025-06-11T19:04:48Z","2025-06-11T19:04:50Z","2025-06-11T19:04:55Z","2025-06-11T19:04:56Z","2025-06-11T19:04:58Z","2025-06-11T19:05:04Z","2025-06-11T19:05:06Z","2025-06-11T19:05:07Z","2025-06-11T19:05:24Z","2025-06-11T19:05:25Z","2025-06-11T19:05:26Z","2025-06-11T19:05:27Z","2025-06-11T19:05:28Z","2025-06-11T19:05:29Z","2025-06-11T19:05:30Z","2025-06-11T19:05:33Z","2025-06-11T19:05:34Z","2025-06-11T19:05:35Z","2025-06-11T19:05:40Z","2025-06-11T19:05:41Z","2025-06-11T19:05:48Z","2025-06-11T19:05:53Z","2025-06-11T19:05:55Z","2025-06-11T19:05:59Z","2025-06-11T19:06:01Z","2025-06-11T19:06:03Z","2025-06-11T19:06:09Z","2025-06-11T19:06:10Z","2025-06-11T19:06:17Z","2025-06-11T19:06:27Z","2025-06-11T19:06:30Z","2025-06-11T19:06:31Z","2025-06-11T19:06:37Z","2025-06-11T19:06:40Z","2025-06-11T19:06:42Z","2025-06-11T19:06:43Z","2025-06-11T19:06:45Z","2025-06-11T19:06:47Z","2025-06-11T19:06:48Z","2025-06-11T19:06:54Z","2025-06-11T19:07:04Z","2025-06-11T19:07:05Z","2025-06-11T19:07:06Z","2025-06-11T19:07:11Z","2025-06-11T19:07:12Z","2025-06-11T19:07:13Z","2025-06-11T19:07:14Z","2025-06-11T19:07:17Z","2025-06-11T19:07:18Z","2025-06-11T19:07:20Z","2025-06-11T19:07:21Z","2025-06-11T19:07:24Z","2025-06-11T19:07:26Z","2025-06-11T19:07:27Z","2025-06-11T19:07:33Z","2025-06-11T19:07:36Z","2025-06-11T19:07:38Z","2025-06-11T19:07:43Z","2025-06-11T19:07:45Z","2025-06-11T19:07:47Z","2025-06-11T19:07:52Z","2025-06-11T19:07:54Z","2025-06-11T19:07:58Z","2025-06-11T19:08:02Z","2025-06-11T19:08:04Z","2025-06-11T19:08:07Z","2025-06-11T19:08:09Z","2025-06-11T19:08:17Z","2025-06-11T19:08:19Z","2025-06-11T19:08:21Z","2025-06-11T19:08:25Z","2025-06-11T19:08:29Z","2025-06-11T19:08:35Z","2025-06-11T19:08:38Z","2025-06-11T19:08:39Z","2025-06-11T19:08:42Z","2025-06-11T19:08:44Z","2025-06-11T19:08:49Z","2025-06-11T19:08:52Z","2025-06-11T19:08:53Z","2025-06-11T19:08:58Z","2025-06-11T19:09:02Z","2025-06-11T19:09:04Z","2025-06-11T19:09:05Z","2025-06-11T19:09:06Z","2025-06-11T19:09:10Z","2025-06-11T19:09:12Z","2025-06-11T19:09:13Z","2025-06-11T19:09:15Z","2025-06-11T19:09:17Z","2025-06-11T19:09:19Z","2025-06-11T19:09:21Z","2025-06-11T19:09:22Z","2025-06-11T19:09:24Z","2025-06-11T19:09:26Z","2025-06-11T19:09:27Z","2025-06-11T19:09:29Z","2025-06-11T19:09:30Z","2025-06-11T19:09:31Z","2025-06-11T19:09:32Z","2025-06-11T19:09:34Z","2025-06-11T19:09:36Z","2025-06-11T19:09:44Z","2025-06-11T19:09:46Z","2025-06-11T19:09:47Z","2025-06-11T19:09:49Z","2025-06-11T19:09:51Z","2025-06-11T19:09:52Z","2025-06-11T19:09:53Z","2025-06-11T19:09:54Z","2025-06-11T19:09:55Z","2025-06-11T19:09:57Z","2025-06-11T19:10:00Z","2025-06-11T19:10:02Z","2025-06-11T19:10:04Z","2025-06-11T19:10:05Z","2025-06-11T19:10:06Z","2025-06-11T19:10:07Z","2025-06-11T19:10:09Z","2025-06-11T19:10:10Z","2025-06-11T19:10:16Z","2025-06-11T19:10:17Z","2025-06-11T19:10:27Z","2025-06-11T19:10:30Z","2025-06-11T19:10:31Z","2025-06-11T19:10:34Z","2025-06-11T19:10:35Z","2025-06-11T19:10:36Z","2025-06-11T19:10:47Z","2025-06-11T19:10:48Z","2025-06-11T19:10:49Z","2025-06-11T19:10:50Z","2025-06-11T19:10:52Z","2025-06-11T19:10:53Z","2025-06-11T19:10:54Z","2025-06-11T19:10:57Z","2025-06-11T19:11:00Z","2025-06-11T19:11:03Z","2025-06-11T19:11:04Z","2025-06-11T19:11:05Z","2025-06-11T19:11:07Z","2025-06-11T19:11:08Z","2025-06-11T19:11:10Z","2025-06-11T19:11:11Z","2025-06-11T19:11:14Z","2025-06-11T19:11:17Z","2025-06-11T19:11:20Z","2025-06-11T19:11:21Z","2025-06-11T19:11:22Z","2025-06-11T19:11:24Z","2025-06-11T19:11:25Z","2025-06-11T19:11:27Z","2025-06-11T19:11:29Z","2025-06-11T19:11:30Z","2025-06-11T19:11:35Z","2025-06-11T19:11:44Z","2025-06-11T19:11:45Z","2025-06-11T19:11:47Z","2025-06-11T19:11:48Z","2025-06-11T19:11:50Z","2025-06-11T19:11:53Z","2025-06-11T19:11:54Z","2025-06-11T19:11:55Z","2025-06-11T19:11:56Z","2025-06-11T19:11:58Z","2025-06-11T19:12:01Z","2025-06-11T19:12:02Z","2025-06-11T19:12:04Z","2025-06-11T19:12:05Z","2025-06-11T19:12:06Z","2025-06-11T19:12:08Z","2025-06-11T19:12:09Z","2025-06-11T19:12:13Z","2025-06-11T19:12:15Z","2025-06-11T19:12:17Z","2025-06-11T19:12:20Z","2025-06-11T19:12:21Z","2025-06-11T19:12:24Z","2025-06-11T19:12:25Z","2025-06-11T19:12:27Z","2025-06-11T19:12:33Z","2025-06-11T19:12:34Z","2025-06-11T19:12:35Z","2025-06-11T19:12:36Z","2025-06-11T19:12:38Z","2025-06-11T19:12:39Z","2025-06-11T19:12:43Z","2025-06-11T19:12:44Z","2025-06-11T19:12:47Z","2025-06-11T19:12:48Z","2025-06-11T19:12:49Z","2025-06-11T19:12:55Z","2025-06-11T19:12:57Z","2025-06-11T19:13:00Z","2025-06-11T19:13:01Z","2025-06-11T19:13:04Z","2025-06-11T19:13:07Z","2025-06-11T19:13:08Z","2025-06-11T19:13:14Z","2025-06-11T19:13:17Z","2025-06-11T19:13:21Z","2025-06-11T19:13:22Z","2025-06-11T19:13:23Z","2025-06-11T19:13:27Z","2025-06-11T19:13:29Z","2025-06-11T19:13:30Z","2025-06-11T19:13:35Z","2025-06-11T19:13:36Z","2025-06-11T19:13:37Z","2025-06-11T19:13:38Z","2025-06-11T19:13:39Z","2025-06-11T19:13:41Z","2025-06-11T19:13:43Z","2025-06-11T19:13:49Z","2025-06-11T19:13:50Z","2025-06-11T19:13:51Z","2025-06-11T19:13:54Z","2025-06-11T19:13:58Z","2025-06-11T19:14:03Z","2025-06-11T19:14:04Z","2025-06-11T19:14:05Z","2025-06-11T19:14:06Z","2025-06-11T19:14:08Z","2025-06-11T19:14:11Z","2025-06-11T19:14:13Z","2025-06-11T19:14:15Z","2025-06-11T19:14:16Z","2025-06-11T19:14:18Z","2025-06-11T19:14:19Z","2025-06-11T19:14:22Z","2025-06-11T19:14:23Z","2025-06-11T19:14:26Z","2025-06-11T19:14:27Z","2025-06-11T19:14:29Z","2025-06-11T19:14:32Z","2025-06-11T19:14:35Z","2025-06-11T19:14:36Z","2025-06-11T19:14:38Z","2025-06-11T19:14:39Z","2025-06-11T19:14:43Z","2025-06-11T19:14:46Z","2025-06-11T19:14:47Z","2025-06-11T19:14:49Z","2025-06-11T19:14:51Z","2025-06-11T19:14:53Z","2025-06-11T19:14:55Z","2025-06-11T19:15:04Z","2025-06-11T19:15:05Z","2025-06-11T19:15:06Z","2025-06-11T19:15:07Z","2025-06-11T19:15:09Z","2025-06-11T19:15:13Z","2025-06-11T19:15:17Z","2025-06-11T19:15:21Z","2025-06-11T19:15:23Z","2025-06-11T19:15:27Z","2025-06-11T19:15:30Z","2025-06-11T19:15:31Z","2025-06-11T19:15:34Z","2025-06-11T19:15:35Z","2025-06-11T19:15:36Z","2025-06-11T19:15:37Z","2025-06-11T19:15:38Z","2025-06-11T19:15:40Z","2025-06-11T19:15:41Z","2025-06-11T19:15:42Z","2025-06-11T19:15:43Z","2025-06-11T19:15:44Z","2025-06-11T19:15:48Z","2025-06-11T19:15:49Z","2025-06-11T19:15:51Z","2025-06-11T19:15:53Z","2025-06-11T19:15:54Z","2025-06-11T19:15:57Z","2025-06-11T19:15:59Z","2025-06-11T19:16:02Z","2025-06-11T19:16:05Z","2025-06-11T19:16:06Z","2025-06-11T19:16:07Z","2025-06-11T19:16:08Z","2025-06-11T19:16:10Z","2025-06-11T19:16:13Z","2025-06-11T19:16:14Z","2025-06-11T19:16:17Z","2025-06-11T19:16:18Z","2025-06-11T19:16:20Z","2025-06-11T19:16:22Z","2025-06-11T19:16:23Z","2025-06-11T19:16:24Z","2025-06-11T19:16:26Z","2025-06-11T19:16:29Z","2025-06-11T19:16:30Z","2025-06-11T19:16:32Z","2025-06-11T19:16:34Z","2025-06-11T19:16:35Z","2025-06-11T19:16:36Z","2025-06-11T19:16:38Z","2025-06-11T19:16:40Z","2025-06-11T19:16:42Z","2025-06-11T19:16:43Z","2025-06-11T19:16:44Z","2025-06-11T19:16:45Z","2025-06-11T19:16:47Z","2025-06-11T19:16:49Z","2025-06-11T19:16:50Z","2025-06-11T19:16:52Z","2025-06-11T19:16:56Z","2025-06-11T19:16:57Z","2025-06-11T19:17:00Z","2025-06-11T19:17:01Z","2025-06-11T19:17:03Z","2025-06-11T19:17:04Z","2025-06-11T19:17:07Z","2025-06-11T19:17:08Z","2025-06-11T19:17:09Z","2025-06-11T19:17:10Z","2025-06-11T19:17:11Z","2025-06-11T19:17:12Z","2025-06-11T19:17:13Z","2025-06-11T19:17:15Z","2025-06-11T19:17:18Z","2025-06-11T19:17:19Z","2025-06-11T19:17:21Z","2025-06-11T19:17:22Z","2025-06-11T19:17:26Z","2025-06-11T19:17:30Z","2025-06-11T19:17:32Z","2025-06-11T19:17:34Z","2025-06-11T19:17:35Z","2025-06-11T19:17:37Z","2025-06-11T19:17:38Z","2025-06-11T19:17:39Z","2025-06-11T19:17:40Z","2025-06-11T19:17:41Z","2025-06-11T19:17:43Z","2025-06-11T19:17:45Z","2025-06-11T19:17:46Z","2025-06-11T19:17:48Z","2025-06-11T19:17:49Z","2025-06-11T19:17:51Z","2025-06-11T19:17:52Z","2025-06-11T19:17:54Z","2025-06-11T19:17:55Z","2025-06-11T19:17:56Z","2025-06-11T19:17:59Z","2025-06-11T19:18:01Z","2025-06-11T19:18:02Z","2025-06-11T19:18:03Z","2025-06-11T19:18:05Z","2025-06-11T19:18:07Z","2025-06-11T19:18:08Z","2025-06-11T19:18:11Z","2025-06-11T19:18:14Z","2025-06-11T19:18:15Z","2025-06-11T19:18:16Z","2025-06-11T19:18:18Z","2025-06-11T19:18:23Z","2025-06-11T19:18:26Z","2025-06-11T19:18:32Z","2025-06-11T19:18:33Z","2025-06-11T19:18:37Z","2025-06-11T19:18:38Z","2025-06-11T19:18:41Z","2025-06-11T19:18:42Z","2025-06-11T19:18:45Z","2025-06-11T19:18:46Z","2025-06-11T19:18:47Z","2025-06-11T19:18:49Z","2025-06-11T19:18:53Z","2025-06-11T19:18:55Z","2025-06-11T19:18:56Z","2025-06-11T19:18:57Z","2025-06-11T19:18:58Z","2025-06-11T19:18:59Z","2025-06-11T19:19:01Z","2025-06-11T19:19:04Z","2025-06-11T19:19:05Z","2025-06-11T19:19:07Z","2025-06-11T19:19:10Z","2025-06-11T19:19:11Z","2025-06-11T19:19:12Z","2025-06-11T19:19:14Z","2025-06-11T19:19:17Z","2025-06-11T19:19:18Z","2025-06-11T19:19:19Z","2025-06-11T19:19:22Z","2025-06-11T19:19:23Z","2025-06-11T19:19:24Z","2025-06-11T19:19:25Z","2025-06-11T19:19:27Z","2025-06-11T19:19:32Z","2025-06-11T19:19:33Z","2025-06-11T19:19:36Z","2025-06-11T19:19:37Z","2025-06-11T19:19:38Z","2025-06-11T19:19:39Z","2025-06-11T19:19:41Z","2025-06-11T19:19:42Z","2025-06-11T19:19:44Z","2025-06-11T19:19:47Z","2025-06-11T19:19:48Z","2025-06-11T19:19:49Z","2025-06-11T19:19:51Z","2025-06-11T19:19:52Z","2025-06-11T19:19:54Z","2025-06-11T19:19:56Z","2025-06-11T19:19:57Z","2025-06-11T19:20:00Z","2025-06-11T19:20:04Z","2025-06-11T19:20:05Z","2025-06-11T19:20:06Z","2025-06-11T19:20:07Z","2025-06-11T19:20:12Z","2025-06-11T19:20:17Z","2025-06-11T19:20:20Z","2025-06-11T19:20:23Z","2025-06-11T19:20:24Z","2025-06-11T19:20:26Z","2025-06-11T19:20:28Z","2025-06-11T19:20:29Z","2025-06-11T19:20:31Z","2025-06-11T19:20:33Z","2025-06-11T19:20:36Z","2025-06-11T19:20:38Z","2025-06-11T19:20:40Z","2025-06-11T19:20:41Z","2025-06-11T19:20:47Z","2025-06-11T19:20:48Z","2025-06-11T19:20:49Z","2025-06-11T19:20:50Z","2025-06-11T19:20:51Z","2025-06-11T19:20:53Z","2025-06-11T19:20:55Z","2025-06-11T19:20:57Z","2025-06-11T19:20:58Z","2025-06-11T19:20:59Z","2025-06-11T19:21:01Z","2025-06-11T19:21:02Z","2025-06-11T19:21:04Z","2025-06-11T19:21:07Z","2025-06-11T19:21:14Z","2025-06-11T19:21:16Z","2025-06-11T19:21:17Z","2025-06-11T19:21:18Z","2025-06-11T19:21:21Z","2025-06-11T19:21:24Z","2025-06-11T19:21:26Z","2025-06-11T19:21:28Z","2025-06-11T19:21:30Z","2025-06-11T19:21:32Z","2025-06-11T19:21:37Z","2025-06-11T19:21:39Z","2025-06-11T19:21:42Z","2025-06-11T19:21:47Z","2025-06-11T19:21:52Z","2025-06-11T19:21:55Z","2025-06-11T19:21:58Z","2025-06-11T19:22:00Z","2025-06-11T19:22:04Z","2025-06-11T19:22:07Z","2025-06-11T19:22:11Z","2025-06-11T19:22:14Z","2025-06-11T19:22:23Z","2025-06-11T19:22:24Z","2025-06-11T19:22:34Z","2025-06-11T19:22:38Z","2025-06-11T19:22:43Z","2025-06-11T19:22:48Z","2025-06-11T19:22:51Z","2025-06-11T19:23:00Z","2025-06-11T19:23:02Z","2025-06-11T19:23:04Z","2025-06-11T19:23:07Z","2025-06-11T19:23:14Z","2025-06-11T19:23:19Z","2025-06-11T19:23:22Z","2025-06-11T19:23:24Z","2025-06-11T19:23:26Z","2025-06-11T19:23:27Z","2025-06-11T19:23:31Z","2025-06-11T19:23:37Z","2025-06-11T19:23:39Z","2025-06-11T19:23:40Z","2025-06-11T19:23:41Z","2025-06-11T19:23:42Z","2025-06-11T19:23:48Z","2025-06-11T19:23:51Z","2025-06-11T19:23:57Z","2025-06-11T19:24:01Z","2025-06-11T19:24:05Z","2025-06-11T19:24:12Z","2025-06-11T19:24:14Z","2025-06-11T19:24:17Z","2025-06-11T19:24:21Z","2025-06-11T19:24:23Z","2025-06-11T19:24:24Z","2025-06-11T19:24:34Z","2025-06-11T19:24:36Z","2025-06-11T19:24:40Z","2025-06-11T19:24:41Z","2025-06-11T19:24:43Z","2025-06-11T19:24:44Z","2025-06-11T19:24:47Z","2025-06-11T19:24:51Z","2025-06-11T19:24:54Z","2025-06-11T19:24:57Z","2025-06-11T19:25:03Z","2025-06-11T19:25:06Z","2025-06-11T19:25:09Z","2025-06-11T19:25:11Z","2025-06-11T19:25:13Z","2025-06-11T19:25:14Z","2025-06-11T19:25:15Z","2025-06-11T19:25:18Z","2025-06-11T19:25:20Z","2025-06-11T19:25:25Z","2025-06-11T19:25:28Z","2025-06-11T19:25:55Z","2025-06-11T19:25:56Z","2025-06-11T19:25:58Z","2025-06-11T19:26:01Z","2025-06-11T19:26:03Z","2025-06-11T19:26:05Z","2025-06-11T19:26:07Z","2025-06-11T19:26:08Z","2025-06-11T19:26:10Z","2025-06-11T19:26:11Z","2025-06-11T19:26:13Z","2025-06-11T19:26:15Z","2025-06-11T19:26:19Z","2025-06-11T19:26:21Z","2025-06-11T19:26:26Z","2025-06-11T19:26:30Z","2025-06-11T19:26:34Z","2025-06-11T19:26:36Z","2025-06-11T19:26:43Z","2025-06-11T19:26:45Z","2025-06-11T19:26:52Z","2025-06-11T19:26:53Z","2025-06-11T19:26:55Z","2025-06-11T19:27:00Z","2025-06-11T19:27:02Z","2025-06-11T19:27:12Z","2025-06-11T19:27:14Z","2025-06-11T19:27:15Z","2025-06-11T19:27:16Z","2025-06-11T19:27:18Z","2025-06-11T19:27:20Z","2025-06-11T19:27:23Z","2025-06-11T19:27:31Z","2025-06-11T19:27:42Z","2025-06-11T19:27:46Z","2025-06-11T19:27:50Z","2025-06-11T19:27:53Z","2025-06-11T19:27:57Z","2025-06-11T19:27:58Z","2025-06-11T19:28:03Z","2025-06-11T19:28:14Z","2025-06-11T19:28:18Z","2025-06-11T19:28:19Z","2025-06-11T19:28:20Z","2025-06-11T19:28:22Z","2025-06-11T19:28:24Z","2025-06-11T19:28:25Z","2025-06-11T19:28:27Z","2025-06-11T19:28:28Z","2025-06-11T19:28:33Z","2025-06-11T19:28:34Z","2025-06-11T19:28:37Z","2025-06-11T19:28:42Z","2025-06-11T19:28:43Z","2025-06-11T19:28:44Z","2025-06-11T19:28:48Z","2025-06-11T19:28:51Z","2025-06-11T19:28:55Z","2025-06-11T19:28:56Z","2025-06-11T19:28:58Z","2025-06-11T19:29:00Z","2025-06-11T19:29:01Z","2025-06-11T19:29:02Z","2025-06-11T19:29:08Z","2025-06-11T19:29:10Z","2025-06-11T19:29:11Z","2025-06-11T19:29:15Z","2025-06-11T19:29:16Z","2025-06-11T19:29:18Z","2025-06-11T19:29:19Z","2025-06-11T19:29:20Z","2025-06-11T19:29:22Z","2025-06-11T19:29:23Z","2025-06-11T19:29:25Z","2025-06-11T19:29:26Z","2025-06-11T19:29:27Z","2025-06-11T19:29:28Z","2025-06-11T19:29:29Z","2025-06-11T19:29:30Z","2025-06-11T19:29:32Z","2025-06-11T19:29:34Z","2025-06-11T19:29:35Z","2025-06-11T19:29:37Z","2025-06-11T19:29:39Z","2025-06-11T19:29:43Z","2025-06-11T19:29:45Z","2025-06-11T19:29:47Z","2025-06-11T19:29:51Z","2025-06-11T19:29:54Z","2025-06-11T19:29:57Z","2025-06-11T19:29:59Z","2025-06-11T19:30:04Z","2025-06-11T19:30:05Z","2025-06-11T19:30:06Z","2025-06-11T19:30:08Z","2025-06-11T19:30:09Z","2025-06-11T19:30:10Z","2025-06-11T19:30:19Z","2025-06-11T19:30:20Z","2025-06-11T19:30:22Z","2025-06-11T19:30:25Z","2025-06-11T19:30:29Z","2025-06-11T19:30:30Z","2025-06-11T19:30:32Z","2025-06-11T19:30:35Z","2025-06-11T19:30:39Z","2025-06-11T19:30:43Z","2025-06-11T19:30:46Z","2025-06-11T19:30:47Z","2025-06-11T19:30:50Z","2025-06-11T19:30:55Z","2025-06-11T19:30:57Z","2025-06-11T19:30:58Z","2025-06-11T19:31:03Z","2025-06-11T19:31:04Z","2025-06-11T19:31:13Z","2025-06-11T19:31:16Z","2025-06-11T19:31:27Z","2025-06-11T19:31:29Z","2025-06-11T19:31:30Z","2025-06-11T19:31:34Z","2025-06-11T19:31:36Z","2025-06-11T19:31:37Z","2025-06-11T19:31:39Z","2025-06-11T19:31:43Z","2025-06-11T19:31:45Z","2025-06-11T19:31:49Z","2025-06-11T19:31:51Z","2025-06-11T19:31:54Z","2025-06-11T19:31:56Z","2025-06-11T19:32:00Z","2025-06-11T19:32:01Z","2025-06-11T19:32:03Z","2025-06-11T19:32:08Z","2025-06-11T19:32:09Z","2025-06-11T19:32:12Z","2025-06-11T19:32:20Z","2025-06-11T19:32:23Z","2025-06-11T19:32:24Z","2025-06-11T19:32:27Z","2025-06-11T19:32:45Z","2025-06-11T19:32:50Z","2025-06-11T19:32:57Z","2025-06-11T19:33:03Z","2025-06-11T19:33:04Z","2025-06-11T19:33:05Z","2025-06-11T19:33:07Z","2025-06-11T19:33:08Z","2025-06-11T19:33:11Z","2025-06-11T19:33:14Z","2025-06-11T19:33:15Z","2025-06-11T19:33:17Z","2025-06-11T19:33:21Z","2025-06-11T19:33:24Z","2025-06-11T19:33:27Z","2025-06-11T19:33:49Z","2025-06-11T19:33:50Z","2025-06-11T19:33:53Z","2025-06-11T19:33:55Z","2025-06-11T19:33:57Z","2025-06-11T19:33:59Z","2025-06-11T19:34:01Z","2025-06-11T19:34:03Z","2025-06-11T19:34:04Z","2025-06-11T19:34:06Z","2025-06-11T19:34:07Z","2025-06-11T19:34:08Z","2025-06-11T19:34:10Z","2025-06-11T19:34:11Z","2025-06-11T19:34:23Z","2025-06-11T19:34:25Z","2025-06-11T19:34:26Z","2025-06-11T19:34:29Z","2025-06-11T19:34:31Z","2025-06-11T19:34:33Z","2025-06-11T19:34:35Z","2025-06-11T19:34:37Z","2025-06-11T19:34:38Z","2025-06-11T19:34:40Z","2025-06-11T19:34:43Z","2025-06-11T19:34:44Z","2025-06-11T19:34:47Z","2025-06-11T19:34:52Z","2025-06-11T19:34:56Z","2025-06-11T19:34:58Z","2025-06-11T19:35:00Z","2025-06-11T19:35:01Z","2025-06-11T19:35:04Z","2025-06-11T19:35:06Z","2025-06-11T19:35:23Z","2025-06-11T19:35:26Z","2025-06-11T19:35:33Z","2025-06-11T19:35:34Z","2025-06-11T19:35:37Z","2025-06-11T19:35:40Z","2025-06-11T19:35:41Z","2025-06-11T19:35:43Z","2025-06-11T19:35:44Z","2025-06-11T19:35:46Z","2025-06-11T19:35:50Z","2025-06-11T19:35:57Z","2025-06-11T19:36:04Z","2025-06-11T19:36:07Z","2025-06-11T19:36:08Z","2025-06-11T19:36:09Z","2025-06-11T19:36:10Z","2025-06-11T19:36:12Z","2025-06-11T19:36:15Z","2025-06-11T19:36:16Z","2025-06-11T19:36:18Z","2025-06-11T19:36:22Z","2025-06-11T19:36:24Z","2025-06-11T19:36:26Z","2025-06-11T19:36:34Z","2025-06-11T19:36:36Z","2025-06-11T19:36:39Z","2025-06-11T19:36:41Z","2025-06-11T19:36:43Z","2025-06-11T19:36:44Z","2025-06-11T19:36:45Z","2025-06-11T19:36:46Z","2025-06-11T19:36:47Z","2025-06-11T19:36:50Z","2025-06-11T19:36:52Z","2025-06-11T19:36:54Z","2025-06-11T19:37:01Z","2025-06-11T19:37:08Z","2025-06-11T19:37:09Z","2025-06-11T19:37:11Z","2025-06-11T19:37:12Z","2025-06-11T19:37:14Z","2025-06-11T19:37:15Z","2025-06-11T19:37:20Z","2025-06-11T19:37:21Z","2025-06-11T19:37:23Z","2025-06-11T19:37:25Z","2025-06-11T19:37:29Z","2025-06-11T19:37:32Z","2025-06-11T19:37:36Z","2025-06-11T19:37:37Z","2025-06-11T19:37:38Z","2025-06-11T19:37:39Z","2025-06-11T19:37:40Z","2025-06-11T19:37:42Z","2025-06-11T19:37:45Z","2025-06-11T19:37:48Z","2025-06-11T19:37:50Z","2025-06-11T19:37:58Z","2025-06-11T19:38:03Z","2025-06-11T19:38:06Z","2025-06-11T19:38:09Z","2025-06-11T19:38:10Z","2025-06-11T19:38:14Z","2025-06-11T19:38:15Z","2025-06-11T19:38:16Z","2025-06-11T19:38:17Z","2025-06-11T19:38:18Z","2025-06-11T19:38:19Z","2025-06-11T19:38:20Z","2025-06-11T19:38:23Z","2025-06-11T19:38:26Z","2025-06-11T19:38:28Z","2025-06-11T19:38:36Z","2025-06-11T19:38:39Z","2025-06-11T19:38:40Z","2025-06-11T19:38:41Z","2025-06-11T19:38:43Z","2025-06-11T19:38:44Z","2025-06-11T19:38:47Z","2025-06-11T19:38:49Z","2025-06-11T19:38:50Z","2025-06-11T19:38:51Z","2025-06-11T19:38:52Z","2025-06-11T19:38:53Z","2025-06-11T19:38:56Z","2025-06-11T19:38:57Z","2025-06-11T19:38:58Z","2025-06-11T19:38:59Z","2025-06-11T19:39:01Z","2025-06-11T19:39:04Z","2025-06-11T19:39:05Z","2025-06-11T19:39:07Z","2025-06-11T19:39:08Z","2025-06-11T19:39:17Z","2025-06-11T19:39:21Z","2025-06-11T19:39:22Z","2025-06-11T19:39:26Z","2025-06-11T19:39:29Z","2025-06-11T19:39:33Z","2025-06-11T19:39:36Z","2025-06-11T19:39:38Z","2025-06-11T19:39:42Z","2025-06-11T19:39:44Z","2025-06-11T19:39:45Z","2025-06-11T19:39:46Z","2025-06-11T19:39:47Z","2025-06-11T19:39:48Z","2025-06-11T19:39:49Z","2025-06-11T19:39:52Z","2025-06-11T19:39:56Z","2025-06-11T19:40:00Z","2025-06-11T19:40:04Z","2025-06-11T19:40:06Z","2025-06-11T19:40:11Z","2025-06-11T19:40:15Z","2025-06-11T19:40:16Z","2025-06-11T19:40:17Z","2025-06-11T19:40:19Z","2025-06-11T19:40:22Z","2025-06-11T19:40:23Z","2025-06-11T19:40:27Z","2025-06-11T19:40:31Z","2025-06-11T19:40:32Z","2025-06-11T19:40:42Z","2025-06-11T19:40:44Z","2025-06-11T19:40:46Z","2025-06-11T19:40:49Z","2025-06-11T19:40:50Z","2025-06-11T19:40:51Z","2025-06-11T19:40:52Z","2025-06-11T19:40:54Z","2025-06-11T19:40:56Z","2025-06-11T19:40:58Z","2025-06-11T19:40:59Z","2025-06-11T19:41:01Z","2025-06-11T19:41:02Z","2025-06-11T19:41:03Z","2025-06-11T19:41:04Z","2025-06-11T19:41:08Z","2025-06-11T19:41:09Z","2025-06-11T19:41:13Z","2025-06-11T19:41:15Z","2025-06-11T19:41:17Z","2025-06-11T19:41:21Z","2025-06-11T19:41:22Z","2025-06-11T19:41:27Z","2025-06-11T19:41:29Z","2025-06-11T19:41:31Z","2025-06-11T19:41:33Z","2025-06-11T19:41:34Z","2025-06-11T19:41:35Z","2025-06-11T19:41:36Z","2025-06-11T19:41:38Z","2025-06-11T19:41:41Z","2025-06-11T19:41:43Z","2025-06-11T19:41:46Z","2025-06-11T19:41:48Z","2025-06-11T19:41:50Z","2025-06-11T19:41:52Z","2025-06-11T19:41:53Z","2025-06-11T19:41:55Z","2025-06-11T19:41:59Z","2025-06-11T19:42:05Z","2025-06-11T19:42:08Z","2025-06-11T19:42:10Z","2025-06-11T19:42:14Z","2025-06-11T19:42:17Z","2025-06-11T19:42:22Z","2025-06-11T19:42:23Z","2025-06-11T19:42:24Z","2025-06-11T19:42:27Z","2025-06-11T19:42:29Z","2025-06-11T19:42:44Z","2025-06-11T19:42:45Z","2025-06-11T19:42:48Z","2025-06-11T19:42:51Z","2025-06-11T19:42:52Z","2025-06-11T19:42:56Z","2025-06-11T19:42:59Z","2025-06-11T19:43:00Z","2025-06-11T19:43:11Z","2025-06-11T19:43:22Z","2025-06-11T19:43:25Z","2025-06-11T19:43:26Z","2025-06-11T19:43:27Z","2025-06-11T19:43:28Z","2025-06-11T19:43:30Z","2025-06-11T19:43:32Z","2025-06-11T19:43:34Z","2025-06-11T19:43:36Z","2025-06-11T19:43:39Z","2025-06-11T19:43:40Z","2025-06-11T19:43:41Z","2025-06-11T19:43:42Z","2025-06-11T19:43:44Z","2025-06-11T19:43:45Z","2025-06-11T19:43:48Z","2025-06-11T19:43:52Z","2025-06-11T19:43:55Z","2025-06-11T19:43:56Z","2025-06-11T19:43:57Z","2025-06-11T19:43:58Z","2025-06-11T19:44:00Z","2025-06-11T19:44:01Z","2025-06-11T19:44:02Z","2025-06-11T19:44:05Z","2025-06-11T19:44:06Z","2025-06-11T19:44:10Z","2025-06-11T19:44:14Z","2025-06-11T19:44:18Z","2025-06-11T19:44:20Z","2025-06-11T19:44:22Z","2025-06-11T19:44:26Z","2025-06-11T19:44:27Z","2025-06-11T19:44:35Z","2025-06-11T19:44:36Z","2025-06-11T19:44:38Z","2025-06-11T19:44:39Z","2025-06-11T19:44:40Z","2025-06-11T19:44:43Z","2025-06-11T19:44:44Z","2025-06-11T19:44:47Z","2025-06-11T19:44:49Z","2025-06-11T19:44:57Z","2025-06-11T19:44:58Z","2025-06-11T19:45:00Z","2025-06-11T19:45:01Z","2025-06-11T19:45:02Z","2025-06-11T19:45:05Z","2025-06-11T19:45:10Z","2025-06-11T19:45:12Z","2025-06-11T19:45:14Z","2025-06-11T19:45:15Z","2025-06-11T19:45:17Z","2025-06-11T19:45:19Z","2025-06-11T19:45:22Z","2025-06-11T19:45:23Z","2025-06-11T19:45:24Z","2025-06-11T19:45:25Z","2025-06-11T19:45:26Z","2025-06-11T19:45:30Z","2025-06-11T19:45:34Z","2025-06-11T19:45:35Z","2025-06-11T19:45:37Z","2025-06-11T19:45:38Z","2025-06-11T19:45:41Z","2025-06-11T19:45:42Z","2025-06-11T19:45:45Z","2025-06-11T19:45:46Z","2025-06-11T19:45:48Z","2025-06-11T19:45:49Z","2025-06-11T19:45:50Z","2025-06-11T19:45:52Z","2025-06-11T19:45:54Z","2025-06-11T19:45:57Z","2025-06-11T19:45:59Z","2025-06-11T19:46:01Z","2025-06-11T19:46:03Z","2025-06-11T19:46:05Z","2025-06-11T19:46:06Z","2025-06-11T19:46:07Z","2025-06-11T19:46:08Z","2025-06-11T19:46:10Z","2025-06-11T19:46:14Z","2025-06-11T19:46:18Z","2025-06-11T19:46:19Z","2025-06-11T19:46:21Z","2025-06-11T19:46:22Z","2025-06-11T19:46:25Z","2025-06-11T19:46:26Z","2025-06-11T19:46:27Z","2025-06-11T19:46:28Z","2025-06-11T19:46:29Z","2025-06-11T19:46:30Z","2025-06-11T19:46:33Z","2025-06-11T19:46:35Z","2025-06-11T19:46:37Z","2025-06-11T19:46:38Z","2025-06-11T19:46:39Z","2025-06-11T19:46:44Z","2025-06-11T19:46:45Z","2025-06-11T19:46:46Z","2025-06-11T19:46:47Z","2025-06-11T19:46:50Z","2025-06-11T19:46:51Z","2025-06-11T19:46:52Z","2025-06-11T19:46:53Z","2025-06-11T19:46:54Z","2025-06-11T19:46:56Z","2025-06-11T19:46:57Z","2025-06-11T19:47:03Z","2025-06-11T19:47:04Z","2025-06-11T19:47:06Z","2025-06-11T19:47:08Z","2025-06-11T19:47:09Z","2025-06-11T19:47:11Z","2025-06-11T19:47:14Z","2025-06-11T19:47:16Z","2025-06-11T19:47:18Z","2025-06-11T19:47:23Z","2025-06-11T19:47:25Z","2025-06-11T19:47:27Z","2025-06-11T19:47:29Z","2025-06-11T19:47:32Z","2025-06-11T19:47:33Z","2025-06-11T19:47:35Z","2025-06-11T19:47:39Z","2025-06-11T19:47:40Z","2025-06-11T19:47:41Z","2025-06-11T19:47:44Z","2025-06-11T19:47:48Z","2025-06-11T19:47:50Z","2025-06-11T19:47:51Z","2025-06-11T19:47:53Z","2025-06-11T19:47:55Z","2025-06-11T19:47:56Z","2025-06-11T19:47:58Z","2025-06-11T19:47:59Z","2025-06-11T19:48:09Z","2025-06-11T19:48:10Z","2025-06-11T19:48:12Z","2025-06-11T19:48:15Z","2025-06-11T19:48:16Z","2025-06-11T19:48:17Z","2025-06-11T19:48:18Z","2025-06-11T19:48:19Z","2025-06-11T19:48:21Z","2025-06-11T19:48:24Z","2025-06-11T19:48:35Z","2025-06-11T19:48:36Z","2025-06-11T19:48:38Z","2025-06-11T19:48:39Z","2025-06-11T19:48:42Z","2025-06-11T19:48:44Z","2025-06-11T19:48:45Z","2025-06-11T19:48:46Z","2025-06-11T19:48:52Z","2025-06-11T19:48:53Z","2025-06-11T19:48:55Z","2025-06-11T19:48:56Z","2025-06-11T19:48:58Z","2025-06-11T19:49:00Z","2025-06-11T19:49:01Z","2025-06-11T19:49:04Z","2025-06-11T19:49:06Z","2025-06-11T19:49:08Z","2025-06-11T19:49:09Z","2025-06-11T19:49:11Z","2025-06-11T19:49:13Z","2025-06-11T19:49:15Z","2025-06-11T19:49:18Z","2025-06-11T19:49:21Z","2025-06-11T19:49:22Z","2025-06-11T19:49:24Z","2025-06-11T19:49:27Z","2025-06-11T19:49:28Z","2025-06-11T19:49:29Z","2025-06-11T19:49:30Z","2025-06-11T19:49:31Z","2025-06-11T19:49:34Z","2025-06-11T19:49:37Z","2025-06-11T19:49:38Z","2025-06-11T19:49:39Z","2025-06-11T19:49:41Z","2025-06-11T19:49:45Z","2025-06-11T19:49:48Z","2025-06-11T19:49:52Z","2025-06-11T19:49:55Z","2025-06-11T19:49:58Z","2025-06-11T19:50:01Z","2025-06-11T19:50:06Z","2025-06-11T19:50:09Z","2025-06-11T19:50:14Z","2025-06-11T19:50:19Z","2025-06-11T19:50:21Z","2025-06-11T19:50:23Z","2025-06-11T19:50:25Z","2025-06-11T19:50:29Z","2025-06-11T19:50:31Z","2025-06-11T19:50:36Z","2025-06-11T19:50:39Z","2025-06-11T19:50:40Z","2025-06-11T19:50:43Z","2025-06-11T19:50:46Z","2025-06-11T19:50:49Z","2025-06-11T19:50:51Z","2025-06-11T19:50:55Z","2025-06-11T19:50:56Z","2025-06-11T19:50:58Z","2025-06-11T19:51:03Z","2025-06-11T19:51:05Z","2025-06-11T19:51:08Z","2025-06-11T19:51:09Z","2025-06-11T19:51:12Z","2025-06-11T19:51:17Z","2025-06-11T19:51:24Z","2025-06-11T19:51:25Z","2025-06-11T19:51:26Z","2025-06-11T19:51:27Z","2025-06-11T19:51:28Z","2025-06-11T19:51:29Z","2025-06-11T19:51:31Z","2025-06-11T19:51:32Z","2025-06-11T19:51:34Z","2025-06-11T19:51:35Z","2025-06-11T19:51:36Z","2025-06-11T19:51:37Z","2025-06-11T19:51:38Z","2025-06-11T19:51:40Z","2025-06-11T19:51:42Z","2025-06-11T19:51:46Z","2025-06-11T19:51:54Z","2025-06-11T19:51:56Z","2025-06-11T19:51:58Z","2025-06-11T19:52:01Z","2025-06-11T19:52:05Z","2025-06-11T19:52:09Z","2025-06-11T19:52:15Z","2025-06-11T19:52:19Z","2025-06-11T19:52:23Z","2025-06-11T19:52:25Z","2025-06-11T19:52:34Z","2025-06-11T19:52:36Z","2025-06-11T19:52:38Z","2025-06-11T19:52:40Z","2025-06-11T19:52:43Z","2025-06-11T19:52:45Z","2025-06-11T19:52:47Z","2025-06-11T19:52:50Z","2025-06-11T19:52:54Z","2025-06-11T19:52:59Z","2025-06-11T19:53:02Z","2025-06-11T19:53:04Z","2025-06-11T19:53:05Z","2025-06-11T19:53:07Z","2025-06-11T19:53:09Z","2025-06-11T19:53:10Z","2025-06-11T19:53:15Z","2025-06-11T19:53:16Z","2025-06-11T19:53:22Z","2025-06-11T19:53:27Z","2025-06-11T19:53:29Z","2025-06-11T19:53:30Z","2025-06-11T19:53:31Z","2025-06-11T19:53:32Z","2025-06-11T19:53:34Z","2025-06-11T19:53:35Z","2025-06-11T19:53:38Z","2025-06-11T19:53:40Z","2025-06-11T19:53:41Z","2025-06-11T19:53:43Z","2025-06-11T19:53:48Z","2025-06-11T19:53:49Z","2025-06-11T19:53:56Z","2025-06-11T19:54:00Z","2025-06-11T19:54:01Z","2025-06-11T19:54:03Z","2025-06-11T19:54:06Z","2025-06-11T19:54:07Z","2025-06-11T19:54:10Z","2025-06-11T19:54:12Z","2025-06-11T19:54:14Z","2025-06-11T19:54:16Z","2025-06-11T19:54:21Z","2025-06-11T19:54:25Z","2025-06-11T19:54:27Z","2025-06-11T19:54:29Z","2025-06-11T19:54:31Z","2025-06-11T19:54:32Z","2025-06-11T19:54:34Z","2025-06-11T19:54:40Z","2025-06-11T19:54:43Z","2025-06-11T19:54:44Z","2025-06-11T19:54:45Z","2025-06-11T19:54:48Z","2025-06-11T19:54:51Z","2025-06-11T19:54:54Z","2025-06-11T19:54:58Z","2025-06-11T19:55:01Z","2025-06-11T19:55:06Z","2025-06-11T19:55:07Z","2025-06-11T19:55:09Z","2025-06-11T19:55:10Z","2025-06-11T19:55:12Z","2025-06-11T19:55:13Z","2025-06-11T19:55:15Z","2025-06-11T19:55:17Z","2025-06-11T19:55:20Z","2025-06-11T19:55:23Z","2025-06-11T19:55:25Z","2025-06-11T19:55:27Z","2025-06-11T19:55:28Z","2025-06-11T19:55:29Z","2025-06-11T19:55:31Z","2025-06-11T19:55:33Z","2025-06-11T19:55:36Z","2025-06-11T19:55:43Z","2025-06-11T19:55:46Z","2025-06-11T19:55:47Z","2025-06-11T19:55:49Z","2025-06-11T19:55:56Z","2025-06-11T19:56:00Z","2025-06-11T19:56:06Z","2025-06-11T19:56:11Z","2025-06-11T19:56:13Z","2025-06-11T19:56:14Z","2025-06-11T19:56:16Z","2025-06-11T19:56:17Z","2025-06-11T19:56:19Z","2025-06-11T19:56:20Z","2025-06-11T19:56:22Z","2025-06-11T19:56:25Z","2025-06-11T19:56:27Z","2025-06-11T19:56:28Z","2025-06-11T19:56:33Z","2025-06-11T19:56:35Z","2025-06-11T19:56:37Z","2025-06-11T19:56:44Z","2025-06-11T19:56:45Z","2025-06-11T19:56:48Z","2025-06-11T19:56:49Z","2025-06-11T19:56:51Z","2025-06-11T19:56:52Z","2025-06-11T19:56:54Z","2025-06-11T19:56:55Z","2025-06-11T19:56:56Z","2025-06-11T19:56:59Z","2025-06-11T19:57:03Z","2025-06-11T19:57:07Z","2025-06-11T19:57:10Z","2025-06-11T19:57:14Z","2025-06-11T19:57:16Z","2025-06-11T19:57:17Z","2025-06-11T19:57:20Z","2025-06-11T19:57:23Z","2025-06-11T19:57:25Z","2025-06-11T19:57:35Z","2025-06-11T19:57:38Z","2025-06-11T19:57:39Z","2025-06-11T19:57:41Z","2025-06-11T19:57:43Z","2025-06-11T19:57:45Z","2025-06-11T19:57:47Z","2025-06-11T19:57:48Z","2025-06-11T19:57:50Z","2025-06-11T19:57:53Z","2025-06-11T19:57:54Z","2025-06-11T19:57:57Z","2025-06-11T19:58:06Z","2025-06-11T19:58:07Z","2025-06-11T19:58:09Z","2025-06-11T19:58:13Z","2025-06-11T19:58:16Z","2025-06-11T19:58:19Z","2025-06-11T19:58:25Z","2025-06-11T19:58:27Z","2025-06-11T19:58:30Z","2025-06-11T19:58:33Z","2025-06-11T19:58:35Z","2025-06-11T19:58:36Z","2025-06-11T19:58:40Z","2025-06-11T19:58:41Z","2025-06-11T19:58:43Z","2025-06-11T19:58:50Z","2025-06-11T19:58:52Z","2025-06-11T19:58:53Z","2025-06-11T19:58:55Z","2025-06-11T19:58:56Z","2025-06-11T19:58:57Z","2025-06-11T19:59:18Z","2025-06-11T19:59:20Z","2025-06-11T19:59:23Z","2025-06-11T19:59:25Z","2025-06-11T19:59:29Z","2025-06-11T19:59:30Z","2025-06-11T19:59:33Z","2025-06-11T19:59:38Z","2025-06-11T19:59:40Z","2025-06-11T19:59:41Z","2025-06-11T19:59:42Z","2025-06-11T19:59:43Z","2025-06-11T19:59:48Z","2025-06-11T19:59:51Z","2025-06-11T19:59:55Z","2025-06-11T19:59:56Z","2025-06-11T19:59:58Z","2025-06-11T20:00:00Z","2025-06-11T20:00:05Z","2025-06-11T20:00:12Z","2025-06-11T20:00:14Z","2025-06-11T20:00:17Z","2025-06-11T20:00:21Z","2025-06-11T20:00:24Z","2025-06-11T20:00:25Z"],"heartRates":[122,122,122,124,124,124,122,122,118,116,118,118,118,118,118,114,114,112,112,111,111,114,114,114,114,115,116,118,116,116,115,115,115,115,111,111,115,115,115,115,115,117,117,117,117,115,115,115,115,115,115,115,117,117,117,114,114,114,114,114,114,115,115,115,113,113,110,110,110,110,110,110,110,110,110,116,116,116,116,116,116,116,127,130,130,130,131,131,131,131,132,132,131,131,131,131,131,131,131,131,131,131,131,131,131,131,131,131,131,132,132,132,132,131,131,132,132,134,134,134,135,135,135,135,135,135,134,134,132,132,124,124,124,124,127,127,127,127,129,129,129,129,129,128,128,127,127,124,124,122,122,122,122,122,122,122,122,122,122,124,124,124,124,124,124,126,126,126,127,127,127,127,126,126,126,126,122,122,124,124,127,127,127,127,127,127,127,126,126,126,124,124,124,122,120,120,121,121,121,121,121,121,121,121,119,119,118,118,118,118,119,119,118,118,118,118,118,119,119,119,119,117,117,115,115,115,115,115,115,111,110,109,110,110,112,112,112,115,114,114,114,114,110,110,109,112,109,109,109,109,109,108,108,107,107,99,96,98,98,92,92,96,98,98,92,91,91,92,96,91,91,90,91,92,97,97,93,93,91,93,92,92,92,92,92,93,93,96,96,97,98,97,96,96,105,105,102,102,100,100,99,99,99,99,102,102,102,102,102,121,122,122,122,122,122,122,122,122,122,122,122,122,122,122,122,125,125,125,125,125,131,121,120,120,120,120,120,120,120,122,121,121,117,108,108,106,106,106,106,106,106,106,106,105,105,105,105,105,108,108,108,108,108,108,108,111,111,108,108,106,106,107,107,113,113,113,112,112,112,113,113,113,117,115,115,109,110,107,107,107,110,110,110,112,112,112,112,119,118,118,113,113,113,113,116,117,117,111,111,111,116,116,116,137,137,142,138,138,133,130,130,128,128,128,128,136,127,117,117,118,118,118,122,122,122,122,122,118,118,118,118,118,130,130,130,130,130,127,127,124,124,124,128,128,128,116,116,115,115,115,115,115,115,115,115,125,124,121,121,121,117,117,117,120,120,117,109,109,109,110,109,109,110,110,110,110,121,113,113,113,113,113,113,113,113,113,113,119,117,117,117,120,127,127,120,120,120,120,121,121,122,122,125,125,124,125,125,122,122,122,126,126,126,122,122,119,119,119,119,119,118,118,121,121,122,122,122,119,119,119,119,121,121,121,121,121,121,121,121,124,124,124,124,128,128,128,128,128,136,136,138,139,139,139,139,142,142,145,145,141,141,141,135,135,138,153,153,153,153,153,153,153,152,151,151,151,151,150,150,150,150,150,150,150,155,155,155,155,155,155,155,155,154,154,154,154,154,153,153,153,153,153,153,153,153,153,155,155,155,155,154,154,153,153,154,154,154,154,154,153,153,153,153,153,153,154,154,154,150,150,150,150,146,149,149,147,147,142,142,142,143,143,143,144,144,144,144,142,142,142,145,145,143,143,143,142,142,143,143,143,143,144,144,144,144,144,143,143,143,145,145,146,146,146,146,146,146,147,147,148,148,148,148,149,147,147,147,147,148,149,149,150,150,151,151,148,148,148,148,146,146,146,146,146,149,149,149,149,156,156,155,155,155,155,155,153,153,153,153,153,153,153,153,153,153,153,152,152,152,152,152,152,152,155,155,155,155,156,156,156,156,156,159,157,157,156,156,156,156,154,154,154,153,153,153,153,153,153,153,153,153,154,156,156,157,157,157,157,157,157,157,156,156,156,157,157,157,157,157,157,156,156,156,156,156,155,155,155,155,155,155,155,152,152,152,150,150,147,147,148,148,148,149,149,149,148,148,148,148,148,148,148,151,151,151,152,152,152,152,159,159,159,162,162,162,162,162,161,161,160,160,160,160,161,161,162,162,162,161,161,161,161,161,160,161,161,161,161,162,161,160,156,156,156,156,151,151,151,154,154,154,154,154,164,164,164,163,163,163,163,162,162,162,162,162,161,161,156,156,156,156,156,147,147,147,147,147,147,146,146,145,145,145,142,141,139,139,137,134,134,134,131,131,127,125,122,124,119,118,118,118,122,122,122,122,122,122,122,121,121,121,121,120,120,118,118,117,115,116,116,118,118,118,121,121,115,115,117,117,117,115,115,121,118,118,118,117,117,117,117,121,121,119,119,120,120,120,120,120,120,120,120,120,120,120,120,126,122,122,120,121,121,122,122,120,120,120,118,117,117,117,117,117,121,121,121,122,117,117,118,118,120,118,118,117,113,113,113,113,113,113,113,113,119,119,120,118,118,118,118,120,120,120,122,124,124,124,125,125,125,122,122,122,122,122,122,122,122,122,122,122,129,129,129,129,129,141,141,142,142,138,134,134,132,132,131,131,131,131,131,131,130,130,130,130,126,126,126,126,126,128,128,124,122,122,122,122,122,122,119,119,115,116,116,116,116,116,116,118,118,118,118,117,117,117,117,117,117,117,116,117,119,119,119,119,119,117,112,112,112,112,112,110,110,110,113,115,115,114,115,115,115,116,116,116,114,112,112,112,112,112,109,109,108,108,108,108,108,120,120,120,122,122,122,122,125,122,122,121,121,121,121,121,124,124,121,121,121,121,121,121,121,122,122,127,119,119,119,118,118,118,126,126,126,137,143,143,140,140,140,138,138,138,138,137,137,137,137,136,129,127,127,125,125,125,125,125,125,135,135,136,130,129,129,128,128,128,128,129,129,129,131,130,130,128,128,128,128,125,125,125,125,127,127,131,131,125,125,125,125,125,125,125,125,125,125,125,126,126,126,126,126,126,141,141,149,149,146,144,144,144,144,145,144,140,140,137,137,137,137,136,136,136,136,143,139,139,139,136,136,136,134,134,134,137,136,136,132,132,130,130,130,130,130,130,128,128,128,128,128,128,128,138,138,141,141,138,136,136,131,132,132,132,132,132,132,135,135,135,135,135,135,135,135,135,132,132,132,132,132,128,126,126,126,126,126,122,122,122,122,122,122,122,122,119,118,118,118,118,118,118,118,125,125,125,125,125,130,131,131,131,137,139,139,139,138,138,138,138,138,138,141,148,150,151,151,151,150,149,149,149,149,147,147,147,150,150,154,154,154,152,152,151,150,150,148,148,148,148,148,148,148,148,148,148,148,148,152,152,152,152,153,153,153,152,152,152,152,152,153,153,153,152,152,152,152,152,151,152,152,152,152,152,152,152,152,152,152,151,152,152,152,152,156,156,156,156,154,154,154,154,154,154,154,158,158,157,157,157,157,157,157,158,158,158,156,156,156,156,156,156,156,156,154,154,154,154,154,154,154,154,154,150,149,149,148,148,148,148,148,146,148,147,142,141,141,141,143,143,143,145,145,145,145,143,143,143,143,144,144,144,144,144,144,148,147,147,148,148,148,148,148,152,153,153,155,155,155,155,160,160,159,159,156,154,154,152,152,152,149,149,149,149,142,142,142,141,140,140,139,139,139,138,138,135,135,134,134,133,129,129,129,129,131,131,131,131,131,131,131,144,144,147,147,150,149,149,143,142,139,139,136,136,133,133,131,131,131,131,129,128,128,128,122,122,122,121,121,121,122,122,122,130,127,126,126,126,126,126,126,126,126,126,131,130,130,130,129,124,122,122,124,124,129,129,129,132,132,127,124,124,122,122,122,121,121,121,121,122,122,122,122,122,122,122,122,122,122,122,122,130,132,132,130,130,130,130,130,131,131,126,124,124,124,127,127,126,122,122,122,122,122,122,122,130,130,130,130,122,122,122,122,122,122,122,124,124,122,122,122,122,127,127,127,124,124,124,126,126,126,126,127,127,127,127,127,127,127,126,126,126,122,122,122,119,119,119,119,120,121,121,121,121,121,121,121,121,125,125,125,125,128,128,125,122,122,122,122,122,132,133,133,133,133,133,132,131,131,132,132,132,132,132,132,131,130,130,130]},"geometry":{"type":"LineString","coordinates":[[2.48113,48.713688,37.5],[2.481206,48.713724,37.5],[2.481193,48.713722,37.5],[2.481214,48.71373,37.5],[2.48121,48.713726,37.5],[2.481221,48.71373,37.5],[2.481198,48.713734,37.5],[2.48118,48.713725,37.5],[2.481187,48.713704,37.5],[2.481209,48.713722,37.4],[2.481322,48.713704,37.4],[2.481292,48.713704,37.4],[2.481279,48.713728,37.4],[2.481287,48.713745,37.4],[2.481252,48.713738,37.4],[2.481237,48.713761,37.5],[2.48122,48.713762,37.5],[2.481247,48.71373,37.4],[2.481258,48.713683,37.3],[2.481246,48.713649,37.3],[2.481237,48.71366,37.3],[2.481238,48.713694,37.3],[2.481212,48.713727,37.4],[2.48116,48.713736,37.5],[2.48118,48.713726,37.4],[2.48115,48.71374,37.5],[2.481173,48.713725,37.4],[2.481236,48.713706,37.4],[2.481207,48.71372,37.4],[2.481212,48.713707,37.4],[2.4812,48.713702,37.4],[2.481193,48.713709,37.4],[2.48121,48.713703,37.4],[2.481236,48.71367,37.3],[2.481218,48.713709,37.4],[2.481229,48.713722,37.4],[2.481173,48.713743,37.5],[2.481198,48.713725,37.4],[2.481219,48.713725,37.4],[2.481226,48.713715,37.4],[2.481192,48.713725,37.4],[2.481197,48.713734,37.5],[2.481185,48.713738,37.5],[2.481217,48.713738,37.5],[2.481191,48.713756,37.5],[2.481208,48.713738,37.5],[2.481183,48.713731,37.4],[2.481197,48.713721,37.4],[2.481192,48.713741,37.5],[2.481183,48.713743,37.5],[2.481196,48.713743,37.5],[2.481165,48.713762,37.6],[2.481222,48.713758,37.5],[2.481293,48.713771,37.5],[2.48123,48.713763,37.5],[2.481214,48.71375,37.5],[2.481223,48.713739,37.5],[2.481217,48.713733,37.5],[2.481208,48.713737,37.5],[2.481204,48.713723,37.4],[2.481214,48.713748,37.5],[2.481207,48.713765,37.5],[2.48121,48.713748,37.5],[2.481162,48.713734,37.5],[2.481172,48.713731,37.4],[2.481158,48.713735,37.5],[2.481188,48.713719,37.4],[2.481187,48.713726,37.4],[2.481199,48.713728,37.4],[2.481138,48.713741,37.5],[2.48117,48.713737,37.5],[2.481159,48.713726,37.4],[2.481193,48.713732,37.5],[2.481187,48.713756,37.5],[2.481167,48.713757,37.5],[2.481222,48.713728,37.4],[2.48122,48.713722,37.4],[2.481191,48.713739,37.5],[2.481212,48.713718,37.4],[2.481234,48.713721,37.4],[2.48125,48.713693,37.3],[2.481254,48.713703,37.3],[2.481227,48.713704,37.4],[2.481257,48.713678,37.3],[2.481205,48.713695,37.4],[2.481212,48.713705,37.4],[2.481246,48.713716,37.4],[2.481246,48.71374,37.4],[2.481262,48.713746,37.4],[2.481259,48.713737,37.4],[2.481284,48.71373,37.3],[2.481295,48.713736,37.4],[2.48126,48.71372,37.4],[2.481231,48.713732,37.5],[2.481221,48.713747,37.5],[2.481232,48.713749,37.5],[2.481219,48.713739,37.5],[2.481227,48.713738,37.5],[2.481208,48.713708,37.4],[2.481192,48.713701,37.4],[2.481165,48.713703,37.4],[2.481192,48.713723,37.4],[2.481198,48.713715,37.4],[2.481218,48.713732,37.5],[2.481183,48.713745,37.5],[2.481197,48.713743,37.5],[2.481184,48.713737,37.5],[2.481167,48.713741,37.5],[2.481167,48.713721,37.4],[2.481132,48.713732,37.5],[2.481158,48.713728,37.4],[2.481164,48.713759,37.5],[2.481191,48.71376,37.5],[2.48121,48.713717,37.4],[2.481203,48.713713,37.4],[2.48119,48.713742,37.5],[2.481211,48.713739,37.5],[2.481169,48.713709,37.4],[2.481203,48.713719,37.4],[2.481196,48.713725,37.4],[2.481209,48.713733,37.5],[2.481236,48.713733,37.5],[2.481227,48.713748,37.5],[2.48124,48.713737,37.4],[2.481225,48.713708,37.4],[2.48123,48.71369,37.4],[2.481182,48.713617,37.2],[2.481181,48.713597,37.2],[2.481234,48.713606,37.2],[2.481247,48.713633,37.2],[2.481224,48.713712,37.4],[2.481235,48.713726,37.4],[2.481218,48.713738,37.5],[2.481198,48.713739,37.5],[2.481185,48.713682,37.4],[2.481162,48.713687,37.4],[2.481173,48.713739,37.5],[2.481187,48.713741,37.5],[2.481211,48.713721,37.4],[2.481215,48.713733,37.5],[2.481239,48.713728,37.4],[2.48121,48.71375,37.5],[2.481221,48.713729,37.4],[2.481211,48.713736,37.5],[2.481222,48.713735,37.5],[2.481227,48.713723,37.4],[2.48124,48.713729,37.4],[2.481232,48.713716,37.4],[2.48121,48.71374,37.5],[2.481242,48.7137,37.3],[2.481214,48.713723,37.4],[2.481232,48.713734,37.5],[2.481219,48.713745,37.5],[2.481189,48.713714,37.4],[2.481226,48.713714,37.4],[2.481215,48.713723,37.4],[2.481222,48.713704,37.4],[2.481228,48.713708,37.4],[2.481219,48.713702,37.3],[2.48121,48.713724,37.4],[2.4812,48.713722,37.4],[2.481191,48.713731,37.4],[2.481205,48.71373,37.4],[2.481175,48.713756,37.5],[2.481188,48.713738,37.5],[2.481172,48.713727,37.4],[2.481104,48.713755,37.6],[2.481122,48.713758,37.5],[2.481213,48.713728,37.4],[2.481231,48.713714,37.4],[2.481232,48.713725,37.4],[2.481231,48.713707,37.4],[2.481203,48.713748,37.5],[2.481218,48.713739,37.5],[2.481203,48.713734,37.5],[2.481225,48.713735,37.5],[2.481208,48.713754,37.5],[2.481225,48.71376,37.5],[2.481161,48.713767,37.6],[2.48117,48.71377,37.6],[2.481205,48.713746,37.5],[2.481195,48.713765,37.5],[2.48118,48.713767,37.6],[2.481218,48.713737,37.5],[2.481206,48.713758,37.5],[2.481231,48.713718,37.4],[2.481225,48.713724,37.4],[2.481184,48.713727,37.4],[2.481197,48.713712,37.4],[2.481208,48.713715,37.4],[2.48118,48.71374,37.5],[2.481189,48.713734,37.5],[2.481193,48.713753,37.5],[2.481182,48.71372,37.4],[2.481207,48.71373,37.4],[2.4812,48.713733,37.5],[2.481239,48.713759,37.4],[2.481236,48.713777,37.5],[2.481226,48.713773,37.5],[2.481216,48.713779,37.5],[2.481194,48.713765,37.5],[2.481196,48.713733,37.5],[2.481177,48.713743,37.5],[2.481185,48.713756,37.5],[2.481201,48.71373,37.4],[2.481228,48.713713,37.4],[2.481219,48.713707,37.4],[2.481205,48.71373,37.4],[2.481213,48.713723,37.4],[2.481225,48.713749,37.5],[2.481243,48.713741,37.4],[2.481211,48.713708,37.4],[2.481244,48.713718,37.4],[2.481245,48.713712,37.4],[2.481228,48.713728,37.4],[2.481224,48.713723,37.4],[2.481213,48.713735,37.5],[2.48121,48.713723,37.4],[2.481205,48.713734,37.5],[2.481212,48.713732,37.5],[2.481191,48.713693,37.4],[2.481195,48.713669,37.3],[2.48118,48.713662,37.3],[2.481156,48.713719,37.4],[2.481136,48.713702,37.4],[2.481153,48.713724,37.4],[2.481177,48.71372,37.4],[2.481208,48.713642,37.2],[2.48124,48.713625,37.2],[2.481266,48.713587,37.1],[2.481301,48.713458,36.8],[2.481292,48.713448,36.8],[2.481276,48.713466,36.9],[2.481247,48.713468,36.9],[2.481212,48.713483,36.9],[2.481205,48.71348,36.9],[2.481202,48.713491,36.9],[2.481195,48.713488,36.9],[2.481241,48.713458,36.9],[2.481233,48.713465,36.9],[2.481266,48.713471,36.9],[2.481269,48.713492,36.9],[2.481284,48.713486,36.9],[2.481315,48.713563,37],[2.481292,48.713643,37.2],[2.48131,48.713611,37.1],[2.481295,48.713625,37.2],[2.481259,48.713566,37.1],[2.481262,48.713547,37],[2.481241,48.713548,37],[2.481235,48.71353,37],[2.481244,48.713494,36.9],[2.481228,48.713481,36.9],[2.481205,48.713483,36.9],[2.481222,48.713497,36.9],[2.481212,48.71352,37],[2.481229,48.713523,37],[2.481209,48.713539,37],[2.481203,48.713529,37],[2.481226,48.713539,37],[2.481214,48.713538,37],[2.481227,48.713519,37],[2.481233,48.713538,37],[2.481228,48.713527,37],[2.481224,48.713541,37],[2.481195,48.713519,37],[2.481217,48.713508,37],[2.481193,48.713512,37],[2.4812,48.713525,37],[2.481204,48.713521,37],[2.481204,48.713528,37],[2.481215,48.713528,37],[2.481223,48.713515,37],[2.481229,48.71354,37],[2.481217,48.713529,37],[2.481221,48.713535,37],[2.481205,48.713544,37],[2.48121,48.71352,37],[2.481203,48.713534,37],[2.481204,48.713525,37],[2.48123,48.713525,37],[2.481211,48.713528,37],[2.481223,48.713542,37],[2.481242,48.713539,37],[2.48122,48.713544,37],[2.481242,48.713511,36.9],[2.481247,48.713519,36.9],[2.481236,48.71352,37],[2.481237,48.713528,36.9],[2.481227,48.71353,37],[2.481225,48.713521,36.9],[2.481269,48.713512,36.9],[2.481212,48.713523,36.9],[2.481181,48.713489,36.9],[2.481186,48.713479,36.9],[2.481179,48.713479,36.9],[2.481203,48.713468,36.8],[2.481224,48.713475,36.8],[2.481278,48.713473,36.8],[2.481274,48.713484,36.9],[2.481304,48.713502,36.9],[2.481331,48.713495,36.8],[2.481348,48.713504,36.8],[2.48132,48.713506,36.9],[2.481171,48.713483,36.9],[2.481191,48.713492,36.9],[2.481264,48.713493,36.9],[2.481293,48.713513,36.9],[2.481274,48.713521,36.9],[2.481211,48.713487,36.9],[2.481168,48.713479,36.9],[2.481179,48.713485,36.9],[2.481179,48.713471,36.9],[2.481198,48.713459,36.8],[2.481203,48.713466,36.8],[2.481223,48.713464,36.8],[2.481238,48.713483,36.9],[2.48126,48.713492,36.9],[2.481275,48.713479,36.9],[2.481293,48.713489,36.9],[2.481288,48.713478,36.9],[2.481251,48.713476,36.8],[2.481177,48.713506,37],[2.481198,48.713513,36.9],[2.481258,48.713503,36.9],[2.481219,48.713504,36.9],[2.481189,48.713493,36.9],[2.481166,48.713472,36.9],[2.48114,48.713472,36.9],[2.481139,48.713479,36.9],[2.481147,48.713474,36.9],[2.481231,48.713502,36.9],[2.481241,48.713513,36.9],[2.48127,48.713509,36.9],[2.481283,48.713497,36.9],[2.481207,48.713499,36.9],[2.481219,48.713499,36.9],[2.481159,48.713497,36.9],[2.481149,48.713508,37],[2.481136,48.713507,37],[2.481142,48.713494,36.9],[2.481134,48.713487,36.9],[2.481155,48.71347,36.9],[2.481204,48.713464,36.8],[2.481228,48.713476,36.8],[2.481243,48.713508,36.9],[2.481256,48.713515,36.9],[2.481276,48.713503,36.9],[2.481283,48.713526,36.9],[2.481258,48.713538,37],[2.481226,48.71354,37],[2.481198,48.713519,36.9],[2.481181,48.713522,37],[2.481294,48.713498,36.8],[2.481289,48.713512,36.9],[2.481263,48.713518,36.9],[2.481287,48.713505,36.8],[2.481284,48.71351,36.9],[2.481341,48.713526,36.9],[2.481355,48.713551,36.9],[2.481342,48.713571,37],[2.481325,48.713573,37],[2.481296,48.713556,37],[2.481299,48.713514,36.9],[2.481236,48.713479,36.9],[2.481203,48.713476,36.8],[2.481193,48.713466,36.9],[2.481173,48.713476,36.9],[2.481176,48.713483,36.9],[2.481205,48.713462,36.8],[2.481257,48.713488,36.9],[2.481242,48.713569,37],[2.481219,48.713533,36.9],[2.481242,48.713493,36.9],[2.481255,48.713495,36.9],[2.481241,48.713504,36.9],[2.481263,48.713502,36.9],[2.481327,48.713529,36.9],[2.481323,48.713548,36.9],[2.48127,48.713548,37],[2.481263,48.713591,37.1],[2.481223,48.713607,37.1],[2.481151,48.71359,37.1],[2.481117,48.713558,37],[2.481123,48.713508,37],[2.481183,48.713446,36.8],[2.481213,48.713436,36.8],[2.481263,48.713505,36.9],[2.481273,48.713505,36.9],[2.481275,48.713497,36.9],[2.481294,48.7135,36.8],[2.481294,48.713495,36.8],[2.481238,48.713517,36.9],[2.481195,48.71351,36.9],[2.481152,48.713488,36.9],[2.481165,48.71348,36.9],[2.481173,48.713446,36.8],[2.481197,48.713447,36.8],[2.48119,48.71345,36.9],[2.481213,48.713449,36.8],[2.481294,48.713478,36.8],[2.481261,48.713469,36.8],[2.481255,48.713509,36.9],[2.481208,48.713512,36.9],[2.481249,48.713512,36.9],[2.481276,48.713502,36.9],[2.48127,48.713533,36.9],[2.48134,48.713511,36.9],[2.48124,48.713533,36.9],[2.481228,48.71351,36.9],[2.481296,48.713521,36.9],[2.481321,48.713546,36.9],[2.481229,48.713553,37],[2.481137,48.713518,37],[2.481164,48.713495,36.9],[2.481187,48.713454,36.8],[2.481244,48.71345,36.8],[2.48127,48.713462,36.8],[2.481285,48.713494,36.8],[2.481311,48.713491,36.8],[2.481268,48.713512,36.9],[2.481209,48.713509,36.9],[2.481197,48.713519,36.9],[2.48117,48.71352,37],[2.481133,48.713488,36.9],[2.481166,48.713467,36.8],[2.481239,48.713458,36.8],[2.481227,48.713439,36.8],[2.481256,48.71346,36.8],[2.481264,48.713477,36.8],[2.481345,48.713496,36.8],[2.481249,48.713509,36.9],[2.481274,48.713521,36.9],[2.481272,48.713506,36.9],[2.481248,48.713491,36.9],[2.481221,48.713516,36.9],[2.481141,48.7135,36.9],[2.481229,48.713525,36.9],[2.481186,48.713518,36.9],[2.481162,48.713495,36.9],[2.481228,48.713511,36.9],[2.481231,48.713476,36.8],[2.481213,48.713461,36.8],[2.481154,48.713462,36.8],[2.481154,48.713474,36.8],[2.481168,48.713476,36.8],[2.481175,48.713469,36.8],[2.481217,48.713479,36.9],[2.481254,48.713471,36.8],[2.481323,48.713511,36.9],[2.481299,48.713507,36.9],[2.481241,48.713515,36.9],[2.481137,48.713489,36.9],[2.481147,48.713494,36.9],[2.481154,48.713485,36.9],[2.48124,48.713518,36.9],[2.481242,48.713513,36.9],[2.481257,48.713516,36.9],[2.481287,48.713503,36.8],[2.481269,48.713529,36.9],[2.481203,48.713574,37],[2.481115,48.713577,37.1],[2.481126,48.713549,37],[2.481095,48.713532,37],[2.48109,48.713518,37],[2.481126,48.713452,36.9],[2.481145,48.713443,36.8],[2.481226,48.713452,36.8],[2.481272,48.713499,36.8],[2.481266,48.713496,36.8],[2.481303,48.713493,36.8],[2.481237,48.713495,36.8],[2.481256,48.713497,36.8],[2.481149,48.713502,36.9],[2.481154,48.713494,36.9],[2.481197,48.713484,36.9],[2.481209,48.713468,36.8],[2.481223,48.71348,36.9],[2.481245,48.713479,36.8],[2.481263,48.713502,36.8],[2.481306,48.713511,36.9],[2.481214,48.713517,36.9],[2.481168,48.713509,36.9],[2.481207,48.713504,36.9],[2.481131,48.713488,36.9],[2.481142,48.713491,36.9],[2.48118,48.713451,36.8],[2.481263,48.713468,36.8],[2.481274,48.713477,36.8],[2.481274,48.713471,36.8],[2.481319,48.713498,36.8],[2.481306,48.71352,36.9],[2.481269,48.713535,37],[2.481264,48.713521,36.9],[2.481303,48.713503,36.8],[2.48129,48.713506,36.9],[2.48131,48.713514,36.9],[2.481307,48.713495,36.8],[2.481192,48.713499,36.9],[2.481233,48.713492,36.9],[2.48123,48.713477,36.8],[2.48119,48.713517,36.9],[2.48121,48.713542,37],[2.481238,48.71355,36.9],[2.481272,48.713613,37.1],[2.481242,48.713617,37.1],[2.481221,48.713585,37],[2.481163,48.713596,37.1],[2.481182,48.713614,37.1],[2.48113,48.713614,37.1],[2.48119,48.713644,37.2],[2.48119,48.713629,37.2],[2.481236,48.713628,37.2],[2.481225,48.713641,37.2],[2.481071,48.713656,37.3],[2.48108,48.713668,37.3],[2.481056,48.713671,37.3],[2.481067,48.713624,37.2],[2.481106,48.713584,37.1],[2.481125,48.713522,37],[2.481178,48.713545,37],[2.481193,48.713545,37],[2.481237,48.713567,37],[2.481245,48.713583,37],[2.481308,48.713608,37],[2.4813,48.713639,37.1],[2.481304,48.713633,37.1],[2.481277,48.713634,37.1],[2.481282,48.713621,37.1],[2.481278,48.713656,37.2],[2.481262,48.713677,37.2],[2.481254,48.713671,37.2],[2.481252,48.713726,37.3],[2.481233,48.713741,37.4],[2.481218,48.713735,37.4],[2.481226,48.713739,37.4],[2.481193,48.713728,37.4],[2.481157,48.713745,37.4],[2.481169,48.713732,37.4],[2.481162,48.713725,37.4],[2.481199,48.713717,37.3],[2.481183,48.713734,37.4],[2.481177,48.713727,37.4],[2.481117,48.713733,37.5],[2.481133,48.713709,37.4],[2.481117,48.71371,37.4],[2.481103,48.713695,37.4],[2.481159,48.713713,37.4],[2.481179,48.71373,37.4],[2.481136,48.713733,37.5],[2.481148,48.71371,37.4],[2.481171,48.713715,37.4],[2.48122,48.713707,37.3],[2.4812,48.713728,37.3],[2.481188,48.713724,37.4],[2.481159,48.713731,37.4],[2.481126,48.713751,37.5],[2.481133,48.71376,37.5],[2.481139,48.713733,37.5],[2.481178,48.713729,37.4],[2.481155,48.71374,37.4],[2.481048,48.713715,37.5],[2.481039,48.713697,37.4],[2.481076,48.713667,37.3],[2.481116,48.713659,37.3],[2.481143,48.713633,37.2],[2.48116,48.713639,37.2],[2.481234,48.71372,37.3],[2.481222,48.713739,37.4],[2.48121,48.713717,37.3],[2.481153,48.713705,37.4],[2.48115,48.71372,37.4],[2.481151,48.713703,37.3],[2.481183,48.713704,37.4],[2.481214,48.713749,37.4],[2.48111,48.713783,37.5],[2.481053,48.713811,37.6],[2.481149,48.71374,37.4],[2.48114,48.713729,37.4],[2.481177,48.713707,37.4],[2.481162,48.713707,37.4],[2.48115,48.713717,37.4],[2.481137,48.713695,37.3],[2.481212,48.713712,37.3],[2.481152,48.713705,37.4],[2.481119,48.713716,37.4],[2.481141,48.713727,37.4],[2.481114,48.713712,37.4],[2.481127,48.713704,37.4],[2.48118,48.713702,37.3],[2.48114,48.7137,37.3],[2.481184,48.713714,37.4],[2.481208,48.71371,37.3],[2.481177,48.713718,37.4],[2.481143,48.71371,37.4],[2.481119,48.713722,37.4],[2.481113,48.713713,37.4],[2.481097,48.713711,37.4],[2.481191,48.713714,37.4],[2.481277,48.713727,37.3],[2.481255,48.713733,37.3],[2.481172,48.713728,37.4],[2.4811,48.713711,37.4],[2.481082,48.713719,37.4],[2.481137,48.713724,37.4],[2.481163,48.713715,37.4],[2.481179,48.713725,37.4],[2.481109,48.713758,37.4],[2.481112,48.713744,37.4],[2.481134,48.713735,37.4],[2.481165,48.713755,37.4],[2.481191,48.71373,37.4],[2.48122,48.71372,37.3],[2.481214,48.713729,37.3],[2.481191,48.713725,37.4],[2.481158,48.71374,37.4],[2.481144,48.713722,37.4],[2.481216,48.713709,37.3],[2.481226,48.713713,37.3],[2.481178,48.713731,37.4],[2.481141,48.713735,37.4],[2.481152,48.713725,37.4],[2.481216,48.713711,37.3],[2.481234,48.713718,37.3],[2.481167,48.713718,37.4],[2.481165,48.713724,37.4],[2.481201,48.713719,37.3],[2.481126,48.713737,37.4],[2.481142,48.713743,37.4],[2.481146,48.713733,37.4],[2.481114,48.713733,37.4],[2.481184,48.71372,37.3],[2.481231,48.713719,37.3],[2.481208,48.71375,37.4],[2.481198,48.713746,37.4],[2.481245,48.713748,37.3],[2.481239,48.713742,37.3],[2.481218,48.713743,37.4],[2.481161,48.71372,37.3],[2.481123,48.71374,37.4],[2.481069,48.713704,37.4],[2.481071,48.71369,37.4],[2.481156,48.713699,37.3],[2.481194,48.713713,37.3],[2.481188,48.713718,37.3],[2.481181,48.713706,37.3],[2.481169,48.713712,37.3],[2.481103,48.713707,37.4],[2.48107,48.713683,37.4],[2.48107,48.713659,37.3],[2.481175,48.713707,37.3],[2.481204,48.713713,37.3],[2.481205,48.713722,37.3],[2.481145,48.713739,37.4],[2.481119,48.713735,37.4],[2.481125,48.71372,37.4],[2.481169,48.713722,37.3],[2.481177,48.713738,37.4],[2.481203,48.71373,37.3],[2.481211,48.713711,37.3],[2.481143,48.713729,37.4],[2.481139,48.713723,37.4],[2.481152,48.713714,37.3],[2.481215,48.713706,37.3],[2.481151,48.713712,37.3],[2.481072,48.71373,37.4],[2.48111,48.713732,37.4],[2.481155,48.713722,37.3],[2.481178,48.713725,37.3],[2.481195,48.713713,37.3],[2.481181,48.713721,37.3],[2.481166,48.713712,37.3],[2.481119,48.713722,37.4],[2.481111,48.713734,37.4],[2.481108,48.713715,37.4],[2.481112,48.713722,37.4],[2.481175,48.71372,37.3],[2.481194,48.713728,37.3],[2.481215,48.713718,37.3],[2.481202,48.713728,37.3],[2.481123,48.713745,37.4],[2.481206,48.713737,37.4],[2.481163,48.713725,37.3],[2.481118,48.713746,37.4],[2.481126,48.713718,37.4],[2.481115,48.713707,37.4],[2.481181,48.713714,37.3],[2.48116,48.713711,37.3],[2.481133,48.713723,37.4],[2.481084,48.713714,37.4],[2.481141,48.713714,37.4],[2.481189,48.713733,37.4],[2.481205,48.713714,37.3],[2.481148,48.713727,37.4],[2.481151,48.713736,37.4],[2.481155,48.713722,37.3],[2.481135,48.71372,37.4],[2.481148,48.713726,37.4],[2.481209,48.71372,37.3],[2.481124,48.713727,37.4],[2.481138,48.713685,37.3],[2.481143,48.713704,37.4],[2.481186,48.713729,37.3],[2.481168,48.71373,37.3],[2.481166,48.713723,37.3],[2.481103,48.713732,37.5],[2.481108,48.713741,37.4],[2.48111,48.71373,37.4],[2.481111,48.713759,37.4],[2.481095,48.713736,37.5],[2.481192,48.713716,37.3],[2.481222,48.713727,37.3],[2.481205,48.713752,37.4],[2.481216,48.713771,37.4],[2.481227,48.713759,37.4],[2.481237,48.713703,37.2],[2.481248,48.713718,37.3],[2.481206,48.713737,37.4],[2.481183,48.713732,37.4],[2.481192,48.713731,37.3],[2.48118,48.713715,37.3],[2.48118,48.71372,37.3],[2.481119,48.713718,37.4],[2.481149,48.713709,37.4],[2.481111,48.713718,37.4],[2.481131,48.713724,37.4],[2.48113,48.713714,37.4],[2.481173,48.713696,37.3],[2.481102,48.713724,37.4],[2.481062,48.713708,37.4],[2.481157,48.713709,37.3],[2.481163,48.713719,37.3],[2.481175,48.71372,37.3],[2.481127,48.713708,37.4],[2.481114,48.713726,37.4],[2.481094,48.713723,37.4],[2.481104,48.713715,37.4],[2.481185,48.713715,37.3],[2.481193,48.713724,37.3],[2.481212,48.71372,37.3],[2.481158,48.713712,37.3],[2.481096,48.713723,37.4],[2.481095,48.713738,37.5],[2.481147,48.713756,37.4],[2.481178,48.713745,37.4],[2.481145,48.713713,37.4],[2.481123,48.713705,37.4],[2.48112,48.713672,37.2],[2.481149,48.713661,37.2],[2.481195,48.71367,37.2],[2.48122,48.713656,37.2],[2.481231,48.71366,37.2],[2.48125,48.713695,37.2],[2.481245,48.713739,37.3],[2.481234,48.713746,37.4],[2.48119,48.713734,37.4],[2.481157,48.713736,37.4],[2.48121,48.71372,37.3],[2.481236,48.713723,37.3],[2.481194,48.713729,37.3],[2.481199,48.713709,37.3],[2.481164,48.713725,37.3],[2.481163,48.713709,37.3],[2.481176,48.713708,37.3],[2.48117,48.713702,37.3],[2.481193,48.713693,37.3],[2.481204,48.713708,37.3],[2.48112,48.713723,37.4],[2.481121,48.713734,37.4],[2.481093,48.713721,37.4],[2.481106,48.713712,37.4],[2.481194,48.713723,37.3],[2.481126,48.71374,37.4],[2.481159,48.713722,37.3],[2.481197,48.713714,37.3],[2.481184,48.713722,37.3],[2.481155,48.713704,37.3],[2.481115,48.713712,37.4],[2.481092,48.713707,37.4],[2.481127,48.713703,37.3],[2.481118,48.71371,37.4],[2.481165,48.713733,37.4],[2.481211,48.713744,37.4],[2.481198,48.713732,37.4],[2.481196,48.713713,37.3],[2.481181,48.713717,37.3],[2.481105,48.713709,37.4],[2.481091,48.713729,37.4],[2.481118,48.713708,37.4],[2.481111,48.713714,37.4],[2.481139,48.713709,37.4],[2.481191,48.713717,37.3],[2.481165,48.713726,37.3],[2.481148,48.713717,37.4],[2.481121,48.713716,37.4],[2.48109,48.713727,37.4],[2.481105,48.713711,37.4],[2.48113,48.713703,37.3],[2.481186,48.713713,37.3],[2.481169,48.713719,37.3],[2.481148,48.713712,37.4],[2.481116,48.713743,37.4],[2.481123,48.713724,37.4],[2.481187,48.713716,37.3],[2.481182,48.713724,37.3],[2.481148,48.71372,37.4],[2.481101,48.713733,37.5],[2.481138,48.713704,37.4],[2.481134,48.71371,37.4],[2.481185,48.713708,37.3],[2.481191,48.713723,37.3],[2.481096,48.713749,37.5],[2.481107,48.713756,37.5],[2.48113,48.713747,37.4],[2.481181,48.713744,37.4],[2.481142,48.713746,37.4],[2.481105,48.713711,37.4],[2.481138,48.713701,37.3],[2.481172,48.713709,37.3],[2.48119,48.713723,37.3],[2.481206,48.713719,37.3],[2.481204,48.713709,37.3],[2.481179,48.713735,37.4],[2.481151,48.713726,37.3],[2.481128,48.713704,37.4],[2.481175,48.713711,37.3],[2.481162,48.713744,37.4],[2.481115,48.71378,37.5],[2.481228,48.713719,37.3],[2.481216,48.713731,37.3],[2.481197,48.713719,37.3],[2.481177,48.713729,37.3],[2.481103,48.713735,37.5],[2.481089,48.713727,37.4],[2.481101,48.713718,37.4],[2.481147,48.713708,37.4],[2.481187,48.713715,37.3],[2.481166,48.713741,37.4],[2.481122,48.713749,37.4],[2.481138,48.71372,37.4],[2.481131,48.713709,37.4],[2.481118,48.713718,37.4],[2.481128,48.713726,37.4],[2.481178,48.71371,37.3],[2.481167,48.713708,37.3],[2.481179,48.71371,37.3],[2.481137,48.713705,37.4],[2.481133,48.713717,37.4],[2.481111,48.713727,37.4],[2.481122,48.713705,37.4],[2.481123,48.713719,37.4],[2.481165,48.713702,37.3],[2.481143,48.713699,37.3],[2.481131,48.713707,37.4],[2.481171,48.713739,37.4],[2.481136,48.713732,37.4],[2.481111,48.713741,37.4],[2.481111,48.713728,37.4],[2.48114,48.713737,37.4],[2.481189,48.713728,37.3],[2.481154,48.71372,37.3],[2.481178,48.713721,37.3],[2.481141,48.713721,37.4],[2.481122,48.713711,37.4],[2.481105,48.713724,37.4],[2.481059,48.713705,37.4],[2.481067,48.713689,37.3],[2.481112,48.71369,37.3],[2.481111,48.713695,37.3],[2.481152,48.713705,37.3],[2.481129,48.713707,37.4],[2.48116,48.713702,37.3],[2.48115,48.713711,37.4],[2.481099,48.713705,37.4],[2.481054,48.713714,37.4],[2.48106,48.713722,37.4],[2.481097,48.713709,37.4],[2.481119,48.713725,37.4],[2.481163,48.713719,37.3],[2.481225,48.713698,37.2],[2.481237,48.713707,37.3],[2.481213,48.713722,37.3],[2.481222,48.713734,37.3],[2.481234,48.71373,37.3],[2.481238,48.713745,37.3],[2.481252,48.713753,37.3],[2.481234,48.713735,37.3],[2.481197,48.71376,37.3],[2.481182,48.713756,37.4],[2.481184,48.713762,37.4],[2.481176,48.713751,37.4],[2.481136,48.713756,37.4],[2.481125,48.713777,37.5],[2.481112,48.71377,37.5],[2.481093,48.713778,37.5],[2.481093,48.713761,37.5],[2.481078,48.713757,37.4],[2.481085,48.713723,37.4],[2.48105,48.713732,37.5],[2.481056,48.713704,37.4],[2.481095,48.713652,37.3],[2.48114,48.713617,37.1],[2.481091,48.713629,37.2],[2.481054,48.71361,37.1],[2.48107,48.71359,37.1],[2.481078,48.713554,37],[2.481099,48.713524,36.9],[2.481127,48.71353,36.9],[2.481132,48.713508,36.9],[2.481128,48.713521,36.9],[2.481124,48.713515,36.9],[2.481119,48.713521,36.9],[2.481135,48.713512,36.9],[2.48115,48.713522,36.9],[2.481145,48.71354,37],[2.481191,48.713584,37],[2.481282,48.713621,37],[2.481275,48.71362,37.1],[2.48129,48.713626,37],[2.481279,48.713616,37],[2.481295,48.713603,37],[2.481302,48.713616,37],[2.481282,48.713621,37],[2.481282,48.713607,37],[2.481315,48.713647,37],[2.481334,48.713648,37.1],[2.481326,48.713616,37],[2.481294,48.713611,37],[2.481301,48.713611,37],[2.481291,48.713614,37],[2.481304,48.713618,37],[2.481298,48.713621,37],[2.481275,48.713576,36.9],[2.48123,48.713549,36.9],[2.481188,48.713499,36.8],[2.481222,48.713487,36.8],[2.481235,48.71351,36.9],[2.481234,48.713504,36.8],[2.481235,48.713512,36.9],[2.48121,48.713526,36.9],[2.481237,48.713516,36.8],[2.481243,48.713506,36.8],[2.481242,48.713513,36.8],[2.481273,48.713525,36.8],[2.481284,48.71352,36.8],[2.481268,48.713529,36.8],[2.481265,48.713521,36.8],[2.481291,48.713506,36.8],[2.481284,48.713504,36.8],[2.481308,48.713509,36.8],[2.481206,48.713515,36.9],[2.48117,48.713511,36.9],[2.48119,48.713502,36.8],[2.481203,48.713481,36.8],[2.481242,48.713488,36.8],[2.481254,48.713502,36.8],[2.48132,48.713494,36.8],[2.481248,48.713512,36.8],[2.481239,48.7135,36.8],[2.481262,48.7135,36.8],[2.481266,48.713507,36.8],[2.481276,48.713492,36.8],[2.48119,48.713487,36.8],[2.481204,48.713467,36.8],[2.481275,48.713527,36.8],[2.481264,48.713534,36.9],[2.481229,48.713533,36.9],[2.481252,48.713531,36.8],[2.481269,48.71352,36.8],[2.481222,48.713511,36.9],[2.481244,48.713519,36.8],[2.481255,48.713511,36.8],[2.481194,48.713517,36.9],[2.481158,48.713513,36.9],[2.481186,48.71353,36.9],[2.481199,48.713552,36.9],[2.481234,48.713513,36.9],[2.481234,48.713488,36.8],[2.48122,48.71347,36.7],[2.481214,48.713483,36.8],[2.481228,48.713463,36.7],[2.481218,48.713447,36.7],[2.481273,48.713474,36.7],[2.481264,48.713477,36.7],[2.481298,48.713508,36.8],[2.481279,48.713518,36.8],[2.481254,48.713515,36.8],[2.48131,48.713523,36.8],[2.481257,48.713525,36.8],[2.481303,48.713511,36.8],[2.481221,48.713515,36.8],[2.481206,48.713523,36.8],[2.481215,48.713526,36.8],[2.48118,48.713514,36.9],[2.481146,48.713512,36.9],[2.481166,48.713491,36.8],[2.481186,48.713486,36.8],[2.481186,48.713472,36.8],[2.481208,48.713488,36.8],[2.481222,48.713533,36.8],[2.481231,48.713495,36.8],[2.48122,48.713472,36.7],[2.481219,48.713477,36.7],[2.481213,48.713459,36.7],[2.481186,48.713464,36.8],[2.481221,48.713479,36.8],[2.48124,48.713479,36.8],[2.481249,48.713487,36.8],[2.481263,48.713477,36.7],[2.481307,48.713487,36.8],[2.481334,48.713484,36.7],[2.481251,48.713512,36.8],[2.481214,48.713501,36.8],[2.481162,48.713524,36.9],[2.481156,48.713517,36.9],[2.481176,48.713492,36.8],[2.481207,48.713484,36.8],[2.481233,48.713488,36.8],[2.481219,48.713486,36.8],[2.481261,48.713505,36.8],[2.481284,48.713482,36.8],[2.481189,48.713519,36.9],[2.481184,48.713511,36.9],[2.481177,48.71352,36.9],[2.481133,48.713527,36.9],[2.481136,48.713535,36.9],[2.481151,48.71353,36.9],[2.481161,48.7135,36.8],[2.481184,48.713493,36.8],[2.481176,48.713493,36.8],[2.481238,48.713494,36.8],[2.481251,48.7135,36.8],[2.481271,48.713497,36.8],[2.481281,48.713505,36.7],[2.48128,48.713493,36.7],[2.481207,48.713488,36.8],[2.481243,48.713511,36.8],[2.481305,48.713519,36.8],[2.481337,48.713505,36.7],[2.48132,48.713499,36.7],[2.481262,48.713504,36.8],[2.481229,48.713518,36.8],[2.481219,48.713554,36.9],[2.481241,48.713559,36.9],[2.481216,48.713571,37],[2.481179,48.71357,37],[2.481144,48.713548,36.9],[2.481119,48.713542,36.9],[2.48112,48.713495,36.8],[2.481142,48.713464,36.8],[2.481182,48.713465,36.8],[2.481203,48.713453,36.7],[2.481242,48.713474,36.7],[2.481251,48.713492,36.8],[2.481253,48.71348,36.8],[2.481295,48.713482,36.7],[2.48127,48.713478,36.8],[2.481218,48.713489,36.8],[2.481177,48.713488,36.8],[2.481176,48.713495,36.8],[2.481159,48.713498,36.8],[2.48123,48.713448,36.7],[2.481225,48.713443,36.7],[2.481251,48.713454,36.7],[2.481274,48.713485,36.8],[2.481297,48.713493,36.7],[2.481307,48.713488,36.7],[2.481285,48.713502,36.7],[2.481226,48.713497,36.8],[2.48117,48.71348,36.8],[2.481197,48.713465,36.7],[2.481195,48.713471,36.7],[2.481209,48.713469,36.7],[2.481241,48.713486,36.8],[2.481284,48.713489,36.7],[2.481313,48.713483,36.7],[2.481287,48.713494,36.7],[2.481183,48.713506,36.9],[2.481176,48.713499,36.8],[2.481194,48.713445,36.7],[2.481173,48.713449,36.8],[2.481331,48.713449,36.7],[2.481327,48.71344,36.6],[2.481334,48.713466,36.7],[2.481299,48.713525,36.8],[2.481269,48.713533,36.8],[2.48126,48.713543,36.9],[2.481222,48.713554,36.9],[2.481135,48.713553,36.9],[2.481118,48.713566,37],[2.481126,48.71352,36.9],[2.481155,48.713523,36.9],[2.481131,48.713483,36.8],[2.481146,48.71346,36.8],[2.481158,48.713516,36.9],[2.48117,48.713518,36.9],[2.481171,48.713548,36.9],[2.481144,48.713602,37.1],[2.481126,48.713608,37.1],[2.481142,48.713607,37.1],[2.481153,48.713541,36.9],[2.481142,48.713535,36.9],[2.481146,48.713524,36.9],[2.481167,48.713517,36.9],[2.481132,48.713499,36.8],[2.48117,48.713535,36.9],[2.481262,48.713579,36.9],[2.481272,48.713615,37],[2.481275,48.713608,37],[2.481289,48.713607,37],[2.481284,48.713613,37],[2.481269,48.713603,37],[2.48128,48.71361,37],[2.481285,48.713599,37],[2.481276,48.713602,37],[2.48128,48.713609,37],[2.481259,48.713603,37],[2.481271,48.713611,37],[2.481262,48.713612,37],[2.481274,48.713605,37],[2.481259,48.713591,37],[2.481224,48.713586,36.9],[2.48122,48.713558,36.9],[2.481204,48.713543,36.9],[2.481201,48.713523,36.8],[2.48118,48.713509,36.8],[2.481213,48.713506,36.8],[2.481225,48.713498,36.8],[2.481209,48.713496,36.8],[2.481211,48.713507,36.8],[2.481201,48.713505,36.8],[2.481223,48.713508,36.8],[2.481228,48.713502,36.8],[2.481255,48.713513,36.8],[2.481318,48.713498,36.7],[2.481308,48.713508,36.8],[2.481236,48.713518,36.8],[2.481262,48.713524,36.8],[2.481283,48.713552,36.8],[2.481223,48.713608,37],[2.481163,48.713621,37.1],[2.481169,48.713611,37],[2.48114,48.713573,37],[2.481098,48.713553,36.9],[2.4811,48.713533,36.9],[2.481137,48.713497,36.8],[2.481189,48.713469,36.7],[2.481238,48.713504,36.8],[2.481271,48.713494,36.8],[2.481205,48.713498,36.8],[2.481173,48.713507,36.8],[2.481145,48.7135,36.8],[2.481161,48.713492,36.8],[2.481234,48.713499,36.8],[2.481231,48.713492,36.8],[2.48128,48.713477,36.7],[2.481284,48.713487,36.7],[2.481304,48.713494,36.7],[2.481213,48.713516,36.8],[2.481186,48.713529,36.8],[2.481244,48.713512,36.8],[2.481253,48.713518,36.8],[2.481193,48.713519,36.8],[2.481142,48.71351,36.9],[2.481184,48.713503,36.8],[2.481202,48.71348,36.8],[2.481303,48.713485,36.7],[2.481318,48.713476,36.7],[2.481333,48.713487,36.7],[2.481317,48.713504,36.7],[2.481235,48.713501,36.8],[2.48125,48.713517,36.8],[2.481227,48.713491,36.8],[2.48124,48.713498,36.7],[2.481153,48.713501,36.8],[2.48118,48.713494,36.8],[2.481193,48.713503,36.8],[2.481175,48.713489,36.8],[2.481212,48.713492,36.8],[2.481239,48.713486,36.7],[2.481255,48.713503,36.7],[2.481271,48.713497,36.7],[2.48125,48.713484,36.7],[2.481238,48.713489,36.7],[2.481228,48.713513,36.8],[2.481215,48.713518,36.8],[2.481163,48.713514,36.8],[2.48118,48.713511,36.8],[2.481193,48.713519,36.8],[2.481192,48.713487,36.8],[2.481269,48.713501,36.7],[2.481268,48.713507,36.8],[2.48131,48.71352,36.8],[2.481309,48.71351,36.8],[2.481242,48.713526,36.8],[2.481272,48.713503,36.7],[2.48119,48.713517,36.8],[2.481209,48.713514,36.8],[2.481215,48.713503,36.8],[2.481196,48.713497,36.8],[2.481203,48.713476,36.7],[2.481249,48.713481,36.7],[2.481272,48.713496,36.7],[2.481286,48.713484,36.7],[2.48133,48.713478,36.7],[2.481316,48.713491,36.7],[2.481262,48.713511,36.8],[2.481259,48.713494,36.7],[2.481206,48.713508,36.8],[2.481186,48.7135,36.8],[2.481202,48.713489,36.8],[2.481197,48.713478,36.8],[2.481216,48.713466,36.7],[2.481252,48.713469,36.7],[2.481265,48.713485,36.7],[2.48126,48.713481,36.7],[2.481286,48.713495,36.7],[2.48129,48.713515,36.8],[2.481256,48.713509,36.8],[2.481219,48.713492,36.8],[2.481218,48.713472,36.7],[2.481233,48.713481,36.8],[2.48123,48.713474,36.7],[2.481151,48.713492,36.8],[2.481171,48.713464,36.7],[2.481182,48.713465,36.7],[2.481199,48.713451,36.7],[2.481216,48.713451,36.7],[2.481228,48.713473,36.7],[2.481249,48.71347,36.7],[2.481274,48.713479,36.7],[2.481271,48.713485,36.7],[2.481262,48.713481,36.7],[2.481283,48.713474,36.7],[2.481281,48.713485,36.7],[2.481222,48.713505,36.8],[2.48116,48.713485,36.8],[2.481178,48.713463,36.7],[2.481297,48.713498,36.7],[2.48128,48.713541,36.8],[2.48123,48.713568,36.9],[2.481206,48.713558,36.9],[2.481182,48.713517,36.8],[2.481148,48.713487,36.8],[2.481156,48.713473,36.7],[2.481173,48.713468,36.7],[2.481169,48.713464,36.7],[2.481188,48.71348,36.8],[2.481246,48.713489,36.7],[2.481238,48.713488,36.7],[2.481276,48.713505,36.7],[2.481206,48.713514,36.8],[2.48117,48.713506,36.8],[2.481182,48.713478,36.8],[2.481205,48.713477,36.7],[2.48127,48.713499,36.7],[2.481281,48.71349,36.7],[2.481322,48.713498,36.7],[2.481303,48.713522,36.8],[2.481309,48.713535,36.8],[2.481252,48.713551,36.8],[2.48123,48.713569,36.9],[2.481143,48.713546,36.9],[2.48112,48.71349,36.8],[2.48114,48.71345,36.7],[2.481194,48.713432,36.7],[2.481218,48.713445,36.7],[2.481257,48.713488,36.7],[2.481287,48.713483,36.7],[2.481298,48.713489,36.7],[2.481333,48.713486,36.7],[2.481227,48.713504,36.8],[2.481166,48.713477,36.7],[2.481148,48.713478,36.8],[2.481165,48.713477,36.7],[2.481179,48.713466,36.7],[2.481186,48.713474,36.7],[2.481226,48.713459,36.7],[2.48124,48.713462,36.7],[2.48124,48.713477,36.7],[2.481269,48.713482,36.7],[2.481272,48.713493,36.7],[2.481271,48.713488,36.7],[2.481277,48.713493,36.7],[2.481296,48.713482,36.7],[2.481219,48.713491,36.7],[2.481208,48.713516,36.8],[2.481232,48.713512,36.8],[2.48128,48.713564,36.9],[2.481284,48.713606,36.9],[2.481253,48.713628,37],[2.481199,48.713617,37],[2.481125,48.713579,37],[2.481116,48.713567,37],[2.481123,48.713513,36.8],[2.481136,48.713502,36.8],[2.481121,48.713493,36.8],[2.481148,48.713522,36.8],[2.481152,48.713516,36.8],[2.481217,48.713569,36.9],[2.481231,48.713599,37],[2.481246,48.713608,36.9],[2.481264,48.713599,36.9],[2.481259,48.713594,36.9],[2.481267,48.713598,36.9],[2.481285,48.713592,36.9],[2.481305,48.713605,36.9],[2.481254,48.713616,36.9],[2.481237,48.71361,36.9],[2.481181,48.713625,37.1],[2.481152,48.713612,37],[2.481124,48.713623,37.1],[2.481079,48.713606,37.1],[2.481077,48.713589,37],[2.481102,48.713559,36.9],[2.481107,48.713512,36.9],[2.481226,48.713574,36.9],[2.481281,48.713581,36.9],[2.481308,48.713599,36.9],[2.48131,48.713625,37],[2.481301,48.71363,37],[2.481292,48.713616,36.9],[2.481299,48.713621,37],[2.481292,48.713624,37],[2.481291,48.713599,36.9],[2.481302,48.713593,36.9],[2.481273,48.713618,36.9],[2.481279,48.713629,37],[2.481266,48.71363,37],[2.481276,48.713663,37.1],[2.481267,48.713667,37.1],[2.481256,48.713707,37.2],[2.481224,48.713727,37.2],[2.481217,48.713723,37.2],[2.481199,48.713738,37.3],[2.481193,48.713731,37.2],[2.48116,48.713747,37.3],[2.481133,48.71375,37.3],[2.481148,48.713761,37.4],[2.481144,48.713744,37.3],[2.481102,48.713718,37.3],[2.481167,48.713725,37.2],[2.481182,48.713743,37.3],[2.481162,48.713734,37.3],[2.481104,48.713764,37.4],[2.481112,48.713752,37.3],[2.481147,48.713742,37.3],[2.481144,48.713752,37.3],[2.481171,48.71374,37.3],[2.481185,48.713751,37.3],[2.481148,48.713763,37.4],[2.481204,48.71374,37.3],[2.481192,48.713757,37.3],[2.481165,48.713743,37.3],[2.481139,48.713753,37.3],[2.481136,48.713762,37.4],[2.481134,48.713718,37.3],[2.481138,48.713723,37.3],[2.481189,48.713705,37.2],[2.481197,48.713632,37],[2.48122,48.713631,37],[2.481247,48.713673,37.1],[2.481242,48.713712,37.2],[2.481171,48.71374,37.3],[2.481085,48.713734,37.4],[2.481132,48.713749,37.3],[2.481208,48.713727,37.2],[2.481223,48.71373,37.2],[2.481172,48.713725,37.2],[2.481182,48.713734,37.3],[2.481136,48.713721,37.3],[2.481153,48.713716,37.2],[2.481168,48.713731,37.2],[2.481226,48.713707,37.2],[2.481219,48.713703,37.1],[2.481209,48.713712,37.2],[2.48122,48.71371,37.2],[2.48113,48.713734,37.3],[2.481136,48.713729,37.3],[2.481116,48.713714,37.3],[2.481143,48.713702,37.2],[2.481179,48.713707,37.2],[2.481202,48.713727,37.2],[2.481149,48.713723,37.3],[2.481091,48.71375,37.4],[2.481115,48.713719,37.3],[2.481105,48.713702,37.2],[2.48116,48.713696,37.2],[2.481181,48.713713,37.2],[2.481113,48.713747,37.3],[2.481095,48.713748,37.4],[2.481116,48.71374,37.3],[2.481132,48.713749,37.3],[2.481144,48.713722,37.3],[2.481196,48.713728,37.2],[2.481119,48.713754,37.3],[2.481129,48.713761,37.4],[2.481144,48.713726,37.3],[2.481133,48.713732,37.3],[2.481196,48.713746,37.3],[2.481214,48.713742,37.3],[2.481158,48.713726,37.2],[2.481148,48.71374,37.3],[2.481166,48.713715,37.2],[2.481155,48.713703,37.2],[2.481166,48.713684,37.2],[2.481204,48.713702,37.1],[2.481202,48.713716,37.2],[2.4811,48.713735,37.4],[2.481139,48.713721,37.3],[2.48119,48.713722,37.2],[2.48118,48.71371,37.2],[2.481145,48.713716,37.3],[2.481128,48.713731,37.3],[2.481127,48.713746,37.3],[2.481111,48.713729,37.3],[2.481136,48.71375,37.3],[2.481191,48.713734,37.3],[2.481112,48.713724,37.3],[2.481133,48.713717,37.3],[2.481181,48.713727,37.2],[2.481188,48.713723,37.2],[2.481158,48.713719,37.2],[2.481086,48.713726,37.3],[2.481064,48.713738,37.4],[2.481084,48.713728,37.3],[2.481071,48.713734,37.4],[2.481092,48.713727,37.3],[2.481171,48.713746,37.3],[2.4812,48.713739,37.3],[2.481158,48.713732,37.3],[2.481118,48.71374,37.3],[2.481128,48.713732,37.3],[2.4812,48.713716,37.2],[2.481193,48.713715,37.2],[2.481191,48.71373,37.2],[2.481217,48.713749,37.3],[2.481122,48.713692,37.2],[2.481103,48.713671,37.2],[2.481108,48.713619,37.1],[2.48115,48.713606,37],[2.481185,48.713616,37],[2.481211,48.71366,37.1],[2.481227,48.713663,37.1],[2.481241,48.713722,37.2],[2.481231,48.713733,37.3],[2.481203,48.713731,37.2],[2.481153,48.713745,37.3],[2.48114,48.713742,37.3],[2.481149,48.713716,37.3],[2.481169,48.713713,37.2],[2.481203,48.713727,37.2],[2.48121,48.713744,37.3],[2.481149,48.713739,37.3],[2.481134,48.713746,37.3],[2.481203,48.713745,37.3],[2.481201,48.713729,37.2],[2.481106,48.71374,37.4],[2.481104,48.713722,37.3],[2.48115,48.713709,37.3],[2.481181,48.713723,37.2],[2.481153,48.713716,37.2],[2.481118,48.713724,37.3],[2.481136,48.713709,37.3],[2.481197,48.713714,37.2],[2.481163,48.713704,37.2],[2.481153,48.713729,37.2],[2.481162,48.713706,37.2],[2.481192,48.713733,37.3],[2.481207,48.713731,37.2],[2.481199,48.713721,37.2],[2.481199,48.713728,37.2],[2.48117,48.713734,37.3],[2.481162,48.713728,37.2],[2.481167,48.713736,37.3],[2.481131,48.713722,37.3],[2.481107,48.71373,37.3],[2.481127,48.71376,37.3],[2.481115,48.713752,37.3],[2.481129,48.713732,37.3],[2.481169,48.713728,37.2],[2.481172,48.713734,37.3],[2.481186,48.713728,37.2],[2.481175,48.713727,37.2],[2.481148,48.713745,37.3],[2.481143,48.713734,37.3],[2.48119,48.713731,37.2],[2.481169,48.713723,37.2],[2.481102,48.71372,37.3],[2.481095,48.713725,37.3],[2.481175,48.713733,37.3],[2.481175,48.713739,37.3],[2.481135,48.713729,37.3],[2.481096,48.71375,37.4],[2.481135,48.713734,37.3],[2.481168,48.713736,37.3],[2.481172,48.713731,37.2],[2.481137,48.713734,37.3],[2.481156,48.713717,37.2],[2.481127,48.713705,37.3],[2.481143,48.713712,37.3],[2.481187,48.713702,37.2],[2.481197,48.713731,37.2],[2.48118,48.713741,37.3],[2.481094,48.713742,37.4],[2.481138,48.713699,37.2],[2.481126,48.713698,37.2],[2.481141,48.713724,37.3],[2.481182,48.713714,37.2],[2.481165,48.71372,37.2],[2.481154,48.713748,37.3],[2.481118,48.71373,37.3],[2.481146,48.71371,37.3],[2.481167,48.713626,37],[2.481242,48.713699,37.1],[2.481234,48.71372,37.2],[2.481203,48.713717,37.2],[2.48123,48.713707,37.2],[2.481273,48.713727,37.2],[2.481263,48.713764,37.3],[2.481244,48.713754,37.2],[2.481196,48.713764,37.3],[2.481179,48.713757,37.3],[2.481152,48.71376,37.3],[2.481087,48.713747,37.4],[2.481043,48.713747,37.4],[2.481062,48.713692,37.3],[2.48111,48.713661,37.1],[2.481117,48.713636,37.1],[2.481134,48.71362,37.1],[2.481113,48.71362,37.1],[2.481181,48.713601,37],[2.481203,48.713585,36.9],[2.481251,48.713634,37],[2.481291,48.713639,37],[2.48129,48.713646,37],[2.481263,48.713638,37],[2.481275,48.713604,36.9],[2.481227,48.713578,36.9],[2.481235,48.71357,36.9],[2.481164,48.713538,36.8],[2.48114,48.713541,36.9],[2.481114,48.713533,36.8],[2.481163,48.713494,36.7],[2.481201,48.713504,36.7],[2.481232,48.7135,36.7],[2.481238,48.713505,36.7],[2.481257,48.713493,36.7],[2.48124,48.713509,36.7],[2.481304,48.713489,36.7],[2.481318,48.713505,36.7],[2.481332,48.713496,36.7],[2.481383,48.713501,36.6],[2.481247,48.71348,36.7],[2.481263,48.713488,36.7],[2.48125,48.713506,36.7],[2.481271,48.713501,36.7],[2.481239,48.713484,36.7],[2.481246,48.713476,36.6],[2.481264,48.713495,36.7],[2.481239,48.713515,36.7],[2.48121,48.71351,36.8],[2.481263,48.713506,36.7],[2.481232,48.713519,36.8],[2.481142,48.713524,36.8],[2.481219,48.713486,36.7],[2.481239,48.713501,36.7],[2.481278,48.7135,36.7],[2.481322,48.713512,36.7],[2.481348,48.713501,36.7],[2.481303,48.713464,36.6],[2.481212,48.713462,36.7],[2.481197,48.713475,36.7],[2.481228,48.713516,36.8],[2.481245,48.713512,36.7],[2.481239,48.713524,36.7],[2.481266,48.713524,36.7],[2.481268,48.713533,36.7],[2.481296,48.713541,36.8],[2.4812,48.713543,36.8],[2.481161,48.71352,36.8],[2.481163,48.713503,36.7],[2.481186,48.713484,36.7],[2.481217,48.713479,36.7],[2.481276,48.713496,36.7],[2.481285,48.713489,36.7],[2.481304,48.71349,36.7],[2.481315,48.713477,36.6],[2.481252,48.713496,36.7],[2.481205,48.71349,36.7],[2.481213,48.713491,36.7],[2.481135,48.713501,36.7],[2.48115,48.713504,36.7],[2.4812,48.713491,36.7],[2.481255,48.713495,36.7],[2.481274,48.713483,36.7],[2.481273,48.713474,36.6],[2.481293,48.713472,36.6],[2.481259,48.713475,36.6],[2.481218,48.713463,36.7],[2.481216,48.713474,36.7],[2.481174,48.713492,36.7],[2.481211,48.713471,36.7],[2.481215,48.71346,36.7],[2.481238,48.713478,36.7],[2.481278,48.713491,36.7],[2.481278,48.713483,36.7],[2.481296,48.713483,36.7],[2.481298,48.713496,36.7],[2.48128,48.713489,36.7],[2.481279,48.713499,36.7],[2.481295,48.713486,36.7],[2.48131,48.713496,36.7],[2.481267,48.713494,36.7],[2.481252,48.713468,36.6],[2.481212,48.713459,36.7],[2.481234,48.713455,36.7],[2.481269,48.7135,36.7],[2.481306,48.713507,36.7],[2.481278,48.713508,36.7],[2.481262,48.713486,36.7],[2.48123,48.71347,36.7],[2.481225,48.713483,36.7],[2.481241,48.713467,36.6],[2.481275,48.713512,36.7],[2.481317,48.713514,36.7],[2.481358,48.713505,36.6],[2.481377,48.713519,36.7],[2.481305,48.713532,36.7],[2.481261,48.713508,36.7],[2.481208,48.713493,36.7],[2.481169,48.713499,36.7],[2.481196,48.713497,36.7],[2.48127,48.71351,36.7],[2.481274,48.713503,36.7],[2.481282,48.713514,36.7],[2.481306,48.713502,36.7],[2.481262,48.713503,36.7],[2.481247,48.713485,36.7],[2.481261,48.713451,36.6],[2.481233,48.713457,36.7],[2.481246,48.713459,36.6],[2.481257,48.713493,36.7],[2.481284,48.713505,36.7],[2.481304,48.713487,36.7],[2.481296,48.713499,36.7],[2.481261,48.713507,36.7],[2.481238,48.713495,36.7],[2.481226,48.713504,36.7],[2.481225,48.713495,36.7],[2.481238,48.713493,36.7],[2.481242,48.71348,36.7],[2.481228,48.713472,36.6],[2.481231,48.71348,36.7],[2.481269,48.713485,36.7],[2.481293,48.713474,36.6],[2.481303,48.713502,36.7],[2.481368,48.713489,36.6],[2.481245,48.713489,36.7],[2.481245,48.713483,36.7],[2.481224,48.713513,36.7],[2.481208,48.713521,36.7],[2.481167,48.713517,36.8],[2.481164,48.713529,36.8],[2.481193,48.713524,36.8],[2.481223,48.713535,36.8],[2.481216,48.713506,36.7],[2.481225,48.713481,36.7],[2.481291,48.713457,36.6],[2.48126,48.713499,36.7],[2.481262,48.71349,36.7],[2.481313,48.713499,36.7],[2.481308,48.713481,36.7],[2.481273,48.713474,36.6],[2.481258,48.713484,36.7],[2.481263,48.713503,36.7],[2.481273,48.713494,36.7],[2.481289,48.713506,36.7],[2.481286,48.713522,36.7],[2.48122,48.713493,36.7],[2.481176,48.713487,36.7],[2.481227,48.713461,36.6],[2.481256,48.713469,36.6],[2.481287,48.713495,36.7],[2.481316,48.713505,36.7],[2.48128,48.713516,36.7],[2.48126,48.713513,36.7],[2.481217,48.713479,36.7],[2.481182,48.713476,36.7],[2.48121,48.713463,36.6],[2.481264,48.713465,36.6],[2.481256,48.713474,36.6],[2.48126,48.71347,36.6],[2.481244,48.713484,36.7],[2.481254,48.713501,36.7],[2.481277,48.713467,36.6],[2.481315,48.713449,36.6],[2.481333,48.713449,36.6],[2.48134,48.713458,36.6],[2.481317,48.713499,36.7],[2.481311,48.713492,36.7],[2.48128,48.713538,36.8],[2.481136,48.71355,36.8],[2.481129,48.713545,36.8],[2.48115,48.713533,36.8],[2.481127,48.713475,36.7],[2.481137,48.713448,36.6],[2.481163,48.713448,36.6],[2.481167,48.713503,36.7],[2.481178,48.713503,36.7],[2.481199,48.71355,36.8],[2.481232,48.713563,36.9],[2.481249,48.713582,36.8],[2.481265,48.713583,36.8],[2.481324,48.713627,36.9],[2.481315,48.713626,36.9],[2.481319,48.713621,36.9],[2.481286,48.713624,36.9],[2.481278,48.713611,36.9],[2.481272,48.713618,36.9],[2.481238,48.713621,37],[2.481241,48.713609,36.9],[2.481259,48.71361,36.9],[2.48132,48.713642,36.9],[2.481279,48.713649,37],[2.481236,48.713621,37],[2.481251,48.71362,36.9],[2.481278,48.713636,36.9],[2.481275,48.71363,36.9],[2.481305,48.713628,36.9],[2.48129,48.713575,36.8],[2.48129,48.713593,36.9],[2.481279,48.713582,36.8],[2.481292,48.713586,36.8],[2.481281,48.713594,36.9],[2.481207,48.713535,36.8],[2.481168,48.713525,36.8],[2.481125,48.713481,36.7],[2.481129,48.713469,36.7],[2.481148,48.713461,36.7],[2.481118,48.713485,36.7],[2.481005,48.713511,36.8],[2.480891,48.713576,37],[2.480862,48.713607,37.1],[2.480856,48.713651,37.3],[2.480823,48.713683,37.4],[2.480805,48.713716,37.5],[2.480794,48.713714,37.5]]}}]}