{"type":"FeatureCollection","features":[{"type":"Feature","properties":{"name":"Costa Rica - Trajet en bateau pour revenir du Parque Nacional Corcovado","type":"bateau","time":"2026-08-25T18:39:14Z","coordTimes":["2026-08-25T18:39:14Z","2026-08-25T18:39:17Z","2026-08-25T18:39:22Z","2026-08-25T18:39:30Z","2026-08-25T18:39:35Z","2026-08-25T18:39:40Z","2026-08-25T18:39:43Z","2026-08-25T18:39:53Z","2026-08-25T18:39:55Z","2026-08-25T18:40:10Z","2026-08-25T18:40:11Z","2026-08-25T18:40:20Z","2026-08-25T18:40:22Z","2026-08-25T18:40:23Z","2026-08-25T18:40:24Z","2026-08-25T18:40:31Z","2026-08-25T18:40:35Z","2026-08-25T18:40:45Z","2026-08-25T18:40:50Z","2026-08-25T18:40:52Z","2026-08-25T18:41:04Z","2026-08-25T18:41:11Z","2026-08-25T18:41:13Z","2026-08-25T18:41:16Z","2026-08-25T18:41:20Z","2026-08-25T18:41:24Z","2026-08-25T18:41:29Z","2026-08-25T18:41:35Z","2026-08-25T18:41:45Z","2026-08-25T18:41:47Z","2026-08-25T18:41:49Z","2026-08-25T18:41:50Z","2026-08-25T18:41:52Z","2026-08-25T18:41:56Z","2026-08-25T18:42:01Z","2026-08-25T18:42:07Z","2026-08-25T18:42:12Z","2026-08-25T18:42:15Z","2026-08-25T18:42:16Z","2026-08-25T18:42:20Z","2026-08-25T18:42:22Z","2026-08-25T18:42:27Z","2026-08-25T18:42:32Z","2026-08-25T18:42:35Z","2026-08-25T18:42:37Z","2026-08-25T18:42:42Z","2026-08-25T18:42:48Z","2026-08-25T18:42:52Z","2026-08-25T18:43:01Z","2026-08-25T18:43:04Z","2026-08-25T18:43:10Z","2026-08-25T18:43:16Z","2026-08-25T18:43:24Z","2026-08-25T18:43:26Z","2026-08-25T18:43:29Z","2026-08-25T18:43:31Z","2026-08-25T18:43:34Z","2026-08-25T18:43:35Z","2026-08-25T18:43:39Z","2026-08-25T18:43:48Z","2026-08-25T18:43:49Z","2026-08-25T18:43:52Z","2026-08-25T18:43:55Z","2026-08-25T18:44:04Z","2026-08-25T18:44:06Z","2026-08-25T18:44:10Z","2026-08-25T18:44:11Z","2026-08-25T18:44:18Z","2026-08-25T18:44:20Z","2026-08-25T18:44:24Z","2026-08-25T18:44:27Z","2026-08-25T18:44:29Z","2026-08-25T18:44:34Z","2026-08-25T18:44:36Z","2026-08-25T18:44:38Z","2026-08-25T18:44:40Z","2026-08-25T18:44:44Z","2026-08-25T18:44:56Z","2026-08-25T18:45:02Z","2026-08-25T18:45:06Z","2026-08-25T18:45:08Z","2026-08-25T18:45:11Z","2026-08-25T18:45:12Z","2026-08-25T18:45:15Z","2026-08-25T18:45:18Z","2026-08-25T18:45:19Z","2026-08-25T18:45:26Z","2026-08-25T18:45:28Z","2026-08-25T18:45:29Z","2026-08-25T18:45:31Z","2026-08-25T18:45:36Z","2026-08-25T18:45:40Z","2026-08-25T18:45:42Z","2026-08-25T18:45:47Z","2026-08-25T18:45:54Z","2026-08-25T18:46:00Z","2026-08-25T18:46:03Z","2026-08-25T18:46:14Z","2026-08-25T18:46:18Z","2026-08-25T18:46:23Z","2026-08-25T18:46:25Z","2026-08-25T18:46:31Z","2026-08-25T18:46:33Z","2026-08-25T18:46:44Z","2026-08-25T18:46:46Z","2026-08-25T18:46:48Z","2026-08-25T18:46:52Z","2026-08-25T18:46:55Z","2026-08-25T18:47:01Z","2026-08-25T18:47:05Z","2026-08-25T18:47:08Z","2026-08-25T18:47:14Z","2026-08-25T18:47:23Z","2026-08-25T18:47:26Z","2026-08-25T18:47:28Z","2026-08-25T18:47:32Z","2026-08-25T18:47:39Z","2026-08-25T18:47:44Z","2026-08-25T18:47:48Z","2026-08-25T18:47:52Z","2026-08-25T18:47:58Z","2026-08-25T18:48:02Z","2026-08-25T18:48:08Z","2026-08-25T18:48:12Z","2026-08-25T18:48:19Z","2026-08-25T18:48:25Z","2026-08-25T18:48:30Z","2026-08-25T18:48:37Z","2026-08-25T18:48:39Z","2026-08-25T18:48:44Z","2026-08-25T18:48:49Z","2026-08-25T18:48:53Z","2026-08-25T18:49:01Z","2026-08-25T18:49:05Z","2026-08-25T18:49:09Z","2026-08-25T18:49:14Z","2026-08-25T18:49:20Z","2026-08-25T18:49:25Z","2026-08-25T18:49:30Z","2026-08-25T18:49:33Z","2026-08-25T18:49:35Z","2026-08-25T18:49:38Z","2026-08-25T18:49:41Z","2026-08-25T18:49:45Z","2026-08-25T18:49:55Z","2026-08-25T18:50:02Z","2026-08-25T18:50:05Z","2026-08-25T18:50:13Z","2026-08-25T18:50:18Z","2026-08-25T18:50:28Z","2026-08-25T18:50:32Z","2026-08-25T18:50:36Z","2026-08-25T18:50:39Z","2026-08-25T18:50:51Z","2026-08-25T18:50:56Z","2026-08-25T18:50:59Z","2026-08-25T18:51:02Z","2026-08-25T18:51:08Z","2026-08-25T18:51:13Z","2026-08-25T18:51:21Z","2026-08-25T18:51:28Z","2026-08-25T18:51:31Z","2026-08-25T18:51:32Z","2026-08-25T18:51:35Z","2026-08-25T18:51:44Z","2026-08-25T18:51:54Z","2026-08-25T18:52:00Z","2026-08-25T18:52:05Z","2026-08-25T18:52:10Z","2026-08-25T18:52:12Z","2026-08-25T18:52:18Z","2026-08-25T18:52:22Z","2026-08-25T18:52:25Z","2026-08-25T18:52:31Z","2026-08-25T18:52:34Z","2026-08-25T18:52:37Z","2026-08-25T18:52:39Z","2026-08-25T18:52:43Z","2026-08-25T18:52:45Z","2026-08-25T18:52:48Z","2026-08-25T18:52:53Z","2026-08-25T18:52:57Z","2026-08-25T18:53:00Z","2026-08-25T18:53:03Z","2026-08-25T18:53:08Z","2026-08-25T18:53:23Z","2026-08-25T18:53:26Z","2026-08-25T18:53:34Z","2026-08-25T18:53:37Z","2026-08-25T18:53:43Z","2026-08-25T18:53:46Z","2026-08-25T18:53:56Z","2026-08-25T18:54:00Z","2026-08-25T18:54:04Z","2026-08-25T18:54:10Z","2026-08-25T18:54:12Z","2026-08-25T18:54:19Z","2026-08-25T18:54:21Z","2026-08-25T18:54:23Z","2026-08-25T18:54:27Z","2026-08-25T18:54:38Z","2026-08-25T18:54:39Z","2026-08-25T18:54:42Z","2026-08-25T18:54:47Z","2026-08-25T18:54:50Z","2026-08-25T18:54:52Z","2026-08-25T18:54:54Z","2026-08-25T18:54:57Z","2026-08-25T18:55:08Z","2026-08-25T18:55:14Z","2026-08-25T18:55:19Z","2026-08-25T18:55:23Z","2026-08-25T18:55:32Z","2026-08-25T18:55:33Z","2026-08-25T18:55:38Z","2026-08-25T18:55:43Z","2026-08-25T18:55:54Z","2026-08-25T18:55:59Z","2026-08-25T18:56:03Z","2026-08-25T18:56:05Z","2026-08-25T18:56:11Z","2026-08-25T18:56:13Z","2026-08-25T18:56:26Z","2026-08-25T18:56:28Z","2026-08-25T18:56:33Z","2026-08-25T18:56:35Z","2026-08-25T18:56:37Z","2026-08-25T18:56:41Z","2026-08-25T18:56:45Z","2026-08-25T18:56:53Z","2026-08-25T18:56:57Z","2026-08-25T18:57:02Z","2026-08-25T18:57:06Z","2026-08-25T18:57:09Z","2026-08-25T18:57:16Z","2026-08-25T18:57:19Z","2026-08-25T18:57:23Z","2026-08-25T18:57:27Z","2026-08-25T18:57:42Z","2026-08-25T18:57:46Z","2026-08-25T18:57:54Z","2026-08-25T18:58:00Z","2026-08-25T18:58:05Z","2026-08-25T18:58:09Z","2026-08-25T18:58:14Z","2026-08-25T18:58:20Z","2026-08-25T18:58:23Z","2026-08-25T18:58:32Z","2026-08-25T18:58:40Z","2026-08-25T18:58:45Z","2026-08-25T18:58:47Z","2026-08-25T18:58:50Z","2026-08-25T18:58:52Z","2026-08-25T18:58:54Z","2026-08-25T18:58:57Z","2026-08-25T18:59:01Z","2026-08-25T18:59:03Z","2026-08-25T18:59:06Z","2026-08-25T18:59:17Z","2026-08-25T18:59:27Z","2026-08-25T18:59:29Z","2026-08-25T18:59:34Z","2026-08-25T18:59:36Z","2026-08-25T18:59:39Z","2026-08-25T18:59:46Z","2026-08-25T18:59:51Z","2026-08-25T18:59:54Z","2026-08-25T18:59:56Z","2026-08-25T19:00:03Z","2026-08-25T19:00:07Z","2026-08-25T19:00:16Z","2026-08-25T19:00:21Z","2026-08-25T19:00:27Z","2026-08-25T19:00:30Z","2026-08-25T19:00:36Z","2026-08-25T19:00:42Z","2026-08-25T19:00:48Z","2026-08-25T19:00:58Z","2026-08-25T19:01:04Z","2026-08-25T19:01:07Z","2026-08-25T19:01:10Z","2026-08-25T19:01:18Z","2026-08-25T19:01:30Z","2026-08-25T19:01:33Z","2026-08-25T19:01:36Z","2026-08-25T19:01:41Z","2026-08-25T19:01:46Z","2026-08-25T19:01:49Z","2026-08-25T19:01:53Z","2026-08-25T19:01:58Z","2026-08-25T19:02:06Z","2026-08-25T19:02:12Z","2026-08-25T19:02:14Z","2026-08-25T19:02:17Z","2026-08-25T19:02:29Z","2026-08-25T19:02:34Z","2026-08-25T19:02:41Z","2026-08-25T19:02:46Z","2026-08-25T19:02:48Z","2026-08-25T19:02:52Z","2026-08-25T19:02:55Z","2026-08-25T19:02:56Z","2026-08-25T19:03:01Z","2026-08-25T19:03:02Z","2026-08-25T19:03:06Z","2026-08-25T19:03:10Z","2026-08-25T19:03:18Z","2026-08-25T19:03:19Z","2026-08-25T19:03:23Z","2026-08-25T19:03:35Z","2026-08-25T19:03:46Z","2026-08-25T19:03:49Z","2026-08-25T19:03:52Z","2026-08-25T19:03:59Z","2026-08-25T19:04:02Z","2026-08-25T19:04:06Z","2026-08-25T19:04:17Z","2026-08-25T19:04:20Z","2026-08-25T19:04:25Z","2026-08-25T19:04:27Z","2026-08-25T19:04:29Z","2026-08-25T19:04:34Z","2026-08-25T19:04:37Z","2026-08-25T19:04:47Z","2026-08-25T19:04:52Z","2026-08-25T19:04:55Z","2026-08-25T19:04:59Z","2026-08-25T19:05:03Z","2026-08-25T19:05:07Z","2026-08-25T19:05:20Z","2026-08-25T19:05:22Z","2026-08-25T19:05:30Z","2026-08-25T19:05:33Z","2026-08-25T19:05:34Z","2026-08-25T19:05:39Z","2026-08-25T19:05:43Z","2026-08-25T19:05:45Z","2026-08-25T19:05:51Z","2026-08-25T19:05:52Z","2026-08-25T19:05:54Z","2026-08-25T19:05:57Z","2026-08-25T19:06:00Z","2026-08-25T19:06:06Z","2026-08-25T19:06:09Z","2026-08-25T19:06:15Z","2026-08-25T19:06:22Z","2026-08-25T19:06:27Z","2026-08-25T19:06:34Z","2026-08-25T19:06:39Z","2026-08-25T19:06:44Z","2026-08-25T19:06:47Z","2026-08-25T19:06:51Z","2026-08-25T19:06:54Z","2026-08-25T19:06:56Z","2026-08-25T19:07:05Z","2026-08-25T19:07:18Z","2026-08-25T19:07:24Z","2026-08-25T19:07:26Z","2026-08-25T19:07:34Z","2026-08-25T19:07:37Z","2026-08-25T19:07:40Z","2026-08-25T19:07:42Z","2026-08-25T19:07:44Z","2026-08-25T19:07:51Z","2026-08-25T19:07:52Z","2026-08-25T19:07:57Z","2026-08-25T19:08:00Z","2026-08-25T19:08:08Z","2026-08-25T19:08:11Z","2026-08-25T19:08:18Z","2026-08-25T19:08:22Z","2026-08-25T19:08:27Z","2026-08-25T19:08:31Z","2026-08-25T19:08:35Z","2026-08-25T19:08:38Z","2026-08-25T19:08:43Z","2026-08-25T19:08:50Z","2026-08-25T19:08:53Z","2026-08-25T19:08:55Z","2026-08-25T19:08:57Z","2026-08-25T19:08:58Z","2026-08-25T19:09:01Z","2026-08-25T19:09:04Z","2026-08-25T19:09:14Z","2026-08-25T19:09:16Z","2026-08-25T19:09:19Z","2026-08-25T19:09:21Z","2026-08-25T19:09:26Z","2026-08-25T19:09:28Z","2026-08-25T19:09:34Z","2026-08-25T19:09:39Z","2026-08-25T19:09:46Z","2026-08-25T19:09:56Z","2026-08-25T19:10:00Z","2026-08-25T19:10:02Z","2026-08-25T19:10:05Z","2026-08-25T19:10:08Z","2026-08-25T19:10:11Z","2026-08-25T19:10:14Z","2026-08-25T19:10:31Z","2026-08-25T19:10:39Z","2026-08-25T19:10:44Z","2026-08-25T19:10:55Z","2026-08-25T19:11:04Z","2026-08-25T19:11:05Z","2026-08-25T19:11:07Z","2026-08-25T19:11:13Z","2026-08-25T19:11:15Z","2026-08-25T19:11:21Z","2026-08-25T19:11:25Z","2026-08-25T19:11:34Z","2026-08-25T19:11:44Z","2026-08-25T19:11:46Z","2026-08-25T19:11:48Z","2026-08-25T19:11:58Z","2026-08-25T19:12:05Z","2026-08-25T19:12:10Z","2026-08-25T19:12:12Z","2026-08-25T19:12:15Z","2026-08-25T19:12:30Z","2026-08-25T19:12:34Z","2026-08-25T19:12:39Z","2026-08-25T19:12:44Z","2026-08-25T19:12:50Z","2026-08-25T19:13:00Z","2026-08-25T19:13:04Z","2026-08-25T19:13:06Z","2026-08-25T19:13:10Z","2026-08-25T19:13:13Z","2026-08-25T19:13:15Z","2026-08-25T19:13:21Z","2026-08-25T19:13:28Z","2026-08-25T19:13:31Z","2026-08-25T19:13:35Z","2026-08-25T19:13:39Z","2026-08-25T19:13:42Z","2026-08-25T19:13:48Z","2026-08-25T19:13:52Z","2026-08-25T19:13:54Z","2026-08-25T19:13:57Z","2026-08-25T19:14:02Z","2026-08-25T19:14:08Z","2026-08-25T19:14:16Z","2026-08-25T19:14:21Z","2026-08-25T19:14:28Z","2026-08-25T19:14:33Z","2026-08-25T19:14:35Z","2026-08-25T19:14:41Z","2026-08-25T19:14:43Z","2026-08-25T19:14:52Z","2026-08-25T19:14:58Z","2026-08-25T19:15:04Z","2026-08-25T19:15:10Z","2026-08-25T19:15:17Z","2026-08-25T19:15:24Z","2026-08-25T19:15:27Z","2026-08-25T19:15:34Z","2026-08-25T19:15:40Z","2026-08-25T19:15:47Z","2026-08-25T19:15:49Z","2026-08-25T19:15:54Z","2026-08-25T19:15:58Z","2026-08-25T19:16:00Z","2026-08-25T19:16:02Z","2026-08-25T19:16:04Z","2026-08-25T19:16:14Z","2026-08-25T19:16:20Z","2026-08-25T19:16:28Z","2026-08-25T19:16:35Z","2026-08-25T19:16:46Z","2026-08-25T19:16:55Z","2026-08-25T19:16:56Z","2026-08-25T19:17:05Z","2026-08-25T19:17:12Z","2026-08-25T19:17:16Z","2026-08-25T19:17:19Z","2026-08-25T19:17:27Z","2026-08-25T19:17:29Z","2026-08-25T19:17:33Z","2026-08-25T19:17:36Z","2026-08-25T19:17:42Z","2026-08-25T19:17:53Z","2026-08-25T19:18:07Z","2026-08-25T19:18:18Z","2026-08-25T19:18:24Z","2026-08-25T19:18:26Z","2026-08-25T19:18:31Z","2026-08-25T19:18:34Z","2026-08-25T19:18:38Z","2026-08-25T19:18:43Z","2026-08-25T19:18:54Z","2026-08-25T19:19:01Z","2026-08-25T19:19:03Z","2026-08-25T19:19:05Z","2026-08-25T19:19:08Z","2026-08-25T19:19:14Z","2026-08-25T19:19:17Z","2026-08-25T19:19:23Z","2026-08-25T19:19:32Z","2026-08-25T19:19:41Z","2026-08-25T19:19:45Z","2026-08-25T19:19:51Z","2026-08-25T19:19:53Z","2026-08-25T19:20:00Z","2026-08-25T19:20:07Z","2026-08-25T19:20:10Z","2026-08-25T19:20:22Z","2026-08-25T19:20:23Z","2026-08-25T19:20:41Z","2026-08-25T19:20:44Z","2026-08-25T19:20:46Z","2026-08-25T19:20:48Z","2026-08-25T19:20:51Z","2026-08-25T19:20:55Z","2026-08-25T19:20:58Z","2026-08-25T19:21:03Z","2026-08-25T19:21:09Z","2026-08-25T19:21:12Z","2026-08-25T19:21:16Z","2026-08-25T19:21:23Z","2026-08-25T19:21:26Z","2026-08-25T19:21:29Z","2026-08-25T19:21:32Z","2026-08-25T19:21:34Z","2026-08-25T19:21:38Z","2026-08-25T19:21:41Z","2026-08-25T19:21:45Z","2026-08-25T19:21:48Z","2026-08-25T19:21:51Z","2026-08-25T19:21:55Z","2026-08-25T19:22:01Z","2026-08-25T19:22:05Z","2026-08-25T19:22:08Z","2026-08-25T19:22:15Z","2026-08-25T19:22:26Z","2026-08-25T19:22:29Z","2026-08-25T19:22:32Z","2026-08-25T19:22:35Z","2026-08-25T19:22:41Z","2026-08-25T19:22:46Z","2026-08-25T19:22:53Z","2026-08-25T19:23:04Z","2026-08-25T19:23:08Z","2026-08-25T19:23:10Z","2026-08-25T19:23:20Z","2026-08-25T19:23:25Z","2026-08-25T19:23:31Z","2026-08-25T19:23:35Z","2026-08-25T19:23:50Z","2026-08-25T19:23:55Z","2026-08-25T19:24:01Z","2026-08-25T19:24:04Z","2026-08-25T19:24:13Z","2026-08-25T19:24:17Z","2026-08-25T19:24:20Z","2026-08-25T19:24:22Z","2026-08-25T19:24:24Z","2026-08-25T19:24:26Z","2026-08-25T19:24:27Z","2026-08-25T19:24:29Z","2026-08-25T19:24:31Z","2026-08-25T19:24:34Z","2026-08-25T19:24:37Z","2026-08-25T19:24:39Z","2026-08-25T19:24:41Z","2026-08-25T19:24:43Z","2026-08-25T19:24:48Z","2026-08-25T19:24:50Z","2026-08-25T19:24:53Z","2026-08-25T19:24:56Z","2026-08-25T19:25:00Z","2026-08-25T19:25:10Z","2026-08-25T19:25:20Z","2026-08-25T19:25:27Z","2026-08-25T19:25:38Z","2026-08-25T19:25:42Z","2026-08-25T19:25:49Z","2026-08-25T19:25:56Z","2026-08-25T19:26:07Z","2026-08-25T19:26:22Z","2026-08-25T19:26:28Z","2026-08-25T19:26:35Z","2026-08-25T19:26:38Z","2026-08-25T19:26:41Z","2026-08-25T19:26:44Z","2026-08-25T19:26:51Z","2026-08-25T19:26:55Z","2026-08-25T19:27:01Z","2026-08-25T19:27:03Z","2026-08-25T19:27:05Z","2026-08-25T19:27:07Z","2026-08-25T19:27:10Z","2026-08-25T19:27:12Z","2026-08-25T19:27:13Z","2026-08-25T19:27:16Z","2026-08-25T19:27:17Z","2026-08-25T19:27:18Z","2026-08-25T19:27:19Z","2026-08-25T19:27:28Z","2026-08-25T19:27:31Z","2026-08-25T19:27:36Z","2026-08-25T19:27:46Z","2026-08-25T19:28:00Z","2026-08-25T19:28:08Z","2026-08-25T19:28:14Z","2026-08-25T19:28:17Z","2026-08-25T19:28:23Z","2026-08-25T19:28:32Z","2026-08-25T19:28:45Z","2026-08-25T19:28:48Z","2026-08-25T19:28:50Z","2026-08-25T19:28:53Z","2026-08-25T19:29:03Z","2026-08-25T19:29:12Z","2026-08-25T19:29:16Z","2026-08-25T19:29:32Z","2026-08-25T19:29:38Z","2026-08-25T19:29:41Z","2026-08-25T19:29:43Z","2026-08-25T19:29:59Z","2026-08-25T19:30:01Z","2026-08-25T19:30:08Z","2026-08-25T19:30:16Z","2026-08-25T19:30:31Z","2026-08-25T19:30:34Z","2026-08-25T19:30:44Z","2026-08-25T19:30:50Z","2026-08-25T19:31:00Z"],"heartRates":[98,98,98,99,99,102,97,97,102,102,102,101,102,102,102,101,101,98,98,99,99,101,98,98,98,99,99,98,98,98,98,98,100,100,102,107,106,102,102,101,100,100,101,101,101,99,98,98,96,97,97,91,90,90,90,88,88,88,88,85,85,82,82,83,85,85,85,85,85,86,86,87,87,87,87,86,86,87,88,88,88,87,87,88,88,88,87,87,88,88,88,88,88,88,90,91,91,89,89,91,91,90,90,90,89,89,89,89,87,87,87,87,87,87,87,85,86,86,88,88,88,88,89,89,89,88,88,88,88,87,89,89,88,90,90,89,89,88,88,88,88,89,89,89,87,89,89,87,87,88,86,85,85,85,88,88,87,87,87,86,85,85,85,86,87,86,86,86,86,86,86,86,86,86,86,86,86,86,86,86,86,86,89,88,88,88,88,89,89,88,88,86,86,86,87,87,87,87,86,86,84,84,84,84,84,85,85,85,87,87,87,88,86,86,87,86,86,86,86,87,86,86,87,87,87,87,87,86,86,87,87,86,84,84,85,86,85,85,85,85,86,84,83,85,86,84,84,86,85,85,89,88,88,88,86,87,87,87,84,86,85,85,85,85,86,85,85,87,87,86,89,85,86,86,86,86,87,85,85,87,87,87,86,86,86,87,87,86,86,82,83,83,83,82,81,84,83,86,86,86,86,86,88,88,88,87,87,87,86,87,86,86,86,85,84,86,86,86,86,86,84,84,84,85,85,85,85,85,87,85,85,86,86,86,85,86,86,84,84,84,84,84,83,83,82,83,84,84,84,84,84,84,84,84,81,81,82,82,83,83,83,83,83,82,82,82,82,82,82,84,83,83,85,85,85,85,85,87,87,88,88,88,85,86,86,86,86,86,86,86,88,85,80,81,81,83,83,81,81,83,83,86,88,85,85,85,83,84,84,84,84,83,83,83,80,79,81,81,81,84,84,85,85,85,84,85,85,85,85,85,84,85,82,82,84,84,86,86,86,86,85,85,85,85,85,85,85,84,87,81,82,85,85,84,84,84,83,84,85,85,86,85,85,85,87,84,84,84,84,85,85,85,86,86,86,86,86,86,87,87,86,87,85,85,86,86,84,84,85,87,85,86,86,86,86,85,85,85,85,84,84,85,85,84,86,86,84,84,86,85,85,85,85,84,84,83,82,82,84,84,85,85,85,85,86,86,87,88,88,88,89,89,89,88,87,87,86,86,86,86,87,88,85,86,88,88,89,88,83,83,83,83,84,84,84,84,84,84,85,85,85,85,85,85,85,85,86,86,86,86,86,84,86,85,85,85,84,84,84,86,86,85,85,85,85,85,85,86,86,86,85,85,87,87,87,87,87,84,84,81,87,94,98,97,97,98,102,97,93,96,96,96,107,106,103,107,107,103,103,98,98,96,96,95,96,97,99,98],"month":"2026-08-01"},"geometry":{"type":"LineString","coordinates":[[-83.591845,8.470493,17.5],[-83.591877,8.470509,17.3],[-83.591885,8.470523,17.2],[-83.591901,8.470509,17],[-83.591919,8.470511,16.9],[-83.591936,8.470481,16.7],[-83.591971,8.470501,16.4],[-83.591981,8.470481,16.2],[-83.591974,8.470473,16.2],[-83.592065,8.4704,17.7],[-83.592055,8.470399,17.9],[-83.592098,8.470394,18.6],[-83.592098,8.4704,18.7],[-83.592091,8.470398,18.8],[-83.592092,8.470403,18.9],[-83.592119,8.470404,19.3],[-83.592112,8.470401,19.4],[-83.592132,8.470394,19.8],[-83.592138,8.470383,20.1],[-83.592157,8.470377,20.3],[-83.592211,8.470378,21.2],[-83.592268,8.470366,22.1],[-83.592296,8.470379,22.6],[-83.592319,8.470381,23],[-83.592353,8.470371,23.5],[-83.592407,8.470373,24.5],[-83.592472,8.470399,25.8],[-83.592566,8.470393,27.6],[-83.592668,8.470368,29.6],[-83.592677,8.470373,29.8],[-83.592707,8.47036,30.4],[-83.592708,8.470352,30.5],[-83.592736,8.470342,31.1],[-83.592767,8.470349,31.7],[-83.592855,8.470315,32.1],[-83.592968,8.470238,32.1],[-83.593097,8.470181,32.1],[-83.593167,8.470159,32.1],[-83.593179,8.470142,32.1],[-83.59327,8.47008,32.1],[-83.593314,8.470062,32.1],[-83.593429,8.469991,32.1],[-83.593532,8.469916,32.1],[-83.593607,8.469872,32.1],[-83.593641,8.469833,32.2],[-83.593752,8.469747,32.2],[-83.593905,8.469673,32.2],[-83.594038,8.469627,32.2],[-83.594408,8.469571,32.2],[-83.594554,8.469576,32.2],[-83.594911,8.469561,32.2],[-83.595338,8.469566,-14.8],[-83.596007,8.469549,-14.8],[-83.596186,8.469525,-14.7],[-83.596454,8.469512,-14.7],[-83.596645,8.469488,-14.7],[-83.596909,8.469467,-14.7],[-83.596991,8.469469,-14.7],[-83.597341,8.46941,-14.7],[-83.598139,8.469428,-14.7],[-83.598221,8.469436,-14.7],[-83.598492,8.469433,-14.7],[-83.59875,8.469472,-14.7],[-83.599552,8.469548,-14.7],[-83.599732,8.469576,-14.7],[-83.600074,8.469644,-14.7],[-83.600162,8.46967,-14.7],[-83.600787,8.469769,-14.6],[-83.600943,8.469802,-14.6],[-83.601245,8.469893,-14.6],[-83.601487,8.469952,-14.6],[-83.60165,8.470001,-14.6],[-83.602053,8.47015,-14.6],[-83.602216,8.470244,-14.6],[-83.602385,8.470353,-14.6],[-83.602559,8.470452,-14.6],[-83.602902,8.470684,-14.6],[-83.603948,8.471366,-14.6],[-83.604432,8.471629,-14.6],[-83.604779,8.471781,-14.5],[-83.604927,8.471854,-14.5],[-83.605123,8.471935,-14.5],[-83.605205,8.47196,-14.5],[-83.605433,8.472062,-14.5],[-83.605672,8.47221,-14.5],[-83.605761,8.472255,-14.5],[-83.606379,8.472521,-19.5],[-83.606546,8.472609,-19.5],[-83.606621,8.47266,-19.5],[-83.606752,8.472777,-19.5],[-83.607101,8.473033,-19.5],[-83.607378,8.473216,-19.5],[-83.607528,8.473296,-19.5],[-83.607859,8.473512,-19.5],[-83.608359,8.473889,-19.4],[-83.608781,8.474252,-19.4],[-83.609017,8.474472,-19.4],[-83.60993,8.475251,-19.4],[-83.610198,8.47549,-19.4],[-83.610553,8.475781,-19.4],[-83.610706,8.47589,-19.4],[-83.611146,8.476271,-19.4],[-83.611285,8.476411,-19.4],[-83.612088,8.477141,-19.3],[-83.612242,8.477295,-19.3],[-83.6124,8.47744,-19.3],[-83.612712,8.477697,-19.3],[-83.612944,8.477904,-19.3],[-83.613342,8.478317,-19.3],[-83.613608,8.478555,-19.3],[-83.613807,8.478745,-19.3],[-83.614251,8.479084,-19.3],[-83.614888,8.479654,-19.3],[-83.615077,8.479863,-19.3],[-83.615209,8.479986,-19.3],[-83.615498,8.480223,-19.2],[-83.615978,8.480651,-19.2],[-83.616204,8.480891,-19.2],[-83.616434,8.481098,-19.2],[-83.616719,8.48132,-19.2],[-83.617137,8.481694,-17.2],[-83.617408,8.481954,-17.2],[-83.617847,8.482286,-17.2],[-83.618136,8.482528,-17.2],[-83.61864,8.482997,-17.1],[-83.619077,8.483373,-12.1],[-83.619421,8.483691,-12.1],[-83.619908,8.484122,-12.1],[-83.620044,8.484252,-12.1],[-83.620369,8.484586,-12.1],[-83.620714,8.484895,-12.1],[-83.620991,8.485174,-12.1],[-83.621582,8.485705,-12.1],[-83.621861,8.486005,-12.1],[-83.62216,8.486276,-12],[-83.622554,8.486592,-12],[-83.623,8.487029,-12],[-83.623359,8.487411,-12],[-83.623735,8.487768,-12],[-83.623959,8.487993,-12],[-83.624107,8.488157,-12],[-83.624337,8.48839,-12],[-83.624569,8.488611,-12],[-83.624861,8.488917,-12],[-83.625618,8.489661,-11.9],[-83.626146,8.490167,-11.9],[-83.626353,8.490391,-11.9],[-83.626936,8.490946,-11.9],[-83.627282,8.491326,-11.9],[-83.628012,8.492048,-17.9],[-83.628338,8.492347,-17.9],[-83.628625,8.492641,-17.9],[-83.628872,8.492858,-17.9],[-83.629804,8.493712,-17.8],[-83.630174,8.494074,-17.8],[-83.630394,8.494302,-12.8],[-83.630618,8.49451,-12.8],[-83.631048,8.494888,-12.8],[-83.631415,8.495229,-12.8],[-83.632007,8.495818,-12.8],[-83.632539,8.496287,-12.8],[-83.63276,8.496501,-12.8],[-83.632842,8.496566,-12.7],[-83.633066,8.496778,-12.7],[-83.63375,8.497396,-12.7],[-83.634409,8.49803,-12.7],[-83.634832,8.498378,-12.7],[-83.635156,8.49869,-12.7],[-83.635492,8.498998,-12.7],[-83.635623,8.49913,-12.7],[-83.636034,8.499509,-12.7],[-83.636307,8.499795,-12.6],[-83.636531,8.499998,-12.6],[-83.636961,8.500406,-12.6],[-83.637178,8.500589,-12.6],[-83.637407,8.500799,-12.6],[-83.637557,8.500957,-12.6],[-83.637876,8.501253,-12.6],[-83.638043,8.501387,-12.6],[-83.638274,8.501591,-12.6],[-83.6386,8.501901,-12.6],[-83.638862,8.502169,-12.6],[-83.639048,8.502388,-17.6],[-83.639255,8.502583,-17.6],[-83.639622,8.502898,-17.6],[-83.64067,8.503897,-17.5],[-83.640874,8.504106,-17.5],[-83.641436,8.504613,-17.5],[-83.641639,8.504811,-17.5],[-83.642093,8.505202,-11.5],[-83.642325,8.505416,-11.5],[-83.643077,8.506072,-11.5],[-83.643369,8.506359,-11.4],[-83.643656,8.506618,-11.4],[-83.644057,8.507015,-11.4],[-83.6442,8.507144,-11.4],[-83.644681,8.507611,-11.4],[-83.644815,8.507753,-11.4],[-83.644954,8.507886,-11.4],[-83.645241,8.50814,-11.4],[-83.645985,8.508855,-11.4],[-83.646048,8.508923,-11.4],[-83.646262,8.509116,-11.4],[-83.646623,8.509402,-11.3],[-83.646853,8.509557,-11.3],[-83.647,8.509669,-11.3],[-83.647145,8.509791,-11.3],[-83.647376,8.509963,-11.3],[-83.648182,8.510624,-11.3],[-83.648635,8.511026,-11.3],[-83.648997,8.511364,-11.3],[-83.649291,8.511614,-11.3],[-83.649936,8.512119,-17.3],[-83.65001,8.512185,-17.3],[-83.650362,8.512543,-17.2],[-83.650711,8.512923,-17.2],[-83.651487,8.513704,-17.2],[-83.651864,8.514073,-17.2],[-83.652113,8.514357,-17.2],[-83.652258,8.514496,-17.2],[-83.652653,8.51491,-17.2],[-83.652773,8.515051,-17.2],[-83.653647,8.515923,-11.1],[-83.653783,8.516074,-11.1],[-83.654146,8.516437,-11.1],[-83.654293,8.516568,-11.1],[-83.654433,8.516711,-11.1],[-83.654721,8.516971,-11.1],[-83.655013,8.517203,-11.1],[-83.6556,8.5177,-11.1],[-83.655857,8.517887,-11.1],[-83.656194,8.518166,-11.1],[-83.656455,8.518401,-11.1],[-83.656662,8.518574,-11.1],[-83.657075,8.518966,-11],[-83.657249,8.519149,-11],[-83.657501,8.51938,-11],[-83.657784,8.51962,-11],[-83.658835,8.520602,-11],[-83.659137,8.520851,-11],[-83.659682,8.521353,-11],[-83.660087,8.521745,-10.9],[-83.66041,8.522024,-10.9],[-83.660605,8.522234,-10.9],[-83.660937,8.522515,-16.9],[-83.661352,8.522922,-16.9],[-83.661579,8.523125,-16.9],[-83.662224,8.523774,-16.9],[-83.662764,8.524297,-16.9],[-83.663092,8.524646,-16.9],[-83.663233,8.524775,-16.9],[-83.663451,8.524959,-16.8],[-83.663589,8.525087,-16.8],[-83.663733,8.525207,-16.8],[-83.663942,8.525399,-16.8],[-83.664214,8.525674,-16.8],[-83.664345,8.525821,-16.8],[-83.664565,8.526035,-16.8],[-83.665382,8.526753,-12.8],[-83.666041,8.527416,-12.8],[-83.666181,8.527536,-12.8],[-83.66651,8.527856,-12.8],[-83.666649,8.527978,-12.8],[-83.666866,8.528142,-12.7],[-83.667376,8.528559,-12.7],[-83.667753,8.528895,-12.7],[-83.667965,8.529107,-12.7],[-83.668118,8.529243,-12.7],[-83.668635,8.52975,-12.7],[-83.668945,8.530015,-12.7],[-83.669645,8.530586,-12.7],[-83.670022,8.530914,-12.7],[-83.670477,8.53133,-12.6],[-83.670707,8.531526,-12.6],[-83.67115,8.531879,-12.6],[-83.67159,8.532255,-12.6],[-83.672059,8.532691,-18.6],[-83.672882,8.533406,-18.6],[-83.673288,8.533747,-18.6],[-83.673525,8.533912,-18.6],[-83.673749,8.534084,-18.6],[-83.674295,8.534586,-18.5],[-83.675191,8.535356,-18.5],[-83.675434,8.535544,-18.5],[-83.67566,8.535743,-18.5],[-83.676036,8.536057,-18.5],[-83.676445,8.53636,-18.5],[-83.676686,8.536563,-18.5],[-83.677004,8.53685,-18.5],[-83.677416,8.537195,-18.5],[-83.678048,8.537788,-11.4],[-83.67854,8.538206,-11.4],[-83.678697,8.538349,-11.4],[-83.678945,8.538551,-11.4],[-83.679893,8.539381,-11.4],[-83.680287,8.53968,-11.4],[-83.680826,8.54016,-11.4],[-83.681214,8.540519,-11.4],[-83.681366,8.540674,-11.4],[-83.681656,8.540934,-11.3],[-83.681872,8.541139,-11.3],[-83.681952,8.541205,-11.3],[-83.682318,8.541564,-11.3],[-83.682398,8.541632,-11.3],[-83.682703,8.541928,-11.3],[-83.683016,8.542215,-20.3],[-83.683572,8.542788,-20.3],[-83.683635,8.542863,-20.3],[-83.683888,8.543113,-20.3],[-83.684801,8.543897,-20.3],[-83.685627,8.544649,-20.2],[-83.685849,8.544873,-20.2],[-83.686088,8.545095,-20.2],[-83.686655,8.545574,-20.2],[-83.686893,8.545785,-20.2],[-83.687219,8.546055,-20.2],[-83.68808,8.546814,-20.2],[-83.688328,8.547003,-20.2],[-83.68872,8.547321,-20.2],[-83.688884,8.547442,-20.2],[-83.689044,8.547572,-20.1],[-83.689464,8.547937,-20.1],[-83.68973,8.548141,-20.1],[-83.69056,8.54882,-13.1],[-83.690956,8.549116,-13.1],[-83.69118,8.549308,-13.1],[-83.691474,8.549574,-13.1],[-83.691774,8.549814,-13.1],[-83.692073,8.550065,-13.1],[-83.693026,8.550787,-13],[-83.693144,8.550903,-13],[-83.693667,8.551343,-13],[-83.693867,8.551525,-22],[-83.693943,8.551585,-22],[-83.694282,8.551889,-22],[-83.694545,8.55215,-22],[-83.694677,8.552294,-22],[-83.695085,8.552669,-22],[-83.695143,8.552731,-22],[-83.695276,8.552848,-22],[-83.695466,8.553038,-22],[-83.695679,8.553212,-22],[-83.696132,8.553603,-21.9],[-83.696353,8.553806,-21.9],[-83.696795,8.554161,-21.9],[-83.69729,8.55459,-21.9],[-83.697662,8.554883,-21.9],[-83.698136,8.555298,-21.9],[-83.698496,8.555565,-21.9],[-83.698865,8.55587,-21.9],[-83.699093,8.556048,-21.9],[-83.699399,8.556254,-21.9],[-83.699629,8.556398,-21.9],[-83.699771,8.556508,-21.8],[-83.700411,8.557052,-21.8],[-83.701374,8.557817,-21.8],[-83.701821,8.558198,-21.8],[-83.701973,8.558318,-21.8],[-83.702542,8.558847,-21.8],[-83.702761,8.559011,-21.8],[-83.702979,8.559186,-21.8],[-83.703122,8.559311,-13.8],[-83.703258,8.559443,-13.7],[-83.703764,8.559875,-13.7],[-83.703828,8.559937,-13.7],[-83.704187,8.560243,-13.7],[-83.704395,8.560445,-13.7],[-83.704968,8.560969,-21.7],[-83.705198,8.56114,-21.7],[-83.705712,8.561544,-21.7],[-83.705995,8.561788,-21.7],[-83.706392,8.562107,-21.7],[-83.706721,8.562389,-21.7],[-83.707064,8.562647,-21.6],[-83.707286,8.562837,-21.6],[-83.707645,8.563175,-21.6],[-83.708181,8.563619,-21.6],[-83.708396,8.563816,-21.6],[-83.708516,8.563944,-21.6],[-83.708637,8.564045,-21.6],[-83.708687,8.564098,-21.6],[-83.708867,8.564254,-21.6],[-83.709079,8.564412,-21.6],[-83.709786,8.564984,-21.6],[-83.709944,8.565084,-21.6],[-83.710157,8.565252,-21.6],[-83.710304,8.565357,-21.5],[-83.71067,8.565639,-21.5],[-83.710812,8.565762,-21.5],[-83.711252,8.566103,-21.5],[-83.711618,8.566413,-21.5],[-83.712058,8.566756,-21.5],[-83.712464,8.567009,-21.5],[-83.712628,8.567126,-21.5],[-83.712698,8.567184,-21.5],[-83.712823,8.567271,-21.5],[-83.712965,8.567386,-21.5],[-83.713107,8.567516,-21.4],[-83.713264,8.567635,-21.4],[-83.714268,8.568462,-21.4],[-83.714893,8.568928,-21.4],[-83.715246,8.569239,-21.4],[-83.715982,8.56981,-25.4],[-83.716606,8.570313,-22.3],[-83.716675,8.570379,-22.3],[-83.71683,8.570495,-22.3],[-83.717257,8.57086,-22.3],[-83.717398,8.570989,-22.3],[-83.717837,8.571363,-22.3],[-83.718135,8.571606,-22.3],[-83.718797,8.572107,-22.3],[-83.719501,8.572683,-22.3],[-83.719644,8.572821,-22.2],[-83.719783,8.572926,-22.2],[-83.720423,8.573463,-22.2],[-83.720897,8.573894,-22.2],[-83.721298,8.5742,-22.2],[-83.721454,8.574331,-22.2],[-83.721682,8.57454,-22.2],[-83.72268,8.575392,-22.2],[-83.722952,8.575599,-22.2],[-83.723284,8.575905,-22.1],[-83.723613,8.576171,-22.1],[-83.723973,8.576489,-22.1],[-83.724597,8.577023,-22.1],[-83.724873,8.577247,-22.1],[-83.725008,8.577369,-22.1],[-83.725295,8.577592,-22.1],[-83.725505,8.577774,-22.1],[-83.725652,8.577888,-22.1],[-83.726073,8.578243,-22.1],[-83.726563,8.578685,-22],[-83.726772,8.578856,-22],[-83.727038,8.579108,-24],[-83.727334,8.579345,-24],[-83.72755,8.57953,-24],[-83.727992,8.57993,-24],[-83.728284,8.58021,-24],[-83.728432,8.580342,-24],[-83.72863,8.580538,-24],[-83.728945,8.580878,-24],[-83.729329,8.581247,-3],[-83.729855,8.581778,-2.9],[-83.730207,8.582109,-2.9],[-83.730645,8.582553,-2.9],[-83.730966,8.582835,-2.9],[-83.731091,8.582959,-2.9],[-83.731488,8.583321,-2.9],[-83.731627,8.583438,-2.9],[-83.732237,8.583991,-2.9],[-83.73264,8.584306,-2.9],[-83.733027,8.584648,-2.8],[-83.733403,8.58504,-2.8],[-83.73386,8.585488,-2.8],[-83.734297,8.585967,-2.8],[-83.7345,8.586168,-2.8],[-83.73495,8.586675,-2.8],[-83.73537,8.587102,-2.8],[-83.735826,8.587603,-2.8],[-83.735966,8.587736,-2.7],[-83.736291,8.588098,-2.7],[-83.736555,8.588412,-2.7],[-83.736698,8.588554,-2.7],[-83.736831,8.588708,-2.7],[-83.73695,8.588864,-2.7],[-83.737587,8.589627,-2.7],[-83.737954,8.590109,-19.7],[-83.738429,8.590777,-19.7],[-83.738804,8.591374,-19.7],[-83.739327,8.592341,-9.6],[-83.739734,8.593208,-9.6],[-83.739765,8.59332,-9.6],[-83.740085,8.594218,-9.6],[-83.740303,8.594907,-9.6],[-83.740417,8.595308,-9.6],[-83.74048,8.595608,-9.6],[-83.740687,8.596413,-9.5],[-83.740728,8.596617,-9.5],[-83.740822,8.597009,-9.5],[-83.740885,8.597308,-9.5],[-83.741052,8.597904,-9.5],[-83.741325,8.598963,-9.5],[-83.741625,8.600339,-9.5],[-83.741851,8.601425,-9.4],[-83.741946,8.60201,-9.4],[-83.74197,8.602209,-9.4],[-83.742047,8.602701,-9.4],[-83.742106,8.602992,-4.4],[-83.742151,8.603403,-4.4],[-83.742235,8.603886,-4.4],[-83.742322,8.605012,-4.4],[-83.742391,8.605732,-4.4],[-83.742402,8.60595,-4.4],[-83.742402,8.606175,-4.3],[-83.742419,8.606511,-4.3],[-83.742424,8.607142,-4.3],[-83.742434,8.607456,-4.3],[-83.742413,8.608101,-4.3],[-83.742396,8.609117,-4.3],[-83.742328,8.61017,-4.3],[-83.742276,8.610654,-4.3],[-83.742188,8.611359,-4.3],[-83.742172,8.611589,-4.2],[-83.742085,8.61239,-4.2],[-83.741979,8.613176,-4.2],[-83.741901,8.613529,-4.2],[-83.741518,8.614845,-1.2],[-83.741479,8.614952,-1.2],[-83.740669,8.616839,-1.1],[-83.740552,8.617178,-1.1],[-83.7405,8.617412,-1.1],[-83.740475,8.617647,-1.1],[-83.740469,8.617999,-1.1],[-83.740442,8.618451,-1.1],[-83.740439,8.618797,-1.1],[-83.740449,8.619362,-1.1],[-83.74048,8.620039,-1.1],[-83.740511,8.620375,-1.1],[-83.740567,8.620822,-1.1],[-83.740612,8.621623,-1.1],[-83.740642,8.621971,-1.1],[-83.740684,8.622314,-1.1],[-83.740695,8.62266,-1],[-83.740693,8.622888,-1],[-83.740656,8.623348,-1],[-83.740587,8.623689,-1],[-83.740456,8.624148,-1],[-83.74037,8.624483,1],[-83.740264,8.624829,1],[-83.74011,8.625287,1],[-83.739858,8.62597,1],[-83.739674,8.626421,1],[-83.73955,8.626772,1],[-83.739238,8.62758,1],[-83.738688,8.628812,1.1],[-83.738527,8.629143,1.1],[-83.738393,8.629494,1.1],[-83.738248,8.629837,1.1],[-83.737929,8.630518,1.1],[-83.737671,8.631089,57.1],[-83.737345,8.631848,57.1],[-83.736783,8.633047,57.1],[-83.736561,8.633497,57.2],[-83.736462,8.633725,57.2],[-83.736029,8.634869,57.2],[-83.735782,8.635413,27.2],[-83.73552,8.636079,27.2],[-83.735367,8.63654,27.2],[-83.734893,8.638265,27.2],[-83.734742,8.638872,27.3],[-83.734586,8.639626,27.3],[-83.73452,8.640006,27.3],[-83.7343,8.641135,27.3],[-83.73418,8.641634,27.3],[-83.734069,8.642012,27.3],[-83.733961,8.64226,27.3],[-83.733833,8.642497,27.3],[-83.733688,8.642724,27.3],[-83.733609,8.642831,27.3],[-83.733442,8.643024,27.3],[-83.733261,8.643203,27.3],[-83.732963,8.643454,27.3],[-83.732643,8.64368,27.3],[-83.732416,8.643817,27.3],[-83.732181,8.643946,27.3],[-83.731945,8.644057,27.3],[-83.731338,8.644305,27.4],[-83.731089,8.644395,27.4],[-83.730715,8.644515,27.4],[-83.730337,8.644619,27.4],[-83.729841,8.644767,27.4],[-83.728628,8.645156,27.4],[-83.727445,8.645583,27.4],[-83.726596,8.64587,71.4],[-83.725248,8.646343,21.5],[-83.724769,8.646528,21.5],[-83.723931,8.646867,21.5],[-83.723091,8.647226,21.5],[-83.721807,8.647815,21.5],[-83.72001,8.648671,21.6],[-83.719287,8.649029,21.6],[-83.718442,8.649387,21.6],[-83.718088,8.649551,21.6],[-83.717736,8.649699,21.6],[-83.717377,8.649839,21.6],[-83.716527,8.650146,21.6],[-83.716046,8.650305,21.6],[-83.715308,8.650532,53.6],[-83.715062,8.650597,53.6],[-83.714819,8.650643,53.6],[-83.714589,8.650698,53.6],[-83.714272,8.65076,53.7],[-83.71408,8.650823,53.7],[-83.713996,8.650861,53.7],[-83.713781,8.650989,53.7],[-83.713732,8.651037,53.7],[-83.7137,8.651085,53.7],[-83.713685,8.651127,53.7],[-83.713669,8.651282,53.7],[-83.713686,8.651311,53.7],[-83.713717,8.651342,53.7],[-83.713695,8.651355,53.7],[-83.713608,8.651323,53.8],[-83.713574,8.651324,53.8],[-83.71363,8.651357,53.8],[-83.713625,8.651356,53.8],[-83.71364,8.651364,53.8],[-83.713549,8.651369,53.8],[-83.713402,8.651354,53.8],[-83.713392,8.651342,53.8],[-83.713374,8.651344,53.8],[-83.713354,8.651331,53.8],[-83.713337,8.651301,53.8],[-83.713336,8.65131,53.7],[-83.713331,8.651301,53.7],[-83.713287,8.65132,53.7],[-83.713262,8.651352,53.6],[-83.713265,8.651377,53.6],[-83.713253,8.651395,53.6],[-83.713247,8.651496,53.5],[-83.713236,8.651501,53.5],[-83.713226,8.651554,53.4],[-83.713203,8.651612,53.3],[-83.71319,8.651734,53.2],[-83.71318,8.651751,53.2],[-83.713199,8.651835,53.1],[-83.713183,8.651864,53.1],[-83.713168,8.651945,53]]}}]}