{"type":"FeatureCollection","features":[{"type":"Feature","properties":{"name":"Balade dans Trondheim","type":"marche","time":"2025-10-31T14:02:19Z","coordTimes":["2025-10-31T14:02:19Z","2025-10-31T14:02:27Z","2025-10-31T14:02:28Z","2025-10-31T14:02:31Z","2025-10-31T14:02:35Z","2025-10-31T14:02:39Z","2025-10-31T14:02:42Z","2025-10-31T14:02:44Z","2025-10-31T14:02:55Z","2025-10-31T14:02:58Z","2025-10-31T14:03:04Z","2025-10-31T14:03:05Z","2025-10-31T14:03:07Z","2025-10-31T14:03:12Z","2025-10-31T14:03:17Z","2025-10-31T14:03:21Z","2025-10-31T14:03:23Z","2025-10-31T14:03:25Z","2025-10-31T14:03:33Z","2025-10-31T14:03:36Z","2025-10-31T14:03:38Z","2025-10-31T14:03:40Z","2025-10-31T14:03:43Z","2025-10-31T14:04:01Z","2025-10-31T14:04:02Z","2025-10-31T14:04:08Z","2025-10-31T14:04:18Z","2025-10-31T14:04:20Z","2025-10-31T14:04:21Z","2025-10-31T14:04:28Z","2025-10-31T14:04:34Z","2025-10-31T14:04:37Z","2025-10-31T14:04:39Z","2025-10-31T14:04:41Z","2025-10-31T14:13:06Z","2025-10-31T14:13:10Z","2025-10-31T14:13:15Z","2025-10-31T14:13:21Z","2025-10-31T14:13:26Z","2025-10-31T14:13:33Z","2025-10-31T14:13:39Z","2025-10-31T14:13:43Z","2025-10-31T14:13:55Z","2025-10-31T14:14:01Z","2025-10-31T14:14:45Z","2025-10-31T14:14:56Z","2025-10-31T14:15:00Z","2025-10-31T14:15:02Z","2025-10-31T14:15:04Z","2025-10-31T14:15:08Z","2025-10-31T14:15:10Z","2025-10-31T14:15:15Z","2025-10-31T14:15:44Z","2025-10-31T14:15:49Z","2025-10-31T14:15:53Z","2025-10-31T14:16:00Z","2025-10-31T14:16:04Z","2025-10-31T14:16:10Z","2025-10-31T14:16:14Z","2025-10-31T14:16:16Z","2025-10-31T14:16:20Z","2025-10-31T14:16:23Z","2025-10-31T14:16:27Z","2025-10-31T14:16:34Z","2025-10-31T14:16:41Z","2025-10-31T14:16:43Z","2025-10-31T14:16:45Z","2025-10-31T14:16:51Z","2025-10-31T14:17:00Z","2025-10-31T14:17:02Z","2025-10-31T14:17:03Z","2025-10-31T14:17:06Z","2025-10-31T14:17:12Z","2025-10-31T14:17:15Z","2025-10-31T14:17:18Z","2025-10-31T14:17:29Z","2025-10-31T14:17:32Z","2025-10-31T14:17:38Z","2025-10-31T14:17:39Z","2025-10-31T14:17:45Z","2025-10-31T14:17:47Z","2025-10-31T14:17:49Z","2025-10-31T14:17:55Z","2025-10-31T14:17:58Z","2025-10-31T14:18:02Z","2025-10-31T14:18:03Z","2025-10-31T14:18:07Z","2025-10-31T14:18:11Z","2025-10-31T14:18:13Z","2025-10-31T14:18:15Z","2025-10-31T14:18:22Z","2025-10-31T14:18:28Z","2025-10-31T14:18:36Z","2025-10-31T14:18:39Z","2025-10-31T14:18:45Z","2025-10-31T14:18:56Z","2025-10-31T14:18:57Z","2025-10-31T14:19:06Z","2025-10-31T14:19:11Z","2025-10-31T14:19:17Z","2025-10-31T14:19:27Z","2025-10-31T14:19:32Z","2025-10-31T14:19:35Z","2025-10-31T14:19:40Z","2025-10-31T14:19:48Z","2025-10-31T14:19:54Z","2025-10-31T14:19:58Z","2025-10-31T14:20:05Z","2025-10-31T14:20:07Z","2025-10-31T14:20:11Z","2025-10-31T14:20:17Z","2025-10-31T14:20:23Z","2025-10-31T14:20:26Z","2025-10-31T14:20:36Z","2025-10-31T14:20:41Z","2025-10-31T14:20:44Z","2025-10-31T14:20:46Z","2025-10-31T14:20:53Z","2025-10-31T14:20:59Z","2025-10-31T14:21:02Z","2025-10-31T14:21:07Z","2025-10-31T14:21:20Z","2025-10-31T14:21:27Z","2025-10-31T14:21:30Z","2025-10-31T14:21:32Z","2025-10-31T14:21:40Z","2025-10-31T14:21:43Z","2025-10-31T14:21:47Z","2025-10-31T14:21:54Z","2025-10-31T14:21:57Z","2025-10-31T14:22:01Z","2025-10-31T14:22:07Z","2025-10-31T14:22:09Z","2025-10-31T14:22:13Z","2025-10-31T14:22:20Z","2025-10-31T14:22:24Z","2025-10-31T14:22:34Z","2025-10-31T14:22:36Z","2025-10-31T14:22:42Z","2025-10-31T14:22:45Z","2025-10-31T14:22:48Z","2025-10-31T14:22:54Z","2025-10-31T14:22:57Z","2025-10-31T14:23:01Z","2025-10-31T14:23:07Z","2025-10-31T14:23:40Z","2025-10-31T14:23:43Z","2025-10-31T14:23:45Z","2025-10-31T14:23:48Z","2025-10-31T14:23:49Z","2025-10-31T14:23:53Z","2025-10-31T14:23:54Z","2025-10-31T14:24:00Z","2025-10-31T14:24:07Z","2025-10-31T14:24:10Z","2025-10-31T14:26:48Z","2025-10-31T14:26:49Z","2025-10-31T14:26:52Z","2025-10-31T14:26:56Z","2025-10-31T14:26:58Z","2025-10-31T14:27:01Z","2025-10-31T14:27:04Z","2025-10-31T14:27:12Z","2025-10-31T14:27:17Z","2025-10-31T14:27:22Z","2025-10-31T14:27:26Z","2025-10-31T14:27:29Z","2025-10-31T14:27:33Z","2025-10-31T14:27:37Z","2025-10-31T14:27:41Z","2025-10-31T14:27:43Z","2025-10-31T14:27:46Z","2025-10-31T14:27:49Z","2025-10-31T14:28:16Z","2025-10-31T14:28:17Z","2025-10-31T14:28:20Z","2025-10-31T14:28:21Z","2025-10-31T14:28:22Z","2025-10-31T14:28:24Z","2025-10-31T14:28:29Z","2025-10-31T14:28:30Z","2025-10-31T14:28:34Z","2025-10-31T14:28:35Z","2025-10-31T14:28:38Z","2025-10-31T14:28:42Z","2025-10-31T14:28:44Z","2025-10-31T14:28:46Z","2025-10-31T14:28:47Z","2025-10-31T14:28:49Z","2025-10-31T14:29:08Z","2025-10-31T14:29:11Z","2025-10-31T14:29:13Z","2025-10-31T14:29:18Z","2025-10-31T14:29:23Z","2025-10-31T14:29:25Z","2025-10-31T14:29:31Z","2025-10-31T14:29:34Z","2025-10-31T14:31:13Z","2025-10-31T14:31:17Z","2025-10-31T14:31:20Z","2025-10-31T14:31:27Z","2025-10-31T14:31:31Z","2025-10-31T14:31:37Z","2025-10-31T14:31:38Z","2025-10-31T14:31:45Z","2025-10-31T14:31:51Z","2025-10-31T14:32:04Z","2025-10-31T14:32:23Z","2025-10-31T14:32:48Z","2025-10-31T14:32:54Z","2025-10-31T14:32:59Z","2025-10-31T14:33:02Z","2025-10-31T14:33:05Z","2025-10-31T14:33:06Z","2025-10-31T14:33:07Z","2025-10-31T14:33:08Z","2025-10-31T14:33:11Z","2025-10-31T14:33:13Z","2025-10-31T14:33:14Z","2025-10-31T14:33:15Z","2025-10-31T14:33:16Z","2025-10-31T14:33:17Z","2025-10-31T14:33:18Z","2025-10-31T14:33:19Z","2025-10-31T14:33:20Z","2025-10-31T14:33:21Z","2025-10-31T14:33:22Z","2025-10-31T14:33:24Z","2025-10-31T14:33:25Z","2025-10-31T14:33:26Z","2025-10-31T14:33:27Z","2025-10-31T14:33:29Z","2025-10-31T14:33:30Z","2025-10-31T14:33:32Z","2025-10-31T14:33:33Z","2025-10-31T14:33:34Z","2025-10-31T14:33:35Z","2025-10-31T14:33:36Z","2025-10-31T14:33:37Z","2025-10-31T14:33:38Z","2025-10-31T14:33:40Z","2025-10-31T14:33:42Z","2025-10-31T14:33:44Z","2025-10-31T14:33:46Z","2025-10-31T14:33:47Z","2025-10-31T14:33:48Z","2025-10-31T14:33:50Z","2025-10-31T14:37:48Z","2025-10-31T14:37:51Z","2025-10-31T14:37:52Z","2025-10-31T14:37:53Z","2025-10-31T14:37:55Z","2025-10-31T14:37:57Z","2025-10-31T14:37:58Z","2025-10-31T14:37:59Z","2025-10-31T14:38:00Z","2025-10-31T14:38:01Z","2025-10-31T14:38:06Z","2025-10-31T14:38:19Z","2025-10-31T14:38:24Z","2025-10-31T14:38:26Z","2025-10-31T14:38:32Z","2025-10-31T14:38:40Z","2025-10-31T14:38:46Z","2025-10-31T14:38:50Z","2025-10-31T14:38:56Z","2025-10-31T14:38:57Z","2025-10-31T14:39:01Z","2025-10-31T14:39:02Z","2025-10-31T14:39:05Z","2025-10-31T14:39:08Z","2025-10-31T14:39:16Z","2025-10-31T14:39:29Z","2025-10-31T14:39:31Z","2025-10-31T14:39:32Z","2025-10-31T14:39:34Z","2025-10-31T14:39:35Z","2025-10-31T14:39:36Z","2025-10-31T14:39:37Z","2025-10-31T14:39:40Z","2025-10-31T14:39:41Z","2025-10-31T14:50:47Z","2025-10-31T14:50:49Z","2025-10-31T14:50:51Z","2025-10-31T14:50:52Z","2025-10-31T14:51:01Z","2025-10-31T14:51:03Z","2025-10-31T14:51:15Z","2025-10-31T14:51:16Z","2025-10-31T14:51:19Z","2025-10-31T14:51:24Z","2025-10-31T14:51:29Z","2025-10-31T14:51:31Z","2025-10-31T14:51:33Z","2025-10-31T14:51:35Z","2025-10-31T14:51:38Z","2025-10-31T14:51:44Z","2025-10-31T14:51:48Z","2025-10-31T14:51:49Z","2025-10-31T14:51:53Z","2025-10-31T14:52:00Z","2025-10-31T14:52:01Z","2025-10-31T14:52:05Z","2025-10-31T14:52:10Z","2025-10-31T14:52:12Z","2025-10-31T14:52:18Z","2025-10-31T14:52:23Z","2025-10-31T14:52:31Z","2025-10-31T14:52:33Z","2025-10-31T14:52:35Z","2025-10-31T14:52:36Z","2025-10-31T14:52:38Z","2025-10-31T14:52:41Z","2025-10-31T14:52:42Z","2025-10-31T14:52:43Z","2025-10-31T14:52:51Z","2025-10-31T14:52:52Z","2025-10-31T14:57:43Z","2025-10-31T14:57:44Z","2025-10-31T14:57:45Z","2025-10-31T14:57:48Z","2025-10-31T14:57:50Z","2025-10-31T14:57:51Z","2025-10-31T14:57:54Z","2025-10-31T14:57:56Z","2025-10-31T14:57:57Z","2025-10-31T14:57:59Z","2025-10-31T14:58:00Z","2025-10-31T14:58:01Z","2025-10-31T14:58:07Z","2025-10-31T14:58:16Z","2025-10-31T14:58:27Z","2025-10-31T14:58:29Z","2025-10-31T14:58:34Z","2025-10-31T14:58:45Z","2025-10-31T14:58:48Z","2025-10-31T14:58:49Z","2025-10-31T14:58:50Z","2025-10-31T14:58:52Z","2025-10-31T14:58:53Z","2025-10-31T14:58:54Z","2025-10-31T14:58:56Z","2025-10-31T14:58:57Z","2025-10-31T14:58:59Z","2025-10-31T14:59:05Z","2025-10-31T14:59:06Z","2025-10-31T15:21:42Z","2025-10-31T15:21:44Z","2025-10-31T15:21:46Z","2025-10-31T15:21:51Z","2025-10-31T15:22:35Z","2025-10-31T15:22:36Z","2025-10-31T15:22:37Z","2025-10-31T15:22:40Z","2025-10-31T15:22:41Z","2025-10-31T15:22:49Z","2025-10-31T15:22:53Z","2025-10-31T15:22:56Z","2025-10-31T15:22:57Z","2025-10-31T15:22:58Z","2025-10-31T15:22:59Z","2025-10-31T15:23:00Z","2025-10-31T15:23:01Z","2025-10-31T15:23:02Z","2025-10-31T15:23:04Z","2025-10-31T15:23:05Z","2025-10-31T15:23:07Z","2025-10-31T15:23:08Z","2025-10-31T15:23:09Z","2025-10-31T15:23:10Z","2025-10-31T15:23:12Z","2025-10-31T15:23:16Z","2025-10-31T15:23:17Z","2025-10-31T15:23:20Z","2025-10-31T15:26:46Z","2025-10-31T15:26:48Z","2025-10-31T15:26:54Z","2025-10-31T15:26:58Z","2025-10-31T15:27:03Z","2025-10-31T15:27:08Z","2025-10-31T15:27:22Z","2025-10-31T15:27:23Z","2025-10-31T15:27:25Z","2025-10-31T15:27:26Z","2025-10-31T15:27:27Z","2025-10-31T15:27:28Z","2025-10-31T15:27:29Z","2025-10-31T15:27:30Z","2025-10-31T15:27:40Z","2025-10-31T15:27:41Z","2025-10-31T15:27:42Z","2025-10-31T15:27:43Z","2025-10-31T15:27:44Z","2025-10-31T15:27:45Z","2025-10-31T15:27:47Z","2025-10-31T15:27:49Z","2025-10-31T15:41:45Z","2025-10-31T15:44:01Z","2025-10-31T15:44:17Z","2025-10-31T15:44:20Z","2025-10-31T15:44:29Z","2025-10-31T15:44:32Z","2025-10-31T15:44:34Z","2025-10-31T15:44:38Z","2025-10-31T15:44:40Z","2025-10-31T15:44:42Z","2025-10-31T15:44:59Z","2025-10-31T15:45:00Z","2025-10-31T15:45:03Z","2025-10-31T15:45:08Z","2025-10-31T15:45:11Z","2025-10-31T15:45:15Z","2025-10-31T15:45:19Z","2025-10-31T15:45:23Z","2025-10-31T15:45:35Z","2025-10-31T15:45:42Z","2025-10-31T15:45:45Z","2025-10-31T15:45:48Z","2025-10-31T15:46:01Z","2025-10-31T15:46:06Z","2025-10-31T15:46:11Z","2025-10-31T15:46:13Z","2025-10-31T15:46:14Z","2025-10-31T16:25:15Z","2025-10-31T16:25:18Z","2025-10-31T16:25:19Z","2025-10-31T16:25:20Z","2025-10-31T16:25:21Z","2025-10-31T16:25:22Z","2025-10-31T16:25:23Z","2025-10-31T16:25:25Z","2025-10-31T16:25:29Z","2025-10-31T16:25:32Z","2025-10-31T16:25:43Z","2025-10-31T16:25:46Z","2025-10-31T16:25:56Z","2025-10-31T16:26:01Z","2025-10-31T16:26:06Z","2025-10-31T16:26:14Z","2025-10-31T16:26:17Z","2025-10-31T16:26:19Z","2025-10-31T16:26:22Z","2025-10-31T16:26:26Z","2025-10-31T16:26:31Z","2025-10-31T16:26:40Z","2025-10-31T16:26:54Z","2025-10-31T16:26:59Z","2025-10-31T16:27:08Z","2025-10-31T16:27:12Z","2025-10-31T16:27:13Z","2025-10-31T16:27:14Z","2025-10-31T16:27:19Z","2025-10-31T16:27:23Z","2025-10-31T16:27:25Z","2025-10-31T16:27:28Z","2025-10-31T16:27:36Z","2025-10-31T16:27:39Z","2025-10-31T16:27:50Z","2025-10-31T16:28:02Z","2025-10-31T16:28:04Z","2025-10-31T16:28:05Z","2025-10-31T16:28:06Z","2025-10-31T16:28:07Z","2025-10-31T16:28:08Z","2025-10-31T16:28:09Z","2025-10-31T16:28:10Z","2025-10-31T16:28:13Z","2025-10-31T16:28:14Z","2025-10-31T16:28:18Z","2025-10-31T16:40:41Z","2025-10-31T16:40:42Z","2025-10-31T16:40:44Z","2025-10-31T16:40:46Z","2025-10-31T16:40:47Z","2025-10-31T16:41:11Z","2025-10-31T16:43:01Z","2025-10-31T16:43:02Z","2025-10-31T16:43:04Z","2025-10-31T16:43:06Z","2025-10-31T16:43:07Z","2025-10-31T16:43:10Z","2025-10-31T16:43:13Z","2025-10-31T16:43:15Z","2025-10-31T16:43:16Z","2025-10-31T16:43:17Z","2025-10-31T16:43:21Z","2025-10-31T16:43:24Z","2025-10-31T16:43:30Z","2025-10-31T16:43:40Z","2025-10-31T16:43:43Z","2025-10-31T16:43:45Z","2025-10-31T16:43:52Z","2025-10-31T16:43:54Z","2025-10-31T16:43:55Z","2025-10-31T16:43:58Z","2025-10-31T16:44:00Z","2025-10-31T16:44:09Z","2025-10-31T16:44:10Z","2025-10-31T16:44:11Z","2025-10-31T16:44:18Z","2025-10-31T16:44:41Z","2025-10-31T16:44:44Z","2025-10-31T16:44:48Z","2025-10-31T16:44:53Z","2025-10-31T16:45:07Z","2025-10-31T16:45:15Z","2025-10-31T16:45:16Z","2025-10-31T16:45:22Z","2025-10-31T16:45:26Z","2025-10-31T16:45:31Z","2025-10-31T16:45:37Z","2025-10-31T16:45:43Z","2025-10-31T16:45:50Z","2025-10-31T16:45:55Z","2025-10-31T16:46:07Z","2025-10-31T16:46:11Z","2025-10-31T16:46:15Z","2025-10-31T16:46:19Z","2025-10-31T16:46:26Z","2025-10-31T16:46:31Z","2025-10-31T16:46:37Z","2025-10-31T16:46:41Z","2025-10-31T16:46:43Z","2025-10-31T16:46:45Z","2025-10-31T16:46:53Z","2025-10-31T16:46:58Z","2025-10-31T16:47:01Z","2025-10-31T16:47:02Z","2025-10-31T16:47:08Z","2025-10-31T16:47:11Z","2025-10-31T16:47:23Z","2025-10-31T16:47:24Z","2025-10-31T16:47:30Z","2025-10-31T16:47:38Z","2025-10-31T16:47:41Z","2025-10-31T16:47:44Z","2025-10-31T16:47:48Z","2025-10-31T16:47:54Z","2025-10-31T16:47:55Z","2025-10-31T16:47:59Z","2025-10-31T16:48:05Z","2025-10-31T16:48:06Z","2025-10-31T16:48:08Z","2025-10-31T16:48:09Z","2025-10-31T16:48:11Z","2025-10-31T16:48:13Z","2025-10-31T16:48:15Z","2025-10-31T16:48:17Z","2025-10-31T16:48:19Z","2025-10-31T16:48:21Z","2025-10-31T16:48:56Z","2025-10-31T16:48:58Z","2025-10-31T16:49:02Z","2025-10-31T16:49:09Z","2025-10-31T16:49:14Z","2025-10-31T16:49:17Z","2025-10-31T16:49:20Z","2025-10-31T16:49:22Z","2025-10-31T16:49:28Z","2025-10-31T16:49:29Z","2025-10-31T16:49:33Z","2025-10-31T16:49:34Z","2025-10-31T16:49:37Z","2025-10-31T16:49:40Z","2025-10-31T16:49:43Z","2025-10-31T16:49:47Z","2025-10-31T16:49:57Z","2025-10-31T16:50:02Z","2025-10-31T16:50:05Z","2025-10-31T16:50:12Z","2025-10-31T16:50:20Z","2025-10-31T16:50:22Z","2025-10-31T16:50:29Z","2025-10-31T16:50:33Z","2025-10-31T16:50:39Z","2025-10-31T16:50:41Z","2025-10-31T16:50:44Z","2025-10-31T16:50:46Z","2025-10-31T16:50:49Z","2025-10-31T16:50:52Z","2025-10-31T16:50:58Z","2025-10-31T16:50:59Z","2025-10-31T16:51:05Z","2025-10-31T16:51:13Z","2025-10-31T16:51:16Z","2025-10-31T16:51:17Z","2025-10-31T16:51:20Z","2025-10-31T16:51:22Z","2025-10-31T16:51:24Z","2025-10-31T16:51:26Z","2025-10-31T16:51:27Z","2025-10-31T16:51:28Z","2025-10-31T16:51:33Z","2025-10-31T16:51:38Z","2025-10-31T16:51:41Z","2025-10-31T16:51:42Z","2025-10-31T16:51:45Z","2025-10-31T16:51:48Z","2025-10-31T16:51:51Z","2025-10-31T16:51:53Z","2025-10-31T16:51:54Z","2025-10-31T16:51:58Z","2025-10-31T16:52:00Z","2025-10-31T16:52:03Z","2025-10-31T16:52:07Z","2025-10-31T16:52:17Z","2025-10-31T16:52:21Z","2025-10-31T16:52:23Z","2025-10-31T16:52:28Z","2025-10-31T16:52:32Z","2025-10-31T16:52:38Z","2025-10-31T16:52:42Z","2025-10-31T16:52:46Z","2025-10-31T16:52:47Z","2025-10-31T16:52:49Z","2025-10-31T16:52:52Z","2025-10-31T16:52:59Z","2025-10-31T16:53:02Z","2025-10-31T16:53:06Z","2025-10-31T16:53:07Z","2025-10-31T16:53:11Z","2025-10-31T16:53:13Z","2025-10-31T16:53:14Z","2025-10-31T16:53:18Z","2025-10-31T16:53:22Z","2025-10-31T16:53:26Z","2025-10-31T16:53:31Z","2025-10-31T16:53:33Z","2025-10-31T16:53:36Z","2025-10-31T16:53:40Z","2025-10-31T16:53:44Z","2025-10-31T16:53:46Z","2025-10-31T16:53:49Z","2025-10-31T16:53:57Z","2025-10-31T16:54:05Z","2025-10-31T16:54:10Z","2025-10-31T16:54:20Z","2025-10-31T16:54:25Z","2025-10-31T16:54:28Z","2025-10-31T16:54:29Z","2025-10-31T16:54:31Z","2025-10-31T16:54:35Z","2025-10-31T16:54:36Z","2025-10-31T16:54:39Z","2025-10-31T16:54:42Z","2025-10-31T16:54:44Z","2025-10-31T16:54:45Z","2025-10-31T16:54:47Z","2025-10-31T16:54:49Z","2025-10-31T16:54:54Z","2025-10-31T16:55:12Z","2025-10-31T16:55:14Z","2025-10-31T16:55:20Z","2025-10-31T16:55:22Z","2025-10-31T16:55:23Z","2025-10-31T16:55:27Z","2025-10-31T16:55:30Z","2025-10-31T16:55:32Z","2025-10-31T16:55:45Z","2025-10-31T16:55:48Z","2025-10-31T16:55:51Z","2025-10-31T16:56:02Z","2025-10-31T16:56:04Z","2025-10-31T16:56:15Z","2025-10-31T16:56:48Z","2025-10-31T16:56:59Z","2025-10-31T16:57:04Z","2025-10-31T16:57:11Z","2025-10-31T16:57:22Z","2025-10-31T16:57:27Z","2025-10-31T16:57:31Z","2025-10-31T16:57:32Z","2025-10-31T16:57:37Z","2025-10-31T16:57:40Z","2025-10-31T16:57:42Z","2025-10-31T16:57:49Z","2025-10-31T16:57:53Z","2025-10-31T16:57:58Z","2025-10-31T16:58:05Z","2025-10-31T16:58:07Z","2025-10-31T16:58:20Z","2025-10-31T16:58:24Z","2025-10-31T16:58:28Z","2025-10-31T16:58:31Z","2025-10-31T16:58:35Z","2025-10-31T16:58:41Z","2025-10-31T16:58:44Z","2025-10-31T16:58:51Z","2025-10-31T16:58:53Z","2025-10-31T16:58:57Z","2025-10-31T16:59:00Z","2025-10-31T16:59:01Z","2025-10-31T16:59:07Z","2025-10-31T16:59:13Z","2025-10-31T16:59:19Z","2025-10-31T16:59:21Z","2025-10-31T16:59:26Z","2025-10-31T16:59:28Z","2025-10-31T16:59:29Z","2025-10-31T16:59:30Z","2025-10-31T16:59:35Z"],"heartRates":[101,102,102,101,100,100,100,100,101,101,95,95,94,93,93,93,95,94,95,96,96,96,96,95,96,96,99,99,99,101,102,103,103,103,86,87,87,88,88,89,90,90,101,102,89,86,87,87,90,90,90,91,91,91,97,99,99,100,99,99,99,99,100,100,99,96,96,96,100,100,97,97,98,99,99,100,100,101,101,102,100,100,100,100,102,102,102,102,103,103,103,102,103,103,102,102,102,101,100,99,101,101,102,102,103,102,102,103,103,103,103,102,102,102,105,105,105,104,103,103,104,105,105,105,105,106,106,106,106,106,107,106,106,105,105,105,105,104,105,106,106,100,100,92,92,95,95,96,96,96,98,98,100,99,97,90,90,92,92,94,94,96,96,98,99,99,99,101,103,104,104,104,105,99,99,95,95,95,95,98,98,98,98,96,96,98,98,98,98,99,99,99,99,98,99,99,97,86,91,91,98,98,100,100,101,100,96,94,84,88,91,91,91,91,91,91,91,86,86,86,86,86,84,84,84,84,84,84,84,84,84,84,84,84,84,84,84,84,84,81,81,81,81,81,81,82,82,81,83,83,83,83,83,85,85,85,85,87,88,89,89,91,92,92,92,92,92,91,91,91,90,90,88,88,88,88,88,88,88,97,97,88,85,85,85,85,85,89,89,90,90,91,93,93,93,92,91,92,92,93,94,94,94,91,93,93,93,92,92,92,92,91,91,91,90,91,91,92,92,92,102,103,103,103,103,105,104,104,104,100,98,94,91,90,91,91,91,91,88,88,88,88,88,86,86,86,83,83,83,88,80,80,80,84,84,82,82,82,82,82,82,82,82,82,86,86,86,88,87,87,87,87,87,87,87,87,87,92,90,90,81,81,81,81,81,80,80,80,81,81,81,81,81,81,84,84,86,90,88,88,89,90,90,91,91,90,88,88,88,88,88,90,90,94,96,94,94,89,86,86,88,88,87,104,103,103,103,103,103,103,105,105,105,104,105,104,104,97,99,98,98,97,98,98,98,99,99,101,101,101,101,102,102,100,100,97,97,100,97,96,95,95,95,95,95,95,95,97,95,92,93,93,93,93,91,89,89,90,90,90,89,89,89,89,89,89,89,89,93,93,93,93,93,93,93,95,95,96,96,95,91,94,94,94,89,88,88,90,92,91,91,92,91,91,92,94,97,97,97,97,99,99,99,96,97,97,98,98,98,98,95,95,93,94,94,94,93,93,93,94,94,94,94,94,94,94,94,94,95,95,90,90,96,93,93,95,95,95,94,94,94,97,96,96,96,98,98,100,99,97,97,97,97,98,98,98,99,99,99,99,99,96,96,95,95,97,97,97,97,97,97,97,97,99,99,99,99,99,98,98,98,99,98,98,98,99,99,99,99,98,99,99,101,101,101,102,103,104,105,105,105,105,104,103,103,100,100,100,99,99,99,99,102,101,102,102,101,101,100,100,100,99,99,99,99,98,98,98,98,98,92,98,97,97,97,100,100,101,103,103,103,104,104,99,95,97,97,97,100,98,97,97,98,98,98,98,98,99,99,99,96,96,96,93,95,95,98,99,99,99,98,98,100,100,102,103,103,103,103,103,100],"month":"2025-10-01"},"geometry":{"type":"LineString","coordinates":[[10.404109,63.429407,3.9],[10.404102,63.429388,3.9],[10.404066,63.429389,3.9],[10.403993,63.429356,3.9],[10.403892,63.429331,3.9],[10.403817,63.429298,3.9],[10.40379,63.429275,3.9],[10.403798,63.429246,3.9],[10.403713,63.42913,3.9],[10.403718,63.429051,3.9],[10.403641,63.428995,3.8],[10.40364,63.428982,3.8],[10.403606,63.428958,3.8],[10.403501,63.428924,3.8],[10.403414,63.428875,3.8],[10.403297,63.428856,3.8],[10.403262,63.428836,3.8],[10.403256,63.428814,3.8],[10.403153,63.428736,3.9],[10.403146,63.428716,3.9],[10.403164,63.428707,3.9],[10.403186,63.428713,3.9],[10.403282,63.428668,3.9],[10.403172,63.428419,4.2],[10.403138,63.42841,4.2],[10.403059,63.428351,4.3],[10.403055,63.428242,4.5],[10.403038,63.42821,4.6],[10.403017,63.428199,4.6],[10.403004,63.428105,4.8],[10.402943,63.428045,4.9],[10.402939,63.428018,5],[10.402916,63.428025,5],[10.402901,63.428019,5],[10.402588,63.428037,5.2],[10.402504,63.428099,5.3],[10.402392,63.428107,5.6],[10.402298,63.428126,5.9],[10.40221,63.428122,6.1],[10.402094,63.428132,6.4],[10.402002,63.42815,6.7],[10.401937,63.428149,6.8],[10.401708,63.428186,7.4],[10.401678,63.428218,7.5],[10.401425,63.428253,7.9],[10.401228,63.42826,8.1],[10.401144,63.428283,8.2],[10.401109,63.42828,8.2],[10.401044,63.428295,8.3],[10.400988,63.428297,8.3],[10.40097,63.428308,8.3],[10.400887,63.428325,8.4],[10.400405,63.428381,8.7],[10.400307,63.428435,8.8],[10.400289,63.428478,8.9],[10.400312,63.428548,8.8],[10.400362,63.428594,8.8],[10.400383,63.428653,8.7],[10.40042,63.428702,8.6],[10.400411,63.428718,8.6],[10.400431,63.428764,8.5],[10.400497,63.428795,8.5],[10.400551,63.428836,8.5],[10.40056,63.428899,8.4],[10.400599,63.428963,8.3],[10.400593,63.428985,8.3],[10.400609,63.429003,8.3],[10.4006,63.429071,8.2],[10.400657,63.429156,8.1],[10.400703,63.429169,8.1],[10.400706,63.429182,8],[10.400756,63.429215,8],[10.400786,63.429278,7.9],[10.400831,63.42931,7.9],[10.400821,63.429353,7.8],[10.400897,63.429473,7.7],[10.40094,63.429492,7.7],[10.400978,63.429549,7.6],[10.400996,63.429555,7.6],[10.40104,63.429618,7.6],[10.401023,63.429632,7.6],[10.401058,63.429642,7.6],[10.401122,63.429718,7.6],[10.401126,63.429757,7.6],[10.401178,63.429789,7.6],[10.401169,63.429799,7.6],[10.401183,63.429836,7.6],[10.401232,63.429873,7.6],[10.401234,63.429892,7.6],[10.401271,63.429916,7.6],[10.401314,63.429995,7.6],[10.401319,63.430057,7.7],[10.401399,63.430137,7.7],[10.401405,63.430163,7.8],[10.401474,63.430218,7.8],[10.401555,63.430323,7.8],[10.401552,63.430336,7.8],[10.401624,63.430434,7.8],[10.401676,63.430482,7.8],[10.401768,63.430537,7.8],[10.401822,63.430656,7.9],[10.401867,63.430699,7.9],[10.401863,63.430724,7.9],[10.401924,63.430774,7.9],[10.401989,63.430858,7.9],[10.402053,63.430915,7.9],[10.402055,63.43096,7.9],[10.402105,63.431043,7.9],[10.402125,63.431052,7.9],[10.402114,63.431098,7.9],[10.402212,63.43115,7.8],[10.402291,63.431216,7.8],[10.402289,63.431247,7.8],[10.402372,63.431361,7.7],[10.402437,63.431414,7.7],[10.402491,63.43144,7.7],[10.402519,63.431471,7.7],[10.402494,63.431546,7.6],[10.402517,63.431611,7.6],[10.402574,63.431642,7.5],[10.402589,63.431699,7.5],[10.402739,63.431838,7.4],[10.402781,63.431912,7.4],[10.402782,63.431947,7.3],[10.402763,63.431981,7.3],[10.402807,63.432072,7.1],[10.402857,63.432094,7.1],[10.402905,63.432131,7],[10.402933,63.432212,6.9],[10.402967,63.43224,6.8],[10.403047,63.432279,6.8],[10.403122,63.432364,6.6],[10.403153,63.432381,6.6],[10.40317,63.432414,6.5],[10.403252,63.432483,6.4],[10.403273,63.432529,6.4],[10.4034,63.432663,6.2],[10.403425,63.432668,6.1],[10.40346,63.432728,6.1],[10.403504,63.432753,6],[10.403522,63.432793,6],[10.403574,63.432843,5.9],[10.403584,63.432885,5.8],[10.403614,63.432924,5.8],[10.403689,63.432965,5.8],[10.403576,63.432985,5.8],[10.403539,63.433004,5.8],[10.403471,63.43302,5.8],[10.403447,63.433034,5.8],[10.403457,63.433033,5.8],[10.403414,63.433067,5.7],[10.403419,63.433079,5.7],[10.403296,63.433137,5.7],[10.403265,63.433178,5.7],[10.403273,63.433199,5.7],[10.403171,63.433341,6],[10.403154,63.433345,6],[10.403079,63.43332,6.1],[10.402992,63.433312,6.3],[10.40297,63.433324,6.3],[10.402911,63.433335,6.4],[10.402863,63.433355,6.5],[10.402761,63.433437,6.8],[10.402666,63.433442,6.9],[10.402529,63.433421,7],[10.402463,63.433387,7],[10.402365,63.433362,7],[10.402256,63.433363,7.1],[10.402178,63.433352,7.1],[10.402105,63.433369,7.1],[10.402075,63.433366,7.1],[10.401976,63.433376,7.1],[10.401933,63.433361,7.1],[10.401706,63.433435,7.2],[10.401693,63.433427,7.2],[10.401625,63.433441,7.2],[10.401587,63.433432,7.2],[10.401564,63.433434,7.2],[10.401536,63.433453,7.2],[10.401409,63.433451,7.2],[10.401388,63.433443,7.2],[10.401282,63.43344,7.3],[10.401254,63.433432,7.3],[10.401189,63.433438,7.3],[10.401118,63.433433,7.3],[10.401076,63.433422,7.3],[10.401059,63.433426,7.3],[10.401058,63.433417,7.3],[10.401017,63.433399,7.3],[10.400845,63.433354,7.3],[10.400764,63.433372,7.3],[10.40072,63.433369,7.3],[10.400619,63.433382,7.2],[10.400524,63.433407,7.2],[10.400482,63.433401,7.2],[10.400419,63.433363,7.2],[10.400415,63.433333,7.2],[10.40018,63.433272,7.1],[10.400096,63.433319,7],[10.400039,63.433335,7],[10.399967,63.433389,7],[10.399869,63.433399,7],[10.399728,63.433396,7],[10.399696,63.433404,7],[10.399558,63.433392,7],[10.399461,63.433402,7.1],[10.399279,63.433391,7.1],[10.399271,63.433378,7.1],[10.399299,63.433389,7.1],[10.399232,63.433386,7.1],[10.399201,63.433397,7.1],[10.399152,63.433375,7.2],[10.399086,63.433306,7.2],[10.399152,63.433281,7.2],[10.399142,63.433277,7.2],[10.399196,63.433325,7.2],[10.399259,63.43327,7.1],[10.3992,63.433204,7],[10.399165,63.433195,6.9],[10.399215,63.433178,6.9],[10.399237,63.433183,6.9],[10.399361,63.433164,7],[10.399347,63.433138,6.9],[10.399449,63.433056,6.9],[10.399298,63.433008,6.9],[10.399196,63.432955,6.9],[10.399143,63.432992,6.8],[10.399111,63.432992,6.8],[10.399485,63.433299,7.2],[10.399516,63.433313,7.2],[10.399355,63.433307,7.2],[10.399554,63.433016,6.9],[10.399614,63.43289,7],[10.399657,63.43266,7.7],[10.399563,63.432618,7.8],[10.399364,63.432646,7.7],[10.399237,63.432646,7.7],[10.399148,63.432668,7.7],[10.399044,63.432631,7.8],[10.399113,63.432644,7.8],[10.399099,63.432876,7.1],[10.399291,63.432833,7.2],[10.39965,63.432689,7.6],[10.399289,63.432784,7.4],[10.399264,63.432824,7.2],[10.399236,63.432808,7.3],[10.399193,63.432808,7.3],[10.39899,63.433311,7.2],[10.398964,63.433289,7.2],[10.398932,63.433289,7.2],[10.39889,63.433323,7.2],[10.398832,63.433325,7.2],[10.398851,63.433338,7.2],[10.398843,63.433335,7.2],[10.398859,63.433338,7.2],[10.398843,63.433341,7.2],[10.398843,63.433336,7.2],[10.398789,63.433356,7.2],[10.39862,63.433318,7.1],[10.398567,63.433319,7.1],[10.398537,63.433309,7.1],[10.398433,63.433309,7.1],[10.398322,63.433296,7.1],[10.398207,63.43332,7.1],[10.398128,63.433352,7.2],[10.398022,63.433349,7.2],[10.398,63.433355,7.2],[10.397929,63.433346,7.2],[10.397923,63.433338,7.2],[10.397872,63.433335,7.2],[10.397821,63.433345,7.2],[10.397762,63.433413,7.2],[10.397705,63.433348,7.2],[10.397717,63.433262,7.2],[10.397704,63.433246,7.2],[10.397663,63.433228,7.2],[10.397644,63.433249,7.2],[10.397518,63.433288,7.2],[10.397439,63.43328,7.2],[10.397291,63.433289,7.2],[10.397274,63.433277,7.2],[10.397371,63.43377,6.5],[10.397652,63.43349,7],[10.397704,63.433413,7],[10.397685,63.43342,7],[10.397616,63.433325,7.1],[10.397624,63.433296,7.1],[10.397572,63.433153,7.2],[10.397553,63.433138,7.2],[10.397555,63.433115,7.3],[10.397518,63.433084,7.3],[10.397552,63.43306,7.3],[10.397584,63.433054,7.4],[10.397589,63.43304,7.4],[10.397572,63.433024,7.4],[10.397586,63.433005,7.4],[10.397568,63.432937,7.5],[10.397539,63.432899,7.5],[10.397551,63.432893,7.6],[10.397526,63.432866,7.6],[10.397516,63.432788,7.7],[10.397542,63.432785,7.7],[10.397589,63.43274,7.8],[10.39762,63.432684,7.9],[10.397611,63.432661,7.9],[10.397632,63.432612,7.9],[10.397574,63.432575,7.9],[10.397512,63.43251,7.9],[10.397485,63.432511,7.9],[10.397459,63.4325,7.9],[10.39745,63.432506,7.9],[10.397433,63.432493,7.9],[10.39743,63.432433,8],[10.397394,63.43243,8],[10.397389,63.432445,8],[10.397354,63.432394,8],[10.397322,63.432403,8],[10.397262,63.432552,8],[10.397317,63.432539,8],[10.397274,63.432493,8.1],[10.397296,63.43244,8.1],[10.397284,63.432443,8.1],[10.397274,63.432432,8.1],[10.397291,63.432412,8.1],[10.397305,63.432411,8.1],[10.397287,63.432407,8.1],[10.397286,63.432386,8.1],[10.397275,63.432387,8.1],[10.397277,63.432376,8.1],[10.397355,63.432353,8.1],[10.397335,63.432259,8.2],[10.397337,63.432157,8.2],[10.397349,63.432153,8.2],[10.397348,63.432115,8.2],[10.397318,63.43215,8.3],[10.397342,63.432151,8.3],[10.397332,63.432178,8.3],[10.397317,63.432182,8.3],[10.397309,63.432163,8.3],[10.397287,63.432159,8.3],[10.397304,63.432155,8.3],[10.39728,63.432153,8.3],[10.397275,63.432161,8.3],[10.397285,63.432155,8.3],[10.397143,63.432163,8.3],[10.397213,63.432174,8.4],[10.39764,63.431846,8.5],[10.397628,63.431808,8.5],[10.397667,63.431787,8.5],[10.397705,63.431732,8.5],[10.39767,63.431483,8.5],[10.397656,63.431478,8.5],[10.397661,63.431468,8.5],[10.397735,63.431435,8.5],[10.397698,63.431436,8.5],[10.3977,63.431387,8.5],[10.397667,63.431368,8.5],[10.397696,63.431397,8.5],[10.397695,63.431416,8.5],[10.397681,63.431412,8.5],[10.397688,63.431425,8.5],[10.397673,63.431428,8.5],[10.397683,63.431433,8.5],[10.397692,63.431411,8.5],[10.397657,63.431358,8.5],[10.397657,63.43137,8.5],[10.397656,63.431362,8.5],[10.397645,63.431366,8.5],[10.397679,63.43137,8.5],[10.397663,63.431376,8.5],[10.397633,63.431451,8.6],[10.397712,63.431649,8.6],[10.397703,63.431653,8.6],[10.397653,63.431535,8.6],[10.397647,63.431555,8.6],[10.397644,63.431433,8.6],[10.397863,63.431477,8.6],[10.397825,63.431464,8.6],[10.39777,63.431406,8.6],[10.397761,63.431289,8.7],[10.397917,63.43131,8.7],[10.398084,63.431304,8.7],[10.398159,63.431358,8.7],[10.398176,63.431355,8.7],[10.398134,63.431365,8.7],[10.398148,63.431396,8.7],[10.398109,63.431418,8.7],[10.398117,63.431414,8.7],[10.39771,63.43138,8.7],[10.397582,63.431361,8.7],[10.39757,63.431367,8.7],[10.397479,63.431369,8.8],[10.397453,63.431313,8.8],[10.397399,63.431304,8.8],[10.397373,63.431314,8.8],[10.397264,63.43132,8.8],[10.397253,63.43133,8.8],[10.397617,63.4313,8.8],[10.397741,63.431168,8.8],[10.397711,63.431151,8.8],[10.397717,63.431058,8.8],[10.397736,63.431033,8.8],[10.397715,63.43101,8.9],[10.397714,63.430976,8.9],[10.397695,63.430964,8.9],[10.397704,63.430957,8.9],[10.397735,63.430998,8.9],[10.397753,63.431003,8.9],[10.397762,63.430979,8.9],[10.397772,63.431015,8.9],[10.39775,63.431023,8.9],[10.397751,63.431059,8.9],[10.397682,63.431095,8.9],[10.397668,63.431119,8.9],[10.397725,63.431095,8.9],[10.397597,63.43109,8.9],[10.397534,63.431112,8.9],[10.397549,63.431071,8.9],[10.397517,63.431159,8.9],[10.397522,63.431121,8.9],[10.397508,63.431122,8.9],[10.397532,63.431117,8.9],[10.397535,63.43113,9],[10.397193,63.430729,9.4],[10.397048,63.430494,9.9],[10.396969,63.430448,9.9],[10.39681,63.430393,9.9],[10.396897,63.430409,9.9],[10.396871,63.43046,9.9],[10.396837,63.430461,9.9],[10.396754,63.430487,9.9],[10.396665,63.430504,9.9],[10.396615,63.430498,9.9],[10.396332,63.430514,9.8],[10.396257,63.43053,9.8],[10.396035,63.430547,9.7],[10.395952,63.430511,9.7],[10.395841,63.43048,9.7],[10.395653,63.430455,9.7],[10.395595,63.43043,9.6],[10.395554,63.430426,9.6],[10.395494,63.430401,9.6],[10.395393,63.430381,9.6],[10.395279,63.43034,9.6],[10.395087,63.430303,9.7],[10.394822,63.430213,9.9],[10.394705,63.430187,10],[10.394521,63.43009,10.2],[10.394437,63.430067,10.3],[10.394425,63.430075,10.3],[10.394395,63.430062,10.4],[10.394295,63.430053,10.4],[10.39422,63.430077,10.5],[10.394189,63.430099,10.5],[10.394153,63.430097,10.5],[10.393971,63.430121,10.6],[10.393889,63.430086,10.6],[10.3936,63.430081,10.7],[10.392386,63.429928,10.7],[10.392526,63.429951,10.7],[10.393278,63.430134,11.2],[10.393249,63.43018,11],[10.393015,63.430118,11],[10.392806,63.43022,10.9],[10.392815,63.430208,10.9],[10.392805,63.43021,10.9],[10.392941,63.430079,10.8],[10.393012,63.430044,10.8],[10.392914,63.430033,10.7],[10.394005,63.430066,10.6],[10.394072,63.430032,10.6],[10.394111,63.429981,10.6],[10.394112,63.429993,10.6],[10.394101,63.429986,10.6],[10.394133,63.429967,10.6],[10.39402,63.429998,10.5],[10.39414,63.430014,10.5],[10.394276,63.430147,10.5],[10.39433,63.430171,10.4],[10.394322,63.430178,10.4],[10.394361,63.430155,10.4],[10.394355,63.430118,10.4],[10.394395,63.43012,10.4],[10.394414,63.430105,10.4],[10.394448,63.430096,10.4],[10.394577,63.430112,10.4],[10.394665,63.430132,10.4],[10.394823,63.43014,10.3],[10.395069,63.430114,10.3],[10.395141,63.4301,10.3],[10.395191,63.4301,10.3],[10.395354,63.430064,10.2],[10.395412,63.430063,10.2],[10.395429,63.430056,10.2],[10.395459,63.430077,10.2],[10.395515,63.430059,10.2],[10.395721,63.430042,10.2],[10.395736,63.430047,10.2],[10.395754,63.430038,10.2],[10.395875,63.430035,10.2],[10.395915,63.429999,10.2],[10.395948,63.430004,10.2],[10.39586,63.430027,10.2],[10.395813,63.430069,10.1],[10.395829,63.430219,10],[10.395876,63.430299,9.9],[10.395895,63.430309,9.9],[10.395941,63.430378,9.8],[10.395954,63.430425,9.8],[10.396031,63.43047,9.7],[10.396184,63.430479,9.7],[10.396341,63.430501,9.7],[10.396515,63.430514,9.8],[10.396621,63.430508,9.9],[10.396862,63.43057,9.9],[10.396958,63.430564,9.9],[10.397079,63.430568,9.9],[10.397179,63.430552,9.9],[10.39736,63.430549,9.9],[10.397498,63.430569,9.8],[10.397569,63.430591,9.8],[10.397606,63.430614,9.8],[10.397598,63.430635,9.8],[10.397623,63.430667,9.6],[10.397648,63.43077,9.4],[10.397618,63.430843,9.3],[10.397638,63.430876,9.2],[10.397623,63.430886,9.2],[10.397604,63.430956,9.1],[10.397545,63.430982,9.1],[10.397532,63.431118,9],[10.397554,63.431128,9],[10.397562,63.431168,8.9],[10.397541,63.431242,8.9],[10.397563,63.431274,8.9],[10.397527,63.431308,8.8],[10.397528,63.431371,8.8],[10.39749,63.431436,8.8],[10.397477,63.431436,8.8],[10.397459,63.431478,8.7],[10.397541,63.431528,8.7],[10.397564,63.431527,8.7],[10.397569,63.431543,8.7],[10.397554,63.431551,8.7],[10.397554,63.431576,8.7],[10.397529,63.431603,8.6],[10.39753,63.43163,8.6],[10.397562,63.431651,8.6],[10.39757,63.431675,8.6],[10.397584,63.431659,8.6],[10.397776,63.431711,8.5],[10.397768,63.431742,8.5],[10.397697,63.431822,8.5],[10.397639,63.431923,8.5],[10.397581,63.431976,8.5],[10.397514,63.432001,8.4],[10.397494,63.432034,8.4],[10.397458,63.43204,8.4],[10.397471,63.432089,8.4],[10.397484,63.432087,8.4],[10.397494,63.432125,8.3],[10.397512,63.43213,8.3],[10.397526,63.432156,8.3],[10.39751,63.43219,8.3],[10.397457,63.432234,8.2],[10.397443,63.432286,8.2],[10.397488,63.432399,8.1],[10.39746,63.432454,8],[10.3974,63.432489,8],[10.397316,63.43259,7.9],[10.397381,63.432705,7.9],[10.397458,63.432722,7.9],[10.397664,63.432709,7.9],[10.397786,63.432731,7.9],[10.397945,63.432744,7.9],[10.398008,63.432734,7.9],[10.398094,63.432705,7.9],[10.398174,63.432718,7.9],[10.39823,63.432716,7.9],[10.398312,63.432733,7.9],[10.398463,63.432744,7.8],[10.39848,63.432738,7.8],[10.398636,63.432755,7.8],[10.398842,63.432752,7.8],[10.398904,63.43277,7.8],[10.398932,63.432765,7.8],[10.399011,63.432774,7.7],[10.399048,63.432803,7.7],[10.399105,63.432802,7.7],[10.399159,63.432779,7.7],[10.399186,63.432776,7.7],[10.399209,63.432783,7.7],[10.399346,63.432772,7.7],[10.399472,63.432731,7.7],[10.399549,63.432724,7.7],[10.399572,63.432728,7.7],[10.399636,63.4327,7.6],[10.399714,63.432702,7.6],[10.399772,63.432688,7.6],[10.39982,63.432695,7.6],[10.399845,63.432691,7.6],[10.399924,63.432727,7.6],[10.399943,63.432751,7.6],[10.399972,63.432731,7.5],[10.400014,63.432733,7.5],[10.400234,63.432865,7.3],[10.400296,63.432925,7.3],[10.400299,63.432948,7.2],[10.400204,63.433031,7.2],[10.40017,63.433085,7.1],[10.400163,63.433166,7.1],[10.400207,63.43321,7.1],[10.400291,63.43325,7.1],[10.400305,63.433269,7.1],[10.400367,63.433287,7.2],[10.400466,63.433292,7.2],[10.400687,63.433331,7.3],[10.400774,63.433357,7.3],[10.400869,63.433362,7.4],[10.400898,63.433356,7.4],[10.400994,63.433377,7.4],[10.401055,63.433376,7.4],[10.40108,63.433369,7.4],[10.401187,63.433371,7.4],[10.401285,63.433351,7.4],[10.401387,63.433356,7.3],[10.401512,63.433344,7.3],[10.401577,63.433359,7.3],[10.401655,63.433366,7.3],[10.401767,63.43335,7.2],[10.401882,63.433379,7.2],[10.401931,63.433375,7.2],[10.402014,63.43339,7.2],[10.402253,63.433391,7],[10.402446,63.433352,6.9],[10.402586,63.433352,6.8],[10.402862,63.433331,6.4],[10.403022,63.433334,6.3],[10.403107,63.433318,6.2],[10.403136,63.433319,6.2],[10.403213,63.433303,6.1],[10.403311,63.433302,6],[10.403329,63.433291,6],[10.403416,63.433295,5.9],[10.403489,63.433287,5.8],[10.403537,63.433266,5.8],[10.403546,63.433253,5.8],[10.403589,63.433242,5.7],[10.40364,63.433213,5.7],[10.40365,63.433166,5.8],[10.403856,63.433054,5.9],[10.403902,63.433053,5.9],[10.404026,63.433033,6],[10.404074,63.433013,6.1],[10.404094,63.433013,6.1],[10.404176,63.432964,6.2],[10.40426,63.432939,6.2],[10.404309,63.432913,6.3],[10.404644,63.432828,6.4],[10.404709,63.432823,6.5],[10.404781,63.4328,6.5],[10.405028,63.432762,6.7],[10.405015,63.432763,6.8],[10.405154,63.432742,6.9],[10.405494,63.432664,7.1],[10.405767,63.432617,7.2],[10.405882,63.43258,7.1],[10.406058,63.432547,7],[10.406265,63.432491,6.8],[10.406388,63.432475,6.6],[10.406484,63.432448,6.5],[10.406514,63.432447,6.5],[10.406646,63.432414,6.3],[10.406691,63.432378,6.2],[10.406736,63.432359,6.1],[10.406896,63.432331,6],[10.406988,63.432298,5.9],[10.407111,63.43227,5.7],[10.407263,63.432208,5.5],[10.407302,63.432181,5.5],[10.407615,63.432126,5.2],[10.407707,63.432094,5.2],[10.407764,63.432037,5.1],[10.407744,63.431975,5.1],[10.407751,63.431939,5],[10.407653,63.431885,4.9],[10.407614,63.431833,4.7],[10.407503,63.431769,4.6],[10.407487,63.431743,4.6],[10.407422,63.431704,4.5],[10.407427,63.431664,4.5],[10.407414,63.431655,4.5],[10.407424,63.43159,4.5],[10.407447,63.431552,4.6],[10.407313,63.431538,4.6],[10.407294,63.431542,4.6],[10.407145,63.431529,4.6],[10.407088,63.431517,4.6],[10.407062,63.431526,4.6],[10.407037,63.431506,4.7],[10.407033,63.431485,4.7]]}}]}