<?xml version="1.0" encoding="UTF-8"?>
<gpx creator="gps4cam - http://gps4cam.com" version="1.1" schemaLocation="http://www.topografix.com/GPX/1/1 http://www.topografix.com/GPX/1/1/gpx.xsd" xmlns="http://www.topografix.com/GPX/1/1" xmlns:xsi="http://www.w3.org/2001/XMLSchema-instance" xsi:schemaLocation="http://www.topografix.com/GPX/1/1 http://www.topografix.com/GPX/1/1/gpx.xsd http://www.garmin.com/xmlschemas/GpxExtensions/v3 http://www.garmin.com/xmlschemas/GpxExtensionsv3.xsd http://www.garmin.com/xmlschemas/TrackPointExtension/v1 http://www.garmin.com/xmlschemas/TrackPointExtensionv1.xsd http://www.garmin.com/xmlschemas/PowerExtension/v1 http://www.garmin.com/xmlschemas/PowerExtensionv1.xsd http://www.topografix.com/GPX/gpx_style/0/2 http://www.topografix.com/GPX/gpx_style/0/2/gpx_style.xsd" xmlns:gpxtpx="http://www.garmin.com/xmlschemas/TrackPointExtension/v1" xmlns:gpxx="http://www.garmin.com/xmlschemas/GpxExtensions/v3" xmlns:gpxpx="http://www.garmin.com/xmlschemas/PowerExtension/v1" xmlns:gpx_style="http://www.topografix.com/GPX/gpx_style/0/2">
  <metadata>
    <name>gps4cam trip started at 2015-08-09 12-21 decoded at 2015-08-09 23-48-33</name>
    <author>
      <name>gpx.studio</name>
      <link href="https://gpx.studio"/>
    </author>
    <link href="http://gps4cam.com">
      <text>gps4cam</text>
    </link>
    <time>2015-08-09T15:48:37.000Z</time>
  </metadata>
  <trk>
    <name>gps4cam trip started at: 2015-08-09T04:21:27Z</name>
    <trkseg>
      <trkpt lat="22.2869304136" lon="114.1615544104">
        <ele>0</ele>
        <time>2015-08-09T06:21:33.000Z</time>
      </trkpt>
      <trkpt lat="22.2869793791" lon="114.1614188805">
        <ele>-6</ele>
        <time>2015-08-09T06:21:39.000Z</time>
      </trkpt>
      <trkpt lat="22.2869159488" lon="114.1612712007">
        <ele>-11</ele>
        <time>2015-08-09T06:21:59.000Z</time>
      </trkpt>
      <trkpt lat="22.2868134691" lon="114.1611709676">
        <ele>-9</ele>
        <time>2015-08-09T06:22:18.000Z</time>
      </trkpt>
      <trkpt lat="22.2864351537" lon="114.1608635797">
        <ele>-18</ele>
        <time>2015-08-09T06:23:49.000Z</time>
      </trkpt>
      <trkpt lat="22.286305789" lon="114.1608150229">
        <ele>-19</ele>
        <time>2015-08-09T06:24:11.000Z</time>
      </trkpt>
      <trkpt lat="22.2861263778" lon="114.1607993218">
        <ele>-23</ele>
        <time>2015-08-09T06:24:31.000Z</time>
      </trkpt>
      <trkpt lat="22.2859908196" lon="114.1607683545">
        <ele>-16</ele>
        <time>2015-08-09T06:25:11.000Z</time>
      </trkpt>
      <trkpt lat="22.2858699809" lon="114.1606814842">
        <ele>-13</ele>
        <time>2015-08-09T06:25:26.000Z</time>
      </trkpt>
      <trkpt lat="22.2857630562" lon="114.1605832984">
        <ele>-8</ele>
        <time>2015-08-09T06:25:42.000Z</time>
      </trkpt>
      <trkpt lat="22.285655548" lon="114.1604902943">
        <ele>-12</ele>
        <time>2015-08-09T06:25:52.000Z</time>
      </trkpt>
      <trkpt lat="22.2855770342" lon="114.160364296">
        <ele>-7</ele>
        <time>2015-08-09T06:26:04.000Z</time>
      </trkpt>
      <trkpt lat="22.2854902161" lon="114.1602372064">
        <ele>-2</ele>
        <time>2015-08-09T06:26:14.000Z</time>
      </trkpt>
      <trkpt lat="22.285367627" lon="114.1601658818">
        <ele>-1</ele>
        <time>2015-08-09T06:26:26.000Z</time>
      </trkpt>
      <trkpt lat="22.2852181544" lon="114.1601462326">
        <ele>3</ele>
        <time>2015-08-09T06:26:36.000Z</time>
      </trkpt>
      <trkpt lat="22.2850943988" lon="114.1600852713">
        <ele>10</ele>
        <time>2015-08-09T06:26:49.000Z</time>
      </trkpt>
      <trkpt lat="22.2849472588" lon="114.1600448973">
        <ele>3</ele>
        <time>2015-08-09T06:27:06.000Z</time>
      </trkpt>
      <trkpt lat="22.284849803" lon="114.1599374428">
        <ele>10</ele>
        <time>2015-08-09T06:27:17.000Z</time>
      </trkpt>
      <trkpt lat="22.2847624004" lon="114.1598155362">
        <ele>4</ele>
        <time>2015-08-09T06:27:33.000Z</time>
      </trkpt>
      <trkpt lat="22.2846749976" lon="114.1596936299">
        <ele>-5</ele>
        <time>2015-08-09T06:27:42.000Z</time>
      </trkpt>
      <trkpt lat="22.2845390769" lon="114.1596284423">
        <ele>-7</ele>
        <time>2015-08-09T06:27:51.000Z</time>
      </trkpt>
      <trkpt lat="22.2844102939" lon="114.1595747091">
        <ele>-9</ele>
        <time>2015-08-09T06:27:59.000Z</time>
      </trkpt>
      <trkpt lat="22.2843134202" lon="114.1594620748">
        <ele>-3</ele>
        <time>2015-08-09T06:28:11.000Z</time>
      </trkpt>
      <trkpt lat="22.284199717" lon="114.1593866635">
        <ele>4</ele>
        <time>2015-08-09T06:28:30.000Z</time>
      </trkpt>
      <trkpt lat="22.2840978162" lon="114.159281256">
        <ele>6</ele>
        <time>2015-08-09T06:28:47.000Z</time>
      </trkpt>
      <trkpt lat="22.2839959152" lon="114.1591758489">
        <ele>3</ele>
        <time>2015-08-09T06:28:55.000Z</time>
      </trkpt>
      <trkpt lat="22.283878572" lon="114.1590578966">
        <ele>4</ele>
        <time>2015-08-09T06:29:01.000Z</time>
      </trkpt>
      <trkpt lat="22.2837023757" lon="114.1588638569">
        <ele>-3</ele>
        <time>2015-08-09T06:29:09.000Z</time>
      </trkpt>
      <trkpt lat="22.2835735919" lon="114.1588101262">
        <ele>-4</ele>
        <time>2015-08-09T06:29:17.000Z</time>
      </trkpt>
      <trkpt lat="22.2834374494" lon="114.1587843474">
        <ele>1</ele>
        <time>2015-08-09T06:29:26.000Z</time>
      </trkpt>
      <trkpt lat="22.2832396803" lon="114.1587820173">
        <ele>-3</ele>
        <time>2015-08-09T06:29:40.000Z</time>
      </trkpt>
      <trkpt lat="22.2833355472" lon="114.1586789418">
        <ele>35</ele>
        <time>2015-08-09T06:30:07.000Z</time>
      </trkpt>
      <trkpt lat="22.28327299" lon="114.1583736489">
        <ele>87</ele>
        <time>2015-08-09T06:30:47.000Z</time>
      </trkpt>
      <trkpt lat="22.2830332598" lon="114.1584446744">
        <ele>144</ele>
        <time>2015-08-09T06:32:24.000Z</time>
      </trkpt>
      <trkpt lat="22.2819755332" lon="114.1577720063">
        <ele>157</ele>
        <time>2015-08-09T06:34:11.000Z</time>
      </trkpt>
      <trkpt lat="22.281855922" lon="114.1578614473">
        <ele>157</ele>
        <time>2015-08-09T06:34:18.000Z</time>
      </trkpt>
      <trkpt lat="22.2820896785" lon="114.1577686014">
        <ele>169</ele>
        <time>2015-08-09T06:34:56.000Z</time>
      </trkpt>
      <trkpt lat="22.2819922176" lon="114.1576611545">
        <ele>176</ele>
        <time>2015-08-09T06:35:04.000Z</time>
      </trkpt>
      <trkpt lat="22.2819082306" lon="114.1576212013">
        <ele>186</ele>
        <time>2015-08-09T06:35:42.000Z</time>
      </trkpt>
      <trkpt lat="22.281993451" lon="114.1578374543">
        <ele>156</ele>
        <time>2015-08-09T06:36:54.000Z</time>
      </trkpt>
      <trkpt lat="22.2818904479" lon="114.1579290774">
        <ele>161</ele>
        <time>2015-08-09T06:37:06.000Z</time>
      </trkpt>
      <trkpt lat="22.2818530748" lon="114.1580740154">
        <ele>161</ele>
        <time>2015-08-09T06:37:17.000Z</time>
      </trkpt>
      <trkpt lat="22.2819004912" lon="114.1582143206">
        <ele>161</ele>
        <time>2015-08-09T06:37:30.000Z</time>
      </trkpt>
      <trkpt lat="22.2818304842" lon="114.1583497127">
        <ele>158</ele>
        <time>2015-08-09T06:38:21.000Z</time>
      </trkpt>
      <trkpt lat="22.2821280455" lon="114.158438761">
        <ele>154</ele>
        <time>2015-08-09T06:39:36.000Z</time>
      </trkpt>
      <trkpt lat="22.2822407278" lon="114.1585981588">
        <ele>160</ele>
        <time>2015-08-09T06:39:41.000Z</time>
      </trkpt>
      <trkpt lat="22.2820324775" lon="114.1583893979">
        <ele>153</ele>
        <time>2015-08-09T06:39:45.000Z</time>
      </trkpt>
      <trkpt lat="22.2819524283" lon="114.1582395464">
        <ele>139</ele>
        <time>2015-08-09T06:40:37.000Z</time>
      </trkpt>
      <trkpt lat="22.2820533198" lon="114.1581292438">
        <ele>128</ele>
        <time>2015-08-09T06:40:48.000Z</time>
      </trkpt>
      <trkpt lat="22.2821073014" lon="114.1579864879">
        <ele>133</ele>
        <time>2015-08-09T06:40:57.000Z</time>
      </trkpt>
      <trkpt lat="22.2822191917" lon="114.1578907748">
        <ele>136</ele>
        <time>2015-08-09T06:41:10.000Z</time>
      </trkpt>
      <trkpt lat="22.2823036948" lon="114.1577388844">
        <ele>143</ele>
        <time>2015-08-09T06:42:12.000Z</time>
      </trkpt>
      <trkpt lat="22.2825979881" lon="114.1575199173">
        <ele>145</ele>
        <time>2015-08-09T06:42:19.000Z</time>
      </trkpt>
      <trkpt lat="22.2826243527" lon="114.1576600862">
        <ele>152</ele>
        <time>2015-08-09T06:42:43.000Z</time>
      </trkpt>
      <trkpt lat="22.2825295103" lon="114.1576791714">
        <ele>155</ele>
        <time>2015-08-09T06:43:22.000Z</time>
      </trkpt>
      <trkpt lat="22.2822382077" lon="114.1577591973">
        <ele>146</ele>
        <time>2015-08-09T06:44:33.000Z</time>
      </trkpt>
      <trkpt lat="22.2821596867" lon="114.1576332073">
        <ele>141</ele>
        <time>2015-08-09T06:45:00.000Z</time>
      </trkpt>
      <trkpt lat="22.2822391629" lon="114.1574885431">
        <ele>135</ele>
        <time>2015-08-09T06:45:10.000Z</time>
      </trkpt>
    </trkseg>
  </trk>
</gpx>
