<?xml version="1.0" encoding="UTF-8"?>
<gpx creator="RoadTrip 2.0.2" version="1.1" schemaLocation="http://www.topografix.com/GPX/1/1 http://www.topografix.com/GPX/1/1/gpx.xsd" xmlns="http://www.topografix.com/GPX/1/1" xmlns:xsi="http://www.w3.org/2001/XMLSchema-instance" xsi:schemaLocation="http://www.topografix.com/GPX/1/1 http://www.topografix.com/GPX/1/1/gpx.xsd http://www.garmin.com/xmlschemas/GpxExtensions/v3 http://www.garmin.com/xmlschemas/GpxExtensionsv3.xsd http://www.garmin.com/xmlschemas/TrackPointExtension/v1 http://www.garmin.com/xmlschemas/TrackPointExtensionv1.xsd http://www.garmin.com/xmlschemas/PowerExtension/v1 http://www.garmin.com/xmlschemas/PowerExtensionv1.xsd http://www.topografix.com/GPX/gpx_style/0/2 http://www.topografix.com/GPX/gpx_style/0/2/gpx_style.xsd" xmlns:gpxtpx="http://www.garmin.com/xmlschemas/TrackPointExtension/v1" xmlns:gpxx="http://www.garmin.com/xmlschemas/GpxExtensions/v3" xmlns:gpxpx="http://www.garmin.com/xmlschemas/PowerExtension/v1" xmlns:gpx_style="http://www.topografix.com/GPX/gpx_style/0/2">
  <metadata>
    <name>2014-05-25 Balade en v%E9lo</name>
    <author>
      <name>gpx.studio</name>
      <link href="https://gpx.studio"/>
    </author>
    <link href="http://www.garmin.com">
      <text>Garmin International</text>
    </link>
    <time>2014-05-25T12:01:09.000Z</time>
  </metadata>
  <trk>
    <name>Balade en vélo</name>
    <trkseg>
      <trkpt lat="48.68903" lon="2.422479">
        <ele>33.3</ele>
        <time>2014-05-25T08:41:24.000Z</time>
      </trkpt>
      <trkpt lat="48.688723" lon="2.422777">
        <ele>34.26</ele>
        <time>2014-05-25T08:41:38.000Z</time>
      </trkpt>
      <trkpt lat="48.688424" lon="2.423198">
        <ele>35.71</ele>
        <time>2014-05-25T08:41:53.000Z</time>
      </trkpt>
      <trkpt lat="48.688053" lon="2.423594">
        <ele>37.15</ele>
        <time>2014-05-25T08:42:10.000Z</time>
      </trkpt>
      <trkpt lat="48.687726" lon="2.423974">
        <ele>38.59</ele>
        <time>2014-05-25T08:42:25.000Z</time>
      </trkpt>
      <trkpt lat="48.687394" lon="2.424353">
        <ele>39.55</ele>
        <time>2014-05-25T08:42:39.000Z</time>
      </trkpt>
      <trkpt lat="48.687101" lon="2.424745">
        <ele>40.99</ele>
        <time>2014-05-25T08:42:54.000Z</time>
      </trkpt>
      <trkpt lat="48.686828" lon="2.425153">
        <ele>41.95</ele>
        <time>2014-05-25T08:43:07.000Z</time>
      </trkpt>
      <trkpt lat="48.686559" lon="2.425662">
        <ele>44.36</ele>
        <time>2014-05-25T08:43:24.000Z</time>
      </trkpt>
      <trkpt lat="48.686314" lon="2.426031">
        <ele>46.76</ele>
        <time>2014-05-25T08:43:41.000Z</time>
      </trkpt>
      <trkpt lat="48.686125" lon="2.426377">
        <ele>48.2</ele>
        <time>2014-05-25T08:43:56.000Z</time>
      </trkpt>
      <trkpt lat="48.685914" lon="2.426809">
        <ele>50.61</ele>
        <time>2014-05-25T08:44:13.000Z</time>
      </trkpt>
      <trkpt lat="48.685717" lon="2.427098">
        <ele>52.05</ele>
        <time>2014-05-25T08:44:28.000Z</time>
      </trkpt>
      <trkpt lat="48.685675" lon="2.427168">
        <ele>52.53</ele>
        <time>2014-05-25T08:44:31.000Z</time>
      </trkpt>
      <trkpt lat="48.685516" lon="2.427497">
        <ele>53.01</ele>
        <time>2014-05-25T08:44:42.000Z</time>
      </trkpt>
      <trkpt lat="48.685287" lon="2.427879">
        <ele>54.45</ele>
        <time>2014-05-25T08:44:58.000Z</time>
      </trkpt>
      <trkpt lat="48.685057" lon="2.427939">
        <ele>54.93</ele>
        <time>2014-05-25T08:45:09.000Z</time>
      </trkpt>
      <trkpt lat="48.685001" lon="2.427923">
        <ele>54.93</ele>
        <time>2014-05-25T08:45:11.000Z</time>
      </trkpt>
      <trkpt lat="48.684669" lon="2.427914">
        <ele>55.41</ele>
        <time>2014-05-25T08:45:23.000Z</time>
      </trkpt>
      <trkpt lat="48.684403" lon="2.428124">
        <ele>55.89</ele>
        <time>2014-05-25T08:45:33.000Z</time>
      </trkpt>
      <trkpt lat="48.684223" lon="2.428371">
        <ele>56.37</ele>
        <time>2014-05-25T08:45:43.000Z</time>
      </trkpt>
      <trkpt lat="48.683944" lon="2.428591">
        <ele>57.34</ele>
        <time>2014-05-25T08:45:57.000Z</time>
      </trkpt>
      <trkpt lat="48.683753" lon="2.428662">
        <ele>57.34</ele>
        <time>2014-05-25T08:46:19.000Z</time>
      </trkpt>
      <trkpt lat="48.683435" lon="2.428608">
        <ele>57.34</ele>
        <time>2014-05-25T08:46:32.000Z</time>
      </trkpt>
      <trkpt lat="48.68322" lon="2.428389">
        <ele>57.34</ele>
        <time>2014-05-25T08:46:44.000Z</time>
      </trkpt>
      <trkpt lat="48.682859" lon="2.427979">
        <ele>56.86</ele>
        <time>2014-05-25T08:46:56.000Z</time>
      </trkpt>
      <trkpt lat="48.682504" lon="2.42778">
        <ele>56.86</ele>
        <time>2014-05-25T08:47:07.000Z</time>
      </trkpt>
      <trkpt lat="48.682154" lon="2.427844">
        <ele>56.86</ele>
        <time>2014-05-25T08:47:19.000Z</time>
      </trkpt>
      <trkpt lat="48.681728" lon="2.427911">
        <ele>57.82</ele>
        <time>2014-05-25T08:47:33.000Z</time>
      </trkpt>
      <trkpt lat="48.681515" lon="2.427944">
        <ele>57.82</ele>
        <time>2014-05-25T08:47:45.000Z</time>
      </trkpt>
      <trkpt lat="48.68145" lon="2.427965">
        <ele>58.3</ele>
        <time>2014-05-25T08:48:28.000Z</time>
      </trkpt>
      <trkpt lat="48.681369" lon="2.428053">
        <ele>58.3</ele>
        <time>2014-05-25T08:48:32.000Z</time>
      </trkpt>
      <trkpt lat="48.680912" lon="2.428454">
        <ele>59.26</ele>
        <time>2014-05-25T08:48:48.000Z</time>
      </trkpt>
      <trkpt lat="48.680493" lon="2.428931">
        <ele>60.22</ele>
        <time>2014-05-25T08:49:03.000Z</time>
      </trkpt>
      <trkpt lat="48.680116" lon="2.429351">
        <ele>60.7</ele>
        <time>2014-05-25T08:49:18.000Z</time>
      </trkpt>
      <trkpt lat="48.679973" lon="2.429604">
        <ele>61.18</ele>
        <time>2014-05-25T08:49:32.000Z</time>
      </trkpt>
      <trkpt lat="48.679953" lon="2.429671">
        <ele>61.18</ele>
        <time>2014-05-25T08:49:35.000Z</time>
      </trkpt>
      <trkpt lat="48.679882" lon="2.429817">
        <ele>61.18</ele>
        <time>2014-05-25T08:49:43.000Z</time>
      </trkpt>
      <trkpt lat="48.679766" lon="2.43002">
        <ele>61.66</ele>
        <time>2014-05-25T08:49:56.000Z</time>
      </trkpt>
      <trkpt lat="48.67975" lon="2.430071">
        <ele>61.66</ele>
        <time>2014-05-25T08:49:58.000Z</time>
      </trkpt>
      <trkpt lat="48.679579" lon="2.430343">
        <ele>61.66</ele>
        <time>2014-05-25T08:50:11.000Z</time>
      </trkpt>
      <trkpt lat="48.679352" lon="2.430722">
        <ele>61.66</ele>
        <time>2014-05-25T08:50:23.000Z</time>
      </trkpt>
      <trkpt lat="48.679038" lon="2.430966">
        <ele>61.66</ele>
        <time>2014-05-25T08:50:34.000Z</time>
      </trkpt>
      <trkpt lat="48.678661" lon="2.431247">
        <ele>61.66</ele>
        <time>2014-05-25T08:50:49.000Z</time>
      </trkpt>
      <trkpt lat="48.678622" lon="2.431373">
        <ele>61.66</ele>
        <time>2014-05-25T08:50:53.000Z</time>
      </trkpt>
      <trkpt lat="48.678418" lon="2.431683">
        <ele>61.66</ele>
        <time>2014-05-25T08:51:03.000Z</time>
      </trkpt>
      <trkpt lat="48.678314" lon="2.431795">
        <ele>62.14</ele>
        <time>2014-05-25T08:51:08.000Z</time>
      </trkpt>
      <trkpt lat="48.678013" lon="2.432223">
        <ele>62.14</ele>
        <time>2014-05-25T08:51:21.000Z</time>
      </trkpt>
      <trkpt lat="48.677807" lon="2.432581">
        <ele>62.14</ele>
        <time>2014-05-25T08:51:33.000Z</time>
      </trkpt>
      <trkpt lat="48.677627" lon="2.432826">
        <ele>62.62</ele>
        <time>2014-05-25T08:51:44.000Z</time>
      </trkpt>
      <trkpt lat="48.677424" lon="2.432999">
        <ele>62.14</ele>
        <time>2014-05-25T08:51:52.000Z</time>
      </trkpt>
      <trkpt lat="48.677274" lon="2.433062">
        <ele>62.14</ele>
        <time>2014-05-25T08:51:56.000Z</time>
      </trkpt>
      <trkpt lat="48.677061" lon="2.433193">
        <ele>62.62</ele>
        <time>2014-05-25T08:52:08.000Z</time>
      </trkpt>
      <trkpt lat="48.677032" lon="2.433224">
        <ele>62.14</ele>
        <time>2014-05-25T08:52:10.000Z</time>
      </trkpt>
      <trkpt lat="48.676931" lon="2.433229">
        <ele>62.62</ele>
        <time>2014-05-25T08:52:13.000Z</time>
      </trkpt>
      <trkpt lat="48.676632" lon="2.433449">
        <ele>62.62</ele>
        <time>2014-05-25T08:52:24.000Z</time>
      </trkpt>
      <trkpt lat="48.676289" lon="2.433592">
        <ele>63.1</ele>
        <time>2014-05-25T08:52:36.000Z</time>
      </trkpt>
      <trkpt lat="48.675895" lon="2.43363">
        <ele>63.1</ele>
        <time>2014-05-25T08:52:47.000Z</time>
      </trkpt>
      <trkpt lat="48.675766" lon="2.433609">
        <ele>63.1</ele>
        <time>2014-05-25T08:52:54.000Z</time>
      </trkpt>
      <trkpt lat="48.675572" lon="2.433567">
        <ele>62.62</ele>
        <time>2014-05-25T08:53:02.000Z</time>
      </trkpt>
      <trkpt lat="48.675495" lon="2.433574">
        <ele>62.62</ele>
        <time>2014-05-25T08:53:06.000Z</time>
      </trkpt>
      <trkpt lat="48.675137" lon="2.433662">
        <ele>62.62</ele>
        <time>2014-05-25T08:53:21.000Z</time>
      </trkpt>
      <trkpt lat="48.674888" lon="2.433688">
        <ele>62.62</ele>
        <time>2014-05-25T08:53:32.000Z</time>
      </trkpt>
      <trkpt lat="48.674527" lon="2.433861">
        <ele>63.1</ele>
        <time>2014-05-25T08:53:45.000Z</time>
      </trkpt>
      <trkpt lat="48.674386" lon="2.433986">
        <ele>63.1</ele>
        <time>2014-05-25T08:53:54.000Z</time>
      </trkpt>
      <trkpt lat="48.674364" lon="2.43403">
        <ele>63.1</ele>
        <time>2014-05-25T08:53:56.000Z</time>
      </trkpt>
      <trkpt lat="48.674309" lon="2.434162">
        <ele>63.1</ele>
        <time>2014-05-25T08:54:07.000Z</time>
      </trkpt>
      <trkpt lat="48.674485" lon="2.434604">
        <ele>63.58</ele>
        <time>2014-05-25T08:54:20.000Z</time>
      </trkpt>
      <trkpt lat="48.674549" lon="2.434837">
        <ele>63.58</ele>
        <time>2014-05-25T08:54:25.000Z</time>
      </trkpt>
      <trkpt lat="48.674603" lon="2.434969">
        <ele>63.58</ele>
        <time>2014-05-25T08:54:29.000Z</time>
      </trkpt>
      <trkpt lat="48.674683" lon="2.435208">
        <ele>63.58</ele>
        <time>2014-05-25T08:54:35.000Z</time>
      </trkpt>
      <trkpt lat="48.674916" lon="2.43569">
        <ele>64.07</ele>
        <time>2014-05-25T08:54:49.000Z</time>
      </trkpt>
      <trkpt lat="48.674998" lon="2.435899">
        <ele>64.07</ele>
        <time>2014-05-25T08:54:54.000Z</time>
      </trkpt>
      <trkpt lat="48.675205" lon="2.436487">
        <ele>64.55</ele>
        <time>2014-05-25T08:55:08.000Z</time>
      </trkpt>
      <trkpt lat="48.675402" lon="2.43697">
        <ele>64.55</ele>
        <time>2014-05-25T08:55:21.000Z</time>
      </trkpt>
      <trkpt lat="48.675595" lon="2.437415">
        <ele>65.03</ele>
        <time>2014-05-25T08:55:33.000Z</time>
      </trkpt>
      <trkpt lat="48.675752" lon="2.43781">
        <ele>65.03</ele>
        <time>2014-05-25T08:55:44.000Z</time>
      </trkpt>
      <trkpt lat="48.675962" lon="2.438255">
        <ele>65.03</ele>
        <time>2014-05-25T08:55:57.000Z</time>
      </trkpt>
      <trkpt lat="48.676188" lon="2.438752">
        <ele>65.03</ele>
        <time>2014-05-25T08:56:10.000Z</time>
      </trkpt>
      <trkpt lat="48.67637" lon="2.439148">
        <ele>65.03</ele>
        <time>2014-05-25T08:56:22.000Z</time>
      </trkpt>
      <trkpt lat="48.676364" lon="2.439159">
        <ele>65.03</ele>
        <time>2014-05-25T08:57:10.000Z</time>
      </trkpt>
      <trkpt lat="48.676495" lon="2.439402">
        <ele>65.99</ele>
        <time>2014-05-25T09:01:22.000Z</time>
      </trkpt>
      <trkpt lat="48.676686" lon="2.439809">
        <ele>65.99</ele>
        <time>2014-05-25T09:01:35.000Z</time>
      </trkpt>
      <trkpt lat="48.67683" lon="2.440173">
        <ele>65.99</ele>
        <time>2014-05-25T09:01:50.000Z</time>
      </trkpt>
      <trkpt lat="48.676838" lon="2.440223">
        <ele>65.99</ele>
        <time>2014-05-25T09:02:39.000Z</time>
      </trkpt>
      <trkpt lat="48.676976" lon="2.440466">
        <ele>65.99</ele>
        <time>2014-05-25T09:03:16.000Z</time>
      </trkpt>
      <trkpt lat="48.677227" lon="2.441003">
        <ele>66.47</ele>
        <time>2014-05-25T09:03:31.000Z</time>
      </trkpt>
      <trkpt lat="48.677501" lon="2.441613">
        <ele>66.47</ele>
        <time>2014-05-25T09:03:46.000Z</time>
      </trkpt>
      <trkpt lat="48.677768" lon="2.442271">
        <ele>65.99</ele>
        <time>2014-05-25T09:04:00.000Z</time>
      </trkpt>
      <trkpt lat="48.678019" lon="2.442921">
        <ele>65.51</ele>
        <time>2014-05-25T09:04:16.000Z</time>
      </trkpt>
      <trkpt lat="48.678298" lon="2.44363">
        <ele>65.51</ele>
        <time>2014-05-25T09:04:32.000Z</time>
      </trkpt>
      <trkpt lat="48.6786" lon="2.444216">
        <ele>65.51</ele>
        <time>2014-05-25T09:04:47.000Z</time>
      </trkpt>
      <trkpt lat="48.678876" lon="2.44475">
        <ele>65.51</ele>
        <time>2014-05-25T09:05:03.000Z</time>
      </trkpt>
      <trkpt lat="48.679097" lon="2.445294">
        <ele>65.03</ele>
        <time>2014-05-25T09:05:15.000Z</time>
      </trkpt>
      <trkpt lat="48.679315" lon="2.445682">
        <ele>65.03</ele>
        <time>2014-05-25T09:05:28.000Z</time>
      </trkpt>
      <trkpt lat="48.679508" lon="2.446125">
        <ele>65.03</ele>
        <time>2014-05-25T09:05:41.000Z</time>
      </trkpt>
      <trkpt lat="48.679815" lon="2.446754">
        <ele>64.07</ele>
        <time>2014-05-25T09:05:57.000Z</time>
      </trkpt>
      <trkpt lat="48.680041" lon="2.447294">
        <ele>63.58</ele>
        <time>2014-05-25T09:06:12.000Z</time>
      </trkpt>
      <trkpt lat="48.680286" lon="2.447833">
        <ele>63.58</ele>
        <time>2014-05-25T09:06:25.000Z</time>
      </trkpt>
      <trkpt lat="48.680505" lon="2.448556">
        <ele>62.62</ele>
        <time>2014-05-25T09:06:40.000Z</time>
      </trkpt>
      <trkpt lat="48.680763" lon="2.449101">
        <ele>62.14</ele>
        <time>2014-05-25T09:06:52.000Z</time>
      </trkpt>
      <trkpt lat="48.680984" lon="2.44981">
        <ele>61.18</ele>
        <time>2014-05-25T09:07:06.000Z</time>
      </trkpt>
      <trkpt lat="48.681196" lon="2.450492">
        <ele>60.7</ele>
        <time>2014-05-25T09:07:19.000Z</time>
      </trkpt>
      <trkpt lat="48.681343" lon="2.451082">
        <ele>60.22</ele>
        <time>2014-05-25T09:07:32.000Z</time>
      </trkpt>
      <trkpt lat="48.68164" lon="2.451736">
        <ele>58.78</ele>
        <time>2014-05-25T09:07:47.000Z</time>
      </trkpt>
      <trkpt lat="48.681841" lon="2.452455">
        <ele>57.82</ele>
        <time>2014-05-25T09:08:00.000Z</time>
      </trkpt>
      <trkpt lat="48.68206" lon="2.45316">
        <ele>57.34</ele>
        <time>2014-05-25T09:08:14.000Z</time>
      </trkpt>
      <trkpt lat="48.682242" lon="2.453644">
        <ele>56.86</ele>
        <time>2014-05-25T09:08:26.000Z</time>
      </trkpt>
      <trkpt lat="48.682463" lon="2.454114">
        <ele>56.37</ele>
        <time>2014-05-25T09:08:37.000Z</time>
      </trkpt>
      <trkpt lat="48.682651" lon="2.454839">
        <ele>56.86</ele>
        <time>2014-05-25T09:08:50.000Z</time>
      </trkpt>
      <trkpt lat="48.682859" lon="2.455342">
        <ele>57.82</ele>
        <time>2014-05-25T09:09:03.000Z</time>
      </trkpt>
      <trkpt lat="48.682992" lon="2.455964">
        <ele>58.78</ele>
        <time>2014-05-25T09:09:18.000Z</time>
      </trkpt>
      <trkpt lat="48.683115" lon="2.456238">
        <ele>59.74</ele>
        <time>2014-05-25T09:09:29.000Z</time>
      </trkpt>
      <trkpt lat="48.683263" lon="2.456587">
        <ele>60.22</ele>
        <time>2014-05-25T09:09:41.000Z</time>
      </trkpt>
      <trkpt lat="48.683365" lon="2.456999">
        <ele>61.66</ele>
        <time>2014-05-25T09:09:54.000Z</time>
      </trkpt>
      <trkpt lat="48.683419" lon="2.457124">
        <ele>61.66</ele>
        <time>2014-05-25T09:09:59.000Z</time>
      </trkpt>
      <trkpt lat="48.683445" lon="2.45723">
        <ele>62.14</ele>
        <time>2014-05-25T09:10:03.000Z</time>
      </trkpt>
      <trkpt lat="48.683563" lon="2.457461">
        <ele>62.62</ele>
        <time>2014-05-25T09:10:13.000Z</time>
      </trkpt>
      <trkpt lat="48.683748" lon="2.457925">
        <ele>63.1</ele>
        <time>2014-05-25T09:10:28.000Z</time>
      </trkpt>
      <trkpt lat="48.683898" lon="2.458376">
        <ele>64.07</ele>
        <time>2014-05-25T09:10:43.000Z</time>
      </trkpt>
      <trkpt lat="48.683939" lon="2.458481">
        <ele>64.07</ele>
        <time>2014-05-25T09:10:47.000Z</time>
      </trkpt>
      <trkpt lat="48.68408" lon="2.458957">
        <ele>64.55</ele>
        <time>2014-05-25T09:11:02.000Z</time>
      </trkpt>
      <trkpt lat="48.684164" lon="2.459271">
        <ele>64.55</ele>
        <time>2014-05-25T09:11:14.000Z</time>
      </trkpt>
      <trkpt lat="48.68424" lon="2.459386">
        <ele>65.03</ele>
        <time>2014-05-25T09:11:35.000Z</time>
      </trkpt>
      <trkpt lat="48.684203" lon="2.459354">
        <ele>66.95</ele>
        <time>2014-05-25T09:19:30.000Z</time>
      </trkpt>
      <trkpt lat="48.68416" lon="2.459435">
        <ele>66.95</ele>
        <time>2014-05-25T09:20:03.000Z</time>
      </trkpt>
      <trkpt lat="48.684091" lon="2.459509">
        <ele>67.43</ele>
        <time>2014-05-25T09:20:07.000Z</time>
      </trkpt>
      <trkpt lat="48.683806" lon="2.459743">
        <ele>67.43</ele>
        <time>2014-05-25T09:20:19.000Z</time>
      </trkpt>
      <trkpt lat="48.683525" lon="2.460041">
        <ele>67.43</ele>
        <time>2014-05-25T09:20:33.000Z</time>
      </trkpt>
      <trkpt lat="48.683424" lon="2.460131">
        <ele>67.91</ele>
        <time>2014-05-25T09:20:38.000Z</time>
      </trkpt>
      <trkpt lat="48.683076" lon="2.46046">
        <ele>67.91</ele>
        <time>2014-05-25T09:20:50.000Z</time>
      </trkpt>
      <trkpt lat="48.682694" lon="2.460862">
        <ele>67.91</ele>
        <time>2014-05-25T09:21:05.000Z</time>
      </trkpt>
      <trkpt lat="48.68235" lon="2.461221">
        <ele>67.91</ele>
        <time>2014-05-25T09:21:18.000Z</time>
      </trkpt>
      <trkpt lat="48.682014" lon="2.461541">
        <ele>68.39</ele>
        <time>2014-05-25T09:21:30.000Z</time>
      </trkpt>
      <trkpt lat="48.681733" lon="2.461805">
        <ele>68.39</ele>
        <time>2014-05-25T09:21:42.000Z</time>
      </trkpt>
      <trkpt lat="48.681406" lon="2.462183">
        <ele>68.39</ele>
        <time>2014-05-25T09:21:53.000Z</time>
      </trkpt>
      <trkpt lat="48.68103" lon="2.462613">
        <ele>68.87</ele>
        <time>2014-05-25T09:22:07.000Z</time>
      </trkpt>
      <trkpt lat="48.680692" lon="2.463029">
        <ele>68.39</ele>
        <time>2014-05-25T09:22:20.000Z</time>
      </trkpt>
      <trkpt lat="48.680381" lon="2.463358">
        <ele>68.39</ele>
        <time>2014-05-25T09:22:33.000Z</time>
      </trkpt>
      <trkpt lat="48.680127" lon="2.463614">
        <ele>68.39</ele>
        <time>2014-05-25T09:22:45.000Z</time>
      </trkpt>
      <trkpt lat="48.679799" lon="2.463957">
        <ele>68.39</ele>
        <time>2014-05-25T09:22:57.000Z</time>
      </trkpt>
      <trkpt lat="48.679518" lon="2.464257">
        <ele>68.39</ele>
        <time>2014-05-25T09:23:09.000Z</time>
      </trkpt>
      <trkpt lat="48.679477" lon="2.464313">
        <ele>67.91</ele>
        <time>2014-05-25T09:23:11.000Z</time>
      </trkpt>
      <trkpt lat="48.679402" lon="2.464342">
        <ele>68.39</ele>
        <time>2014-05-25T09:23:14.000Z</time>
      </trkpt>
      <trkpt lat="48.679407" lon="2.464497">
        <ele>68.39</ele>
        <time>2014-05-25T09:23:22.000Z</time>
      </trkpt>
      <trkpt lat="48.679281" lon="2.464394">
        <ele>67.91</ele>
        <time>2014-05-25T09:23:31.000Z</time>
      </trkpt>
      <trkpt lat="48.678861" lon="2.464288">
        <ele>67.91</ele>
        <time>2014-05-25T09:23:47.000Z</time>
      </trkpt>
      <trkpt lat="48.678446" lon="2.464183">
        <ele>67.91</ele>
        <time>2014-05-25T09:24:01.000Z</time>
      </trkpt>
      <trkpt lat="48.677926" lon="2.464015">
        <ele>67.91</ele>
        <time>2014-05-25T09:24:17.000Z</time>
      </trkpt>
      <trkpt lat="48.677523" lon="2.463931">
        <ele>67.91</ele>
        <time>2014-05-25T09:24:32.000Z</time>
      </trkpt>
      <trkpt lat="48.677158" lon="2.463792">
        <ele>67.43</ele>
        <time>2014-05-25T09:24:49.000Z</time>
      </trkpt>
      <trkpt lat="48.676909" lon="2.463742">
        <ele>67.43</ele>
        <time>2014-05-25T09:25:01.000Z</time>
      </trkpt>
      <trkpt lat="48.676739" lon="2.463623">
        <ele>66.95</ele>
        <time>2014-05-25T09:25:17.000Z</time>
      </trkpt>
      <trkpt lat="48.676755" lon="2.463647">
        <ele>67.43</ele>
        <time>2014-05-25T09:25:29.000Z</time>
      </trkpt>
      <trkpt lat="48.677075" lon="2.46374">
        <ele>67.43</ele>
        <time>2014-05-25T09:25:42.000Z</time>
      </trkpt>
      <trkpt lat="48.677482" lon="2.463942">
        <ele>67.43</ele>
        <time>2014-05-25T09:25:54.000Z</time>
      </trkpt>
      <trkpt lat="48.677906" lon="2.464071">
        <ele>67.91</ele>
        <time>2014-05-25T09:26:05.000Z</time>
      </trkpt>
      <trkpt lat="48.678388" lon="2.464213">
        <ele>67.91</ele>
        <time>2014-05-25T09:26:18.000Z</time>
      </trkpt>
      <trkpt lat="48.678765" lon="2.464289">
        <ele>67.91</ele>
        <time>2014-05-25T09:26:27.000Z</time>
      </trkpt>
      <trkpt lat="48.679098" lon="2.464386">
        <ele>68.39</ele>
        <time>2014-05-25T09:26:39.000Z</time>
      </trkpt>
      <trkpt lat="48.679299" lon="2.464534">
        <ele>68.39</ele>
        <time>2014-05-25T09:26:49.000Z</time>
      </trkpt>
      <trkpt lat="48.679317" lon="2.464574">
        <ele>68.39</ele>
        <time>2014-05-25T09:26:51.000Z</time>
      </trkpt>
      <trkpt lat="48.679403" lon="2.46464">
        <ele>68.39</ele>
        <time>2014-05-25T09:26:54.000Z</time>
      </trkpt>
      <trkpt lat="48.679157" lon="2.46471">
        <ele>68.39</ele>
        <time>2014-05-25T09:27:05.000Z</time>
      </trkpt>
      <trkpt lat="48.679108" lon="2.464744">
        <ele>68.39</ele>
        <time>2014-05-25T09:27:08.000Z</time>
      </trkpt>
      <trkpt lat="48.678899" lon="2.464854">
        <ele>68.39</ele>
        <time>2014-05-25T09:27:17.000Z</time>
      </trkpt>
      <trkpt lat="48.678576" lon="2.465159">
        <ele>68.39</ele>
        <time>2014-05-25T09:27:32.000Z</time>
      </trkpt>
      <trkpt lat="48.678296" lon="2.46547">
        <ele>68.87</ele>
        <time>2014-05-25T09:27:43.000Z</time>
      </trkpt>
      <trkpt lat="48.678067" lon="2.465559">
        <ele>68.39</ele>
        <time>2014-05-25T09:27:53.000Z</time>
      </trkpt>
      <trkpt lat="48.67791" lon="2.465662">
        <ele>68.39</ele>
        <time>2014-05-25T09:28:01.000Z</time>
      </trkpt>
      <trkpt lat="48.67786" lon="2.465649">
        <ele>68.39</ele>
        <time>2014-05-25T09:28:04.000Z</time>
      </trkpt>
      <trkpt lat="48.677765" lon="2.465653">
        <ele>68.39</ele>
        <time>2014-05-25T09:28:09.000Z</time>
      </trkpt>
      <trkpt lat="48.677664" lon="2.465597">
        <ele>67.91</ele>
        <time>2014-05-25T09:28:33.000Z</time>
      </trkpt>
      <trkpt lat="48.677668" lon="2.465695">
        <ele>67.43</ele>
        <time>2014-05-25T09:31:47.000Z</time>
      </trkpt>
      <trkpt lat="48.677708" lon="2.465769">
        <ele>67.43</ele>
        <time>2014-05-25T09:31:54.000Z</time>
      </trkpt>
      <trkpt lat="48.677755" lon="2.465905">
        <ele>67.43</ele>
        <time>2014-05-25T09:32:03.000Z</time>
      </trkpt>
      <trkpt lat="48.677771" lon="2.465912">
        <ele>67.43</ele>
        <time>2014-05-25T09:32:22.000Z</time>
      </trkpt>
      <trkpt lat="48.677795" lon="2.465917">
        <ele>67.43</ele>
        <time>2014-05-25T09:32:27.000Z</time>
      </trkpt>
      <trkpt lat="48.677694" lon="2.466161">
        <ele>67.43</ele>
        <time>2014-05-25T09:32:40.000Z</time>
      </trkpt>
      <trkpt lat="48.677381" lon="2.466519">
        <ele>67.43</ele>
        <time>2014-05-25T09:32:53.000Z</time>
      </trkpt>
      <trkpt lat="48.677121" lon="2.466824">
        <ele>66.95</ele>
        <time>2014-05-25T09:33:05.000Z</time>
      </trkpt>
      <trkpt lat="48.676863" lon="2.46703">
        <ele>66.95</ele>
        <time>2014-05-25T09:33:16.000Z</time>
      </trkpt>
      <trkpt lat="48.676822" lon="2.467081">
        <ele>66.95</ele>
        <time>2014-05-25T09:33:18.000Z</time>
      </trkpt>
      <trkpt lat="48.676757" lon="2.467074">
        <ele>66.47</ele>
        <time>2014-05-25T09:33:31.000Z</time>
      </trkpt>
      <trkpt lat="48.676542" lon="2.467357">
        <ele>65.99</ele>
        <time>2014-05-25T09:34:24.000Z</time>
      </trkpt>
      <trkpt lat="48.676376" lon="2.467506">
        <ele>66.47</ele>
        <time>2014-05-25T09:34:41.000Z</time>
      </trkpt>
      <trkpt lat="48.676361" lon="2.467521">
        <ele>66.47</ele>
        <time>2014-05-25T09:34:42.000Z</time>
      </trkpt>
      <trkpt lat="48.6763" lon="2.467608">
        <ele>66.47</ele>
        <time>2014-05-25T09:34:46.000Z</time>
      </trkpt>
      <trkpt lat="48.676033" lon="2.467934">
        <ele>66.47</ele>
        <time>2014-05-25T09:35:00.000Z</time>
      </trkpt>
      <trkpt lat="48.675802" lon="2.468104">
        <ele>66.47</ele>
        <time>2014-05-25T09:35:11.000Z</time>
      </trkpt>
      <trkpt lat="48.675506" lon="2.468419">
        <ele>65.99</ele>
        <time>2014-05-25T09:35:23.000Z</time>
      </trkpt>
      <trkpt lat="48.675239" lon="2.468695">
        <ele>65.51</ele>
        <time>2014-05-25T09:35:34.000Z</time>
      </trkpt>
      <trkpt lat="48.674767" lon="2.469203">
        <ele>65.51</ele>
        <time>2014-05-25T09:35:49.000Z</time>
      </trkpt>
      <trkpt lat="48.67466" lon="2.469285">
        <ele>65.99</ele>
        <time>2014-05-25T09:36:02.000Z</time>
      </trkpt>
      <trkpt lat="48.674547" lon="2.469377">
        <ele>65.03</ele>
        <time>2014-05-25T09:39:45.000Z</time>
      </trkpt>
      <trkpt lat="48.674233" lon="2.469699">
        <ele>65.03</ele>
        <time>2014-05-25T09:39:58.000Z</time>
      </trkpt>
      <trkpt lat="48.674043" lon="2.469973">
        <ele>65.03</ele>
        <time>2014-05-25T09:40:09.000Z</time>
      </trkpt>
      <trkpt lat="48.673746" lon="2.470332">
        <ele>64.55</ele>
        <time>2014-05-25T09:40:20.000Z</time>
      </trkpt>
      <trkpt lat="48.673476" lon="2.470661">
        <ele>64.55</ele>
        <time>2014-05-25T09:40:32.000Z</time>
      </trkpt>
      <trkpt lat="48.673115" lon="2.470974">
        <ele>64.55</ele>
        <time>2014-05-25T09:40:45.000Z</time>
      </trkpt>
      <trkpt lat="48.672945" lon="2.471034">
        <ele>64.55</ele>
        <time>2014-05-25T09:40:51.000Z</time>
      </trkpt>
      <trkpt lat="48.672856" lon="2.471152">
        <ele>64.55</ele>
        <time>2014-05-25T09:40:57.000Z</time>
      </trkpt>
      <trkpt lat="48.672814" lon="2.471222">
        <ele>64.55</ele>
        <time>2014-05-25T09:41:16.000Z</time>
      </trkpt>
      <trkpt lat="48.672847" lon="2.471317">
        <ele>65.03</ele>
        <time>2014-05-25T09:41:49.000Z</time>
      </trkpt>
      <trkpt lat="48.67263" lon="2.471336">
        <ele>66.47</ele>
        <time>2014-05-25T09:44:23.000Z</time>
      </trkpt>
      <trkpt lat="48.67272" lon="2.471313">
        <ele>67.91</ele>
        <time>2014-05-25T09:45:32.000Z</time>
      </trkpt>
      <trkpt lat="48.672653" lon="2.471467">
        <ele>68.87</ele>
        <time>2014-05-25T09:46:16.000Z</time>
      </trkpt>
      <trkpt lat="48.672587" lon="2.47159">
        <ele>68.87</ele>
        <time>2014-05-25T09:46:23.000Z</time>
      </trkpt>
      <trkpt lat="48.672511" lon="2.471655">
        <ele>68.87</ele>
        <time>2014-05-25T09:46:28.000Z</time>
      </trkpt>
      <trkpt lat="48.672317" lon="2.471836">
        <ele>68.87</ele>
        <time>2014-05-25T09:46:40.000Z</time>
      </trkpt>
      <trkpt lat="48.672311" lon="2.471839">
        <ele>68.87</ele>
        <time>2014-05-25T09:46:41.000Z</time>
      </trkpt>
      <trkpt lat="48.672152" lon="2.471976">
        <ele>69.35</ele>
        <time>2014-05-25T09:46:52.000Z</time>
      </trkpt>
      <trkpt lat="48.671892" lon="2.472328">
        <ele>69.35</ele>
        <time>2014-05-25T09:47:05.000Z</time>
      </trkpt>
      <trkpt lat="48.671636" lon="2.472611">
        <ele>69.35</ele>
        <time>2014-05-25T09:47:16.000Z</time>
      </trkpt>
      <trkpt lat="48.671286" lon="2.472982">
        <ele>69.35</ele>
        <time>2014-05-25T09:47:28.000Z</time>
      </trkpt>
      <trkpt lat="48.670976" lon="2.473316">
        <ele>69.83</ele>
        <time>2014-05-25T09:47:40.000Z</time>
      </trkpt>
      <trkpt lat="48.670578" lon="2.473756">
        <ele>69.83</ele>
        <time>2014-05-25T09:47:54.000Z</time>
      </trkpt>
      <trkpt lat="48.670273" lon="2.474163">
        <ele>69.83</ele>
        <time>2014-05-25T09:48:07.000Z</time>
      </trkpt>
      <trkpt lat="48.669993" lon="2.474387">
        <ele>69.83</ele>
        <time>2014-05-25T09:48:19.000Z</time>
      </trkpt>
      <trkpt lat="48.669889" lon="2.474459">
        <ele>69.83</ele>
        <time>2014-05-25T09:48:34.000Z</time>
      </trkpt>
      <trkpt lat="48.66959" lon="2.47481">
        <ele>69.83</ele>
        <time>2014-05-25T09:48:47.000Z</time>
      </trkpt>
      <trkpt lat="48.669264" lon="2.475137">
        <ele>69.83</ele>
        <time>2014-05-25T09:49:01.000Z</time>
      </trkpt>
      <trkpt lat="48.669019" lon="2.475396">
        <ele>70.31</ele>
        <time>2014-05-25T09:49:13.000Z</time>
      </trkpt>
      <trkpt lat="48.668878" lon="2.475582">
        <ele>70.31</ele>
        <time>2014-05-25T09:49:20.000Z</time>
      </trkpt>
      <trkpt lat="48.668946" lon="2.475877">
        <ele>70.79</ele>
        <time>2014-05-25T09:49:32.000Z</time>
      </trkpt>
      <trkpt lat="48.668947" lon="2.47592">
        <ele>70.79</ele>
        <time>2014-05-25T09:49:33.000Z</time>
      </trkpt>
      <trkpt lat="48.669055" lon="2.476377">
        <ele>70.79</ele>
        <time>2014-05-25T09:49:45.000Z</time>
      </trkpt>
      <trkpt lat="48.669232" lon="2.476856">
        <ele>70.79</ele>
        <time>2014-05-25T09:49:56.000Z</time>
      </trkpt>
      <trkpt lat="48.669329" lon="2.477531">
        <ele>70.79</ele>
        <time>2014-05-25T09:50:08.000Z</time>
      </trkpt>
      <trkpt lat="48.669465" lon="2.477972">
        <ele>70.79</ele>
        <time>2014-05-25T09:50:18.000Z</time>
      </trkpt>
      <trkpt lat="48.669642" lon="2.478522">
        <ele>70.79</ele>
        <time>2014-05-25T09:50:29.000Z</time>
      </trkpt>
      <trkpt lat="48.669739" lon="2.478891">
        <ele>70.31</ele>
        <time>2014-05-25T09:50:38.000Z</time>
      </trkpt>
      <trkpt lat="48.669703" lon="2.479112">
        <ele>70.79</ele>
        <time>2014-05-25T09:50:42.000Z</time>
      </trkpt>
      <trkpt lat="48.669771" lon="2.479195">
        <ele>70.31</ele>
        <time>2014-05-25T09:50:48.000Z</time>
      </trkpt>
      <trkpt lat="48.669817" lon="2.479293">
        <ele>70.31</ele>
        <time>2014-05-25T09:50:52.000Z</time>
      </trkpt>
      <trkpt lat="48.669874" lon="2.479385">
        <ele>70.31</ele>
        <time>2014-05-25T09:51:13.000Z</time>
      </trkpt>
      <trkpt lat="48.669943" lon="2.47979">
        <ele>70.79</ele>
        <time>2014-05-25T09:51:23.000Z</time>
      </trkpt>
      <trkpt lat="48.669991" lon="2.480106">
        <ele>70.31</ele>
        <time>2014-05-25T09:51:34.000Z</time>
      </trkpt>
      <trkpt lat="48.670108" lon="2.480287">
        <ele>70.31</ele>
        <time>2014-05-25T09:51:43.000Z</time>
      </trkpt>
      <trkpt lat="48.670139" lon="2.480467">
        <ele>70.31</ele>
        <time>2014-05-25T09:51:49.000Z</time>
      </trkpt>
      <trkpt lat="48.670105" lon="2.480528">
        <ele>70.31</ele>
        <time>2014-05-25T09:52:04.000Z</time>
      </trkpt>
      <trkpt lat="48.670096" lon="2.48067">
        <ele>70.31</ele>
        <time>2014-05-25T09:52:34.000Z</time>
      </trkpt>
      <trkpt lat="48.670175" lon="2.480856">
        <ele>70.31</ele>
        <time>2014-05-25T09:52:47.000Z</time>
      </trkpt>
      <trkpt lat="48.670209" lon="2.481116">
        <ele>70.79</ele>
        <time>2014-05-25T09:52:57.000Z</time>
      </trkpt>
      <trkpt lat="48.670297" lon="2.481234">
        <ele>70.79</ele>
        <time>2014-05-25T09:53:05.000Z</time>
      </trkpt>
      <trkpt lat="48.670354" lon="2.481291">
        <ele>70.31</ele>
        <time>2014-05-25T09:53:23.000Z</time>
      </trkpt>
      <trkpt lat="48.670393" lon="2.481505">
        <ele>70.79</ele>
        <time>2014-05-25T09:53:49.000Z</time>
      </trkpt>
      <trkpt lat="48.670432" lon="2.481726">
        <ele>71.27</ele>
        <time>2014-05-25T09:53:57.000Z</time>
      </trkpt>
      <trkpt lat="48.670467" lon="2.481938">
        <ele>70.79</ele>
        <time>2014-05-25T09:54:13.000Z</time>
      </trkpt>
      <trkpt lat="48.6705" lon="2.482119">
        <ele>71.27</ele>
        <time>2014-05-25T09:54:18.000Z</time>
      </trkpt>
      <trkpt lat="48.670628" lon="2.48242">
        <ele>71.27</ele>
        <time>2014-05-25T09:54:30.000Z</time>
      </trkpt>
      <trkpt lat="48.670625" lon="2.482432">
        <ele>70.79</ele>
        <time>2014-05-25T09:54:50.000Z</time>
      </trkpt>
      <trkpt lat="48.670647" lon="2.482434">
        <ele>71.27</ele>
        <time>2014-05-25T09:55:54.000Z</time>
      </trkpt>
      <trkpt lat="48.670832" lon="2.48322">
        <ele>71.76</ele>
        <time>2014-05-25T09:56:11.000Z</time>
      </trkpt>
      <trkpt lat="48.670872" lon="2.483592">
        <ele>72.24</ele>
        <time>2014-05-25T09:56:18.000Z</time>
      </trkpt>
      <trkpt lat="48.670956" lon="2.484156">
        <ele>71.76</ele>
        <time>2014-05-25T09:56:31.000Z</time>
      </trkpt>
      <trkpt lat="48.671073" lon="2.484701">
        <ele>72.24</ele>
        <time>2014-05-25T09:56:43.000Z</time>
      </trkpt>
      <trkpt lat="48.671202" lon="2.485189">
        <ele>72.24</ele>
        <time>2014-05-25T09:56:58.000Z</time>
      </trkpt>
      <trkpt lat="48.671298" lon="2.485528">
        <ele>72.24</ele>
        <time>2014-05-25T09:57:07.000Z</time>
      </trkpt>
      <trkpt lat="48.671394" lon="2.485711">
        <ele>72.24</ele>
        <time>2014-05-25T09:57:13.000Z</time>
      </trkpt>
      <trkpt lat="48.671384" lon="2.486074">
        <ele>72.72</ele>
        <time>2014-05-25T09:57:21.000Z</time>
      </trkpt>
      <trkpt lat="48.671478" lon="2.48621">
        <ele>72.72</ele>
        <time>2014-05-25T09:57:33.000Z</time>
      </trkpt>
      <trkpt lat="48.671437" lon="2.486248">
        <ele>72.72</ele>
        <time>2014-05-25T09:58:18.000Z</time>
      </trkpt>
      <trkpt lat="48.671509" lon="2.486228">
        <ele>72.72</ele>
        <time>2014-05-25T09:58:57.000Z</time>
      </trkpt>
      <trkpt lat="48.671927" lon="2.48625">
        <ele>73.2</ele>
        <time>2014-05-25T09:59:14.000Z</time>
      </trkpt>
      <trkpt lat="48.672203" lon="2.486328">
        <ele>72.72</ele>
        <time>2014-05-25T09:59:26.000Z</time>
      </trkpt>
      <trkpt lat="48.6724" lon="2.486384">
        <ele>72.72</ele>
        <time>2014-05-25T09:59:35.000Z</time>
      </trkpt>
      <trkpt lat="48.672789" lon="2.486391">
        <ele>72.72</ele>
        <time>2014-05-25T09:59:45.000Z</time>
      </trkpt>
      <trkpt lat="48.673106" lon="2.486414">
        <ele>73.2</ele>
        <time>2014-05-25T09:59:55.000Z</time>
      </trkpt>
      <trkpt lat="48.673488" lon="2.486455">
        <ele>72.72</ele>
        <time>2014-05-25T10:00:06.000Z</time>
      </trkpt>
      <trkpt lat="48.673775" lon="2.486489">
        <ele>72.72</ele>
        <time>2014-05-25T10:00:16.000Z</time>
      </trkpt>
      <trkpt lat="48.674134" lon="2.486523">
        <ele>72.72</ele>
        <time>2014-05-25T10:00:26.000Z</time>
      </trkpt>
      <trkpt lat="48.674484" lon="2.486572">
        <ele>72.72</ele>
        <time>2014-05-25T10:00:36.000Z</time>
      </trkpt>
      <trkpt lat="48.674885" lon="2.48659">
        <ele>72.72</ele>
        <time>2014-05-25T10:00:48.000Z</time>
      </trkpt>
      <trkpt lat="48.675201" lon="2.48663">
        <ele>72.72</ele>
        <time>2014-05-25T10:00:58.000Z</time>
      </trkpt>
      <trkpt lat="48.67553" lon="2.486677">
        <ele>73.2</ele>
        <time>2014-05-25T10:01:09.000Z</time>
      </trkpt>
      <trkpt lat="48.675936" lon="2.486715">
        <ele>73.2</ele>
        <time>2014-05-25T10:01:20.000Z</time>
      </trkpt>
      <trkpt lat="48.676414" lon="2.486799">
        <ele>73.2</ele>
        <time>2014-05-25T10:01:33.000Z</time>
      </trkpt>
      <trkpt lat="48.6768" lon="2.486827">
        <ele>73.2</ele>
        <time>2014-05-25T10:01:44.000Z</time>
      </trkpt>
      <trkpt lat="48.677225" lon="2.486865">
        <ele>73.2</ele>
        <time>2014-05-25T10:01:56.000Z</time>
      </trkpt>
      <trkpt lat="48.677685" lon="2.486937">
        <ele>73.68</ele>
        <time>2014-05-25T10:02:09.000Z</time>
      </trkpt>
      <trkpt lat="48.678111" lon="2.486941">
        <ele>73.68</ele>
        <time>2014-05-25T10:02:21.000Z</time>
      </trkpt>
      <trkpt lat="48.678405" lon="2.486985">
        <ele>73.68</ele>
        <time>2014-05-25T10:02:31.000Z</time>
      </trkpt>
      <trkpt lat="48.678716" lon="2.487017">
        <ele>73.68</ele>
        <time>2014-05-25T10:02:41.000Z</time>
      </trkpt>
      <trkpt lat="48.679244" lon="2.487137">
        <ele>73.68</ele>
        <time>2014-05-25T10:02:54.000Z</time>
      </trkpt>
      <trkpt lat="48.679598" lon="2.487286">
        <ele>73.2</ele>
        <time>2014-05-25T10:03:04.000Z</time>
      </trkpt>
      <trkpt lat="48.679671" lon="2.487342">
        <ele>73.68</ele>
        <time>2014-05-25T10:03:07.000Z</time>
      </trkpt>
      <trkpt lat="48.679926" lon="2.487597">
        <ele>73.68</ele>
        <time>2014-05-25T10:03:19.000Z</time>
      </trkpt>
      <trkpt lat="48.68024" lon="2.487759">
        <ele>74.16</ele>
        <time>2014-05-25T10:03:29.000Z</time>
      </trkpt>
      <trkpt lat="48.680508" lon="2.487953">
        <ele>74.16</ele>
        <time>2014-05-25T10:03:40.000Z</time>
      </trkpt>
      <trkpt lat="48.680889" lon="2.488198">
        <ele>74.16</ele>
        <time>2014-05-25T10:03:52.000Z</time>
      </trkpt>
      <trkpt lat="48.681102" lon="2.488313">
        <ele>74.16</ele>
        <time>2014-05-25T10:04:01.000Z</time>
      </trkpt>
      <trkpt lat="48.681461" lon="2.488523">
        <ele>74.64</ele>
        <time>2014-05-25T10:04:13.000Z</time>
      </trkpt>
      <trkpt lat="48.68176" lon="2.488708">
        <ele>74.64</ele>
        <time>2014-05-25T10:04:24.000Z</time>
      </trkpt>
      <trkpt lat="48.68203" lon="2.488947">
        <ele>74.64</ele>
        <time>2014-05-25T10:04:34.000Z</time>
      </trkpt>
      <trkpt lat="48.682252" lon="2.489057">
        <ele>75.12</ele>
        <time>2014-05-25T10:04:43.000Z</time>
      </trkpt>
      <trkpt lat="48.682616" lon="2.48931">
        <ele>75.12</ele>
        <time>2014-05-25T10:04:55.000Z</time>
      </trkpt>
      <trkpt lat="48.682955" lon="2.489515">
        <ele>75.6</ele>
        <time>2014-05-25T10:05:09.000Z</time>
      </trkpt>
      <trkpt lat="48.683206" lon="2.489784">
        <ele>76.08</ele>
        <time>2014-05-25T10:05:22.000Z</time>
      </trkpt>
      <trkpt lat="48.683216" lon="2.489963">
        <ele>77.04</ele>
        <time>2014-05-25T10:05:38.000Z</time>
      </trkpt>
      <trkpt lat="48.683194" lon="2.490051">
        <ele>77.04</ele>
        <time>2014-05-25T10:05:56.000Z</time>
      </trkpt>
      <trkpt lat="48.683191" lon="2.490052">
        <ele>77.04</ele>
        <time>2014-05-25T10:06:30.000Z</time>
      </trkpt>
      <trkpt lat="48.683353" lon="2.490532">
        <ele>77.52</ele>
        <time>2014-05-25T10:06:42.000Z</time>
      </trkpt>
      <trkpt lat="48.683538" lon="2.49071">
        <ele>77.52</ele>
        <time>2014-05-25T10:06:53.000Z</time>
      </trkpt>
      <trkpt lat="48.683652" lon="2.49078">
        <ele>78</ele>
        <time>2014-05-25T10:07:17.000Z</time>
      </trkpt>
      <trkpt lat="48.683759" lon="2.490678">
        <ele>78.48</ele>
        <time>2014-05-25T10:08:12.000Z</time>
      </trkpt>
      <trkpt lat="48.683755" lon="2.490575">
        <ele>78.48</ele>
        <time>2014-05-25T10:08:17.000Z</time>
      </trkpt>
      <trkpt lat="48.683659" lon="2.490432">
        <ele>78.48</ele>
        <time>2014-05-25T10:08:34.000Z</time>
      </trkpt>
      <trkpt lat="48.683692" lon="2.490443">
        <ele>79.45</ele>
        <time>2014-05-25T10:09:33.000Z</time>
      </trkpt>
      <trkpt lat="48.683588" lon="2.490509">
        <ele>80.41</ele>
        <time>2014-05-25T10:12:15.000Z</time>
      </trkpt>
      <trkpt lat="48.683729" lon="2.490551">
        <ele>81.85</ele>
        <time>2014-05-25T10:18:18.000Z</time>
      </trkpt>
      <trkpt lat="48.68375" lon="2.490607">
        <ele>81.85</ele>
        <time>2014-05-25T10:18:51.000Z</time>
      </trkpt>
      <trkpt lat="48.683804" lon="2.490623">
        <ele>81.85</ele>
        <time>2014-05-25T10:18:57.000Z</time>
      </trkpt>
      <trkpt lat="48.683974" lon="2.490575">
        <ele>81.85</ele>
        <time>2014-05-25T10:19:06.000Z</time>
      </trkpt>
      <trkpt lat="48.684434" lon="2.490938">
        <ele>81.85</ele>
        <time>2014-05-25T10:19:21.000Z</time>
      </trkpt>
      <trkpt lat="48.684783" lon="2.491204">
        <ele>81.85</ele>
        <time>2014-05-25T10:19:32.000Z</time>
      </trkpt>
      <trkpt lat="48.685241" lon="2.491622">
        <ele>81.85</ele>
        <time>2014-05-25T10:19:47.000Z</time>
      </trkpt>
      <trkpt lat="48.685554" lon="2.491865">
        <ele>81.85</ele>
        <time>2014-05-25T10:19:59.000Z</time>
      </trkpt>
      <trkpt lat="48.685821" lon="2.49209">
        <ele>81.85</ele>
        <time>2014-05-25T10:20:09.000Z</time>
      </trkpt>
      <trkpt lat="48.686232" lon="2.492423">
        <ele>81.85</ele>
        <time>2014-05-25T10:20:23.000Z</time>
      </trkpt>
      <trkpt lat="48.686576" lon="2.492717">
        <ele>81.85</ele>
        <time>2014-05-25T10:20:35.000Z</time>
      </trkpt>
      <trkpt lat="48.686927" lon="2.493019">
        <ele>81.37</ele>
        <time>2014-05-25T10:20:47.000Z</time>
      </trkpt>
      <trkpt lat="48.687242" lon="2.493278">
        <ele>81.37</ele>
        <time>2014-05-25T10:20:58.000Z</time>
      </trkpt>
      <trkpt lat="48.687386" lon="2.493404">
        <ele>81.37</ele>
        <time>2014-05-25T10:21:10.000Z</time>
      </trkpt>
      <trkpt lat="48.687484" lon="2.49343">
        <ele>81.37</ele>
        <time>2014-05-25T10:21:24.000Z</time>
      </trkpt>
      <trkpt lat="48.687603" lon="2.493439">
        <ele>81.37</ele>
        <time>2014-05-25T10:21:34.000Z</time>
      </trkpt>
      <trkpt lat="48.687756" lon="2.493568">
        <ele>81.37</ele>
        <time>2014-05-25T10:21:56.000Z</time>
      </trkpt>
      <trkpt lat="48.687915" lon="2.493692">
        <ele>81.37</ele>
        <time>2014-05-25T10:22:07.000Z</time>
      </trkpt>
      <trkpt lat="48.688091" lon="2.49384">
        <ele>81.37</ele>
        <time>2014-05-25T10:22:20.000Z</time>
      </trkpt>
      <trkpt lat="48.68822" lon="2.493949">
        <ele>80.89</ele>
        <time>2014-05-25T10:22:30.000Z</time>
      </trkpt>
      <trkpt lat="48.688328" lon="2.493717">
        <ele>80.89</ele>
        <time>2014-05-25T10:22:38.000Z</time>
      </trkpt>
      <trkpt lat="48.688465" lon="2.49329">
        <ele>80.89</ele>
        <time>2014-05-25T10:22:50.000Z</time>
      </trkpt>
      <trkpt lat="48.688479" lon="2.493104">
        <ele>80.41</ele>
        <time>2014-05-25T10:22:55.000Z</time>
      </trkpt>
      <trkpt lat="48.688693" lon="2.492722">
        <ele>80.41</ele>
        <time>2014-05-25T10:23:08.000Z</time>
      </trkpt>
      <trkpt lat="48.688737" lon="2.492605">
        <ele>80.41</ele>
        <time>2014-05-25T10:23:22.000Z</time>
      </trkpt>
      <trkpt lat="48.688738" lon="2.492568">
        <ele>80.41</ele>
        <time>2014-05-25T10:24:06.000Z</time>
      </trkpt>
      <trkpt lat="48.688765" lon="2.492484">
        <ele>80.41</ele>
        <time>2014-05-25T10:24:25.000Z</time>
      </trkpt>
      <trkpt lat="48.688731" lon="2.492377">
        <ele>80.41</ele>
        <time>2014-05-25T10:24:30.000Z</time>
      </trkpt>
      <trkpt lat="48.688657" lon="2.492238">
        <ele>80.89</ele>
        <time>2014-05-25T10:24:35.000Z</time>
      </trkpt>
      <trkpt lat="48.688659" lon="2.492198">
        <ele>80.89</ele>
        <time>2014-05-25T10:24:37.000Z</time>
      </trkpt>
      <trkpt lat="48.688593" lon="2.492078">
        <ele>81.37</ele>
        <time>2014-05-25T10:24:42.000Z</time>
      </trkpt>
      <trkpt lat="48.68856" lon="2.492047">
        <ele>81.37</ele>
        <time>2014-05-25T10:24:44.000Z</time>
      </trkpt>
      <trkpt lat="48.688287" lon="2.492187">
        <ele>81.85</ele>
        <time>2014-05-25T10:24:54.000Z</time>
      </trkpt>
      <trkpt lat="48.687964" lon="2.492572">
        <ele>81.85</ele>
        <time>2014-05-25T10:25:07.000Z</time>
      </trkpt>
      <trkpt lat="48.687694" lon="2.493152">
        <ele>82.33</ele>
        <time>2014-05-25T10:25:21.000Z</time>
      </trkpt>
      <trkpt lat="48.687576" lon="2.493421">
        <ele>81.85</ele>
        <time>2014-05-25T10:25:32.000Z</time>
      </trkpt>
      <trkpt lat="48.687499" lon="2.493461">
        <ele>81.85</ele>
        <time>2014-05-25T10:25:36.000Z</time>
      </trkpt>
      <trkpt lat="48.687307" lon="2.49329">
        <ele>82.33</ele>
        <time>2014-05-25T10:25:50.000Z</time>
      </trkpt>
      <trkpt lat="48.686973" lon="2.493015">
        <ele>82.33</ele>
        <time>2014-05-25T10:26:03.000Z</time>
      </trkpt>
      <trkpt lat="48.686608" lon="2.492695">
        <ele>82.33</ele>
        <time>2014-05-25T10:26:17.000Z</time>
      </trkpt>
      <trkpt lat="48.686263" lon="2.492399">
        <ele>82.81</ele>
        <time>2014-05-25T10:26:30.000Z</time>
      </trkpt>
      <trkpt lat="48.685785" lon="2.492001">
        <ele>83.29</ele>
        <time>2014-05-25T10:26:45.000Z</time>
      </trkpt>
      <trkpt lat="48.685425" lon="2.491716">
        <ele>82.81</ele>
        <time>2014-05-25T10:26:56.000Z</time>
      </trkpt>
      <trkpt lat="48.685137" lon="2.49146">
        <ele>83.29</ele>
        <time>2014-05-25T10:27:06.000Z</time>
      </trkpt>
      <trkpt lat="48.684595" lon="2.490999">
        <ele>83.29</ele>
        <time>2014-05-25T10:27:23.000Z</time>
      </trkpt>
      <trkpt lat="48.684206" lon="2.490658">
        <ele>83.77</ele>
        <time>2014-05-25T10:27:36.000Z</time>
      </trkpt>
      <trkpt lat="48.683991" lon="2.490441">
        <ele>83.77</ele>
        <time>2014-05-25T10:27:45.000Z</time>
      </trkpt>
      <trkpt lat="48.684032" lon="2.489907">
        <ele>83.77</ele>
        <time>2014-05-25T10:27:59.000Z</time>
      </trkpt>
      <trkpt lat="48.683986" lon="2.489734">
        <ele>84.25</ele>
        <time>2014-05-25T10:28:12.000Z</time>
      </trkpt>
      <trkpt lat="48.683981" lon="2.489705">
        <ele>84.25</ele>
        <time>2014-05-25T10:28:20.000Z</time>
      </trkpt>
      <trkpt lat="48.683886" lon="2.489489">
        <ele>84.25</ele>
        <time>2014-05-25T10:28:27.000Z</time>
      </trkpt>
      <trkpt lat="48.683456" lon="2.489682">
        <ele>83.29</ele>
        <time>2014-05-25T10:28:41.000Z</time>
      </trkpt>
      <trkpt lat="48.683077" lon="2.489486">
        <ele>82.33</ele>
        <time>2014-05-25T10:28:53.000Z</time>
      </trkpt>
      <trkpt lat="48.682656" lon="2.48922">
        <ele>81.85</ele>
        <time>2014-05-25T10:29:05.000Z</time>
      </trkpt>
      <trkpt lat="48.682402" lon="2.489017">
        <ele>81.85</ele>
        <time>2014-05-25T10:29:17.000Z</time>
      </trkpt>
      <trkpt lat="48.682099" lon="2.488821">
        <ele>81.37</ele>
        <time>2014-05-25T10:29:28.000Z</time>
      </trkpt>
      <trkpt lat="48.681761" lon="2.488591">
        <ele>81.37</ele>
        <time>2014-05-25T10:29:41.000Z</time>
      </trkpt>
      <trkpt lat="48.681485" lon="2.488357">
        <ele>80.89</ele>
        <time>2014-05-25T10:29:53.000Z</time>
      </trkpt>
      <trkpt lat="48.681158" lon="2.488129">
        <ele>80.89</ele>
        <time>2014-05-25T10:30:06.000Z</time>
      </trkpt>
      <trkpt lat="48.680845" lon="2.487963">
        <ele>80.89</ele>
        <time>2014-05-25T10:30:17.000Z</time>
      </trkpt>
      <trkpt lat="48.680444" lon="2.487738">
        <ele>80.89</ele>
        <time>2014-05-25T10:30:27.000Z</time>
      </trkpt>
      <trkpt lat="48.680193" lon="2.487504">
        <ele>80.41</ele>
        <time>2014-05-25T10:30:38.000Z</time>
      </trkpt>
      <trkpt lat="48.679679" lon="2.487234">
        <ele>80.41</ele>
        <time>2014-05-25T10:30:51.000Z</time>
      </trkpt>
      <trkpt lat="48.679376" lon="2.487069">
        <ele>80.41</ele>
        <time>2014-05-25T10:31:00.000Z</time>
      </trkpt>
      <trkpt lat="48.679347" lon="2.486993">
        <ele>79.93</ele>
        <time>2014-05-25T10:31:21.000Z</time>
      </trkpt>
      <trkpt lat="48.679299" lon="2.486986">
        <ele>79.93</ele>
        <time>2014-05-25T10:31:41.000Z</time>
      </trkpt>
      <trkpt lat="48.679289" lon="2.486874">
        <ele>79.93</ele>
        <time>2014-05-25T10:32:01.000Z</time>
      </trkpt>
      <trkpt lat="48.679305" lon="2.486854">
        <ele>79.93</ele>
        <time>2014-05-25T10:32:07.000Z</time>
      </trkpt>
      <trkpt lat="48.679432" lon="2.486597">
        <ele>79.93</ele>
        <time>2014-05-25T10:32:17.000Z</time>
      </trkpt>
      <trkpt lat="48.679488" lon="2.486484">
        <ele>79.93</ele>
        <time>2014-05-25T10:32:21.000Z</time>
      </trkpt>
      <trkpt lat="48.67971" lon="2.486137">
        <ele>79.93</ele>
        <time>2014-05-25T10:32:33.000Z</time>
      </trkpt>
      <trkpt lat="48.68005" lon="2.485754">
        <ele>79.93</ele>
        <time>2014-05-25T10:32:43.000Z</time>
      </trkpt>
      <trkpt lat="48.680399" lon="2.485369">
        <ele>79.93</ele>
        <time>2014-05-25T10:32:56.000Z</time>
      </trkpt>
      <trkpt lat="48.680646" lon="2.485087">
        <ele>80.41</ele>
        <time>2014-05-25T10:33:07.000Z</time>
      </trkpt>
      <trkpt lat="48.680699" lon="2.485031">
        <ele>80.41</ele>
        <time>2014-05-25T10:33:09.000Z</time>
      </trkpt>
      <trkpt lat="48.68089" lon="2.484801">
        <ele>80.41</ele>
        <time>2014-05-25T10:33:17.000Z</time>
      </trkpt>
      <trkpt lat="48.68123" lon="2.484437">
        <ele>80.41</ele>
        <time>2014-05-25T10:33:28.000Z</time>
      </trkpt>
      <trkpt lat="48.68146" lon="2.484125">
        <ele>80.41</ele>
        <time>2014-05-25T10:33:40.000Z</time>
      </trkpt>
      <trkpt lat="48.681794" lon="2.48372">
        <ele>80.41</ele>
        <time>2014-05-25T10:33:54.000Z</time>
      </trkpt>
      <trkpt lat="48.682069" lon="2.483385">
        <ele>80.41</ele>
        <time>2014-05-25T10:34:03.000Z</time>
      </trkpt>
      <trkpt lat="48.682394" lon="2.483009">
        <ele>80.41</ele>
        <time>2014-05-25T10:34:15.000Z</time>
      </trkpt>
      <trkpt lat="48.682582" lon="2.482781">
        <ele>80.41</ele>
        <time>2014-05-25T10:34:25.000Z</time>
      </trkpt>
      <trkpt lat="48.682828" lon="2.482435">
        <ele>80.41</ele>
        <time>2014-05-25T10:34:37.000Z</time>
      </trkpt>
      <trkpt lat="48.683231" lon="2.482017">
        <ele>80.41</ele>
        <time>2014-05-25T10:34:47.000Z</time>
      </trkpt>
      <trkpt lat="48.683509" lon="2.4817">
        <ele>80.41</ele>
        <time>2014-05-25T10:34:59.000Z</time>
      </trkpt>
      <trkpt lat="48.68381" lon="2.481379">
        <ele>80.41</ele>
        <time>2014-05-25T10:35:10.000Z</time>
      </trkpt>
      <trkpt lat="48.684069" lon="2.481041">
        <ele>80.41</ele>
        <time>2014-05-25T10:35:22.000Z</time>
      </trkpt>
      <trkpt lat="48.684254" lon="2.480796">
        <ele>80.41</ele>
        <time>2014-05-25T10:35:32.000Z</time>
      </trkpt>
      <trkpt lat="48.684602" lon="2.48044">
        <ele>80.89</ele>
        <time>2014-05-25T10:35:46.000Z</time>
      </trkpt>
      <trkpt lat="48.684902" lon="2.480081">
        <ele>80.89</ele>
        <time>2014-05-25T10:35:59.000Z</time>
      </trkpt>
      <trkpt lat="48.685142" lon="2.479778">
        <ele>80.89</ele>
        <time>2014-05-25T10:36:09.000Z</time>
      </trkpt>
      <trkpt lat="48.685434" lon="2.479476">
        <ele>80.89</ele>
        <time>2014-05-25T10:36:22.000Z</time>
      </trkpt>
      <trkpt lat="48.68574" lon="2.479087">
        <ele>80.89</ele>
        <time>2014-05-25T10:36:35.000Z</time>
      </trkpt>
      <trkpt lat="48.685797" lon="2.478998">
        <ele>80.89</ele>
        <time>2014-05-25T10:36:38.000Z</time>
      </trkpt>
      <trkpt lat="48.686034" lon="2.478666">
        <ele>81.37</ele>
        <time>2014-05-25T10:36:49.000Z</time>
      </trkpt>
      <trkpt lat="48.686228" lon="2.478416">
        <ele>80.89</ele>
        <time>2014-05-25T10:37:00.000Z</time>
      </trkpt>
      <trkpt lat="48.686514" lon="2.478089">
        <ele>80.89</ele>
        <time>2014-05-25T10:37:13.000Z</time>
      </trkpt>
      <trkpt lat="48.686756" lon="2.477776">
        <ele>80.89</ele>
        <time>2014-05-25T10:37:24.000Z</time>
      </trkpt>
      <trkpt lat="48.687039" lon="2.477404">
        <ele>80.89</ele>
        <time>2014-05-25T10:37:36.000Z</time>
      </trkpt>
      <trkpt lat="48.687357" lon="2.477065">
        <ele>80.89</ele>
        <time>2014-05-25T10:37:50.000Z</time>
      </trkpt>
      <trkpt lat="48.687759" lon="2.476629">
        <ele>79.93</ele>
        <time>2014-05-25T10:38:05.000Z</time>
      </trkpt>
      <trkpt lat="48.688057" lon="2.476275">
        <ele>79.93</ele>
        <time>2014-05-25T10:38:18.000Z</time>
      </trkpt>
      <trkpt lat="48.688416" lon="2.475867">
        <ele>79.45</ele>
        <time>2014-05-25T10:38:32.000Z</time>
      </trkpt>
      <trkpt lat="48.688631" lon="2.475572">
        <ele>78.97</ele>
        <time>2014-05-25T10:38:44.000Z</time>
      </trkpt>
      <trkpt lat="48.688697" lon="2.47547">
        <ele>78.97</ele>
        <time>2014-05-25T10:38:49.000Z</time>
      </trkpt>
      <trkpt lat="48.688909" lon="2.475256">
        <ele>78.48</ele>
        <time>2014-05-25T10:38:58.000Z</time>
      </trkpt>
      <trkpt lat="48.688967" lon="2.475086">
        <ele>78.97</ele>
        <time>2014-05-25T10:39:05.000Z</time>
      </trkpt>
      <trkpt lat="48.689012" lon="2.474931">
        <ele>78.97</ele>
        <time>2014-05-25T10:39:10.000Z</time>
      </trkpt>
      <trkpt lat="48.689084" lon="2.474805">
        <ele>78.97</ele>
        <time>2014-05-25T10:39:15.000Z</time>
      </trkpt>
      <trkpt lat="48.689083" lon="2.474552">
        <ele>78.48</ele>
        <time>2014-05-25T10:39:24.000Z</time>
      </trkpt>
      <trkpt lat="48.689058" lon="2.474459">
        <ele>78.48</ele>
        <time>2014-05-25T10:39:43.000Z</time>
      </trkpt>
      <trkpt lat="48.689071" lon="2.474207">
        <ele>78</ele>
        <time>2014-05-25T10:40:51.000Z</time>
      </trkpt>
      <trkpt lat="48.689079" lon="2.473734">
        <ele>78</ele>
        <time>2014-05-25T10:41:03.000Z</time>
      </trkpt>
      <trkpt lat="48.689049" lon="2.473645">
        <ele>78</ele>
        <time>2014-05-25T10:41:07.000Z</time>
      </trkpt>
      <trkpt lat="48.68902" lon="2.473603">
        <ele>78</ele>
        <time>2014-05-25T10:41:10.000Z</time>
      </trkpt>
      <trkpt lat="48.689024" lon="2.473498">
        <ele>78</ele>
        <time>2014-05-25T10:41:15.000Z</time>
      </trkpt>
      <trkpt lat="48.688998" lon="2.473038">
        <ele>78</ele>
        <time>2014-05-25T10:41:30.000Z</time>
      </trkpt>
      <trkpt lat="48.688991" lon="2.472781">
        <ele>78</ele>
        <time>2014-05-25T10:41:37.000Z</time>
      </trkpt>
      <trkpt lat="48.688963" lon="2.472637">
        <ele>78</ele>
        <time>2014-05-25T10:41:41.000Z</time>
      </trkpt>
      <trkpt lat="48.688809" lon="2.472048">
        <ele>78.48</ele>
        <time>2014-05-25T10:41:55.000Z</time>
      </trkpt>
      <trkpt lat="48.688542" lon="2.471528">
        <ele>78.48</ele>
        <time>2014-05-25T10:42:09.000Z</time>
      </trkpt>
      <trkpt lat="48.688507" lon="2.471391">
        <ele>78.48</ele>
        <time>2014-05-25T10:42:14.000Z</time>
      </trkpt>
      <trkpt lat="48.688507" lon="2.471286">
        <ele>78.48</ele>
        <time>2014-05-25T10:42:18.000Z</time>
      </trkpt>
      <trkpt lat="48.688274" lon="2.470634">
        <ele>78.97</ele>
        <time>2014-05-25T10:42:31.000Z</time>
      </trkpt>
      <trkpt lat="48.688049" lon="2.470155">
        <ele>78.97</ele>
        <time>2014-05-25T10:42:43.000Z</time>
      </trkpt>
      <trkpt lat="48.688037" lon="2.470113">
        <ele>78.97</ele>
        <time>2014-05-25T10:42:45.000Z</time>
      </trkpt>
      <trkpt lat="48.688015" lon="2.470011">
        <ele>78.97</ele>
        <time>2014-05-25T10:42:50.000Z</time>
      </trkpt>
      <trkpt lat="48.68794" lon="2.469795">
        <ele>78.97</ele>
        <time>2014-05-25T10:42:59.000Z</time>
      </trkpt>
      <trkpt lat="48.687919" lon="2.469667">
        <ele>79.45</ele>
        <time>2014-05-25T10:43:04.000Z</time>
      </trkpt>
      <trkpt lat="48.687905" lon="2.469524">
        <ele>79.45</ele>
        <time>2014-05-25T10:43:09.000Z</time>
      </trkpt>
      <trkpt lat="48.687911" lon="2.469393">
        <ele>79.45</ele>
        <time>2014-05-25T10:43:14.000Z</time>
      </trkpt>
      <trkpt lat="48.687893" lon="2.469247">
        <ele>79.45</ele>
        <time>2014-05-25T10:43:21.000Z</time>
      </trkpt>
      <trkpt lat="48.687702" lon="2.468894">
        <ele>79.45</ele>
        <time>2014-05-25T10:43:29.000Z</time>
      </trkpt>
      <trkpt lat="48.687586" lon="2.468703">
        <ele>79.45</ele>
        <time>2014-05-25T10:43:34.000Z</time>
      </trkpt>
      <trkpt lat="48.687223" lon="2.468115">
        <ele>79.45</ele>
        <time>2014-05-25T10:43:48.000Z</time>
      </trkpt>
      <trkpt lat="48.687155" lon="2.467757">
        <ele>79.45</ele>
        <time>2014-05-25T10:43:58.000Z</time>
      </trkpt>
      <trkpt lat="48.687146" lon="2.467722">
        <ele>79.45</ele>
        <time>2014-05-25T10:44:01.000Z</time>
      </trkpt>
      <trkpt lat="48.687118" lon="2.467639">
        <ele>78.97</ele>
        <time>2014-05-25T10:44:06.000Z</time>
      </trkpt>
      <trkpt lat="48.687148" lon="2.467578">
        <ele>79.45</ele>
        <time>2014-05-25T10:44:09.000Z</time>
      </trkpt>
      <trkpt lat="48.687064" lon="2.467391">
        <ele>79.45</ele>
        <time>2014-05-25T10:44:14.000Z</time>
      </trkpt>
      <trkpt lat="48.686945" lon="2.467147">
        <ele>79.45</ele>
        <time>2014-05-25T10:44:20.000Z</time>
      </trkpt>
      <trkpt lat="48.68688" lon="2.466861">
        <ele>79.45</ele>
        <time>2014-05-25T10:44:33.000Z</time>
      </trkpt>
      <trkpt lat="48.686823" lon="2.466729">
        <ele>79.45</ele>
        <time>2014-05-25T10:44:49.000Z</time>
      </trkpt>
      <trkpt lat="48.686671" lon="2.466465">
        <ele>79.45</ele>
        <time>2014-05-25T10:45:12.000Z</time>
      </trkpt>
      <trkpt lat="48.686485" lon="2.465968">
        <ele>79.45</ele>
        <time>2014-05-25T10:45:25.000Z</time>
      </trkpt>
      <trkpt lat="48.686347" lon="2.4657">
        <ele>78.97</ele>
        <time>2014-05-25T10:45:33.000Z</time>
      </trkpt>
      <trkpt lat="48.686346" lon="2.465626">
        <ele>78.97</ele>
        <time>2014-05-25T10:45:35.000Z</time>
      </trkpt>
      <trkpt lat="48.686362" lon="2.465412">
        <ele>78.97</ele>
        <time>2014-05-25T10:45:41.000Z</time>
      </trkpt>
      <trkpt lat="48.686357" lon="2.465329">
        <ele>78.97</ele>
        <time>2014-05-25T10:45:44.000Z</time>
      </trkpt>
      <trkpt lat="48.68635" lon="2.46505">
        <ele>78.97</ele>
        <time>2014-05-25T10:45:54.000Z</time>
      </trkpt>
      <trkpt lat="48.686093" lon="2.464566">
        <ele>78.97</ele>
        <time>2014-05-25T10:46:06.000Z</time>
      </trkpt>
      <trkpt lat="48.685927" lon="2.464129">
        <ele>78.97</ele>
        <time>2014-05-25T10:46:17.000Z</time>
      </trkpt>
      <trkpt lat="48.685924" lon="2.46396">
        <ele>78.97</ele>
        <time>2014-05-25T10:46:25.000Z</time>
      </trkpt>
      <trkpt lat="48.685882" lon="2.463604">
        <ele>78.97</ele>
        <time>2014-05-25T10:46:38.000Z</time>
      </trkpt>
      <trkpt lat="48.686063" lon="2.463313">
        <ele>78.97</ele>
        <time>2014-05-25T10:46:48.000Z</time>
      </trkpt>
      <trkpt lat="48.685378" lon="2.46253">
        <ele>78.97</ele>
        <time>2014-05-25T10:46:59.000Z</time>
      </trkpt>
      <trkpt lat="48.684998" lon="2.461936">
        <ele>78.48</ele>
        <time>2014-05-25T10:47:09.000Z</time>
      </trkpt>
      <trkpt lat="48.684831" lon="2.461585">
        <ele>78</ele>
        <time>2014-05-25T10:47:19.000Z</time>
      </trkpt>
      <trkpt lat="48.684778" lon="2.461376">
        <ele>78</ele>
        <time>2014-05-25T10:47:29.000Z</time>
      </trkpt>
      <trkpt lat="48.684463" lon="2.460688">
        <ele>78</ele>
        <time>2014-05-25T10:47:44.000Z</time>
      </trkpt>
      <trkpt lat="48.684345" lon="2.460184">
        <ele>77.52</ele>
        <time>2014-05-25T10:47:57.000Z</time>
      </trkpt>
      <trkpt lat="48.684268" lon="2.459734">
        <ele>77.52</ele>
        <time>2014-05-25T10:48:09.000Z</time>
      </trkpt>
      <trkpt lat="48.684166" lon="2.459374">
        <ele>77.04</ele>
        <time>2014-05-25T10:48:22.000Z</time>
      </trkpt>
      <trkpt lat="48.684063" lon="2.459047">
        <ele>76.56</ele>
        <time>2014-05-25T10:48:34.000Z</time>
      </trkpt>
      <trkpt lat="48.683854" lon="2.458523">
        <ele>76.08</ele>
        <time>2014-05-25T10:48:48.000Z</time>
      </trkpt>
      <trkpt lat="48.683707" lon="2.458076">
        <ele>75.12</ele>
        <time>2014-05-25T10:49:00.000Z</time>
      </trkpt>
      <trkpt lat="48.683682" lon="2.457908">
        <ele>75.12</ele>
        <time>2014-05-25T10:49:04.000Z</time>
      </trkpt>
      <trkpt lat="48.683503" lon="2.457545">
        <ele>74.64</ele>
        <time>2014-05-25T10:49:14.000Z</time>
      </trkpt>
      <trkpt lat="48.683485" lon="2.457467">
        <ele>74.16</ele>
        <time>2014-05-25T10:49:16.000Z</time>
      </trkpt>
      <trkpt lat="48.683254" lon="2.456733">
        <ele>72.72</ele>
        <time>2014-05-25T10:49:26.000Z</time>
      </trkpt>
      <trkpt lat="48.683118" lon="2.456373">
        <ele>71.27</ele>
        <time>2014-05-25T10:49:31.000Z</time>
      </trkpt>
      <trkpt lat="48.682768" lon="2.455281">
        <ele>69.35</ele>
        <time>2014-05-25T10:49:43.000Z</time>
      </trkpt>
      <trkpt lat="48.682616" lon="2.454595">
        <ele>68.87</ele>
        <time>2014-05-25T10:49:53.000Z</time>
      </trkpt>
      <trkpt lat="48.682402" lon="2.453998">
        <ele>69.35</ele>
        <time>2014-05-25T10:50:03.000Z</time>
      </trkpt>
      <trkpt lat="48.682224" lon="2.453579">
        <ele>69.35</ele>
        <time>2014-05-25T10:50:13.000Z</time>
      </trkpt>
      <trkpt lat="48.682116" lon="2.453107">
        <ele>69.83</ele>
        <time>2014-05-25T10:50:22.000Z</time>
      </trkpt>
      <trkpt lat="48.682064" lon="2.452955">
        <ele>70.31</ele>
        <time>2014-05-25T10:50:26.000Z</time>
      </trkpt>
      <trkpt lat="48.68196" lon="2.452727">
        <ele>70.31</ele>
        <time>2014-05-25T10:50:32.000Z</time>
      </trkpt>
      <trkpt lat="48.681891" lon="2.452494">
        <ele>70.31</ele>
        <time>2014-05-25T10:50:38.000Z</time>
      </trkpt>
      <trkpt lat="48.681811" lon="2.452276">
        <ele>70.79</ele>
        <time>2014-05-25T10:50:44.000Z</time>
      </trkpt>
      <trkpt lat="48.681756" lon="2.452123">
        <ele>70.79</ele>
        <time>2014-05-25T10:50:49.000Z</time>
      </trkpt>
      <trkpt lat="48.681722" lon="2.452021">
        <ele>71.27</ele>
        <time>2014-05-25T10:50:54.000Z</time>
      </trkpt>
      <trkpt lat="48.68154" lon="2.451647">
        <ele>71.27</ele>
        <time>2014-05-25T10:51:09.000Z</time>
      </trkpt>
      <trkpt lat="48.681447" lon="2.451446">
        <ele>71.76</ele>
        <time>2014-05-25T10:51:16.000Z</time>
      </trkpt>
      <trkpt lat="48.681404" lon="2.451322">
        <ele>72.24</ele>
        <time>2014-05-25T10:51:21.000Z</time>
      </trkpt>
      <trkpt lat="48.681346" lon="2.451004">
        <ele>72.72</ele>
        <time>2014-05-25T10:51:31.000Z</time>
      </trkpt>
      <trkpt lat="48.68128" lon="2.450858">
        <ele>72.72</ele>
        <time>2014-05-25T10:51:36.000Z</time>
      </trkpt>
      <trkpt lat="48.681228" lon="2.450764">
        <ele>72.72</ele>
        <time>2014-05-25T10:51:39.000Z</time>
      </trkpt>
      <trkpt lat="48.681166" lon="2.450546">
        <ele>73.2</ele>
        <time>2014-05-25T10:51:54.000Z</time>
      </trkpt>
      <trkpt lat="48.681015" lon="2.450034">
        <ele>73.68</ele>
        <time>2014-05-25T10:53:12.000Z</time>
      </trkpt>
      <trkpt lat="48.680933" lon="2.449705">
        <ele>74.16</ele>
        <time>2014-05-25T10:53:21.000Z</time>
      </trkpt>
      <trkpt lat="48.68089" lon="2.449478">
        <ele>74.64</ele>
        <time>2014-05-25T10:53:25.000Z</time>
      </trkpt>
      <trkpt lat="48.680687" lon="2.448953">
        <ele>75.12</ele>
        <time>2014-05-25T10:53:34.000Z</time>
      </trkpt>
      <trkpt lat="48.680588" lon="2.448729">
        <ele>75.12</ele>
        <time>2014-05-25T10:53:37.000Z</time>
      </trkpt>
      <trkpt lat="48.680259" lon="2.447994">
        <ele>75.6</ele>
        <time>2014-05-25T10:53:49.000Z</time>
      </trkpt>
      <trkpt lat="48.680067" lon="2.447417">
        <ele>76.08</ele>
        <time>2014-05-25T10:54:00.000Z</time>
      </trkpt>
      <trkpt lat="48.679896" lon="2.447045">
        <ele>76.56</ele>
        <time>2014-05-25T10:54:12.000Z</time>
      </trkpt>
      <trkpt lat="48.67988" lon="2.446992">
        <ele>77.04</ele>
        <time>2014-05-25T10:55:30.000Z</time>
      </trkpt>
      <trkpt lat="48.679734" lon="2.446686">
        <ele>77.04</ele>
        <time>2014-05-25T10:55:45.000Z</time>
      </trkpt>
      <trkpt lat="48.679577" lon="2.446348">
        <ele>77.52</ele>
        <time>2014-05-25T10:55:56.000Z</time>
      </trkpt>
      <trkpt lat="48.679329" lon="2.445835">
        <ele>77.52</ele>
        <time>2014-05-25T10:56:11.000Z</time>
      </trkpt>
      <trkpt lat="48.679122" lon="2.445374">
        <ele>78</ele>
        <time>2014-05-25T10:56:23.000Z</time>
      </trkpt>
      <trkpt lat="48.678821" lon="2.444766">
        <ele>78</ele>
        <time>2014-05-25T10:56:38.000Z</time>
      </trkpt>
      <trkpt lat="48.678558" lon="2.44417">
        <ele>78</ele>
        <time>2014-05-25T10:56:52.000Z</time>
      </trkpt>
      <trkpt lat="48.678296" lon="2.443612">
        <ele>78.48</ele>
        <time>2014-05-25T10:57:06.000Z</time>
      </trkpt>
      <trkpt lat="48.678101" lon="2.44318">
        <ele>78.97</ele>
        <time>2014-05-25T10:57:17.000Z</time>
      </trkpt>
      <trkpt lat="48.677844" lon="2.442629">
        <ele>78.97</ele>
        <time>2014-05-25T10:57:31.000Z</time>
      </trkpt>
      <trkpt lat="48.677679" lon="2.442255">
        <ele>79.45</ele>
        <time>2014-05-25T10:57:40.000Z</time>
      </trkpt>
      <trkpt lat="48.677722" lon="2.442166">
        <ele>78.97</ele>
        <time>2014-05-25T10:57:45.000Z</time>
      </trkpt>
      <trkpt lat="48.677871" lon="2.442062">
        <ele>78.97</ele>
        <time>2014-05-25T10:58:01.000Z</time>
      </trkpt>
      <trkpt lat="48.677881" lon="2.442043">
        <ele>78.97</ele>
        <time>2014-05-25T10:58:03.000Z</time>
      </trkpt>
      <trkpt lat="48.678046" lon="2.44165">
        <ele>79.45</ele>
        <time>2014-05-25T10:58:15.000Z</time>
      </trkpt>
      <trkpt lat="48.678307" lon="2.44114">
        <ele>78.97</ele>
        <time>2014-05-25T10:58:28.000Z</time>
      </trkpt>
      <trkpt lat="48.678409" lon="2.440904">
        <ele>78.97</ele>
        <time>2014-05-25T10:58:34.000Z</time>
      </trkpt>
      <trkpt lat="48.678546" lon="2.440113">
        <ele>79.45</ele>
        <time>2014-05-25T10:58:49.000Z</time>
      </trkpt>
      <trkpt lat="48.678744" lon="2.439524">
        <ele>78.97</ele>
        <time>2014-05-25T10:59:03.000Z</time>
      </trkpt>
      <trkpt lat="48.678877" lon="2.439063">
        <ele>78.97</ele>
        <time>2014-05-25T10:59:15.000Z</time>
      </trkpt>
      <trkpt lat="48.679038" lon="2.438639">
        <ele>78.97</ele>
        <time>2014-05-25T10:59:26.000Z</time>
      </trkpt>
      <trkpt lat="48.679179" lon="2.438266">
        <ele>78.97</ele>
        <time>2014-05-25T10:59:38.000Z</time>
      </trkpt>
      <trkpt lat="48.679303" lon="2.437911">
        <ele>78.97</ele>
        <time>2014-05-25T10:59:49.000Z</time>
      </trkpt>
      <trkpt lat="48.679426" lon="2.437477">
        <ele>78.97</ele>
        <time>2014-05-25T11:00:01.000Z</time>
      </trkpt>
      <trkpt lat="48.679542" lon="2.43702">
        <ele>78.97</ele>
        <time>2014-05-25T11:00:13.000Z</time>
      </trkpt>
      <trkpt lat="48.679669" lon="2.436563">
        <ele>78.97</ele>
        <time>2014-05-25T11:00:27.000Z</time>
      </trkpt>
      <trkpt lat="48.679756" lon="2.436318">
        <ele>78.97</ele>
        <time>2014-05-25T11:01:05.000Z</time>
      </trkpt>
      <trkpt lat="48.679893" lon="2.436083">
        <ele>78.48</ele>
        <time>2014-05-25T11:01:17.000Z</time>
      </trkpt>
      <trkpt lat="48.680151" lon="2.435721">
        <ele>78</ele>
        <time>2014-05-25T11:01:31.000Z</time>
      </trkpt>
      <trkpt lat="48.680274" lon="2.435576">
        <ele>78</ele>
        <time>2014-05-25T11:01:37.000Z</time>
      </trkpt>
      <trkpt lat="48.680307" lon="2.435468">
        <ele>78</ele>
        <time>2014-05-25T11:01:42.000Z</time>
      </trkpt>
      <trkpt lat="48.680628" lon="2.435068">
        <ele>77.52</ele>
        <time>2014-05-25T11:01:57.000Z</time>
      </trkpt>
      <trkpt lat="48.680895" lon="2.434719">
        <ele>77.52</ele>
        <time>2014-05-25T11:02:09.000Z</time>
      </trkpt>
      <trkpt lat="48.681277" lon="2.434307">
        <ele>77.52</ele>
        <time>2014-05-25T11:02:24.000Z</time>
      </trkpt>
      <trkpt lat="48.681861" lon="2.433688">
        <ele>77.52</ele>
        <time>2014-05-25T11:02:42.000Z</time>
      </trkpt>
      <trkpt lat="48.682456" lon="2.433146">
        <ele>77.52</ele>
        <time>2014-05-25T11:02:57.000Z</time>
      </trkpt>
      <trkpt lat="48.682696" lon="2.432923">
        <ele>77.04</ele>
        <time>2014-05-25T11:03:03.000Z</time>
      </trkpt>
      <trkpt lat="48.683084" lon="2.432607">
        <ele>77.04</ele>
        <time>2014-05-25T11:03:16.000Z</time>
      </trkpt>
      <trkpt lat="48.683172" lon="2.432513">
        <ele>77.04</ele>
        <time>2014-05-25T11:03:28.000Z</time>
      </trkpt>
      <trkpt lat="48.683206" lon="2.432481">
        <ele>77.04</ele>
        <time>2014-05-25T11:03:35.000Z</time>
      </trkpt>
      <trkpt lat="48.6833" lon="2.432445">
        <ele>77.04</ele>
        <time>2014-05-25T11:03:39.000Z</time>
      </trkpt>
      <trkpt lat="48.683571" lon="2.43238">
        <ele>77.04</ele>
        <time>2014-05-25T11:03:52.000Z</time>
      </trkpt>
      <trkpt lat="48.683584" lon="2.43239">
        <ele>77.04</ele>
        <time>2014-05-25T11:03:53.000Z</time>
      </trkpt>
      <trkpt lat="48.683868" lon="2.432835">
        <ele>77.04</ele>
        <time>2014-05-25T11:04:08.000Z</time>
      </trkpt>
      <trkpt lat="48.684117" lon="2.433324">
        <ele>77.52</ele>
        <time>2014-05-25T11:04:21.000Z</time>
      </trkpt>
      <trkpt lat="48.684291" lon="2.433629">
        <ele>77.04</ele>
        <time>2014-05-25T11:04:32.000Z</time>
      </trkpt>
      <trkpt lat="48.6845" lon="2.433983">
        <ele>77.04</ele>
        <time>2014-05-25T11:04:45.000Z</time>
      </trkpt>
      <trkpt lat="48.684651" lon="2.434307">
        <ele>77.04</ele>
        <time>2014-05-25T11:04:57.000Z</time>
      </trkpt>
      <trkpt lat="48.685005" lon="2.434624">
        <ele>77.04</ele>
        <time>2014-05-25T11:05:12.000Z</time>
      </trkpt>
      <trkpt lat="48.685387" lon="2.434601">
        <ele>76.56</ele>
        <time>2014-05-25T11:05:26.000Z</time>
      </trkpt>
      <trkpt lat="48.685576" lon="2.434454">
        <ele>76.56</ele>
        <time>2014-05-25T11:05:35.000Z</time>
      </trkpt>
      <trkpt lat="48.685654" lon="2.434464">
        <ele>76.08</ele>
        <time>2014-05-25T11:05:40.000Z</time>
      </trkpt>
      <trkpt lat="48.685671" lon="2.434389">
        <ele>76.08</ele>
        <time>2014-05-25T11:05:48.000Z</time>
      </trkpt>
      <trkpt lat="48.685694" lon="2.434344">
        <ele>76.08</ele>
        <time>2014-05-25T11:05:52.000Z</time>
      </trkpt>
      <trkpt lat="48.68596" lon="2.434024">
        <ele>75.6</ele>
        <time>2014-05-25T11:06:05.000Z</time>
      </trkpt>
      <trkpt lat="48.686263" lon="2.433884">
        <ele>74.64</ele>
        <time>2014-05-25T11:06:16.000Z</time>
      </trkpt>
      <trkpt lat="48.686502" lon="2.43356">
        <ele>74.64</ele>
        <time>2014-05-25T11:06:28.000Z</time>
      </trkpt>
      <trkpt lat="48.686727" lon="2.433558">
        <ele>74.64</ele>
        <time>2014-05-25T11:06:34.000Z</time>
      </trkpt>
      <trkpt lat="48.686938" lon="2.433507">
        <ele>74.16</ele>
        <time>2014-05-25T11:06:41.000Z</time>
      </trkpt>
      <trkpt lat="48.687211" lon="2.433481">
        <ele>74.16</ele>
        <time>2014-05-25T11:06:54.000Z</time>
      </trkpt>
      <trkpt lat="48.687477" lon="2.43328">
        <ele>73.68</ele>
        <time>2014-05-25T11:07:05.000Z</time>
      </trkpt>
      <trkpt lat="48.687677" lon="2.433168">
        <ele>72.72</ele>
        <time>2014-05-25T11:07:11.000Z</time>
      </trkpt>
      <trkpt lat="48.687996" lon="2.432791">
        <ele>71.27</ele>
        <time>2014-05-25T11:07:23.000Z</time>
      </trkpt>
      <trkpt lat="48.688141" lon="2.432498">
        <ele>70.31</ele>
        <time>2014-05-25T11:07:32.000Z</time>
      </trkpt>
      <trkpt lat="48.688154" lon="2.432444">
        <ele>69.83</ele>
        <time>2014-05-25T11:07:34.000Z</time>
      </trkpt>
      <trkpt lat="48.688472" lon="2.432372">
        <ele>69.35</ele>
        <time>2014-05-25T11:07:43.000Z</time>
      </trkpt>
      <trkpt lat="48.688578" lon="2.432311">
        <ele>68.87</ele>
        <time>2014-05-25T11:07:49.000Z</time>
      </trkpt>
      <trkpt lat="48.688729" lon="2.431766">
        <ele>67.43</ele>
        <time>2014-05-25T11:08:02.000Z</time>
      </trkpt>
      <trkpt lat="48.688825" lon="2.4316">
        <ele>66.47</ele>
        <time>2014-05-25T11:08:06.000Z</time>
      </trkpt>
      <trkpt lat="48.688799" lon="2.4311">
        <ele>65.99</ele>
        <time>2014-05-25T11:08:14.000Z</time>
      </trkpt>
      <trkpt lat="48.688835" lon="2.430567">
        <ele>64.55</ele>
        <time>2014-05-25T11:08:23.000Z</time>
      </trkpt>
      <trkpt lat="48.688857" lon="2.43039">
        <ele>63.58</ele>
        <time>2014-05-25T11:08:26.000Z</time>
      </trkpt>
      <trkpt lat="48.68896" lon="2.430262">
        <ele>63.1</ele>
        <time>2014-05-25T11:08:30.000Z</time>
      </trkpt>
      <trkpt lat="48.68903" lon="2.430253">
        <ele>62.62</ele>
        <time>2014-05-25T11:08:32.000Z</time>
      </trkpt>
      <trkpt lat="48.689361" lon="2.430287">
        <ele>61.66</ele>
        <time>2014-05-25T11:08:40.000Z</time>
      </trkpt>
      <trkpt lat="48.689642" lon="2.430278">
        <ele>60.22</ele>
        <time>2014-05-25T11:08:47.000Z</time>
      </trkpt>
      <trkpt lat="48.689787" lon="2.430201">
        <ele>59.74</ele>
        <time>2014-05-25T11:08:51.000Z</time>
      </trkpt>
      <trkpt lat="48.689984" lon="2.429765">
        <ele>58.78</ele>
        <time>2014-05-25T11:09:00.000Z</time>
      </trkpt>
      <trkpt lat="48.690054" lon="2.429594">
        <ele>58.3</ele>
        <time>2014-05-25T11:09:04.000Z</time>
      </trkpt>
      <trkpt lat="48.690297" lon="2.429234">
        <ele>57.82</ele>
        <time>2014-05-25T11:09:15.000Z</time>
      </trkpt>
      <trkpt lat="48.690738" lon="2.429305">
        <ele>57.34</ele>
        <time>2014-05-25T11:09:28.000Z</time>
      </trkpt>
      <trkpt lat="48.690889" lon="2.429193">
        <ele>57.34</ele>
        <time>2014-05-25T11:09:35.000Z</time>
      </trkpt>
      <trkpt lat="48.690808" lon="2.428753">
        <ele>56.86</ele>
        <time>2014-05-25T11:09:47.000Z</time>
      </trkpt>
      <trkpt lat="48.690543" lon="2.428299">
        <ele>56.37</ele>
        <time>2014-05-25T11:10:00.000Z</time>
      </trkpt>
      <trkpt lat="48.690233" lon="2.427725">
        <ele>56.37</ele>
        <time>2014-05-25T11:10:16.000Z</time>
      </trkpt>
      <trkpt lat="48.689953" lon="2.427421">
        <ele>56.37</ele>
        <time>2014-05-25T11:10:30.000Z</time>
      </trkpt>
      <trkpt lat="48.689815" lon="2.427311">
        <ele>55.89</ele>
        <time>2014-05-25T11:10:37.000Z</time>
      </trkpt>
      <trkpt lat="48.68978" lon="2.427215">
        <ele>55.89</ele>
        <time>2014-05-25T11:10:41.000Z</time>
      </trkpt>
      <trkpt lat="48.690047" lon="2.426738">
        <ele>54.93</ele>
        <time>2014-05-25T11:10:53.000Z</time>
      </trkpt>
      <trkpt lat="48.690347" lon="2.426226">
        <ele>53.49</ele>
        <time>2014-05-25T11:11:06.000Z</time>
      </trkpt>
      <trkpt lat="48.6906" lon="2.42555">
        <ele>52.53</ele>
        <time>2014-05-25T11:11:20.000Z</time>
      </trkpt>
      <trkpt lat="48.690802" lon="2.425198">
        <ele>52.05</ele>
        <time>2014-05-25T11:11:32.000Z</time>
      </trkpt>
      <trkpt lat="48.690806" lon="2.425033">
        <ele>52.05</ele>
        <time>2014-05-25T11:11:38.000Z</time>
      </trkpt>
      <trkpt lat="48.690444" lon="2.424435">
        <ele>52.05</ele>
        <time>2014-05-25T11:11:52.000Z</time>
      </trkpt>
      <trkpt lat="48.690055" lon="2.423869">
        <ele>52.05</ele>
        <time>2014-05-25T11:12:06.000Z</time>
      </trkpt>
      <trkpt lat="48.689663" lon="2.423375">
        <ele>52.53</ele>
        <time>2014-05-25T11:12:20.000Z</time>
      </trkpt>
      <trkpt lat="48.68951" lon="2.423157">
        <ele>52.05</ele>
        <time>2014-05-25T11:12:26.000Z</time>
      </trkpt>
    </trkseg>
  </trk>
</gpx>
