{"type":"FeatureCollection","features":[{"type":"Feature","properties":{"name":"Marche dans l'après-midi","type":"marche","time":"2024-07-29T15:44:02Z","coordTimes":["2024-07-29T15:44:02Z","2024-07-29T15:44:21Z","2024-07-29T15:44:30Z","2024-07-29T15:44:31Z","2024-07-29T15:44:36Z","2024-07-29T15:44:38Z","2024-07-29T15:44:39Z","2024-07-29T15:44:41Z","2024-07-29T15:44:45Z","2024-07-29T15:44:47Z","2024-07-29T15:44:52Z","2024-07-29T15:44:55Z","2024-07-29T15:45:04Z","2024-07-29T15:45:19Z","2024-07-29T15:45:23Z","2024-07-29T15:45:25Z","2024-07-29T15:45:28Z","2024-07-29T15:45:32Z","2024-07-29T15:45:33Z","2024-07-29T15:45:38Z","2024-07-29T15:45:46Z","2024-07-29T15:45:50Z","2024-07-29T15:45:59Z","2024-07-29T15:46:00Z","2024-07-29T15:46:03Z","2024-07-29T15:46:09Z","2024-07-29T15:46:13Z","2024-07-29T15:46:14Z","2024-07-29T15:46:19Z","2024-07-29T15:46:21Z","2024-07-29T15:46:35Z","2024-07-29T15:46:37Z","2024-07-29T15:46:40Z","2024-07-29T15:46:42Z","2024-07-29T15:46:51Z","2024-07-29T15:46:55Z","2024-07-29T15:46:57Z","2024-07-29T15:46:59Z","2024-07-29T15:47:02Z","2024-07-29T15:47:06Z","2024-07-29T15:47:09Z","2024-07-29T15:47:14Z","2024-07-29T15:47:19Z","2024-07-29T15:47:21Z","2024-07-29T15:47:24Z","2024-07-29T15:47:26Z","2024-07-29T15:47:33Z","2024-07-29T15:47:42Z","2024-07-29T15:47:45Z","2024-07-29T15:47:49Z","2024-07-29T15:48:01Z","2024-07-29T15:48:05Z","2024-07-29T15:48:12Z","2024-07-29T15:48:14Z","2024-07-29T15:48:33Z","2024-07-29T15:48:35Z","2024-07-29T15:48:40Z","2024-07-29T15:48:58Z","2024-07-29T15:49:04Z","2024-07-29T15:49:10Z","2024-07-29T15:49:11Z","2024-07-29T15:49:13Z","2024-07-29T15:49:18Z","2024-07-29T15:49:19Z","2024-07-29T15:49:22Z","2024-07-29T15:49:28Z","2024-07-29T15:49:29Z","2024-07-29T15:49:33Z","2024-07-29T15:49:36Z","2024-07-29T15:49:38Z","2024-07-29T15:49:49Z","2024-07-29T15:49:51Z","2024-07-29T15:49:54Z","2024-07-29T15:49:55Z","2024-07-29T15:50:02Z","2024-07-29T15:50:06Z","2024-07-29T15:50:13Z","2024-07-29T15:50:16Z","2024-07-29T15:50:19Z","2024-07-29T15:50:21Z","2024-07-29T15:50:25Z","2024-07-29T15:50:27Z","2024-07-29T15:50:30Z","2024-07-29T15:50:33Z","2024-07-29T15:50:35Z","2024-07-29T15:50:37Z","2024-07-29T15:50:43Z","2024-07-29T15:50:47Z","2024-07-29T15:50:51Z","2024-07-29T15:50:56Z","2024-07-29T15:51:01Z","2024-07-29T15:51:04Z","2024-07-29T15:51:08Z","2024-07-29T15:51:09Z","2024-07-29T15:51:16Z","2024-07-29T15:51:18Z","2024-07-29T15:51:21Z","2024-07-29T15:51:22Z","2024-07-29T15:51:27Z","2024-07-29T15:51:57Z","2024-07-29T15:52:02Z","2024-07-29T15:52:06Z","2024-07-29T15:52:09Z","2024-07-29T15:52:17Z","2024-07-29T15:52:25Z","2024-07-29T15:52:29Z","2024-07-29T15:52:30Z","2024-07-29T15:52:32Z","2024-07-29T15:52:43Z","2024-07-29T15:52:44Z","2024-07-29T15:52:48Z","2024-07-29T15:52:50Z","2024-07-29T15:53:10Z","2024-07-29T15:53:11Z","2024-07-29T15:53:17Z","2024-07-29T15:53:20Z","2024-07-29T15:53:24Z","2024-07-29T15:53:26Z","2024-07-29T15:53:30Z","2024-07-29T15:53:42Z","2024-07-29T15:53:45Z","2024-07-29T15:53:47Z","2024-07-29T15:53:51Z","2024-07-29T15:53:52Z","2024-07-29T15:53:57Z","2024-07-29T15:54:00Z","2024-07-29T15:54:04Z","2024-07-29T15:54:08Z","2024-07-29T15:54:11Z","2024-07-29T15:54:15Z","2024-07-29T15:54:21Z","2024-07-29T15:54:24Z","2024-07-29T15:54:39Z","2024-07-29T15:54:42Z","2024-07-29T15:54:45Z","2024-07-29T15:54:51Z","2024-07-29T15:54:58Z","2024-07-29T15:55:03Z","2024-07-29T15:55:09Z","2024-07-29T15:55:11Z","2024-07-29T15:55:23Z","2024-07-29T15:55:24Z","2024-07-29T15:55:26Z","2024-07-29T15:55:27Z","2024-07-29T15:55:28Z","2024-07-29T15:55:29Z","2024-07-29T15:55:31Z","2024-07-29T15:55:32Z","2024-07-29T15:55:36Z","2024-07-29T15:55:37Z","2024-07-29T15:55:39Z","2024-07-29T15:55:40Z","2024-07-29T15:55:42Z","2024-07-29T15:55:43Z","2024-07-29T15:55:45Z","2024-07-29T15:55:47Z","2024-07-29T15:55:48Z","2024-07-29T15:55:50Z","2024-07-29T15:55:51Z","2024-07-29T15:55:53Z","2024-07-29T15:55:54Z","2024-07-29T15:55:55Z","2024-07-29T15:55:58Z","2024-07-29T15:55:59Z","2024-07-29T15:56:01Z","2024-07-29T15:56:02Z","2024-07-29T15:56:03Z","2024-07-29T15:56:05Z","2024-07-29T15:56:06Z","2024-07-29T15:56:07Z","2024-07-29T15:56:08Z","2024-07-29T15:56:09Z","2024-07-29T15:56:10Z","2024-07-29T15:56:11Z","2024-07-29T15:56:12Z","2024-07-29T15:56:13Z","2024-07-29T15:56:19Z","2024-07-29T15:56:21Z","2024-07-29T15:56:22Z","2024-07-29T15:56:24Z","2024-07-29T15:56:25Z","2024-07-29T15:56:27Z","2024-07-29T15:56:29Z","2024-07-29T15:56:32Z","2024-07-29T15:56:34Z","2024-07-29T15:56:35Z","2024-07-29T15:56:37Z","2024-07-29T15:56:38Z","2024-07-29T15:56:40Z","2024-07-29T15:56:41Z","2024-07-29T15:56:45Z","2024-07-29T15:56:52Z","2024-07-29T15:56:53Z","2024-07-29T15:56:58Z","2024-07-29T15:57:02Z","2024-07-29T15:57:04Z","2024-07-29T15:57:10Z","2024-07-29T15:57:13Z","2024-07-29T15:57:18Z","2024-07-29T15:57:21Z","2024-07-29T15:57:27Z","2024-07-29T15:57:35Z","2024-07-29T15:57:41Z","2024-07-29T15:57:43Z","2024-07-29T15:57:44Z","2024-07-29T15:57:56Z","2024-07-29T15:57:57Z","2024-07-29T15:58:01Z","2024-07-29T15:58:04Z","2024-07-29T15:58:08Z","2024-07-29T15:58:24Z","2024-07-29T15:58:25Z","2024-07-29T15:58:26Z","2024-07-29T15:58:30Z","2024-07-29T15:58:32Z","2024-07-29T15:58:33Z","2024-07-29T15:58:42Z","2024-07-29T15:58:47Z","2024-07-29T15:58:50Z","2024-07-29T15:59:08Z","2024-07-29T15:59:12Z","2024-07-29T15:59:14Z","2024-07-29T15:59:15Z","2024-07-29T15:59:17Z","2024-07-29T15:59:24Z","2024-07-29T15:59:31Z","2024-07-29T15:59:32Z","2024-07-29T15:59:33Z","2024-07-29T15:59:36Z","2024-07-29T15:59:37Z","2024-07-29T15:59:45Z","2024-07-29T15:59:47Z","2024-07-29T15:59:54Z","2024-07-29T15:59:56Z","2024-07-29T16:00:00Z","2024-07-29T16:00:03Z","2024-07-29T16:00:06Z","2024-07-29T16:00:14Z","2024-07-29T16:00:17Z","2024-07-29T16:00:19Z","2024-07-29T16:00:21Z","2024-07-29T16:00:41Z","2024-07-29T16:00:45Z","2024-07-29T16:00:49Z","2024-07-29T16:00:52Z","2024-07-29T16:00:53Z","2024-07-29T16:00:57Z","2024-07-29T16:01:03Z","2024-07-29T16:01:04Z","2024-07-29T16:01:06Z","2024-07-29T16:01:09Z","2024-07-29T16:01:12Z","2024-07-29T16:01:18Z","2024-07-29T16:01:19Z","2024-07-29T16:01:25Z","2024-07-29T16:01:26Z","2024-07-29T16:01:30Z","2024-07-29T16:01:41Z","2024-07-29T16:01:43Z","2024-07-29T16:01:48Z","2024-07-29T16:01:50Z","2024-07-29T16:01:57Z","2024-07-29T16:02:02Z","2024-07-29T16:02:03Z","2024-07-29T16:02:06Z","2024-07-29T16:02:07Z","2024-07-29T16:02:11Z","2024-07-29T16:02:12Z","2024-07-29T16:02:13Z","2024-07-29T16:02:14Z","2024-07-29T16:02:16Z","2024-07-29T16:02:20Z","2024-07-29T16:02:23Z","2024-07-29T16:02:26Z","2024-07-29T16:02:27Z","2024-07-29T16:02:31Z","2024-07-29T16:03:13Z","2024-07-29T16:04:35Z","2024-07-29T16:04:38Z","2024-07-29T16:04:41Z","2024-07-29T16:04:45Z","2024-07-29T16:04:48Z","2024-07-29T16:04:53Z","2024-07-29T16:05:03Z","2024-07-29T16:05:22Z","2024-07-29T16:05:24Z","2024-07-29T16:05:32Z","2024-07-29T16:05:34Z","2024-07-29T16:05:38Z","2024-07-29T16:05:45Z","2024-07-29T16:05:52Z","2024-07-29T16:06:07Z","2024-07-29T16:06:11Z","2024-07-29T16:06:13Z","2024-07-29T16:06:17Z","2024-07-29T16:06:20Z","2024-07-29T16:06:27Z","2024-07-29T16:06:33Z","2024-07-29T16:06:37Z","2024-07-29T16:06:40Z","2024-07-29T16:06:43Z","2024-07-29T16:06:47Z","2024-07-29T16:06:54Z","2024-07-29T16:06:57Z","2024-07-29T16:07:00Z","2024-07-29T16:07:04Z","2024-07-29T16:07:07Z","2024-07-29T16:07:11Z","2024-07-29T16:07:13Z","2024-07-29T16:07:14Z","2024-07-29T16:07:16Z","2024-07-29T16:07:18Z","2024-07-29T16:07:23Z","2024-07-29T16:07:29Z","2024-07-29T16:07:31Z","2024-07-29T16:07:37Z","2024-07-29T16:07:42Z","2024-07-29T16:07:45Z","2024-07-29T16:07:53Z","2024-07-29T16:07:56Z","2024-07-29T16:07:59Z","2024-07-29T16:08:05Z","2024-07-29T16:08:08Z","2024-07-29T16:08:10Z","2024-07-29T16:08:12Z","2024-07-29T16:08:18Z","2024-07-29T16:08:20Z","2024-07-29T16:08:23Z","2024-07-29T16:08:29Z","2024-07-29T16:08:33Z","2024-07-29T16:08:35Z","2024-07-29T16:08:41Z","2024-07-29T16:08:52Z","2024-07-29T16:08:56Z","2024-07-29T16:09:08Z","2024-07-29T16:09:10Z","2024-07-29T16:09:16Z","2024-07-29T16:09:17Z","2024-07-29T16:09:22Z","2024-07-29T16:09:25Z","2024-07-29T16:09:27Z","2024-07-29T16:09:31Z","2024-07-29T16:09:32Z","2024-07-29T16:09:37Z","2024-07-29T16:09:48Z","2024-07-29T16:09:52Z","2024-07-29T16:09:55Z","2024-07-29T16:09:56Z","2024-07-29T16:09:58Z","2024-07-29T16:10:03Z","2024-07-29T16:10:06Z","2024-07-29T16:10:43Z","2024-07-29T16:10:44Z","2024-07-29T16:10:50Z","2024-07-29T16:11:12Z","2024-07-29T16:11:15Z","2024-07-29T16:11:19Z","2024-07-29T16:11:32Z","2024-07-29T16:11:41Z","2024-07-29T16:11:45Z","2024-07-29T16:11:54Z","2024-07-29T16:11:56Z","2024-07-29T16:11:58Z","2024-07-29T16:12:00Z","2024-07-29T16:12:03Z","2024-07-29T16:12:07Z","2024-07-29T16:12:09Z","2024-07-29T16:12:11Z","2024-07-29T16:12:16Z","2024-07-29T16:12:23Z","2024-07-29T16:12:30Z","2024-07-29T16:12:32Z","2024-07-29T16:12:36Z","2024-07-29T16:12:40Z","2024-07-29T16:12:47Z","2024-07-29T16:12:51Z","2024-07-29T16:12:53Z","2024-07-29T16:12:57Z","2024-07-29T16:12:59Z","2024-07-29T16:13:04Z","2024-07-29T16:13:05Z","2024-07-29T16:13:09Z","2024-07-29T16:13:14Z","2024-07-29T16:13:19Z","2024-07-29T16:13:22Z","2024-07-29T16:13:25Z","2024-07-29T16:14:07Z","2024-07-29T16:14:08Z","2024-07-29T16:25:28Z","2024-07-29T16:29:02Z","2024-07-29T16:29:51Z","2024-07-29T16:29:55Z","2024-07-29T16:29:58Z","2024-07-29T16:30:00Z","2024-07-29T16:30:03Z","2024-07-29T16:30:05Z","2024-07-29T16:30:10Z","2024-07-29T16:30:13Z","2024-07-29T16:30:19Z","2024-07-29T16:30:28Z","2024-07-29T16:30:39Z","2024-07-29T16:30:42Z","2024-07-29T16:31:08Z","2024-07-29T16:32:15Z","2024-07-29T16:32:25Z","2024-07-29T16:32:26Z","2024-07-29T16:32:39Z","2024-07-29T16:32:56Z","2024-07-29T16:32:59Z","2024-07-29T16:33:01Z","2024-07-29T16:33:02Z","2024-07-29T16:33:04Z","2024-07-29T16:33:08Z","2024-07-29T16:33:12Z","2024-07-29T16:33:14Z","2024-07-29T16:33:17Z","2024-07-29T16:33:18Z","2024-07-29T16:33:22Z","2024-07-29T16:33:23Z","2024-07-29T16:33:24Z","2024-07-29T16:33:26Z","2024-07-29T16:33:27Z","2024-07-29T16:33:28Z","2024-07-29T16:33:31Z","2024-07-29T16:33:34Z","2024-07-29T16:33:36Z","2024-07-29T16:33:40Z","2024-07-29T16:33:41Z","2024-07-29T16:33:45Z","2024-07-29T16:33:50Z","2024-07-29T16:35:31Z","2024-07-29T16:36:03Z","2024-07-29T16:36:05Z","2024-07-29T16:36:06Z","2024-07-29T16:36:33Z"],"heartRates":[99,97,99,99,100,100,100,100,101,101,100,100,101,102,101,101,101,101,99,99,99,99,98,98,98,100,101,101,101,101,98,98,98,98,98,98,98,98,98,96,96,99,99,100,100,100,100,96,100,100,102,103,103,103,104,104,105,101,102,100,100,100,100,102,103,99,99,102,102,103,106,106,105,105,105,105,106,106,104,104,104,104,104,103,103,103,104,104,104,104,104,104,105,105,108,108,110,110,109,110,110,110,110,106,106,107,107,108,106,106,106,108,110,110,110,110,105,105,107,106,106,106,105,105,105,104,103,104,104,106,106,108,108,110,110,112,114,114,116,116,116,116,116,116,115,115,115,115,115,115,114,114,113,113,113,111,111,111,111,111,112,112,113,113,113,113,113,113,113,113,113,113,114,114,114,114,114,114,114,115,115,115,117,117,117,117,117,118,118,118,117,114,114,111,111,112,110,110,113,112,113,114,114,114,114,120,120,119,120,122,122,122,122,122,122,122,120,117,117,113,109,109,108,108,113,114,114,114,115,115,113,113,110,110,109,109,109,109,109,109,109,110,110,108,108,108,109,105,105,107,107,107,109,109,107,107,107,109,109,109,109,109,110,110,110,110,113,113,113,113,114,114,115,115,115,113,111,100,100,103,104,104,104,103,103,105,104,103,104,105,105,107,108,108,108,108,110,110,114,113,113,113,108,108,108,106,105,105,105,105,105,103,106,106,106,108,108,107,111,106,105,104,104,104,104,104,104,103,103,103,103,103,103,104,106,106,102,102,103,104,104,104,104,100,103,101,103,103,103,103,103,108,108,110,108,106,106,104,102,102,104,104,103,103,103,101,100,99,103,103,102,102,102,100,100,98,98,102,102,103,103,104,101,101,101,102,108,108,98,104,95,97,97,97,98,98,99,99,100,98,98,98,110,103,106,106,98,103,103,103,103,107,107,109,109,108,108,109,109,109,111,111,111,111,111,111,111,111,104,103,109,101,101,101,97],"month":"2024-07-01"},"geometry":{"type":"LineString","coordinates":[[2.354073,48.918006,43.5],[2.354143,48.917992,43.5],[2.35429,48.918,43.3],[2.354304,48.918011,43.3],[2.35437,48.918026,43.2],[2.354402,48.918021,43.2],[2.354424,48.918046,43.1],[2.354459,48.918059,43.1],[2.354516,48.918053,43],[2.354546,48.918062,43],[2.354632,48.918068,43],[2.354685,48.918064,43],[2.354786,48.918071,43],[2.354976,48.918027,42.8],[2.355017,48.91803,42.8],[2.355051,48.918019,42.8],[2.35509,48.91802,42.7],[2.35514,48.917996,42.7],[2.355152,48.918016,42.7],[2.355244,48.917995,42.6],[2.355388,48.917991,42.5],[2.355448,48.918004,42.5],[2.355594,48.918006,42.4],[2.355613,48.917999,42.4],[2.355659,48.918002,42.3],[2.355771,48.917986,42.3],[2.355821,48.917964,42.2],[2.355844,48.917973,42.2],[2.355919,48.917967,42.2],[2.355946,48.917982,42.2],[2.356187,48.918012,42],[2.356221,48.918043,42],[2.356269,48.918051,42],[2.356303,48.918032,42],[2.35646,48.918002,41.9],[2.356524,48.918007,41.9],[2.356547,48.918019,41.9],[2.356577,48.918004,41.8],[2.35662,48.917997,41.8],[2.356711,48.917998,41.8],[2.356754,48.917991,41.8],[2.356846,48.917957,41.8],[2.35694,48.917987,41.7],[2.356968,48.917975,41.7],[2.357019,48.917973,41.7],[2.357041,48.917987,41.7],[2.357149,48.918016,41.7],[2.357285,48.918032,41.5],[2.357326,48.918046,41.4],[2.357383,48.918042,41.4],[2.35756,48.918053,41.5],[2.357624,48.918049,41.6],[2.357723,48.918057,41.7],[2.357711,48.918054,41.7],[2.357893,48.918078,42.2],[2.357921,48.918098,42],[2.357939,48.918135,41.8],[2.357908,48.918268,41.9],[2.357922,48.918328,41.8],[2.357912,48.918378,41.8],[2.357919,48.918391,41.8],[2.35793,48.918389,41.8],[2.357916,48.918423,41.8],[2.357903,48.918421,41.8],[2.357889,48.918433,41.8],[2.357879,48.918484,41.9],[2.35789,48.918497,41.9],[2.357857,48.918538,41.9],[2.357856,48.918567,41.9],[2.357821,48.918579,41.9],[2.357802,48.918676,41.9],[2.357784,48.918695,41.9],[2.357787,48.91872,41.9],[2.357776,48.918726,41.9],[2.357784,48.918794,41.9],[2.357819,48.918839,41.9],[2.357794,48.91893,42],[2.357774,48.918959,42],[2.357784,48.91899,42],[2.357805,48.919014,42],[2.357813,48.919048,42.1],[2.357803,48.919072,42.1],[2.357773,48.919095,42.1],[2.357784,48.919123,42.1],[2.357753,48.919131,42.1],[2.357733,48.919151,42.1],[2.357717,48.919214,42.1],[2.357741,48.91926,42.1],[2.357742,48.919297,42.1],[2.357726,48.919346,42.1],[2.357737,48.919404,42.1],[2.357758,48.919438,42],[2.357769,48.919488,42],[2.357786,48.919495,42],[2.357798,48.919591,42],[2.357817,48.919612,42],[2.357807,48.919644,42],[2.357796,48.919648,42],[2.357844,48.9197,42],[2.35788,48.919831,41.9],[2.357843,48.919881,42],[2.357796,48.919922,42.1],[2.357754,48.919936,42.1],[2.357758,48.92001,42.1],[2.357739,48.920108,42.1],[2.357718,48.92015,42.1],[2.357723,48.920162,42.1],[2.357696,48.920174,42.1],[2.357688,48.920296,42.1],[2.357697,48.920309,42.1],[2.357698,48.920363,42.1],[2.35768,48.920379,42.1],[2.357718,48.920585,42],[2.357707,48.920594,42],[2.357722,48.920656,42],[2.357719,48.920686,42],[2.357739,48.92073,41.9],[2.357728,48.92075,41.9],[2.357738,48.920805,41.9],[2.357688,48.920936,41.8],[2.35769,48.920961,41.8],[2.357673,48.920992,41.8],[2.357684,48.921039,41.8],[2.357674,48.921047,41.7],[2.357673,48.921105,41.7],[2.357689,48.921142,41.7],[2.357679,48.921186,41.7],[2.357655,48.921228,41.6],[2.35767,48.921253,41.6],[2.357646,48.921296,41.6],[2.357666,48.921357,40.8],[2.357654,48.921385,40.7],[2.357642,48.921549,40.4],[2.35765,48.921581,40.4],[2.357625,48.921614,40.3],[2.357612,48.921686,40.2],[2.357664,48.921779,40.1],[2.357652,48.921835,40.1],[2.357671,48.921904,40.1],[2.357654,48.921926,40.1],[2.357692,48.922054,40.1],[2.357706,48.922059,40.1],[2.357716,48.922052,40.1],[2.357707,48.922037,40.1],[2.357698,48.922053,40.1],[2.357714,48.922066,40.1],[2.357707,48.922127,40.1],[2.357679,48.922133,40.1],[2.357657,48.922228,40.1],[2.35761,48.92221,40.1],[2.357593,48.922214,40.1],[2.357579,48.922207,40.1],[2.357634,48.922236,40.1],[2.357631,48.922243,40.1],[2.357647,48.922238,40.1],[2.357649,48.922266,40.1],[2.357661,48.922271,40.1],[2.357658,48.922277,40.1],[2.357648,48.922269,40.1],[2.357678,48.922309,40.1],[2.35769,48.922312,40.1],[2.357675,48.922304,40.1],[2.357729,48.922356,40.1],[2.357717,48.922358,40.1],[2.357743,48.922411,40.1],[2.357736,48.922429,40.1],[2.357791,48.92246,40.1],[2.357856,48.922519,40],[2.357907,48.922545,40],[2.357937,48.922586,40],[2.35793,48.922568,40],[2.357795,48.922564,39.9],[2.357675,48.922571,39.9],[2.357678,48.922584,39.9],[2.357694,48.92258,39.9],[2.357677,48.922606,39.9],[2.357578,48.922687,39.9],[2.357568,48.922656,39.9],[2.357587,48.922657,39.9],[2.357587,48.922641,39.9],[2.357571,48.922641,39.9],[2.357635,48.922615,39.9],[2.357651,48.922628,39.9],[2.357648,48.922617,39.9],[2.357639,48.922641,39.9],[2.357633,48.922635,39.9],[2.357662,48.922613,39.9],[2.357649,48.922615,39.9],[2.357636,48.922638,39.9],[2.357643,48.922646,39.9],[2.35762,48.922688,40],[2.357657,48.922791,40.1],[2.35765,48.922804,40.1],[2.357667,48.922859,40.2],[2.357628,48.922885,40.3],[2.357632,48.922909,40.4],[2.357606,48.922971,40.6],[2.35763,48.923012,40.7],[2.357642,48.923082,41],[2.357634,48.923121,41.1],[2.357662,48.923202,41.4],[2.357658,48.923287,41.8],[2.35763,48.923354,42],[2.357636,48.923374,42.1],[2.357614,48.923385,42.1],[2.357632,48.92353,42.6],[2.357623,48.923538,42.6],[2.357647,48.923585,42.8],[2.357625,48.923612,42.8],[2.357636,48.92366,43],[2.357611,48.923828,43.2],[2.35762,48.923843,43.2],[2.357647,48.923838,43.2],[2.3577,48.923781,43.2],[2.357712,48.923782,43.2],[2.357707,48.923776,43.2],[2.357753,48.923679,43.2],[2.35779,48.923628,43.2],[2.357829,48.923598,43.2],[2.357883,48.923412,43.3],[2.357904,48.923371,43.3],[2.357922,48.923363,43.3],[2.357924,48.92335,43.3],[2.357946,48.923337,43.3],[2.357975,48.923268,43.3],[2.358025,48.923198,43.3],[2.358041,48.923191,43.3],[2.358046,48.923178,43.3],[2.358085,48.923158,43.3],[2.35809,48.923146,43.3],[2.358159,48.923095,43.4],[2.358163,48.92306,43.4],[2.3582,48.922983,43.4],[2.358223,48.922966,43.4],[2.358243,48.92293,43.5],[2.358283,48.922904,43.5],[2.358304,48.922873,43.5],[2.358385,48.922818,43.5],[2.358433,48.922803,43.6],[2.358456,48.922804,43.6],[2.358473,48.922788,43.6],[2.358638,48.92277,43.6],[2.358704,48.922785,43.5],[2.358769,48.922772,43.5],[2.358819,48.922793,43.4],[2.358834,48.922789,43.4],[2.358886,48.922806,43.4],[2.358957,48.922802,43.4],[2.358964,48.922791,43.4],[2.358986,48.922791,43.4],[2.359024,48.922778,43.4],[2.359071,48.922782,43.3],[2.359177,48.922771,43.3],[2.359194,48.922776,43.3],[2.359286,48.922756,43.3],[2.359304,48.922758,43.3],[2.359366,48.922742,43.3],[2.359547,48.922763,43.3],[2.359578,48.922775,43.3],[2.359664,48.922786,43.3],[2.359685,48.922779,43.3],[2.359799,48.922785,43.3],[2.359864,48.922824,43.3],[2.359877,48.92282,43.3],[2.359928,48.92284,43.3],[2.359946,48.92284,43.3],[2.360023,48.922869,43.3],[2.360043,48.922863,43.3],[2.360067,48.922871,43.3],[2.360076,48.922865,43.3],[2.360122,48.922881,43.3],[2.360184,48.92288,43.3],[2.360219,48.922887,43.3],[2.360264,48.922879,43.2],[2.360269,48.922869,43.2],[2.360331,48.922854,43.2],[2.36034,48.922798,43.2],[2.360393,48.922788,43.2],[2.360381,48.922783,43.2],[2.360382,48.922808,43.2],[2.36037,48.922798,43.2],[2.360377,48.922817,43.2],[2.360417,48.922844,43.2],[2.360543,48.922872,43.2],[2.360822,48.922875,43.2],[2.360851,48.922853,43.2],[2.36096,48.922865,43.2],[2.360988,48.922875,43.2],[2.361052,48.922875,43.2],[2.361145,48.922897,43.2],[2.361247,48.92289,43.2],[2.361461,48.92291,43.2],[2.361529,48.922907,43.2],[2.361557,48.922916,43.2],[2.361617,48.922911,43.2],[2.361656,48.922933,43.3],[2.361737,48.922944,43.1],[2.361774,48.922994,43.5],[2.361835,48.923026,43.6],[2.361889,48.923034,43],[2.361936,48.923051,43.1],[2.361987,48.923046,43.1],[2.362083,48.92309,43.1],[2.362143,48.923093,43.2],[2.362186,48.923083,42.9],[2.362258,48.923087,42.4],[2.362278,48.923122,42.7],[2.362311,48.923145,43.1],[2.362317,48.923138,43.3],[2.362318,48.923147,43.4],[2.36236,48.923172,43.4],[2.362376,48.923172,43.1],[2.362418,48.923206,43.5],[2.362485,48.923211,43.6],[2.362503,48.92323,43.3],[2.362528,48.923288,43.3],[2.362566,48.923321,43.3],[2.362578,48.923349,43.3],[2.362576,48.923402,43.3],[2.362554,48.92343,43.3],[2.362565,48.923455,43.3],[2.362556,48.923505,43.3],[2.36254,48.923519,43.3],[2.362546,48.923549,43.3],[2.362564,48.92357,43.3],[2.36255,48.923634,43.3],[2.362535,48.923651,43.3],[2.362555,48.923672,43.3],[2.362561,48.923717,43.3],[2.362582,48.923736,43.4],[2.362571,48.923743,43.4],[2.362562,48.923798,43.4],[2.3626,48.923876,43.3],[2.362582,48.92389,43.3],[2.362554,48.923968,43.3],[2.362537,48.923966,43.3],[2.362529,48.924029,43.3],[2.362548,48.924042,43.3],[2.362537,48.92408,43.3],[2.362551,48.924103,43.3],[2.362568,48.924108,43.3],[2.362547,48.924119,43.3],[2.362555,48.924118,43.3],[2.362581,48.924163,43.3],[2.362552,48.924249,43.3],[2.362562,48.924276,43.3],[2.362576,48.924281,43.3],[2.362573,48.924276,43.3],[2.362609,48.924276,43.3],[2.362662,48.924292,43.3],[2.362685,48.924287,43.3],[2.362614,48.924325,43.3],[2.362588,48.924327,43.3],[2.362539,48.92435,43.3],[2.362511,48.924441,43.3],[2.362516,48.924462,43.3],[2.362503,48.924485,43.3],[2.362529,48.924583,43.3],[2.362521,48.924647,43.3],[2.362504,48.924679,43.3],[2.362522,48.924728,43.3],[2.362511,48.924745,43.3],[2.362524,48.924755,43.3],[2.362519,48.924779,43.3],[2.362497,48.924801,43.3],[2.36252,48.924846,43.3],[2.362509,48.924861,43.3],[2.36252,48.924879,43.3],[2.362503,48.924917,43.3],[2.362538,48.92499,43.3],[2.362499,48.925043,43.3],[2.362515,48.925065,43.3],[2.362512,48.925095,43.3],[2.362528,48.92514,43.3],[2.362484,48.925184,43.3],[2.362477,48.925218,43.3],[2.362455,48.925227,43.4],[2.362433,48.925254,43.4],[2.362449,48.925273,43.4],[2.36242,48.925314,43.4],[2.362423,48.925323,43.4],[2.362395,48.925355,43.4],[2.362412,48.925404,43.4],[2.362408,48.925448,43.4],[2.362387,48.925454,43.4],[2.362365,48.925476,43.4],[2.362393,48.925461,43.4],[2.362393,48.925466,43.4],[2.362346,48.925449,43.4],[2.36235,48.925351,43.4],[2.362383,48.925235,43.4],[2.362358,48.925235,43.4],[2.36235,48.925223,43.4],[2.362359,48.925217,43.4],[2.362373,48.925226,43.3],[2.362392,48.925225,43.3],[2.36241,48.925184,43.3],[2.362428,48.925178,43.3],[2.362456,48.925125,43.3],[2.362442,48.925078,43.3],[2.362341,48.925143,43.9],[2.362334,48.925164,43.7],[2.362273,48.92518,44.7],[2.362057,48.925153,48.3],[2.362,48.925095,48.9],[2.361987,48.925097,48.9],[2.361891,48.925058,49.2],[2.361869,48.925013,49],[2.361866,48.925022,49],[2.361871,48.925014,49],[2.361869,48.925022,49],[2.361837,48.925008,48.8],[2.361799,48.924976,48.5],[2.361708,48.92496,48.2],[2.361687,48.924945,48],[2.361615,48.924921,47.4],[2.361624,48.924925,47.6],[2.36158,48.924861,46.6],[2.36159,48.924868,47.1],[2.36159,48.924862,46.8],[2.361605,48.924894,47.1],[2.361594,48.924914,47.4],[2.361558,48.924918,47.2],[2.361496,48.924901,46.7],[2.361429,48.924901,46.5],[2.361382,48.924885,45.8],[2.361291,48.92487,45.1],[2.361289,48.924879,45.1],[2.361371,48.924926,46.3],[2.36112,48.924789,42.7],[2.359947,48.924704,44.9],[2.359875,48.92476,42.1],[2.359924,48.924907,39.9],[2.359973,48.924926,40.4],[2.359976,48.924943,40.4]]}}]}