{"type":"FeatureCollection","features":[{"type":"Feature","properties":{"name":"Visibilité zéro, mais enfin de la fraîche !","type":"ski alpin","time":"2024-02-22T12:53:46Z","coordTimes":["2024-02-22T12:53:46Z","2024-02-22T12:53:53Z","2024-02-22T12:53:58Z","2024-02-22T12:54:14Z","2024-02-22T12:54:16Z","2024-02-22T12:54:20Z","2024-02-22T12:54:25Z","2024-02-22T12:54:31Z","2024-02-22T12:54:33Z","2024-02-22T12:54:40Z","2024-02-22T12:54:42Z","2024-02-22T12:54:43Z","2024-02-22T12:54:45Z","2024-02-22T12:54:54Z","2024-02-22T12:54:56Z","2024-02-22T12:55:02Z","2024-02-22T12:55:05Z","2024-02-22T12:55:07Z","2024-02-22T12:55:13Z","2024-02-22T12:55:16Z","2024-02-22T12:55:17Z","2024-02-22T12:55:19Z","2024-02-22T12:55:24Z","2024-02-22T12:55:29Z","2024-02-22T12:55:48Z","2024-02-22T12:55:59Z","2024-02-22T12:56:00Z","2024-02-22T12:56:05Z","2024-02-22T12:56:08Z","2024-02-22T12:56:09Z","2024-02-22T12:56:10Z","2024-02-22T12:56:12Z","2024-02-22T12:56:13Z","2024-02-22T12:56:14Z","2024-02-22T12:56:15Z","2024-02-22T12:56:18Z","2024-02-22T12:56:19Z","2024-02-22T12:56:21Z","2024-02-22T12:56:22Z","2024-02-22T12:56:23Z","2024-02-22T12:56:25Z","2024-02-22T12:56:26Z","2024-02-22T12:56:28Z","2024-02-22T12:56:29Z","2024-02-22T12:56:31Z","2024-02-22T12:56:32Z","2024-02-22T12:56:34Z","2024-02-22T12:56:35Z","2024-02-22T12:56:36Z","2024-02-22T12:56:37Z","2024-02-22T12:56:38Z","2024-02-22T12:56:40Z","2024-02-22T12:56:42Z","2024-02-22T12:56:44Z","2024-02-22T12:56:45Z","2024-02-22T12:56:47Z","2024-02-22T12:56:48Z","2024-02-22T12:56:49Z","2024-02-22T12:56:50Z","2024-02-22T12:56:51Z","2024-02-22T12:56:53Z","2024-02-22T12:56:54Z","2024-02-22T12:57:02Z","2024-02-22T12:57:05Z","2024-02-22T12:57:11Z","2024-02-22T12:57:19Z","2024-02-22T12:57:25Z","2024-02-22T12:57:28Z","2024-02-22T12:57:30Z","2024-02-22T12:57:33Z","2024-02-22T12:57:37Z","2024-02-22T12:57:41Z","2024-02-22T12:57:43Z","2024-02-22T12:57:46Z","2024-02-22T12:57:47Z","2024-02-22T12:57:48Z","2024-02-22T12:57:50Z","2024-02-22T12:57:51Z","2024-02-22T12:57:52Z","2024-02-22T12:57:53Z","2024-02-22T12:57:56Z","2024-02-22T12:57:57Z","2024-02-22T12:57:58Z","2024-02-22T12:58:02Z","2024-02-22T12:58:04Z","2024-02-22T12:58:06Z","2024-02-22T12:58:07Z","2024-02-22T12:58:10Z","2024-02-22T12:58:13Z","2024-02-22T12:58:17Z","2024-02-22T12:58:19Z","2024-02-22T12:58:24Z","2024-02-22T12:58:26Z","2024-02-22T12:58:28Z","2024-02-22T12:58:29Z","2024-02-22T12:58:32Z","2024-02-22T12:58:36Z","2024-02-22T12:58:37Z","2024-02-22T12:58:40Z","2024-02-22T12:58:42Z","2024-02-22T12:58:43Z","2024-02-22T12:58:45Z","2024-02-22T12:58:46Z","2024-02-22T13:00:04Z","2024-02-22T13:00:36Z","2024-02-22T13:00:51Z","2024-02-22T13:00:52Z","2024-02-22T13:00:56Z","2024-02-22T13:00:57Z","2024-02-22T13:01:02Z","2024-02-22T13:01:04Z","2024-02-22T13:01:09Z","2024-02-22T13:01:13Z","2024-02-22T13:01:18Z","2024-02-22T13:01:21Z","2024-02-22T13:01:33Z","2024-02-22T13:01:44Z","2024-02-22T13:01:45Z","2024-02-22T13:01:47Z","2024-02-22T13:01:48Z","2024-02-22T13:01:50Z","2024-02-22T13:01:52Z","2024-02-22T13:01:53Z","2024-02-22T13:01:54Z","2024-02-22T13:01:55Z","2024-02-22T13:01:56Z","2024-02-22T13:01:57Z","2024-02-22T13:01:59Z","2024-02-22T13:02:00Z","2024-02-22T13:02:01Z","2024-02-22T13:02:03Z","2024-02-22T13:02:04Z","2024-02-22T13:02:06Z","2024-02-22T13:02:07Z","2024-02-22T13:02:08Z","2024-02-22T13:02:09Z","2024-02-22T13:02:10Z","2024-02-22T13:02:12Z","2024-02-22T13:02:13Z","2024-02-22T13:02:14Z","2024-02-22T13:02:15Z","2024-02-22T13:02:16Z","2024-02-22T13:02:17Z","2024-02-22T13:02:18Z","2024-02-22T13:02:19Z","2024-02-22T13:02:20Z","2024-02-22T13:02:21Z","2024-02-22T13:02:22Z","2024-02-22T13:02:23Z","2024-02-22T13:02:24Z","2024-02-22T13:02:25Z","2024-02-22T13:02:26Z","2024-02-22T13:02:27Z","2024-02-22T13:02:28Z","2024-02-22T13:02:29Z","2024-02-22T13:02:30Z","2024-02-22T13:02:31Z","2024-02-22T13:02:33Z","2024-02-22T13:02:34Z","2024-02-22T13:02:35Z","2024-02-22T13:02:36Z","2024-02-22T13:02:37Z","2024-02-22T13:02:38Z","2024-02-22T13:02:39Z","2024-02-22T13:02:40Z","2024-02-22T13:02:41Z","2024-02-22T13:02:42Z","2024-02-22T13:02:43Z","2024-02-22T13:02:44Z","2024-02-22T13:02:45Z","2024-02-22T13:02:46Z","2024-02-22T13:02:48Z","2024-02-22T13:02:52Z","2024-02-22T13:02:57Z","2024-02-22T13:02:58Z","2024-02-22T13:02:59Z","2024-02-22T13:03:01Z","2024-02-22T13:03:02Z","2024-02-22T13:03:03Z","2024-02-22T13:03:05Z","2024-02-22T13:03:06Z","2024-02-22T13:03:07Z","2024-02-22T13:03:08Z","2024-02-22T13:03:09Z","2024-02-22T13:03:10Z","2024-02-22T13:03:11Z","2024-02-22T13:03:12Z","2024-02-22T13:03:13Z","2024-02-22T13:03:14Z","2024-02-22T13:03:15Z","2024-02-22T13:03:16Z","2024-02-22T13:03:17Z","2024-02-22T13:03:18Z","2024-02-22T13:03:19Z","2024-02-22T13:03:20Z","2024-02-22T13:03:22Z","2024-02-22T13:03:23Z","2024-02-22T13:03:25Z","2024-02-22T13:03:26Z","2024-02-22T13:03:27Z","2024-02-22T13:03:29Z","2024-02-22T13:03:40Z","2024-02-22T13:03:43Z","2024-02-22T13:03:44Z","2024-02-22T13:03:49Z","2024-02-22T13:03:51Z","2024-02-22T13:04:00Z","2024-02-22T13:04:01Z","2024-02-22T13:04:22Z","2024-02-22T13:15:46Z","2024-02-22T13:15:51Z","2024-02-22T13:16:43Z","2024-02-22T13:16:44Z","2024-02-22T13:17:07Z","2024-02-22T13:17:09Z","2024-02-22T13:17:24Z","2024-02-22T13:17:26Z","2024-02-22T13:18:05Z","2024-02-22T13:18:36Z","2024-02-22T13:18:38Z","2024-02-22T13:18:40Z","2024-02-22T13:18:42Z","2024-02-22T13:18:43Z","2024-02-22T13:18:45Z","2024-02-22T13:18:46Z","2024-02-22T13:18:47Z","2024-02-22T13:18:48Z","2024-02-22T13:18:50Z","2024-02-22T13:18:51Z","2024-02-22T13:18:52Z","2024-02-22T13:18:55Z","2024-02-22T13:18:57Z","2024-02-22T13:18:58Z","2024-02-22T13:18:59Z","2024-02-22T13:19:01Z","2024-02-22T13:19:03Z","2024-02-22T13:19:07Z","2024-02-22T13:19:14Z","2024-02-22T13:19:17Z","2024-02-22T13:19:19Z","2024-02-22T13:19:27Z","2024-02-22T13:19:52Z","2024-02-22T13:20:07Z","2024-02-22T13:20:10Z","2024-02-22T13:20:17Z","2024-02-22T13:20:19Z","2024-02-22T13:20:21Z","2024-02-22T13:20:23Z","2024-02-22T13:20:26Z","2024-02-22T13:20:27Z","2024-02-22T13:20:29Z","2024-02-22T13:20:32Z","2024-02-22T13:20:34Z","2024-02-22T13:20:37Z","2024-02-22T13:20:39Z","2024-02-22T13:20:44Z","2024-02-22T13:20:49Z","2024-02-22T13:20:55Z","2024-02-22T13:20:58Z","2024-02-22T13:21:06Z","2024-02-22T13:21:10Z","2024-02-22T13:21:11Z","2024-02-22T13:21:13Z","2024-02-22T13:21:16Z","2024-02-22T13:21:18Z","2024-02-22T13:21:19Z","2024-02-22T13:21:22Z","2024-02-22T13:21:24Z","2024-02-22T13:21:26Z","2024-02-22T13:21:28Z","2024-02-22T13:21:38Z","2024-02-22T13:21:45Z","2024-02-22T13:21:50Z","2024-02-22T13:22:01Z","2024-02-22T13:22:47Z","2024-02-22T13:23:09Z","2024-02-22T13:23:30Z","2024-02-22T13:23:57Z","2024-02-22T13:24:05Z","2024-02-22T13:24:15Z","2024-02-22T13:24:18Z","2024-02-22T13:24:24Z","2024-02-22T13:24:31Z","2024-02-22T13:24:34Z","2024-02-22T13:24:36Z","2024-02-22T13:24:47Z","2024-02-22T13:24:54Z","2024-02-22T13:24:57Z","2024-02-22T13:25:00Z","2024-02-22T13:25:03Z","2024-02-22T13:25:07Z","2024-02-22T13:25:08Z","2024-02-22T13:25:09Z","2024-02-22T13:25:11Z","2024-02-22T13:25:12Z","2024-02-22T13:25:13Z","2024-02-22T13:25:16Z","2024-02-22T13:25:19Z","2024-02-22T13:25:20Z","2024-02-22T13:25:21Z","2024-02-22T13:25:22Z","2024-02-22T13:25:24Z","2024-02-22T13:25:26Z","2024-02-22T13:25:27Z","2024-02-22T13:25:28Z","2024-02-22T13:25:29Z","2024-02-22T13:25:30Z","2024-02-22T13:25:32Z","2024-02-22T13:25:34Z","2024-02-22T13:25:35Z","2024-02-22T13:25:36Z","2024-02-22T13:25:37Z","2024-02-22T13:25:38Z","2024-02-22T13:25:39Z","2024-02-22T13:25:40Z","2024-02-22T13:25:41Z","2024-02-22T13:25:43Z","2024-02-22T13:25:44Z","2024-02-22T13:25:47Z","2024-02-22T13:25:48Z","2024-02-22T13:25:49Z","2024-02-22T13:25:50Z","2024-02-22T13:25:51Z","2024-02-22T13:25:52Z","2024-02-22T13:25:53Z","2024-02-22T13:25:54Z","2024-02-22T13:25:55Z","2024-02-22T13:25:56Z","2024-02-22T13:25:57Z","2024-02-22T13:25:58Z","2024-02-22T13:26:02Z","2024-02-22T13:26:03Z","2024-02-22T13:26:04Z","2024-02-22T13:26:06Z","2024-02-22T13:26:08Z","2024-02-22T13:26:10Z","2024-02-22T13:26:11Z","2024-02-22T13:26:12Z","2024-02-22T13:26:14Z","2024-02-22T13:26:16Z","2024-02-22T13:26:17Z","2024-02-22T13:26:23Z","2024-02-22T13:26:29Z","2024-02-22T13:26:31Z","2024-02-22T13:26:33Z","2024-02-22T13:26:39Z","2024-02-22T13:26:40Z","2024-02-22T13:26:42Z","2024-02-22T13:26:47Z","2024-02-22T13:26:52Z","2024-02-22T13:26:54Z","2024-02-22T13:26:56Z","2024-02-22T13:27:00Z","2024-02-22T13:27:02Z","2024-02-22T13:27:03Z","2024-02-22T13:27:07Z","2024-02-22T13:27:11Z","2024-02-22T13:27:14Z","2024-02-22T13:27:16Z","2024-02-22T13:27:19Z","2024-02-22T13:27:28Z","2024-02-22T13:27:32Z","2024-02-22T13:27:36Z","2024-02-22T13:27:37Z","2024-02-22T13:27:45Z","2024-02-22T13:27:48Z","2024-02-22T13:27:50Z","2024-02-22T13:27:53Z","2024-02-22T13:27:57Z","2024-02-22T13:28:03Z","2024-02-22T13:28:05Z","2024-02-22T13:28:07Z","2024-02-22T13:28:18Z","2024-02-22T13:28:21Z","2024-02-22T13:28:23Z","2024-02-22T13:28:41Z","2024-02-22T13:28:47Z","2024-02-22T13:28:49Z","2024-02-22T13:29:00Z","2024-02-22T13:29:01Z","2024-02-22T13:29:02Z","2024-02-22T13:29:03Z","2024-02-22T13:29:04Z","2024-02-22T13:29:05Z","2024-02-22T13:29:07Z","2024-02-22T13:29:08Z","2024-02-22T13:29:17Z","2024-02-22T13:42:42Z","2024-02-22T13:42:43Z","2024-02-22T13:42:44Z","2024-02-22T13:42:46Z","2024-02-22T13:42:51Z","2024-02-22T13:42:53Z","2024-02-22T13:42:54Z","2024-02-22T13:42:55Z","2024-02-22T13:42:57Z","2024-02-22T13:42:59Z","2024-02-22T13:43:05Z","2024-02-22T13:43:11Z","2024-02-22T13:43:13Z","2024-02-22T13:43:15Z","2024-02-22T13:43:16Z","2024-02-22T13:43:17Z","2024-02-22T13:43:18Z","2024-02-22T13:43:20Z","2024-02-22T13:43:21Z","2024-02-22T13:43:23Z","2024-02-22T13:43:25Z","2024-02-22T13:43:27Z","2024-02-22T13:43:28Z","2024-02-22T13:43:29Z","2024-02-22T13:43:30Z","2024-02-22T13:43:31Z","2024-02-22T13:43:32Z","2024-02-22T13:43:33Z","2024-02-22T13:43:34Z","2024-02-22T13:43:37Z","2024-02-22T13:43:38Z","2024-02-22T13:43:41Z","2024-02-22T13:43:42Z","2024-02-22T13:43:43Z","2024-02-22T13:43:44Z","2024-02-22T13:43:47Z","2024-02-22T13:43:49Z","2024-02-22T13:43:50Z","2024-02-22T13:43:53Z","2024-02-22T13:43:54Z","2024-02-22T13:43:57Z","2024-02-22T13:43:58Z","2024-02-22T13:44:00Z","2024-02-22T13:44:01Z","2024-02-22T13:44:02Z","2024-02-22T13:44:04Z","2024-02-22T13:44:05Z","2024-02-22T13:44:06Z","2024-02-22T13:44:07Z","2024-02-22T13:44:08Z","2024-02-22T13:44:10Z","2024-02-22T13:44:11Z","2024-02-22T13:44:12Z","2024-02-22T13:44:14Z","2024-02-22T13:44:15Z","2024-02-22T13:44:16Z","2024-02-22T13:44:17Z","2024-02-22T13:44:18Z","2024-02-22T13:45:34Z","2024-02-22T13:45:57Z","2024-02-22T13:46:38Z","2024-02-22T13:46:50Z","2024-02-22T13:48:30Z","2024-02-22T13:48:50Z","2024-02-22T13:48:53Z","2024-02-22T13:49:10Z","2024-02-22T13:49:23Z","2024-02-22T13:49:31Z","2024-02-22T13:49:35Z","2024-02-22T13:49:41Z","2024-02-22T13:50:13Z","2024-02-22T13:50:18Z","2024-02-22T13:50:45Z","2024-02-22T13:50:46Z","2024-02-22T15:25:47Z","2024-02-22T15:25:48Z","2024-02-22T15:25:49Z","2024-02-22T15:25:50Z","2024-02-22T15:25:51Z","2024-02-22T15:25:53Z","2024-02-22T15:25:57Z","2024-02-22T15:26:02Z","2024-02-22T15:26:04Z","2024-02-22T15:26:07Z","2024-02-22T15:26:10Z","2024-02-22T15:26:11Z","2024-02-22T15:26:16Z","2024-02-22T15:26:25Z","2024-02-22T15:26:29Z","2024-02-22T15:26:31Z","2024-02-22T15:26:38Z","2024-02-22T15:26:39Z","2024-02-22T15:26:41Z","2024-02-22T15:26:42Z","2024-02-22T15:26:46Z","2024-02-22T15:26:53Z","2024-02-22T15:26:55Z","2024-02-22T15:26:56Z","2024-02-22T15:26:59Z","2024-02-22T15:27:00Z","2024-02-22T15:27:03Z","2024-02-22T15:27:04Z","2024-02-22T15:27:06Z","2024-02-22T15:27:07Z","2024-02-22T15:27:08Z","2024-02-22T15:27:10Z","2024-02-22T15:27:11Z","2024-02-22T15:27:12Z","2024-02-22T15:27:13Z","2024-02-22T15:27:14Z","2024-02-22T15:27:15Z","2024-02-22T15:27:17Z","2024-02-22T15:27:20Z","2024-02-22T15:27:21Z","2024-02-22T15:27:22Z","2024-02-22T15:27:23Z","2024-02-22T15:27:25Z","2024-02-22T15:27:27Z","2024-02-22T15:27:32Z","2024-02-22T15:27:38Z","2024-02-22T15:27:41Z","2024-02-22T15:27:44Z","2024-02-22T15:27:49Z","2024-02-22T15:27:55Z","2024-02-22T15:27:58Z","2024-02-22T15:28:02Z","2024-02-22T15:28:03Z","2024-02-22T15:28:09Z","2024-02-22T15:28:14Z","2024-02-22T15:28:16Z","2024-02-22T15:28:18Z","2024-02-22T15:28:19Z","2024-02-22T15:28:20Z","2024-02-22T15:28:43Z","2024-02-22T15:28:49Z","2024-02-22T15:29:31Z","2024-02-22T15:29:45Z","2024-02-22T15:30:03Z","2024-02-22T15:30:35Z","2024-02-22T15:30:43Z","2024-02-22T15:30:44Z","2024-02-22T15:30:45Z","2024-02-22T15:30:53Z","2024-02-22T15:30:56Z","2024-02-22T15:31:01Z","2024-02-22T15:31:04Z","2024-02-22T15:31:06Z","2024-02-22T15:31:10Z","2024-02-22T15:31:14Z","2024-02-22T15:31:26Z","2024-02-22T15:31:37Z","2024-02-22T15:31:42Z","2024-02-22T15:31:45Z","2024-02-22T15:32:01Z","2024-02-22T15:32:05Z","2024-02-22T15:32:06Z","2024-02-22T15:32:07Z","2024-02-22T15:32:09Z","2024-02-22T15:32:10Z","2024-02-22T15:32:11Z","2024-02-22T15:32:13Z","2024-02-22T15:32:14Z","2024-02-22T15:32:15Z","2024-02-22T15:32:16Z","2024-02-22T15:32:17Z","2024-02-22T15:32:19Z","2024-02-22T15:32:20Z","2024-02-22T15:32:21Z","2024-02-22T15:32:22Z","2024-02-22T15:32:23Z","2024-02-22T15:32:24Z","2024-02-22T15:32:25Z","2024-02-22T15:32:26Z","2024-02-22T15:32:27Z","2024-02-22T15:32:28Z","2024-02-22T15:32:29Z","2024-02-22T15:32:30Z","2024-02-22T15:32:31Z","2024-02-22T15:32:32Z","2024-02-22T15:32:33Z","2024-02-22T15:32:34Z","2024-02-22T15:32:35Z","2024-02-22T15:32:37Z","2024-02-22T15:32:38Z","2024-02-22T15:32:39Z","2024-02-22T15:32:40Z","2024-02-22T15:32:42Z","2024-02-22T15:32:43Z","2024-02-22T15:32:44Z","2024-02-22T15:32:45Z","2024-02-22T15:32:46Z","2024-02-22T15:32:47Z","2024-02-22T15:32:49Z","2024-02-22T15:32:50Z","2024-02-22T15:32:51Z","2024-02-22T15:32:52Z","2024-02-22T15:32:53Z","2024-02-22T15:32:54Z","2024-02-22T15:32:55Z","2024-02-22T15:32:57Z","2024-02-22T15:32:58Z","2024-02-22T15:33:00Z","2024-02-22T15:33:02Z","2024-02-22T15:33:03Z","2024-02-22T15:33:06Z","2024-02-22T15:33:08Z","2024-02-22T15:33:12Z","2024-02-22T15:33:17Z","2024-02-22T15:33:46Z","2024-02-22T15:33:48Z","2024-02-22T15:33:57Z","2024-02-22T15:34:05Z","2024-02-22T15:34:12Z","2024-02-22T15:34:15Z","2024-02-22T15:34:18Z","2024-02-22T15:34:19Z","2024-02-22T15:34:23Z","2024-02-22T15:34:25Z","2024-02-22T15:34:26Z","2024-02-22T15:34:27Z","2024-02-22T15:35:51Z","2024-02-22T15:36:00Z","2024-02-22T15:36:01Z","2024-02-22T15:36:08Z","2024-02-22T15:36:09Z","2024-02-22T15:36:13Z","2024-02-22T15:37:14Z","2024-02-22T15:38:52Z","2024-02-22T15:39:45Z","2024-02-22T15:40:48Z","2024-02-22T15:41:00Z","2024-02-22T15:41:57Z","2024-02-22T15:41:59Z","2024-02-22T15:42:08Z","2024-02-22T15:42:10Z","2024-02-22T15:42:13Z","2024-02-22T15:42:15Z","2024-02-22T15:42:18Z","2024-02-22T15:42:19Z","2024-02-22T15:42:21Z","2024-02-22T15:42:27Z","2024-02-22T15:42:29Z","2024-02-22T15:42:30Z","2024-02-22T15:42:33Z","2024-02-22T15:42:39Z","2024-02-22T15:42:53Z","2024-02-22T15:43:00Z","2024-02-22T15:43:06Z","2024-02-22T15:43:44Z","2024-02-22T15:44:03Z","2024-02-22T15:44:28Z","2024-02-22T15:45:15Z","2024-02-22T15:45:56Z","2024-02-22T15:46:08Z","2024-02-22T15:46:21Z","2024-02-22T15:46:23Z","2024-02-22T15:46:26Z","2024-02-22T15:46:28Z","2024-02-22T15:46:30Z","2024-02-22T15:46:34Z","2024-02-22T15:46:36Z","2024-02-22T15:46:41Z","2024-02-22T15:46:51Z","2024-02-22T15:46:58Z","2024-02-22T15:47:01Z","2024-02-22T15:47:04Z","2024-02-22T15:47:07Z","2024-02-22T15:47:08Z","2024-02-22T15:47:09Z","2024-02-22T15:47:11Z","2024-02-22T15:47:14Z","2024-02-22T15:47:16Z","2024-02-22T15:47:18Z","2024-02-22T15:47:19Z","2024-02-22T15:47:20Z","2024-02-22T15:47:21Z","2024-02-22T15:47:22Z","2024-02-22T15:47:26Z","2024-02-22T15:47:27Z","2024-02-22T15:47:28Z","2024-02-22T15:47:32Z","2024-02-22T15:47:38Z","2024-02-22T15:47:43Z","2024-02-22T15:47:45Z","2024-02-22T15:47:46Z","2024-02-22T15:47:48Z","2024-02-22T15:47:50Z","2024-02-22T15:47:51Z","2024-02-22T15:47:56Z","2024-02-22T15:47:58Z","2024-02-22T15:48:00Z","2024-02-22T15:48:03Z","2024-02-22T15:48:05Z","2024-02-22T15:48:14Z","2024-02-22T15:48:15Z","2024-02-22T15:48:18Z","2024-02-22T15:48:20Z","2024-02-22T15:48:29Z","2024-02-22T15:48:32Z","2024-02-22T15:48:48Z","2024-02-22T15:48:50Z","2024-02-22T15:48:52Z","2024-02-22T15:49:01Z","2024-02-22T15:49:07Z","2024-02-22T15:49:09Z","2024-02-22T15:49:12Z","2024-02-22T15:49:15Z","2024-02-22T15:49:21Z","2024-02-22T15:49:22Z","2024-02-22T15:49:25Z","2024-02-22T15:49:26Z","2024-02-22T15:49:34Z","2024-02-22T15:49:37Z","2024-02-22T15:49:46Z","2024-02-22T15:49:48Z","2024-02-22T15:49:50Z","2024-02-22T15:49:51Z","2024-02-22T15:49:53Z","2024-02-22T15:49:55Z","2024-02-22T15:49:57Z","2024-02-22T15:49:59Z","2024-02-22T15:50:07Z","2024-02-22T15:50:14Z","2024-02-22T15:50:15Z","2024-02-22T15:50:16Z","2024-02-22T15:50:19Z","2024-02-22T15:50:24Z","2024-02-22T15:50:36Z","2024-02-22T15:50:45Z","2024-02-22T15:51:39Z","2024-02-22T15:52:23Z","2024-02-22T15:52:28Z","2024-02-22T15:52:30Z","2024-02-22T15:52:34Z","2024-02-22T15:52:37Z","2024-02-22T15:52:39Z","2024-02-22T15:52:41Z","2024-02-22T15:52:44Z","2024-02-22T15:52:52Z","2024-02-22T15:52:54Z","2024-02-22T15:53:00Z","2024-02-22T15:53:04Z","2024-02-22T15:53:11Z","2024-02-22T15:53:15Z","2024-02-22T15:53:16Z","2024-02-22T15:53:25Z","2024-02-22T15:53:27Z","2024-02-22T15:53:33Z","2024-02-22T15:53:35Z","2024-02-22T15:53:37Z","2024-02-22T15:53:38Z","2024-02-22T15:53:40Z","2024-02-22T15:53:43Z","2024-02-22T15:53:44Z","2024-02-22T15:53:45Z","2024-02-22T15:53:47Z","2024-02-22T15:53:48Z","2024-02-22T15:53:49Z","2024-02-22T15:53:51Z","2024-02-22T15:53:52Z","2024-02-22T15:53:55Z","2024-02-22T15:53:56Z","2024-02-22T15:53:57Z","2024-02-22T15:53:59Z","2024-02-22T15:54:00Z","2024-02-22T15:54:01Z","2024-02-22T15:54:02Z","2024-02-22T15:54:03Z","2024-02-22T15:54:04Z","2024-02-22T15:54:06Z","2024-02-22T15:54:07Z","2024-02-22T15:54:08Z","2024-02-22T15:54:09Z","2024-02-22T15:54:12Z","2024-02-22T15:54:13Z","2024-02-22T15:54:15Z","2024-02-22T15:54:16Z","2024-02-22T15:54:19Z","2024-02-22T15:54:20Z","2024-02-22T15:54:21Z","2024-02-22T15:54:27Z","2024-02-22T15:54:30Z","2024-02-22T15:54:31Z","2024-02-22T15:54:32Z","2024-02-22T15:54:33Z","2024-02-22T15:54:34Z","2024-02-22T15:54:35Z","2024-02-22T15:54:36Z","2024-02-22T15:54:37Z","2024-02-22T15:54:39Z","2024-02-22T15:54:40Z","2024-02-22T15:54:41Z","2024-02-22T15:54:42Z","2024-02-22T15:54:43Z","2024-02-22T15:54:44Z","2024-02-22T15:54:45Z","2024-02-22T15:54:46Z","2024-02-22T15:54:47Z","2024-02-22T15:54:48Z","2024-02-22T15:54:49Z","2024-02-22T15:54:50Z","2024-02-22T15:54:51Z","2024-02-22T15:54:52Z","2024-02-22T15:54:54Z","2024-02-22T15:54:56Z","2024-02-22T15:54:57Z","2024-02-22T15:55:05Z","2024-02-22T15:55:12Z","2024-02-22T15:55:13Z","2024-02-22T15:55:14Z","2024-02-22T15:55:18Z","2024-02-22T15:55:23Z","2024-02-22T15:55:25Z","2024-02-22T15:55:28Z","2024-02-22T15:55:29Z","2024-02-22T15:56:35Z","2024-02-22T15:56:37Z","2024-02-22T15:56:39Z","2024-02-22T15:56:40Z"],"heartRates":[136,136,136,140,140,140,140,140,140,140,140,140,138,138,138,135,135,135,131,131,127,127,126,126,122,114,114,114,113,113,113,115,115,117,117,117,117,116,116,116,116,116,118,118,120,120,119,119,119,119,119,119,119,119,120,120,120,122,122,122,122,122,116,117,120,114,115,115,115,117,116,117,117,122,122,122,122,122,122,120,120,120,116,116,116,109,109,109,106,106,106,108,108,109,109,109,110,110,107,107,107,107,107,96,104,101,101,110,110,111,111,112,114,110,109,109,108,108,108,108,108,108,110,110,110,110,110,110,110,110,110,110,113,113,114,114,114,114,114,114,114,114,114,114,114,114,114,119,119,119,119,119,119,119,119,119,119,121,121,121,121,121,121,121,121,121,121,121,121,121,121,122,122,122,122,122,122,122,122,119,119,119,119,119,119,122,122,122,122,122,125,125,125,125,126,126,126,124,124,124,122,119,118,118,115,115,113,113,115,94,95,101,101,103,103,103,104,99,103,103,103,105,105,109,109,109,109,109,114,114,114,114,114,113,115,115,115,117,116,116,111,107,105,105,107,110,110,110,112,112,112,117,117,117,115,116,116,113,113,113,116,116,116,116,116,113,112,112,109,109,101,97,97,91,88,92,88,92,86,94,92,91,95,95,95,108,108,102,104,104,104,104,104,104,104,104,103,103,103,103,103,108,108,108,108,109,109,109,109,109,110,110,110,110,112,112,112,112,112,112,113,113,113,113,113,111,111,111,110,110,110,110,113,113,113,113,113,113,113,112,112,113,113,113,113,111,111,111,108,106,106,106,105,105,105,107,106,106,105,105,103,107,108,108,110,107,107,107,107,107,107,107,108,105,106,104,108,108,108,108,108,108,111,111,112,112,113,105,105,105,100,100,100,108,108,108,109,109,109,104,104,104,104,104,104,104,104,104,104,105,105,105,105,105,105,105,105,104,104,104,104,104,104,104,104,104,104,104,105,105,105,105,105,105,105,105,105,107,107,107,107,107,107,107,107,108,90,88,91,88,86,89,85,87,88,88,89,86,88,88,86,87,87,87,87,128,129,129,133,134,134,135,135,135,137,136,136,134,134,134,134,134,137,137,137,134,134,132,132,132,132,132,132,132,128,128,128,128,128,128,128,128,128,128,128,121,121,121,121,119,121,121,118,119,120,120,120,120,118,118,96,90,81,81,83,92,88,88,94,95,95,94,96,96,99,102,106,105,100,100,101,101,101,101,101,101,101,108,108,108,111,111,113,113,113,113,113,113,113,113,112,112,112,112,112,116,116,116,116,116,116,116,116,114,114,114,114,114,115,115,117,117,117,117,117,117,117,117,117,117,117,117,115,111,110,96,96,100,101,97,99,99,99,99,99,99,101,97,101,101,101,98,98,94,94,94,93,92,95,95,95,98,98,98,98,98,98,98,109,109,109,109,99,98,100,91,91,87,89,89,94,95,92,92,95,95,94,94,97,101,106,106,106,106,106,104,104,104,104,104,104,104,105,105,107,107,107,105,104,106,108,108,108,108,108,106,106,111,111,113,118,119,119,119,119,119,113,113,113,115,114,114,114,115,112,112,112,112,113,113,108,108,111,111,111,111,111,113,113,104,104,104,92,94,85,85,80,82,91,91,91,92,92,89,89,102,102,98,98,97,98,98,98,97,94,94,94,94,96,97,97,97,97,94,94,94,94,98,99,99,99,99,99,99,99,99,101,101,101,101,103,103,103,105,105,105,105,105,110,110,110,110,110,115,115,115,115,114,114,114,114,114,114,114,115,115,115,115,116,116,116,116,116,116,109,109,109,109,108,108,108,108,110,110,110,111],"month":"2024-02-01"},"geometry":{"type":"LineString","coordinates":[[6.900541,45.453019,2133],[6.900594,45.452804,2132.6],[6.900512,45.452769,2132.5],[6.900367,45.452662,2132.3],[6.900363,45.452652,2132.3],[6.900386,45.452657,2132.2],[6.900405,45.452644,2132.2],[6.900404,45.452655,2132.1],[6.900396,45.452654,2132.1],[6.900403,45.452666,2132.1],[6.900396,45.45266,2132.1],[6.900412,45.452657,2132.1],[6.900394,45.452657,2132],[6.900408,45.452646,2132],[6.900414,45.452651,2132],[6.900393,45.452665,2131.9],[6.900413,45.452657,2131.9],[6.900408,45.452662,2131.9],[6.900409,45.452656,2131.9],[6.900402,45.452663,2131.9],[6.900405,45.452657,2131.8],[6.900409,45.45267,2131.8],[6.900387,45.45266,2131.8],[6.900376,45.452668,2131.8],[6.900386,45.452658,2131.7],[6.900364,45.452653,2131.7],[6.900371,45.452653,2131.7],[6.900286,45.452618,2131.5],[6.900158,45.452587,2131.4],[6.900103,45.452586,2131.3],[6.900049,45.452605,2130.8],[6.899992,45.452649,2130.3],[6.899937,45.452664,2130],[6.899887,45.452638,2129.6],[6.899826,45.452636,2129.1],[6.899779,45.452733,2128],[6.899756,45.452757,2127.7],[6.899672,45.452763,2126.9],[6.899621,45.452742,2126.3],[6.899585,45.452773,2125.7],[6.899567,45.452825,2124.9],[6.899543,45.452816,2123.8],[6.899486,45.452766,2120.6],[6.899449,45.452782,2119.1],[6.899444,45.452844,2117.4],[6.899435,45.452856,2117.2],[6.899369,45.452847,2116.4],[6.899284,45.452816,2115.4],[6.899211,45.452847,2114.4],[6.899184,45.452908,2113.5],[6.899192,45.452957,2112.8],[6.898988,45.452974,2111.2],[6.89877,45.45303,2109.9],[6.898573,45.453018,2109.4],[6.89848,45.453019,2109.2],[6.898336,45.453048,2108.9],[6.898274,45.453049,2108.9],[6.898224,45.453036,2109],[6.898192,45.453016,2109.1],[6.898176,45.452989,2109.3],[6.898169,45.452938,2109.5],[6.898179,45.452924,2109.5],[6.898302,45.452936,2109.8],[6.898323,45.452951,2109.8],[6.898356,45.452941,2110],[6.898385,45.452943,2110],[6.898406,45.452962,2110.1],[6.898431,45.45294,2110.3],[6.898438,45.452922,2110.3],[6.898458,45.452922,2110.4],[6.898488,45.452896,2110.6],[6.898468,45.45291,2110.7],[6.898475,45.45292,2110.7],[6.898533,45.452887,2111],[6.898559,45.452895,2111.1],[6.89855,45.452891,2111.2],[6.898591,45.452881,2111.4],[6.898633,45.45289,2111.7],[6.898654,45.452886,2111.8],[6.898676,45.452896,2112],[6.898828,45.452857,2113.1],[6.898863,45.452841,2113.4],[6.898915,45.452838,2113.8],[6.899078,45.452792,2115.4],[6.899178,45.452786,2116.3],[6.89926,45.45276,2117.2],[6.899304,45.452754,2117.6],[6.899423,45.452714,2118.8],[6.899542,45.45269,2119.9],[6.899723,45.452639,2121.4],[6.899795,45.452628,2121.9],[6.900002,45.452571,2123.5],[6.900089,45.452554,2124.1],[6.900165,45.452524,2124.7],[6.900215,45.452515,2125.1],[6.90034,45.452475,2126.3],[6.900513,45.452436,2128],[6.900564,45.452432,2128.6],[6.900691,45.452393,2130.1],[6.900776,45.452375,2131.1],[6.900812,45.452356,2131.6],[6.900891,45.452339,2132.5],[6.90093,45.452323,2133],[6.904203,45.451514,2186.5],[6.905477,45.451191,2205.2],[6.905586,45.451236,2206.7],[6.905589,45.451268,2206.9],[6.905567,45.451349,2207.8],[6.90555,45.451371,2207.5],[6.905447,45.451453,2207.1],[6.905402,45.451477,2206.8],[6.905302,45.451559,2206],[6.90524,45.451649,2205.5],[6.905091,45.451794,2204.6],[6.904983,45.451866,2204],[6.904722,45.452101,2202.4],[6.904403,45.452479,2197.7],[6.90439,45.452521,2197.2],[6.904289,45.452566,2196.1],[6.904268,45.452595,2195.7],[6.904264,45.452649,2195],[6.904212,45.452713,2194.1],[6.90417,45.452743,2193.6],[6.904104,45.452764,2193],[6.904048,45.452796,2192.3],[6.904032,45.452841,2191.7],[6.904003,45.452884,2191],[6.903873,45.452932,2189.6],[6.903825,45.452979,2188.8],[6.903797,45.45304,2187.8],[6.903685,45.453088,2186.5],[6.903667,45.453123,2185.9],[6.903683,45.453193,2184.8],[6.903643,45.453211,2184.2],[6.903572,45.453227,2183.4],[6.903521,45.453266,2182.5],[6.903502,45.453321,2181.6],[6.903397,45.453397,2179.9],[6.903364,45.453445,2179],[6.903298,45.45348,2178],[6.903273,45.453534,2177],[6.90329,45.453588,2176.1],[6.90327,45.453635,2175.3],[6.903207,45.453669,2174.3],[6.90318,45.453712,2173.5],[6.903202,45.453754,2172.8],[6.903199,45.453802,2172],[6.903136,45.453839,2171.1],[6.903111,45.453886,2170.2],[6.903128,45.453928,2169.5],[6.903106,45.453967,2168.8],[6.903041,45.453995,2167.9],[6.903019,45.454036,2167.2],[6.903032,45.454077,2166.5],[6.903016,45.45412,2165.8],[6.902954,45.454155,2164.9],[6.902923,45.454201,2164.1],[6.902945,45.454294,2162.5],[6.902911,45.45434,2161.7],[6.902893,45.45439,2160.9],[6.902921,45.45443,2160.2],[6.902921,45.454476,2159.5],[6.902864,45.454516,2158.5],[6.902833,45.454567,2157.7],[6.90283,45.454614,2156.9],[6.902778,45.454652,2156.1],[6.902754,45.454697,2155.4],[6.902754,45.454741,2154.8],[6.90273,45.454767,2154.3],[6.902696,45.454741,2153.7],[6.902686,45.454721,2153.7],[6.902663,45.454711,2153.1],[6.902648,45.454715,2153],[6.902523,45.454644,2150.9],[6.902495,45.454616,2150.1],[6.902452,45.454593,2149.3],[6.902332,45.454631,2147],[6.902273,45.454606,2146.5],[6.90222,45.454556,2146],[6.902048,45.454576,2143.5],[6.901976,45.454539,2142.5],[6.901897,45.454519,2141.6],[6.901811,45.454532,2140.3],[6.901731,45.454503,2139.6],[6.901643,45.454492,2138.7],[6.901573,45.454505,2137.9],[6.901499,45.454486,2137.2],[6.901423,45.454456,2136.7],[6.901342,45.454476,2135.7],[6.901254,45.454482,2135.1],[6.90117,45.454451,2134.8],[6.901092,45.454439,2134.8],[6.901009,45.454447,2133.9],[6.900934,45.454473,2133.1],[6.900875,45.454518,2132.5],[6.900832,45.454614,2131.2],[6.900799,45.454649,2130.5],[6.900718,45.454684,2129],[6.900699,45.454702,2128.7],[6.900709,45.454705,2129],[6.900709,45.454698,2129],[6.90061,45.454753,2127.5],[6.900584,45.454748,2127.5],[6.900581,45.454761,2127.5],[6.900546,45.454785,2127.1],[6.900525,45.454786,2126.9],[6.900496,45.45482,2126.7],[6.900492,45.454815,2126.7],[6.900525,45.454842,2126.6],[6.900425,45.454866,2126],[6.900438,45.454868,2126],[6.900488,45.454851,2126.4],[6.900515,45.454873,2126.3],[6.900508,45.454875,2126.3],[6.90051,45.454868,2126.3],[6.900493,45.45488,2126.3],[6.900496,45.454873,2126.3],[6.900453,45.454842,2126.2],[6.900394,45.454932,2125.6],[6.900367,45.454936,2125.6],[6.900323,45.454972,2125.2],[6.90032,45.455045,2125.1],[6.900302,45.45509,2124.7],[6.900219,45.455199,2123.7],[6.900126,45.455242,2122.6],[6.900004,45.455255,2121.2],[6.899862,45.455258,2120.2],[6.899619,45.455233,2119.3],[6.899485,45.455202,2118.6],[6.899407,45.455112,2117.9],[6.899323,45.454895,2116.4],[6.899249,45.454755,2115.5],[6.899203,45.454695,2115.1],[6.899176,45.454624,2114.7],[6.899171,45.454483,2114.3],[6.899147,45.454374,2114.2],[6.899131,45.454201,2114.2],[6.899079,45.453943,2113.9],[6.89907,45.453819,2113.4],[6.899084,45.453745,2113.1],[6.899078,45.453565,2112.5],[6.899028,45.453319,2111.7],[6.89895,45.45318,2111.1],[6.898913,45.453142,2110.8],[6.898762,45.453055,2110.3],[6.898692,45.45305,2110],[6.898612,45.453069,2109.6],[6.898536,45.45306,2109.4],[6.898405,45.453058,2109.1],[6.898363,45.45305,2109],[6.898286,45.453016,2109],[6.898231,45.452974,2109.4],[6.898265,45.452961,2109.6],[6.898324,45.452965,2109.7],[6.898325,45.45297,2109.8],[6.89836,45.452967,2109.9],[6.898356,45.452974,2109.9],[6.898396,45.452964,2110.1],[6.89842,45.452973,2110.2],[6.898472,45.452953,2110.4],[6.898518,45.452945,2110.6],[6.898508,45.452948,2110.7],[6.898535,45.452938,2110.8],[6.89858,45.452942,2111],[6.898611,45.452917,2111.3],[6.898605,45.452901,2111.4],[6.898696,45.452858,2112.1],[6.89881,45.45284,2112.8],[6.898871,45.452845,2113.3],[6.898942,45.452828,2113.9],[6.899108,45.452767,2115.6],[6.899273,45.452726,2117.3],[6.899445,45.452693,2118.9],[6.89991,45.452579,2122.7],[6.901843,45.452077,2143.1],[6.902769,45.451853,2158.8],[6.903626,45.451655,2175.3],[6.904746,45.451377,2195.4],[6.905074,45.451286,2200.1],[6.905446,45.451194,2204.8],[6.905461,45.451181,2205],[6.905513,45.451175,2205.6],[6.905583,45.451268,2205.5],[6.905596,45.45134,2206],[6.905568,45.451381,2205.6],[6.905421,45.451467,2202],[6.905407,45.451489,2201.1],[6.905363,45.451499,2200.2],[6.905241,45.451446,2197.3],[6.905211,45.45141,2196.5],[6.905191,45.451321,2194.3],[6.905154,45.451291,2193.3],[6.905137,45.451256,2192.9],[6.905049,45.451171,2190.6],[6.905014,45.451114,2189.2],[6.90516,45.451078,2190.3],[6.905378,45.450953,2190.9],[6.905644,45.450844,2192.5],[6.905757,45.450808,2193.1],[6.90587,45.450799,2194.6],[6.905974,45.450781,2195.1],[6.906204,45.450804,2199.4],[6.906032,45.450519,2191.7],[6.90602,45.45044,2190.6],[6.905976,45.450368,2189.5],[6.905905,45.450302,2188.2],[6.905815,45.450246,2186.9],[6.905594,45.45014,2183.9],[6.905334,45.450036,2180.6],[6.905204,45.449976,2179],[6.9051,45.449905,2177.4],[6.905069,45.449832,2176.2],[6.905105,45.449757,2174.9],[6.905186,45.449723,2173.8],[6.905275,45.44973,2172.8],[6.905293,45.449784,2172],[6.90525,45.449863,2170.7],[6.90522,45.449895,2170.1],[6.905135,45.449952,2169],[6.90506,45.44994,2168.2],[6.904981,45.449898,2167.2],[6.904951,45.449847,2166.5],[6.904908,45.449802,2165.7],[6.90484,45.449767,2164.9],[6.904753,45.449766,2164.1],[6.904673,45.449785,2163.4],[6.904606,45.449818,2162.7],[6.904573,45.449865,2162],[6.904549,45.449884,2161.7],[6.904515,45.449896,2161.4],[6.90426,45.449933,2159.3],[6.904187,45.449955,2158.7],[6.904135,45.449997,2158.1],[6.904099,45.450099,2157.1],[6.904041,45.450196,2155.9],[6.903942,45.450292,2154.6],[6.903873,45.450336,2153.7],[6.903788,45.450353,2153],[6.903687,45.450389,2152],[6.90357,45.450447,2150.8],[6.90346,45.450476,2149.8],[6.902811,45.450698,2144.9],[6.902226,45.45087,2141.6],[6.902052,45.45094,2140.7],[6.901929,45.451045,2139.9],[6.901537,45.451217,2138.4],[6.901483,45.45125,2138.1],[6.901378,45.451293,2137.6],[6.901136,45.45137,2136.4],[6.900885,45.451461,2134.8],[6.900816,45.45152,2134.2],[6.900863,45.451573,2133.7],[6.900865,45.451676,2132.8],[6.900839,45.451778,2132],[6.900801,45.451822,2131.7],[6.900635,45.451951,2130.5],[6.900509,45.452062,2129.5],[6.900413,45.452184,2128.4],[6.900369,45.452276,2127.7],[6.900347,45.452364,2127.2],[6.900374,45.452539,2127.8],[6.900403,45.452609,2128.6],[6.900448,45.452665,2129.3],[6.900447,45.452679,2129.4],[6.900545,45.452788,2131.4],[6.900591,45.45282,2132.3],[6.900622,45.452859,2133.2],[6.90067,45.45289,2134],[6.900642,45.452883,2133.5],[6.900645,45.452889,2133.6],[6.900637,45.45289,2133.6],[6.900642,45.452894,2133.6],[6.900636,45.452889,2133.7],[6.900634,45.452895,2133.7],[6.900633,45.452889,2133.7],[6.900615,45.452916,2133.6],[6.900653,45.452942,2134.5],[6.900662,45.452958,2135],[6.900613,45.453191,2136.2],[6.900636,45.453246,2137],[6.900565,45.453231,2136],[6.900445,45.453139,2134.4],[6.90043,45.453158,2134.3],[6.900366,45.453165,2133.8],[6.900207,45.453221,2132.4],[6.900145,45.453259,2132.2],[6.899661,45.453429,2127.1],[6.900437,45.452948,2132.1],[6.900412,45.452937,2132.1],[6.900427,45.452966,2132.1],[6.900476,45.453017,2133.3],[6.900505,45.45311,2134.8],[6.900488,45.453121,2135.1],[6.900481,45.453154,2135],[6.900495,45.453154,2135.4],[6.9005,45.453115,2134.9],[6.900515,45.453103,2134.9],[6.900503,45.45304,2134.3],[6.900511,45.453045,2134.4],[6.900513,45.453034,2134.4],[6.900517,45.45304,2134.4],[6.900509,45.453037,2134.4],[6.900509,45.453045,2134.4],[6.900507,45.453039,2134.4],[6.900497,45.453056,2134.4],[6.900479,45.453039,2133.9],[6.900461,45.452991,2133.3],[6.900435,45.452982,2132.8],[6.900421,45.452989,2132.8],[6.90043,45.452997,2133.1],[6.90044,45.452988,2132.8],[6.900467,45.452989,2133.3],[6.900417,45.452982,2132.8],[6.900378,45.452988,2132.3],[6.900359,45.453004,2132.7],[6.900348,45.452971,2131.8],[6.900418,45.452829,2131.4],[6.900459,45.452848,2132.1],[6.900486,45.452688,2130.7],[6.900456,45.45266,2130.5],[6.900442,45.452632,2129.9],[6.900397,45.452614,2129.5],[6.90037,45.452557,2129.3],[6.900463,45.452537,2130.1],[6.90056,45.452541,2131],[6.900805,45.453468,2139.7],[6.900743,45.453191,2138.1],[6.900546,45.453019,2134.9],[6.9005,45.452994,2134],[6.900508,45.452941,2133.7],[6.900528,45.45294,2133.7],[6.900537,45.452959,2134.3],[6.900526,45.452905,2133.2],[6.900513,45.452938,2133.8],[6.900496,45.452935,2133.5],[6.900489,45.452944,2133.8],[6.900509,45.452955,2133.8],[6.900567,45.452922,2134],[6.900528,45.452908,2133.5],[6.900504,45.45289,2133.2],[6.900491,45.452911,2133.5],[6.900463,45.45291,2133],[6.900466,45.4529,2132.7],[6.900464,45.452909,2133],[6.900436,45.452926,2132.5],[6.900496,45.452947,2133.9],[6.90051,45.452942,2134.1],[6.900475,45.452937,2133.7],[6.900484,45.452943,2133.7],[6.90055,45.452944,2135],[6.900543,45.452945,2135.1],[6.900549,45.452948,2135.2],[6.900542,45.452949,2135.3],[6.900586,45.452946,2135.9],[6.900595,45.452951,2136],[6.90057,45.452945,2135.5],[6.900576,45.452951,2136.1],[6.900575,45.452944,2136.2],[6.900574,45.452949,2136.2],[6.900573,45.452941,2136.2],[6.900572,45.452949,2135.7],[6.900877,45.452858,2138.3],[6.900846,45.452865,2138.1],[6.900793,45.452896,2138],[6.900777,45.452898,2137.7],[6.900768,45.452886,2137.7],[6.900715,45.452879,2137.3],[6.900653,45.452838,2135.8],[6.900588,45.452776,2134.7],[6.900551,45.452761,2134.2],[6.900524,45.452731,2133.5],[6.900496,45.452719,2133.3],[6.900504,45.452725,2133.2],[6.900468,45.452714,2133],[6.900449,45.452718,2132.9],[6.90045,45.452712,2132.8],[6.900438,45.452716,2132.8],[6.900433,45.452709,2132.7],[6.900439,45.452712,2132.6],[6.900427,45.452717,2132.6],[6.900421,45.45271,2132.5],[6.900395,45.452715,2132.4],[6.900294,45.452696,2131.9],[6.900244,45.452696,2131.6],[6.900225,45.452687,2131.5],[6.900078,45.452674,2130.7],[6.90004,45.45268,2130.5],[6.899903,45.45276,2129.2],[6.899836,45.452778,2128.7],[6.899661,45.452742,2127],[6.899594,45.452761,2126.2],[6.899541,45.452833,2124.9],[6.899407,45.452815,2120.3],[6.89932,45.452846,2117.5],[6.899257,45.4529,2116],[6.899203,45.452915,2115.1],[6.899091,45.452895,2113.4],[6.898939,45.4529,2111.6],[6.898678,45.452969,2109.8],[6.898379,45.45302,2109.1],[6.898294,45.453028,2109],[6.898224,45.45302,2108.9],[6.898197,45.452983,2109],[6.89823,45.452947,2109.2],[6.898243,45.452961,2109.3],[6.898202,45.452938,2109.5],[6.89829,45.452921,2109.8],[6.898329,45.452932,2109.9],[6.898359,45.452918,2110],[6.898409,45.452911,2110.2],[6.898443,45.45292,2110.4],[6.898466,45.452917,2110.5],[6.898471,45.452901,2110.6],[6.898482,45.452903,2110.6],[6.898539,45.452882,2110.9],[6.898658,45.45291,2111.6],[6.898701,45.452881,2111.9],[6.898824,45.452861,2112.7],[6.898861,45.452846,2113.1],[6.898915,45.452839,2113.5],[6.899968,45.452573,2123],[6.900247,45.452509,2125],[6.902189,45.452014,2147.9],[6.90283,45.451864,2159.2],[6.903632,45.451665,2174.8],[6.905067,45.451292,2199.6],[6.905403,45.451222,2203.9],[6.905413,45.451225,2204],[6.905392,45.451225,2204.2],[6.905504,45.451155,2205.7],[6.90556,45.451149,2205.9],[6.905547,45.451173,2205.1],[6.905562,45.451244,2205.8],[6.90559,45.451272,2205.9],[6.905607,45.451377,2207.2],[6.905569,45.451465,2207],[6.905391,45.451637,2205.9],[6.905023,45.451916,2203.9],[6.904843,45.452005,2203.1],[6.904757,45.452069,2202.7],[6.904151,45.452695,2194],[6.903836,45.452977,2188.9],[6.903747,45.453037,2187.6],[6.903725,45.453114,2186.4],[6.903588,45.453214,2184.1],[6.903582,45.453279,2183],[6.903554,45.453344,2181.9],[6.90341,45.453429,2179.6],[6.903396,45.453494,2178.4],[6.903355,45.453555,2177.2],[6.903276,45.453594,2176],[6.903225,45.453644,2174.9],[6.903238,45.453754,2173],[6.903186,45.453799,2172],[6.903147,45.453852,2171],[6.903154,45.45391,2170],[6.90314,45.453942,2169.4],[6.903066,45.453981,2168.3],[6.903035,45.454037,2167.2],[6.903032,45.454091,2166.3],[6.902993,45.454141,2165.4],[6.902926,45.454182,2164.3],[6.90291,45.454241,2163.3],[6.902932,45.454293,2162.4],[6.902917,45.454343,2161.5],[6.902883,45.454401,2160.5],[6.902876,45.454457,2159.6],[6.902843,45.454508,2158.7],[6.902774,45.454537,2157.8],[6.902725,45.454632,2156.3],[6.902683,45.454634,2155.7],[6.902585,45.454574,2153.5],[6.9025,45.454564,2152],[6.90239,45.454659,2150.5],[6.902303,45.454652,2149.2],[6.902204,45.454592,2148.3],[6.902099,45.454581,2146.7],[6.902014,45.454613,2145.5],[6.901928,45.454608,2144.4],[6.901796,45.454511,2143.9],[6.901712,45.454505,2143],[6.90164,45.454528,2142.1],[6.901568,45.454536,2141.4],[6.901491,45.454494,2141.2],[6.901402,45.454486,2140.5],[6.901316,45.454513,2139.7],[6.901121,45.454479,2138.8],[6.90103,45.454497,2138.4],[6.900875,45.454585,2137],[6.900801,45.45468,2135.5],[6.900761,45.454713,2134.6],[6.900639,45.454786,2133.6],[6.900565,45.454818,2133.3],[6.900575,45.454814,2133.3],[6.900578,45.45482,2133.3],[6.900575,45.454816,2133.3],[6.900589,45.454835,2133.2],[6.900585,45.454819,2133.1],[6.900596,45.454825,2133.1],[6.900582,45.454801,2133],[6.900596,45.454809,2132.9],[6.900593,45.454818,2132.9],[6.900608,45.454835,2132.8],[6.900592,45.454834,2132.8],[6.90059,45.454821,2132.7],[6.900588,45.454826,2132.7],[6.900594,45.454821,2132.7],[6.900612,45.45485,2132.5],[6.900613,45.454815,2132.4],[6.900606,45.454816,2132.4],[6.900609,45.454849,2132.3],[6.900609,45.454844,2132.3],[6.900591,45.454852,2132.2],[6.900594,45.454829,2132.1],[6.900609,45.454817,2132.1],[6.900598,45.454823,2132],[6.900592,45.454812,2132],[6.900603,45.454831,2131.9],[6.900601,45.454813,2131.8],[6.900608,45.454815,2131.8],[6.900583,45.454813,2131.7],[6.90055,45.454827,2131.6],[6.9005,45.454864,2131.4],[6.90047,45.454873,2131.4],[6.900438,45.454924,2131.2],[6.900444,45.454942,2131.1],[6.900461,45.454937,2131.1],[6.900461,45.454946,2131],[6.900483,45.454942,2131],[6.900475,45.454944,2131],[6.900483,45.454942,2131],[6.900476,45.454949,2130.9],[6.900482,45.454944,2130.9],[6.900499,45.454952,2130.8],[6.900501,45.454966,2130.8],[6.900489,45.454962,2130.8],[6.90049,45.454971,2130.7],[6.900505,45.454965,2130.7],[6.900496,45.45496,2130.6],[6.900506,45.454976,2130.5],[6.900509,45.454971,2130.5],[6.900507,45.454983,2130.4],[6.900509,45.454973,2130.4],[6.900501,45.454982,2130.4],[6.900506,45.454979,2130.4],[6.900486,45.454989,2130.3],[6.900495,45.454978,2130.2],[6.900492,45.454984,2130.2],[6.900524,45.454981,2130.1],[6.900615,45.454994,2129.9],[6.900647,45.455018,2129.8],[6.900674,45.455062,2129.4],[6.90066,45.45511,2129],[6.900617,45.455172,2128.3],[6.900571,45.45521,2127.7],[6.900501,45.455239,2126.9],[6.900321,45.455261,2124.9],[6.900021,45.45526,2121.5],[6.89978,45.455227,2119.7],[6.899567,45.455145,2118.5],[6.899542,45.455098,2118.2],[6.899576,45.455008,2117.5],[6.89955,45.454947,2117.1],[6.89951,45.454888,2116.6],[6.89932,45.454692,2115.2],[6.899281,45.454641,2114.9],[6.899262,45.454586,2114.6],[6.899237,45.454383,2114.2],[6.899186,45.454201,2114.2],[6.89918,45.454114,2114.1],[6.899157,45.45406,2114.1],[6.89914,45.454047,2114.1],[6.899144,45.453979,2114],[6.899128,45.453904,2113.8],[6.899106,45.453867,2113.6],[6.899122,45.453716,2113],[6.899108,45.453656,2112.8],[6.899115,45.453598,2112.6],[6.899103,45.453522,2112.4],[6.899075,45.453481,2112.2],[6.899026,45.453264,2111.4],[6.89901,45.453242,2111.3],[6.899,45.453189,2111.1],[6.898947,45.453152,2110.8],[6.898849,45.453053,2110.3],[6.898866,45.453059,2110.3],[6.898784,45.453045,2110.1],[6.89873,45.453049,2109.9],[6.898671,45.453037,2109.7],[6.898375,45.453028,2109.1],[6.898216,45.452986,2108.9],[6.898217,45.452963,2109.1],[6.898262,45.452938,2109.5],[6.898293,45.452939,2109.6],[6.89836,45.452914,2109.9],[6.898364,45.452906,2109.9],[6.898382,45.452913,2110],[6.898376,45.452919,2110.1],[6.898433,45.452888,2110.3],[6.898415,45.452879,2110.4],[6.898413,45.452865,2110.5],[6.898439,45.452852,2110.6],[6.89847,45.452853,2110.7],[6.89849,45.452842,2110.8],[6.898536,45.452839,2110.9],[6.898576,45.452857,2111.2],[6.898604,45.452842,2111.4],[6.898698,45.452829,2112],[6.899101,45.452733,2115.3],[6.899405,45.452669,2118.3],[6.89944,45.452654,2118.7],[6.899499,45.452648,2119.2],[6.899631,45.452616,2120.4],[6.899852,45.452575,2122.1],[6.900411,45.452444,2126.5],[6.900821,45.45233,2131.3],[6.903288,45.451717,2168.5],[6.905283,45.45123,2202.7],[6.905469,45.451195,2204.9],[6.905471,45.451202,2205],[6.905521,45.45117,2205.7],[6.905545,45.45117,2205.8],[6.905566,45.451159,2205.9],[6.905611,45.451173,2206.8],[6.905647,45.451254,2208.2],[6.905668,45.451364,2209.1],[6.905677,45.451369,2209.1],[6.905654,45.451364,2209.1],[6.905637,45.451387,2209.4],[6.905535,45.451424,2207.9],[6.905462,45.451429,2206.8],[6.905442,45.451438,2207.1],[6.905381,45.451504,2207.1],[6.905356,45.451511,2206.5],[6.905261,45.451509,2205.3],[6.905211,45.451526,2204.8],[6.905157,45.451565,2203.7],[6.905125,45.451578,2203.7],[6.905066,45.451572,2202.4],[6.905005,45.451606,2201.9],[6.904972,45.451614,2201.4],[6.904937,45.451604,2200.6],[6.904898,45.451545,2199.8],[6.904865,45.451517,2199.7],[6.904819,45.451514,2198.3],[6.904747,45.451525,2197.6],[6.904716,45.451504,2196.7],[6.904647,45.451354,2194.8],[6.904605,45.451321,2194],[6.904553,45.451331,2193.3],[6.904496,45.451382,2192.9],[6.904457,45.451384,2192.2],[6.904397,45.451351,2191.2],[6.904352,45.451308,2190],[6.9043,45.451317,2188.5],[6.90426,45.451359,2187.8],[6.904227,45.451419,2188.3],[6.904186,45.451434,2187.6],[6.904094,45.45142,2185.7],[6.904017,45.451424,2184.1],[6.903917,45.451504,2182],[6.903891,45.451505,2182],[6.903858,45.451495,2181.1],[6.903874,45.451507,2181.1],[6.903828,45.451508,2180.3],[6.903817,45.451498,2180.3],[6.903824,45.451492,2180.3],[6.903789,45.451491,2179.5],[6.903701,45.451449,2177.8],[6.903655,45.451482,2177.1],[6.903633,45.451521,2177.3],[6.903597,45.451551,2176.6],[6.903552,45.451533,2175.9],[6.903469,45.451478,2174],[6.903402,45.451483,2172.2],[6.903355,45.451523,2171.6],[6.903342,45.451597,2171.7],[6.903286,45.451595,2170.8],[6.903209,45.451561,2169],[6.903139,45.451541,2167.2],[6.90308,45.451569,2166.5],[6.903053,45.451614,2165.7],[6.903049,45.451651,2165.8],[6.903028,45.451681,2165.8],[6.902963,45.451682,2164.1],[6.902873,45.451644,2162.4],[6.902794,45.451648,2160.9],[6.902747,45.45169,2160.3],[6.902724,45.451743,2160.3],[6.90268,45.451777,2159.7],[6.902505,45.451746,2156.7],[6.902344,45.451831,2153.7],[6.902229,45.451875,2151.6],[6.901343,45.452144,2140.2],[6.900744,45.452308,2133.1],[6.900686,45.452345,2132.6],[6.900658,45.452389,2132],[6.900606,45.452539,2131.5],[6.900574,45.452751,2132.7],[6.900604,45.45283,2133.5],[6.900654,45.452907,2135],[6.900669,45.452915,2135.4],[6.900668,45.453035,2136.6],[6.900639,45.453046,2136.1],[6.900648,45.453055,2136.1],[6.900627,45.453064,2136.4]]}}]}