<?xml version="1.0" encoding="UTF-8"?>
<gpx version="1.1" creator="LoadMyTracks/073 http://www.cluetrust.com/LoadMyTracks.html" schemaLocation="http://www.topografix.com/GPX/1/1 http://www.topografix.com/GPX/1/1/gpx.xsd http://www.garmin.com/xmlschemas/GpxExtensions/v3 http://www.garmin.com/xmlschemas/GpxExtensionsv3.xsd http://www.garmin.com/xmlschemas/TrackPointExtension/v1 http://www.garmin.com/xmlschemas/TrackPointExtensionv1.xsd http://www.garmin.com/xmlschemas/PowerExtension/v1 http://www.garmin.com/xmlschemas/PowerExtensionv1.xsd http://www.topografix.com/GPX/gpx_style/0/2 http://www.topografix.com/GPX/gpx_style/0/2/gpx_style.xsd" xmlns="http://www.topografix.com/GPX/1/1" xmlns:xsi="http://www.w3.org/2001/XMLSchema-instance" xsi:schemaLocation="http://www.topografix.com/GPX/1/1 http://www.topografix.com/GPX/1/1/gpx.xsd http://www.garmin.com/xmlschemas/GpxExtensions/v3 http://www.garmin.com/xmlschemas/GpxExtensionsv3.xsd http://www.garmin.com/xmlschemas/TrackPointExtension/v1 http://www.garmin.com/xmlschemas/TrackPointExtensionv1.xsd http://www.garmin.com/xmlschemas/PowerExtension/v1 http://www.garmin.com/xmlschemas/PowerExtensionv1.xsd http://www.topografix.com/GPX/gpx_style/0/2 http://www.topografix.com/GPX/gpx_style/0/2/gpx_style.xsd" xmlns:gpxtpx="http://www.garmin.com/xmlschemas/TrackPointExtension/v1" xmlns:gpxx="http://www.garmin.com/xmlschemas/GpxExtensions/v3" xmlns:gpxpx="http://www.garmin.com/xmlschemas/PowerExtension/v1" xmlns:gpx_style="http://www.topografix.com/GPX/gpx_style/0/2">
  <metadata>
    <name>2008-09-14 22 01 21</name>
    <author>
      <name>gpx.studio</name>
      <link href="https://gpx.studio"/>
    </author>
  </metadata>
  <trk>
    <name>unnamed</name>
    <trkseg>
      <trkpt lat="45.507416" lon="-73.580504">
        <ele>74.64</ele>
        <time>2008-09-05T22:15:55.000Z</time>
      </trkpt>
      <trkpt lat="45.506895" lon="-73.580559">
        <ele>75.12</ele>
        <time>2008-09-05T22:16:45.000Z</time>
      </trkpt>
      <trkpt lat="45.50658" lon="-73.580686">
        <ele>77.04</ele>
        <time>2008-09-05T22:17:09.000Z</time>
      </trkpt>
      <trkpt lat="45.50638" lon="-73.58073">
        <ele>78.97</ele>
        <time>2008-09-05T22:17:29.000Z</time>
      </trkpt>
      <trkpt lat="45.506209" lon="-73.580783">
        <ele>79.45</ele>
        <time>2008-09-05T22:17:44.000Z</time>
      </trkpt>
      <trkpt lat="45.505982" lon="-73.580895">
        <ele>80.89</ele>
        <time>2008-09-05T22:18:04.000Z</time>
      </trkpt>
      <trkpt lat="45.505777" lon="-73.580953">
        <ele>82.33</ele>
        <time>2008-09-05T22:18:22.000Z</time>
      </trkpt>
      <trkpt lat="45.505635" lon="-73.581027">
        <ele>83.29</ele>
        <time>2008-09-05T22:18:36.000Z</time>
      </trkpt>
      <trkpt lat="45.505507" lon="-73.581026">
        <ele>83.77</ele>
        <time>2008-09-05T22:18:47.000Z</time>
      </trkpt>
      <trkpt lat="45.505395" lon="-73.581069">
        <ele>83.29</ele>
        <time>2008-09-05T22:18:59.000Z</time>
      </trkpt>
      <trkpt lat="45.505272" lon="-73.581112">
        <ele>84.73</ele>
        <time>2008-09-05T22:19:14.000Z</time>
      </trkpt>
      <trkpt lat="45.505139" lon="-73.581189">
        <ele>87.62</ele>
        <time>2008-09-05T22:19:35.000Z</time>
      </trkpt>
      <trkpt lat="45.504961" lon="-73.581301">
        <ele>89.54</ele>
        <time>2008-09-05T22:19:56.000Z</time>
      </trkpt>
      <trkpt lat="45.504843" lon="-73.581412">
        <ele>90.02</ele>
        <time>2008-09-05T22:20:15.000Z</time>
      </trkpt>
      <trkpt lat="45.504752" lon="-73.581434">
        <ele>90.5</ele>
        <time>2008-09-05T22:20:34.000Z</time>
      </trkpt>
      <trkpt lat="45.504833" lon="-73.581604">
        <ele>93.39</ele>
        <time>2008-09-05T22:21:41.000Z</time>
      </trkpt>
      <trkpt lat="45.504915" lon="-73.581809">
        <ele>96.75</ele>
        <time>2008-09-05T22:22:02.000Z</time>
      </trkpt>
      <trkpt lat="45.505117" lon="-73.582075">
        <ele>99.63</ele>
        <time>2008-09-05T22:22:25.000Z</time>
      </trkpt>
      <trkpt lat="45.505324" lon="-73.58223">
        <ele>102.04</ele>
        <time>2008-09-05T22:22:48.000Z</time>
      </trkpt>
      <trkpt lat="45.505396" lon="-73.58254">
        <ele>105.4</ele>
        <time>2008-09-05T22:23:11.000Z</time>
      </trkpt>
      <trkpt lat="45.505521" lon="-73.582737">
        <ele>108.29</ele>
        <time>2008-09-05T22:23:32.000Z</time>
      </trkpt>
      <trkpt lat="45.505535" lon="-73.582761">
        <ele>108.29</ele>
        <time>2008-09-05T22:23:33.000Z</time>
      </trkpt>
      <trkpt lat="45.505638" lon="-73.583004">
        <ele>111.17</ele>
        <time>2008-09-05T22:23:54.000Z</time>
      </trkpt>
      <trkpt lat="45.505661" lon="-73.583115">
        <ele>114.05</ele>
        <time>2008-09-05T22:24:17.000Z</time>
      </trkpt>
      <trkpt lat="45.505677" lon="-73.583271">
        <ele>116.46</ele>
        <time>2008-09-05T22:24:36.000Z</time>
      </trkpt>
      <trkpt lat="45.505783" lon="-73.583346">
        <ele>119.34</ele>
        <time>2008-09-05T22:24:50.000Z</time>
      </trkpt>
      <trkpt lat="45.50576" lon="-73.583511">
        <ele>122.71</ele>
        <time>2008-09-05T22:25:42.000Z</time>
      </trkpt>
      <trkpt lat="45.505735" lon="-73.58366">
        <ele>124.15</ele>
        <time>2008-09-05T22:26:04.000Z</time>
      </trkpt>
      <trkpt lat="45.505651" lon="-73.583918">
        <ele>124.63</ele>
        <time>2008-09-05T22:26:31.000Z</time>
      </trkpt>
      <trkpt lat="45.50555" lon="-73.584067">
        <ele>124.63</ele>
        <time>2008-09-05T22:26:46.000Z</time>
      </trkpt>
      <trkpt lat="45.505471" lon="-73.584223">
        <ele>125.11</ele>
        <time>2008-09-05T22:27:01.000Z</time>
      </trkpt>
      <trkpt lat="45.505352" lon="-73.584292">
        <ele>124.15</ele>
        <time>2008-09-05T22:27:30.000Z</time>
      </trkpt>
      <trkpt lat="45.505129" lon="-73.584642">
        <ele>123.19</ele>
        <time>2008-09-05T22:28:03.000Z</time>
      </trkpt>
      <trkpt lat="45.505064" lon="-73.584988">
        <ele>124.15</ele>
        <time>2008-09-05T22:29:07.000Z</time>
      </trkpt>
      <trkpt lat="45.505068" lon="-73.58501">
        <ele>127.51</ele>
        <time>2008-09-05T22:29:21.000Z</time>
      </trkpt>
      <trkpt lat="45.504945" lon="-73.585191">
        <ele>130.4</ele>
        <time>2008-09-05T22:29:38.000Z</time>
      </trkpt>
      <trkpt lat="45.504861" lon="-73.585247">
        <ele>133.28</ele>
        <time>2008-09-05T22:29:54.000Z</time>
      </trkpt>
      <trkpt lat="45.504836" lon="-73.58526">
        <ele>136.64</ele>
        <time>2008-09-05T22:30:13.000Z</time>
      </trkpt>
      <trkpt lat="45.504827" lon="-73.585284">
        <ele>139.53</ele>
        <time>2008-09-05T22:30:33.000Z</time>
      </trkpt>
      <trkpt lat="45.504911" lon="-73.58542">
        <ele>142.89</ele>
        <time>2008-09-05T22:30:53.000Z</time>
      </trkpt>
      <trkpt lat="45.504986" lon="-73.585535">
        <ele>145.78</ele>
        <time>2008-09-05T22:31:09.000Z</time>
      </trkpt>
      <trkpt lat="45.504969" lon="-73.585575">
        <ele>149.14</ele>
        <time>2008-09-05T22:31:29.000Z</time>
      </trkpt>
      <trkpt lat="45.504832" lon="-73.585582">
        <ele>152.03</ele>
        <time>2008-09-05T22:31:50.000Z</time>
      </trkpt>
      <trkpt lat="45.504814" lon="-73.585665">
        <ele>154.91</ele>
        <time>2008-09-05T22:32:21.000Z</time>
      </trkpt>
      <trkpt lat="45.504855" lon="-73.585849">
        <ele>155.87</ele>
        <time>2008-09-05T22:34:58.000Z</time>
      </trkpt>
      <trkpt lat="45.504848" lon="-73.585939">
        <ele>159.24</ele>
        <time>2008-09-05T22:35:16.000Z</time>
      </trkpt>
      <trkpt lat="45.50481" lon="-73.586015">
        <ele>162.12</ele>
        <time>2008-09-05T22:35:38.000Z</time>
      </trkpt>
      <trkpt lat="45.504674" lon="-73.586109">
        <ele>165.48</ele>
        <time>2008-09-05T22:35:59.000Z</time>
      </trkpt>
      <trkpt lat="45.504545" lon="-73.586271">
        <ele>166.93</ele>
        <time>2008-09-05T22:36:20.000Z</time>
      </trkpt>
      <trkpt lat="45.504483" lon="-73.586401">
        <ele>169.33</ele>
        <time>2008-09-05T22:36:39.000Z</time>
      </trkpt>
      <trkpt lat="45.504227" lon="-73.586626">
        <ele>170.29</ele>
        <time>2008-09-05T22:37:03.000Z</time>
      </trkpt>
      <trkpt lat="45.503952" lon="-73.586883">
        <ele>168.37</ele>
        <time>2008-09-05T22:37:21.000Z</time>
      </trkpt>
      <trkpt lat="45.503803" lon="-73.586828">
        <ele>167.89</ele>
        <time>2008-09-05T22:37:36.000Z</time>
      </trkpt>
      <trkpt lat="45.503714" lon="-73.586766">
        <ele>167.89</ele>
        <time>2008-09-05T22:37:49.000Z</time>
      </trkpt>
      <trkpt lat="45.503702" lon="-73.586771">
        <ele>167.41</ele>
        <time>2008-09-05T22:38:07.000Z</time>
      </trkpt>
      <trkpt lat="45.503643" lon="-73.586726">
        <ele>167.41</ele>
        <time>2008-09-05T22:38:30.000Z</time>
      </trkpt>
      <trkpt lat="45.503578" lon="-73.586699">
        <ele>168.37</ele>
        <time>2008-09-05T22:43:28.000Z</time>
      </trkpt>
      <trkpt lat="45.503578" lon="-73.586698">
        <ele>167.41</ele>
        <time>2008-09-05T22:43:56.000Z</time>
      </trkpt>
      <trkpt lat="45.503593" lon="-73.586733">
        <ele>168.85</ele>
        <time>2008-09-05T22:47:23.000Z</time>
      </trkpt>
      <trkpt lat="45.503615" lon="-73.586748">
        <ele>169.33</ele>
        <time>2008-09-05T22:47:26.000Z</time>
      </trkpt>
      <trkpt lat="45.505144" lon="-73.587041">
        <ele>169.33</ele>
        <time>2008-09-05T22:50:58.000Z</time>
      </trkpt>
      <trkpt lat="45.505978" lon="-73.586287">
        <ele>169.81</ele>
        <time>2008-09-05T22:51:15.000Z</time>
      </trkpt>
      <trkpt lat="45.506097" lon="-73.586342">
        <ele>170.29</ele>
        <time>2008-09-05T22:51:29.000Z</time>
      </trkpt>
      <trkpt lat="45.506289" lon="-73.586373">
        <ele>172.21</ele>
        <time>2008-09-05T22:51:50.000Z</time>
      </trkpt>
      <trkpt lat="45.5065" lon="-73.586501">
        <ele>173.17</ele>
        <time>2008-09-05T22:52:09.000Z</time>
      </trkpt>
      <trkpt lat="45.50677" lon="-73.586525">
        <ele>174.62</ele>
        <time>2008-09-05T22:52:30.000Z</time>
      </trkpt>
      <trkpt lat="45.506972" lon="-73.586532">
        <ele>176.06</ele>
        <time>2008-09-05T22:52:50.000Z</time>
      </trkpt>
      <trkpt lat="45.507047" lon="-73.5867">
        <ele>176.54</ele>
        <time>2008-09-05T22:53:08.000Z</time>
      </trkpt>
      <trkpt lat="45.507309" lon="-73.586974">
        <ele>177.98</ele>
        <time>2008-09-05T22:53:30.000Z</time>
      </trkpt>
      <trkpt lat="45.507304" lon="-73.587327">
        <ele>178.46</ele>
        <time>2008-09-05T22:53:50.000Z</time>
      </trkpt>
      <trkpt lat="45.507351" lon="-73.587565">
        <ele>179.42</ele>
        <time>2008-09-05T22:54:08.000Z</time>
      </trkpt>
      <trkpt lat="45.507553" lon="-73.587619">
        <ele>180.87</ele>
        <time>2008-09-05T22:54:29.000Z</time>
      </trkpt>
      <trkpt lat="45.50784" lon="-73.587706">
        <ele>181.83</ele>
        <time>2008-09-05T22:54:47.000Z</time>
      </trkpt>
      <trkpt lat="45.508086" lon="-73.587795">
        <ele>183.27</ele>
        <time>2008-09-05T22:55:08.000Z</time>
      </trkpt>
      <trkpt lat="45.508249" lon="-73.587893">
        <ele>184.23</ele>
        <time>2008-09-05T22:55:22.000Z</time>
      </trkpt>
      <trkpt lat="45.508333" lon="-73.587823">
        <ele>184.71</ele>
        <time>2008-09-05T22:55:27.000Z</time>
      </trkpt>
      <trkpt lat="45.508491" lon="-73.58752">
        <ele>185.67</ele>
        <time>2008-09-05T22:55:48.000Z</time>
      </trkpt>
      <trkpt lat="45.508612" lon="-73.5873">
        <ele>187.59</ele>
        <time>2008-09-05T22:56:11.000Z</time>
      </trkpt>
      <trkpt lat="45.508847" lon="-73.587126">
        <ele>188.56</ele>
        <time>2008-09-05T22:56:33.000Z</time>
      </trkpt>
      <trkpt lat="45.509055" lon="-73.587294">
        <ele>189.04</ele>
        <time>2008-09-05T22:56:56.000Z</time>
      </trkpt>
      <trkpt lat="45.509137" lon="-73.587594">
        <ele>190.48</ele>
        <time>2008-09-05T22:57:18.000Z</time>
      </trkpt>
      <trkpt lat="45.509106" lon="-73.587908">
        <ele>191.92</ele>
        <time>2008-09-05T22:57:37.000Z</time>
      </trkpt>
      <trkpt lat="45.509147" lon="-73.588046">
        <ele>192.4</ele>
        <time>2008-09-05T22:57:44.000Z</time>
      </trkpt>
      <trkpt lat="45.509176" lon="-73.588407">
        <ele>193.84</ele>
        <time>2008-09-05T22:58:06.000Z</time>
      </trkpt>
      <trkpt lat="45.509256" lon="-73.588746">
        <ele>194.8</ele>
        <time>2008-09-05T22:58:26.000Z</time>
      </trkpt>
      <trkpt lat="45.509243" lon="-73.589086">
        <ele>196.25</ele>
        <time>2008-09-05T22:58:48.000Z</time>
      </trkpt>
      <trkpt lat="45.509157" lon="-73.589378">
        <ele>198.17</ele>
        <time>2008-09-05T22:59:08.000Z</time>
      </trkpt>
      <trkpt lat="45.509192" lon="-73.589801">
        <ele>200.09</ele>
        <time>2008-09-05T22:59:31.000Z</time>
      </trkpt>
      <trkpt lat="45.509231" lon="-73.59015">
        <ele>201.53</ele>
        <time>2008-09-05T22:59:53.000Z</time>
      </trkpt>
      <trkpt lat="45.509331" lon="-73.590266">
        <ele>198.17</ele>
        <time>2008-09-05T23:00:13.000Z</time>
      </trkpt>
      <trkpt lat="45.509568" lon="-73.590345">
        <ele>195.77</ele>
        <time>2008-09-05T23:00:32.000Z</time>
      </trkpt>
      <trkpt lat="45.509699" lon="-73.590421">
        <ele>193.84</ele>
        <time>2008-09-05T23:00:46.000Z</time>
      </trkpt>
      <trkpt lat="45.509833" lon="-73.590689">
        <ele>191.92</ele>
        <time>2008-09-05T23:01:07.000Z</time>
      </trkpt>
      <trkpt lat="45.509827" lon="-73.590905">
        <ele>190.48</ele>
        <time>2008-09-05T23:01:24.000Z</time>
      </trkpt>
      <trkpt lat="45.509869" lon="-73.590704">
        <ele>190.96</ele>
        <time>2008-09-05T23:01:48.000Z</time>
      </trkpt>
      <trkpt lat="45.50989" lon="-73.590506">
        <ele>190</ele>
        <time>2008-09-05T23:02:03.000Z</time>
      </trkpt>
      <trkpt lat="45.510042" lon="-73.590249">
        <ele>189.52</ele>
        <time>2008-09-05T23:02:25.000Z</time>
      </trkpt>
      <trkpt lat="45.510093" lon="-73.590283">
        <ele>188.56</ele>
        <time>2008-09-05T23:02:43.000Z</time>
      </trkpt>
      <trkpt lat="45.51012" lon="-73.590261">
        <ele>187.59</ele>
        <time>2008-09-05T23:03:12.000Z</time>
      </trkpt>
      <trkpt lat="45.510093" lon="-73.590157">
        <ele>189.04</ele>
        <time>2008-09-05T23:04:09.000Z</time>
      </trkpt>
      <trkpt lat="45.510003" lon="-73.590183">
        <ele>191.92</ele>
        <time>2008-09-05T23:04:21.000Z</time>
      </trkpt>
      <trkpt lat="45.509932" lon="-73.589983">
        <ele>190.96</ele>
        <time>2008-09-05T23:04:39.000Z</time>
      </trkpt>
      <trkpt lat="45.509964" lon="-73.589801">
        <ele>189.52</ele>
        <time>2008-09-05T23:04:57.000Z</time>
      </trkpt>
      <trkpt lat="45.509918" lon="-73.5897">
        <ele>191.44</ele>
        <time>2008-09-05T23:05:13.000Z</time>
      </trkpt>
      <trkpt lat="45.509959" lon="-73.58943">
        <ele>191.92</ele>
        <time>2008-09-05T23:05:32.000Z</time>
      </trkpt>
      <trkpt lat="45.50998" lon="-73.589179">
        <ele>191.92</ele>
        <time>2008-09-05T23:05:49.000Z</time>
      </trkpt>
      <trkpt lat="45.509942" lon="-73.588934">
        <ele>190</ele>
        <time>2008-09-05T23:06:10.000Z</time>
      </trkpt>
      <trkpt lat="45.509886" lon="-73.588829">
        <ele>191.44</ele>
        <time>2008-09-05T23:06:28.000Z</time>
      </trkpt>
      <trkpt lat="45.509819" lon="-73.58875">
        <ele>191.92</ele>
        <time>2008-09-05T23:06:47.000Z</time>
      </trkpt>
      <trkpt lat="45.509805" lon="-73.588664">
        <ele>188.56</ele>
        <time>2008-09-05T23:06:57.000Z</time>
      </trkpt>
      <trkpt lat="45.509755" lon="-73.58847">
        <ele>185.67</ele>
        <time>2008-09-05T23:07:12.000Z</time>
      </trkpt>
      <trkpt lat="45.509793" lon="-73.588258">
        <ele>184.23</ele>
        <time>2008-09-05T23:07:33.000Z</time>
      </trkpt>
      <trkpt lat="45.509804" lon="-73.588254">
        <ele>184.23</ele>
        <time>2008-09-05T23:07:50.000Z</time>
      </trkpt>
      <trkpt lat="45.509759" lon="-73.58807">
        <ele>182.31</ele>
        <time>2008-09-05T23:08:25.000Z</time>
      </trkpt>
      <trkpt lat="45.509637" lon="-73.587894">
        <ele>180.38</ele>
        <time>2008-09-05T23:08:43.000Z</time>
      </trkpt>
      <trkpt lat="45.509537" lon="-73.587573">
        <ele>178.94</ele>
        <time>2008-09-05T23:09:02.000Z</time>
      </trkpt>
      <trkpt lat="45.509379" lon="-73.587189">
        <ele>178.94</ele>
        <time>2008-09-05T23:09:22.000Z</time>
      </trkpt>
      <trkpt lat="45.509304" lon="-73.587079">
        <ele>178.46</ele>
        <time>2008-09-05T23:09:41.000Z</time>
      </trkpt>
      <trkpt lat="45.509154" lon="-73.587021">
        <ele>178.46</ele>
        <time>2008-09-05T23:09:55.000Z</time>
      </trkpt>
      <trkpt lat="45.508997" lon="-73.586924">
        <ele>177.5</ele>
        <time>2008-09-05T23:10:12.000Z</time>
      </trkpt>
      <trkpt lat="45.508868" lon="-73.586792">
        <ele>175.1</ele>
        <time>2008-09-05T23:10:30.000Z</time>
      </trkpt>
      <trkpt lat="45.508682" lon="-73.586591">
        <ele>176.06</ele>
        <time>2008-09-05T23:10:44.000Z</time>
      </trkpt>
      <trkpt lat="45.508563" lon="-73.58634">
        <ele>177.02</ele>
        <time>2008-09-05T23:11:03.000Z</time>
      </trkpt>
      <trkpt lat="45.508405" lon="-73.586142">
        <ele>178.46</ele>
        <time>2008-09-05T23:11:18.000Z</time>
      </trkpt>
      <trkpt lat="45.508093" lon="-73.58584">
        <ele>178.46</ele>
        <time>2008-09-05T23:11:35.000Z</time>
      </trkpt>
      <trkpt lat="45.507919" lon="-73.585705">
        <ele>178.94</ele>
        <time>2008-09-05T23:11:56.000Z</time>
      </trkpt>
      <trkpt lat="45.507691" lon="-73.585523">
        <ele>178.94</ele>
        <time>2008-09-05T23:12:18.000Z</time>
      </trkpt>
      <trkpt lat="45.507513" lon="-73.585445">
        <ele>176.06</ele>
        <time>2008-09-05T23:12:37.000Z</time>
      </trkpt>
      <trkpt lat="45.507409" lon="-73.585337">
        <ele>172.69</ele>
        <time>2008-09-05T23:12:51.000Z</time>
      </trkpt>
      <trkpt lat="45.507288" lon="-73.585292">
        <ele>169.33</ele>
        <time>2008-09-05T23:13:06.000Z</time>
      </trkpt>
      <trkpt lat="45.507257" lon="-73.58528">
        <ele>168.85</ele>
        <time>2008-09-05T23:13:08.000Z</time>
      </trkpt>
      <trkpt lat="45.507081" lon="-73.585247">
        <ele>167.41</ele>
        <time>2008-09-05T23:13:28.000Z</time>
      </trkpt>
      <trkpt lat="45.506895" lon="-73.585269">
        <ele>168.85</ele>
        <time>2008-09-05T23:13:44.000Z</time>
      </trkpt>
      <trkpt lat="45.506717" lon="-73.585262">
        <ele>169.81</ele>
        <time>2008-09-05T23:14:00.000Z</time>
      </trkpt>
      <trkpt lat="45.506485" lon="-73.585274">
        <ele>172.69</ele>
        <time>2008-09-05T23:14:21.000Z</time>
      </trkpt>
      <trkpt lat="45.506383" lon="-73.585292">
        <ele>176.06</ele>
        <time>2008-09-05T23:14:38.000Z</time>
      </trkpt>
      <trkpt lat="45.506232" lon="-73.585261">
        <ele>176.54</ele>
        <time>2008-09-05T23:15:00.000Z</time>
      </trkpt>
      <trkpt lat="45.506123" lon="-73.585398">
        <ele>178.46</ele>
        <time>2008-09-05T23:15:21.000Z</time>
      </trkpt>
      <trkpt lat="45.505909" lon="-73.585591">
        <ele>179.9</ele>
        <time>2008-09-05T23:15:43.000Z</time>
      </trkpt>
      <trkpt lat="45.505752" lon="-73.585743">
        <ele>179.9</ele>
        <time>2008-09-05T23:16:01.000Z</time>
      </trkpt>
      <trkpt lat="45.505591" lon="-73.585741">
        <ele>177.98</ele>
        <time>2008-09-05T23:16:15.000Z</time>
      </trkpt>
      <trkpt lat="45.505402" lon="-73.585766">
        <ele>174.62</ele>
        <time>2008-09-05T23:16:33.000Z</time>
      </trkpt>
      <trkpt lat="45.505286" lon="-73.58586">
        <ele>173.66</ele>
        <time>2008-09-05T23:16:49.000Z</time>
      </trkpt>
      <trkpt lat="45.505039" lon="-73.585864">
        <ele>173.17</ele>
        <time>2008-09-05T23:17:06.000Z</time>
      </trkpt>
      <trkpt lat="45.504801" lon="-73.585881">
        <ele>170.29</ele>
        <time>2008-09-05T23:17:27.000Z</time>
      </trkpt>
      <trkpt lat="45.504678" lon="-73.585814">
        <ele>168.37</ele>
        <time>2008-09-05T23:17:43.000Z</time>
      </trkpt>
      <trkpt lat="45.504638" lon="-73.585728">
        <ele>168.37</ele>
        <time>2008-09-05T23:17:58.000Z</time>
      </trkpt>
      <trkpt lat="45.504607" lon="-73.585606">
        <ele>167.89</ele>
        <time>2008-09-05T23:18:16.000Z</time>
      </trkpt>
      <trkpt lat="45.504644" lon="-73.585538">
        <ele>164.52</ele>
        <time>2008-09-05T23:18:58.000Z</time>
      </trkpt>
      <trkpt lat="45.504675" lon="-73.585515">
        <ele>161.64</ele>
        <time>2008-09-05T23:19:13.000Z</time>
      </trkpt>
      <trkpt lat="45.504684" lon="-73.585478">
        <ele>158.27</ele>
        <time>2008-09-05T23:19:29.000Z</time>
      </trkpt>
      <trkpt lat="45.504735" lon="-73.585379">
        <ele>155.39</ele>
        <time>2008-09-05T23:19:42.000Z</time>
      </trkpt>
      <trkpt lat="45.504707" lon="-73.585274">
        <ele>152.03</ele>
        <time>2008-09-05T23:19:54.000Z</time>
      </trkpt>
      <trkpt lat="45.504665" lon="-73.585209">
        <ele>150.1</ele>
        <time>2008-09-05T23:20:17.000Z</time>
      </trkpt>
      <trkpt lat="45.504704" lon="-73.585146">
        <ele>146.74</ele>
        <time>2008-09-05T23:20:33.000Z</time>
      </trkpt>
      <trkpt lat="45.504728" lon="-73.585066">
        <ele>143.85</ele>
        <time>2008-09-05T23:20:46.000Z</time>
      </trkpt>
      <trkpt lat="45.504814" lon="-73.584972">
        <ele>140.49</ele>
        <time>2008-09-05T23:21:00.000Z</time>
      </trkpt>
      <trkpt lat="45.504906" lon="-73.584889">
        <ele>137.13</ele>
        <time>2008-09-05T23:21:15.000Z</time>
      </trkpt>
      <trkpt lat="45.504907" lon="-73.584787">
        <ele>134.24</ele>
        <time>2008-09-05T23:21:29.000Z</time>
      </trkpt>
      <trkpt lat="45.504903" lon="-73.584727">
        <ele>133.28</ele>
        <time>2008-09-05T23:21:47.000Z</time>
      </trkpt>
      <trkpt lat="45.504832" lon="-73.584719">
        <ele>133.28</ele>
        <time>2008-09-05T23:22:08.000Z</time>
      </trkpt>
      <trkpt lat="45.504928" lon="-73.584673">
        <ele>133.76</ele>
        <time>2008-09-05T23:22:22.000Z</time>
      </trkpt>
      <trkpt lat="45.505134" lon="-73.584633">
        <ele>133.28</ele>
        <time>2008-09-05T23:22:43.000Z</time>
      </trkpt>
      <trkpt lat="45.505109" lon="-73.584618">
        <ele>133.28</ele>
        <time>2008-09-05T23:22:52.000Z</time>
      </trkpt>
      <trkpt lat="45.505124" lon="-73.584551">
        <ele>132.8</ele>
        <time>2008-09-05T23:22:57.000Z</time>
      </trkpt>
      <trkpt lat="45.50515" lon="-73.584492">
        <ele>133.28</ele>
        <time>2008-09-05T23:23:02.000Z</time>
      </trkpt>
      <trkpt lat="45.505391" lon="-73.584381">
        <ele>132.8</ele>
        <time>2008-09-05T23:23:23.000Z</time>
      </trkpt>
      <trkpt lat="45.505503" lon="-73.584206">
        <ele>129.92</ele>
        <time>2008-09-05T23:23:45.000Z</time>
      </trkpt>
      <trkpt lat="45.505528" lon="-73.584175">
        <ele>126.55</ele>
        <time>2008-09-05T23:24:03.000Z</time>
      </trkpt>
      <trkpt lat="45.505535" lon="-73.583989">
        <ele>124.15</ele>
        <time>2008-09-05T23:24:18.000Z</time>
      </trkpt>
      <trkpt lat="45.505637" lon="-73.583969">
        <ele>122.71</ele>
        <time>2008-09-05T23:24:35.000Z</time>
      </trkpt>
      <trkpt lat="45.505557" lon="-73.583874">
        <ele>122.71</ele>
        <time>2008-09-05T23:25:02.000Z</time>
      </trkpt>
      <trkpt lat="45.505518" lon="-73.583847">
        <ele>122.22</ele>
        <time>2008-09-05T23:25:06.000Z</time>
      </trkpt>
      <trkpt lat="45.505346" lon="-73.583674">
        <ele>118.86</ele>
        <time>2008-09-05T23:25:23.000Z</time>
      </trkpt>
      <trkpt lat="45.50536" lon="-73.583628">
        <ele>118.38</ele>
        <time>2008-09-05T23:25:26.000Z</time>
      </trkpt>
      <trkpt lat="45.50536" lon="-73.583467">
        <ele>115.98</ele>
        <time>2008-09-05T23:25:45.000Z</time>
      </trkpt>
      <trkpt lat="45.505272" lon="-73.583181">
        <ele>113.09</ele>
        <time>2008-09-05T23:26:02.000Z</time>
      </trkpt>
      <trkpt lat="45.50521" lon="-73.582999">
        <ele>109.73</ele>
        <time>2008-09-05T23:26:21.000Z</time>
      </trkpt>
      <trkpt lat="45.50511" lon="-73.582685">
        <ele>107.32</ele>
        <time>2008-09-05T23:26:42.000Z</time>
      </trkpt>
      <trkpt lat="45.504919" lon="-73.582384">
        <ele>104.92</ele>
        <time>2008-09-05T23:27:06.000Z</time>
      </trkpt>
      <trkpt lat="45.504779" lon="-73.582198">
        <ele>101.56</ele>
        <time>2008-09-05T23:27:24.000Z</time>
      </trkpt>
      <trkpt lat="45.5047" lon="-73.582131">
        <ele>99.63</ele>
        <time>2008-09-05T23:27:42.000Z</time>
      </trkpt>
      <trkpt lat="45.50473" lon="-73.582001">
        <ele>97.23</ele>
        <time>2008-09-05T23:28:03.000Z</time>
      </trkpt>
      <trkpt lat="45.504686" lon="-73.58191">
        <ele>96.75</ele>
        <time>2008-09-05T23:28:21.000Z</time>
      </trkpt>
      <trkpt lat="45.504607" lon="-73.581786">
        <ele>95.31</ele>
        <time>2008-09-05T23:28:56.000Z</time>
      </trkpt>
      <trkpt lat="45.50452" lon="-73.581582">
        <ele>92.42</ele>
        <time>2008-09-05T23:29:15.000Z</time>
      </trkpt>
      <trkpt lat="45.504383" lon="-73.581377">
        <ele>89.54</ele>
        <time>2008-09-05T23:29:36.000Z</time>
      </trkpt>
      <trkpt lat="45.504417" lon="-73.581186">
        <ele>87.62</ele>
        <time>2008-09-05T23:29:52.000Z</time>
      </trkpt>
      <trkpt lat="45.504268" lon="-73.580991">
        <ele>85.21</ele>
        <time>2008-09-05T23:30:11.000Z</time>
      </trkpt>
      <trkpt lat="45.504292" lon="-73.580845">
        <ele>83.29</ele>
        <time>2008-09-05T23:30:27.000Z</time>
      </trkpt>
      <trkpt lat="45.504137" lon="-73.580594">
        <ele>80.89</ele>
        <time>2008-09-05T23:30:44.000Z</time>
      </trkpt>
      <trkpt lat="45.504" lon="-73.5803">
        <ele>78.97</ele>
        <time>2008-09-05T23:31:04.000Z</time>
      </trkpt>
      <trkpt lat="45.503771" lon="-73.580026">
        <ele>76.56</ele>
        <time>2008-09-05T23:31:23.000Z</time>
      </trkpt>
      <trkpt lat="45.50363" lon="-73.579764">
        <ele>74.64</ele>
        <time>2008-09-05T23:31:43.000Z</time>
      </trkpt>
      <trkpt lat="45.503513" lon="-73.579566">
        <ele>72.24</ele>
        <time>2008-09-05T23:32:02.000Z</time>
      </trkpt>
      <trkpt lat="45.503529" lon="-73.579536">
        <ele>71.76</ele>
        <time>2008-09-05T23:32:06.000Z</time>
      </trkpt>
      <trkpt lat="45.503476" lon="-73.579469">
        <ele>69.35</ele>
        <time>2008-09-05T23:32:26.000Z</time>
      </trkpt>
      <trkpt lat="45.503094" lon="-73.57916">
        <ele>66.47</ele>
        <time>2008-09-05T23:32:57.000Z</time>
      </trkpt>
      <trkpt lat="45.502885" lon="-73.578652">
        <ele>64.55</ele>
        <time>2008-09-05T23:33:20.000Z</time>
      </trkpt>
      <trkpt lat="45.502716" lon="-73.578478">
        <ele>63.1</ele>
        <time>2008-09-05T23:33:37.000Z</time>
      </trkpt>
      <trkpt lat="45.502567" lon="-73.57824">
        <ele>61.18</ele>
        <time>2008-09-05T23:33:55.000Z</time>
      </trkpt>
      <trkpt lat="45.502544" lon="-73.578103">
        <ele>60.22</ele>
        <time>2008-09-05T23:34:11.000Z</time>
      </trkpt>
      <trkpt lat="45.502429" lon="-73.577885">
        <ele>58.78</ele>
        <time>2008-09-05T23:34:29.000Z</time>
      </trkpt>
      <trkpt lat="45.502375" lon="-73.577765">
        <ele>57.34</ele>
        <time>2008-09-05T23:34:51.000Z</time>
      </trkpt>
      <trkpt lat="45.50249" lon="-73.577694">
        <ele>56.37</ele>
        <time>2008-09-05T23:35:18.000Z</time>
      </trkpt>
      <trkpt lat="45.502326" lon="-73.577488">
        <ele>55.41</ele>
        <time>2008-09-05T23:35:44.000Z</time>
      </trkpt>
      <trkpt lat="45.502121" lon="-73.577224">
        <ele>55.41</ele>
        <time>2008-09-05T23:36:05.000Z</time>
      </trkpt>
      <trkpt lat="45.502031" lon="-73.576947">
        <ele>55.41</ele>
        <time>2008-09-05T23:36:20.000Z</time>
      </trkpt>
      <trkpt lat="45.501634" lon="-73.576917">
        <ele>56.37</ele>
        <time>2008-09-05T23:36:53.000Z</time>
      </trkpt>
      <trkpt lat="45.501722" lon="-73.576389">
        <ele>57.34</ele>
        <time>2008-09-05T23:38:26.000Z</time>
      </trkpt>
      <trkpt lat="45.501656" lon="-73.576449">
        <ele>57.34</ele>
        <time>2008-09-05T23:38:40.000Z</time>
      </trkpt>
      <trkpt lat="45.501725" lon="-73.576437">
        <ele>57.34</ele>
        <time>2008-09-05T23:39:11.000Z</time>
      </trkpt>
      <trkpt lat="45.501639" lon="-73.576413">
        <ele>57.34</ele>
        <time>2008-09-05T23:39:51.000Z</time>
      </trkpt>
    </trkseg>
  </trk>
</gpx>
