{"type":"FeatureCollection","features":[{"type":"Feature","properties":{"name":"Foire internationale de la photo à Bièvre","type":"walking","time":"2025-06-08T08:57:32.000Z","coordTimes":["2025-06-08T08:57:32.000Z","2025-06-08T08:57:39.000Z","2025-06-08T08:57:43.000Z","2025-06-08T08:57:46.000Z","2025-06-08T08:57:53.000Z","2025-06-08T08:57:58.000Z","2025-06-08T08:58:04.000Z","2025-06-08T08:58:05.000Z","2025-06-08T08:58:09.000Z","2025-06-08T08:58:10.000Z","2025-06-08T08:58:11.000Z","2025-06-08T08:58:12.000Z","2025-06-08T08:58:13.000Z","2025-06-08T08:58:15.000Z","2025-06-08T08:58:17.000Z","2025-06-08T08:58:18.000Z","2025-06-08T08:58:20.000Z","2025-06-08T08:58:22.000Z","2025-06-08T08:58:24.000Z","2025-06-08T08:58:25.000Z","2025-06-08T08:58:27.000Z","2025-06-08T08:58:29.000Z","2025-06-08T08:58:30.000Z","2025-06-08T08:58:31.000Z","2025-06-08T08:58:34.000Z","2025-06-08T08:58:36.000Z","2025-06-08T08:58:38.000Z","2025-06-08T08:58:39.000Z","2025-06-08T08:58:40.000Z","2025-06-08T08:58:41.000Z","2025-06-08T08:58:42.000Z","2025-06-08T08:58:50.000Z","2025-06-08T08:58:52.000Z","2025-06-08T08:58:53.000Z","2025-06-08T08:58:54.000Z","2025-06-08T08:58:56.000Z","2025-06-08T08:58:57.000Z","2025-06-08T08:58:58.000Z","2025-06-08T08:58:59.000Z","2025-06-08T08:59:00.000Z","2025-06-08T08:59:01.000Z","2025-06-08T08:59:02.000Z","2025-06-08T08:59:03.000Z","2025-06-08T08:59:04.000Z","2025-06-08T08:59:05.000Z","2025-06-08T08:59:06.000Z","2025-06-08T08:59:07.000Z","2025-06-08T08:59:08.000Z","2025-06-08T08:59:09.000Z","2025-06-08T08:59:10.000Z","2025-06-08T08:59:11.000Z","2025-06-08T08:59:13.000Z","2025-06-08T08:59:17.000Z","2025-06-08T08:59:19.000Z","2025-06-08T08:59:21.000Z","2025-06-08T08:59:22.000Z","2025-06-08T08:59:23.000Z","2025-06-08T08:59:25.000Z","2025-06-08T08:59:26.000Z","2025-06-08T08:59:28.000Z","2025-06-08T08:59:30.000Z","2025-06-08T08:59:31.000Z","2025-06-08T08:59:33.000Z","2025-06-08T08:59:34.000Z","2025-06-08T08:59:37.000Z","2025-06-08T08:59:39.000Z","2025-06-08T08:59:40.000Z","2025-06-08T08:59:41.000Z","2025-06-08T08:59:43.000Z","2025-06-08T08:59:44.000Z","2025-06-08T08:59:45.000Z","2025-06-08T08:59:46.000Z","2025-06-08T08:59:47.000Z","2025-06-08T08:59:48.000Z","2025-06-08T08:59:49.000Z","2025-06-08T08:59:50.000Z","2025-06-08T08:59:51.000Z","2025-06-08T08:59:52.000Z","2025-06-08T08:59:53.000Z","2025-06-08T08:59:55.000Z","2025-06-08T08:59:56.000Z","2025-06-08T08:59:57.000Z","2025-06-08T08:59:59.000Z","2025-06-08T09:00:00.000Z","2025-06-08T09:00:03.000Z","2025-06-08T09:00:04.000Z","2025-06-08T09:00:05.000Z","2025-06-08T09:00:06.000Z","2025-06-08T09:00:08.000Z","2025-06-08T09:00:09.000Z","2025-06-08T09:00:10.000Z","2025-06-08T09:00:11.000Z","2025-06-08T09:00:13.000Z","2025-06-08T09:00:14.000Z","2025-06-08T09:00:15.000Z","2025-06-08T09:00:16.000Z","2025-06-08T09:00:17.000Z","2025-06-08T09:00:21.000Z","2025-06-08T09:00:22.000Z","2025-06-08T09:00:49.000Z","2025-06-08T09:00:52.000Z","2025-06-08T09:00:53.000Z","2025-06-08T09:00:55.000Z","2025-06-08T09:00:57.000Z","2025-06-08T09:01:00.000Z","2025-06-08T09:01:02.000Z","2025-06-08T09:01:03.000Z","2025-06-08T09:01:06.000Z","2025-06-08T09:01:07.000Z","2025-06-08T09:01:08.000Z","2025-06-08T09:01:09.000Z","2025-06-08T09:01:12.000Z","2025-06-08T09:01:19.000Z","2025-06-08T09:01:20.000Z","2025-06-08T09:01:21.000Z","2025-06-08T09:01:26.000Z","2025-06-08T09:01:27.000Z","2025-06-08T09:01:28.000Z","2025-06-08T09:01:29.000Z","2025-06-08T09:01:32.000Z","2025-06-08T09:01:34.000Z","2025-06-08T09:01:36.000Z","2025-06-08T09:01:40.000Z","2025-06-08T09:01:41.000Z","2025-06-08T09:01:42.000Z","2025-06-08T09:01:43.000Z","2025-06-08T09:01:44.000Z","2025-06-08T09:01:45.000Z","2025-06-08T09:01:46.000Z","2025-06-08T09:01:48.000Z","2025-06-08T09:01:49.000Z","2025-06-08T09:01:51.000Z","2025-06-08T09:01:54.000Z","2025-06-08T09:01:56.000Z","2025-06-08T09:01:57.000Z","2025-06-08T09:01:59.000Z","2025-06-08T09:02:00.000Z","2025-06-08T09:02:01.000Z","2025-06-08T09:02:02.000Z","2025-06-08T09:02:05.000Z","2025-06-08T09:02:06.000Z","2025-06-08T09:02:07.000Z","2025-06-08T09:02:08.000Z","2025-06-08T09:02:09.000Z","2025-06-08T09:02:10.000Z","2025-06-08T09:02:11.000Z","2025-06-08T09:02:12.000Z","2025-06-08T09:02:13.000Z","2025-06-08T09:02:14.000Z","2025-06-08T09:02:16.000Z","2025-06-08T09:02:18.000Z","2025-06-08T09:02:20.000Z","2025-06-08T09:02:24.000Z","2025-06-08T09:02:25.000Z","2025-06-08T09:02:27.000Z","2025-06-08T09:02:28.000Z","2025-06-08T09:02:29.000Z","2025-06-08T09:02:30.000Z","2025-06-08T09:02:34.000Z","2025-06-08T09:02:35.000Z","2025-06-08T09:02:36.000Z","2025-06-08T09:02:38.000Z","2025-06-08T09:02:39.000Z","2025-06-08T09:02:40.000Z","2025-06-08T09:02:42.000Z","2025-06-08T09:02:44.000Z","2025-06-08T09:02:45.000Z","2025-06-08T09:02:47.000Z","2025-06-08T09:02:49.000Z","2025-06-08T09:02:50.000Z","2025-06-08T09:02:52.000Z","2025-06-08T09:02:55.000Z","2025-06-08T09:02:56.000Z","2025-06-08T09:02:57.000Z","2025-06-08T09:02:59.000Z","2025-06-08T09:03:00.000Z","2025-06-08T09:03:01.000Z","2025-06-08T09:03:02.000Z","2025-06-08T09:03:04.000Z","2025-06-08T09:03:05.000Z","2025-06-08T09:03:06.000Z","2025-06-08T09:03:11.000Z","2025-06-08T09:05:14.000Z","2025-06-08T09:05:21.000Z","2025-06-08T09:05:22.000Z","2025-06-08T09:05:24.000Z","2025-06-08T09:05:27.000Z","2025-06-08T09:05:29.000Z","2025-06-08T09:05:33.000Z","2025-06-08T09:05:34.000Z","2025-06-08T09:05:35.000Z","2025-06-08T09:05:36.000Z","2025-06-08T09:05:38.000Z","2025-06-08T09:05:40.000Z","2025-06-08T09:05:41.000Z","2025-06-08T09:05:42.000Z","2025-06-08T09:05:43.000Z","2025-06-08T09:05:44.000Z","2025-06-08T09:05:46.000Z","2025-06-08T09:05:48.000Z","2025-06-08T09:05:50.000Z","2025-06-08T09:05:51.000Z","2025-06-08T09:05:53.000Z","2025-06-08T09:05:54.000Z","2025-06-08T09:05:57.000Z","2025-06-08T09:05:58.000Z","2025-06-08T09:05:59.000Z","2025-06-08T09:06:01.000Z","2025-06-08T09:06:04.000Z","2025-06-08T09:06:06.000Z","2025-06-08T09:06:07.000Z","2025-06-08T09:06:08.000Z","2025-06-08T09:06:10.000Z","2025-06-08T09:06:11.000Z","2025-06-08T09:06:12.000Z","2025-06-08T09:06:15.000Z","2025-06-08T09:06:16.000Z","2025-06-08T09:06:17.000Z","2025-06-08T09:06:18.000Z","2025-06-08T09:06:20.000Z","2025-06-08T09:06:21.000Z","2025-06-08T09:06:22.000Z","2025-06-08T09:06:23.000Z","2025-06-08T09:06:24.000Z","2025-06-08T09:06:28.000Z","2025-06-08T09:06:30.000Z","2025-06-08T09:06:32.000Z","2025-06-08T09:06:35.000Z","2025-06-08T09:06:37.000Z","2025-06-08T09:06:38.000Z","2025-06-08T09:06:40.000Z","2025-06-08T09:06:41.000Z","2025-06-08T09:06:43.000Z","2025-06-08T09:06:44.000Z","2025-06-08T09:06:46.000Z","2025-06-08T09:06:47.000Z","2025-06-08T09:06:49.000Z","2025-06-08T09:06:50.000Z","2025-06-08T09:06:52.000Z","2025-06-08T09:06:54.000Z","2025-06-08T09:06:57.000Z","2025-06-08T09:06:58.000Z","2025-06-08T09:07:01.000Z","2025-06-08T09:07:02.000Z","2025-06-08T09:07:03.000Z","2025-06-08T09:07:04.000Z","2025-06-08T09:07:06.000Z","2025-06-08T09:07:09.000Z","2025-06-08T09:07:11.000Z","2025-06-08T09:07:13.000Z","2025-06-08T09:07:15.000Z","2025-06-08T09:07:16.000Z","2025-06-08T09:07:19.000Z","2025-06-08T09:07:22.000Z","2025-06-08T09:07:24.000Z","2025-06-08T09:07:26.000Z","2025-06-08T09:07:28.000Z","2025-06-08T09:07:29.000Z","2025-06-08T09:07:31.000Z","2025-06-08T09:07:34.000Z","2025-06-08T09:07:36.000Z","2025-06-08T09:07:37.000Z","2025-06-08T09:07:39.000Z","2025-06-08T09:09:00.000Z","2025-06-08T09:09:01.000Z","2025-06-08T09:09:27.000Z","2025-06-08T09:09:30.000Z","2025-06-08T09:10:15.000Z","2025-06-08T09:11:50.000Z","2025-06-08T09:11:53.000Z","2025-06-08T09:28:31.000Z","2025-06-08T09:28:36.000Z","2025-06-08T09:28:38.000Z","2025-06-08T09:29:00.000Z","2025-06-08T09:29:03.000Z","2025-06-08T09:42:38.000Z","2025-06-08T09:43:23.000Z","2025-06-08T09:43:24.000Z","2025-06-08T09:43:25.000Z","2025-06-08T09:43:27.000Z","2025-06-08T09:43:29.000Z","2025-06-08T09:43:31.000Z","2025-06-08T09:45:26.000Z","2025-06-08T09:46:25.000Z","2025-06-08T09:46:27.000Z","2025-06-08T09:46:30.000Z","2025-06-08T09:47:13.000Z","2025-06-08T09:47:18.000Z","2025-06-08T09:47:19.000Z","2025-06-08T09:47:20.000Z","2025-06-08T09:47:22.000Z","2025-06-08T09:47:24.000Z","2025-06-08T09:47:25.000Z","2025-06-08T09:47:26.000Z","2025-06-08T09:47:27.000Z","2025-06-08T09:47:28.000Z","2025-06-08T09:47:31.000Z","2025-06-08T09:47:39.000Z","2025-06-08T09:47:40.000Z","2025-06-08T09:47:41.000Z","2025-06-08T09:47:42.000Z","2025-06-08T10:09:58.000Z","2025-06-08T10:10:30.000Z","2025-06-08T10:10:31.000Z","2025-06-08T10:12:15.000Z","2025-06-08T10:12:16.000Z","2025-06-08T10:12:21.000Z","2025-06-08T10:12:22.000Z","2025-06-08T10:12:23.000Z","2025-06-08T10:12:27.000Z","2025-06-08T10:12:28.000Z","2025-06-08T10:12:30.000Z","2025-06-08T10:12:31.000Z","2025-06-08T10:12:32.000Z","2025-06-08T10:12:38.000Z","2025-06-08T10:12:39.000Z","2025-06-08T10:12:41.000Z","2025-06-08T10:12:43.000Z","2025-06-08T10:12:44.000Z","2025-06-08T10:12:45.000Z","2025-06-08T10:12:48.000Z","2025-06-08T10:12:49.000Z","2025-06-08T10:12:50.000Z","2025-06-08T10:12:51.000Z","2025-06-08T10:12:52.000Z","2025-06-08T10:12:53.000Z","2025-06-08T10:12:54.000Z","2025-06-08T10:13:01.000Z","2025-06-08T10:13:11.000Z","2025-06-08T10:20:30.000Z","2025-06-08T10:20:34.000Z","2025-06-08T10:20:35.000Z","2025-06-08T10:20:37.000Z","2025-06-08T10:20:38.000Z","2025-06-08T10:20:39.000Z","2025-06-08T10:20:40.000Z","2025-06-08T10:20:41.000Z","2025-06-08T10:20:43.000Z","2025-06-08T10:20:46.000Z","2025-06-08T10:20:48.000Z","2025-06-08T10:20:50.000Z","2025-06-08T10:20:51.000Z","2025-06-08T10:20:52.000Z","2025-06-08T10:20:53.000Z","2025-06-08T10:20:56.000Z","2025-06-08T10:21:47.000Z","2025-06-08T10:21:52.000Z","2025-06-08T10:21:55.000Z","2025-06-08T10:21:56.000Z","2025-06-08T10:21:58.000Z","2025-06-08T10:22:00.000Z","2025-06-08T10:22:02.000Z","2025-06-08T10:22:04.000Z","2025-06-08T10:22:07.000Z","2025-06-08T10:22:09.000Z","2025-06-08T10:22:11.000Z","2025-06-08T10:22:16.000Z","2025-06-08T10:22:18.000Z","2025-06-08T10:22:19.000Z","2025-06-08T10:22:22.000Z","2025-06-08T10:22:24.000Z","2025-06-08T10:22:26.000Z","2025-06-08T10:22:28.000Z","2025-06-08T10:22:30.000Z","2025-06-08T10:22:31.000Z","2025-06-08T10:22:32.000Z","2025-06-08T10:22:33.000Z","2025-06-08T10:22:45.000Z","2025-06-08T10:22:47.000Z","2025-06-08T10:22:50.000Z","2025-06-08T10:23:11.000Z","2025-06-08T10:23:43.000Z","2025-06-08T10:23:45.000Z","2025-06-08T10:23:48.000Z","2025-06-08T10:23:50.000Z","2025-06-08T10:23:51.000Z","2025-06-08T10:23:52.000Z","2025-06-08T10:23:53.000Z","2025-06-08T10:23:56.000Z","2025-06-08T10:23:59.000Z","2025-06-08T10:24:03.000Z","2025-06-08T10:24:06.000Z","2025-06-08T10:24:07.000Z","2025-06-08T10:24:09.000Z","2025-06-08T10:24:10.000Z","2025-06-08T10:24:12.000Z","2025-06-08T10:24:15.000Z","2025-06-08T10:24:17.000Z","2025-06-08T10:24:19.000Z","2025-06-08T10:24:20.000Z","2025-06-08T10:24:21.000Z","2025-06-08T10:24:22.000Z","2025-06-08T10:24:23.000Z","2025-06-08T10:24:24.000Z","2025-06-08T10:24:25.000Z","2025-06-08T10:24:27.000Z","2025-06-08T10:24:29.000Z","2025-06-08T10:24:32.000Z","2025-06-08T10:24:35.000Z","2025-06-08T10:24:39.000Z","2025-06-08T10:24:42.000Z","2025-06-08T10:24:46.000Z","2025-06-08T10:24:47.000Z","2025-06-08T10:24:49.000Z","2025-06-08T10:24:52.000Z","2025-06-08T10:24:53.000Z","2025-06-08T10:24:54.000Z","2025-06-08T10:24:57.000Z","2025-06-08T10:24:59.000Z","2025-06-08T10:25:01.000Z","2025-06-08T10:25:02.000Z","2025-06-08T10:25:04.000Z","2025-06-08T10:25:05.000Z","2025-06-08T10:25:08.000Z","2025-06-08T10:25:09.000Z","2025-06-08T10:25:11.000Z","2025-06-08T10:25:19.000Z","2025-06-08T10:25:20.000Z","2025-06-08T10:25:21.000Z","2025-06-08T10:25:25.000Z","2025-06-08T10:25:27.000Z","2025-06-08T10:25:28.000Z","2025-06-08T10:25:29.000Z","2025-06-08T10:25:30.000Z","2025-06-08T10:25:32.000Z","2025-06-08T10:25:35.000Z","2025-06-08T10:25:36.000Z","2025-06-08T10:25:37.000Z","2025-06-08T10:25:40.000Z","2025-06-08T10:25:41.000Z","2025-06-08T10:25:43.000Z","2025-06-08T10:25:44.000Z","2025-06-08T10:25:45.000Z","2025-06-08T10:25:46.000Z","2025-06-08T10:25:49.000Z","2025-06-08T10:25:50.000Z","2025-06-08T10:25:51.000Z","2025-06-08T10:25:55.000Z","2025-06-08T10:25:57.000Z","2025-06-08T10:25:58.000Z","2025-06-08T10:26:01.000Z","2025-06-08T10:26:02.000Z","2025-06-08T10:26:04.000Z","2025-06-08T10:26:05.000Z","2025-06-08T10:26:09.000Z","2025-06-08T10:26:11.000Z","2025-06-08T10:26:14.000Z","2025-06-08T10:26:15.000Z","2025-06-08T10:26:16.000Z","2025-06-08T10:26:21.000Z","2025-06-08T10:26:23.000Z","2025-06-08T10:26:24.000Z","2025-06-08T10:26:26.000Z","2025-06-08T10:26:27.000Z","2025-06-08T10:26:28.000Z","2025-06-08T10:26:30.000Z","2025-06-08T10:26:34.000Z","2025-06-08T10:26:36.000Z","2025-06-08T10:26:38.000Z","2025-06-08T10:26:40.000Z","2025-06-08T10:26:41.000Z","2025-06-08T10:26:43.000Z","2025-06-08T10:26:46.000Z","2025-06-08T10:26:48.000Z","2025-06-08T10:35:45.000Z","2025-06-08T10:35:49.000Z","2025-06-08T10:35:51.000Z","2025-06-08T10:35:52.000Z","2025-06-08T10:35:59.000Z","2025-06-08T10:36:00.000Z","2025-06-08T10:36:14.000Z","2025-06-08T10:36:15.000Z","2025-06-08T10:36:17.000Z","2025-06-08T10:36:18.000Z","2025-06-08T10:36:19.000Z","2025-06-08T10:36:21.000Z","2025-06-08T10:36:23.000Z","2025-06-08T10:36:25.000Z","2025-06-08T10:36:29.000Z","2025-06-08T10:36:34.000Z","2025-06-08T10:36:36.000Z","2025-06-08T10:36:37.000Z","2025-06-08T10:36:40.000Z","2025-06-08T10:36:41.000Z","2025-06-08T10:36:42.000Z","2025-06-08T10:36:43.000Z","2025-06-08T10:36:45.000Z","2025-06-08T10:36:48.000Z","2025-06-08T10:36:49.000Z","2025-06-08T10:36:51.000Z","2025-06-08T10:36:53.000Z","2025-06-08T10:36:54.000Z","2025-06-08T10:36:56.000Z","2025-06-08T10:36:58.000Z","2025-06-08T10:36:59.000Z","2025-06-08T10:37:01.000Z","2025-06-08T10:37:02.000Z","2025-06-08T10:37:06.000Z","2025-06-08T10:38:53.000Z","2025-06-08T10:38:57.000Z","2025-06-08T10:43:11.000Z","2025-06-08T10:43:20.000Z","2025-06-08T10:43:21.000Z","2025-06-08T10:43:22.000Z","2025-06-08T10:43:25.000Z","2025-06-08T10:43:26.000Z","2025-06-08T10:43:28.000Z","2025-06-08T10:43:30.000Z","2025-06-08T10:43:32.000Z","2025-06-08T10:43:34.000Z","2025-06-08T10:43:35.000Z","2025-06-08T10:43:37.000Z","2025-06-08T10:43:38.000Z","2025-06-08T10:43:39.000Z","2025-06-08T10:43:42.000Z","2025-06-08T10:43:47.000Z","2025-06-08T10:43:49.000Z","2025-06-08T10:43:51.000Z","2025-06-08T10:43:54.000Z","2025-06-08T10:43:55.000Z","2025-06-08T10:43:59.000Z","2025-06-08T10:44:00.000Z","2025-06-08T10:44:03.000Z","2025-06-08T10:44:04.000Z","2025-06-08T10:44:05.000Z","2025-06-08T10:44:07.000Z","2025-06-08T10:44:08.000Z","2025-06-08T10:44:11.000Z","2025-06-08T10:44:13.000Z","2025-06-08T10:44:14.000Z","2025-06-08T10:44:17.000Z","2025-06-08T10:44:20.000Z","2025-06-08T10:44:21.000Z","2025-06-08T10:44:22.000Z","2025-06-08T10:44:23.000Z","2025-06-08T10:44:26.000Z","2025-06-08T10:44:28.000Z","2025-06-08T10:44:29.000Z","2025-06-08T10:44:30.000Z","2025-06-08T10:44:33.000Z","2025-06-08T10:44:34.000Z","2025-06-08T10:44:35.000Z","2025-06-08T10:44:37.000Z","2025-06-08T10:44:39.000Z","2025-06-08T10:44:40.000Z","2025-06-08T10:44:44.000Z","2025-06-08T10:44:45.000Z","2025-06-08T10:44:46.000Z","2025-06-08T10:44:47.000Z","2025-06-08T10:44:49.000Z","2025-06-08T10:44:51.000Z","2025-06-08T10:44:54.000Z","2025-06-08T10:44:55.000Z","2025-06-08T10:50:27.000Z","2025-06-08T10:51:14.000Z","2025-06-08T10:51:15.000Z","2025-06-08T10:51:16.000Z","2025-06-08T10:51:17.000Z","2025-06-08T10:54:08.000Z","2025-06-08T10:54:10.000Z","2025-06-08T10:54:11.000Z","2025-06-08T10:54:13.000Z","2025-06-08T10:54:16.000Z","2025-06-08T10:54:17.000Z","2025-06-08T10:54:19.000Z","2025-06-08T10:55:01.000Z","2025-06-08T10:55:03.000Z","2025-06-08T10:55:06.000Z","2025-06-08T10:55:09.000Z","2025-06-08T10:55:11.000Z","2025-06-08T10:55:13.000Z","2025-06-08T10:55:14.000Z","2025-06-08T10:55:15.000Z","2025-06-08T10:55:16.000Z","2025-06-08T10:55:17.000Z","2025-06-08T10:56:32.000Z","2025-06-08T10:56:35.000Z","2025-06-08T10:56:36.000Z","2025-06-08T10:56:38.000Z","2025-06-08T10:56:39.000Z","2025-06-08T10:56:41.000Z","2025-06-08T10:56:43.000Z","2025-06-08T10:56:44.000Z","2025-06-08T10:56:47.000Z","2025-06-08T10:56:48.000Z","2025-06-08T10:56:50.000Z","2025-06-08T10:56:52.000Z","2025-06-08T10:56:53.000Z","2025-06-08T10:56:54.000Z","2025-06-08T10:57:03.000Z","2025-06-08T11:02:15.000Z","2025-06-08T11:02:16.000Z","2025-06-08T11:02:17.000Z","2025-06-08T11:02:20.000Z","2025-06-08T11:02:21.000Z","2025-06-08T11:02:22.000Z","2025-06-08T11:02:24.000Z","2025-06-08T11:02:25.000Z","2025-06-08T11:02:26.000Z","2025-06-08T11:02:30.000Z","2025-06-08T11:02:32.000Z","2025-06-08T11:02:33.000Z","2025-06-08T11:02:34.000Z","2025-06-08T11:02:36.000Z","2025-06-08T11:02:39.000Z","2025-06-08T11:02:40.000Z","2025-06-08T11:02:45.000Z","2025-06-08T11:02:49.000Z","2025-06-08T11:02:54.000Z","2025-06-08T11:02:55.000Z","2025-06-08T11:02:56.000Z","2025-06-08T11:03:00.000Z","2025-06-08T11:03:04.000Z","2025-06-08T11:03:06.000Z","2025-06-08T11:03:08.000Z","2025-06-08T11:03:10.000Z","2025-06-08T11:03:11.000Z","2025-06-08T11:03:12.000Z","2025-06-08T11:03:16.000Z","2025-06-08T11:03:18.000Z","2025-06-08T11:03:19.000Z","2025-06-08T11:03:20.000Z","2025-06-08T11:03:21.000Z","2025-06-08T11:03:24.000Z","2025-06-08T11:03:25.000Z","2025-06-08T11:03:26.000Z","2025-06-08T11:03:28.000Z","2025-06-08T11:03:30.000Z","2025-06-08T11:03:31.000Z","2025-06-08T11:03:32.000Z","2025-06-08T11:03:35.000Z","2025-06-08T11:03:36.000Z","2025-06-08T11:03:38.000Z","2025-06-08T11:03:41.000Z","2025-06-08T11:03:43.000Z","2025-06-08T11:03:45.000Z","2025-06-08T11:03:46.000Z","2025-06-08T11:03:47.000Z","2025-06-08T11:03:50.000Z","2025-06-08T11:03:56.000Z","2025-06-08T11:04:01.000Z","2025-06-08T11:04:03.000Z","2025-06-08T11:04:05.000Z","2025-06-08T11:04:08.000Z","2025-06-08T11:04:11.000Z","2025-06-08T11:04:12.000Z","2025-06-08T11:04:13.000Z","2025-06-08T11:04:14.000Z","2025-06-08T11:04:16.000Z","2025-06-08T11:04:17.000Z","2025-06-08T11:04:19.000Z","2025-06-08T11:04:40.000Z","2025-06-08T11:04:42.000Z","2025-06-08T11:04:43.000Z","2025-06-08T11:04:44.000Z","2025-06-08T11:04:45.000Z","2025-06-08T11:04:46.000Z","2025-06-08T11:04:47.000Z","2025-06-08T11:04:48.000Z","2025-06-08T11:04:49.000Z","2025-06-08T11:04:50.000Z","2025-06-08T11:04:51.000Z","2025-06-08T11:04:52.000Z","2025-06-08T11:04:53.000Z","2025-06-08T11:04:54.000Z","2025-06-08T11:04:55.000Z","2025-06-08T11:04:56.000Z","2025-06-08T11:04:57.000Z","2025-06-08T11:04:59.000Z","2025-06-08T11:05:00.000Z","2025-06-08T11:05:01.000Z","2025-06-08T11:05:02.000Z","2025-06-08T11:05:03.000Z","2025-06-08T11:05:04.000Z","2025-06-08T11:05:05.000Z","2025-06-08T11:06:18.000Z","2025-06-08T11:06:20.000Z","2025-06-08T11:06:21.000Z","2025-06-08T11:06:28.000Z","2025-06-08T11:07:44.000Z","2025-06-08T11:07:46.000Z","2025-06-08T11:07:47.000Z","2025-06-08T11:07:48.000Z","2025-06-08T11:07:49.000Z","2025-06-08T11:07:51.000Z","2025-06-08T11:08:11.000Z","2025-06-08T11:08:12.000Z","2025-06-08T11:08:14.000Z","2025-06-08T11:08:17.000Z","2025-06-08T11:08:21.000Z","2025-06-08T11:08:22.000Z","2025-06-08T11:08:38.000Z","2025-06-08T11:08:48.000Z","2025-06-08T11:08:49.000Z","2025-06-08T11:08:57.000Z","2025-06-08T11:08:59.000Z","2025-06-08T11:09:05.000Z","2025-06-08T11:09:06.000Z","2025-06-08T11:09:08.000Z","2025-06-08T11:09:13.000Z","2025-06-08T11:09:14.000Z","2025-06-08T11:09:15.000Z","2025-06-08T11:09:16.000Z","2025-06-08T11:09:17.000Z","2025-06-08T11:09:18.000Z","2025-06-08T11:09:31.000Z","2025-06-08T11:09:36.000Z","2025-06-08T11:09:52.000Z","2025-06-08T11:09:54.000Z","2025-06-08T11:09:58.000Z","2025-06-08T11:09:59.000Z","2025-06-08T11:10:00.000Z","2025-06-08T11:10:01.000Z","2025-06-08T11:10:03.000Z","2025-06-08T11:10:07.000Z","2025-06-08T11:10:08.000Z","2025-06-08T11:10:09.000Z","2025-06-08T11:10:10.000Z","2025-06-08T11:10:20.000Z","2025-06-08T11:10:21.000Z","2025-06-08T11:10:25.000Z","2025-06-08T11:10:26.000Z","2025-06-08T11:10:27.000Z","2025-06-08T11:10:32.000Z","2025-06-08T11:10:33.000Z","2025-06-08T11:10:35.000Z","2025-06-08T11:10:39.000Z","2025-06-08T11:10:40.000Z","2025-06-08T11:10:41.000Z","2025-06-08T11:10:42.000Z","2025-06-08T11:10:43.000Z","2025-06-08T11:10:45.000Z","2025-06-08T11:10:46.000Z","2025-06-08T11:10:49.000Z","2025-06-08T11:10:50.000Z","2025-06-08T11:10:51.000Z","2025-06-08T11:10:52.000Z","2025-06-08T11:11:03.000Z","2025-06-08T11:11:06.000Z","2025-06-08T11:11:08.000Z","2025-06-08T11:11:09.000Z","2025-06-08T11:11:29.000Z","2025-06-08T11:12:00.000Z","2025-06-08T11:12:43.000Z","2025-06-08T11:12:47.000Z","2025-06-08T11:13:00.000Z","2025-06-08T11:13:01.000Z","2025-06-08T11:13:02.000Z","2025-06-08T11:13:05.000Z","2025-06-08T11:13:08.000Z","2025-06-08T11:13:15.000Z","2025-06-08T11:13:33.000Z","2025-06-08T11:13:36.000Z","2025-06-08T11:13:37.000Z","2025-06-08T11:13:40.000Z","2025-06-08T11:13:46.000Z","2025-06-08T11:13:56.000Z","2025-06-08T11:14:00.000Z","2025-06-08T11:14:01.000Z","2025-06-08T11:14:02.000Z","2025-06-08T11:14:03.000Z","2025-06-08T11:14:04.000Z","2025-06-08T11:14:05.000Z","2025-06-08T11:14:20.000Z","2025-06-08T11:14:23.000Z","2025-06-08T11:14:26.000Z","2025-06-08T11:14:27.000Z","2025-06-08T11:15:43.000Z","2025-06-08T11:15:44.000Z","2025-06-08T11:15:46.000Z","2025-06-08T11:15:47.000Z","2025-06-08T11:15:48.000Z","2025-06-08T11:16:13.000Z","2025-06-08T11:16:24.000Z","2025-06-08T11:16:26.000Z","2025-06-08T11:16:27.000Z","2025-06-08T11:16:28.000Z","2025-06-08T11:16:30.000Z","2025-06-08T11:16:32.000Z","2025-06-08T11:16:34.000Z","2025-06-08T11:16:35.000Z","2025-06-08T11:16:38.000Z","2025-06-08T11:16:42.000Z","2025-06-08T11:16:45.000Z","2025-06-08T11:16:46.000Z","2025-06-08T11:16:47.000Z","2025-06-08T11:16:50.000Z","2025-06-08T11:16:51.000Z","2025-06-08T11:16:55.000Z","2025-06-08T11:16:56.000Z","2025-06-08T11:16:57.000Z","2025-06-08T11:16:58.000Z","2025-06-08T11:16:59.000Z","2025-06-08T11:17:02.000Z","2025-06-08T11:20:54.000Z","2025-06-08T11:26:57.000Z","2025-06-08T11:26:58.000Z","2025-06-08T11:27:07.000Z","2025-06-08T11:35:47.000Z","2025-06-08T11:35:52.000Z","2025-06-08T11:36:04.000Z","2025-06-08T11:36:31.000Z","2025-06-08T11:36:32.000Z","2025-06-08T11:36:34.000Z","2025-06-08T11:36:36.000Z","2025-06-08T11:36:38.000Z","2025-06-08T11:36:42.000Z","2025-06-08T11:36:47.000Z","2025-06-08T11:36:50.000Z","2025-06-08T11:36:54.000Z","2025-06-08T11:37:03.000Z","2025-06-08T11:37:05.000Z","2025-06-08T11:37:07.000Z","2025-06-08T11:37:08.000Z","2025-06-08T11:37:10.000Z","2025-06-08T11:37:12.000Z","2025-06-08T11:37:13.000Z","2025-06-08T11:37:15.000Z","2025-06-08T11:37:16.000Z","2025-06-08T11:37:17.000Z","2025-06-08T11:37:18.000Z","2025-06-08T11:37:26.000Z","2025-06-08T11:37:27.000Z","2025-06-08T11:37:28.000Z","2025-06-08T11:37:33.000Z","2025-06-08T11:37:35.000Z","2025-06-08T11:38:03.000Z","2025-06-08T11:38:16.000Z","2025-06-08T11:38:19.000Z","2025-06-08T11:38:35.000Z","2025-06-08T11:38:37.000Z","2025-06-08T11:38:51.000Z","2025-06-08T11:38:52.000Z","2025-06-08T11:39:15.000Z","2025-06-08T11:39:20.000Z","2025-06-08T11:39:23.000Z","2025-06-08T11:39:30.000Z","2025-06-08T11:39:32.000Z","2025-06-08T11:39:33.000Z","2025-06-08T11:40:05.000Z","2025-06-08T11:40:06.000Z","2025-06-08T11:40:07.000Z","2025-06-08T11:40:37.000Z","2025-06-08T11:40:40.000Z","2025-06-08T11:40:42.000Z","2025-06-08T11:40:44.000Z","2025-06-08T11:40:47.000Z","2025-06-08T11:40:48.000Z","2025-06-08T11:40:49.000Z","2025-06-08T11:40:51.000Z","2025-06-08T11:40:54.000Z","2025-06-08T11:40:56.000Z","2025-06-08T11:40:57.000Z","2025-06-08T11:40:59.000Z","2025-06-08T11:41:00.000Z","2025-06-08T11:41:01.000Z","2025-06-08T11:41:03.000Z","2025-06-08T11:41:06.000Z","2025-06-08T11:41:07.000Z","2025-06-08T11:41:08.000Z","2025-06-08T11:41:09.000Z","2025-06-08T11:41:11.000Z","2025-06-08T11:41:12.000Z","2025-06-08T11:41:13.000Z","2025-06-08T11:41:14.000Z","2025-06-08T11:41:15.000Z","2025-06-08T11:41:18.000Z","2025-06-08T11:41:19.000Z","2025-06-08T11:41:20.000Z","2025-06-08T11:41:21.000Z","2025-06-08T11:41:22.000Z","2025-06-08T11:41:23.000Z","2025-06-08T11:41:24.000Z","2025-06-08T11:41:25.000Z","2025-06-08T11:41:26.000Z","2025-06-08T11:41:27.000Z","2025-06-08T11:41:29.000Z","2025-06-08T11:41:55.000Z","2025-06-08T11:42:03.000Z","2025-06-08T11:42:04.000Z","2025-06-08T11:42:05.000Z","2025-06-08T11:42:06.000Z","2025-06-08T11:42:09.000Z","2025-06-08T11:42:10.000Z","2025-06-08T11:42:12.000Z","2025-06-08T11:42:13.000Z","2025-06-08T11:42:18.000Z","2025-06-08T11:42:19.000Z","2025-06-08T11:42:20.000Z","2025-06-08T11:42:21.000Z","2025-06-08T11:42:24.000Z","2025-06-08T11:42:27.000Z","2025-06-08T11:42:29.000Z","2025-06-08T11:42:30.000Z","2025-06-08T11:42:31.000Z","2025-06-08T11:42:32.000Z","2025-06-08T11:43:03.000Z","2025-06-08T11:43:05.000Z","2025-06-08T11:43:09.000Z","2025-06-08T11:43:11.000Z","2025-06-08T11:43:12.000Z","2025-06-08T11:43:13.000Z","2025-06-08T11:43:14.000Z","2025-06-08T11:43:15.000Z","2025-06-08T11:43:17.000Z","2025-06-08T11:43:18.000Z","2025-06-08T11:43:19.000Z","2025-06-08T11:43:23.000Z","2025-06-08T11:43:25.000Z","2025-06-08T11:43:26.000Z","2025-06-08T11:43:27.000Z","2025-06-08T11:43:32.000Z","2025-06-08T11:43:36.000Z","2025-06-08T11:43:37.000Z","2025-06-08T11:43:41.000Z","2025-06-08T11:43:43.000Z","2025-06-08T11:43:55.000Z","2025-06-08T11:43:57.000Z","2025-06-08T11:44:01.000Z","2025-06-08T11:44:02.000Z","2025-06-08T11:44:03.000Z","2025-06-08T11:44:09.000Z","2025-06-08T11:44:25.000Z","2025-06-08T11:44:26.000Z","2025-06-08T11:44:28.000Z","2025-06-08T11:44:30.000Z","2025-06-08T11:44:31.000Z","2025-06-08T11:44:36.000Z","2025-06-08T11:44:47.000Z","2025-06-08T11:44:52.000Z","2025-06-08T11:44:53.000Z","2025-06-08T11:44:54.000Z","2025-06-08T13:31:31.000Z","2025-06-08T13:32:56.000Z","2025-06-08T13:32:57.000Z","2025-06-08T13:32:58.000Z","2025-06-08T13:32:59.000Z","2025-06-08T13:33:00.000Z","2025-06-08T13:33:02.000Z","2025-06-08T13:33:03.000Z","2025-06-08T13:33:04.000Z","2025-06-08T13:33:05.000Z","2025-06-08T13:33:08.000Z","2025-06-08T13:33:09.000Z","2025-06-08T13:33:11.000Z","2025-06-08T13:38:48.000Z","2025-06-08T13:45:36.000Z","2025-06-08T13:45:40.000Z","2025-06-08T13:45:47.000Z","2025-06-08T13:50:13.000Z","2025-06-08T13:51:09.000Z","2025-06-08T13:51:10.000Z","2025-06-08T13:51:11.000Z","2025-06-08T13:51:12.000Z","2025-06-08T13:51:13.000Z","2025-06-08T13:51:14.000Z","2025-06-08T13:51:15.000Z","2025-06-08T13:51:16.000Z","2025-06-08T13:51:17.000Z","2025-06-08T13:51:22.000Z","2025-06-08T13:51:24.000Z","2025-06-08T13:51:28.000Z","2025-06-08T13:51:29.000Z","2025-06-08T13:51:31.000Z","2025-06-08T13:51:33.000Z","2025-06-08T13:51:36.000Z","2025-06-08T13:51:37.000Z","2025-06-08T13:51:46.000Z","2025-06-08T13:51:48.000Z","2025-06-08T13:51:49.000Z","2025-06-08T13:51:50.000Z","2025-06-08T13:51:52.000Z","2025-06-08T13:51:53.000Z","2025-06-08T13:51:55.000Z","2025-06-08T13:51:56.000Z","2025-06-08T13:51:57.000Z","2025-06-08T13:51:58.000Z","2025-06-08T13:51:59.000Z","2025-06-08T13:52:00.000Z","2025-06-08T13:52:03.000Z","2025-06-08T13:52:04.000Z","2025-06-08T13:52:06.000Z","2025-06-08T13:52:09.000Z","2025-06-08T13:52:11.000Z","2025-06-08T13:52:13.000Z","2025-06-08T13:52:14.000Z","2025-06-08T13:52:15.000Z","2025-06-08T13:52:16.000Z","2025-06-08T13:52:17.000Z","2025-06-08T13:52:22.000Z","2025-06-08T13:52:25.000Z","2025-06-08T13:52:27.000Z","2025-06-08T13:52:28.000Z","2025-06-08T13:52:29.000Z","2025-06-08T13:52:30.000Z","2025-06-08T13:52:31.000Z","2025-06-08T13:52:34.000Z","2025-06-08T13:52:35.000Z","2025-06-08T13:52:37.000Z","2025-06-08T13:52:51.000Z","2025-06-08T13:53:05.000Z","2025-06-08T13:53:08.000Z","2025-06-08T13:53:09.000Z","2025-06-08T13:53:13.000Z","2025-06-08T13:53:16.000Z","2025-06-08T13:53:18.000Z","2025-06-08T13:53:20.000Z","2025-06-08T13:53:25.000Z","2025-06-08T13:53:27.000Z","2025-06-08T13:53:31.000Z","2025-06-08T13:53:33.000Z","2025-06-08T13:53:34.000Z","2025-06-08T13:53:39.000Z","2025-06-08T13:53:40.000Z","2025-06-08T13:53:41.000Z","2025-06-08T13:53:43.000Z","2025-06-08T13:53:45.000Z","2025-06-08T13:54:00.000Z","2025-06-08T13:54:02.000Z","2025-06-08T13:54:03.000Z","2025-06-08T13:54:04.000Z","2025-06-08T13:54:06.000Z","2025-06-08T13:54:07.000Z","2025-06-08T13:54:08.000Z","2025-06-08T13:54:11.000Z","2025-06-08T13:54:14.000Z","2025-06-08T13:54:17.000Z","2025-06-08T13:54:19.000Z","2025-06-08T13:54:21.000Z","2025-06-08T13:54:23.000Z","2025-06-08T13:54:24.000Z","2025-06-08T13:54:25.000Z","2025-06-08T13:54:26.000Z","2025-06-08T13:54:28.000Z","2025-06-08T13:54:30.000Z","2025-06-08T13:54:32.000Z","2025-06-08T13:54:33.000Z","2025-06-08T13:54:34.000Z","2025-06-08T13:54:35.000Z","2025-06-08T13:54:36.000Z","2025-06-08T13:54:38.000Z","2025-06-08T13:54:39.000Z","2025-06-08T13:54:42.000Z","2025-06-08T13:54:43.000Z","2025-06-08T13:54:45.000Z","2025-06-08T13:54:46.000Z","2025-06-08T13:54:47.000Z","2025-06-08T13:54:49.000Z","2025-06-08T13:54:50.000Z","2025-06-08T13:54:51.000Z","2025-06-08T13:54:52.000Z","2025-06-08T13:54:53.000Z","2025-06-08T13:54:54.000Z","2025-06-08T13:54:56.000Z","2025-06-08T13:54:58.000Z","2025-06-08T13:55:00.000Z","2025-06-08T13:55:01.000Z","2025-06-08T13:55:02.000Z","2025-06-08T13:56:18.000Z","2025-06-08T13:56:19.000Z","2025-06-08T13:56:20.000Z","2025-06-08T13:56:21.000Z","2025-06-08T13:56:22.000Z","2025-06-08T13:56:23.000Z","2025-06-08T13:56:24.000Z","2025-06-08T13:56:26.000Z","2025-06-08T13:56:28.000Z","2025-06-08T13:56:31.000Z","2025-06-08T13:56:32.000Z","2025-06-08T13:56:33.000Z","2025-06-08T13:56:35.000Z","2025-06-08T13:56:36.000Z","2025-06-08T13:56:37.000Z","2025-06-08T13:56:39.000Z","2025-06-08T13:56:40.000Z","2025-06-08T13:56:41.000Z","2025-06-08T13:56:42.000Z","2025-06-08T13:56:43.000Z","2025-06-08T13:56:44.000Z","2025-06-08T13:56:45.000Z","2025-06-08T13:56:46.000Z","2025-06-08T13:56:47.000Z","2025-06-08T13:56:48.000Z","2025-06-08T13:56:49.000Z","2025-06-08T13:56:51.000Z","2025-06-08T13:56:52.000Z","2025-06-08T13:56:55.000Z","2025-06-08T13:56:56.000Z","2025-06-08T13:56:57.000Z","2025-06-08T13:56:58.000Z","2025-06-08T13:56:59.000Z","2025-06-08T13:57:00.000Z","2025-06-08T13:57:01.000Z","2025-06-08T13:57:04.000Z","2025-06-08T13:57:09.000Z","2025-06-08T13:57:11.000Z","2025-06-08T13:57:12.000Z","2025-06-08T13:57:13.000Z","2025-06-08T13:57:14.000Z","2025-06-08T13:57:15.000Z","2025-06-08T13:57:16.000Z","2025-06-08T13:57:20.000Z","2025-06-08T13:58:18.000Z","2025-06-08T13:59:06.000Z","2025-06-08T13:59:07.000Z","2025-06-08T13:59:29.000Z","2025-06-08T14:01:03.000Z","2025-06-08T14:01:05.000Z","2025-06-08T14:01:06.000Z","2025-06-08T14:01:08.000Z","2025-06-08T14:01:10.000Z","2025-06-08T14:01:11.000Z","2025-06-08T14:01:12.000Z","2025-06-08T14:01:13.000Z","2025-06-08T14:01:14.000Z","2025-06-08T14:01:15.000Z","2025-06-08T14:01:19.000Z","2025-06-08T14:01:20.000Z","2025-06-08T14:01:21.000Z","2025-06-08T14:01:22.000Z","2025-06-08T14:01:23.000Z","2025-06-08T14:01:25.000Z","2025-06-08T14:01:27.000Z","2025-06-08T14:01:28.000Z","2025-06-08T14:01:34.000Z","2025-06-08T14:01:36.000Z","2025-06-08T14:01:37.000Z","2025-06-08T14:01:38.000Z","2025-06-08T14:01:39.000Z","2025-06-08T14:01:41.000Z","2025-06-08T14:01:42.000Z","2025-06-08T14:01:43.000Z","2025-06-08T14:02:13.000Z","2025-06-08T14:02:14.000Z","2025-06-08T14:02:15.000Z","2025-06-08T14:02:16.000Z","2025-06-08T14:02:20.000Z","2025-06-08T14:02:22.000Z","2025-06-08T14:02:23.000Z","2025-06-08T14:02:24.000Z","2025-06-08T14:02:26.000Z","2025-06-08T14:02:28.000Z","2025-06-08T14:02:32.000Z","2025-06-08T14:02:33.000Z","2025-06-08T14:02:34.000Z","2025-06-08T14:02:35.000Z","2025-06-08T14:02:36.000Z","2025-06-08T14:02:41.000Z","2025-06-08T14:02:43.000Z","2025-06-08T14:02:44.000Z","2025-06-08T14:02:46.000Z","2025-06-08T14:02:48.000Z","2025-06-08T14:02:49.000Z","2025-06-08T14:02:50.000Z","2025-06-08T14:02:51.000Z","2025-06-08T14:02:52.000Z","2025-06-08T14:02:53.000Z","2025-06-08T14:02:54.000Z","2025-06-08T14:02:55.000Z","2025-06-08T14:02:56.000Z","2025-06-08T14:03:11.000Z","2025-06-08T14:12:06.000Z","2025-06-08T14:18:08.000Z","2025-06-08T14:18:09.000Z","2025-06-08T14:20:34.000Z","2025-06-08T14:20:35.000Z","2025-06-08T14:30:51.000Z","2025-06-08T14:34:43.000Z","2025-06-08T14:34:45.000Z","2025-06-08T14:34:46.000Z","2025-06-08T14:34:49.000Z","2025-06-08T14:34:51.000Z","2025-06-08T14:34:52.000Z","2025-06-08T14:34:54.000Z","2025-06-08T14:34:58.000Z","2025-06-08T14:35:00.000Z","2025-06-08T14:35:02.000Z","2025-06-08T14:35:03.000Z","2025-06-08T14:35:08.000Z","2025-06-08T14:35:09.000Z","2025-06-08T14:35:11.000Z","2025-06-08T14:35:14.000Z","2025-06-08T14:35:15.000Z","2025-06-08T14:35:16.000Z","2025-06-08T14:35:17.000Z","2025-06-08T14:35:20.000Z","2025-06-08T14:35:21.000Z","2025-06-08T14:35:22.000Z","2025-06-08T14:35:31.000Z","2025-06-08T14:45:11.000Z","2025-06-08T14:45:22.000Z","2025-06-08T14:45:24.000Z","2025-06-08T14:45:25.000Z","2025-06-08T14:50:37.000Z","2025-06-08T14:53:33.000Z","2025-06-08T14:53:39.000Z","2025-06-08T15:02:49.000Z","2025-06-08T15:02:54.000Z","2025-06-08T15:03:35.000Z","2025-06-08T15:03:38.000Z","2025-06-08T15:03:39.000Z","2025-06-08T15:03:40.000Z","2025-06-08T15:03:41.000Z","2025-06-08T15:03:45.000Z","2025-06-08T15:03:49.000Z","2025-06-08T15:03:50.000Z","2025-06-08T15:03:52.000Z","2025-06-08T15:03:54.000Z","2025-06-08T15:03:55.000Z","2025-06-08T15:03:56.000Z","2025-06-08T15:03:57.000Z","2025-06-08T15:03:58.000Z","2025-06-08T15:04:00.000Z","2025-06-08T15:04:04.000Z","2025-06-08T15:04:07.000Z","2025-06-08T15:04:08.000Z","2025-06-08T15:04:37.000Z","2025-06-08T15:09:41.000Z","2025-06-08T15:09:47.000Z","2025-06-08T15:09:48.000Z","2025-06-08T15:09:49.000Z","2025-06-08T15:09:52.000Z","2025-06-08T15:09:53.000Z","2025-06-08T15:09:54.000Z","2025-06-08T15:09:57.000Z","2025-06-08T15:09:59.000Z","2025-06-08T15:10:00.000Z","2025-06-08T15:10:06.000Z","2025-06-08T15:10:08.000Z","2025-06-08T15:10:18.000Z","2025-06-08T15:10:19.000Z","2025-06-08T15:10:22.000Z","2025-06-08T15:10:30.000Z","2025-06-08T15:10:33.000Z","2025-06-08T15:10:35.000Z","2025-06-08T15:10:36.000Z","2025-06-08T15:10:38.000Z","2025-06-08T15:10:46.000Z","2025-06-08T15:10:48.000Z","2025-06-08T15:10:58.000Z","2025-06-08T15:11:00.000Z","2025-06-08T15:11:02.000Z","2025-06-08T15:11:05.000Z","2025-06-08T15:11:10.000Z","2025-06-08T15:11:12.000Z","2025-06-08T15:11:13.000Z","2025-06-08T15:11:15.000Z","2025-06-08T15:11:17.000Z","2025-06-08T15:11:21.000Z","2025-06-08T15:11:22.000Z","2025-06-08T15:11:23.000Z","2025-06-08T15:11:25.000Z","2025-06-08T15:11:27.000Z","2025-06-08T15:11:29.000Z","2025-06-08T15:11:44.000Z","2025-06-08T15:11:54.000Z","2025-06-08T15:12:00.000Z","2025-06-08T15:12:01.000Z","2025-06-08T15:12:02.000Z","2025-06-08T15:12:04.000Z","2025-06-08T15:12:05.000Z","2025-06-08T15:12:15.000Z","2025-06-08T15:12:17.000Z","2025-06-08T15:12:19.000Z","2025-06-08T15:12:22.000Z","2025-06-08T15:12:26.000Z","2025-06-08T15:12:39.000Z","2025-06-08T15:12:42.000Z","2025-06-08T15:12:43.000Z","2025-06-08T15:13:05.000Z","2025-06-08T15:13:09.000Z","2025-06-08T15:13:12.000Z","2025-06-08T15:13:15.000Z","2025-06-08T15:13:19.000Z","2025-06-08T15:13:23.000Z","2025-06-08T15:13:24.000Z","2025-06-08T15:13:25.000Z","2025-06-08T15:13:26.000Z","2025-06-08T15:13:27.000Z","2025-06-08T15:13:29.000Z","2025-06-08T15:13:31.000Z","2025-06-08T15:13:32.000Z","2025-06-08T15:13:46.000Z","2025-06-08T15:13:53.000Z","2025-06-08T15:13:54.000Z","2025-06-08T15:14:00.000Z","2025-06-08T15:14:02.000Z","2025-06-08T15:14:03.000Z","2025-06-08T15:14:07.000Z","2025-06-08T15:14:08.000Z","2025-06-08T15:14:10.000Z","2025-06-08T15:14:13.000Z","2025-06-08T15:14:16.000Z","2025-06-08T15:14:19.000Z","2025-06-08T15:14:20.000Z","2025-06-08T15:14:22.000Z","2025-06-08T15:14:24.000Z","2025-06-08T15:14:28.000Z","2025-06-08T15:14:34.000Z","2025-06-08T15:14:35.000Z","2025-06-08T15:14:43.000Z","2025-06-08T15:14:45.000Z","2025-06-08T15:15:01.000Z","2025-06-08T15:17:48.000Z","2025-06-08T15:25:30.000Z","2025-06-08T15:25:42.000Z","2025-06-08T15:25:43.000Z","2025-06-08T15:25:44.000Z","2025-06-08T15:25:46.000Z","2025-06-08T15:25:47.000Z","2025-06-08T15:25:49.000Z","2025-06-08T15:25:51.000Z","2025-06-08T15:25:52.000Z","2025-06-08T15:25:55.000Z","2025-06-08T15:26:18.000Z","2025-06-08T15:26:19.000Z","2025-06-08T15:26:21.000Z","2025-06-08T15:26:23.000Z","2025-06-08T15:26:24.000Z","2025-06-08T15:26:27.000Z","2025-06-08T15:26:29.000Z","2025-06-08T15:26:30.000Z","2025-06-08T15:26:32.000Z","2025-06-08T15:26:35.000Z","2025-06-08T15:26:36.000Z","2025-06-08T15:26:38.000Z","2025-06-08T15:26:40.000Z","2025-06-08T15:26:41.000Z","2025-06-08T15:26:42.000Z","2025-06-08T15:26:45.000Z","2025-06-08T15:26:46.000Z","2025-06-08T15:26:47.000Z","2025-06-08T15:26:48.000Z","2025-06-08T15:26:50.000Z","2025-06-08T15:27:05.000Z","2025-06-08T15:27:08.000Z","2025-06-08T15:27:09.000Z","2025-06-08T15:27:10.000Z","2025-06-08T15:27:14.000Z","2025-06-08T15:27:18.000Z","2025-06-08T15:27:21.000Z","2025-06-08T15:27:23.000Z","2025-06-08T15:27:25.000Z","2025-06-08T15:27:27.000Z","2025-06-08T15:27:29.000Z","2025-06-08T15:27:30.000Z","2025-06-08T15:27:31.000Z","2025-06-08T15:27:33.000Z","2025-06-08T15:27:35.000Z","2025-06-08T15:27:36.000Z","2025-06-08T15:27:37.000Z","2025-06-08T15:27:38.000Z","2025-06-08T15:27:40.000Z","2025-06-08T15:27:41.000Z","2025-06-08T15:27:43.000Z","2025-06-08T15:27:44.000Z","2025-06-08T15:27:45.000Z","2025-06-08T15:27:47.000Z","2025-06-08T15:27:50.000Z","2025-06-08T15:27:52.000Z","2025-06-08T15:27:55.000Z","2025-06-08T15:27:59.000Z","2025-06-08T15:28:02.000Z","2025-06-08T15:28:03.000Z","2025-06-08T15:28:04.000Z","2025-06-08T15:28:09.000Z","2025-06-08T15:28:11.000Z","2025-06-08T15:28:16.000Z","2025-06-08T15:28:18.000Z","2025-06-08T15:28:20.000Z","2025-06-08T15:28:21.000Z","2025-06-08T15:28:22.000Z","2025-06-08T15:28:25.000Z","2025-06-08T15:28:26.000Z","2025-06-08T15:28:27.000Z","2025-06-08T15:28:28.000Z","2025-06-08T15:28:29.000Z","2025-06-08T15:28:30.000Z","2025-06-08T15:28:31.000Z","2025-06-08T15:28:34.000Z","2025-06-08T15:28:38.000Z","2025-06-08T15:28:39.000Z","2025-06-08T15:28:40.000Z","2025-06-08T15:28:41.000Z","2025-06-08T15:28:43.000Z","2025-06-08T15:28:44.000Z","2025-06-08T15:28:46.000Z","2025-06-08T15:28:48.000Z","2025-06-08T15:28:49.000Z","2025-06-08T15:28:50.000Z","2025-06-08T15:28:51.000Z","2025-06-08T15:28:53.000Z","2025-06-08T15:28:57.000Z","2025-06-08T15:28:58.000Z","2025-06-08T15:28:59.000Z","2025-06-08T15:29:00.000Z","2025-06-08T15:29:01.000Z","2025-06-08T15:29:03.000Z","2025-06-08T15:29:04.000Z","2025-06-08T15:29:05.000Z","2025-06-08T15:29:06.000Z","2025-06-08T15:29:07.000Z","2025-06-08T15:29:08.000Z","2025-06-08T15:29:09.000Z","2025-06-08T15:29:12.000Z","2025-06-08T15:29:13.000Z","2025-06-08T15:29:14.000Z","2025-06-08T15:29:15.000Z","2025-06-08T15:29:20.000Z","2025-06-08T15:29:21.000Z","2025-06-08T15:29:23.000Z","2025-06-08T15:29:25.000Z","2025-06-08T15:29:27.000Z","2025-06-08T15:29:28.000Z","2025-06-08T15:29:30.000Z","2025-06-08T15:29:34.000Z","2025-06-08T15:29:35.000Z","2025-06-08T15:29:37.000Z","2025-06-08T15:29:39.000Z","2025-06-08T15:29:41.000Z","2025-06-08T15:29:43.000Z","2025-06-08T15:29:44.000Z","2025-06-08T15:29:45.000Z","2025-06-08T15:29:47.000Z","2025-06-08T15:29:48.000Z","2025-06-08T15:29:49.000Z","2025-06-08T15:29:52.000Z","2025-06-08T15:29:53.000Z","2025-06-08T15:29:55.000Z","2025-06-08T15:29:57.000Z","2025-06-08T15:30:00.000Z","2025-06-08T15:30:01.000Z","2025-06-08T15:30:03.000Z","2025-06-08T15:30:04.000Z","2025-06-08T15:30:14.000Z","2025-06-08T15:30:16.000Z","2025-06-08T15:30:18.000Z","2025-06-08T15:30:20.000Z","2025-06-08T15:30:21.000Z","2025-06-08T15:30:22.000Z","2025-06-08T15:30:25.000Z","2025-06-08T15:30:29.000Z","2025-06-08T15:30:30.000Z","2025-06-08T15:30:31.000Z","2025-06-08T15:30:32.000Z","2025-06-08T15:30:37.000Z","2025-06-08T15:30:38.000Z","2025-06-08T15:30:39.000Z","2025-06-08T15:30:40.000Z","2025-06-08T15:30:41.000Z","2025-06-08T15:30:42.000Z","2025-06-08T15:30:46.000Z","2025-06-08T15:30:47.000Z","2025-06-08T15:30:50.000Z","2025-06-08T15:30:52.000Z","2025-06-08T15:30:53.000Z","2025-06-08T15:30:56.000Z","2025-06-08T15:30:58.000Z","2025-06-08T15:30:59.000Z","2025-06-08T15:31:00.000Z","2025-06-08T15:31:03.000Z","2025-06-08T15:31:04.000Z","2025-06-08T15:31:05.000Z","2025-06-08T15:31:07.000Z","2025-06-08T15:31:08.000Z","2025-06-08T15:31:11.000Z","2025-06-08T15:31:14.000Z","2025-06-08T15:31:15.000Z","2025-06-08T15:31:16.000Z","2025-06-08T15:31:17.000Z","2025-06-08T15:31:18.000Z","2025-06-08T15:31:19.000Z","2025-06-08T15:31:21.000Z","2025-06-08T15:31:25.000Z","2025-06-08T15:31:26.000Z","2025-06-08T15:31:28.000Z","2025-06-08T15:31:29.000Z","2025-06-08T15:31:32.000Z","2025-06-08T15:31:33.000Z","2025-06-08T15:31:34.000Z","2025-06-08T15:31:35.000Z","2025-06-08T15:31:36.000Z","2025-06-08T15:31:41.000Z","2025-06-08T15:31:44.000Z","2025-06-08T15:31:46.000Z","2025-06-08T15:31:49.000Z","2025-06-08T15:31:50.000Z","2025-06-08T15:31:52.000Z","2025-06-08T15:31:53.000Z","2025-06-08T15:31:54.000Z","2025-06-08T15:31:55.000Z","2025-06-08T15:31:56.000Z","2025-06-08T15:31:58.000Z","2025-06-08T15:32:00.000Z","2025-06-08T15:32:02.000Z","2025-06-08T15:32:04.000Z","2025-06-08T15:32:07.000Z"],"heartRates":[114,114,111,111,113,109,108,108,108,108,108,108,108,108,108,108,108,108,108,108,108,108,108,108,108,108,108,108,121,121,121,119,119,119,119,117,117,117,117,117,117,117,117,117,117,115,115,115,115,115,115,115,115,114,114,114,114,110,110,110,110,110,110,110,107,107,105,106,106,106,106,106,106,106,106,106,106,106,106,106,107,107,107,107,107,107,101,101,101,101,98,98,98,98,96,96,96,94,94,87,91,91,91,91,91,91,91,96,96,96,96,98,98,101,101,102,105,105,105,106,106,106,107,110,110,110,110,110,110,110,110,111,111,113,113,113,113,109,109,109,109,109,109,109,109,109,109,109,109,110,110,110,111,111,114,114,114,114,115,115,115,112,112,112,112,111,111,111,109,109,109,109,109,109,112,112,112,112,112,109,109,110,89,89,89,89,89,86,87,87,87,87,91,91,91,91,91,91,91,91,91,95,95,95,95,99,99,99,99,99,100,100,100,102,102,102,102,101,101,101,101,101,100,100,100,97,97,97,97,97,96,96,96,96,96,96,96,96,96,96,95,95,95,95,95,95,98,98,98,97,97,97,98,98,98,98,98,98,97,97,98,97,97,83,83,86,86,81,82,85,77,80,80,77,78,78,79,79,79,79,79,79,66,75,73,73,71,78,78,78,78,78,78,78,78,78,78,78,78,78,77,68,70,70,81,81,80,80,80,80,80,80,80,80,76,76,78,78,78,78,81,81,81,80,80,80,80,77,73,70,73,75,75,75,75,75,75,80,80,82,82,82,82,83,83,74,73,74,74,74,74,74,73,73,70,70,71,71,71,71,76,76,79,79,79,79,77,67,67,65,64,63,64,64,66,66,66,66,69,69,69,69,69,69,69,69,69,69,69,69,69,69,68,68,68,68,66,67,67,70,70,71,71,71,71,70,70,70,69,69,69,69,69,69,69,69,72,72,72,73,73,73,73,74,74,74,74,74,80,80,80,80,80,80,80,80,80,80,80,78,78,78,78,78,76,76,75,75,75,76,76,76,76,74,74,74,72,72,72,72,71,71,71,71,65,67,67,67,67,67,64,64,64,64,66,66,66,66,69,68,68,68,68,68,68,69,69,70,70,70,70,70,70,70,70,70,70,70,67,68,73,75,75,75,75,75,75,75,75,74,74,74,74,74,74,73,70,70,68,69,70,70,70,70,70,70,70,70,71,71,71,69,69,69,69,68,68,68,68,71,71,71,69,70,70,73,73,73,73,73,75,75,75,66,67,67,67,69,64,71,71,71,71,71,75,72,72,73,76,76,76,76,76,76,76,75,74,74,74,74,74,76,76,75,75,74,74,74,74,78,76,76,76,69,69,69,70,70,70,70,71,71,71,71,71,70,70,69,67,67,67,69,69,70,69,69,71,71,71,71,71,70,70,70,70,70,70,70,70,70,68,68,68,69,69,69,69,69,67,67,65,65,64,64,68,68,68,68,68,68,67,61,62,62,62,62,62,62,62,62,68,68,68,68,68,69,69,69,68,68,68,68,68,67,67,67,74,74,77,68,68,70,70,70,71,62,62,62,66,66,66,64,63,63,63,65,65,65,65,67,67,67,67,67,67,72,65,62,62,61,62,62,62,62,64,64,64,64,57,57,61,61,61,65,65,68,68,68,68,68,67,67,67,68,68,68,68,62,62,64,64,58,62,60,61,61,61,61,61,63,64,60,59,59,59,60,58,60,60,60,60,60,60,59,59,61,61,62,62,62,62,62,63,63,63,63,63,65,65,65,70,70,74,74,74,74,74,74,75,75,75,76,76,76,67,74,73,71,71,71,64,61,61,63,63,63,63,66,66,66,61,61,61,61,62,62,62,64,64,64,64,61,61,59,59,59,62,59,60,61,61,65,65,62,61,61,64,64,64,61,61,61,61,61,61,61,61,61,61,61,64,64,64,62,62,62,62,62,62,62,61,61,61,61,61,61,61,64,64,64,64,64,67,67,67,67,67,65,62,63,63,63,63,63,66,66,67,71,71,71,71,74,77,77,77,77,75,75,75,76,76,76,76,74,74,74,73,73,73,73,73,70,68,68,66,66,61,61,60,60,60,60,59,59,58,59,59,61,60,57,57,57,57,76,76,76,76,76,77,77,77,77,77,77,79,82,79,79,82,76,81,81,82,82,82,82,82,82,81,81,82,82,80,80,80,80,82,80,80,80,80,80,80,80,80,80,80,80,80,80,80,78,78,75,75,75,75,75,74,75,75,75,77,77,77,77,77,77,82,76,76,79,79,81,81,81,81,80,79,79,79,79,79,79,84,84,84,80,84,84,84,84,85,85,85,85,93,93,93,93,93,93,93,95,95,95,95,95,95,94,95,95,94,94,94,94,94,94,94,97,97,97,97,108,108,108,108,108,94,94,94,94,94,96,96,96,94,94,94,94,94,92,92,92,89,89,89,89,89,89,90,90,90,90,92,92,91,91,91,91,91,91,91,96,96,96,96,96,95,95,95,92,83,80,80,82,90,90,90,90,91,91,91,93,93,93,93,99,99,99,99,99,98,98,98,95,94,94,94,94,94,94,85,85,85,85,89,89,89,89,91,92,92,92,92,95,95,99,99,99,99,99,99,99,99,98,98,98,98,98,99,83,88,88,82,82,75,81,83,83,83,83,83,81,81,80,80,80,80,82,82,80,80,80,80,79,79,79,79,71,75,75,75,78,79,83,79,80,76,76,76,76,76,80,80,80,79,79,79,78,78,78,78,78,78,78,77,80,79,79,79,79,79,79,79,80,80,78,78,77,75,75,80,80,80,75,75,79,79,76,76,76,76,77,77,77,76,74,74,74,74,74,74,74,75,74,76,76,76,76,76,74,73,73,75,75,75,73,73,75,75,79,79,77,77,77,77,79,79,79,76,76,74,76,76,76,78,78,77,77,77,77,78,77,77,77,77,76,77,77,79,79,79,83,74,80,80,80,80,80,80,80,80,80,81,83,83,86,86,86,87,87,87,87,89,89,90,90,90,90,90,92,92,92,83,84,84,84,84,84,83,84,84,84,88,88,88,89,89,89,89,89,89,89,89,89,89,89,89,89,88,88,88,88,88,90,88,87,86,86,86,86,86,87,87,86,86,86,86,87,87,87,87,87,87,87,86,86,86,86,86,86,86,86,86,86,86,86,87,87,87,87,87,87,87,87,87,87,86,86,86,87,87,87,87,87,87,87,87,87,87,87,87,87,87,87,86,86,86,85,85,87,87,87,85,85,86,86,86,86,86,91,91,91,91,90,90,90,90,90,90,89,89,89,89,89,89,89,89,89,89,89,89,90,90,91,91,91,91,94,94,94,94,95,95,95,95,100,100,100,99,99,98,98,98,96,96,96,96,96,96,96,96,96,98,98,98]},"geometry":{"type":"LineString","coordinates":[[2.215737,48.753152,80.9],[2.215807,48.75323,81.6],[2.215845,48.753266,81.9],[2.215875,48.753304,82.2],[2.215939,48.753403,83],[2.215967,48.753473,83.5],[2.215984,48.753549,84],[2.215949,48.753562,84.2],[2.215957,48.753603,84.5],[2.215951,48.753616,84.6],[2.215951,48.753629,84.7],[2.215956,48.753644,84.8],[2.215954,48.753658,84.9],[2.215944,48.753679,85.1],[2.215948,48.75371,85.3],[2.215938,48.753724,85.4],[2.215934,48.753759,85.6],[2.215937,48.75378,85.7],[2.215922,48.753806,85.8],[2.215918,48.753828,86],[2.215919,48.753844,86],[2.215902,48.753871,86.2],[2.215908,48.753885,86.3],[2.215908,48.753898,86.3],[2.215884,48.753932,86.5],[2.215864,48.753954,86.6],[2.215831,48.753972,86.8],[2.21583,48.753976,86.8],[2.215838,48.753974,86.8],[2.215834,48.753986,86.9],[2.215836,48.753984,86.9],[2.215762,48.754079,87.4],[2.215732,48.754092,87.4],[2.215723,48.754086,87.4],[2.215695,48.754077,87.4],[2.215692,48.754065,87.4],[2.215684,48.754061,87.4],[2.215677,48.754061,87.4],[2.215676,48.754055,87.4],[2.215655,48.754045,87.4],[2.215629,48.754043,87.4],[2.215626,48.754039,87.4],[2.21563,48.754027,87.4],[2.215637,48.75402,87.4],[2.21562,48.754004,87.5],[2.215608,48.754004,87.5],[2.215591,48.754011,87.5],[2.21559,48.754021,87.5],[2.215591,48.754005,87.5],[2.215582,48.753989,87.5],[2.215546,48.75398,87.5],[2.215515,48.753982,87.5],[2.215442,48.754018,87.5],[2.215406,48.75403,87.6],[2.215374,48.754032,87.6],[2.215344,48.75403,87.6],[2.215323,48.754025,87.5],[2.215295,48.75403,87.5],[2.215288,48.754029,87.5],[2.215233,48.754041,87.5],[2.215184,48.754044,87.4],[2.215152,48.754054,87.4],[2.215133,48.754065,87.4],[2.215114,48.754072,87.3],[2.215081,48.754079,87.3],[2.215049,48.754093,87.3],[2.215052,48.754098,87.3],[2.215049,48.754098,87.3],[2.215057,48.754072,87.2],[2.215048,48.754063,87.2],[2.21504,48.754062,87.2],[2.215048,48.75407,87.2],[2.215027,48.754069,87.2],[2.21501,48.754057,87.1],[2.215004,48.754048,87.1],[2.214987,48.754055,87.1],[2.214988,48.754074,87.2],[2.215003,48.754079,87.2],[2.215001,48.754082,87.2],[2.214988,48.754077,87.2],[2.214977,48.754076,87.2],[2.214988,48.754096,87.2],[2.21499,48.754107,87.2],[2.214985,48.754115,87.2],[2.214951,48.754114,87.3],[2.214951,48.754117,87.3],[2.214951,48.754113,87.3],[2.214936,48.754104,87.3],[2.214919,48.75411,87.3],[2.214912,48.75411,87.3],[2.214901,48.754121,87.3],[2.214903,48.754124,87.3],[2.21489,48.754126,87.3],[2.214894,48.754121,87.3],[2.214888,48.754125,87.3],[2.214884,48.754123,87.3],[2.214862,48.754124,87.3],[2.214844,48.754136,87.4],[2.214841,48.754142,87.4],[2.21493,48.754126,87.2],[2.214959,48.754117,87.2],[2.214972,48.754119,87.2],[2.215,48.754117,87.1],[2.215029,48.754106,87.2],[2.215082,48.75408,87.3],[2.21512,48.754071,87.3],[2.215138,48.754069,87.3],[2.215192,48.754054,87.4],[2.215209,48.754047,87.4],[2.215225,48.754044,87.4],[2.215242,48.754044,87.4],[2.215296,48.754029,87.5],[2.215434,48.754002,87.5],[2.215464,48.754002,87.5],[2.215489,48.753985,87.5],[2.215566,48.753971,87.4],[2.215581,48.75397,87.4],[2.215599,48.753977,87.4],[2.215625,48.753999,87.4],[2.215652,48.754016,87.7],[2.215665,48.754034,87.9],[2.215651,48.754054,88.2],[2.2156,48.754091,88.9],[2.215591,48.754105,89.1],[2.215587,48.754121,89.4],[2.215578,48.754137,89.6],[2.215569,48.754145,89.7],[2.215565,48.754155,89.9],[2.215568,48.75416,89.9],[2.215554,48.754177,90.2],[2.215553,48.754189,90.3],[2.215558,48.754217,90.7],[2.215543,48.754263,91.3],[2.215544,48.754276,91.4],[2.215523,48.754286,91.3],[2.215506,48.754299,91.4],[2.215499,48.754311,91.5],[2.215484,48.754319,91.6],[2.215471,48.754333,91.7],[2.215467,48.75436,91.9],[2.215469,48.754366,92],[2.215464,48.754377,92.1],[2.215453,48.754388,92.2],[2.215444,48.754403,92.3],[2.215436,48.754409,92.4],[2.215436,48.754419,92.5],[2.21543,48.754427,92.5],[2.21541,48.754437,92.7],[2.215391,48.754442,92.8],[2.215374,48.754465,93],[2.215352,48.75448,93.1],[2.215337,48.754513,93.4],[2.215295,48.754568,93.9],[2.215272,48.754574,94],[2.215255,48.754575,94.1],[2.215243,48.754582,94.2],[2.215237,48.754596,94.3],[2.215239,48.754605,94.4],[2.215208,48.754665,94.8],[2.215197,48.754673,94.8],[2.215192,48.754683,94.8],[2.215153,48.754705,94.8],[2.215134,48.75471,94.7],[2.215125,48.754725,94.6],[2.215123,48.75474,94.6],[2.215137,48.754765,94.7],[2.215151,48.754776,94.7],[2.215167,48.754803,94.9],[2.215186,48.754819,94.9],[2.215186,48.754832,95],[2.215201,48.754857,95.2],[2.215217,48.754889,95.3],[2.215221,48.754903,95.3],[2.215232,48.754913,95.4],[2.215263,48.754933,95.5],[2.215278,48.75494,95.5],[2.215308,48.754947,95.6],[2.21533,48.754956,95.7],[2.215342,48.754971,95.7],[2.215341,48.754988,95.8],[2.215332,48.754995,95.8],[2.215342,48.755012,95.9],[2.215227,48.755002,96.2],[2.215212,48.754999,96.3],[2.21521,48.754996,96.3],[2.215219,48.754993,96.3],[2.215243,48.754977,96],[2.215244,48.754959,95.8],[2.215253,48.754921,95.4],[2.215257,48.754912,95.3],[2.215252,48.754904,95.2],[2.215252,48.754893,95.1],[2.215259,48.754872,95],[2.215258,48.754847,94.9],[2.215262,48.754834,94.8],[2.215297,48.754825,94.7],[2.215304,48.754807,94.6],[2.215288,48.754781,94.6],[2.215262,48.754755,94.6],[2.21527,48.754733,94.8],[2.215288,48.754705,94.8],[2.215292,48.754684,94.8],[2.215283,48.754648,94.6],[2.215276,48.754635,94.5],[2.215276,48.754589,94.2],[2.215279,48.754575,94.1],[2.215285,48.75456,93.9],[2.215323,48.754541,93.7],[2.215372,48.754519,93.4],[2.215386,48.754496,93.2],[2.215395,48.754488,93.1],[2.2154,48.754476,93],[2.215403,48.754452,92.8],[2.215411,48.754442,92.7],[2.215412,48.754429,92.6],[2.215442,48.754399,92.3],[2.215459,48.75439,92.2],[2.215468,48.754379,92.1],[2.215486,48.754369,91.9],[2.215489,48.754343,91.7],[2.215496,48.75433,91.6],[2.215512,48.754319,91.5],[2.215515,48.754307,91.4],[2.215525,48.754293,91.3],[2.2156,48.754247,90.8],[2.215607,48.754231,90.6],[2.2156,48.754228,90.6],[2.215601,48.754194,90.1],[2.215585,48.754186,90],[2.215579,48.754178,89.9],[2.215589,48.754168,89.7],[2.215601,48.754161,89.6],[2.215608,48.754171,89.4],[2.21561,48.754161,89.3],[2.215619,48.754146,89.1],[2.21563,48.754138,88.9],[2.215636,48.754112,88.6],[2.215647,48.754102,88.4],[2.215657,48.754074,88],[2.215636,48.754043,87.6],[2.215601,48.75401,87.4],[2.215565,48.754003,87.5],[2.215525,48.754001,87.5],[2.215501,48.75401,87.5],[2.215472,48.754016,87.5],[2.215447,48.754015,87.5],[2.215378,48.754025,87.6],[2.215313,48.754043,87.5],[2.215264,48.754047,87.5],[2.215236,48.754046,87.4],[2.215191,48.754052,87.4],[2.215154,48.754053,87.3],[2.215099,48.754065,87.3],[2.215051,48.754071,87.2],[2.215013,48.754082,87.2],[2.214966,48.754084,87.1],[2.21495,48.754087,87.2],[2.214952,48.75409,87.2],[2.214937,48.754107,87.2],[2.214882,48.754113,87.3],[2.21486,48.754118,87.3],[2.214858,48.754128,87.3],[2.214839,48.75412,87.4],[2.214785,48.754164,87.5],[2.214772,48.754163,87.5],[2.214595,48.754201,87.7],[2.214577,48.754203,87.7],[2.214472,48.754236,87.8],[2.214288,48.754267,87.9],[2.214278,48.754267,87.9],[2.213904,48.754374,88.3],[2.213894,48.754375,88.3],[2.213896,48.754371,88.3],[2.213839,48.754379,88.3],[2.213829,48.754373,88.4],[2.213323,48.754497,89.6],[2.213222,48.754519,90],[2.213223,48.754486,90.1],[2.213215,48.754473,90.1],[2.213235,48.754496,90.2],[2.213199,48.754501,90.3],[2.213236,48.754484,90.3],[2.213377,48.754464,90.5],[2.213441,48.754539,90.6],[2.21344,48.754527,90.6],[2.213436,48.754521,90.7],[2.213442,48.754491,90.7],[2.213443,48.754488,90.7],[2.213449,48.754488,90.7],[2.213444,48.754486,90.7],[2.213448,48.754477,90.7],[2.213456,48.754484,90.7],[2.213451,48.754483,90.7],[2.213454,48.754476,90.7],[2.213452,48.754477,90.7],[2.213454,48.754475,90.7],[2.213463,48.754472,90.8],[2.213494,48.754489,90.8],[2.2135,48.754498,90.8],[2.213497,48.754503,90.8],[2.213504,48.754502,90.8],[2.213393,48.754467,90.9],[2.213365,48.754472,90.9],[2.213358,48.754478,90.9],[2.21358,48.754568,91],[2.213689,48.754521,91.1],[2.213812,48.754544,91.1],[2.213659,48.75455,91.2],[2.213612,48.754549,91.2],[2.213762,48.754542,91.2],[2.213752,48.754541,91.2],[2.213784,48.754537,91.2],[2.213797,48.754533,91.2],[2.213803,48.754527,91.2],[2.21391,48.754511,91.3],[2.213926,48.75451,91.3],[2.21397,48.754515,91.3],[2.214019,48.754504,91.3],[2.214039,48.754503,91.3],[2.214049,48.754494,91.3],[2.214115,48.75446,91.4],[2.214132,48.754461,91.4],[2.214148,48.75447,91.4],[2.214154,48.754477,91.4],[2.21415,48.754479,91.4],[2.214147,48.754472,91.4],[2.214161,48.754453,91.4],[2.214206,48.754405,91.4],[2.214238,48.754394,91.5],[2.214503,48.754329,91.2],[2.214517,48.754327,91.1],[2.214524,48.754331,91.1],[2.214546,48.754335,91.1],[2.214561,48.754342,91.2],[2.214577,48.754345,91.2],[2.214589,48.754343,91.3],[2.2146,48.754347,91.4],[2.214614,48.754357,91.5],[2.214638,48.754387,91.7],[2.214639,48.75441,91.9],[2.214649,48.754426,92],[2.214652,48.754438,92.1],[2.214649,48.75445,92.2],[2.214643,48.754457,92.2],[2.214611,48.754466,92.3],[2.214411,48.754485,92.4],[2.214368,48.754493,92.5],[2.21434,48.754493,92.5],[2.214324,48.754498,92.5],[2.214309,48.754497,92.4],[2.214293,48.754489,92.4],[2.214273,48.754491,92.3],[2.214261,48.754488,92.3],[2.21427,48.754492,92.3],[2.214274,48.754491,92.3],[2.214277,48.754483,92.2],[2.21427,48.754439,92.1],[2.214233,48.754428,92],[2.214221,48.754428,92],[2.214205,48.754407,91.9],[2.214205,48.754398,91.9],[2.214227,48.754384,91.8],[2.214233,48.754374,91.8],[2.214231,48.75438,91.7],[2.214226,48.754383,91.7],[2.214229,48.754386,91.7],[2.214224,48.754387,91.7],[2.21424,48.754389,91.7],[2.214236,48.75439,91.6],[2.214242,48.75438,91.6],[2.214224,48.754386,91.6],[2.214225,48.754377,91.5],[2.214227,48.754382,91.5],[2.214234,48.754377,91.5],[2.214248,48.75438,91.5],[2.214253,48.754384,91.5],[2.214256,48.754381,91.5],[2.214271,48.754378,91.5],[2.214282,48.754373,91.5],[2.214276,48.754379,91.4],[2.214279,48.754384,91.4],[2.214289,48.754384,91.4],[2.214301,48.75438,91.4],[2.214308,48.754382,91.4],[2.214317,48.754376,91.4],[2.214316,48.754384,91.4],[2.214344,48.754383,91.3],[2.214371,48.754388,91.3],[2.21437,48.754379,91.3],[2.214382,48.754377,91.3],[2.214386,48.754371,91.3],[2.214395,48.754373,91.3],[2.214394,48.754371,91.3],[2.214405,48.754366,91.3],[2.214404,48.754363,91.3],[2.214408,48.754364,91.3],[2.214413,48.754358,91.2],[2.214429,48.754349,91.2],[2.214441,48.754353,91.2],[2.214456,48.754345,91.2],[2.214472,48.754343,91.2],[2.214485,48.754331,91.2],[2.214492,48.754329,91.1],[2.214499,48.754332,91.1],[2.21451,48.754331,91.1],[2.214518,48.754324,91.1],[2.214523,48.75433,91.1],[2.214534,48.754329,91.1],[2.214541,48.754334,91.1],[2.214556,48.754331,91.1],[2.214563,48.754326,91.1],[2.214575,48.754326,91.2],[2.214584,48.754328,91.2],[2.214599,48.754339,91.3],[2.214606,48.75434,91.3],[2.214613,48.754351,91.4],[2.214627,48.754389,91.6],[2.214635,48.754393,91.6],[2.214635,48.754389,91.7],[2.214647,48.754407,91.8],[2.214648,48.754401,91.8],[2.214651,48.754408,91.9],[2.214646,48.754408,91.9],[2.214652,48.754411,91.9],[2.214661,48.754428,92],[2.214658,48.754439,92.1],[2.214663,48.754448,92.1],[2.214658,48.754452,92.1],[2.214651,48.75447,92.2],[2.214645,48.754472,92.2],[2.214636,48.754471,92.3],[2.214633,48.754467,92.3],[2.214627,48.754467,92.3],[2.214623,48.754462,92.3],[2.214607,48.754458,92.3],[2.214604,48.75446,92.3],[2.214598,48.754457,92.3],[2.214577,48.754461,92.3],[2.214563,48.754461,92.3],[2.214562,48.754456,92.3],[2.214541,48.754466,92.3],[2.214532,48.754468,92.3],[2.21453,48.754466,92.4],[2.214521,48.754472,92.4],[2.214496,48.754481,92.4],[2.214489,48.754483,92.4],[2.214482,48.754482,92.4],[2.214478,48.754488,92.4],[2.214473,48.754485,92.4],[2.214443,48.754476,92.4],[2.214432,48.754478,92.4],[2.214423,48.754477,92.4],[2.214413,48.754484,92.5],[2.214404,48.754481,92.5],[2.214395,48.754483,92.5],[2.214376,48.754481,92.5],[2.214343,48.754486,92.5],[2.21433,48.754484,92.5],[2.21432,48.754484,92.5],[2.214302,48.754487,92.5],[2.214295,48.754486,92.5],[2.214279,48.754492,92.5],[2.214258,48.754488,92.5],[2.214255,48.754491,92.5],[2.213591,48.754711,92.7],[2.21359,48.754716,92.7],[2.213595,48.754718,92.7],[2.213592,48.754721,92.7],[2.21358,48.754712,92.6],[2.213583,48.754711,92.6],[2.213573,48.754721,92.6],[2.213577,48.754723,92.6],[2.213583,48.754722,92.7],[2.213584,48.754728,92.7],[2.21358,48.754733,92.8],[2.213577,48.75474,92.8],[2.213586,48.754744,92.9],[2.213581,48.754747,92.9],[2.213627,48.75474,92.9],[2.21366,48.75473,92.9],[2.213686,48.754733,92.9],[2.213692,48.754736,92.9],[2.213727,48.754731,92.9],[2.213727,48.754739,92.9],[2.213743,48.754739,92.9],[2.213748,48.754744,92.9],[2.21377,48.754743,92.9],[2.213799,48.754746,92.9],[2.213802,48.75475,92.9],[2.213826,48.754759,92.9],[2.21384,48.754756,92.9],[2.21385,48.754759,92.9],[2.213853,48.754752,92.9],[2.213874,48.754754,92.9],[2.213887,48.754753,92.9],[2.213905,48.754748,92.9],[2.213916,48.75475,92.9],[2.213929,48.754738,92.9],[2.213981,48.754709,92.9],[2.213979,48.754699,92.9],[2.214055,48.754681,93],[2.214063,48.754672,93],[2.214072,48.754674,93],[2.214086,48.754683,93],[2.214124,48.754668,93],[2.214131,48.754663,93],[2.21414,48.754666,93],[2.214152,48.754653,93],[2.214163,48.754647,93],[2.214179,48.754648,93],[2.214181,48.754651,93],[2.21418,48.754643,93],[2.214176,48.754642,93],[2.214185,48.754649,93],[2.214188,48.754655,93],[2.214219,48.754645,93.1],[2.214219,48.754649,93.1],[2.214232,48.754647,93.1],[2.214235,48.75465,93.1],[2.214242,48.754644,93.1],[2.214244,48.754631,93.1],[2.214241,48.754635,93.1],[2.214253,48.754631,93.1],[2.214254,48.754635,93.1],[2.214257,48.754635,93.1],[2.214256,48.754631,93.1],[2.214258,48.754638,93.1],[2.214266,48.754636,93.1],[2.21428,48.754641,93.1],[2.214278,48.754642,93.1],[2.214285,48.754642,93.1],[2.214284,48.75464,93.1],[2.214282,48.754642,93.1],[2.214285,48.754637,93.1],[2.214282,48.754632,93.1],[2.214285,48.754638,93.1],[2.21428,48.754635,93.1],[2.214282,48.754631,93.1],[2.214291,48.754634,93.1],[2.21431,48.754633,93.1],[2.214311,48.754638,93.1],[2.214324,48.75463,93.1],[2.214332,48.754632,93.1],[2.214359,48.754623,93.1],[2.214364,48.754624,93.1],[2.214387,48.754605,93.2],[2.214394,48.754607,93.2],[2.214387,48.754609,93.2],[2.214392,48.75461,93.2],[2.21437,48.754617,93.2],[2.214346,48.754631,93.2],[2.214335,48.754644,93.2],[2.214336,48.754648,93.2],[2.214679,48.754644,93.1],[2.214728,48.754644,93.1],[2.214734,48.754647,93.1],[2.214741,48.754645,93.1],[2.214747,48.754646,93.1],[2.214874,48.754529,93.2],[2.214881,48.754511,93.2],[2.214887,48.754512,93.2],[2.214884,48.754479,93],[2.214866,48.754441,92.8],[2.21486,48.754436,92.8],[2.214853,48.754436,92.8],[2.214855,48.754495,93.1],[2.214864,48.754513,93.2],[2.214862,48.754532,93.4],[2.214871,48.754553,93.5],[2.214869,48.754564,93.6],[2.214874,48.754583,93.8],[2.214872,48.754588,93.8],[2.214876,48.754589,93.9],[2.214874,48.754583,93.9],[2.214879,48.754578,93.9],[2.214911,48.754667,94.7],[2.214912,48.754688,94.9],[2.214909,48.754693,94.9],[2.214924,48.754698,95],[2.21493,48.754705,95.1],[2.214939,48.754709,95.1],[2.214958,48.754711,95.2],[2.214963,48.754718,95.3],[2.214963,48.754725,95.4],[2.214963,48.754729,95.4],[2.214963,48.754726,95.4],[2.214976,48.754735,95.5],[2.214998,48.754733,95.6],[2.215007,48.754735,95.7],[2.215002,48.754733,95.7],[2.214838,48.754754,95.7],[2.21484,48.754759,95.7],[2.214831,48.754757,95.8],[2.214821,48.754763,95.8],[2.21482,48.754771,95.8],[2.214814,48.75477,95.8],[2.214807,48.754775,95.8],[2.214795,48.754775,95.8],[2.214786,48.754768,95.8],[2.214763,48.754779,95.8],[2.214753,48.754789,95.8],[2.214752,48.754792,95.8],[2.214758,48.754795,95.8],[2.214746,48.754811,95.8],[2.214741,48.754815,95.8],[2.214738,48.754813,95.8],[2.214731,48.754819,95.8],[2.214726,48.75482,95.8],[2.214709,48.754814,95.8],[2.214712,48.75481,95.8],[2.214711,48.754813,95.8],[2.214715,48.754808,95.8],[2.214714,48.754803,95.8],[2.214706,48.754812,95.8],[2.214693,48.75481,95.8],[2.214694,48.754813,95.8],[2.214702,48.754815,95.8],[2.214708,48.754813,95.8],[2.21472,48.754813,95.8],[2.214717,48.754815,95.8],[2.214724,48.754814,95.8],[2.214716,48.754817,95.8],[2.214718,48.754812,95.8],[2.214708,48.754813,95.8],[2.214706,48.754815,95.8],[2.214699,48.754815,95.8],[2.214689,48.754821,95.9],[2.214683,48.754819,95.9],[2.214682,48.754816,95.9],[2.214678,48.754816,95.9],[2.214659,48.754823,95.9],[2.214651,48.754823,95.9],[2.214652,48.754819,95.9],[2.214634,48.75482,95.9],[2.214636,48.754818,95.9],[2.214629,48.754819,95.9],[2.214631,48.754815,95.9],[2.214629,48.75482,95.9],[2.214615,48.754824,95.9],[2.214607,48.754815,95.9],[2.214611,48.754838,95.9],[2.214616,48.754839,95.9],[2.214595,48.754847,95.9],[2.214604,48.754844,95.9],[2.21459,48.754843,95.9],[2.214652,48.754829,95.9],[2.214682,48.754831,95.9],[2.214689,48.754851,95.9],[2.214694,48.754844,96],[2.214701,48.754842,96],[2.214714,48.754849,96],[2.214617,48.7548,96],[2.214618,48.754807,96],[2.214621,48.754808,96],[2.214725,48.754801,96],[2.214729,48.754788,96],[2.214727,48.75479,96],[2.2147,48.754772,96],[2.214582,48.754857,96.2],[2.214568,48.754878,96.2],[2.214562,48.7549,96.2],[2.214544,48.754922,96.3],[2.214475,48.754924,96.3],[2.214478,48.754958,96.3],[2.21447,48.754986,96.3],[2.214454,48.755008,96.3],[2.214449,48.75502,96.3],[2.214444,48.754994,96.3],[2.214437,48.755005,96.3],[2.214425,48.754956,96.3],[2.214422,48.754956,96.3],[2.214435,48.75495,96.3],[2.214382,48.754959,96.3],[2.214364,48.755036,96.3],[2.214388,48.755096,96.3],[2.214691,48.754883,96.3],[2.214704,48.754898,96.3],[2.214707,48.754893,96.3],[2.21466,48.754872,96.3],[2.214767,48.754842,96.3],[2.214786,48.754856,96.3],[2.214783,48.754852,96.3],[2.214772,48.754875,96.3],[2.214769,48.754895,96.3],[2.21478,48.754894,96.3],[2.214761,48.754956,96.3],[2.214591,48.754913,96.3],[2.214484,48.754892,96.3],[2.21448,48.754893,96.3],[2.214494,48.754897,96.3],[2.214506,48.754906,96.3],[2.214514,48.754933,96.3],[2.214509,48.7549,96.3],[2.214501,48.754879,96.3],[2.214499,48.754842,96.3],[2.214502,48.754841,96.3],[2.214338,48.754839,96.2],[2.214341,48.754839,96.2],[2.214337,48.754843,96.2],[2.21434,48.754831,96.2],[2.214333,48.75483,96.2],[2.214324,48.754838,96.2],[2.214313,48.754843,96.2],[2.214312,48.75485,96.2],[2.214315,48.754851,96.2],[2.214337,48.754834,96.2],[2.214464,48.754829,96.2],[2.2145,48.754886,96.2],[2.214517,48.754887,96.2],[2.214614,48.754883,96.2],[2.214617,48.754881,96.2],[2.214593,48.754906,96.2],[2.214567,48.754909,96.2],[2.214536,48.754916,96.2],[2.214567,48.754948,96.2],[2.214572,48.754959,96.2],[2.214562,48.754984,96.2],[2.214571,48.754928,96.2],[2.214515,48.754943,96.2],[2.214517,48.754941,96.2],[2.214508,48.754939,96.2],[2.21451,48.754937,96.2],[2.214516,48.75494,96.2],[2.214524,48.754933,96.2],[2.214525,48.754936,96.2],[2.21452,48.754937,96.2],[2.214518,48.754921,96.2],[2.214513,48.754915,96.2],[2.214515,48.754921,96.2],[2.21452,48.754923,96.2],[2.214521,48.754932,96.2],[2.214518,48.754924,96.2],[2.214519,48.754927,96.2],[2.21453,48.754921,96.2],[2.21453,48.754909,96.2],[2.21453,48.754913,96.2],[2.214524,48.754908,96.2],[2.214516,48.75492,96.2],[2.214516,48.754917,96.2],[2.214515,48.754919,96.2],[2.214511,48.754918,96.2],[2.214511,48.75492,96.2],[2.214553,48.754928,96.2],[2.214555,48.754955,96.2],[2.214551,48.75495,96.2],[2.214535,48.754948,96.2],[2.214541,48.754943,96.2],[2.214542,48.754938,96.2],[2.214537,48.754928,96.2],[2.214548,48.754925,96.2],[2.214543,48.754897,96.2],[2.214576,48.754874,96.2],[2.214563,48.754875,96.2],[2.214562,48.754878,96.2],[2.214558,48.754872,96.2],[2.21455,48.754871,96.2],[2.214548,48.754852,96.2],[2.214532,48.754855,96.2],[2.214524,48.75485,96.2],[2.214517,48.754854,96.2],[2.214509,48.754853,96.2],[2.214509,48.754855,96.2],[2.214508,48.754852,96.2],[2.214473,48.75488,96.2],[2.214462,48.754875,96.2],[2.214447,48.754877,96.2],[2.214447,48.754874,96.2],[2.214439,48.754925,96.2],[2.214437,48.754924,96.2],[2.214447,48.75493,96.2],[2.214447,48.754925,96.2],[2.214451,48.754927,96.2],[2.214474,48.754965,96.1],[2.214477,48.754976,96.1],[2.21448,48.754969,96.1],[2.214475,48.754973,96.1],[2.214469,48.754972,96.1],[2.214457,48.754963,96.1],[2.214437,48.754961,96.1],[2.214432,48.754952,96.1],[2.214424,48.75495,96.1],[2.214425,48.754935,96.1],[2.214405,48.754919,96.1],[2.214392,48.754903,96.1],[2.214389,48.754894,96.1],[2.214382,48.754893,96.1],[2.214365,48.754884,96.1],[2.214362,48.754887,96.1],[2.214347,48.754873,96.1],[2.214337,48.754871,96.1],[2.214342,48.754875,96.1],[2.214343,48.754874,96.1],[2.214345,48.754881,96.1],[2.214341,48.754888,96.1],[2.214235,48.754928,96.1],[2.214472,48.754939,96.2],[2.214465,48.754938,96.2],[2.214459,48.754941,96.2],[2.214118,48.755123,96.4],[2.214117,48.755117,96.4],[2.214122,48.755121,96.4],[2.214123,48.755107,96.4],[2.214127,48.755106,96.4],[2.214126,48.755098,96.4],[2.214122,48.755097,96.4],[2.214116,48.755104,96.4],[2.214102,48.755094,96.4],[2.214094,48.755095,96.4],[2.214105,48.755114,96.4],[2.214099,48.755112,96.4],[2.214099,48.755124,96.4],[2.214104,48.755123,96.4],[2.214096,48.755113,96.4],[2.214102,48.755112,96.4],[2.214097,48.75511,96.4],[2.214105,48.755117,96.4],[2.21411,48.755115,96.4],[2.214113,48.755105,96.4],[2.214116,48.755104,96.4],[2.214118,48.755111,96.4],[2.214114,48.755108,96.4],[2.214116,48.755102,96.4],[2.214131,48.755102,96.4],[2.21413,48.755106,96.4],[2.214127,48.755098,96.4],[2.214129,48.755096,96.4],[2.214104,48.755078,96.4],[2.214084,48.755074,96.4],[2.214086,48.755072,96.4],[2.214087,48.755082,96.4],[2.214084,48.755082,96.4],[2.214093,48.755096,96.4],[2.214095,48.755093,96.4],[2.214113,48.755098,96.4],[2.214112,48.755093,96.4],[2.214107,48.755098,96.4],[2.214111,48.755102,96.4],[2.214125,48.755103,96.4],[2.21413,48.755101,96.4],[2.21414,48.755084,96.4],[2.214135,48.755074,96.4],[2.214134,48.755098,96.4],[2.214106,48.755106,96.4],[2.214118,48.755109,96.4],[2.214118,48.755106,96.4],[2.214126,48.755114,96.4],[2.214135,48.755111,96.4],[2.214132,48.755108,96.4],[2.214132,48.755112,96.4],[2.214129,48.75511,96.4],[2.214131,48.755105,96.4],[2.214115,48.755104,96.4],[2.214117,48.755108,96.4],[2.214114,48.75511,96.4],[2.214115,48.755114,96.4],[2.214115,48.755111,96.4],[2.21413,48.755107,96.4],[2.21412,48.755114,96.4],[2.214123,48.755117,96.4],[2.214129,48.755116,96.4],[2.21413,48.75512,96.4],[2.21413,48.755115,96.4],[2.214123,48.75511,96.4],[2.214123,48.755105,96.4],[2.214134,48.755089,96.4],[2.21414,48.755087,96.4],[2.214124,48.755096,96.4],[2.21412,48.755092,96.4],[2.214123,48.75509,96.4],[2.214125,48.755096,96.4],[2.214123,48.755093,96.4],[2.214113,48.755101,96.4],[2.214105,48.7551,96.4],[2.214106,48.755102,96.4],[2.214109,48.755101,96.4],[2.214107,48.755104,96.4],[2.214102,48.755102,96.4],[2.214096,48.75509,96.4],[2.214093,48.755093,96.4],[2.214096,48.755093,96.4],[2.214093,48.755082,96.4],[2.214095,48.755084,96.4],[2.214089,48.755092,96.4],[2.21409,48.755097,96.4],[2.214098,48.755101,96.4],[2.214104,48.755101,96.4],[2.214116,48.755083,96.4],[2.214121,48.755086,96.4],[2.214123,48.755084,96.4],[2.214125,48.755089,96.4],[2.214137,48.75509,96.4],[2.21413,48.7551,96.4],[2.214117,48.755099,96.4],[2.214115,48.755108,96.4],[2.214111,48.75511,96.4],[2.214112,48.755113,96.4],[2.214097,48.755133,96.4],[2.214098,48.755136,96.4],[2.214099,48.755126,96.4],[2.214102,48.755135,96.4],[2.214097,48.755138,96.4],[2.2141,48.755138,96.4],[2.214101,48.755135,96.4],[2.214102,48.755138,96.4],[2.214107,48.755137,96.4],[2.214109,48.75514,96.4],[2.214102,48.75515,96.4],[2.214111,48.755135,96.4],[2.214105,48.755135,96.4],[2.214108,48.75514,96.4],[2.214107,48.755135,96.4],[2.214115,48.755137,96.4],[2.214114,48.755126,96.4],[2.214107,48.75513,96.4],[2.214112,48.755126,96.4],[2.214108,48.755133,96.4],[2.214102,48.755148,96.4],[2.214096,48.755145,96.4],[2.214102,48.755145,96.4],[2.214106,48.755148,96.4],[2.214105,48.75515,96.4],[2.214103,48.755147,96.4],[2.214096,48.755151,96.4],[2.2141,48.755158,96.4],[2.214101,48.755147,96.4],[2.214091,48.755147,96.4],[2.214092,48.755153,96.4],[2.214087,48.755156,96.4],[2.214087,48.755133,96.4],[2.214085,48.755137,96.4],[2.214085,48.755132,96.4],[2.214086,48.755134,96.4],[2.213369,48.754498,90.1],[2.213622,48.754429,88.7],[2.21363,48.754423,88.6],[2.213629,48.754419,88.6],[2.213634,48.754413,88.5],[2.213643,48.75441,88.5],[2.213663,48.75441,88.5],[2.213669,48.754414,88.5],[2.213679,48.75441,88.4],[2.21369,48.75441,88.4],[2.213704,48.754399,88.4],[2.213711,48.754398,88.4],[2.213718,48.754402,88.4],[2.214095,48.754323,88.1],[2.214413,48.754243,87.9],[2.214414,48.754233,87.9],[2.214418,48.754232,87.9],[2.214538,48.754213,87.8],[2.214664,48.754205,87.7],[2.214667,48.754202,87.7],[2.214665,48.7542,87.7],[2.21467,48.754199,87.7],[2.214675,48.754199,87.7],[2.214688,48.754205,87.7],[2.214696,48.754203,87.7],[2.2147,48.754197,87.6],[2.214698,48.754191,87.6],[2.214681,48.754202,87.6],[2.214687,48.754194,87.6],[2.214681,48.754202,87.6],[2.214682,48.754205,87.6],[2.214683,48.754196,87.6],[2.214696,48.754203,87.6],[2.214729,48.754198,87.6],[2.214734,48.754186,87.6],[2.214735,48.754165,87.5],[2.21475,48.754161,87.5],[2.214756,48.754158,87.5],[2.214752,48.754155,87.5],[2.214756,48.754156,87.5],[2.214753,48.754157,87.5],[2.21476,48.754154,87.5],[2.214759,48.754148,87.5],[2.214759,48.754152,87.5],[2.214754,48.754148,87.5],[2.214754,48.754144,87.5],[2.214755,48.75415,87.5],[2.214753,48.754136,87.5],[2.214747,48.75414,87.5],[2.214752,48.754141,87.5],[2.214756,48.75415,87.5],[2.214744,48.754147,87.4],[2.214751,48.754151,87.4],[2.214754,48.75415,87.4],[2.214752,48.754147,87.4],[2.214758,48.754149,87.4],[2.214756,48.754146,87.4],[2.214761,48.754156,87.4],[2.214756,48.754165,87.4],[2.214765,48.754175,87.4],[2.214773,48.754176,87.4],[2.214771,48.754172,87.4],[2.214789,48.754166,87.4],[2.214791,48.75416,87.4],[2.214812,48.754153,87.4],[2.214817,48.754153,87.3],[2.214814,48.754155,87.3],[2.214806,48.75414,87.3],[2.214808,48.754147,87.3],[2.214834,48.754144,87.3],[2.214843,48.754146,87.3],[2.214861,48.754138,87.3],[2.214856,48.754134,87.3],[2.214864,48.754129,87.3],[2.214858,48.754128,87.3],[2.214868,48.75413,87.3],[2.214865,48.754126,87.2],[2.214868,48.754125,87.2],[2.214865,48.754128,87.2],[2.214879,48.754131,87.2],[2.214921,48.754131,87.2],[2.21493,48.754134,87.2],[2.214944,48.754132,87.2],[2.214968,48.754124,87.2],[2.214979,48.754113,87.1],[2.21509,48.754081,87.3],[2.215124,48.754087,87.3],[2.215139,48.754084,87.3],[2.215154,48.754076,87.3],[2.215189,48.754078,87.4],[2.215208,48.754076,87.4],[2.215226,48.754072,87.4],[2.215285,48.754054,87.5],[2.215329,48.754051,87.5],[2.215375,48.754051,87.6],[2.215404,48.754049,87.6],[2.215436,48.754045,87.5],[2.215472,48.75403,87.5],[2.215483,48.754028,87.5],[2.215496,48.75403,87.5],[2.215512,48.754022,87.5],[2.215543,48.754016,87.5],[2.215571,48.754014,87.5],[2.2156,48.754029,87.4],[2.215606,48.754037,87.4],[2.215618,48.754041,87.4],[2.215629,48.754039,87.4],[2.215633,48.754036,87.4],[2.215654,48.754046,87.4],[2.215677,48.754045,87.4],[2.215707,48.754082,87.5],[2.215717,48.754102,87.6],[2.215703,48.75411,87.7],[2.215704,48.754119,87.7],[2.215699,48.754118,87.7],[2.215693,48.754108,87.8],[2.21569,48.754113,87.8],[2.215695,48.754126,87.9],[2.215717,48.754134,88],[2.21571,48.754124,88],[2.215712,48.75412,88],[2.21572,48.754149,88.2],[2.215663,48.754152,88.4],[2.215619,48.754138,88.5],[2.215553,48.754124,88.7],[2.215543,48.754128,88.8],[2.215685,48.754133,89.2],[2.215703,48.754147,89.3],[2.215719,48.754155,89.4],[2.215741,48.754159,89.5],[2.215731,48.75416,89.5],[2.215732,48.754172,89.5],[2.215681,48.754175,89.7],[2.215622,48.754172,89.9],[2.215571,48.754141,89.9],[2.21559,48.754126,89.9],[2.215707,48.754163,89.6],[2.215737,48.754164,89.5],[2.215687,48.75412,89.3],[2.215683,48.754122,89.3],[2.215616,48.754107,89.1],[2.215613,48.754095,89],[2.215598,48.754086,89],[2.215638,48.754086,88.9],[2.215677,48.754099,88.8],[2.215719,48.754116,88.7],[2.215728,48.754137,88.6],[2.215709,48.754127,88.5],[2.215746,48.754125,88.4],[2.215722,48.754114,88.4],[2.215736,48.754121,88.3],[2.215738,48.754118,88.3],[2.215774,48.754126,88.2],[2.215767,48.75414,88.2],[2.215776,48.754111,88],[2.215767,48.754105,88],[2.215756,48.754088,87.9],[2.215766,48.754072,87.9],[2.215749,48.75405,87.4],[2.215707,48.754034,87.4],[2.215697,48.754026,87.4],[2.215638,48.754017,87.4],[2.215573,48.753993,87.5],[2.215537,48.754004,87.5],[2.215528,48.754004,87.5],[2.215517,48.754011,87.5],[2.215515,48.754021,87.5],[2.21552,48.754025,87.5],[2.215522,48.75402,87.5],[2.21551,48.754021,87.5],[2.215496,48.754027,87.5],[2.215404,48.754026,87.5],[2.215401,48.754024,87.5],[2.215431,48.75403,87.6],[2.215314,48.754054,87.8],[2.215305,48.754054,87.8],[2.215296,48.75406,87.8],[2.215289,48.75407,87.9],[2.215277,48.754069,87.9],[2.215266,48.754072,87.9],[2.215267,48.754064,87.9],[2.215256,48.75407,88],[2.215246,48.754067,88],[2.215252,48.754064,88],[2.215195,48.754086,88.1],[2.215173,48.754091,88.1],[2.215157,48.754098,88.1],[2.215152,48.754106,88.1],[2.215134,48.754108,88.2],[2.215103,48.754119,88.2],[2.215068,48.754127,88.2],[2.215052,48.754128,88.2],[2.214987,48.754154,88.3],[2.214955,48.75416,88.3],[2.214952,48.754166,88.4],[2.214942,48.754167,88.4],[2.214924,48.754174,88.4],[2.214896,48.75417,88.5],[2.214879,48.754176,88.5],[2.214882,48.754182,88.6],[2.214826,48.754183,88.7],[2.214816,48.75419,88.8],[2.214801,48.754193,88.8],[2.214791,48.754199,88.9],[2.214728,48.754207,89.2],[2.214698,48.754222,89.4],[2.21468,48.754227,89.5],[2.214665,48.754226,89.6],[2.21464,48.754229,89.7],[2.214596,48.754238,90],[2.214561,48.754251,90.3],[2.214536,48.754251,90.5],[2.214532,48.754263,90.6],[2.214542,48.754269,90.7],[2.214549,48.75428,90.8],[2.214564,48.754317,91.2],[2.214588,48.754339,91.3],[2.214594,48.754349,91.4],[2.214605,48.754355,91.4],[2.214613,48.754372,91.5],[2.214611,48.754385,91.6],[2.214615,48.754397,91.6],[2.214604,48.754409,91.7],[2.214602,48.754421,91.8],[2.214606,48.754432,91.8],[2.214603,48.754442,91.9],[2.214599,48.754449,91.9],[2.214594,48.754451,91.9],[2.21459,48.754465,91.9],[2.21456,48.754508,92],[2.214749,48.754473,92.1],[2.214746,48.754479,92.1],[2.214844,48.754577,92.2],[2.214839,48.754579,92.2],[2.214107,48.754579,92.6],[2.214008,48.754553,92.6],[2.213999,48.754557,92.6],[2.213994,48.754555,92.6],[2.213971,48.754563,92.7],[2.213957,48.75456,92.7],[2.213953,48.754564,92.7],[2.213952,48.754561,92.7],[2.213929,48.754565,92.7],[2.213913,48.754564,92.7],[2.213901,48.75457,92.7],[2.213893,48.75457,92.7],[2.213845,48.754588,92.8],[2.213838,48.754596,92.8],[2.213818,48.754594,92.8],[2.213803,48.754571,92.8],[2.213797,48.754576,92.8],[2.213796,48.754582,92.8],[2.213802,48.754584,92.8],[2.213787,48.754591,92.8],[2.213785,48.754596,92.8],[2.213792,48.754599,92.8],[2.213779,48.754603,92.9],[2.213448,48.754636,92],[2.213431,48.754642,91.9],[2.21343,48.754652,91.8],[2.213422,48.754655,91.7],[2.213329,48.754587,90.7],[2.213294,48.754523,90.2],[2.213296,48.754513,90.1],[2.213638,48.75443,88.5],[2.213654,48.754429,88.5],[2.213826,48.7544,88.4],[2.213842,48.754393,88.4],[2.21385,48.754392,88.4],[2.213857,48.754387,88.4],[2.213857,48.754384,88.4],[2.213893,48.754385,88.4],[2.213911,48.754374,88.4],[2.213908,48.754369,88.4],[2.213925,48.754364,88.3],[2.213933,48.754358,88.3],[2.21393,48.75436,88.3],[2.213946,48.754356,88.3],[2.213942,48.754355,88.3],[2.213946,48.754352,88.3],[2.213963,48.754348,88.3],[2.21399,48.754343,88.3],[2.214,48.754333,88.3],[2.213994,48.754335,88.3],[2.214009,48.754334,88.3],[2.214156,48.754307,88.2],[2.214167,48.75431,88.2],[2.214179,48.754307,88.2],[2.214188,48.754309,88.1],[2.214204,48.754308,88.1],[2.214209,48.754301,88.1],[2.214201,48.754306,88.1],[2.214198,48.754305,88.1],[2.214204,48.754303,88.1],[2.214201,48.754304,88.1],[2.214197,48.7543,88.1],[2.214197,48.754305,88.1],[2.214207,48.754303,88.1],[2.214206,48.754299,88.1],[2.214223,48.754303,88.1],[2.214215,48.754309,88.1],[2.214223,48.754303,88.1],[2.214227,48.754306,88.1],[2.214228,48.754303,88.1],[2.214235,48.754305,88.1],[2.214231,48.754297,88.1],[2.21424,48.754297,88],[2.214231,48.754285,88],[2.214225,48.754288,88],[2.214219,48.754286,88],[2.214216,48.75428,88],[2.214216,48.754273,88],[2.214224,48.75427,88],[2.214224,48.754267,88],[2.214238,48.754269,88],[2.214249,48.754265,88],[2.21428,48.754265,88],[2.214283,48.754268,88],[2.21429,48.754269,88],[2.214291,48.754271,88],[2.214286,48.754268,88],[2.214286,48.754272,88],[2.2143,48.754277,87.9],[2.214304,48.754285,87.9],[2.214336,48.754282,87.9],[2.214334,48.754277,87.9],[2.214338,48.754275,87.9],[2.214341,48.754268,87.9],[2.214339,48.754266,87.9],[2.214347,48.754259,87.9],[2.214351,48.754261,87.9],[2.214368,48.75426,87.9],[2.214387,48.754249,87.9],[2.214372,48.754235,87.9],[2.214354,48.754224,87.9],[2.214363,48.754219,87.8],[2.214362,48.754221,87.8],[2.214372,48.754228,87.8],[2.214368,48.754226,87.8],[2.214365,48.754232,87.8],[2.214371,48.754242,87.8],[2.214391,48.75424,87.8],[2.214405,48.75424,87.8],[2.214404,48.754242,87.8],[2.214412,48.754239,87.8],[2.214416,48.754239,87.8],[2.214418,48.754242,87.8],[2.214432,48.75424,87.8],[2.214446,48.754232,87.8],[2.214443,48.75423,87.8],[2.214434,48.754234,87.8],[2.214443,48.754229,87.8],[2.214443,48.754231,87.8],[2.214449,48.754229,87.8],[2.21446,48.754234,87.7],[2.214471,48.754231,87.7],[2.214492,48.754229,87.7],[2.214497,48.754231,87.7],[2.214511,48.754225,87.7],[2.214532,48.754223,87.7],[2.214524,48.754225,87.7],[2.214527,48.754222,87.7],[2.214524,48.754224,87.7],[2.214537,48.754223,87.7],[2.214533,48.754223,87.7],[2.21456,48.75421,87.7],[2.214624,48.754202,87.6],[2.214634,48.754203,87.6],[2.214711,48.754186,87.6],[2.214721,48.754186,87.5],[2.214722,48.754182,87.5],[2.214759,48.754147,87.4],[2.214902,48.754123,87.3],[2.214914,48.754118,87.2],[2.214918,48.754123,87.2],[2.214921,48.754118,87.2],[2.214933,48.754111,87.2],[2.214943,48.754116,87.2],[2.214956,48.754112,87.2],[2.21496,48.754117,87.1],[2.214966,48.754113,87.1],[2.214981,48.754109,87.1],[2.215113,48.754078,87.3],[2.215139,48.754078,87.3],[2.215184,48.754067,87.4],[2.215213,48.754063,87.4],[2.215229,48.75407,87.4],[2.215282,48.754056,87.5],[2.215315,48.754044,87.5],[2.215334,48.754042,87.5],[2.215368,48.754027,87.6],[2.215417,48.754016,87.5],[2.215438,48.754009,87.5],[2.215463,48.754006,87.5],[2.215495,48.753998,87.5],[2.215514,48.753986,87.5],[2.215529,48.753981,87.5],[2.215576,48.753979,87.5],[2.215588,48.753976,87.5],[2.215589,48.753978,87.5],[2.215587,48.753974,87.5],[2.215597,48.753973,87.4],[2.215671,48.75397,87.4],[2.215695,48.753961,87.4],[2.215709,48.753959,87.4],[2.215717,48.753951,87.4],[2.215757,48.753929,87.3],[2.215779,48.753907,87.1],[2.215798,48.753894,87],[2.215808,48.753879,86.9],[2.215807,48.753873,86.9],[2.215857,48.753858,86.7],[2.21589,48.75386,86.5],[2.21591,48.753864,86.4],[2.215921,48.753859,86.4],[2.215938,48.753832,86.2],[2.215925,48.75382,86.1],[2.215934,48.75381,86],[2.215941,48.753794,85.9],[2.215935,48.753778,85.8],[2.215919,48.75376,85.7],[2.215918,48.753739,85.6],[2.215913,48.753728,85.5],[2.215923,48.753722,85.4],[2.21593,48.753712,85.4],[2.215934,48.753681,85.1],[2.215948,48.753628,84.7],[2.215936,48.753606,84.6],[2.215941,48.753577,84.3],[2.215928,48.753542,84.1],[2.215925,48.753504,83.8],[2.215922,48.753493,83.7],[2.215908,48.753486,83.6],[2.215903,48.753424,83.1],[2.215891,48.753403,83],[2.215881,48.753339,82.5],[2.21587,48.75332,82.4],[2.215873,48.753289,82.1],[2.215865,48.753279,82],[2.215861,48.753267,82],[2.215814,48.75325,81.7],[2.215804,48.753243,81.6],[2.215794,48.75323,81.5],[2.215783,48.753224,81.5],[2.215771,48.753222,81.4],[2.215761,48.753213,81.3],[2.215747,48.753207,81.2],[2.21572,48.753178,81],[2.215679,48.753143,80.7],[2.21567,48.753131,80.6],[2.21567,48.753121,80.5],[2.21566,48.75311,80.4],[2.215634,48.753093,80.3],[2.215626,48.753082,80.2],[2.215625,48.753064,80.1],[2.215605,48.753045,79.9],[2.215593,48.753038,79.8],[2.21558,48.753022,79.7],[2.215559,48.753017,79.6],[2.215529,48.752994,79.4],[2.215499,48.752952,79.1],[2.215498,48.752941,79],[2.215487,48.752927,78.9],[2.215472,48.752923,78.9],[2.215461,48.752915,78.8],[2.21544,48.752896,78.7],[2.215431,48.752884,78.6],[2.215418,48.752876,78.5],[2.215407,48.752864,78.4],[2.215391,48.752861,78.3],[2.21538,48.752853,78.4],[2.215364,48.752849,78.4],[2.215337,48.752822,78.4],[2.21532,48.752816,78.4],[2.215306,48.75282,78.4],[2.215292,48.752811,78.4],[2.215236,48.75276,78.1],[2.215231,48.75275,78.1],[2.215205,48.752731,77.9],[2.215188,48.75271,77.8],[2.215167,48.752695,77.7],[2.215163,48.752684,77.7],[2.21514,48.75266,77.5],[2.215098,48.752625,77.4],[2.215082,48.752621,77.4],[2.215079,48.7526,77.3],[2.215063,48.752586,77.2],[2.215024,48.752571,77.1],[2.215007,48.752555,77.1],[2.215003,48.752545,77.1],[2.215004,48.752532,77.1],[2.215013,48.752505,77.1],[2.215009,48.752498,77],[2.215015,48.752493,77],[2.215025,48.752466,77],[2.215034,48.75246,77],[2.215042,48.752436,77],[2.215057,48.752409,76.9],[2.215075,48.752389,76.9],[2.215071,48.752384,76.9],[2.21506,48.752382,76.9],[2.215062,48.752384,76.9],[2.214997,48.752313,76.8],[2.214994,48.752301,76.8],[2.214997,48.752281,76.7],[2.215025,48.752274,76.7],[2.215046,48.752262,76.7],[2.215063,48.752259,76.7],[2.215095,48.752239,76.6],[2.215157,48.752227,76.6],[2.21517,48.752219,76.6],[2.215179,48.752202,76.6],[2.215193,48.752194,76.6],[2.215256,48.75217,76.6],[2.215281,48.752165,76.6],[2.215301,48.752158,76.6],[2.215325,48.752156,76.6],[2.215344,48.75216,76.6],[2.215368,48.752156,76.6],[2.215423,48.752121,76.6],[2.21543,48.752114,76.6],[2.215471,48.752095,76.6],[2.21548,48.752081,76.7],[2.215492,48.752075,76.7],[2.215522,48.752047,76.7],[2.215544,48.752036,76.7],[2.215561,48.75203,76.8],[2.215582,48.752031,76.8],[2.215625,48.752025,76.8],[2.215628,48.752027,76.8],[2.215638,48.752024,76.8],[2.215673,48.75203,76.9],[2.215694,48.752037,76.9],[2.215732,48.75202,76.9],[2.215756,48.75199,76.9],[2.215757,48.751982,76.9],[2.215777,48.751963,76.9],[2.215787,48.751949,76.9],[2.2158,48.751939,76.9],[2.215815,48.75192,76.9],[2.215832,48.751913,76.9],[2.215902,48.751863,76.9],[2.215924,48.751854,76.9],[2.215964,48.751832,76.9],[2.215963,48.751819,76.9],[2.215979,48.751793,76.9],[2.21598,48.751777,76.9],[2.215969,48.751756,76.9],[2.215947,48.751759,76.9],[2.215939,48.751754,77],[2.215912,48.751703,77.1],[2.215902,48.751671,77.3],[2.215904,48.751648,77.3],[2.215898,48.751612,77.3],[2.215905,48.751606,77.3],[2.215898,48.7516,77.3],[2.215907,48.751587,77.3],[2.215921,48.751579,77.3],[2.215935,48.75158,77.3],[2.215941,48.751575,77.3],[2.215958,48.751571,77.3],[2.215961,48.751568,77.3],[2.215952,48.75157,77.3],[2.215947,48.751579,77.3],[2.215939,48.751573,77.3]]}}]}