{"type":"FeatureCollection","features":[{"type":"Feature","properties":{"name":"gps4cam trip started at: 2015-08-09T04:21:27Z","time":"2015-08-09T11:36:14Z","coordTimes":["2015-08-09T11:36:14Z","2015-08-09T11:36:36Z","2015-08-09T11:37:08Z","2015-08-09T11:37:24Z","2015-08-09T11:38:37Z","2015-08-09T11:38:45Z","2015-08-09T11:39:08Z","2015-08-09T11:39:40Z","2015-08-09T12:07:08Z","2015-08-09T12:07:14Z","2015-08-09T12:07:19Z","2015-08-09T12:07:25Z","2015-08-09T12:14:46Z","2015-08-09T12:15:06Z","2015-08-09T12:15:20Z","2015-08-09T12:20:03Z","2015-08-09T12:20:25Z","2015-08-09T12:21:34Z","2015-08-09T12:22:54Z","2015-08-09T12:24:45Z","2015-08-09T12:27:26Z","2015-08-09T12:27:55Z","2015-08-09T12:30:52Z","2015-08-09T12:34:53Z","2015-08-09T12:35:40Z","2015-08-09T12:36:06Z","2015-08-09T12:42:59Z","2015-08-09T12:44:39Z","2015-08-09T12:46:01Z","2015-08-09T12:49:22Z","2015-08-09T12:50:18Z","2015-08-09T12:50:43Z","2015-08-09T12:50:56Z","2015-08-09T12:51:22Z","2015-08-09T12:51:57Z","2015-08-09T12:57:12Z","2015-08-09T12:57:57Z","2015-08-09T13:01:23Z","2015-08-09T13:01:31Z","2015-08-09T13:01:40Z","2015-08-09T13:02:30Z","2015-08-09T13:02:41Z","2015-08-09T13:02:55Z","2015-08-09T13:03:32Z","2015-08-09T13:03:51Z","2015-08-09T13:05:00Z","2015-08-09T13:06:04Z","2015-08-09T13:06:14Z","2015-08-09T13:06:44Z","2015-08-09T13:07:01Z","2015-08-09T13:07:46Z","2015-08-09T13:07:56Z","2015-08-09T13:08:05Z","2015-08-09T13:08:09Z","2015-08-09T13:08:30Z","2015-08-09T13:08:36Z","2015-08-09T13:08:43Z","2015-08-09T13:08:58Z","2015-08-09T13:09:05Z","2015-08-09T13:09:10Z","2015-08-09T13:09:53Z","2015-08-09T13:10:08Z","2015-08-09T13:10:18Z","2015-08-09T13:10:24Z","2015-08-09T13:10:49Z","2015-08-09T13:11:28Z","2015-08-09T13:11:31Z","2015-08-09T13:11:36Z","2015-08-09T13:11:53Z","2015-08-09T13:12:05Z","2015-08-09T13:12:20Z","2015-08-09T13:12:35Z","2015-08-09T13:12:50Z","2015-08-09T13:13:06Z","2015-08-09T13:13:28Z","2015-08-09T13:14:05Z","2015-08-09T13:14:15Z","2015-08-09T13:14:20Z","2015-08-09T13:14:29Z","2015-08-09T13:14:41Z","2015-08-09T13:14:51Z","2015-08-09T13:15:02Z","2015-08-09T13:16:13Z","2015-08-09T13:16:26Z","2015-08-09T13:16:47Z","2015-08-09T13:16:55Z","2015-08-09T13:17:21Z","2015-08-09T13:17:27Z","2015-08-09T13:17:33Z","2015-08-09T13:17:50Z","2015-08-09T13:18:00Z","2015-08-09T13:18:13Z","2015-08-09T13:18:27Z","2015-08-09T13:18:39Z","2015-08-09T13:18:51Z","2015-08-09T13:19:04Z","2015-08-09T13:19:21Z","2015-08-09T13:19:28Z","2015-08-09T13:19:37Z","2015-08-09T13:20:05Z","2015-08-09T13:20:35Z","2015-08-09T13:22:49Z","2015-08-09T13:23:12Z","2015-08-09T13:23:27Z","2015-08-09T13:23:35Z","2015-08-09T13:23:42Z","2015-08-09T13:23:53Z","2015-08-09T13:25:18Z","2015-08-09T13:25:29Z","2015-08-09T13:25:41Z","2015-08-09T13:25:48Z","2015-08-09T13:25:56Z","2015-08-09T13:26:08Z","2015-08-09T13:26:25Z","2015-08-09T13:26:50Z","2015-08-09T13:26:59Z","2015-08-09T13:27:06Z","2015-08-09T13:27:19Z","2015-08-09T13:27:27Z","2015-08-09T13:27:43Z","2015-08-09T13:27:51Z","2015-08-09T13:27:58Z","2015-08-09T13:28:16Z","2015-08-09T13:28:33Z","2015-08-09T13:28:47Z","2015-08-09T13:29:07Z","2015-08-09T13:29:17Z","2015-08-09T13:29:22Z","2015-08-09T13:29:40Z","2015-08-09T13:29:53Z","2015-08-09T13:30:04Z","2015-08-09T13:30:17Z","2015-08-09T13:30:45Z","2015-08-09T13:30:55Z","2015-08-09T13:31:33Z","2015-08-09T13:31:46Z","2015-08-09T13:32:09Z","2015-08-09T13:32:27Z","2015-08-09T13:33:10Z","2015-08-09T13:33:23Z","2015-08-09T13:33:34Z","2015-08-09T13:33:43Z","2015-08-09T13:33:53Z","2015-08-09T13:34:26Z","2015-08-09T13:34:37Z","2015-08-09T13:34:45Z","2015-08-09T13:35:05Z","2015-08-09T13:35:17Z","2015-08-09T13:35:31Z","2015-08-09T13:35:46Z","2015-08-09T13:36:06Z","2015-08-09T13:36:17Z","2015-08-09T13:36:24Z","2015-08-09T13:36:31Z","2015-08-09T13:37:04Z","2015-08-09T13:41:27Z","2015-08-09T13:54:32Z","2015-08-09T13:56:40Z","2015-08-09T14:04:38Z","2015-08-09T14:05:25Z","2015-08-09T14:07:33Z","2015-08-09T14:08:25Z","2015-08-09T14:08:44Z","2015-08-09T14:13:49Z","2015-08-09T14:14:35Z","2015-08-09T14:15:51Z","2015-08-09T14:18:25Z","2015-08-09T14:21:22Z","2015-08-09T14:28:37Z","2015-08-09T14:29:23Z","2015-08-09T14:32:16Z","2015-08-09T14:33:10Z","2015-08-09T14:33:42Z","2015-08-09T14:39:35Z","2015-08-09T14:41:18Z","2015-08-09T14:42:04Z","2015-08-09T14:44:07Z","2015-08-09T14:44:56Z","2015-08-09T14:48:24Z","2015-08-09T14:49:55Z","2015-08-09T14:50:41Z","2015-08-09T14:52:59Z","2015-08-09T14:56:03Z","2015-08-09T14:56:17Z","2015-08-09T14:57:03Z","2015-08-09T14:57:48Z","2015-08-09T14:58:10Z","2015-08-09T14:58:12Z","2015-08-09T14:58:28Z","2015-08-09T14:58:50Z","2015-08-09T14:58:56Z","2015-08-09T14:59:00Z","2015-08-09T14:59:12Z","2015-08-09T15:00:15Z","2015-08-09T15:00:22Z","2015-08-09T15:00:35Z","2015-08-09T15:00:53Z","2015-08-09T15:01:22Z","2015-08-09T15:01:31Z","2015-08-09T15:01:41Z","2015-08-09T15:01:53Z","2015-08-09T15:01:59Z","2015-08-09T15:02:23Z","2015-08-09T15:02:33Z","2015-08-09T15:02:52Z","2015-08-09T15:03:09Z","2015-08-09T15:03:47Z","2015-08-09T15:05:23Z","2015-08-09T15:37:34Z"],"type":"marche","month":"2015-08-01"},"geometry":{"type":"LineString","coordinates":[[114.168591647,22.293432962,7],[114.168534747,22.293300328,10],[114.168635001,22.293402795,15],[114.168769196,22.293463514,11],[114.169196599,22.293634447,15],[114.169338545,22.293614234,15],[114.169463568,22.293545367,17],[114.169437756,22.293409229,21],[114.168623858,22.294516425,10],[114.168865159,22.294312259,14],[114.168995745,22.294145853,13],[114.169432426,22.293388758,17],[114.169453249,22.293247364,17],[114.169493847,22.293116382,22],[114.169584358,22.293005056,26],[114.169711328,22.293070802,13],[114.17001718,22.293057396,26],[114.17033872,22.293063289,15],[114.170499632,22.293087286,1],[114.170598176,22.292937132,6],[114.17058458,22.293073497,2],[114.170467069,22.293179441,-2],[114.170448339,22.293017224,-5],[114.170395336,22.293153819,3],[114.17024916,22.293161868,9],[114.170102033,22.293182666,14],[114.170037906,22.29305506,12],[114.169930426,22.292957623,15],[114.169928286,22.293101125,10],[114.169946872,22.29324229,-3],[114.169991508,22.293401587,-7],[114.169960515,22.293266034,-15],[114.169803833,22.293254199,-12],[114.169657372,22.293220145,-7],[114.169661506,22.293371366,-17],[114.169546989,22.293460118,-3],[114.169717837,22.293419793,4],[114.169427529,22.293431447,4],[114.16933388,22.293538914,7],[114.169214181,22.293628249,7],[114.169061587,22.293607526,14],[114.168924156,22.293682005,7],[114.168792858,22.293743152,7],[114.168713802,22.293861614,13],[114.168593009,22.293942645,16],[114.168566053,22.294097371,12],[114.168481816,22.294216417,12],[114.168592434,22.294317715,12],[114.168734807,22.294360657,12],[114.16888222,22.294381964,15],[114.169167919,22.2944551,8],[114.169297078,22.294537453,4],[114.169432464,22.294467417,23],[114.169514656,22.294352813,29],[114.169536381,22.294497839,26],[114.169641961,22.294620771,21],[114.169642152,22.294801932,22],[114.169475106,22.294791267,17],[114.16961981,22.294871867,18],[114.169774592,22.294909196,20],[114.169567472,22.294953611,17],[114.169721018,22.294961584,16],[114.169583539,22.294875956,10],[114.16957327,22.294738067,9],[114.169391439,22.294535245,16],[114.169484897,22.294705893,16],[114.169567043,22.294890456,15],[114.169610588,22.295041449,7],[114.169461273,22.29504564,7],[114.169418632,22.295181067,1],[114.16949208,22.295459308,-9],[114.169462941,22.295597427,-6],[114.169383887,22.295715891,19],[114.169394157,22.29585378,29],[114.169323422,22.29597552,25],[114.169432951,22.296068511,71],[114.169582696,22.296127474,78],[114.169721271,22.296221404,76],[114.169869494,22.296208908,72],[114.169984961,22.296107406,75],[114.170151202,22.296151867,67],[114.170301612,22.296155978,64],[114.170102472,22.29600146,64],[114.170386418,22.296121136,67],[114.170452594,22.296244295,58],[114.170591261,22.296199166,30],[114.170745903,22.29621544,47],[114.170849301,22.296321762,62],[114.170972136,22.296236282,45],[114.171122403,22.296219339,34],[114.171237115,22.296311744,24],[114.171317744,22.296424846,23],[114.171441727,22.296507779,21],[114.171589143,22.296529079,34],[114.171740935,22.296583594,25],[114.171886307,22.296609337,23],[114.172025636,22.296509355,23],[114.172130738,22.296409018,27],[114.172276629,22.296358858,16],[114.172247496,22.296496978,15],[114.172237451,22.296241083,18],[114.172255239,22.296416047,28],[114.172237307,22.296220031,39],[114.172243527,22.296067641,37],[114.172193843,22.295929982,40],[114.17215861,22.295782267,40],[114.172110971,22.295640164,28],[114.172168201,22.295515731,43],[114.172152745,22.295378426,34],[114.172223476,22.295256685,35],[114.172331715,22.295160209,22],[114.172252037,22.295034359,14],[114.172257308,22.294894717,11],[114.172547045,22.294798845,14],[114.172832981,22.294753963,12],[114.172982583,22.29479187,11],[114.173136129,22.294799838,18],[114.173274793,22.294754707,23],[114.173332796,22.294895641,8],[114.17332862,22.295043587,-1],[114.173356484,22.295175279,2],[114.173503612,22.295154475,13],[114.173800573,22.29505357,14],[114.174104673,22.295086693,17],[114.174253988,22.295082495,21],[114.174398783,22.29502403,31],[114.174592833,22.295040068,42],[114.174731267,22.29511294,39],[114.175024198,22.295181029,46],[114.17515227,22.29525507,53],[114.17504936,22.295372016,30],[114.175078321,22.295512012,31],[114.175288121,22.295707455,24],[114.175385393,22.295827105,22],[114.175534564,22.295801852,14],[114.175656507,22.295889224,18],[114.17587981,22.296087356,22],[114.176026133,22.296100346,26],[114.176024007,22.296243847,27],[114.175911541,22.296328165,31],[114.175850229,22.296461489,30],[114.175799426,22.296614695,20],[114.175706881,22.296730474,19],[114.175586095,22.296811517,16],[114.175453851,22.296885424,16],[114.175537769,22.297023434,30],[114.175788738,22.297172094,51],[114.175936961,22.297159587,49],[114.176074531,22.297106146,46],[114.176235306,22.297109077,31],[114.176273845,22.296982535,37],[114.176166351,22.296885108,51],[114.17609154,22.297015741,57],[114.176079052,22.297160412,62],[114.176021975,22.2973059,62],[114.17601454,22.297129767,60],[114.17606848,22.29698042,59],[114.176011402,22.297125908,59],[114.176075979,22.297316662,58],[114.176091973,22.297078896,58],[114.176042121,22.297219355,58],[114.176076283,22.297059598,58],[114.176019221,22.296905918,58],[114.176046433,22.297092461,58],[114.175983803,22.297335487,58],[114.175986007,22.297052928,58],[114.175966729,22.297265782,58],[114.176060222,22.297137254,58],[114.17609548,22.296985801,58],[114.176088753,22.297214094,58],[114.176042988,22.297345665,58],[114.17606365,22.297183217,58],[114.176118684,22.297042174,58],[114.175966728,22.297265782,58],[114.176086789,22.29707948,58],[114.175994164,22.297334318,58],[114.176062925,22.297077959,58],[114.175994679,22.297258415,58],[114.176046559,22.297412679,58],[114.175887828,22.297405304,58],[114.175949363,22.297153973,58],[114.176039414,22.29727865,58],[114.175923809,22.297359109,58],[114.176083635,22.297374788,58],[114.1760454,22.297244266,58],[114.176059915,22.297394318,58],[114.176080722,22.297252922,78],[114.176116398,22.297463791,17],[114.1762204,22.297355145,25],[114.176354687,22.297276792,39],[114.176498533,22.297231069,40],[114.176586989,22.297124177,40],[114.17674485,22.297005241,46],[114.176874021,22.297087582,46],[114.176987647,22.297171675,45],[114.177073467,22.297284187,50],[114.177092071,22.297425351,49],[114.1772038,22.29753494,39],[114.177346328,22.297598918,33],[114.177459955,22.29768301,28],[114.177467249,22.297838091,45],[114.177393534,22.29797703,47],[114.177524529,22.29817293,43],[114.177328645,22.298342508,41],[114.177357615,22.298482502,45],[114.177457749,22.298264736,41],[114.177630052,22.298434907,41],[114.177948688,22.298318895,43],[114.178062608,22.298445089,40]]}}]}