{"type":"FeatureCollection","features":[{"type":"Feature","properties":{"name":"En quête de rouge","type":"marche","time":"2026-02-22T14:31:14Z","coordTimes":["2026-02-22T14:31:14Z","2026-02-22T14:31:47Z","2026-02-22T14:31:51Z","2026-02-22T14:31:54Z","2026-02-22T14:31:55Z","2026-02-22T14:31:58Z","2026-02-22T14:32:00Z","2026-02-22T14:32:03Z","2026-02-22T14:32:06Z","2026-02-22T14:32:07Z","2026-02-22T14:32:09Z","2026-02-22T14:32:10Z","2026-02-22T14:32:11Z","2026-02-22T14:32:15Z","2026-02-22T14:32:16Z","2026-02-22T14:32:54Z","2026-02-22T14:32:56Z","2026-02-22T14:32:59Z","2026-02-22T14:33:01Z","2026-02-22T14:33:03Z","2026-02-22T14:33:06Z","2026-02-22T14:33:07Z","2026-02-22T14:34:36Z","2026-02-22T14:34:41Z","2026-02-22T14:34:43Z","2026-02-22T14:34:46Z","2026-02-22T14:34:49Z","2026-02-22T14:34:55Z","2026-02-22T14:34:57Z","2026-02-22T14:35:01Z","2026-02-22T14:35:05Z","2026-02-22T14:35:07Z","2026-02-22T14:35:16Z","2026-02-22T14:35:29Z","2026-02-22T14:35:30Z","2026-02-22T14:35:34Z","2026-02-22T14:35:36Z","2026-02-22T14:35:42Z","2026-02-22T14:35:47Z","2026-02-22T14:35:52Z","2026-02-22T14:35:54Z","2026-02-22T14:35:56Z","2026-02-22T14:35:58Z","2026-02-22T14:35:59Z","2026-02-22T14:36:17Z","2026-02-22T14:36:18Z","2026-02-22T14:36:26Z","2026-02-22T14:36:27Z","2026-02-22T14:36:32Z","2026-02-22T14:36:33Z","2026-02-22T14:36:35Z","2026-02-22T14:36:41Z","2026-02-22T14:36:54Z","2026-02-22T14:36:58Z","2026-02-22T14:37:01Z","2026-02-22T14:37:04Z","2026-02-22T14:37:08Z","2026-02-22T14:37:11Z","2026-02-22T14:37:19Z","2026-02-22T14:37:28Z","2026-02-22T14:37:33Z","2026-02-22T14:37:34Z","2026-02-22T14:37:35Z","2026-02-22T14:38:06Z","2026-02-22T14:38:07Z","2026-02-22T14:38:10Z","2026-02-22T14:38:12Z","2026-02-22T14:38:14Z","2026-02-22T14:38:16Z","2026-02-22T14:38:21Z","2026-02-22T14:38:29Z","2026-02-22T14:38:31Z","2026-02-22T14:38:33Z","2026-02-22T14:38:35Z","2026-02-22T14:38:38Z","2026-02-22T14:38:41Z","2026-02-22T14:38:54Z","2026-02-22T14:38:58Z","2026-02-22T14:39:01Z","2026-02-22T14:39:04Z","2026-02-22T14:39:07Z","2026-02-22T14:39:16Z","2026-02-22T14:39:17Z","2026-02-22T14:39:20Z","2026-02-22T14:39:23Z","2026-02-22T14:39:27Z","2026-02-22T14:39:30Z","2026-02-22T14:39:35Z","2026-02-22T14:39:37Z","2026-02-22T14:39:40Z","2026-02-22T14:39:43Z","2026-02-22T14:39:46Z","2026-02-22T14:39:50Z","2026-02-22T14:39:53Z","2026-02-22T14:39:55Z","2026-02-22T14:40:01Z","2026-02-22T14:40:11Z","2026-02-22T14:40:14Z","2026-02-22T14:40:17Z","2026-02-22T14:40:19Z","2026-02-22T14:40:31Z","2026-02-22T14:40:35Z","2026-02-22T14:40:36Z","2026-02-22T14:40:37Z","2026-02-22T14:40:40Z","2026-02-22T14:40:50Z","2026-02-22T14:40:53Z","2026-02-22T14:41:03Z","2026-02-22T14:41:23Z","2026-02-22T14:41:30Z","2026-02-22T14:41:33Z","2026-02-22T14:41:36Z","2026-02-22T14:41:38Z","2026-02-22T14:41:48Z","2026-02-22T14:41:50Z","2026-02-22T14:41:55Z","2026-02-22T14:41:59Z","2026-02-22T14:42:01Z","2026-02-22T14:42:05Z","2026-02-22T14:42:06Z","2026-02-22T14:42:13Z","2026-02-22T14:42:15Z","2026-02-22T14:42:25Z","2026-02-22T14:42:28Z","2026-02-22T14:42:30Z","2026-02-22T14:42:31Z","2026-02-22T14:42:34Z","2026-02-22T14:42:37Z","2026-02-22T14:42:40Z","2026-02-22T14:42:43Z","2026-02-22T14:42:44Z","2026-02-22T14:42:47Z","2026-02-22T14:42:49Z","2026-02-22T14:42:52Z","2026-02-22T14:42:54Z","2026-02-22T14:42:56Z","2026-02-22T14:42:59Z","2026-02-22T14:43:02Z","2026-02-22T14:43:08Z","2026-02-22T14:43:11Z","2026-02-22T14:43:13Z","2026-02-22T14:43:15Z","2026-02-22T14:43:17Z","2026-02-22T14:44:03Z","2026-02-22T14:44:06Z","2026-02-22T14:44:08Z","2026-02-22T14:44:11Z","2026-02-22T14:44:12Z","2026-02-22T14:44:16Z","2026-02-22T14:44:19Z","2026-02-22T14:44:21Z","2026-02-22T14:44:39Z","2026-02-22T14:44:40Z","2026-02-22T14:44:45Z","2026-02-22T14:44:52Z","2026-02-22T14:44:53Z","2026-02-22T14:44:54Z","2026-02-22T14:44:57Z","2026-02-22T14:45:02Z","2026-02-22T14:45:12Z","2026-02-22T14:45:24Z","2026-02-22T14:45:28Z","2026-02-22T14:45:32Z","2026-02-22T14:45:35Z","2026-02-22T14:46:01Z","2026-02-22T14:46:09Z","2026-02-22T14:46:10Z","2026-02-22T14:46:11Z","2026-02-22T14:46:39Z","2026-02-22T14:46:41Z","2026-02-22T14:46:43Z","2026-02-22T14:46:45Z","2026-02-22T14:46:48Z","2026-02-22T14:46:50Z","2026-02-22T14:46:51Z","2026-02-22T14:46:57Z","2026-02-22T14:46:58Z","2026-02-22T14:47:00Z","2026-02-22T14:47:16Z","2026-02-22T14:47:18Z","2026-02-22T14:47:23Z","2026-02-22T14:47:26Z","2026-02-22T14:47:29Z","2026-02-22T14:47:33Z","2026-02-22T14:47:48Z","2026-02-22T14:47:49Z","2026-02-22T14:47:51Z","2026-02-22T14:47:52Z","2026-02-22T14:47:54Z","2026-02-22T14:47:55Z","2026-02-22T14:48:31Z","2026-02-22T14:48:34Z","2026-02-22T14:48:36Z","2026-02-22T14:48:37Z","2026-02-22T14:48:39Z","2026-02-22T14:48:44Z","2026-02-22T14:49:12Z","2026-02-22T14:49:14Z","2026-02-22T14:49:16Z","2026-02-22T14:49:20Z","2026-02-22T14:49:22Z","2026-02-22T14:49:24Z","2026-02-22T14:49:26Z","2026-02-22T14:49:29Z","2026-02-22T14:49:33Z","2026-02-22T14:49:35Z","2026-02-22T14:49:38Z","2026-02-22T14:49:46Z","2026-02-22T14:49:47Z","2026-02-22T14:49:48Z","2026-02-22T14:49:50Z","2026-02-22T14:49:52Z","2026-02-22T14:49:54Z","2026-02-22T14:49:56Z","2026-02-22T14:50:17Z","2026-02-22T14:50:18Z","2026-02-22T14:50:20Z","2026-02-22T14:50:25Z","2026-02-22T14:50:26Z","2026-02-22T14:50:30Z","2026-02-22T14:50:53Z","2026-02-22T14:50:54Z","2026-02-22T14:50:55Z","2026-02-22T14:50:58Z","2026-02-22T14:51:00Z","2026-02-22T14:51:06Z","2026-02-22T14:51:07Z","2026-02-22T14:51:09Z","2026-02-22T14:51:10Z","2026-02-22T14:51:12Z","2026-02-22T14:51:16Z","2026-02-22T14:51:23Z","2026-02-22T14:51:25Z","2026-02-22T14:51:26Z","2026-02-22T14:51:29Z","2026-02-22T14:51:30Z","2026-02-22T14:51:32Z","2026-02-22T14:51:35Z","2026-02-22T14:51:41Z","2026-02-22T14:51:45Z","2026-02-22T14:52:13Z","2026-02-22T14:52:25Z","2026-02-22T14:52:29Z","2026-02-22T14:52:32Z","2026-02-22T14:52:35Z","2026-02-22T14:52:38Z","2026-02-22T14:52:39Z","2026-02-22T14:52:46Z","2026-02-22T14:52:52Z","2026-02-22T14:52:57Z","2026-02-22T14:53:00Z","2026-02-22T14:53:04Z","2026-02-22T14:53:07Z","2026-02-22T14:53:10Z","2026-02-22T14:53:12Z","2026-02-22T14:53:13Z","2026-02-22T14:53:15Z","2026-02-22T14:53:18Z","2026-02-22T14:53:22Z","2026-02-22T14:53:28Z","2026-02-22T14:53:32Z","2026-02-22T14:53:35Z","2026-02-22T14:53:38Z","2026-02-22T14:53:42Z","2026-02-22T14:53:47Z","2026-02-22T14:53:54Z","2026-02-22T14:53:58Z","2026-02-22T14:54:03Z","2026-02-22T14:54:06Z","2026-02-22T14:54:17Z","2026-02-22T14:54:22Z","2026-02-22T14:54:24Z","2026-02-22T14:54:31Z","2026-02-22T14:54:40Z","2026-02-22T14:54:42Z","2026-02-22T14:54:47Z","2026-02-22T14:55:21Z","2026-02-22T14:55:26Z","2026-02-22T14:55:29Z","2026-02-22T14:55:31Z","2026-02-22T14:55:34Z","2026-02-22T14:55:36Z","2026-02-22T14:55:39Z","2026-02-22T14:55:42Z","2026-02-22T14:55:44Z","2026-02-22T14:55:49Z","2026-02-22T14:55:56Z","2026-02-22T14:55:59Z","2026-02-22T14:56:02Z","2026-02-22T14:56:07Z","2026-02-22T14:56:10Z","2026-02-22T14:56:21Z","2026-02-22T14:56:23Z","2026-02-22T14:56:30Z","2026-02-22T14:56:41Z","2026-02-22T14:56:44Z","2026-02-22T14:56:49Z","2026-02-22T14:56:52Z","2026-02-22T14:56:56Z","2026-02-22T14:57:02Z","2026-02-22T14:57:04Z","2026-02-22T14:57:06Z","2026-02-22T14:57:18Z","2026-02-22T14:57:20Z","2026-02-22T14:57:24Z","2026-02-22T14:57:36Z","2026-02-22T14:57:41Z","2026-02-22T14:57:48Z","2026-02-22T14:57:54Z","2026-02-22T14:57:55Z","2026-02-22T14:57:57Z","2026-02-22T14:58:01Z","2026-02-22T14:58:02Z","2026-02-22T14:58:04Z","2026-02-22T14:58:07Z","2026-02-22T14:58:10Z","2026-02-22T14:58:12Z","2026-02-22T14:58:15Z","2026-02-22T14:58:19Z","2026-02-22T14:58:22Z","2026-02-22T14:58:26Z","2026-02-22T14:58:27Z","2026-02-22T14:58:31Z","2026-02-22T14:58:37Z","2026-02-22T14:58:40Z","2026-02-22T14:58:47Z","2026-02-22T14:58:58Z","2026-02-22T14:59:03Z","2026-02-22T14:59:07Z","2026-02-22T14:59:15Z","2026-02-22T14:59:17Z","2026-02-22T14:59:21Z","2026-02-22T14:59:22Z","2026-02-22T14:59:25Z","2026-02-22T14:59:27Z","2026-02-22T14:59:33Z","2026-02-22T14:59:35Z","2026-02-22T14:59:38Z","2026-02-22T15:00:03Z","2026-02-22T15:00:08Z","2026-02-22T15:00:09Z","2026-02-22T15:00:13Z","2026-02-22T15:00:17Z","2026-02-22T15:00:20Z","2026-02-22T15:00:24Z","2026-02-22T15:00:28Z","2026-02-22T15:00:34Z","2026-02-22T15:00:36Z","2026-02-22T15:00:38Z","2026-02-22T15:00:46Z","2026-02-22T15:00:49Z","2026-02-22T15:00:50Z","2026-02-22T15:00:54Z","2026-02-22T15:00:55Z","2026-02-22T15:01:03Z","2026-02-22T15:01:06Z","2026-02-22T15:01:09Z","2026-02-22T15:01:12Z","2026-02-22T15:01:13Z","2026-02-22T15:01:16Z","2026-02-22T15:01:18Z","2026-02-22T15:01:20Z","2026-02-22T15:01:21Z","2026-02-22T15:01:25Z","2026-02-22T15:01:27Z","2026-02-22T15:01:30Z","2026-02-22T15:01:35Z","2026-02-22T15:01:39Z","2026-02-22T15:01:42Z","2026-02-22T15:01:46Z","2026-02-22T15:01:51Z","2026-02-22T15:01:53Z","2026-02-22T15:01:56Z","2026-02-22T15:01:58Z","2026-02-22T15:02:03Z","2026-02-22T15:02:08Z","2026-02-22T15:02:13Z","2026-02-22T15:02:14Z","2026-02-22T15:02:16Z","2026-02-22T15:02:40Z","2026-02-22T15:02:43Z","2026-02-22T15:03:40Z","2026-02-22T15:03:44Z","2026-02-22T15:03:49Z","2026-02-22T15:03:50Z","2026-02-22T15:03:52Z","2026-02-22T15:03:54Z","2026-02-22T15:03:55Z","2026-02-22T15:04:00Z","2026-02-22T15:04:03Z","2026-02-22T15:04:08Z","2026-02-22T15:04:11Z","2026-02-22T15:04:12Z","2026-02-22T15:04:17Z","2026-02-22T15:05:15Z","2026-02-22T15:05:21Z","2026-02-22T15:05:28Z","2026-02-22T15:05:29Z","2026-02-22T15:05:33Z","2026-02-22T15:05:36Z","2026-02-22T15:05:40Z","2026-02-22T15:05:58Z","2026-02-22T15:06:00Z","2026-02-22T15:06:01Z","2026-02-22T15:06:03Z","2026-02-22T15:06:16Z","2026-02-22T15:06:18Z","2026-02-22T15:06:28Z","2026-02-22T15:06:30Z","2026-02-22T15:06:33Z","2026-02-22T15:06:37Z","2026-02-22T15:06:41Z","2026-02-22T15:06:44Z","2026-02-22T15:06:45Z","2026-02-22T15:06:46Z","2026-02-22T15:06:58Z","2026-02-22T15:07:05Z","2026-02-22T15:07:07Z","2026-02-22T15:07:09Z","2026-02-22T15:07:10Z","2026-02-22T15:07:12Z","2026-02-22T15:07:13Z","2026-02-22T15:07:15Z","2026-02-22T15:07:18Z","2026-02-22T15:07:22Z","2026-02-22T15:07:23Z","2026-02-22T15:07:26Z","2026-02-22T15:07:30Z","2026-02-22T15:07:35Z","2026-02-22T15:07:48Z","2026-02-22T15:07:56Z","2026-02-22T15:07:59Z","2026-02-22T15:08:01Z","2026-02-22T15:08:03Z","2026-02-22T15:08:07Z","2026-02-22T15:08:12Z","2026-02-22T15:08:29Z","2026-02-22T15:08:31Z","2026-02-22T15:08:34Z","2026-02-22T15:08:38Z","2026-02-22T15:08:43Z","2026-02-22T15:08:45Z","2026-02-22T15:08:52Z","2026-02-22T15:08:59Z","2026-02-22T15:09:02Z","2026-02-22T15:09:06Z","2026-02-22T15:09:07Z","2026-02-22T15:09:11Z","2026-02-22T15:09:12Z","2026-02-22T15:09:14Z","2026-02-22T15:09:15Z","2026-02-22T15:09:19Z","2026-02-22T15:09:21Z","2026-02-22T15:09:25Z","2026-02-22T15:09:27Z","2026-02-22T15:09:30Z","2026-02-22T15:09:31Z","2026-02-22T15:09:35Z","2026-02-22T15:09:42Z","2026-02-22T15:09:43Z","2026-02-22T15:09:45Z","2026-02-22T15:09:46Z","2026-02-22T15:09:49Z","2026-02-22T15:09:51Z","2026-02-22T15:09:53Z","2026-02-22T15:09:55Z","2026-02-22T15:09:56Z","2026-02-22T15:09:57Z","2026-02-22T15:09:59Z","2026-02-22T15:10:02Z","2026-02-22T15:10:10Z","2026-02-22T15:10:15Z","2026-02-22T15:10:16Z","2026-02-22T15:10:17Z","2026-02-22T15:10:18Z","2026-02-22T15:10:21Z","2026-02-22T15:10:25Z","2026-02-22T15:10:33Z","2026-02-22T15:10:41Z","2026-02-22T15:10:44Z","2026-02-22T15:10:47Z","2026-02-22T15:10:57Z","2026-02-22T15:11:00Z","2026-02-22T15:11:02Z","2026-02-22T15:11:04Z","2026-02-22T15:11:14Z","2026-02-22T15:11:17Z","2026-02-22T15:11:18Z","2026-02-22T15:11:20Z","2026-02-22T15:11:24Z","2026-02-22T15:11:25Z","2026-02-22T15:11:27Z","2026-02-22T15:11:28Z","2026-02-22T15:11:31Z","2026-02-22T15:11:33Z","2026-02-22T15:11:35Z","2026-02-22T15:11:44Z","2026-02-22T15:11:53Z","2026-02-22T15:11:54Z","2026-02-22T15:12:00Z","2026-02-22T15:12:01Z","2026-02-22T15:12:09Z","2026-02-22T15:12:10Z","2026-02-22T15:12:11Z","2026-02-22T15:12:12Z","2026-02-22T15:12:15Z","2026-02-22T15:12:21Z","2026-02-22T15:12:22Z","2026-02-22T15:12:24Z","2026-02-22T15:12:35Z","2026-02-22T15:12:40Z","2026-02-22T15:12:46Z","2026-02-22T15:12:48Z","2026-02-22T15:12:50Z","2026-02-22T15:12:52Z","2026-02-22T15:12:56Z","2026-02-22T15:12:58Z","2026-02-22T15:12:59Z","2026-02-22T15:13:06Z","2026-02-22T15:13:10Z","2026-02-22T15:13:11Z","2026-02-22T15:13:16Z","2026-02-22T15:13:17Z","2026-02-22T15:13:25Z","2026-02-22T15:13:29Z","2026-02-22T15:13:31Z","2026-02-22T15:13:33Z","2026-02-22T15:13:35Z","2026-02-22T15:13:38Z","2026-02-22T15:13:42Z","2026-02-22T15:13:50Z","2026-02-22T15:13:51Z","2026-02-22T15:13:59Z","2026-02-22T15:14:06Z","2026-02-22T15:14:08Z","2026-02-22T15:14:11Z","2026-02-22T15:14:15Z","2026-02-22T15:14:17Z","2026-02-22T15:14:20Z","2026-02-22T15:14:26Z","2026-02-22T15:14:27Z","2026-02-22T15:14:32Z","2026-02-22T15:14:35Z","2026-02-22T15:14:38Z","2026-02-22T15:14:41Z","2026-02-22T15:14:49Z","2026-02-22T15:14:55Z","2026-02-22T15:14:57Z","2026-02-22T15:15:01Z","2026-02-22T15:15:02Z","2026-02-22T15:15:05Z","2026-02-22T15:15:18Z","2026-02-22T15:15:19Z","2026-02-22T15:15:21Z","2026-02-22T15:15:22Z","2026-02-22T15:15:23Z","2026-02-22T15:15:25Z","2026-02-22T15:15:26Z","2026-02-22T15:15:28Z","2026-02-22T15:15:30Z","2026-02-22T15:15:31Z","2026-02-22T15:15:34Z","2026-02-22T15:15:36Z","2026-02-22T15:15:40Z","2026-02-22T15:15:46Z","2026-02-22T15:15:52Z","2026-02-22T15:15:56Z","2026-02-22T15:15:58Z","2026-02-22T15:16:02Z","2026-02-22T15:16:07Z","2026-02-22T15:16:08Z","2026-02-22T15:16:12Z","2026-02-22T15:16:14Z","2026-02-22T15:16:16Z","2026-02-22T15:16:19Z","2026-02-22T15:16:21Z","2026-02-22T15:16:22Z","2026-02-22T15:16:25Z","2026-02-22T15:16:40Z","2026-02-22T15:16:45Z","2026-02-22T15:16:50Z","2026-02-22T15:16:55Z","2026-02-22T15:16:58Z","2026-02-22T15:17:02Z","2026-02-22T15:17:08Z","2026-02-22T15:17:18Z","2026-02-22T15:17:21Z","2026-02-22T15:17:27Z","2026-02-22T15:17:32Z","2026-02-22T15:17:39Z","2026-02-22T15:17:40Z","2026-02-22T15:17:42Z","2026-02-22T15:17:45Z","2026-02-22T15:17:50Z","2026-02-22T15:17:51Z","2026-02-22T15:17:53Z","2026-02-22T15:17:54Z","2026-02-22T15:18:35Z","2026-02-22T15:18:38Z","2026-02-22T15:18:40Z","2026-02-22T15:18:43Z","2026-02-22T15:18:46Z","2026-02-22T15:18:50Z","2026-02-22T15:18:54Z","2026-02-22T15:18:56Z","2026-02-22T15:19:00Z","2026-02-22T15:19:03Z","2026-02-22T15:19:06Z","2026-02-22T15:19:07Z","2026-02-22T15:19:09Z","2026-02-22T15:19:14Z","2026-02-22T15:19:15Z","2026-02-22T15:19:16Z","2026-02-22T15:19:21Z","2026-02-22T15:19:24Z","2026-02-22T15:19:29Z","2026-02-22T15:19:33Z","2026-02-22T15:19:36Z","2026-02-22T15:19:38Z","2026-02-22T15:19:42Z","2026-02-22T15:19:46Z","2026-02-22T15:19:48Z","2026-02-22T15:19:50Z","2026-02-22T15:19:54Z","2026-02-22T15:20:01Z","2026-02-22T15:20:02Z","2026-02-22T15:20:03Z","2026-02-22T15:20:06Z","2026-02-22T15:20:14Z","2026-02-22T15:20:15Z","2026-02-22T15:20:18Z","2026-02-22T15:20:25Z","2026-02-22T15:20:27Z","2026-02-22T15:20:28Z","2026-02-22T15:20:29Z","2026-02-22T15:20:32Z","2026-02-22T15:20:36Z","2026-02-22T15:20:40Z","2026-02-22T15:20:47Z","2026-02-22T15:20:52Z","2026-02-22T15:21:11Z","2026-02-22T15:21:18Z","2026-02-22T15:21:23Z","2026-02-22T15:21:25Z","2026-02-22T15:21:28Z","2026-02-22T15:21:29Z","2026-02-22T15:21:42Z","2026-02-22T15:21:43Z","2026-02-22T15:21:51Z","2026-02-22T15:21:54Z","2026-02-22T15:22:01Z","2026-02-22T15:22:04Z","2026-02-22T15:22:09Z","2026-02-22T15:22:11Z","2026-02-22T15:22:21Z","2026-02-22T15:22:22Z","2026-02-22T15:22:24Z","2026-02-22T15:22:25Z","2026-02-22T15:22:28Z","2026-02-22T15:22:29Z","2026-02-22T15:22:35Z","2026-02-22T15:22:36Z","2026-02-22T15:22:39Z","2026-02-22T15:22:44Z","2026-02-22T15:22:47Z","2026-02-22T15:22:52Z","2026-02-22T15:23:07Z","2026-02-22T15:23:13Z","2026-02-22T15:23:16Z","2026-02-22T15:23:19Z","2026-02-22T15:23:28Z","2026-02-22T15:23:33Z","2026-02-22T15:23:39Z","2026-02-22T15:23:44Z","2026-02-22T15:23:46Z","2026-02-22T15:23:54Z","2026-02-22T15:24:02Z","2026-02-22T15:24:07Z","2026-02-22T15:24:13Z","2026-02-22T15:24:14Z","2026-02-22T15:24:16Z","2026-02-22T15:24:17Z","2026-02-22T15:24:34Z","2026-02-22T15:24:41Z","2026-02-22T15:24:48Z","2026-02-22T15:24:50Z","2026-02-22T15:25:12Z","2026-02-22T15:25:28Z","2026-02-22T15:25:34Z","2026-02-22T15:25:42Z","2026-02-22T15:25:46Z","2026-02-22T15:25:49Z","2026-02-22T15:25:54Z","2026-02-22T15:25:56Z","2026-02-22T15:26:02Z","2026-02-22T15:26:12Z","2026-02-22T15:26:21Z","2026-02-22T15:26:22Z","2026-02-22T15:26:50Z","2026-02-22T15:27:04Z","2026-02-22T15:27:14Z","2026-02-22T15:27:25Z","2026-02-22T15:27:28Z","2026-02-22T15:27:34Z","2026-02-22T15:27:42Z","2026-02-22T15:27:44Z","2026-02-22T15:27:46Z","2026-02-22T15:27:49Z","2026-02-22T15:27:53Z","2026-02-22T15:27:55Z","2026-02-22T15:28:00Z","2026-02-22T15:28:02Z","2026-02-22T15:28:05Z","2026-02-22T15:28:07Z","2026-02-22T15:28:08Z","2026-02-22T15:28:10Z","2026-02-22T15:28:20Z","2026-02-22T15:28:21Z","2026-02-22T15:28:24Z","2026-02-22T15:28:30Z","2026-02-22T15:28:32Z","2026-02-22T15:28:33Z","2026-02-22T15:28:39Z","2026-02-22T15:28:42Z","2026-02-22T15:29:01Z","2026-02-22T15:29:05Z","2026-02-22T15:29:09Z","2026-02-22T15:29:14Z","2026-02-22T15:29:29Z","2026-02-22T15:29:34Z","2026-02-22T15:29:38Z","2026-02-22T15:29:42Z","2026-02-22T15:29:45Z","2026-02-22T15:29:55Z","2026-02-22T15:30:01Z","2026-02-22T15:30:04Z","2026-02-22T15:30:06Z","2026-02-22T15:30:08Z","2026-02-22T15:30:14Z","2026-02-22T15:30:22Z","2026-02-22T15:30:28Z","2026-02-22T15:30:33Z","2026-02-22T15:31:04Z","2026-02-22T15:31:12Z","2026-02-22T15:31:13Z","2026-02-22T15:31:17Z","2026-02-22T15:31:20Z","2026-02-22T15:31:24Z","2026-02-22T15:31:34Z","2026-02-22T15:31:36Z","2026-02-22T15:31:44Z","2026-02-22T15:31:47Z","2026-02-22T15:31:54Z","2026-02-22T15:32:01Z","2026-02-22T15:32:03Z","2026-02-22T15:32:06Z","2026-02-22T15:32:09Z","2026-02-22T15:32:15Z","2026-02-22T15:32:17Z","2026-02-22T15:32:20Z","2026-02-22T15:32:39Z","2026-02-22T15:32:45Z","2026-02-22T15:32:52Z","2026-02-22T15:32:55Z","2026-02-22T15:33:04Z","2026-02-22T15:33:06Z","2026-02-22T15:33:10Z","2026-02-22T15:33:15Z","2026-02-22T15:33:56Z","2026-02-22T15:33:58Z","2026-02-22T15:34:02Z","2026-02-22T15:34:18Z","2026-02-22T15:44:05Z","2026-02-22T15:44:08Z","2026-02-22T15:47:42Z","2026-02-22T15:47:53Z","2026-02-22T15:47:54Z","2026-02-22T15:47:57Z","2026-02-22T15:48:00Z","2026-02-22T15:48:01Z","2026-02-22T15:48:06Z","2026-02-22T15:48:07Z","2026-02-22T15:48:12Z","2026-02-22T15:48:17Z","2026-02-22T15:48:20Z","2026-02-22T15:48:24Z","2026-02-22T15:48:35Z","2026-02-22T15:48:42Z","2026-02-22T15:48:46Z","2026-02-22T15:48:51Z","2026-02-22T15:48:53Z","2026-02-22T15:48:57Z","2026-02-22T15:49:00Z","2026-02-22T15:49:06Z","2026-02-22T15:49:08Z","2026-02-22T15:49:09Z","2026-02-22T15:49:12Z","2026-02-22T15:49:13Z","2026-02-22T15:49:18Z","2026-02-22T15:49:22Z","2026-02-22T15:49:26Z","2026-02-22T15:49:31Z","2026-02-22T15:49:34Z","2026-02-22T15:49:38Z","2026-02-22T15:49:41Z","2026-02-22T15:49:46Z","2026-02-22T15:49:47Z","2026-02-22T15:49:51Z","2026-02-22T15:49:54Z","2026-02-22T15:49:55Z","2026-02-22T15:49:59Z","2026-02-22T15:50:05Z","2026-02-22T15:50:07Z","2026-02-22T15:50:08Z","2026-02-22T15:50:12Z","2026-02-22T15:50:15Z","2026-02-22T15:51:30Z","2026-02-22T15:51:43Z","2026-02-22T15:51:45Z","2026-02-22T15:51:47Z","2026-02-22T15:51:48Z","2026-02-22T15:51:51Z","2026-02-22T15:52:09Z","2026-02-22T15:52:10Z","2026-02-22T15:52:12Z","2026-02-22T15:52:55Z","2026-02-22T15:52:59Z","2026-02-22T15:53:03Z","2026-02-22T15:53:06Z","2026-02-22T15:53:11Z","2026-02-22T15:53:16Z","2026-02-22T15:53:21Z","2026-02-22T15:53:22Z","2026-02-22T15:53:28Z","2026-02-22T15:53:31Z","2026-02-22T15:53:33Z","2026-02-22T15:53:37Z","2026-02-22T15:53:40Z","2026-02-22T15:53:44Z","2026-02-22T15:53:48Z","2026-02-22T15:53:54Z","2026-02-22T15:53:56Z","2026-02-22T15:53:59Z","2026-02-22T15:54:01Z","2026-02-22T15:54:10Z","2026-02-22T15:54:12Z","2026-02-22T15:54:20Z","2026-02-22T15:54:47Z","2026-02-22T15:54:52Z","2026-02-22T15:55:09Z","2026-02-22T15:55:14Z","2026-02-22T15:55:28Z","2026-02-22T15:55:38Z","2026-02-22T15:55:43Z","2026-02-22T15:55:52Z","2026-02-22T15:55:53Z","2026-02-22T15:55:57Z","2026-02-22T15:55:59Z","2026-02-22T15:56:00Z","2026-02-22T15:56:01Z","2026-02-22T15:56:03Z","2026-02-22T15:56:04Z","2026-02-22T15:56:05Z","2026-02-22T15:56:12Z","2026-02-22T15:56:14Z","2026-02-22T15:56:15Z","2026-02-22T15:56:20Z","2026-02-22T15:56:23Z","2026-02-22T15:56:27Z","2026-02-22T15:56:29Z","2026-02-22T15:56:36Z","2026-02-22T15:56:38Z","2026-02-22T15:56:41Z","2026-02-22T15:56:43Z","2026-02-22T15:57:27Z","2026-02-22T15:57:34Z","2026-02-22T15:57:38Z","2026-02-22T15:57:41Z","2026-02-22T15:57:42Z","2026-02-22T15:57:48Z","2026-02-22T15:57:51Z","2026-02-22T15:57:56Z","2026-02-22T15:58:00Z","2026-02-22T15:58:02Z","2026-02-22T15:59:02Z","2026-02-22T16:04:48Z","2026-02-22T16:04:52Z","2026-02-22T16:04:54Z","2026-02-22T16:04:56Z","2026-02-22T16:04:58Z","2026-02-22T16:05:00Z","2026-02-22T16:05:01Z","2026-02-22T16:05:04Z","2026-02-22T16:05:08Z","2026-02-22T16:05:14Z","2026-02-22T16:05:18Z","2026-02-22T16:05:22Z","2026-02-22T16:05:23Z","2026-02-22T16:06:14Z","2026-02-22T16:06:15Z","2026-02-22T16:06:37Z","2026-02-22T16:06:41Z","2026-02-22T16:06:44Z","2026-02-22T16:06:46Z","2026-02-22T16:06:48Z","2026-02-22T16:08:09Z","2026-02-22T16:08:16Z","2026-02-22T16:08:27Z","2026-02-22T16:09:54Z"],"heartRates":[101,96,100,100,100,100,100,100,101,101,101,102,102,102,100,95,95,93,93,92,92,92,87,92,92,90,90,90,100,103,104,104,110,115,115,116,116,118,121,123,123,123,123,123,118,118,122,122,121,121,121,121,119,113,115,115,115,116,117,120,120,120,121,101,101,101,101,101,101,103,108,111,111,111,112,112,113,113,113,113,112,109,109,109,109,109,111,111,111,114,115,115,115,121,121,122,130,130,132,132,135,136,136,137,137,135,135,132,116,112,112,112,108,106,105,105,106,106,106,103,103,103,108,105,104,104,105,105,105,107,107,108,108,109,109,109,109,107,107,105,105,104,104,97,97,97,103,103,103,103,105,102,102,104,104,104,104,105,105,107,108,108,108,108,104,107,107,107,99,99,104,104,104,104,103,102,102,102,96,99,96,96,96,95,96,96,95,95,95,95,93,93,99,99,99,97,93,93,100,100,99,99,98,97,97,97,96,99,99,99,99,100,100,102,98,98,97,99,99,98,95,95,95,99,99,103,103,103,103,101,101,98,98,98,98,102,102,102,104,104,93,100,100,101,101,102,102,102,100,99,99,98,98,98,98,98,98,99,99,99,99,99,99,100,101,101,104,104,104,107,105,105,104,101,100,100,95,97,101,101,101,104,104,104,100,99,101,101,102,107,107,106,106,112,116,117,117,119,120,120,119,119,120,120,119,116,116,115,116,116,116,112,112,112,111,111,110,110,110,108,107,107,105,105,104,103,101,101,101,99,99,99,99,101,101,102,102,102,94,94,94,104,104,104,101,101,100,101,101,101,103,103,103,103,109,109,110,110,110,113,114,114,114,113,113,113,116,116,115,115,116,116,116,116,116,116,117,117,117,109,109,94,94,102,102,101,101,101,101,100,101,101,101,101,98,100,96,96,96,98,98,96,96,96,96,97,98,97,92,92,95,95,95,95,95,97,97,97,95,95,95,96,96,96,98,98,98,99,99,95,96,97,97,96,96,94,96,96,96,96,92,92,98,99,99,98,98,96,96,95,95,95,92,95,95,96,96,98,98,98,98,98,97,97,95,95,95,94,94,94,94,98,98,98,98,98,98,97,95,95,95,98,98,98,98,98,97,97,97,98,98,99,99,99,99,99,99,99,100,99,99,99,99,99,99,100,100,100,100,96,99,99,99,99,99,100,100,100,100,99,99,99,99,99,98,98,98,98,98,99,102,100,100,98,98,99,99,99,99,99,99,100,100,100,99,99,99,99,99,99,99,95,95,95,95,95,95,97,97,98,98,97,97,98,100,100,100,100,101,101,101,102,102,103,103,102,102,103,102,98,98,99,100,101,101,102,104,105,107,108,108,108,106,106,108,108,108,95,95,95,102,102,102,101,101,101,102,102,103,103,103,103,104,104,104,108,108,107,107,108,109,111,111,111,110,110,110,108,107,107,107,107,107,107,107,107,107,108,109,110,104,107,105,105,105,105,102,102,98,98,100,100,100,100,102,102,105,105,105,104,105,105,105,103,103,102,100,100,99,99,102,107,109,112,112,117,121,124,126,126,126,126,125,118,120,120,111,115,116,118,119,121,122,122,124,124,127,127,126,126,120,115,114,114,111,108,108,110,110,110,130,130,131,131,131,131,133,133,133,131,131,129,129,129,128,128,128,126,125,126,128,128,130,130,124,124,123,123,123,120,117,114,109,107,107,105,105,107,106,106,107,108,107,108,108,108,108,107,105,105,107,108,108,108,110,110,110,111,101,101,102,107,96,94,92,103,103,105,105,105,109,109,108,107,107,107,107,106,105,103,103,103,105,107,105,105,106,106,106,111,110,110,110,109,109,107,107,107,107,107,107,106,105,105,105,105,84,92,90,90,90,90,89,89,86,89,89,100,100,101,101,101,102,102,106,106,107,107,107,110,111,111,112,112,117,117,116,107,108,108,108,107,110,112,115,115,115,115,115,117,117,117,117,116,115,115,115,110,110,110,107,107,105,105,94,98,99,99,99,98,99,98,99,99,94,94,94,94,95,95,95,97,97,98,98,98,98,98,92,92,90,92,92,95,96,94,93,97,79],"month":"2026-02-01"},"geometry":{"type":"LineString","coordinates":[[2.342156,48.884274,86.5],[2.342119,48.884195,86.8],[2.342077,48.884218,86.9],[2.342042,48.884215,87],[2.342033,48.884208,87.1],[2.341976,48.884209,87.2],[2.34196,48.884201,87.2],[2.341938,48.884207,87.3],[2.341953,48.88422,87.4],[2.341931,48.88424,87.4],[2.341888,48.884196,87.6],[2.341866,48.884186,87.7],[2.341858,48.8842,87.7],[2.341777,48.884189,87.9],[2.341776,48.884198,87.9],[2.341576,48.884142,88.4],[2.341582,48.884127,88.5],[2.341564,48.884078,88.3],[2.341592,48.88407,88.2],[2.341576,48.884041,88.1],[2.341582,48.88401,88.2],[2.341571,48.884017,88.2],[2.341575,48.884098,88.5],[2.341599,48.884135,88.7],[2.341592,48.884157,88.9],[2.341608,48.884179,89.2],[2.341644,48.884192,89.5],[2.341658,48.884249,90.1],[2.341682,48.884253,90.3],[2.341708,48.884284,90.7],[2.341728,48.884347,91.4],[2.341754,48.884367,91.7],[2.341805,48.884438,92.5],[2.341818,48.88457,94],[2.341833,48.884572,94.1],[2.341844,48.884633,94.8],[2.341832,48.884667,95.2],[2.341834,48.884729,95.9],[2.341859,48.884789,96.7],[2.341893,48.884831,97.3],[2.341886,48.884852,97.6],[2.341877,48.884846,97.6],[2.341787,48.884916,98.5],[2.341762,48.884921,98.6],[2.341613,48.884992,99.3],[2.341603,48.884984,99.4],[2.34147,48.884999,100.3],[2.341455,48.885009,100.4],[2.341367,48.885033,101.1],[2.341372,48.885045,101.2],[2.341354,48.885062,101.4],[2.341293,48.885079,101.9],[2.341221,48.885143,102.7],[2.341171,48.885126,103.1],[2.341131,48.88514,103.4],[2.341094,48.885129,103.7],[2.341033,48.885166,104.2],[2.340979,48.88517,104.6],[2.340884,48.885243,105.5],[2.340709,48.885271,106.7],[2.340656,48.88531,107.3],[2.340627,48.885306,107.4],[2.34064,48.885299,107.6],[2.340638,48.885387,108.3],[2.340623,48.885384,108.4],[2.340562,48.88542,108.8],[2.340543,48.88545,109.2],[2.340562,48.885469,109.4],[2.340534,48.88548,109.6],[2.340549,48.885536,110.2],[2.340519,48.885632,111.2],[2.34055,48.885664,111.6],[2.340543,48.885686,111.8],[2.340556,48.885713,112],[2.340584,48.885723,112.2],[2.340576,48.885722,112.3],[2.340552,48.885827,112.6],[2.34051,48.885852,112.8],[2.340476,48.885854,112.8],[2.340502,48.885854,112.9],[2.340499,48.885848,112.9],[2.340354,48.885871,113.2],[2.340348,48.885881,113.3],[2.340372,48.885912,113.6],[2.340357,48.88593,113.9],[2.340357,48.885919,114.5],[2.34035,48.88595,115.7],[2.340333,48.885964,116.5],[2.340344,48.885971,116.9],[2.340346,48.885991,117.7],[2.340361,48.886002,118.3],[2.340357,48.886016,118.9],[2.340376,48.886014,119.5],[2.340369,48.886035,120.3],[2.340352,48.886036,120.8],[2.340383,48.886059,122.2],[2.34042,48.886115,124.7],[2.340435,48.886108,125.2],[2.340436,48.886137,126.3],[2.340444,48.886136,126.5],[2.340451,48.88622,128],[2.340408,48.886248,128.1],[2.340399,48.886246,128.1],[2.340397,48.886254,128.1],[2.340346,48.88627,128.2],[2.340228,48.886277,128.2],[2.340206,48.886269,128.2],[2.340103,48.886278,128.1],[2.339977,48.886346,127.8],[2.339925,48.886392,127.6],[2.339881,48.886413,127.5],[2.339854,48.886437,127.4],[2.339824,48.886445,127.3],[2.339689,48.886516,126.9],[2.33968,48.886534,126.9],[2.339637,48.886569,126.6],[2.339649,48.886603,126.5],[2.339672,48.886628,126.4],[2.339676,48.886673,126.2],[2.339662,48.886686,126.2],[2.339681,48.886765,126.2],[2.339681,48.886759,126.2],[2.339749,48.886823,126.5],[2.33977,48.886827,126.6],[2.339795,48.886851,126.7],[2.339785,48.886871,126.9],[2.339832,48.88688,127.1],[2.33983,48.886923,127.4],[2.339855,48.886957,127.6],[2.339903,48.886969,127.8],[2.339921,48.88696,127.8],[2.33991,48.886989,127.8],[2.339902,48.886985,127.8],[2.339883,48.886999,127.7],[2.339862,48.887,127.7],[2.339831,48.886983,127.7],[2.339777,48.887,127.6],[2.339739,48.887027,127.5],[2.339733,48.88707,127.6],[2.339717,48.887069,127.6],[2.339704,48.88708,127.6],[2.339672,48.887072,127.6],[2.339668,48.887077,127.6],[2.339737,48.887077,127.7],[2.339734,48.8871,127.8],[2.339786,48.887081,127.9],[2.339855,48.887077,128.1],[2.339873,48.887068,128.1],[2.339938,48.887078,128.3],[2.339933,48.887087,128.3],[2.339951,48.887091,128.4],[2.34012,48.887016,128.9],[2.34014,48.887018,129],[2.340213,48.887002,129.2],[2.340318,48.886998,129.5],[2.34033,48.887009,129.5],[2.340337,48.887044,129.7],[2.340375,48.887051,129.8],[2.340433,48.887032,130],[2.340577,48.887042,130.4],[2.340755,48.886995,130.9],[2.340799,48.886999,131],[2.340835,48.886969,131.2],[2.340811,48.886976,131.3],[2.34091,48.887007,131.5],[2.341025,48.886991,131.8],[2.34103,48.886997,131.8],[2.341023,48.886994,131.8],[2.341189,48.886995,131.9],[2.341235,48.886982,131.9],[2.341283,48.886997,132],[2.341285,48.886977,132],[2.341335,48.886939,131.9],[2.341347,48.886953,131.9],[2.341348,48.886947,131.9],[2.341391,48.886989,131.8],[2.3414,48.886986,131.7],[2.341379,48.88698,131.7],[2.341355,48.887062,131.6],[2.341369,48.887073,131.5],[2.341376,48.887098,131.5],[2.341398,48.887121,131.5],[2.341441,48.887132,131.4],[2.341432,48.887119,131.4],[2.34144,48.887156,131.3],[2.341425,48.887165,131.3],[2.341421,48.887157,131.2],[2.341397,48.887161,131.2],[2.341383,48.887177,131.1],[2.341391,48.887173,131.1],[2.341481,48.887187,130.9],[2.341472,48.887221,130.8],[2.341495,48.887215,130.7],[2.341495,48.887231,130.7],[2.341516,48.887236,130.6],[2.341523,48.887294,130.4],[2.341585,48.887415,130],[2.341583,48.887437,129.9],[2.341601,48.887454,129.9],[2.34161,48.887499,129.7],[2.341634,48.887516,129.6],[2.341631,48.887541,129.5],[2.341648,48.887561,129.4],[2.341625,48.887576,129.3],[2.341661,48.887624,129.2],[2.341669,48.88765,129.1],[2.3417,48.887661,129.1],[2.34175,48.887724,128.9],[2.34174,48.88774,128.9],[2.341749,48.88774,128.9],[2.341747,48.887777,128.8],[2.341761,48.887788,128.7],[2.341748,48.887775,128.7],[2.341784,48.887775,128.7],[2.341781,48.887756,128.6],[2.341763,48.887754,128.6],[2.341738,48.887732,128.5],[2.34163,48.887725,128.4],[2.341617,48.887719,128.3],[2.341627,48.887723,128.3],[2.341645,48.887638,128.1],[2.341636,48.88763,128.1],[2.341633,48.887637,128.1],[2.341649,48.887625,128.1],[2.341631,48.887631,128],[2.341628,48.887603,128],[2.341624,48.887614,127.9],[2.341635,48.887615,127.9],[2.341634,48.887609,127.9],[2.341628,48.887631,127.9],[2.341644,48.887647,127.8],[2.341649,48.887711,127.7],[2.341623,48.887732,127.6],[2.341625,48.887742,127.6],[2.341665,48.887748,127.5],[2.341664,48.887754,127.5],[2.341663,48.887743,127.5],[2.341656,48.887763,127.5],[2.341676,48.887801,126.8],[2.341666,48.88784,125.7],[2.341671,48.887914,123.1],[2.341733,48.887951,121.2],[2.341721,48.88801,119.6],[2.341711,48.888008,119.4],[2.341729,48.888042,118.8],[2.341803,48.888092,117.9],[2.341807,48.888123,117.6],[2.341876,48.888251,116.4],[2.341863,48.888307,115.9],[2.341849,48.888326,115.9],[2.341853,48.888336,115.8],[2.341833,48.888316,115.7],[2.341784,48.888327,115.5],[2.341765,48.888353,115.4],[2.341773,48.888357,115.4],[2.341759,48.888368,115.3],[2.341728,48.88837,115.3],[2.341664,48.888394,115],[2.341577,48.888399,114.8],[2.34145,48.888456,114.3],[2.34139,48.88846,114.1],[2.34132,48.888489,113.8],[2.341254,48.888493,113.6],[2.341191,48.888478,113.4],[2.341088,48.888502,113],[2.340903,48.888513,112.4],[2.340835,48.888526,112.2],[2.340738,48.888522,111.8],[2.340695,48.888507,111.7],[2.340473,48.888535,110.9],[2.340386,48.888533,110.6],[2.340366,48.888525,110.5],[2.340235,48.888519,110.1],[2.340077,48.888528,109.7],[2.340041,48.888537,109.7],[2.339962,48.888533,109.6],[2.340003,48.888544,109.5],[2.340073,48.888533,109.6],[2.340106,48.888515,109.6],[2.340111,48.888486,109.7],[2.340127,48.888499,109.8],[2.340128,48.888512,109.8],[2.340118,48.888495,109.9],[2.34018,48.888483,110.1],[2.340205,48.888492,110.1],[2.340296,48.888496,110.4],[2.340427,48.88848,110.8],[2.340503,48.88848,111.1],[2.340553,48.888489,111.3],[2.340655,48.888484,111.6],[2.3407,48.888475,111.8],[2.340907,48.888471,112.5],[2.340939,48.888464,112.6],[2.341081,48.88847,113.1],[2.341309,48.888449,113.9],[2.341371,48.888433,114.1],[2.341468,48.888423,114.4],[2.34153,48.888403,114.6],[2.341599,48.888397,114.9],[2.341709,48.888363,115.2],[2.341753,48.888359,115.3],[2.34178,48.888334,115.5],[2.341975,48.888293,115.8],[2.342005,48.888299,115.8],[2.342064,48.888291,115.8],[2.342282,48.888284,116],[2.342392,48.888266,116.4],[2.342492,48.888259,116.8],[2.342458,48.888252,116.9],[2.342456,48.888245,116.9],[2.342445,48.88828,116.7],[2.34241,48.888286,116.5],[2.342407,48.888292,116.5],[2.342383,48.888294,116.4],[2.342334,48.888274,116.2],[2.3423,48.888277,116.1],[2.342278,48.888297,116],[2.342309,48.888316,115.9],[2.342347,48.888357,115.4],[2.342417,48.888398,114.8],[2.342524,48.888417,114.2],[2.342542,48.888434,114],[2.342622,48.888473,113.4],[2.342735,48.88851,112.6],[2.342768,48.888528,112.3],[2.342889,48.888556,111.6],[2.343088,48.888618,110.3],[2.343157,48.888647,109.8],[2.343229,48.888661,109.3],[2.343358,48.888706,108.5],[2.343411,48.888713,108.2],[2.343467,48.888752,107.7],[2.343492,48.888751,107.6],[2.343543,48.888775,107.3],[2.343554,48.888789,107.2],[2.343659,48.888762,106.9],[2.343684,48.888762,106.8],[2.34367,48.888759,106.8],[2.34373,48.888812,106.8],[2.343773,48.888822,106.7],[2.343781,48.888818,106.7],[2.343857,48.88883,106.5],[2.34391,48.888851,106.5],[2.34391,48.888891,106.5],[2.343922,48.88892,106.5],[2.343909,48.888892,106.6],[2.343964,48.888847,106.9],[2.343966,48.888837,107],[2.343981,48.888835,107],[2.344047,48.888746,107.6],[2.344063,48.888687,107.9],[2.344082,48.888678,107.9],[2.34409,48.88865,108.1],[2.344079,48.88863,108.2],[2.344102,48.888523,108.8],[2.344126,48.888495,109],[2.344126,48.888456,109.2],[2.344158,48.888418,109.4],[2.344189,48.888406,109.5],[2.344223,48.888378,109.7],[2.34426,48.888376,109.8],[2.344278,48.888344,110],[2.344296,48.888333,110.1],[2.344314,48.888287,110.3],[2.344338,48.888265,110.5],[2.344351,48.88822,110.7],[2.344338,48.888169,110.9],[2.344354,48.888124,111.2],[2.344355,48.888078,111.4],[2.344329,48.888013,111.8],[2.344357,48.887958,112.1],[2.344349,48.887935,112.2],[2.344367,48.887891,112.5],[2.344389,48.887869,112.6],[2.344459,48.887828,113],[2.344495,48.887778,113.3],[2.344515,48.887713,113.7],[2.344506,48.887709,113.7],[2.34453,48.887693,113.8],[2.344571,48.887616,114.2],[2.344599,48.8876,114.1],[2.344787,48.887633,112.7],[2.34485,48.887666,112.1],[2.344922,48.887686,111.4],[2.34495,48.887678,111.2],[2.344987,48.887686,110.8],[2.345018,48.887703,110.5],[2.345036,48.887699,110.4],[2.345121,48.887716,109.6],[2.34517,48.887738,109.4],[2.345244,48.887731,109.2],[2.345271,48.887748,109.3],[2.345272,48.88776,109.3],[2.345257,48.887754,109.3],[2.345232,48.887675,109.4],[2.345278,48.887657,109.3],[2.345273,48.887605,109.1],[2.345258,48.887596,109.1],[2.345231,48.887518,108.7],[2.345232,48.887469,108.5],[2.345261,48.887402,107.8],[2.345266,48.887251,106.2],[2.345258,48.887242,106.1],[2.345262,48.887216,105.8],[2.34525,48.887205,105.7],[2.345284,48.887073,104.1],[2.345283,48.887081,104],[2.345264,48.887082,103.8],[2.345272,48.88708,103.8],[2.345248,48.88705,103.3],[2.345268,48.887008,102.8],[2.345259,48.886969,102.4],[2.345209,48.886947,101.9],[2.3452,48.886934,101.8],[2.345216,48.886914,101.5],[2.345237,48.886789,100],[2.345238,48.886718,99.2],[2.345228,48.886704,99],[2.345243,48.886671,98.6],[2.345222,48.886658,98.4],[2.345214,48.886638,98.2],[2.345179,48.886622,97.9],[2.34516,48.886595,97.8],[2.345175,48.886561,97.5],[2.345154,48.886517,97.3],[2.345137,48.886509,97.2],[2.34513,48.886489,96.9],[2.345169,48.886464,96.6],[2.345174,48.886425,96.2],[2.34516,48.886358,95.8],[2.34508,48.886363,95.8],[2.34506,48.886339,95.8],[2.34506,48.886317,95.8],[2.345032,48.886328,95.8],[2.345038,48.886288,95.7],[2.345027,48.88626,95.7],[2.345018,48.88631,95.7],[2.344995,48.886325,95.7],[2.344999,48.886353,95.8],[2.345049,48.886374,95.8],[2.345122,48.886359,95.8],[2.345119,48.886381,95.8],[2.345224,48.886377,95.6],[2.345343,48.8864,94.8],[2.345411,48.886428,94.2],[2.345486,48.886442,93.7],[2.345499,48.886461,93.5],[2.345529,48.886457,93.3],[2.345529,48.886466,93.2],[2.345571,48.886475,92.9],[2.345581,48.886484,92.8],[2.345663,48.88646,92.2],[2.345694,48.886461,92],[2.345757,48.886482,91.5],[2.34578,48.8865,91.3],[2.345835,48.886512,91],[2.345837,48.886524,90.8],[2.345908,48.886555,90.3],[2.34603,48.886569,89.6],[2.346039,48.886578,89.5],[2.346077,48.886574,89.2],[2.346089,48.886584,89.1],[2.346151,48.886589,88.7],[2.34617,48.886602,88.6],[2.346218,48.886604,88.3],[2.346239,48.886597,88.1],[2.346253,48.886607,88],[2.346286,48.886611,87.8],[2.34634,48.886605,87.5],[2.346384,48.886624,87.2],[2.346513,48.886621,86.6],[2.346555,48.886634,86.5],[2.346548,48.886625,86.4],[2.346558,48.886609,86.4],[2.346555,48.886616,86.4],[2.346554,48.886595,86.3],[2.346592,48.886556,86],[2.346644,48.886472,85.4],[2.346662,48.886381,84.9],[2.346655,48.88634,84.7],[2.346693,48.886307,84.4],[2.346644,48.886173,83.6],[2.346618,48.886135,83.4],[2.346581,48.886106,83.1],[2.346556,48.886072,82.9],[2.346551,48.885945,82.1],[2.346533,48.885904,81.9],[2.346509,48.885896,81.8],[2.346517,48.885876,81.7],[2.346491,48.885825,81.5],[2.346495,48.885808,81.4],[2.346483,48.885786,81.3],[2.346475,48.885789,81.3],[2.346519,48.88579,81.2],[2.346548,48.88578,81.2],[2.346585,48.885785,81.1],[2.346718,48.885757,81],[2.346881,48.885763,80.9],[2.346888,48.885768,80.9],[2.347003,48.885762,80.8],[2.347018,48.885771,80.7],[2.347175,48.885764,80.6],[2.347189,48.885774,80.6],[2.347224,48.885756,80.6],[2.347246,48.885761,80.6],[2.34732,48.885743,80.5],[2.347367,48.885767,80.6],[2.347373,48.885791,80.5],[2.347366,48.88579,80.5],[2.347433,48.885661,80.3],[2.34743,48.885588,80.1],[2.347457,48.88554,80],[2.347436,48.885513,79.9],[2.347447,48.885478,79.7],[2.347432,48.885449,79.6],[2.347424,48.885391,79.4],[2.347401,48.885362,79.3],[2.347402,48.885349,79.3],[2.347304,48.885284,78.9],[2.347298,48.885238,78.8],[2.347279,48.885226,78.7],[2.347239,48.885161,78.4],[2.347249,48.88516,78.4],[2.347254,48.88509,78.1],[2.347267,48.885062,78],[2.347271,48.885071,78],[2.347305,48.885065,78],[2.347307,48.885051,78.1],[2.347339,48.885029,78.1],[2.347423,48.885024,77.8],[2.3476,48.884974,76.8],[2.347624,48.884979,76.7],[2.347783,48.884941,75.8],[2.347922,48.884927,75.1],[2.347954,48.884907,74.9],[2.348012,48.884903,74.6],[2.348082,48.884875,74.2],[2.3481,48.884856,74],[2.348156,48.884843,73.7],[2.348257,48.8848,73.1],[2.348276,48.8848,73.1],[2.348351,48.884766,72.6],[2.348404,48.884754,72.4],[2.348455,48.884766,72.1],[2.348516,48.884755,71.9],[2.348673,48.884765,71.2],[2.348797,48.884745,70.7],[2.348832,48.884746,70.5],[2.348879,48.884721,70.3],[2.348901,48.884724,70.3],[2.34891,48.884746,70.4],[2.348865,48.884673,70.5],[2.348857,48.884634,70.5],[2.348785,48.884588,70.6],[2.348748,48.884579,70.6],[2.348749,48.884545,70.6],[2.348797,48.884507,70.6],[2.348828,48.884501,70.6],[2.348805,48.884477,70.6],[2.348767,48.884462,70.7],[2.348768,48.884451,70.7],[2.348709,48.884409,70.7],[2.348696,48.884373,70.7],[2.348706,48.884324,70.7],[2.348633,48.884231,70.6],[2.348545,48.884177,70.5],[2.348495,48.884134,70.5],[2.348502,48.884104,70.4],[2.348485,48.884058,70.3],[2.348436,48.883999,70.1],[2.34842,48.883993,70.1],[2.348389,48.883956,70],[2.348363,48.88394,69.9],[2.348337,48.883907,69.8],[2.348323,48.883848,69.7],[2.348308,48.883837,69.7],[2.34831,48.883814,69.6],[2.348348,48.883788,69.6],[2.348388,48.883797,69.5],[2.348314,48.883761,69.4],[2.34825,48.883767,69.6],[2.348144,48.883745,69.8],[2.348099,48.88375,69.9],[2.34801,48.883743,70.1],[2.347905,48.883745,70.3],[2.347728,48.883712,70.6],[2.347671,48.88371,70.8],[2.347575,48.883676,71.1],[2.347499,48.883665,71.4],[2.347339,48.883662,72],[2.347323,48.883674,72.1],[2.347283,48.88367,72.3],[2.347218,48.88365,72.5],[2.347129,48.88364,72.9],[2.347117,48.883645,72.9],[2.347093,48.883635,73],[2.347088,48.883643,73.1],[2.346958,48.883657,73.4],[2.346942,48.883696,73.5],[2.34695,48.88372,73.6],[2.346932,48.883756,73.8],[2.34693,48.883788,73.9],[2.346871,48.883818,74],[2.346834,48.883854,74.1],[2.346808,48.883866,74.1],[2.34677,48.883908,74.3],[2.346746,48.883957,74.4],[2.346707,48.883993,74.6],[2.346713,48.884005,74.6],[2.346683,48.88403,74.7],[2.346578,48.884006,75],[2.34657,48.884017,75.1],[2.34655,48.884021,75.1],[2.346492,48.884061,75.3],[2.346439,48.88408,75.4],[2.346371,48.884093,75.6],[2.34631,48.88412,75.8],[2.346248,48.884132,75.9],[2.346221,48.884155,76],[2.346148,48.884175,76.1],[2.346098,48.884219,76.3],[2.34608,48.884247,76.4],[2.346045,48.884247,76.4],[2.345973,48.884282,76.6],[2.3459,48.884233,76.6],[2.345875,48.884204,76.7],[2.345855,48.884195,76.7],[2.345784,48.884187,76.7],[2.345623,48.884242,77],[2.345598,48.884242,77.1],[2.345538,48.884279,77.2],[2.345422,48.884324,77.5],[2.345384,48.884326,77.6],[2.345369,48.88432,77.6],[2.345352,48.884323,77.7],[2.345303,48.884355,77.8],[2.345301,48.884435,78.1],[2.34524,48.884482,78.3],[2.345131,48.884517,78.5],[2.345069,48.884527,78.6],[2.34484,48.884435,79],[2.344699,48.884414,79.2],[2.344619,48.884389,79.2],[2.344586,48.884397,79.3],[2.344512,48.884397,79.3],[2.344491,48.88439,79.4],[2.344299,48.884418,79.5],[2.344278,48.884414,79.6],[2.344166,48.884339,79.4],[2.344109,48.884356,79.4],[2.344051,48.884395,79.7],[2.344064,48.884433,79.8],[2.344125,48.884472,80],[2.344149,48.884479,80],[2.344202,48.884593,80],[2.344197,48.884589,80],[2.344207,48.884604,80],[2.344202,48.884619,80],[2.344233,48.884656,80],[2.344223,48.88467,80.1],[2.344216,48.884736,80.1],[2.344229,48.884745,80.1],[2.344218,48.884776,80.2],[2.344234,48.884825,80.2],[2.344197,48.884853,80.2],[2.344134,48.884878,80.3],[2.344132,48.884941,80.4],[2.344141,48.884895,80.8],[2.344132,48.88487,81.2],[2.344114,48.884863,81.4],[2.344056,48.884882,82.1],[2.344026,48.884868,82.4],[2.343978,48.884883,83],[2.343926,48.884869,83.5],[2.343899,48.884871,83.8],[2.343909,48.884882,84.1],[2.343772,48.884914,87.1],[2.343682,48.884893,89.2],[2.343624,48.884856,90.9],[2.343598,48.884858,91.5],[2.343546,48.884879,91.6],[2.343531,48.884877,91.5],[2.343454,48.884916,90.2],[2.343532,48.884954,90.6],[2.343594,48.885009,91],[2.343606,48.885002,91.2],[2.343657,48.885005,91.8],[2.343751,48.885129,93.9],[2.343739,48.885187,94.5],[2.343666,48.885208,95.8],[2.343639,48.885225,96.5],[2.343609,48.885231,97],[2.343575,48.885263,97.7],[2.343569,48.885282,97.8],[2.343608,48.885327,98.5],[2.343701,48.885379,100.6],[2.343734,48.885455,101.9],[2.343728,48.885452,102],[2.343531,48.885529,105.4],[2.34336,48.88554,105.9],[2.34322,48.885522,106],[2.343059,48.885531,106.1],[2.343012,48.885543,106.3],[2.342928,48.885529,106.6],[2.342884,48.88551,107.2],[2.342848,48.885511,107.9],[2.342811,48.885542,109.1],[2.342817,48.88556,109.7],[2.342803,48.885595,110.8],[2.34281,48.885612,111.4],[2.342792,48.885644,112.4],[2.342807,48.885643,112.7],[2.342824,48.885679,113.8],[2.342848,48.88569,114.1],[2.342857,48.885708,114.1],[2.342882,48.885715,114.2],[2.343037,48.885717,114.5],[2.343041,48.885726,114.6],[2.343083,48.885733,114.7],[2.3431,48.88576,114.8],[2.343114,48.885762,114.9],[2.343106,48.885766,114.9],[2.343151,48.885795,115.4],[2.343152,48.885789,115.5],[2.343123,48.885902,118.5],[2.343098,48.88594,119.6],[2.343112,48.885969,119.8],[2.343133,48.885986,120.1],[2.343134,48.886068,123],[2.343118,48.886084,123.7],[2.343119,48.886098,124.2],[2.34314,48.88611,124.9],[2.34313,48.886124,125.5],[2.343129,48.886108,125.8],[2.343096,48.88615,126.2],[2.343052,48.886148,126.5],[2.343032,48.886163,126.7],[2.343033,48.886173,126.8],[2.342971,48.886185,127],[2.342859,48.886186,127.3],[2.342787,48.886152,127.6],[2.342727,48.886147,127.7],[2.342558,48.886042,127.8],[2.342439,48.886025,127.8],[2.342423,48.88603,127.8],[2.342392,48.886077,127.9],[2.342338,48.886079,127.8],[2.342281,48.886068,127.6],[2.342122,48.886117,127.5],[2.342084,48.886115,127.5],[2.341948,48.886149,127.5],[2.341914,48.886171,127.5],[2.34179,48.886181,127.5],[2.341679,48.886208,127.6],[2.341645,48.886207,127.7],[2.341592,48.886226,127.8],[2.341543,48.886226,127.9],[2.341454,48.886247,128.2],[2.341441,48.886256,128.3],[2.341452,48.88627,128.4],[2.341419,48.886368,129.2],[2.341416,48.88642,129.7],[2.341429,48.886494,130.4],[2.341421,48.886522,130.6],[2.341446,48.886611,131.2],[2.341427,48.88662,131.3],[2.341404,48.886651,131.4],[2.341353,48.886662,131.4],[2.341241,48.886625,131.4],[2.341226,48.886608,131.4],[2.341214,48.886617,131.4],[2.341197,48.886599,131.4],[2.341091,48.886612,131.4],[2.341093,48.886622,131.4],[2.341199,48.886643,131.4],[2.341318,48.88661,131.4],[2.341325,48.886596,131.3],[2.341363,48.88657,131.2],[2.341383,48.886506,130.6],[2.341376,48.886506,130.5],[2.341417,48.886433,129.8],[2.341414,48.886413,129.6],[2.341437,48.886349,129],[2.341423,48.886281,128.4],[2.341454,48.88624,128.1],[2.341543,48.886212,127.9],[2.341796,48.886182,127.5],[2.341935,48.886139,127.5],[2.342024,48.88613,127.5],[2.342126,48.886104,127.5],[2.342177,48.886102,127.6],[2.342242,48.886083,127.6],[2.342306,48.886077,127.6],[2.342458,48.886106,127.8],[2.342489,48.886104,127.8],[2.342508,48.88609,127.9],[2.342536,48.886033,127.8],[2.342561,48.886027,127.8],[2.342662,48.886036,127.8],[2.342698,48.886065,127.8],[2.342756,48.886067,127.8],[2.342818,48.886111,127.7],[2.342899,48.886108,127.5],[2.342961,48.886126,127.3],[2.343012,48.88612,127.1],[2.34306,48.88609,126.9],[2.343045,48.886097,126.8],[2.343043,48.88608,126.7],[2.343072,48.886059,126.3],[2.343063,48.886056,126.2],[2.3431,48.886023,125.7],[2.343226,48.886001,122.5],[2.343237,48.885978,121.7],[2.343256,48.885969,121.1],[2.343276,48.885941,120],[2.343297,48.885935,120],[2.343307,48.885955,120],[2.343298,48.885961,120],[2.343314,48.885955,120],[2.343347,48.885969,120],[2.34335,48.885977,120],[2.343336,48.885983,120],[2.343376,48.885969,120],[2.343372,48.885962,120],[2.343337,48.88596,120],[2.343239,48.885928,120],[2.343169,48.885916,120],[2.343086,48.885924,120],[2.343024,48.885915,120.1],[2.342924,48.885921,120.2],[2.3428,48.885899,120.3],[2.342724,48.88587,120.4],[2.342711,48.885857,120.5],[2.342603,48.885817,120.7],[2.342547,48.885812,120.8],[2.342508,48.885799,120.8],[2.342419,48.885795,121],[2.34237,48.885782,120.9],[2.342307,48.885788,121],[2.342231,48.885768,121.3],[2.342115,48.885788,121.8],[2.342078,48.885785,122],[2.342029,48.885793,122.2],[2.341997,48.885816,122.4],[2.341827,48.885844,123.1],[2.341799,48.885843,123.2],[2.341673,48.885865,123.8],[2.341463,48.885925,125],[2.341427,48.88596,125.4],[2.341426,48.886106,126.8],[2.341438,48.886153,127.4],[2.3414,48.886286,128.5],[2.341404,48.886365,129.2],[2.34142,48.886411,129.6],[2.341396,48.886516,130.6],[2.341386,48.886523,130.7],[2.34139,48.886559,131.1],[2.34138,48.88655,131.2],[2.341337,48.88656,131.3],[2.341334,48.886573,131.3],[2.341282,48.886604,131.4],[2.341262,48.886596,131.4],[2.341243,48.886598,131.4],[2.341175,48.886655,131.4],[2.341143,48.886649,131.4],[2.341136,48.886641,131.4],[2.341094,48.886631,131.3],[2.341075,48.886617,131.2],[2.341049,48.886613,131.2],[2.341063,48.886603,131.1],[2.341046,48.886532,130.8],[2.341034,48.886521,130.7],[2.341036,48.886497,130.6],[2.341026,48.886493,130.6],[2.340999,48.886425,130.2],[2.34095,48.886358,129.9],[2.340918,48.886348,129.8],[2.340882,48.886352,129.7],[2.34086,48.886347,129.6],[2.340773,48.886374,129.4],[2.340724,48.886367,129.3],[2.340662,48.886407,129.1],[2.340637,48.886455,129.3],[2.340628,48.886454,129.3],[2.340611,48.886477,129.4],[2.340609,48.886546,129.6],[2.340603,48.88654,129.6],[2.34059,48.886561,129.7],[2.340606,48.886562,129.8],[2.340605,48.886583,129.8],[2.340618,48.886589,129.9],[2.340615,48.886598,129.9],[2.340648,48.886617,130],[2.340697,48.886623,130.1],[2.34077,48.8866,130.3],[2.340811,48.886595,130.3],[2.340865,48.886603,130.3],[2.340873,48.886597,130.4],[2.34096,48.886648,130.5],[2.340947,48.886654,130.5],[2.340955,48.886739,130.6],[2.340939,48.886729,130.6],[2.340941,48.886735,130.6],[2.34093,48.886735,130.6],[2.340928,48.886744,130.6],[2.340974,48.886643,130.8],[2.340903,48.886637,130.8],[2.340953,48.886626,130.9],[2.340918,48.88661,130.9]]}}]}