{"type":"FeatureCollection","features":[{"type":"Feature","properties":{"name":"En quête de pâtisseries pour le goûter","type":"walking","time":"2025-06-29T09:57:22.000Z","coordTimes":["2025-06-29T09:57:22.000Z","2025-06-29T09:57:29.000Z","2025-06-29T09:57:31.000Z","2025-06-29T09:57:59.000Z","2025-06-29T09:58:30.000Z","2025-06-29T09:59:01.000Z","2025-06-29T09:59:02.000Z","2025-06-29T10:00:02.000Z","2025-06-29T10:00:24.000Z","2025-06-29T10:00:26.000Z","2025-06-29T10:01:06.000Z","2025-06-29T10:01:36.000Z","2025-06-29T10:01:41.000Z","2025-06-29T10:02:10.000Z","2025-06-29T10:02:12.000Z","2025-06-29T10:02:34.000Z","2025-06-29T10:02:35.000Z","2025-06-29T10:02:36.000Z","2025-06-29T10:03:05.000Z","2025-06-29T10:03:36.000Z","2025-06-29T10:03:37.000Z","2025-06-29T10:04:07.000Z","2025-06-29T10:04:35.000Z","2025-06-29T10:04:36.000Z","2025-06-29T10:04:37.000Z","2025-06-29T10:05:06.000Z","2025-06-29T10:05:10.000Z","2025-06-29T10:05:28.000Z","2025-06-29T10:05:34.000Z","2025-06-29T10:05:38.000Z","2025-06-29T10:05:42.000Z","2025-06-29T10:05:44.000Z","2025-06-29T10:05:45.000Z","2025-06-29T10:05:47.000Z","2025-06-29T10:05:49.000Z","2025-06-29T10:05:50.000Z","2025-06-29T10:05:52.000Z","2025-06-29T10:05:53.000Z","2025-06-29T10:05:54.000Z","2025-06-29T10:05:55.000Z","2025-06-29T10:06:00.000Z","2025-06-29T10:06:07.000Z","2025-06-29T10:06:12.000Z","2025-06-29T10:06:15.000Z","2025-06-29T10:06:19.000Z","2025-06-29T10:06:23.000Z","2025-06-29T10:06:27.000Z","2025-06-29T10:06:30.000Z","2025-06-29T10:06:36.000Z","2025-06-29T10:06:39.000Z","2025-06-29T10:06:41.000Z","2025-06-29T10:06:57.000Z","2025-06-29T10:07:02.000Z","2025-06-29T10:07:09.000Z","2025-06-29T10:07:14.000Z","2025-06-29T10:07:17.000Z","2025-06-29T10:07:25.000Z","2025-06-29T10:07:27.000Z","2025-06-29T10:07:30.000Z","2025-06-29T10:07:32.000Z","2025-06-29T10:07:36.000Z","2025-06-29T10:07:37.000Z","2025-06-29T10:07:39.000Z","2025-06-29T10:07:42.000Z","2025-06-29T10:07:45.000Z","2025-06-29T10:07:50.000Z","2025-06-29T10:08:00.000Z","2025-06-29T10:08:03.000Z","2025-06-29T10:08:06.000Z","2025-06-29T10:08:08.000Z","2025-06-29T10:08:11.000Z","2025-06-29T10:08:14.000Z","2025-06-29T10:08:18.000Z","2025-06-29T10:08:22.000Z","2025-06-29T10:08:34.000Z","2025-06-29T10:08:40.000Z","2025-06-29T10:16:23.000Z","2025-06-29T10:16:31.000Z","2025-06-29T10:16:40.000Z","2025-06-29T10:16:43.000Z","2025-06-29T10:16:44.000Z","2025-06-29T10:16:53.000Z","2025-06-29T10:16:54.000Z","2025-06-29T10:16:57.000Z","2025-06-29T10:17:00.000Z","2025-06-29T10:17:08.000Z","2025-06-29T10:17:28.000Z","2025-06-29T10:17:34.000Z","2025-06-29T10:17:38.000Z","2025-06-29T10:17:40.000Z","2025-06-29T10:17:49.000Z","2025-06-29T10:17:55.000Z","2025-06-29T10:18:05.000Z","2025-06-29T10:18:12.000Z","2025-06-29T10:18:18.000Z","2025-06-29T10:18:31.000Z","2025-06-29T10:18:39.000Z","2025-06-29T10:18:48.000Z","2025-06-29T10:18:52.000Z","2025-06-29T10:18:56.000Z","2025-06-29T10:19:00.000Z","2025-06-29T10:19:01.000Z","2025-06-29T10:19:02.000Z","2025-06-29T10:19:06.000Z","2025-06-29T10:19:13.000Z","2025-06-29T10:19:17.000Z","2025-06-29T10:19:21.000Z","2025-06-29T10:19:23.000Z","2025-06-29T10:19:24.000Z","2025-06-29T10:19:27.000Z","2025-06-29T10:19:29.000Z","2025-06-29T10:19:34.000Z","2025-06-29T10:19:36.000Z","2025-06-29T10:19:43.000Z","2025-06-29T10:19:47.000Z","2025-06-29T10:19:52.000Z","2025-06-29T10:19:56.000Z","2025-06-29T10:19:58.000Z","2025-06-29T10:20:02.000Z","2025-06-29T10:20:04.000Z","2025-06-29T10:20:15.000Z","2025-06-29T10:20:23.000Z","2025-06-29T10:20:33.000Z","2025-06-29T10:20:38.000Z","2025-06-29T10:20:44.000Z","2025-06-29T10:20:46.000Z","2025-06-29T10:20:50.000Z","2025-06-29T10:20:53.000Z","2025-06-29T10:21:00.000Z","2025-06-29T10:21:04.000Z","2025-06-29T10:21:09.000Z","2025-06-29T10:21:17.000Z","2025-06-29T10:21:23.000Z","2025-06-29T10:21:26.000Z","2025-06-29T10:21:29.000Z","2025-06-29T10:21:34.000Z","2025-06-29T10:21:37.000Z","2025-06-29T10:21:44.000Z","2025-06-29T10:21:48.000Z","2025-06-29T10:21:55.000Z","2025-06-29T10:21:58.000Z","2025-06-29T10:22:00.000Z","2025-06-29T10:22:02.000Z","2025-06-29T10:22:04.000Z","2025-06-29T10:22:11.000Z","2025-06-29T10:22:18.000Z","2025-06-29T10:22:22.000Z","2025-06-29T10:22:24.000Z","2025-06-29T10:22:28.000Z","2025-06-29T10:22:31.000Z","2025-06-29T10:22:39.000Z","2025-06-29T10:22:44.000Z","2025-06-29T10:22:52.000Z","2025-06-29T10:22:58.000Z","2025-06-29T10:23:01.000Z","2025-06-29T10:23:12.000Z","2025-06-29T10:23:20.000Z","2025-06-29T10:23:32.000Z","2025-06-29T10:23:37.000Z","2025-06-29T10:23:49.000Z","2025-06-29T10:23:51.000Z","2025-06-29T10:23:58.000Z","2025-06-29T10:24:00.000Z","2025-06-29T10:24:03.000Z","2025-06-29T10:24:08.000Z","2025-06-29T10:24:13.000Z","2025-06-29T10:24:17.000Z","2025-06-29T10:24:20.000Z","2025-06-29T10:24:24.000Z","2025-06-29T10:24:28.000Z","2025-06-29T10:24:35.000Z","2025-06-29T10:24:37.000Z","2025-06-29T10:24:42.000Z","2025-06-29T10:24:44.000Z","2025-06-29T10:24:52.000Z","2025-06-29T10:24:54.000Z","2025-06-29T10:24:59.000Z","2025-06-29T10:25:01.000Z","2025-06-29T10:25:02.000Z","2025-06-29T10:25:03.000Z","2025-06-29T10:25:12.000Z","2025-06-29T10:25:14.000Z","2025-06-29T10:25:20.000Z","2025-06-29T10:25:24.000Z","2025-06-29T10:25:28.000Z","2025-06-29T10:25:31.000Z","2025-06-29T10:25:35.000Z","2025-06-29T10:25:43.000Z","2025-06-29T10:25:49.000Z","2025-06-29T10:25:51.000Z","2025-06-29T10:25:57.000Z","2025-06-29T10:25:58.000Z","2025-06-29T10:26:00.000Z","2025-06-29T10:26:04.000Z","2025-06-29T10:26:06.000Z","2025-06-29T10:26:09.000Z","2025-06-29T10:26:11.000Z","2025-06-29T10:26:13.000Z","2025-06-29T10:26:16.000Z"],"heartRates":[92,92,92,92,92,89,89,89,90,90,94,95,95,97,97,98,98,98,96,94,94,96,94,94,94,95,95,96,97,97,96,96,95,95,95,95,95,94,94,94,95,95,95,94,93,94,94,94,95,95,95,93,93,93,93,94,94,94,94,93,93,93,94,95,95,94,95,96,96,96,97,97,98,96,100,101,98,98,100,100,100,100,100,100,100,98,101,101,100,100,104,104,103,102,102,99,99,102,102,103,103,104,104,103,103,105,105,105,105,103,103,103,103,105,102,102,102,102,99,99,101,97,99,97,97,97,94,93,93,92,92,95,95,95,95,96,96,97,99,97,97,97,97,97,98,96,96,96,96,96,97,99,95,93,93,90,89,89,89,93,93,91,91,91,90,90,91,91,91,91,91,91,92,92,94,94,96,96,96,96,96,96,96,95,95,95,95,96,96,96,95,95,91,94,94,94,99,98,98]},"geometry":{"type":"LineString","coordinates":[[2.454016,48.702855,0],[2.454069,48.702934,0],[2.454115,48.702955,0],[2.454527,48.703172,0],[2.455001,48.703349,0],[2.455505,48.703503,0],[2.455531,48.703519,0],[2.456183,48.704104,0],[2.456445,48.704255,0],[2.456475,48.704278,0],[2.456822,48.704681,0],[2.457184,48.705005,0],[2.457243,48.705068,0],[2.457568,48.705367,0],[2.457592,48.705398,0],[2.457713,48.705635,0],[2.457718,48.705646,0],[2.4577,48.705662,0],[2.457374,48.7059,0],[2.457267,48.705986,0],[2.457299,48.70597,0],[2.457704,48.705705,0],[2.458091,48.705545,0],[2.45812,48.705542,0],[2.458137,48.705536,0],[2.458647,48.705343,0],[2.458695,48.705313,0],[2.458938,48.705151,76.4],[2.459031,48.7051,76.2],[2.459096,48.705058,76.4],[2.459156,48.705025,76.8],[2.45919,48.705008,77],[2.459207,48.705003,77],[2.45924,48.705,77.2],[2.459274,48.705,77.2],[2.459301,48.704995,77.4],[2.459324,48.704988,77.4],[2.45934,48.70498,77.4],[2.459356,48.70497,77.4],[2.459379,48.704948,77.4],[2.459427,48.70489,77],[2.459538,48.704806,76.2],[2.459586,48.704766,75.8],[2.459622,48.704742,75.6],[2.459684,48.704715,75.4],[2.459739,48.704686,75.4],[2.45981,48.704664,75.2],[2.459864,48.704641,75.2],[2.459961,48.704585,75],[2.46,48.704556,75],[2.460041,48.704533,75],[2.460312,48.704432,75.6],[2.460384,48.70439,75.8],[2.460496,48.704334,75.8],[2.460568,48.704293,75.6],[2.460613,48.704272,75.8],[2.460735,48.704232,76],[2.460762,48.70422,76],[2.460797,48.704192,75.8],[2.460813,48.704171,75.8],[2.46081,48.704113,75.8],[2.460822,48.70409,75.8],[2.460835,48.704075,75.8],[2.460873,48.704046,75.8],[2.46092,48.704015,76],[2.461013,48.703963,76],[2.461135,48.703882,76.4],[2.461177,48.703847,76.6],[2.461209,48.703825,76.6],[2.461238,48.703811,76.6],[2.461297,48.703789,76.6],[2.461334,48.703772,76.6],[2.461386,48.703744,76.4],[2.461452,48.703713,76.4],[2.461656,48.7036,77],[2.461712,48.703559,77.2],[2.461384,48.703741,76.6],[2.461269,48.703797,76.6],[2.461157,48.703863,76.4],[2.46112,48.703881,76.4],[2.461096,48.703882,76.4],[2.460997,48.703853,76.6],[2.460982,48.703842,76.8],[2.460939,48.703822,77],[2.460903,48.703793,77.2],[2.460823,48.703707,77.4],[2.460596,48.703491,77.8],[2.460537,48.70343,78.2],[2.460503,48.703385,78.6],[2.460484,48.703366,78.6],[2.46037,48.703285,78.6],[2.460285,48.703244,78.4],[2.460138,48.703156,78.2],[2.460053,48.703091,78.4],[2.45999,48.703033,78.6],[2.459852,48.702923,80],[2.459755,48.702855,80.4],[2.45964,48.702769,80.6],[2.459573,48.702734,80.4],[2.459509,48.702709,80.2],[2.459452,48.702679,80.2],[2.459435,48.702672,80],[2.459405,48.702666,80],[2.459335,48.702659,80.2],[2.459196,48.702637,80.2],[2.459108,48.702643,80.2],[2.459048,48.702653,80],[2.459015,48.702651,80],[2.459,48.702645,80],[2.458963,48.702616,80],[2.458944,48.702593,80],[2.458918,48.702535,79.8],[2.458905,48.702521,79.8],[2.458807,48.702458,79.6],[2.458767,48.702424,79.8],[2.458726,48.702378,80],[2.458679,48.70234,80.2],[2.458655,48.702326,80.4],[2.458595,48.702302,80.6],[2.458569,48.702288,80.6],[2.458436,48.702192,80.8],[2.458333,48.702121,81.2],[2.458205,48.702047,81.6],[2.458135,48.702015,81.6],[2.45805,48.701963,81.6],[2.458027,48.701941,81.6],[2.45799,48.701896,81.6],[2.457959,48.701866,81.8],[2.457881,48.7018,81.8],[2.457836,48.701765,82],[2.457777,48.701725,82.2],[2.457691,48.701654,82.6],[2.457597,48.701595,82.8],[2.45755,48.701572,82.8],[2.457492,48.701555,82.8],[2.457405,48.701541,82.6],[2.457349,48.701541,82.6],[2.457204,48.701554,82.8],[2.457126,48.701558,83],[2.456998,48.701557,83],[2.456952,48.701564,83],[2.456919,48.701572,83],[2.456888,48.701586,83],[2.45686,48.701604,82.8],[2.456768,48.701688,82.8],[2.456704,48.701762,82.8],[2.456664,48.7018,82.6],[2.456646,48.701822,82.6],[2.456618,48.701866,82.4],[2.45659,48.701898,82.2],[2.456501,48.701979,81.8],[2.456434,48.702032,81.8],[2.456351,48.702117,81.8],[2.456284,48.702173,81.8],[2.456256,48.702204,81.8],[2.456179,48.702312,81.4],[2.456122,48.702384,81.4],[2.456004,48.702497,82.2],[2.455956,48.702553,82.2],[2.455819,48.702669,81.6],[2.455801,48.702688,81.6],[2.455754,48.702765,81.4],[2.455737,48.702786,81.4],[2.455707,48.702813,81.2],[2.455661,48.702862,81.2],[2.455607,48.70291,81.2],[2.455563,48.702942,81.2],[2.455538,48.702968,81.2],[2.455513,48.703005,81.4],[2.455477,48.703045,81.6],[2.455387,48.703101,81.6],[2.455357,48.703124,81.6],[2.455292,48.703182,81.6],[2.455271,48.703197,81.6],[2.455162,48.703262,81.8],[2.455142,48.703278,81.8],[2.455102,48.703315,81.6],[2.45508,48.70332,81.6],[2.455067,48.703321,81.6],[2.455055,48.703319,81.6],[2.454913,48.703266,81.8],[2.454882,48.703252,81.8],[2.454801,48.703207,82.2],[2.454743,48.703182,82.4],[2.454676,48.703163,82.4],[2.454628,48.703145,82.6],[2.45457,48.703115,82.8],[2.454447,48.70306,83],[2.45435,48.703025,83],[2.45431,48.703004,83],[2.454241,48.702952,83],[2.454224,48.702944,82.8],[2.454188,48.702933,82.8],[2.454112,48.702926,82.6],[2.454065,48.702916,82.4],[2.454019,48.702893,82.2],[2.453996,48.702878,82.2],[2.453977,48.70286,82],[2.453951,48.702825,82.2]]}}]}