{"type":"FeatureCollection","features":[{"type":"Feature","properties":{"name":"gps4cam trip started at: 2019-02-27T03:11:32Z","time":"2019-02-27T10:21:34Z","coordTimes":["2019-02-27T10:21:34Z","2019-02-27T10:27:15Z","2019-02-27T10:31:36Z","2019-02-27T10:36:35Z","2019-02-27T10:41:35Z","2019-02-27T10:46:36Z","2019-02-27T10:51:36Z","2019-02-27T10:56:35Z","2019-02-27T11:01:35Z","2019-02-27T11:06:35Z","2019-02-27T11:11:35Z","2019-02-27T11:16:41Z","2019-02-27T11:21:35Z","2019-02-27T11:26:42Z","2019-02-27T11:31:43Z","2019-02-27T11:36:35Z","2019-02-27T11:42:00Z","2019-02-27T11:46:35Z","2019-02-27T11:51:38Z","2019-02-27T11:56:35Z","2019-02-27T12:01:35Z","2019-02-27T12:06:35Z","2019-02-27T12:11:37Z","2019-02-27T12:16:35Z","2019-02-27T12:21:35Z","2019-02-27T12:26:41Z","2019-02-27T12:31:34Z","2019-02-27T12:36:35Z","2019-02-27T12:41:33Z","2019-02-27T12:46:34Z","2019-02-27T12:51:34Z","2019-02-27T12:56:35Z","2019-02-27T13:01:35Z"],"type":"marche","month":"2019-02-01"},"geometry":{"type":"LineString","coordinates":[[36.071742749,-0.314720247],[36.071605409,-0.31507759],[36.071357018,-0.314540996],[36.071243426,-0.314360425],[36.071375173,-0.314484492],[36.071399799,-0.314304364],[36.071313798,-0.314598734],[36.071386672,-0.314292922],[36.07134486,-0.314464226],[36.07175319,-0.315017117],[36.071836504,-0.315008176],[36.071773228,-0.315083827],[36.071793522,-0.315070738],[36.071828113,-0.315177833],[36.071851771,-0.315063033],[36.071832939,-0.314935819],[36.071847218,-0.315140625],[36.071945598,-0.315012472],[36.071910751,-0.314985176],[36.071860254,-0.315575181],[36.071253394,-0.314647646],[36.071392432,-0.314154823],[36.071279939,-0.314421485],[36.071227888,-0.314469987],[36.071618688,-0.315516966],[36.071657356,-0.315536821],[36.071764256,-0.31575157],[36.071862196,-0.315444524],[36.071899183,-0.315515235],[36.071633954,-0.315571822],[36.071200359,-0.314846096],[36.071204709,-0.314594434],[36.071651416,-0.315416223]]}}]}