{"type":"FeatureCollection","features":[{"type":"Feature","properties":{"name":"unnamed","time":"2011-05-05T09:36:02Z","coordTimes":["2011-05-05T09:36:02Z","2011-05-05T09:36:20Z","2011-05-05T09:36:43Z","2011-05-05T09:37:19Z","2011-05-05T09:37:45Z","2011-05-05T09:38:13Z","2011-05-05T09:38:39Z","2011-05-05T09:39:06Z","2011-05-05T09:39:18Z","2011-05-05T09:39:45Z","2011-05-05T09:40:05Z","2011-05-05T09:40:28Z","2011-05-05T09:40:55Z","2011-05-05T09:41:13Z","2011-05-05T09:41:30Z","2011-05-05T09:41:49Z","2011-05-05T09:42:11Z","2011-05-05T09:42:26Z","2011-05-05T09:42:40Z","2011-05-05T09:43:15Z","2011-05-05T09:46:20Z","2011-05-05T09:46:43Z","2011-05-05T09:47:29Z","2011-05-05T09:48:27Z","2011-05-05T09:50:04Z","2011-05-05T09:50:26Z","2011-05-05T09:50:43Z","2011-05-05T09:51:03Z","2011-05-05T09:51:04Z","2011-05-05T09:51:20Z","2011-05-05T09:51:46Z","2011-05-05T09:51:59Z","2011-05-05T09:52:04Z","2011-05-05T09:52:13Z","2011-05-05T09:52:21Z","2011-05-05T09:52:27Z","2011-05-05T09:52:38Z","2011-05-05T09:52:42Z","2011-05-05T09:52:55Z","2011-05-05T09:53:04Z","2011-05-05T09:53:07Z","2011-05-05T09:53:14Z","2011-05-05T09:53:21Z","2011-05-05T09:53:33Z","2011-05-05T09:53:41Z","2011-05-05T09:53:54Z","2011-05-05T09:54:13Z","2011-05-05T09:54:24Z","2011-05-05T09:55:45Z","2011-05-05T09:58:26Z","2011-05-05T09:59:40Z","2011-05-05T10:00:15Z","2011-05-05T10:00:40Z","2011-05-05T10:01:14Z","2011-05-05T10:01:22Z","2011-05-05T10:01:45Z","2011-05-05T10:02:47Z","2011-05-05T10:03:29Z","2011-05-05T10:03:59Z","2011-05-05T10:04:21Z","2011-05-05T10:04:38Z","2011-05-05T10:05:02Z","2011-05-05T10:05:19Z","2011-05-05T10:05:46Z","2011-05-05T10:06:59Z","2011-05-05T10:08:29Z","2011-05-05T10:09:16Z","2011-05-05T10:09:57Z","2011-05-05T10:10:10Z","2011-05-05T10:10:48Z","2011-05-05T10:12:36Z","2011-05-05T10:13:11Z","2011-05-05T10:13:30Z","2011-05-05T10:16:27Z","2011-05-05T10:17:14Z","2011-05-05T10:17:51Z","2011-05-05T10:18:10Z","2011-05-05T10:27:30Z","2011-05-05T10:31:47Z","2011-05-05T10:34:10Z","2011-05-05T10:34:27Z","2011-05-05T10:34:42Z","2011-05-05T10:35:43Z","2011-05-05T10:35:58Z","2011-05-05T10:36:23Z","2011-05-05T10:36:43Z","2011-05-05T10:37:08Z","2011-05-05T10:37:28Z","2011-05-05T10:38:00Z","2011-05-05T10:38:56Z","2011-05-05T10:39:14Z","2011-05-05T10:39:35Z","2011-05-05T10:40:29Z","2011-05-05T10:41:06Z","2011-05-05T10:43:18Z","2011-05-05T10:43:37Z","2011-05-05T10:44:30Z","2011-05-05T10:44:49Z","2011-05-05T10:45:09Z","2011-05-05T10:45:30Z","2011-05-05T10:45:52Z","2011-05-05T10:46:09Z","2011-05-05T10:46:24Z","2011-05-05T10:50:11Z","2011-05-05T10:50:28Z","2011-05-05T10:50:54Z","2011-05-05T10:51:10Z","2011-05-05T10:56:10Z","2011-05-05T10:57:07Z","2011-05-05T10:58:10Z","2011-05-05T10:58:45Z","2011-05-05T10:59:14Z","2011-05-05T11:00:14Z","2011-05-05T11:01:21Z","2011-05-05T11:01:41Z","2011-05-05T11:02:14Z","2011-05-05T11:02:54Z","2011-05-05T11:03:20Z","2011-05-05T11:03:49Z","2011-05-05T11:06:47Z","2011-05-05T11:07:17Z","2011-05-05T11:10:36Z","2011-05-05T11:11:13Z","2011-05-05T11:11:38Z","2011-05-05T11:12:10Z","2011-05-05T11:12:28Z","2011-05-05T11:12:47Z","2011-05-05T11:13:36Z","2011-05-05T11:14:50Z","2011-05-05T11:15:34Z","2011-05-05T11:16:00Z","2011-05-05T11:16:38Z","2011-05-05T11:20:14Z","2011-05-05T11:20:36Z","2011-05-05T11:20:52Z","2011-05-05T11:21:08Z","2011-05-05T11:21:42Z","2011-05-05T11:24:18Z","2011-05-05T11:25:07Z","2011-05-05T11:25:17Z","2011-05-05T11:25:20Z","2011-05-05T11:25:31Z","2011-05-05T11:25:48Z","2011-05-05T11:26:15Z","2011-05-05T11:26:47Z","2011-05-05T11:27:09Z","2011-05-05T11:27:46Z","2011-05-05T11:28:08Z","2011-05-05T11:28:33Z","2011-05-05T11:30:18Z","2011-05-05T11:30:37Z","2011-05-05T11:31:08Z","2011-05-05T11:31:34Z","2011-05-05T11:32:10Z","2011-05-05T11:32:28Z","2011-05-05T11:33:14Z","2011-05-05T11:33:51Z","2011-05-05T11:35:23Z","2011-05-05T11:35:57Z","2011-05-05T11:36:11Z","2011-05-05T11:36:25Z","2011-05-05T11:36:32Z","2011-05-05T11:36:43Z","2011-05-05T11:37:04Z","2011-05-05T11:37:20Z","2011-05-05T11:37:28Z","2011-05-05T11:37:39Z","2011-05-05T11:37:42Z","2011-05-05T11:37:48Z","2011-05-05T11:37:58Z","2011-05-05T11:38:04Z","2011-05-05T11:38:13Z","2011-05-05T11:38:33Z","2011-05-05T11:38:52Z","2011-05-05T11:39:11Z","2011-05-05T11:39:20Z","2011-05-05T11:39:26Z","2011-05-05T11:39:37Z","2011-05-05T11:39:46Z","2011-05-05T11:39:50Z","2011-05-05T11:40:00Z","2011-05-05T11:40:05Z","2011-05-05T11:40:08Z","2011-05-05T11:40:18Z","2011-05-05T11:40:22Z","2011-05-05T11:40:28Z","2011-05-05T11:40:35Z","2011-05-05T11:40:50Z","2011-05-05T11:40:59Z","2011-05-05T11:41:12Z","2011-05-05T11:41:29Z","2011-05-05T11:41:39Z","2011-05-05T11:41:42Z","2011-05-05T11:41:53Z","2011-05-05T11:41:54Z","2011-05-05T11:41:59Z","2011-05-05T11:42:00Z","2011-05-05T11:42:03Z","2011-05-05T11:42:05Z","2011-05-05T11:42:09Z","2011-05-05T11:42:11Z","2011-05-05T11:42:16Z","2011-05-05T11:42:22Z","2011-05-05T11:42:29Z","2011-05-05T11:42:38Z","2011-05-05T11:42:47Z","2011-05-05T11:42:57Z","2011-05-05T11:43:01Z","2011-05-05T11:43:22Z","2011-05-05T11:43:28Z","2011-05-05T11:43:32Z","2011-05-05T11:43:39Z","2011-05-05T11:43:49Z","2011-05-05T11:43:50Z","2011-05-05T11:43:52Z","2011-05-05T11:43:54Z","2011-05-05T11:44:00Z","2011-05-05T11:44:04Z","2011-05-05T11:44:12Z","2011-05-05T11:44:20Z","2011-05-05T11:44:29Z","2011-05-05T11:44:33Z","2011-05-05T11:44:40Z","2011-05-05T11:44:45Z","2011-05-05T11:44:51Z","2011-05-05T11:44:56Z","2011-05-05T11:45:05Z","2011-05-05T11:45:15Z","2011-05-05T11:45:23Z","2011-05-05T11:45:38Z","2011-05-05T11:49:39Z","2011-05-05T11:50:00Z","2011-05-05T11:50:37Z","2011-05-05T11:50:56Z","2011-05-05T11:52:13Z","2011-05-05T11:52:46Z","2011-05-05T11:53:02Z","2011-05-05T11:53:30Z","2011-05-05T11:54:23Z","2011-05-05T11:54:40Z","2011-05-05T11:55:11Z","2011-05-05T11:55:51Z","2011-05-05T11:56:12Z","2011-05-05T11:56:28Z","2011-05-05T11:56:48Z","2011-05-05T11:57:11Z","2011-05-05T11:57:31Z","2011-05-05T11:57:53Z","2011-05-05T11:58:48Z","2011-05-05T11:59:59Z","2011-05-05T12:00:12Z","2011-05-05T12:00:38Z","2011-05-05T12:00:59Z","2011-05-05T12:01:05Z","2011-05-05T12:01:28Z","2011-05-05T12:10:17Z","2011-05-05T12:11:15Z","2011-05-05T12:12:03Z","2011-05-05T12:12:45Z","2011-05-05T12:13:21Z","2011-05-05T12:13:37Z","2011-05-05T12:13:54Z","2011-05-05T12:14:07Z","2011-05-05T12:14:49Z","2011-05-05T12:15:13Z","2011-05-05T12:22:27Z","2011-05-05T12:22:48Z","2011-05-05T12:49:57Z"],"type":"marche","month":"2011-05-01"},"geometry":{"type":"LineString","coordinates":[[-8.883288,30.467601,202.01],[-8.883249,30.467928,201.53],[-8.883151,30.467858,201.53],[-8.884157,30.468175,201.53],[-8.88411,30.468169,202.01],[-8.883858,30.468095,202.49],[-8.883653,30.468119,202.98],[-8.883571,30.468256,202.98],[-8.88355,30.468342,202.49],[-8.883564,30.468566,202.01],[-8.883511,30.468703,202.49],[-8.883478,30.468874,202.98],[-8.883389,30.469132,202.98],[-8.883317,30.469223,202.98],[-8.883183,30.469224,202.98],[-8.88304,30.469213,203.46],[-8.882975,30.469188,203.46],[-8.882855,30.469201,203.94],[-8.882787,30.469176,204.42],[-8.882681,30.469202,205.38],[-8.882499,30.469306,208.74],[-8.882379,30.469346,209.22],[-8.882127,30.46939,210.19],[-8.882052,30.469396,211.15],[-8.882124,30.469479,213.07],[-8.882251,30.469564,213.55],[-8.882047,30.469439,214.03],[-8.882482,30.468892,214.03],[-8.88252,30.468867,214.03],[-8.882763,30.46898,214.03],[-8.882506,30.469088,214.03],[-8.882371,30.469206,214.03],[-8.882264,30.46926,214.03],[-8.882112,30.469414,214.51],[-8.882021,30.469492,214.51],[-8.881897,30.469626,214.51],[-8.881858,30.469681,214.51],[-8.88191,30.469584,214.51],[-8.881931,30.469498,214.51],[-8.88205,30.469631,214.51],[-8.882089,30.469665,214.51],[-8.882106,30.469663,214.51],[-8.882082,30.469614,214.51],[-8.882041,30.469571,214.51],[-8.881913,30.469609,214.51],[-8.88179,30.469561,214.51],[-8.881963,30.469619,214.51],[-8.882056,30.469619,214.03],[-8.882158,30.469559,214.51],[-8.882154,30.469612,216.43],[-8.882142,30.469594,217.4],[-8.882237,30.469607,217.88],[-8.882176,30.469605,218.36],[-8.882039,30.469634,218.84],[-8.882001,30.469685,218.84],[-8.881937,30.469677,218.84],[-8.882112,30.469798,218.84],[-8.88205,30.469865,219.32],[-8.882048,30.469898,219.8],[-8.881972,30.46992,219.8],[-8.881931,30.469907,219.8],[-8.881847,30.469905,220.28],[-8.881789,30.469957,220.28],[-8.881764,30.469991,220.76],[-8.881649,30.470038,221.72],[-8.881485,30.470251,222.2],[-8.881378,30.470256,222.68],[-8.881372,30.470318,222.68],[-8.881328,30.470346,222.68],[-8.881202,30.470392,223.64],[-8.880967,30.470285,224.61],[-8.881173,30.47007,224.61],[-8.881129,30.470361,224.61],[-8.88095,30.470466,223.64],[-8.880947,30.470189,223.16],[-8.88084,30.470174,223.16],[-8.880789,30.470121,223.16],[-8.8802,30.469791,226.53],[-8.880215,30.46977,229.41],[-8.879995,30.469775,230.37],[-8.879855,30.469848,230.37],[-8.879875,30.469996,230.37],[-8.879558,30.470023,229.89],[-8.879396,30.470112,229.89],[-8.879306,30.470103,229.89],[-8.879185,30.470141,230.37],[-8.879059,30.470074,230.85],[-8.878972,30.469995,231.33],[-8.878949,30.469942,231.81],[-8.878692,30.469808,232.78],[-8.878719,30.469695,232.78],[-8.878804,30.469575,233.26],[-8.878817,30.469646,233.26],[-8.879248,30.469418,232.78],[-8.879067,30.469388,232.78],[-8.879174,30.469469,232.78],[-8.878754,30.469504,232.78],[-8.878593,30.469749,233.26],[-8.878517,30.469648,233.26],[-8.878493,30.469526,233.26],[-8.878406,30.469351,233.26],[-8.878372,30.46923,233.26],[-8.878401,30.469181,233.26],[-8.8783,30.469058,234.22],[-8.878279,30.468967,234.7],[-8.878168,30.468769,234.22],[-8.878305,30.468668,234.22],[-8.878338,30.468317,235.18],[-8.878455,30.468339,235.18],[-8.878452,30.468225,235.18],[-8.878512,30.468088,234.7],[-8.878584,30.46803,234.7],[-8.878723,30.46796,235.66],[-8.878833,30.467933,235.18],[-8.879014,30.467857,235.66],[-8.878901,30.467925,235.66],[-8.879198,30.467797,234.7],[-8.87938,30.467823,234.7],[-8.879406,30.467787,235.18],[-8.879432,30.467591,236.62],[-8.879442,30.467433,237.1],[-8.879878,30.467327,238.06],[-8.87989,30.467125,238.06],[-8.879865,30.467075,238.06],[-8.879946,30.46714,238.06],[-8.879953,30.467114,238.06],[-8.879944,30.466996,238.06],[-8.879951,30.466985,238.06],[-8.879909,30.466957,238.06],[-8.879849,30.467094,238.06],[-8.879851,30.467026,238.06],[-8.879842,30.467001,238.06],[-8.879979,30.467082,238.06],[-8.879887,30.46699,238.06],[-8.879794,30.46705,238.06],[-8.879791,30.467074,238.54],[-8.879759,30.46695,238.06],[-8.879776,30.466823,238.54],[-8.879749,30.466796,238.54],[-8.879796,30.466866,238.54],[-8.879779,30.466822,238.54],[-8.879822,30.466875,238.54],[-8.879786,30.46675,238.54],[-8.879869,30.466782,238.54],[-8.88005,30.466767,238.54],[-8.880108,30.466735,238.54],[-8.880159,30.466777,238.54],[-8.880214,30.466784,238.54],[-8.880376,30.466673,239.02],[-8.880403,30.466663,239.51],[-8.880398,30.466444,239.51],[-8.880358,30.466293,239.51],[-8.880337,30.466173,239.51],[-8.880339,30.46605,239.99],[-8.880363,30.465996,239.99],[-8.880369,30.466084,240.95],[-8.88044,30.465949,240.95],[-8.880641,30.465881,240.95],[-8.880657,30.465954,241.43],[-8.880827,30.46606,241.43],[-8.880751,30.46598,241.43],[-8.88074,30.465978,241.43],[-8.880726,30.465999,241.43],[-8.880615,30.466046,241.43],[-8.880475,30.466151,241.43],[-8.880611,30.466101,241.43],[-8.880618,30.466045,241.43],[-8.880593,30.465969,241.43],[-8.880551,30.465921,241.43],[-8.880468,30.465774,241.43],[-8.880422,30.465747,241.43],[-8.880364,30.465639,241.43],[-8.880477,30.465809,241.43],[-8.880502,30.465885,241.43],[-8.88047,30.465763,240.95],[-8.880462,30.465814,241.43],[-8.880436,30.465851,241.43],[-8.880388,30.465827,241.43],[-8.88045,30.465814,241.43],[-8.880446,30.465858,241.43],[-8.880387,30.465869,241.43],[-8.880429,30.465874,241.43],[-8.880416,30.465859,241.43],[-8.880371,30.465877,241.43],[-8.880396,30.465875,241.43],[-8.880453,30.465896,241.43],[-8.880477,30.46592,241.43],[-8.880429,30.465875,241.43],[-8.88029,30.465833,241.43],[-8.880241,30.465801,241.43],[-8.880258,30.465758,241.43],[-8.880169,30.465792,241.43],[-8.880221,30.46576,241.43],[-8.880343,30.465774,241.43],[-8.880321,30.46576,241.43],[-8.880329,30.465753,241.43],[-8.880341,30.465766,241.43],[-8.880351,30.465765,241.43],[-8.880357,30.465694,241.43],[-8.880263,30.465593,241.43],[-8.880292,30.465595,241.43],[-8.880341,30.465617,241.43],[-8.88026,30.46565,241.43],[-8.880289,30.465713,241.43],[-8.880304,30.465779,241.43],[-8.880379,30.465802,241.43],[-8.88044,30.465856,241.43],[-8.880405,30.465825,241.43],[-8.880324,30.465776,241.43],[-8.880298,30.465835,241.43],[-8.880312,30.465775,241.43],[-8.880516,30.465711,241.43],[-8.880662,30.465806,241.43],[-8.880656,30.465776,241.43],[-8.880683,30.465782,241.43],[-8.880633,30.465748,241.43],[-8.880609,30.465796,241.43],[-8.880606,30.465836,241.43],[-8.880579,30.465921,241.43],[-8.880538,30.465991,240.95],[-8.880475,30.465972,240.95],[-8.880489,30.466001,241.43],[-8.880566,30.466005,241.43],[-8.880704,30.466144,240.95],[-8.880805,30.466208,240.95],[-8.880796,30.466302,240.95],[-8.8807,30.466302,241.43],[-8.880691,30.46631,241.43],[-8.880644,30.466184,240.95],[-8.880504,30.466105,240.95],[-8.880368,30.466127,240.95],[-8.880427,30.466223,241.43],[-8.880404,30.466499,240.95],[-8.880441,30.466603,241.43],[-8.880659,30.466823,241.43],[-8.880862,30.466799,241.43],[-8.880947,30.466735,241.91],[-8.881206,30.46651,241.91],[-8.8818,30.466598,241.91],[-8.881899,30.466763,241.91],[-8.881927,30.466879,241.91],[-8.882098,30.467152,241.91],[-8.882091,30.467273,242.39],[-8.882272,30.467225,242.39],[-8.882391,30.467466,242.39],[-8.882477,30.467429,242.87],[-8.882512,30.467636,243.35],[-8.882678,30.467693,243.35],[-8.882629,30.467721,243.35],[-8.882594,30.467775,243.83],[-8.882922,30.467694,243.83],[-8.882771,30.467638,243.83],[-8.882572,30.467625,243.35],[-8.882504,30.467637,243.35],[-8.882455,30.467746,243.35],[-8.882949,30.467722,243.35],[-8.882751,30.467726,243.35],[-8.882641,30.46763,243.83],[-8.882796,30.467571,243.83],[-8.883167,30.4676,244.31],[-8.883442,30.467574,244.79],[-8.883494,30.467674,245.27],[-8.883485,30.467751,245.75],[-8.883586,30.468027,246.72],[-8.883635,30.468048,245.75],[-8.883962,30.467795,247.68],[-8.88391,30.467789,248.16],[-8.884,30.467081,250.56]]}},{"type":"Feature","properties":{"name":"000","cmt":"000","desc":"000","time":"2011-05-01T14:38:15Z","sym":"Flag, Blue"},"geometry":{"type":"Point","coordinates":[-9.371013,29.825755]}},{"type":"Feature","properties":{"name":"Clever Age","cmt":"Clever Age","desc":"Clever Age","time":"2008-05-27T10:00:03Z","sym":"Department Store"},"geometry":{"type":"Point","coordinates":[2.329309,48.869904,60.69]}},{"type":"Feature","properties":{"name":"DEAUVILLE","cmt":"DEAUVILLE","desc":"DEAUVILLE","time":"2008-08-23T14:46:54Z","sym":"Car"},"geometry":{"type":"Point","coordinates":[0.075849,49.358182,79.67]}},{"type":"Feature","properties":{"name":"WPT004","cmt":"WPT004","desc":"WPT004","time":"2009-07-25T13:05:32Z","sym":"Beach"},"geometry":{"type":"Point","coordinates":[2.452307,48.658663,-15.5]}},{"type":"Feature","properties":{"name":"Garmin","cmt":"Garmin","desc":"Garmin","time":"2008-04-03T07:38:10Z","sym":"Flag, Blue"},"geometry":{"type":"Point","coordinates":[-94.799018,38.85555,325.05]}},{"type":"Feature","properties":{"name":"Garmin Europe","cmt":"Garmin Europe","desc":"Garmin Europe","time":"2008-04-03T07:38:10Z","sym":"Flag, Blue"},"geometry":{"type":"Point","coordinates":[-1.4639,50.982884,35.93]}},{"type":"Feature","properties":{"name":"Garmin Taiwan","cmt":"Garmin Taiwan","desc":"Garmin Taiwan","time":"2008-04-03T07:38:10Z","sym":"Flag, Blue"},"geometry":{"type":"Point","coordinates":[121.640268,25.061784,38.1]}}]}