{"type":"FeatureCollection","features":[{"type":"Feature","properties":{"name":"Mi-route, mi-VTT… c’est le Gravel !","type":"gravel","time":"2025-02-16T16:00:42Z","coordTimes":["2025-02-16T16:00:42Z","2025-02-16T16:00:43Z","2025-02-16T16:00:44Z","2025-02-16T16:00:45Z","2025-02-16T16:00:46Z","2025-02-16T16:00:48Z","2025-02-16T16:01:02Z","2025-02-16T16:01:03Z","2025-02-16T16:01:12Z","2025-02-16T16:01:17Z","2025-02-16T16:01:18Z","2025-02-16T16:01:21Z","2025-02-16T16:01:30Z","2025-02-16T16:02:31Z","2025-02-16T16:02:45Z","2025-02-16T16:02:46Z","2025-02-16T16:02:54Z","2025-02-16T16:03:03Z","2025-02-16T16:03:05Z","2025-02-16T16:03:07Z","2025-02-16T16:03:09Z","2025-02-16T16:03:15Z","2025-02-16T16:03:17Z","2025-02-16T16:03:18Z","2025-02-16T16:03:19Z","2025-02-16T16:03:20Z","2025-02-16T16:03:21Z","2025-02-16T16:03:29Z","2025-02-16T16:03:36Z","2025-02-16T16:03:43Z","2025-02-16T16:03:44Z","2025-02-16T16:03:52Z","2025-02-16T16:03:56Z","2025-02-16T16:04:11Z","2025-02-16T16:04:21Z","2025-02-16T16:04:32Z","2025-02-16T16:04:38Z","2025-02-16T16:04:42Z","2025-02-16T16:04:51Z","2025-02-16T16:04:52Z","2025-02-16T16:04:58Z","2025-02-16T16:05:05Z","2025-02-16T16:05:06Z","2025-02-16T16:05:07Z","2025-02-16T16:05:08Z","2025-02-16T16:05:10Z","2025-02-16T16:05:11Z","2025-02-16T16:05:12Z","2025-02-16T16:05:16Z","2025-02-16T16:05:23Z","2025-02-16T16:05:24Z","2025-02-16T16:05:26Z","2025-02-16T16:05:33Z","2025-02-16T16:05:36Z","2025-02-16T16:05:49Z","2025-02-16T16:05:52Z","2025-02-16T16:06:00Z","2025-02-16T16:06:05Z","2025-02-16T16:06:10Z","2025-02-16T16:06:16Z","2025-02-16T16:06:22Z","2025-02-16T16:06:23Z","2025-02-16T16:06:24Z","2025-02-16T16:06:27Z","2025-02-16T16:06:31Z","2025-02-16T16:06:32Z","2025-02-16T16:06:33Z","2025-02-16T16:06:35Z","2025-02-16T16:06:36Z","2025-02-16T16:06:37Z","2025-02-16T16:06:38Z","2025-02-16T16:06:40Z","2025-02-16T16:06:41Z","2025-02-16T16:06:42Z","2025-02-16T16:06:46Z","2025-02-16T16:06:47Z","2025-02-16T16:06:48Z","2025-02-16T16:06:49Z","2025-02-16T16:06:55Z","2025-02-16T16:06:56Z","2025-02-16T16:06:57Z","2025-02-16T16:07:00Z","2025-02-16T16:07:10Z","2025-02-16T16:07:17Z","2025-02-16T16:07:21Z","2025-02-16T16:07:30Z","2025-02-16T16:07:34Z","2025-02-16T16:07:35Z","2025-02-16T16:07:37Z","2025-02-16T16:07:38Z","2025-02-16T16:07:40Z","2025-02-16T16:07:41Z","2025-02-16T16:07:48Z","2025-02-16T16:07:50Z","2025-02-16T16:07:58Z","2025-02-16T16:07:59Z","2025-02-16T16:08:00Z","2025-02-16T16:08:01Z","2025-02-16T16:08:06Z","2025-02-16T16:08:09Z","2025-02-16T16:08:15Z","2025-02-16T16:08:17Z","2025-02-16T16:08:21Z","2025-02-16T16:08:23Z","2025-02-16T16:08:24Z","2025-02-16T16:08:25Z","2025-02-16T16:08:28Z","2025-02-16T16:08:30Z","2025-02-16T16:08:33Z","2025-02-16T16:08:34Z","2025-02-16T16:08:36Z","2025-02-16T16:08:39Z","2025-02-16T16:08:41Z","2025-02-16T16:08:49Z","2025-02-16T16:08:51Z","2025-02-16T16:08:55Z","2025-02-16T16:08:57Z","2025-02-16T16:09:03Z","2025-02-16T16:09:07Z","2025-02-16T16:09:11Z","2025-02-16T16:09:21Z","2025-02-16T16:09:29Z","2025-02-16T16:09:31Z","2025-02-16T16:09:40Z","2025-02-16T16:09:41Z","2025-02-16T16:09:44Z","2025-02-16T16:09:47Z","2025-02-16T16:09:49Z","2025-02-16T16:10:00Z","2025-02-16T16:10:02Z","2025-02-16T16:10:11Z","2025-02-16T16:10:30Z","2025-02-16T16:10:33Z","2025-02-16T16:10:35Z","2025-02-16T16:10:36Z","2025-02-16T16:10:43Z","2025-02-16T16:10:46Z","2025-02-16T16:10:49Z","2025-02-16T16:11:05Z","2025-02-16T16:11:08Z","2025-02-16T16:11:11Z","2025-02-16T16:11:13Z","2025-02-16T16:11:18Z","2025-02-16T16:11:21Z","2025-02-16T16:11:23Z","2025-02-16T16:11:26Z","2025-02-16T16:11:30Z","2025-02-16T16:12:36Z","2025-02-16T16:12:37Z","2025-02-16T16:12:40Z","2025-02-16T16:12:44Z","2025-02-16T16:12:46Z","2025-02-16T16:12:48Z","2025-02-16T16:12:49Z","2025-02-16T16:12:52Z","2025-02-16T16:12:53Z","2025-02-16T16:12:54Z","2025-02-16T16:12:56Z","2025-02-16T16:12:58Z","2025-02-16T16:13:01Z","2025-02-16T16:13:05Z","2025-02-16T16:13:08Z","2025-02-16T16:13:12Z","2025-02-16T16:13:20Z","2025-02-16T16:13:28Z","2025-02-16T16:13:30Z","2025-02-16T16:13:37Z","2025-02-16T16:13:41Z","2025-02-16T16:13:52Z","2025-02-16T16:14:07Z","2025-02-16T16:14:10Z","2025-02-16T16:14:11Z","2025-02-16T16:14:14Z","2025-02-16T16:14:15Z","2025-02-16T16:14:16Z","2025-02-16T16:14:17Z","2025-02-16T16:14:19Z","2025-02-16T16:14:20Z","2025-02-16T16:14:21Z","2025-02-16T16:14:24Z","2025-02-16T16:14:35Z","2025-02-16T16:14:39Z","2025-02-16T16:14:49Z","2025-02-16T16:14:57Z","2025-02-16T16:15:05Z","2025-02-16T16:15:08Z","2025-02-16T16:15:09Z","2025-02-16T16:15:10Z","2025-02-16T16:15:11Z","2025-02-16T16:15:15Z","2025-02-16T16:15:18Z","2025-02-16T16:15:22Z","2025-02-16T16:15:23Z","2025-02-16T16:15:24Z","2025-02-16T16:15:26Z","2025-02-16T16:15:28Z","2025-02-16T16:15:29Z","2025-02-16T16:15:32Z","2025-02-16T16:15:44Z","2025-02-16T16:15:45Z","2025-02-16T16:15:46Z","2025-02-16T16:15:49Z","2025-02-16T16:15:50Z","2025-02-16T16:15:51Z","2025-02-16T16:15:52Z","2025-02-16T16:15:57Z","2025-02-16T16:15:59Z","2025-02-16T16:16:03Z","2025-02-16T16:16:08Z","2025-02-16T16:16:14Z","2025-02-16T16:16:17Z","2025-02-16T16:16:22Z","2025-02-16T16:16:25Z","2025-02-16T16:16:28Z","2025-02-16T16:16:32Z","2025-02-16T16:16:37Z","2025-02-16T16:16:39Z","2025-02-16T16:16:42Z","2025-02-16T16:16:43Z","2025-02-16T16:16:44Z","2025-02-16T16:16:47Z","2025-02-16T16:16:49Z","2025-02-16T16:16:50Z","2025-02-16T16:16:51Z","2025-02-16T16:16:56Z","2025-02-16T16:16:58Z","2025-02-16T16:17:02Z","2025-02-16T16:17:05Z","2025-02-16T16:17:07Z","2025-02-16T16:17:09Z","2025-02-16T16:17:10Z","2025-02-16T16:17:11Z","2025-02-16T16:17:12Z","2025-02-16T16:17:17Z","2025-02-16T16:17:19Z","2025-02-16T16:17:26Z","2025-02-16T16:17:28Z","2025-02-16T16:17:32Z","2025-02-16T16:17:33Z","2025-02-16T16:17:37Z","2025-02-16T16:17:38Z","2025-02-16T16:17:39Z","2025-02-16T16:17:40Z","2025-02-16T16:17:42Z","2025-02-16T16:17:43Z","2025-02-16T16:17:44Z","2025-02-16T16:17:45Z","2025-02-16T16:17:46Z","2025-02-16T16:17:48Z","2025-02-16T16:17:50Z","2025-02-16T16:17:53Z","2025-02-16T16:17:54Z","2025-02-16T16:17:55Z","2025-02-16T16:17:57Z","2025-02-16T16:17:59Z","2025-02-16T16:18:00Z","2025-02-16T16:18:02Z","2025-02-16T16:18:04Z","2025-02-16T16:18:07Z","2025-02-16T16:18:11Z","2025-02-16T16:18:13Z","2025-02-16T16:18:27Z","2025-02-16T16:18:31Z","2025-02-16T16:18:32Z","2025-02-16T16:18:49Z","2025-02-16T16:18:52Z","2025-02-16T16:19:08Z","2025-02-16T16:19:19Z","2025-02-16T16:19:32Z","2025-02-16T16:19:39Z","2025-02-16T16:19:47Z","2025-02-16T16:19:52Z","2025-02-16T16:20:01Z","2025-02-16T16:20:03Z","2025-02-16T16:20:13Z","2025-02-16T16:20:19Z","2025-02-16T16:20:21Z","2025-02-16T16:20:26Z","2025-02-16T16:20:28Z","2025-02-16T16:20:30Z","2025-02-16T16:20:35Z","2025-02-16T16:20:39Z","2025-02-16T16:20:46Z","2025-02-16T16:20:54Z","2025-02-16T16:20:58Z","2025-02-16T16:21:02Z","2025-02-16T16:21:19Z","2025-02-16T16:21:25Z","2025-02-16T16:21:29Z","2025-02-16T16:21:34Z","2025-02-16T16:21:36Z","2025-02-16T16:21:39Z","2025-02-16T16:21:40Z","2025-02-16T16:21:49Z","2025-02-16T16:21:56Z","2025-02-16T16:22:19Z","2025-02-16T16:22:23Z","2025-02-16T16:22:30Z","2025-02-16T16:22:33Z","2025-02-16T16:22:35Z","2025-02-16T16:22:36Z","2025-02-16T16:22:39Z","2025-02-16T16:22:41Z","2025-02-16T16:22:43Z","2025-02-16T16:22:55Z","2025-02-16T16:23:10Z","2025-02-16T16:23:13Z","2025-02-16T16:23:31Z","2025-02-16T16:23:38Z","2025-02-16T16:23:39Z","2025-02-16T16:23:40Z","2025-02-16T16:23:42Z","2025-02-16T16:23:48Z","2025-02-16T16:23:53Z","2025-02-16T16:23:57Z","2025-02-16T16:24:00Z","2025-02-16T16:24:08Z","2025-02-16T16:24:11Z","2025-02-16T16:24:13Z","2025-02-16T16:24:17Z","2025-02-16T16:24:43Z","2025-02-16T16:24:58Z","2025-02-16T16:25:01Z","2025-02-16T16:25:10Z","2025-02-16T16:25:12Z","2025-02-16T16:25:18Z","2025-02-16T16:25:22Z","2025-02-16T16:25:23Z","2025-02-16T16:25:26Z","2025-02-16T16:25:30Z","2025-02-16T16:25:44Z","2025-02-16T16:25:46Z","2025-02-16T16:26:04Z","2025-02-16T16:26:08Z","2025-02-16T16:26:33Z","2025-02-16T16:26:34Z","2025-02-16T16:26:42Z","2025-02-16T16:26:58Z","2025-02-16T16:26:59Z","2025-02-16T16:27:15Z","2025-02-16T16:27:25Z","2025-02-16T16:27:26Z","2025-02-16T16:27:46Z","2025-02-16T16:27:54Z","2025-02-16T16:28:05Z","2025-02-16T16:28:06Z","2025-02-16T16:28:07Z","2025-02-16T16:28:09Z","2025-02-16T16:28:11Z","2025-02-16T16:28:14Z","2025-02-16T16:28:16Z","2025-02-16T16:28:19Z","2025-02-16T16:28:21Z","2025-02-16T16:28:22Z","2025-02-16T16:28:23Z","2025-02-16T16:28:25Z","2025-02-16T16:28:27Z","2025-02-16T16:28:32Z","2025-02-16T16:28:34Z","2025-02-16T16:28:36Z","2025-02-16T16:28:37Z","2025-02-16T16:28:47Z","2025-02-16T16:28:54Z","2025-02-16T16:28:56Z","2025-02-16T16:29:00Z","2025-02-16T16:29:08Z","2025-02-16T16:29:09Z","2025-02-16T16:29:10Z","2025-02-16T16:29:12Z","2025-02-16T16:29:14Z","2025-02-16T16:29:17Z","2025-02-16T16:29:19Z","2025-02-16T16:29:26Z","2025-02-16T16:29:28Z","2025-02-16T16:29:29Z","2025-02-16T16:29:31Z","2025-02-16T16:29:49Z","2025-02-16T16:30:00Z","2025-02-16T16:30:02Z","2025-02-16T16:30:19Z","2025-02-16T16:30:33Z","2025-02-16T16:30:36Z","2025-02-16T16:30:43Z","2025-02-16T16:31:42Z","2025-02-16T16:31:47Z","2025-02-16T16:31:52Z","2025-02-16T16:32:06Z","2025-02-16T16:32:09Z","2025-02-16T16:32:11Z","2025-02-16T16:32:12Z","2025-02-16T16:32:13Z","2025-02-16T16:32:15Z","2025-02-16T16:32:18Z","2025-02-16T16:32:28Z","2025-02-16T16:32:29Z","2025-02-16T16:32:30Z","2025-02-16T16:32:31Z","2025-02-16T16:32:33Z","2025-02-16T16:32:36Z","2025-02-16T16:32:37Z","2025-02-16T16:32:39Z","2025-02-16T16:32:43Z","2025-02-16T16:32:44Z","2025-02-16T16:32:45Z","2025-02-16T16:32:46Z","2025-02-16T16:32:49Z","2025-02-16T16:32:50Z","2025-02-16T16:32:51Z","2025-02-16T16:32:52Z","2025-02-16T16:32:53Z","2025-02-16T16:32:56Z","2025-02-16T16:32:57Z","2025-02-16T16:33:00Z","2025-02-16T16:33:01Z","2025-02-16T16:33:06Z","2025-02-16T16:33:10Z","2025-02-16T16:33:13Z","2025-02-16T16:33:15Z","2025-02-16T16:33:18Z","2025-02-16T16:33:19Z","2025-02-16T16:33:26Z","2025-02-16T16:33:29Z","2025-02-16T16:33:30Z","2025-02-16T16:33:31Z","2025-02-16T16:33:32Z","2025-02-16T16:33:34Z","2025-02-16T16:33:37Z","2025-02-16T16:33:53Z","2025-02-16T16:33:54Z","2025-02-16T16:33:56Z","2025-02-16T16:34:01Z","2025-02-16T16:34:05Z","2025-02-16T16:34:08Z","2025-02-16T16:34:09Z","2025-02-16T16:34:10Z","2025-02-16T16:34:15Z","2025-02-16T16:34:17Z","2025-02-16T16:34:26Z","2025-02-16T16:34:27Z","2025-02-16T16:34:28Z","2025-02-16T16:34:29Z","2025-02-16T16:34:35Z","2025-02-16T16:34:38Z","2025-02-16T16:34:40Z","2025-02-16T16:34:42Z","2025-02-16T16:34:43Z","2025-02-16T16:34:45Z","2025-02-16T16:34:46Z","2025-02-16T16:34:50Z","2025-02-16T16:34:52Z","2025-02-16T16:34:53Z","2025-02-16T16:34:55Z","2025-02-16T16:34:58Z","2025-02-16T16:35:02Z","2025-02-16T16:35:04Z","2025-02-16T16:35:05Z","2025-02-16T16:35:08Z","2025-02-16T16:35:12Z","2025-02-16T16:35:14Z","2025-02-16T16:35:16Z","2025-02-16T16:35:19Z","2025-02-16T16:35:20Z","2025-02-16T16:35:22Z","2025-02-16T16:35:23Z","2025-02-16T16:35:26Z","2025-02-16T16:35:30Z","2025-02-16T16:35:31Z","2025-02-16T16:35:36Z","2025-02-16T16:35:38Z","2025-02-16T16:35:39Z","2025-02-16T16:35:47Z","2025-02-16T16:35:52Z","2025-02-16T16:35:54Z","2025-02-16T16:35:55Z","2025-02-16T16:35:56Z","2025-02-16T16:35:59Z","2025-02-16T16:36:02Z","2025-02-16T16:36:04Z","2025-02-16T16:36:05Z","2025-02-16T16:36:08Z","2025-02-16T16:36:09Z","2025-02-16T16:36:13Z","2025-02-16T16:36:17Z","2025-02-16T16:36:20Z","2025-02-16T16:36:24Z","2025-02-16T16:36:26Z","2025-02-16T16:36:31Z","2025-02-16T16:36:33Z","2025-02-16T16:36:37Z","2025-02-16T16:36:38Z","2025-02-16T16:36:44Z","2025-02-16T16:36:46Z","2025-02-16T16:36:50Z","2025-02-16T16:36:51Z","2025-02-16T16:36:54Z","2025-02-16T16:36:55Z","2025-02-16T16:36:58Z","2025-02-16T16:37:03Z","2025-02-16T16:37:04Z","2025-02-16T16:37:05Z","2025-02-16T16:37:06Z","2025-02-16T16:37:07Z","2025-02-16T16:37:09Z","2025-02-16T16:37:11Z","2025-02-16T16:37:13Z","2025-02-16T16:37:16Z","2025-02-16T16:37:20Z","2025-02-16T16:37:21Z","2025-02-16T16:37:54Z","2025-02-16T16:37:56Z","2025-02-16T16:38:01Z","2025-02-16T16:38:03Z","2025-02-16T16:38:05Z","2025-02-16T16:38:08Z","2025-02-16T16:38:11Z","2025-02-16T16:38:13Z","2025-02-16T16:38:16Z","2025-02-16T16:38:17Z","2025-02-16T16:38:18Z","2025-02-16T16:38:27Z","2025-02-16T16:38:28Z","2025-02-16T16:38:30Z","2025-02-16T16:38:36Z","2025-02-16T16:38:38Z","2025-02-16T16:38:39Z","2025-02-16T16:38:40Z","2025-02-16T16:38:42Z","2025-02-16T16:38:45Z","2025-02-16T16:38:46Z","2025-02-16T16:38:51Z","2025-02-16T16:38:55Z","2025-02-16T16:38:58Z","2025-02-16T16:40:28Z","2025-02-16T16:40:29Z","2025-02-16T16:40:31Z","2025-02-16T16:40:32Z","2025-02-16T16:40:36Z","2025-02-16T16:40:40Z","2025-02-16T16:40:42Z","2025-02-16T16:40:48Z","2025-02-16T16:40:50Z","2025-02-16T16:40:51Z","2025-02-16T16:40:53Z","2025-02-16T16:40:57Z","2025-02-16T16:40:58Z","2025-02-16T16:41:01Z","2025-02-16T16:41:03Z","2025-02-16T16:41:04Z","2025-02-16T16:41:05Z","2025-02-16T16:41:09Z","2025-02-16T16:41:12Z","2025-02-16T16:41:18Z","2025-02-16T16:41:19Z","2025-02-16T16:41:21Z","2025-02-16T16:41:24Z","2025-02-16T16:41:26Z","2025-02-16T16:41:27Z","2025-02-16T16:41:29Z","2025-02-16T16:41:31Z","2025-02-16T16:41:36Z","2025-02-16T16:41:37Z","2025-02-16T16:41:40Z","2025-02-16T16:43:09Z","2025-02-16T16:43:14Z","2025-02-16T16:43:20Z","2025-02-16T16:43:23Z","2025-02-16T16:43:26Z","2025-02-16T16:43:27Z","2025-02-16T16:43:32Z","2025-02-16T16:43:33Z","2025-02-16T16:43:38Z","2025-02-16T16:43:40Z","2025-02-16T16:43:42Z","2025-02-16T16:43:43Z","2025-02-16T16:43:45Z","2025-02-16T16:43:47Z","2025-02-16T16:43:50Z","2025-02-16T16:43:54Z","2025-02-16T16:44:02Z","2025-02-16T16:44:06Z","2025-02-16T16:44:07Z","2025-02-16T16:44:11Z","2025-02-16T16:44:46Z","2025-02-16T16:44:50Z","2025-02-16T16:44:53Z","2025-02-16T16:44:56Z","2025-02-16T16:44:57Z","2025-02-16T16:45:00Z","2025-02-16T16:45:02Z","2025-02-16T16:45:12Z","2025-02-16T16:45:14Z","2025-02-16T16:45:23Z","2025-02-16T16:45:28Z","2025-02-16T16:45:37Z","2025-02-16T16:45:42Z","2025-02-16T16:45:43Z","2025-02-16T16:45:45Z","2025-02-16T16:45:47Z","2025-02-16T16:45:50Z","2025-02-16T16:45:53Z","2025-02-16T16:45:57Z","2025-02-16T16:46:01Z","2025-02-16T16:46:52Z","2025-02-16T16:46:53Z","2025-02-16T16:46:57Z","2025-02-16T16:47:01Z","2025-02-16T16:47:08Z","2025-02-16T16:47:12Z","2025-02-16T16:47:19Z","2025-02-16T16:47:50Z","2025-02-16T16:47:52Z","2025-02-16T16:47:53Z","2025-02-16T16:47:58Z","2025-02-16T16:48:01Z","2025-02-16T16:48:04Z","2025-02-16T16:48:07Z","2025-02-16T16:48:10Z","2025-02-16T16:48:13Z","2025-02-16T16:48:15Z","2025-02-16T16:48:18Z","2025-02-16T16:48:20Z","2025-02-16T16:48:22Z","2025-02-16T16:48:24Z","2025-02-16T16:48:27Z","2025-02-16T16:48:28Z","2025-02-16T16:48:32Z","2025-02-16T16:48:34Z","2025-02-16T16:48:36Z","2025-02-16T16:48:38Z","2025-02-16T16:48:43Z","2025-02-16T16:48:45Z","2025-02-16T16:48:49Z","2025-02-16T16:48:50Z","2025-02-16T16:48:52Z","2025-02-16T16:48:54Z","2025-02-16T16:48:58Z","2025-02-16T16:49:05Z","2025-02-16T16:49:09Z","2025-02-16T16:49:14Z","2025-02-16T16:49:17Z","2025-02-16T16:49:19Z","2025-02-16T16:49:20Z","2025-02-16T16:49:22Z","2025-02-16T16:49:25Z","2025-02-16T16:49:28Z","2025-02-16T16:49:34Z","2025-02-16T16:49:40Z","2025-02-16T16:49:43Z","2025-02-16T16:49:46Z","2025-02-16T16:49:50Z","2025-02-16T16:49:54Z","2025-02-16T16:49:58Z","2025-02-16T16:50:00Z","2025-02-16T16:50:02Z","2025-02-16T16:50:04Z","2025-02-16T16:50:09Z","2025-02-16T16:50:11Z","2025-02-16T16:50:12Z","2025-02-16T16:50:14Z","2025-02-16T16:50:19Z","2025-02-16T16:50:20Z","2025-02-16T16:50:21Z","2025-02-16T16:50:22Z","2025-02-16T16:50:23Z","2025-02-16T16:50:24Z","2025-02-16T16:50:25Z","2025-02-16T16:50:30Z","2025-02-16T16:50:32Z","2025-02-16T16:50:40Z","2025-02-16T16:50:42Z","2025-02-16T16:50:44Z","2025-02-16T16:50:49Z","2025-02-16T16:52:47Z","2025-02-16T16:52:49Z","2025-02-16T16:52:57Z","2025-02-16T16:52:58Z","2025-02-16T16:53:01Z","2025-02-16T16:53:03Z","2025-02-16T16:53:04Z","2025-02-16T16:53:05Z","2025-02-16T16:53:06Z","2025-02-16T16:53:07Z","2025-02-16T16:53:08Z","2025-02-16T16:53:09Z","2025-02-16T16:53:12Z","2025-02-16T16:53:14Z","2025-02-16T16:53:15Z","2025-02-16T16:53:17Z","2025-02-16T16:53:21Z","2025-02-16T16:53:26Z","2025-02-16T16:53:29Z","2025-02-16T16:53:30Z","2025-02-16T16:53:32Z","2025-02-16T16:53:35Z","2025-02-16T16:53:38Z","2025-02-16T16:53:44Z","2025-02-16T16:53:45Z","2025-02-16T16:53:48Z","2025-02-16T16:53:52Z","2025-02-16T16:53:55Z","2025-02-16T16:53:56Z","2025-02-16T16:54:00Z","2025-02-16T16:54:03Z","2025-02-16T16:54:05Z","2025-02-16T16:54:10Z","2025-02-16T16:54:12Z","2025-02-16T16:54:54Z","2025-02-16T16:54:55Z","2025-02-16T16:54:59Z","2025-02-16T16:55:01Z","2025-02-16T16:55:03Z","2025-02-16T16:55:08Z","2025-02-16T16:55:17Z","2025-02-16T16:55:18Z","2025-02-16T16:55:44Z","2025-02-16T16:55:47Z","2025-02-16T16:55:51Z","2025-02-16T16:55:53Z","2025-02-16T16:55:56Z","2025-02-16T16:55:59Z","2025-02-16T16:56:03Z","2025-02-16T16:56:06Z","2025-02-16T16:56:08Z","2025-02-16T16:56:14Z","2025-02-16T16:56:15Z","2025-02-16T16:56:16Z","2025-02-16T16:56:17Z","2025-02-16T16:56:19Z","2025-02-16T16:56:20Z","2025-02-16T16:56:21Z","2025-02-16T16:56:23Z","2025-02-16T16:56:26Z","2025-02-16T16:56:36Z","2025-02-16T16:56:37Z","2025-02-16T16:56:39Z","2025-02-16T16:56:43Z","2025-02-16T16:56:48Z","2025-02-16T16:56:50Z","2025-02-16T16:56:51Z","2025-02-16T16:56:53Z","2025-02-16T16:57:00Z","2025-02-16T16:57:01Z","2025-02-16T16:57:02Z","2025-02-16T16:57:04Z","2025-02-16T16:57:06Z","2025-02-16T16:57:08Z","2025-02-16T16:57:10Z","2025-02-16T16:57:12Z","2025-02-16T16:57:13Z","2025-02-16T16:57:15Z","2025-02-16T16:57:16Z","2025-02-16T16:57:17Z","2025-02-16T16:57:19Z","2025-02-16T16:57:21Z","2025-02-16T16:57:25Z","2025-02-16T16:57:28Z","2025-02-16T16:57:30Z","2025-02-16T16:57:32Z","2025-02-16T16:57:36Z","2025-02-16T16:57:40Z","2025-02-16T16:57:43Z","2025-02-16T16:57:48Z","2025-02-16T16:57:51Z","2025-02-16T16:57:53Z","2025-02-16T16:57:56Z","2025-02-16T16:57:58Z","2025-02-16T16:58:03Z","2025-02-16T16:58:06Z","2025-02-16T16:58:15Z","2025-02-16T16:58:23Z","2025-02-16T16:58:25Z","2025-02-16T16:58:27Z","2025-02-16T16:58:28Z","2025-02-16T16:58:30Z","2025-02-16T16:58:34Z","2025-02-16T16:58:38Z","2025-02-16T16:58:43Z","2025-02-16T16:58:49Z","2025-02-16T16:58:55Z","2025-02-16T16:59:01Z","2025-02-16T16:59:04Z","2025-02-16T16:59:13Z","2025-02-16T16:59:17Z","2025-02-16T16:59:18Z","2025-02-16T16:59:21Z","2025-02-16T16:59:25Z","2025-02-16T16:59:27Z","2025-02-16T16:59:30Z","2025-02-16T16:59:32Z","2025-02-16T16:59:35Z","2025-02-16T16:59:37Z","2025-02-16T16:59:38Z","2025-02-16T16:59:44Z","2025-02-16T16:59:46Z","2025-02-16T16:59:47Z","2025-02-16T16:59:49Z","2025-02-16T16:59:50Z","2025-02-16T16:59:52Z","2025-02-16T16:59:54Z","2025-02-16T16:59:57Z","2025-02-16T16:59:59Z","2025-02-16T17:00:01Z","2025-02-16T17:00:04Z","2025-02-16T17:00:05Z","2025-02-16T17:00:07Z","2025-02-16T17:00:12Z","2025-02-16T17:00:14Z","2025-02-16T17:00:15Z","2025-02-16T17:00:18Z","2025-02-16T17:00:19Z","2025-02-16T17:00:21Z","2025-02-16T17:00:24Z","2025-02-16T17:00:29Z","2025-02-16T17:00:31Z","2025-02-16T17:00:37Z","2025-02-16T17:00:39Z","2025-02-16T17:00:42Z","2025-02-16T17:00:44Z","2025-02-16T17:00:46Z","2025-02-16T17:00:47Z","2025-02-16T17:00:49Z","2025-02-16T17:00:53Z","2025-02-16T17:00:54Z","2025-02-16T17:01:45Z","2025-02-16T17:01:56Z","2025-02-16T17:02:00Z","2025-02-16T17:02:01Z","2025-02-16T17:02:02Z","2025-02-16T17:02:08Z","2025-02-16T17:02:16Z","2025-02-16T17:02:18Z","2025-02-16T17:02:20Z","2025-02-16T17:02:21Z","2025-02-16T17:02:25Z","2025-02-16T17:02:27Z","2025-02-16T17:02:29Z","2025-02-16T17:02:34Z","2025-02-16T17:02:39Z","2025-02-16T17:02:44Z","2025-02-16T17:02:46Z","2025-02-16T17:02:53Z","2025-02-16T17:02:54Z","2025-02-16T17:02:55Z","2025-02-16T17:02:58Z","2025-02-16T17:03:02Z","2025-02-16T17:03:04Z","2025-02-16T17:03:05Z","2025-02-16T17:03:11Z","2025-02-16T17:03:14Z","2025-02-16T17:03:21Z","2025-02-16T17:03:27Z","2025-02-16T17:03:29Z","2025-02-16T17:03:32Z","2025-02-16T17:03:35Z","2025-02-16T17:03:37Z","2025-02-16T17:03:42Z","2025-02-16T17:03:48Z","2025-02-16T17:03:50Z","2025-02-16T17:03:56Z","2025-02-16T17:04:01Z","2025-02-16T17:04:03Z","2025-02-16T17:04:10Z","2025-02-16T17:04:13Z","2025-02-16T17:04:18Z","2025-02-16T17:04:21Z","2025-02-16T17:04:23Z","2025-02-16T17:04:25Z","2025-02-16T17:04:27Z","2025-02-16T17:04:29Z","2025-02-16T17:04:30Z","2025-02-16T17:04:31Z","2025-02-16T17:04:32Z","2025-02-16T17:04:35Z","2025-02-16T17:04:37Z","2025-02-16T17:04:40Z","2025-02-16T17:04:41Z","2025-02-16T17:04:43Z","2025-02-16T17:04:48Z","2025-02-16T17:04:51Z","2025-02-16T17:04:52Z","2025-02-16T17:04:53Z","2025-02-16T17:04:56Z","2025-02-16T17:04:58Z","2025-02-16T17:05:02Z","2025-02-16T17:05:09Z","2025-02-16T17:05:13Z","2025-02-16T17:05:15Z","2025-02-16T17:05:35Z","2025-02-16T17:07:19Z","2025-02-16T17:07:31Z","2025-02-16T17:07:33Z","2025-02-16T17:07:39Z","2025-02-16T17:07:40Z","2025-02-16T17:07:43Z","2025-02-16T17:07:44Z","2025-02-16T17:07:46Z","2025-02-16T17:07:49Z","2025-02-16T17:07:53Z","2025-02-16T17:07:55Z","2025-02-16T17:07:57Z","2025-02-16T17:11:19Z","2025-02-16T17:11:34Z","2025-02-16T17:11:41Z","2025-02-16T17:12:04Z","2025-02-16T17:12:07Z","2025-02-16T17:12:10Z","2025-02-16T17:12:15Z","2025-02-16T17:12:22Z","2025-02-16T17:12:24Z","2025-02-16T17:12:26Z","2025-02-16T17:12:29Z","2025-02-16T17:12:30Z","2025-02-16T17:12:31Z","2025-02-16T17:12:36Z","2025-02-16T17:12:38Z","2025-02-16T17:12:39Z","2025-02-16T17:12:40Z","2025-02-16T17:12:42Z","2025-02-16T17:12:49Z","2025-02-16T17:12:55Z","2025-02-16T17:12:58Z","2025-02-16T17:13:02Z","2025-02-16T17:13:08Z","2025-02-16T17:13:09Z","2025-02-16T17:13:11Z","2025-02-16T17:13:13Z","2025-02-16T17:13:21Z","2025-02-16T17:13:23Z","2025-02-16T17:13:24Z","2025-02-16T17:13:27Z","2025-02-16T17:13:28Z","2025-02-16T17:13:29Z","2025-02-16T17:13:33Z","2025-02-16T17:13:37Z","2025-02-16T17:13:38Z","2025-02-16T17:13:41Z","2025-02-16T17:13:43Z","2025-02-16T17:13:47Z","2025-02-16T17:13:49Z","2025-02-16T17:13:51Z","2025-02-16T17:13:53Z","2025-02-16T17:13:57Z","2025-02-16T17:14:00Z","2025-02-16T17:14:01Z","2025-02-16T17:14:03Z","2025-02-16T17:14:04Z","2025-02-16T17:14:08Z","2025-02-16T17:14:10Z","2025-02-16T17:14:15Z","2025-02-16T17:14:25Z","2025-02-16T17:14:28Z","2025-02-16T17:14:32Z","2025-02-16T17:14:35Z","2025-02-16T17:14:38Z","2025-02-16T17:14:40Z","2025-02-16T17:14:44Z","2025-02-16T17:14:49Z","2025-02-16T17:14:51Z","2025-02-16T17:14:53Z","2025-02-16T17:14:55Z","2025-02-16T17:14:57Z","2025-02-16T17:14:59Z","2025-02-16T17:15:00Z","2025-02-16T17:15:03Z","2025-02-16T17:15:04Z","2025-02-16T17:15:05Z","2025-02-16T17:15:08Z","2025-02-16T17:15:10Z","2025-02-16T17:15:13Z","2025-02-16T17:15:14Z","2025-02-16T17:15:15Z","2025-02-16T17:15:17Z","2025-02-16T17:15:19Z","2025-02-16T17:15:22Z","2025-02-16T17:15:25Z","2025-02-16T17:15:27Z","2025-02-16T17:15:28Z","2025-02-16T17:15:30Z","2025-02-16T17:15:31Z","2025-02-16T17:15:33Z","2025-02-16T17:15:34Z","2025-02-16T17:15:36Z","2025-02-16T17:15:38Z","2025-02-16T17:15:40Z","2025-02-16T17:15:42Z","2025-02-16T17:15:45Z","2025-02-16T17:15:46Z","2025-02-16T17:15:48Z","2025-02-16T17:15:53Z","2025-02-16T17:15:55Z","2025-02-16T17:15:57Z","2025-02-16T17:15:58Z","2025-02-16T17:15:59Z","2025-02-16T17:16:01Z","2025-02-16T17:16:03Z","2025-02-16T17:16:05Z","2025-02-16T17:16:06Z","2025-02-16T17:16:09Z","2025-02-16T17:16:12Z","2025-02-16T17:16:14Z","2025-02-16T17:16:17Z","2025-02-16T17:16:20Z","2025-02-16T17:16:21Z","2025-02-16T17:16:23Z","2025-02-16T17:16:25Z","2025-02-16T17:16:29Z","2025-02-16T17:16:32Z","2025-02-16T17:16:33Z","2025-02-16T17:16:35Z","2025-02-16T17:16:37Z","2025-02-16T17:16:40Z","2025-02-16T17:16:41Z","2025-02-16T17:16:49Z","2025-02-16T17:16:52Z","2025-02-16T17:16:53Z","2025-02-16T17:17:00Z","2025-02-16T17:17:02Z","2025-02-16T17:17:05Z","2025-02-16T17:17:09Z","2025-02-16T17:17:11Z","2025-02-16T17:17:13Z","2025-02-16T17:17:14Z","2025-02-16T17:17:16Z","2025-02-16T17:17:21Z","2025-02-16T17:17:25Z","2025-02-16T17:18:26Z","2025-02-16T17:18:28Z","2025-02-16T17:18:30Z","2025-02-16T17:18:40Z","2025-02-16T17:18:49Z","2025-02-16T17:19:24Z","2025-02-16T17:19:29Z","2025-02-16T17:19:32Z","2025-02-16T17:19:35Z","2025-02-16T17:19:36Z","2025-02-16T17:19:37Z","2025-02-16T17:19:58Z","2025-02-16T17:20:00Z","2025-02-16T17:20:02Z","2025-02-16T17:20:09Z","2025-02-16T17:20:11Z","2025-02-16T17:20:12Z","2025-02-16T17:20:14Z","2025-02-16T17:20:18Z","2025-02-16T17:20:27Z","2025-02-16T17:20:57Z","2025-02-16T17:20:59Z","2025-02-16T17:21:01Z","2025-02-16T17:21:03Z","2025-02-16T17:21:04Z","2025-02-16T17:21:07Z","2025-02-16T17:21:09Z","2025-02-16T17:21:10Z","2025-02-16T17:21:12Z","2025-02-16T17:21:13Z","2025-02-16T17:21:18Z","2025-02-16T17:21:22Z","2025-02-16T17:21:24Z","2025-02-16T17:21:25Z","2025-02-16T17:21:26Z","2025-02-16T17:21:27Z","2025-02-16T17:21:28Z","2025-02-16T17:21:30Z","2025-02-16T17:21:31Z","2025-02-16T17:21:32Z","2025-02-16T17:21:34Z","2025-02-16T17:21:40Z","2025-02-16T17:21:48Z","2025-02-16T17:21:56Z","2025-02-16T17:21:59Z","2025-02-16T17:22:04Z","2025-02-16T17:22:20Z","2025-02-16T17:22:27Z","2025-02-16T17:22:33Z","2025-02-16T17:22:43Z","2025-02-16T17:22:49Z","2025-02-16T17:23:06Z","2025-02-16T17:23:31Z","2025-02-16T17:23:32Z","2025-02-16T17:23:33Z","2025-02-16T17:23:36Z","2025-02-16T17:23:40Z","2025-02-16T17:23:44Z","2025-02-16T17:23:57Z","2025-02-16T17:23:58Z","2025-02-16T17:24:00Z","2025-02-16T17:24:02Z","2025-02-16T17:24:03Z","2025-02-16T17:24:06Z","2025-02-16T17:24:09Z","2025-02-16T17:24:13Z","2025-02-16T17:24:17Z","2025-02-16T17:24:20Z","2025-02-16T17:24:22Z","2025-02-16T17:24:23Z","2025-02-16T17:24:24Z","2025-02-16T17:24:25Z","2025-02-16T17:24:26Z","2025-02-16T17:24:28Z","2025-02-16T17:24:29Z","2025-02-16T17:24:30Z","2025-02-16T17:24:32Z","2025-02-16T17:24:34Z","2025-02-16T17:24:42Z","2025-02-16T17:24:49Z","2025-02-16T17:24:50Z","2025-02-16T17:24:53Z","2025-02-16T17:24:54Z","2025-02-16T17:24:56Z","2025-02-16T17:24:58Z","2025-02-16T17:24:59Z","2025-02-16T17:25:00Z","2025-02-16T17:25:01Z","2025-02-16T17:25:02Z","2025-02-16T17:25:05Z","2025-02-16T17:25:08Z","2025-02-16T17:25:15Z","2025-02-16T17:25:16Z","2025-02-16T17:25:18Z","2025-02-16T17:25:19Z","2025-02-16T17:25:21Z","2025-02-16T17:25:29Z","2025-02-16T17:25:31Z","2025-02-16T17:25:32Z","2025-02-16T17:25:34Z","2025-02-16T17:25:36Z","2025-02-16T17:25:37Z","2025-02-16T17:25:38Z","2025-02-16T17:25:39Z","2025-02-16T17:25:44Z","2025-02-16T17:25:47Z","2025-02-16T17:25:49Z","2025-02-16T17:25:51Z","2025-02-16T17:25:56Z","2025-02-16T17:25:59Z","2025-02-16T17:26:03Z","2025-02-16T17:26:11Z","2025-02-16T17:26:16Z","2025-02-16T17:26:17Z","2025-02-16T17:26:19Z","2025-02-16T17:26:21Z","2025-02-16T17:26:30Z","2025-02-16T17:26:41Z","2025-02-16T17:26:52Z","2025-02-16T17:26:56Z","2025-02-16T17:27:13Z","2025-02-16T17:27:22Z","2025-02-16T17:27:24Z","2025-02-16T17:27:28Z","2025-02-16T17:27:29Z","2025-02-16T17:27:30Z","2025-02-16T17:27:32Z","2025-02-16T17:27:34Z","2025-02-16T17:27:35Z","2025-02-16T17:27:46Z","2025-02-16T17:27:48Z","2025-02-16T17:27:49Z","2025-02-16T17:27:50Z","2025-02-16T17:28:00Z","2025-02-16T17:28:01Z","2025-02-16T17:28:02Z","2025-02-16T17:28:04Z","2025-02-16T17:28:05Z","2025-02-16T17:28:06Z","2025-02-16T17:28:08Z","2025-02-16T17:28:13Z","2025-02-16T17:28:16Z","2025-02-16T17:28:20Z","2025-02-16T17:28:33Z","2025-02-16T17:28:40Z","2025-02-16T17:28:43Z","2025-02-16T17:28:52Z","2025-02-16T17:29:02Z","2025-02-16T17:29:04Z","2025-02-16T17:29:05Z","2025-02-16T17:29:07Z","2025-02-16T17:29:10Z","2025-02-16T17:29:17Z","2025-02-16T17:29:18Z","2025-02-16T17:29:21Z","2025-02-16T17:29:33Z","2025-02-16T17:29:39Z","2025-02-16T17:29:40Z","2025-02-16T17:29:42Z","2025-02-16T17:29:49Z","2025-02-16T17:29:53Z","2025-02-16T17:30:02Z","2025-02-16T17:31:26Z","2025-02-16T17:31:27Z","2025-02-16T17:31:34Z","2025-02-16T17:31:35Z","2025-02-16T17:31:37Z","2025-02-16T17:31:41Z","2025-02-16T17:31:48Z","2025-02-16T17:31:50Z","2025-02-16T17:31:54Z","2025-02-16T17:31:55Z","2025-02-16T17:32:00Z","2025-02-16T17:32:02Z","2025-02-16T17:32:05Z","2025-02-16T17:32:07Z","2025-02-16T17:32:15Z","2025-02-16T17:32:18Z","2025-02-16T17:32:33Z","2025-02-16T17:32:40Z","2025-02-16T17:32:44Z","2025-02-16T17:32:52Z","2025-02-16T17:33:05Z","2025-02-16T17:33:08Z","2025-02-16T17:33:16Z","2025-02-16T17:33:23Z","2025-02-16T17:33:24Z","2025-02-16T17:33:25Z","2025-02-16T17:33:26Z","2025-02-16T17:33:33Z","2025-02-16T17:34:14Z","2025-02-16T17:34:16Z","2025-02-16T17:34:23Z","2025-02-16T17:34:25Z","2025-02-16T17:34:27Z","2025-02-16T17:34:28Z","2025-02-16T17:34:35Z","2025-02-16T17:34:38Z","2025-02-16T17:34:43Z","2025-02-16T17:35:05Z","2025-02-16T17:35:06Z","2025-02-16T17:35:07Z","2025-02-16T17:35:18Z","2025-02-16T17:35:21Z","2025-02-16T17:35:27Z","2025-02-16T17:35:35Z","2025-02-16T17:35:38Z","2025-02-16T17:35:40Z","2025-02-16T17:35:43Z","2025-02-16T17:35:47Z","2025-02-16T17:36:02Z","2025-02-16T17:36:04Z","2025-02-16T17:36:08Z","2025-02-16T17:36:12Z","2025-02-16T17:36:18Z","2025-02-16T17:36:23Z","2025-02-16T17:36:36Z","2025-02-16T17:36:39Z","2025-02-16T17:36:48Z","2025-02-16T17:36:50Z","2025-02-16T17:37:20Z","2025-02-16T17:37:21Z","2025-02-16T17:37:36Z","2025-02-16T17:37:39Z","2025-02-16T17:37:42Z","2025-02-16T17:37:45Z","2025-02-16T17:37:47Z","2025-02-16T17:37:48Z","2025-02-16T17:37:50Z","2025-02-16T17:37:56Z","2025-02-16T17:38:08Z","2025-02-16T17:38:11Z","2025-02-16T17:38:12Z","2025-02-16T17:38:14Z","2025-02-16T17:38:19Z","2025-02-16T17:38:28Z","2025-02-16T17:38:30Z","2025-02-16T17:38:34Z","2025-02-16T17:38:38Z","2025-02-16T17:38:42Z","2025-02-16T17:38:48Z","2025-02-16T17:39:03Z","2025-02-16T17:39:04Z","2025-02-16T17:39:05Z","2025-02-16T17:39:06Z","2025-02-16T17:39:17Z","2025-02-16T17:39:18Z","2025-02-16T17:39:19Z","2025-02-16T17:39:20Z","2025-02-16T17:39:23Z","2025-02-16T17:39:28Z","2025-02-16T17:39:34Z","2025-02-16T17:39:41Z","2025-02-16T17:39:47Z","2025-02-16T17:39:49Z","2025-02-16T17:39:50Z","2025-02-16T17:39:52Z","2025-02-16T17:39:54Z","2025-02-16T17:39:56Z","2025-02-16T17:39:57Z","2025-02-16T17:40:01Z","2025-02-16T17:40:06Z","2025-02-16T17:40:08Z","2025-02-16T17:40:12Z","2025-02-16T17:40:13Z","2025-02-16T17:40:17Z","2025-02-16T17:40:19Z","2025-02-16T17:40:22Z","2025-02-16T17:40:26Z","2025-02-16T17:40:29Z","2025-02-16T17:40:31Z","2025-02-16T17:40:40Z","2025-02-16T17:40:48Z","2025-02-16T17:40:49Z"],"heartRates":[126,126,126,126,126,126,124,124,126,129,129,122,122,122,106,106,112,114,114,118,118,118,118,118,118,118,119,122,122,125,125,127,128,108,120,124,122,118,119,116,116,112,112,113,113,113,113,111,111,114,114,114,114,114,119,121,120,120,120,121,127,127,127,127,130,130,130,130,130,130,130,130,130,131,131,131,131,129,129,122,122,122,116,107,101,105,102,102,102,102,102,100,101,101,97,97,97,97,96,99,105,105,111,111,111,111,112,112,115,115,115,115,115,128,128,128,133,134,134,139,144,147,153,162,162,163,163,164,161,160,158,150,150,149,149,146,146,145,148,148,148,148,146,146,146,144,143,122,122,122,122,122,125,125,129,129,129,129,129,137,137,137,140,140,141,141,145,145,146,156,157,157,156,156,156,156,156,156,155,155,152,150,141,137,136,136,136,136,136,133,133,131,131,131,131,131,131,127,130,130,130,126,126,126,126,125,126,126,130,133,135,135,135,137,137,133,132,132,135,135,135,135,135,135,133,133,145,145,151,149,149,149,149,149,149,150,149,149,147,147,147,143,143,143,143,143,143,143,143,143,141,141,141,140,140,140,140,140,140,140,140,141,141,141,150,156,160,163,166,166,166,167,167,166,166,167,167,166,166,166,167,167,168,168,168,169,167,167,167,167,167,167,167,167,163,160,159,158,158,157,157,157,156,156,151,148,147,141,137,137,137,137,138,138,138,136,134,133,133,132,132,129,131,134,134,135,139,139,139,139,140,140,141,141,146,146,146,145,145,143,143,143,139,136,138,138,138,140,140,140,143,144,144,144,144,147,147,149,149,150,150,152,154,154,154,155,155,155,154,154,154,154,155,155,155,154,154,155,156,157,153,153,148,135,133,133,135,135,132,132,132,132,130,132,132,132,132,132,132,132,132,132,132,132,132,132,132,132,132,131,131,131,131,131,131,134,134,132,132,132,132,132,132,132,132,133,133,132,132,132,130,127,127,127,127,127,126,126,126,127,127,127,125,125,122,122,122,121,120,120,120,120,120,119,119,119,119,120,120,120,120,120,118,118,119,119,119,118,120,120,122,125,125,127,127,127,127,127,127,127,127,129,129,128,128,128,128,131,134,134,138,138,138,138,138,136,136,138,138,138,138,138,138,138,138,139,139,139,139,127,127,128,128,128,127,127,130,130,130,130,130,132,134,135,135,135,135,138,138,144,142,142,142,142,124,124,125,125,126,125,125,125,125,122,122,122,122,122,122,124,124,122,122,122,122,122,122,124,124,124,124,122,125,116,116,118,118,117,116,116,116,116,116,116,116,119,119,120,122,124,124,124,117,117,120,120,120,120,125,125,124,124,124,122,122,122,122,122,122,122,119,119,120,120,120,120,120,120,119,119,124,124,124,124,122,122,120,120,120,118,119,119,119,119,119,119,119,119,118,118,118,119,119,119,111,111,117,122,125,125,127,127,127,131,131,134,136,137,137,137,138,140,140,140,140,141,141,141,140,138,138,138,138,138,138,138,136,136,134,134,134,132,132,112,116,116,115,115,115,115,115,116,116,116,117,117,117,117,119,118,118,117,117,117,117,118,117,117,114,114,114,113,113,113,112,112,112,112,112,111,111,112,112,112,113,113,113,115,115,115,109,109,109,114,114,114,114,114,114,112,112,112,116,116,116,125,129,129,129,129,128,127,127,127,127,127,127,127,127,127,127,127,127,131,129,125,125,125,135,135,135,130,129,129,129,129,132,132,132,129,129,130,130,130,130,131,133,135,135,136,136,136,136,136,136,137,140,140,140,134,134,134,145,145,145,145,144,141,141,139,139,139,141,141,141,140,140,141,141,141,141,141,143,143,135,135,135,135,136,136,136,136,136,137,134,134,134,134,137,135,138,138,138,142,142,145,145,147,147,147,149,149,149,148,148,146,146,148,149,149,150,150,150,150,152,152,152,152,152,151,151,149,150,150,150,151,151,150,150,150,148,148,148,146,146,146,146,146,144,143,143,143,143,144,147,147,147,147,159,158,158,158,158,158,158,156,156,153,153,154,154,118,124,122,122,126,126,126,126,127,127,127,127,125,125,124,124,119,121,122,122,122,125,125,125,125,124,124,124,124,124,124,124,124,124,124,124,122,122,122,124,127,127,127,129,129,129,129,129,126,127,126,126,125,125,126,126,132,132,131,132,132,132,135,135,135,135,135,135,135,136,136,136,133,133,133,133,133,133,133,133,133,133,133,134,134,134,134,140,140,145,145,145,145,145,145,145,147,145,145,146,146,146,146,144,144,139,139,139,137,137,137,132,132,132,129,130,130,130,129,129,129,128,127,127,127,127,127,129,125,125,112,113,113,113,113,113,113,111,121,119,119,119,120,122,114,114,117,117,117,118,118,118,118,118,119,122,122,122,122,122,125,125,124,124,124,124,127,128,136,136,139,140,142,142,139,157,148,148,148,146,146,146,141,141,134,133,133,133,133,126,125,125,122,122,122,122,122,122,122,122,122,122,127,125,125,125,125,126,126,126,126,126,126,126,126,126,126,126,126,126,126,127,126,126,125,125,125,125,124,124,124,126,127,128,128,130,134,134,134,142,148,156,160,160,160,137,128,136,136,136,133,133,133,141,142,142,142,138,137,137,137,137,135,135,135,131,130,126,127,126,124,124,124,124,124,124,124,124,124,129,129,132,132,138,139,141,119,119,128,128,132,132,131,131,131,131,132,132,133,132,134,134,140,140,140,146,143,143,151,150,150,150,148,148,136,136,136,140,140,140,145,149,152,160,159,159,157,157,151,160,160,160,159,159,160,160,163,163,163,169,169,169,170,170,159,159,160,160,159,159,160,160,160,159,155,153,153,153,153,152,149,148,148,148,147,143,143,143,143,140,140,140,140,140,138,135,135,135,134,134,135,135,135,135,137,135,135,133,133,133,133,133,128,128,124,124,122,122],"month":"2025-02-01"},"geometry":{"type":"LineString","coordinates":[[2.453712,48.702871,82.6],[2.45378,48.702868,82.6],[2.453848,48.702877,82.6],[2.4539,48.702907,82.5],[2.453908,48.702956,82.5],[2.453873,48.703059,82.4],[2.453795,48.70382,81.1],[2.453775,48.703869,81],[2.453762,48.704358,80.1],[2.453802,48.704616,79.9],[2.453825,48.704649,79.8],[2.453878,48.704683,79.7],[2.45386,48.704674,79.7],[2.453835,48.704722,79.6],[2.453902,48.705189,78.7],[2.453896,48.705251,78.4],[2.453993,48.705741,77.2],[2.454138,48.706288,75.6],[2.454182,48.706397,75.2],[2.454262,48.706531,74.7],[2.454367,48.706656,74.3],[2.454718,48.706979,73.1],[2.454836,48.707065,72.8],[2.454901,48.707096,72.5],[2.454986,48.707113,72.3],[2.455077,48.707106,72.3],[2.455162,48.707086,72.4],[2.455701,48.706843,73.1],[2.456127,48.70662,73.9],[2.456567,48.70637,74.6],[2.456622,48.706347,74.6],[2.457063,48.7061,75.3],[2.457272,48.705994,75.5],[2.457954,48.705609,76],[2.458421,48.705362,75.9],[2.458918,48.705063,75.5],[2.45919,48.704915,75.3],[2.459398,48.704789,75.2],[2.459878,48.704525,75],[2.459918,48.704492,75],[2.460184,48.704332,74.8],[2.460566,48.704164,74.7],[2.460622,48.704147,74.7],[2.460686,48.704139,74.6],[2.460753,48.704146,74.4],[2.460861,48.704198,74.1],[2.460933,48.704218,74.1],[2.461004,48.70422,74.1],[2.461305,48.7042,74.2],[2.461834,48.704188,74.6],[2.461909,48.704178,74.7],[2.462036,48.704145,74.8],[2.462534,48.704105,75.1],[2.462765,48.704097,75.2],[2.463738,48.703977,75.8],[2.463956,48.703937,75.9],[2.464498,48.703884,75.8],[2.464851,48.703834,75.6],[2.465218,48.703792,75.2],[2.465685,48.703718,75.1],[2.466167,48.70366,75.1],[2.466245,48.703645,75.1],[2.466325,48.703643,75.1],[2.466551,48.703595,75.1],[2.466854,48.703518,74.9],[2.466922,48.703484,74.9],[2.466973,48.703442,75],[2.467012,48.703342,75.1],[2.467059,48.703323,75.2],[2.467126,48.703331,75.2],[2.467186,48.703366,75.3],[2.467273,48.703457,75],[2.467329,48.703493,74.8],[2.467402,48.703514,74.7],[2.467723,48.703539,74],[2.467798,48.703559,73.8],[2.467858,48.703598,73.6],[2.4679,48.703648,73.4],[2.468029,48.703888,72.5],[2.468058,48.703908,72.4],[2.468112,48.703915,72.1],[2.468295,48.703893,71.6],[2.468954,48.703858,69.5],[2.469446,48.70384,67.7],[2.469741,48.70382,66.7],[2.470355,48.703793,63.8],[2.4706,48.703809,62.8],[2.470656,48.703824,62.5],[2.47071,48.703883,62.1],[2.470709,48.703923,61.8],[2.470683,48.70399,61.3],[2.470686,48.704024,61.1],[2.470941,48.704315,58.9],[2.471041,48.704404,58.2],[2.47133,48.704747,55.7],[2.4714,48.704775,55.7],[2.471498,48.70477,55.8],[2.471597,48.704745,56],[2.47202,48.704574,56.5],[2.472276,48.704488,56.7],[2.472793,48.704365,56.9],[2.472973,48.704333,56.8],[2.473333,48.704305,56.7],[2.473508,48.7043,56.9],[2.473583,48.704273,56.9],[2.473633,48.70422,56.9],[2.473682,48.704035,56.8],[2.47373,48.703905,56.8],[2.473824,48.703713,57.3],[2.473864,48.703655,57.5],[2.473968,48.703545,58.3],[2.474161,48.70343,59.5],[2.474287,48.703381,60.3],[2.474715,48.703251,62.9],[2.474803,48.703216,63.5],[2.474984,48.70316,64.7],[2.475055,48.703129,65.3],[2.475295,48.703064,67],[2.475423,48.703018,67.9],[2.475536,48.702966,68.7],[2.475828,48.702863,70.5],[2.476048,48.7028,71.7],[2.476084,48.702765,72.1],[2.476124,48.702588,74],[2.476142,48.702574,74.2],[2.476221,48.702561,74.5],[2.476297,48.702586,74.5],[2.47636,48.702592,74.5],[2.476742,48.702669,74.7],[2.476828,48.702679,74.7],[2.477281,48.702766,74.7],[2.478359,48.703157,72.5],[2.47861,48.703226,72.3],[2.478788,48.703262,72.3],[2.478869,48.703267,72.3],[2.479426,48.703265,73.2],[2.479648,48.703273,73.6],[2.479866,48.703271,73.9],[2.48104,48.703332,74.6],[2.481201,48.703329,74.7],[2.481317,48.703338,74.8],[2.481362,48.703349,74.8],[2.481503,48.703422,74.8],[2.481568,48.703466,74.9],[2.481607,48.703476,74.9],[2.481598,48.703472,74.9],[2.481608,48.703473,74.9],[2.481568,48.703534,74.9],[2.481541,48.703522,74.9],[2.481501,48.703464,74.9],[2.481402,48.703374,74.8],[2.481362,48.703311,74.8],[2.481357,48.703242,75.2],[2.481372,48.703205,75.3],[2.481387,48.703085,75.9],[2.481409,48.703057,76],[2.481445,48.703035,76.1],[2.481588,48.703025,76.1],[2.481727,48.703038,76.1],[2.481945,48.703072,76],[2.482276,48.703079,76],[2.482527,48.703102,75.9],[2.482863,48.70312,75.8],[2.483539,48.703184,75.8],[2.484248,48.703263,76],[2.484421,48.703288,76.1],[2.484992,48.70335,77],[2.485304,48.703392,77.6],[2.486156,48.703484,78.9],[2.487237,48.703547,80.2],[2.487363,48.70353,80.4],[2.487417,48.703534,80.5],[2.487595,48.70359,80.4],[2.487664,48.703597,80.4],[2.487733,48.703587,80.2],[2.487794,48.703565,80.1],[2.487904,48.703543,79.7],[2.487957,48.703547,79.5],[2.488014,48.703562,79.3],[2.488189,48.703661,78.5],[2.489148,48.703984,74.6],[2.489588,48.704115,72.5],[2.490245,48.704341,69.1],[2.490747,48.70453,65.3],[2.491656,48.704839,59.4],[2.491948,48.704929,57.6],[2.492056,48.704952,57],[2.49218,48.704953,56.3],[2.492296,48.704945,55.5],[2.4928,48.704996,53],[2.493211,48.705055,50.2],[2.493563,48.705088,47.9],[2.49366,48.705091,47.3],[2.493741,48.705084,46.8],[2.493853,48.705052,46.1],[2.493893,48.704981,45.8],[2.493892,48.704923,45.4],[2.493831,48.704729,44.3],[2.493643,48.703835,41.8],[2.493645,48.703783,41.8],[2.493677,48.703737,41.7],[2.493828,48.703639,41.1],[2.49386,48.703635,41.1],[2.49388,48.703646,41],[2.493876,48.703651,41],[2.494026,48.703627,40.6],[2.494058,48.703634,40.6],[2.494066,48.703687,40.6],[2.494151,48.703831,40.6],[2.494278,48.704095,40.6],[2.494378,48.704239,40.6],[2.49461,48.70448,40.7],[2.494774,48.704613,40.8],[2.494972,48.704735,40.9],[2.495214,48.704914,41.1],[2.495538,48.705136,41.1],[2.49567,48.705217,40.8],[2.495929,48.705328,40],[2.496014,48.70539,39.7],[2.496075,48.705461,39.6],[2.49618,48.705669,39.5],[2.496271,48.705787,39.6],[2.496289,48.705864,39.7],[2.496336,48.705932,39.9],[2.496344,48.706236,41.1],[2.496304,48.706338,41.2],[2.496289,48.706559,41],[2.49633,48.706726,40.9],[2.496377,48.706825,40.8],[2.49644,48.706912,40.8],[2.496489,48.706953,40.7],[2.496572,48.706976,40.6],[2.496661,48.706979,40.6],[2.497104,48.707029,40.5],[2.497295,48.707035,40.5],[2.497851,48.707129,40.7],[2.497972,48.707159,40.8],[2.498177,48.707226,40.9],[2.498229,48.707235,40.9],[2.498462,48.707243,41],[2.498523,48.707252,41.1],[2.498574,48.707277,41.1],[2.498612,48.707313,41.1],[2.498642,48.707395,41.1],[2.498631,48.707438,41.1],[2.498593,48.707481,41],[2.49854,48.707515,40.9],[2.498499,48.707555,40.8],[2.498452,48.707652,40.8],[2.498434,48.707763,40.7],[2.49833,48.707924,40.3],[2.498276,48.707973,40.1],[2.498206,48.708016,39.9],[2.498092,48.708122,39.6],[2.498007,48.708244,39.4],[2.497982,48.708305,39.3],[2.497952,48.708433,39.2],[2.497947,48.708559,39.2],[2.497972,48.708743,39.3],[2.498088,48.708967,39.4],[2.498165,48.709077,39.5],[2.49872,48.709677,41.8],[2.498874,48.709809,42.9],[2.498898,48.709847,43.2],[2.499401,48.710293,47.8],[2.499477,48.710373,48.5],[2.499918,48.710763,52.1],[2.500247,48.711007,54.3],[2.500567,48.711262,56.5],[2.500758,48.711391,57.6],[2.500947,48.711538,58.9],[2.501054,48.711633,59.8],[2.501175,48.711807,61.2],[2.501189,48.711843,61.5],[2.501217,48.712038,63.1],[2.50122,48.712146,64.1],[2.50124,48.71218,64.4],[2.501222,48.712277,65.3],[2.501193,48.712311,65.7],[2.50118,48.712346,66],[2.501176,48.712433,67],[2.501157,48.712505,67.8],[2.501145,48.71262,69],[2.501107,48.712745,70.4],[2.501111,48.712811,71.1],[2.501091,48.712877,71.8],[2.501052,48.713165,74.7],[2.501069,48.713267,75.7],[2.501062,48.713335,76.3],[2.501084,48.713428,77.1],[2.501078,48.713464,77.4],[2.501049,48.713512,77.8],[2.501048,48.713531,78],[2.501116,48.713674,79],[2.501204,48.71378,79.7],[2.501456,48.714153,82.3],[2.501485,48.714224,82.6],[2.501496,48.714378,83.3],[2.501472,48.714445,83.6],[2.50147,48.714481,83.7],[2.501442,48.7145,83.8],[2.501419,48.714573,83.9],[2.50142,48.714624,84],[2.50138,48.714667,84.2],[2.501254,48.714949,85],[2.50118,48.715326,86],[2.501154,48.715404,86.2],[2.501046,48.715901,87.2],[2.500983,48.716099,87.5],[2.500997,48.716132,87.6],[2.501049,48.716152,87.7],[2.50116,48.716153,87.7],[2.501452,48.716103,87.8],[2.501699,48.716078,87.9],[2.501906,48.716073,87.9],[2.502062,48.716084,87.9],[2.502412,48.716129,87.9],[2.502394,48.716128,87.9],[2.5024,48.716131,87.9],[2.502389,48.716133,87.9],[2.502455,48.71615,87.9],[2.503361,48.716284,88.2],[2.503588,48.71633,88.4],[2.504279,48.716444,89],[2.504434,48.71646,89.2],[2.50489,48.716529,89.7],[2.505181,48.716584,90.1],[2.505257,48.716591,90.1],[2.505474,48.716637,90.4],[2.505752,48.716675,90.7],[2.506261,48.716758,91.3],[2.506356,48.716764,91.4],[2.507481,48.716946,92.6],[2.507762,48.716998,92.9],[2.509503,48.717272,93.8],[2.509579,48.717278,93.8],[2.510152,48.717383,93.6],[2.511467,48.717596,92.4],[2.511562,48.717603,92.3],[2.513139,48.717857,90.8],[2.514092,48.718,90.4],[2.51418,48.718004,90.4],[2.515867,48.718273,89.8],[2.516585,48.718376,89.7],[2.517659,48.718547,89.9],[2.517755,48.718568,89.9],[2.517863,48.718581,89.9],[2.518062,48.718621,89.9],[2.518256,48.71865,89.8],[2.518539,48.718726,89.9],[2.518706,48.718805,89.9],[2.518906,48.71896,90],[2.519054,48.719052,90.1],[2.51914,48.719095,90.1],[2.519236,48.719128,90.1],[2.519427,48.719176,90.1],[2.519628,48.719196,90.1],[2.520112,48.719207,89.8],[2.520307,48.719225,89.8],[2.520498,48.71926,89.8],[2.520588,48.719286,89.7],[2.521372,48.719654,89.5],[2.521889,48.719916,89.6],[2.522023,48.719998,89.7],[2.522301,48.720142,89.8],[2.522809,48.720441,90.1],[2.52285,48.720481,90.1],[2.522911,48.720516,90.1],[2.523059,48.720573,90.1],[2.523215,48.720622,90.1],[2.523462,48.720668,90],[2.523641,48.720686,89.9],[2.524219,48.720771,89.9],[2.524386,48.720787,89.9],[2.524475,48.720787,89.9],[2.524637,48.720821,89.9],[2.526035,48.720954,90.9],[2.526823,48.721039,91.8],[2.526968,48.721047,92],[2.528126,48.721169,92.9],[2.528888,48.721266,93.4],[2.528994,48.721244,93.4],[2.528966,48.721251,93.4],[2.529176,48.721291,93.4],[2.529489,48.721298,93.4],[2.529847,48.721321,93.2],[2.530924,48.721323,92.4],[2.531151,48.721316,92.1],[2.531299,48.721324,92],[2.531368,48.721352,91.9],[2.531406,48.721402,91.9],[2.531426,48.721518,91.9],[2.531474,48.721667,91.9],[2.531671,48.722139,92.5],[2.531717,48.722179,92.4],[2.531793,48.722215,92.3],[2.531879,48.722231,92.1],[2.532046,48.72224,91.9],[2.532314,48.722236,91.4],[2.532418,48.722211,91.2],[2.532601,48.722199,90.9],[2.532969,48.722141,89.8],[2.533071,48.722132,89.5],[2.533158,48.722138,89.3],[2.533254,48.722132,89],[2.533496,48.722133,88.2],[2.533553,48.722127,88.2],[2.533558,48.722117,88.2],[2.533511,48.722101,88.2],[2.533462,48.72207,88.2],[2.53393,48.72209,86.3],[2.534026,48.722082,86],[2.53432,48.722031,85.3],[2.534427,48.72202,85],[2.534962,48.721934,83.6],[2.535442,48.721903,82.1],[2.535695,48.721903,81.4],[2.535761,48.72192,81.2],[2.535989,48.721948,80.6],[2.536079,48.721952,80.4],[2.536781,48.72203,78.7],[2.537095,48.722058,77.8],[2.537214,48.722055,77.5],[2.537309,48.722073,77.2],[2.537395,48.722117,77.1],[2.537498,48.722244,76.8],[2.537691,48.72244,76.2],[2.538754,48.723416,72.4],[2.538831,48.723475,72.2],[2.538954,48.723604,71.7],[2.539288,48.723895,70.5],[2.539529,48.724124,69.4],[2.539741,48.724296,68.8],[2.539795,48.724364,68.6],[2.539835,48.724434,68.3],[2.539973,48.724788,67.2],[2.54004,48.724917,66.8],[2.540287,48.725479,65.6],[2.540321,48.725515,65.6],[2.540367,48.725539,65.6],[2.540445,48.725538,65.4],[2.540888,48.725474,64.2],[2.541107,48.725427,63.5],[2.541255,48.72537,63],[2.541383,48.725304,62.5],[2.541464,48.725293,62.2],[2.541653,48.725301,61.7],[2.541755,48.725292,61.4],[2.542155,48.725203,60.4],[2.542348,48.725133,60.1],[2.542435,48.725088,60],[2.542602,48.725027,59.9],[2.542812,48.724932,59.8],[2.543093,48.724849,59.7],[2.543195,48.724846,59.6],[2.543241,48.724833,59.6],[2.543304,48.724785,59.6],[2.543379,48.724781,59.6],[2.543393,48.724792,59.6],[2.543369,48.724818,59.6],[2.543259,48.724828,59.6],[2.543227,48.724842,59.6],[2.543195,48.724895,59.5],[2.543205,48.724925,59.5],[2.543265,48.724981,59.5],[2.543267,48.725025,59.5],[2.543272,48.72502,59.5],[2.543262,48.725036,59.4],[2.543278,48.72508,59.4],[2.543298,48.725099,59.4],[2.543558,48.725215,59.3],[2.543739,48.725257,59.4],[2.543884,48.725495,59.5],[2.543848,48.725598,59.5],[2.543844,48.725638,59.5],[2.543876,48.725701,59.5],[2.543975,48.725762,59.5],[2.54402,48.725773,59.5],[2.544044,48.725789,59.5],[2.544095,48.725859,59.5],[2.54409,48.725893,59.4],[2.544221,48.726046,59.2],[2.544384,48.726171,59],[2.544478,48.726286,58.9],[2.544656,48.726399,58.9],[2.544743,48.726465,58.9],[2.544981,48.726609,59],[2.545092,48.726651,59.1],[2.54527,48.726755,59.2],[2.545304,48.726787,59.3],[2.54544,48.72699,59.3],[2.545457,48.727068,59.3],[2.545428,48.727204,59.3],[2.545406,48.727239,59.3],[2.545372,48.727356,59.2],[2.545377,48.727398,59.2],[2.545467,48.727508,59.1],[2.545425,48.72772,59.1],[2.545437,48.727772,59.2],[2.545429,48.727817,59.2],[2.545398,48.727848,59.2],[2.545382,48.727894,59.3],[2.545384,48.727958,59.3],[2.54537,48.727991,59.4],[2.545375,48.728033,59.4],[2.54541,48.72806,59.5],[2.545396,48.728055,59.5],[2.545411,48.728058,59.5],[2.545342,48.728035,59.5],[2.54534,48.728007,59.5],[2.545366,48.727925,59.6],[2.545419,48.727911,59.6],[2.545466,48.727929,59.6],[2.545512,48.727992,59.6],[2.545567,48.728108,59.6],[2.545614,48.728181,59.6],[2.545646,48.728259,59.7],[2.54565,48.728254,59.7],[2.545657,48.728277,59.7],[2.545612,48.728607,59.7],[2.545627,48.728655,59.7],[2.545667,48.728722,59.7],[2.545856,48.72892,59.8],[2.545909,48.728992,59.8],[2.545956,48.729028,59.8],[2.54603,48.729067,59.9],[2.546138,48.72914,60],[2.546287,48.729207,60.2],[2.546323,48.729205,60.2],[2.54639,48.729179,60.3],[2.546379,48.729168,60.3],[2.546392,48.729173,60.3],[2.546345,48.729206,60.3],[2.546316,48.729211,60.3],[2.546251,48.729205,60.2],[2.546214,48.729211,60.2],[2.546071,48.729284,60.4],[2.545865,48.729318,60.7],[2.54577,48.729326,60.9],[2.545519,48.729305,61.3],[2.545461,48.729289,61.4],[2.545443,48.729272,61.4],[2.545439,48.729234,61.4],[2.545487,48.729147,61.3],[2.545521,48.729127,61.3],[2.545588,48.729035,61.2],[2.545617,48.728947,61.1],[2.545611,48.728912,61.1],[2.545581,48.728878,61],[2.545559,48.728744,60.8],[2.545575,48.728636,60.6],[2.545577,48.728356,60.3],[2.545558,48.728309,60.3],[2.545497,48.728223,60.3],[2.545435,48.728101,60.1],[2.545379,48.728024,59.9],[2.545372,48.727986,59.7],[2.545389,48.727935,59.6],[2.545418,48.727928,59.5],[2.54542,48.727864,59.3],[2.54543,48.727869,59.3],[2.545439,48.727857,59.2],[2.545526,48.727817,59.2],[2.545555,48.727718,59.1],[2.545573,48.727567,59.1],[2.545541,48.727459,59.2],[2.545454,48.72735,59.2],[2.545441,48.727318,59.2],[2.545476,48.727185,59.3],[2.545496,48.727164,59.3],[2.545497,48.727026,59.3],[2.545476,48.726965,59.3],[2.545441,48.726912,59.3],[2.545403,48.726884,59.3],[2.545358,48.726833,59.3],[2.545341,48.726792,59.3],[2.545297,48.726752,59.2],[2.545234,48.726716,59.2],[2.545164,48.726633,59.1],[2.545178,48.72663,59.1],[2.545177,48.726623,59.1],[2.54518,48.72664,59],[2.545054,48.726599,59],[2.544968,48.726562,59],[2.544927,48.726531,59],[2.544846,48.726515,58.9],[2.544834,48.726492,58.9],[2.544779,48.726445,58.9],[2.544738,48.726427,58.9],[2.544557,48.726296,58.9],[2.544507,48.726269,58.9],[2.544374,48.726125,59.1],[2.544253,48.726053,59.2],[2.544112,48.725934,59.4],[2.544064,48.725873,59.5],[2.544068,48.725881,59.5],[2.544078,48.725824,59.5],[2.544052,48.725776,59.5],[2.543976,48.725735,59.5],[2.5439,48.725668,59.5],[2.543823,48.725582,59.5],[2.543798,48.725514,59.5],[2.543432,48.725106,59.4],[2.543424,48.725087,59.4],[2.543329,48.725049,59.4],[2.543299,48.725014,59.5],[2.5433,48.725001,59.5],[2.54326,48.724967,59.5],[2.54326,48.724976,59.5],[2.54324,48.724861,59.6],[2.543253,48.724822,59.6],[2.543269,48.724808,59.6],[2.543413,48.724756,59.5],[2.54351,48.724732,59.4],[2.543607,48.724679,59.2],[2.543692,48.724597,58.9],[2.54374,48.724524,58.7],[2.54385,48.724441,58.5],[2.5439,48.724377,58.5],[2.543961,48.724272,58.5],[2.543986,48.724203,58.5],[2.543985,48.724131,58.5],[2.544001,48.724059,58.5],[2.544074,48.723962,58.5],[2.544111,48.723931,58.4],[2.544232,48.72379,58.3],[2.544276,48.723708,58.2],[2.544295,48.723627,58.2],[2.544341,48.723557,58.1],[2.544495,48.723405,58],[2.544556,48.723333,57.9],[2.544603,48.723168,57.8],[2.544604,48.723125,57.8],[2.544576,48.723041,57.9],[2.544528,48.722965,57.9],[2.544381,48.722841,58.1],[2.544124,48.722682,58.3],[2.543924,48.722618,58.4],[2.543659,48.722551,58.3],[2.543517,48.722485,58.3],[2.543439,48.722435,58.2],[2.543411,48.722403,58.2],[2.543374,48.722333,58.2],[2.543364,48.722218,58.1],[2.543314,48.722096,58.2],[2.543148,48.721892,58.5],[2.543066,48.72165,58.6],[2.543039,48.721523,58.5],[2.543033,48.721392,58.6],[2.542988,48.72122,58.6],[2.542918,48.721061,58.7],[2.542833,48.720902,58.8],[2.542827,48.720814,58.9],[2.542865,48.720723,59.1],[2.542919,48.720656,59.2],[2.542971,48.720559,59.4],[2.54302,48.720523,59.4],[2.543056,48.720528,59.4],[2.543109,48.720498,59.4],[2.543357,48.720441,59.3],[2.543392,48.72042,59.3],[2.543395,48.720383,59.2],[2.543368,48.72035,59.2],[2.543332,48.720329,59.1],[2.54329,48.720317,59.1],[2.543243,48.720321,59.1],[2.54309,48.720384,59.1],[2.543049,48.720392,59.2],[2.542992,48.720386,59.2],[2.543001,48.720385,59.2],[2.542984,48.720378,59.2],[2.542994,48.72037,59.2],[2.543007,48.720394,59.2],[2.543055,48.720388,59.2],[2.543277,48.720312,59.1],[2.543292,48.720294,59.1],[2.54328,48.720253,59],[2.543259,48.720251,58.9],[2.543225,48.72022,58.8],[2.543215,48.720197,58.8],[2.543218,48.720161,58.7],[2.543188,48.720119,58.6],[2.54314,48.720088,58.5],[2.543107,48.72005,58.4],[2.542967,48.719956,58.3],[2.542915,48.719873,58.2],[2.542911,48.719826,58.1],[2.54286,48.719742,58.1],[2.542732,48.719595,58],[2.542594,48.719527,57.9],[2.54251,48.719534,57.8],[2.542462,48.719521,57.7],[2.542379,48.719467,57.5],[2.542235,48.719407,57.3],[2.542096,48.719336,57],[2.541786,48.719215,56.6],[2.541744,48.71919,56.6],[2.541591,48.719137,56.4],[2.54142,48.71905,56.3],[2.541268,48.719009,56.3],[2.541216,48.719006,56.3],[2.541045,48.718975,56.4],[2.540964,48.718935,56.4],[2.540947,48.718906,56.4],[2.54097,48.718896,56.4],[2.540968,48.718902,56.4],[2.541066,48.718915,56.4],[2.541089,48.718911,56.4],[2.541165,48.718837,56.3],[2.541179,48.718792,56.3],[2.541176,48.718754,56.3],[2.541116,48.718683,56.2],[2.541105,48.718584,56.2],[2.541112,48.718591,56.2],[2.541121,48.718501,56.2],[2.541092,48.71843,56.2],[2.54101,48.718305,56.2],[2.540951,48.718243,56.2],[2.540833,48.718153,56.3],[2.540684,48.71807,56.4],[2.540457,48.717984,56.5],[2.540279,48.717944,56.5],[2.540168,48.717942,56.5],[2.539861,48.71798,56.4],[2.539807,48.718005,56.4],[2.539732,48.718019,56.3],[2.53968,48.718052,56.3],[2.539631,48.718112,56.2],[2.539584,48.718118,56.2],[2.539548,48.718101,56.1],[2.539485,48.718027,56],[2.539356,48.717926,55.9],[2.538845,48.71756,55.4],[2.538779,48.717534,55.3],[2.538645,48.717455,55.1],[2.538446,48.717289,55.1],[2.53816,48.71712,55.2],[2.538056,48.717043,55.2],[2.537992,48.717012,55.3],[2.537839,48.716985,55.4],[2.537367,48.716816,57],[2.537301,48.7168,57.2],[2.537231,48.716801,57.5],[2.537133,48.71683,57.8],[2.537076,48.716838,57.9],[2.53703,48.716822,58],[2.537011,48.716795,58],[2.53695,48.716759,58],[2.536912,48.71675,58],[2.536841,48.71679,57.8],[2.536789,48.716784,57.7],[2.536733,48.716767,57.6],[2.536652,48.716712,57.3],[2.536571,48.716673,57.2],[2.536479,48.716642,56.7],[2.536343,48.716635,56.1],[2.53617,48.716662,55.4],[2.535986,48.716706,54.9],[2.535593,48.716737,54.5],[2.535209,48.716703,54.4],[2.534937,48.716668,54.4],[2.534524,48.716538,54.3],[2.534307,48.716422,54.3],[2.534158,48.716356,54.3],[2.533911,48.716282,54.2],[2.533751,48.716218,54.2],[2.533401,48.716025,54.2],[2.533166,48.715923,54.2],[2.532476,48.715653,54],[2.531828,48.715444,53.7],[2.53166,48.7154,53.7],[2.531489,48.715372,53.7],[2.531412,48.71535,53.7],[2.531261,48.715288,53.7],[2.530985,48.715127,53.8],[2.530773,48.714951,53.8],[2.530443,48.714773,53.6],[2.52999,48.714583,53.2],[2.529561,48.714385,53.2],[2.529137,48.714218,53.1],[2.528935,48.714127,53],[2.528252,48.713962,53.7],[2.528001,48.713921,54.2],[2.527937,48.71392,54.3],[2.527748,48.713938,54.5],[2.52754,48.713947,54.7],[2.527455,48.713936,54.7],[2.527377,48.713899,54.8],[2.52734,48.713918,54.8],[2.527254,48.713941,54.8],[2.527176,48.71394,54.8],[2.527149,48.713967,54.8],[2.527138,48.714154,54.6],[2.527123,48.714209,54.6],[2.527103,48.714236,54.4],[2.527033,48.714256,54.1],[2.52699,48.714255,53.9],[2.526902,48.714218,53.5],[2.526769,48.714193,53],[2.526511,48.714196,52.4],[2.526353,48.714181,52.3],[2.526216,48.714128,52.2],[2.526064,48.714021,52],[2.526021,48.713977,51.9],[2.525965,48.713881,51.8],[2.525748,48.713723,51.7],[2.525661,48.713706,51.6],[2.52563,48.713689,51.6],[2.525577,48.713609,51.6],[2.525532,48.713586,51.6],[2.525442,48.713564,51.6],[2.525293,48.713488,51.5],[2.525013,48.71339,51.4],[2.524892,48.713363,51.3],[2.524496,48.713315,51.2],[2.52437,48.713314,51.2],[2.524178,48.713335,51.1],[2.524064,48.71336,51],[2.52396,48.713399,51],[2.523916,48.713402,51],[2.523942,48.713392,51],[2.523961,48.713397,51],[2.523949,48.713397,51],[2.523874,48.713447,50.9],[2.523546,48.713597,50.8],[2.523391,48.713655,50.7],[2.523351,48.713661,50.7],[2.523326,48.713677,50.7],[2.523154,48.71373,50.7],[2.522851,48.713845,50.6],[2.522752,48.713865,50.6],[2.522676,48.713899,50.5],[2.52266,48.713926,50.5],[2.522524,48.713954,50.4],[2.522441,48.713989,50.4],[2.522338,48.714015,50.3],[2.522173,48.71411,50.3],[2.521933,48.714182,50.4],[2.521726,48.714267,50.5],[2.521645,48.71429,50.5],[2.521361,48.714338,50.6],[2.521324,48.714339,50.6],[2.521303,48.714325,50.5],[2.5212,48.714313,50.5],[2.52113,48.714276,50.5],[2.521058,48.714277,50.5],[2.521056,48.714268,50.5],[2.52094,48.714235,50.5],[2.52088,48.7142,50.5],[2.520754,48.714157,50.6],[2.520597,48.714124,50.7],[2.520549,48.714106,50.7],[2.520518,48.714062,50.7],[2.52053,48.714069,50.8],[2.520507,48.714056,50.8],[2.520444,48.71404,50.8],[2.520398,48.714007,50.8],[2.520413,48.713999,50.8],[2.520359,48.713982,50.8],[2.520309,48.713948,50.8],[2.520319,48.71392,50.8],[2.5204,48.713828,50.8],[2.520441,48.713747,50.7],[2.520453,48.713575,50.7],[2.520502,48.713514,50.7],[2.52051,48.713467,50.7],[2.520536,48.713446,50.7],[2.520521,48.713421,50.7],[2.520549,48.713408,50.7],[2.520555,48.713417,50.7],[2.520539,48.713432,50.7],[2.520525,48.713429,50.7],[2.520465,48.71347,50.7],[2.52043,48.71352,50.7],[2.52037,48.713575,50.7],[2.520357,48.713601,50.7],[2.520372,48.713674,50.7],[2.520342,48.713846,50.8],[2.520307,48.713934,50.8],[2.520318,48.713955,50.8],[2.520344,48.713974,50.8],[2.520357,48.71403,51],[2.520335,48.714061,51.4],[2.520253,48.714063,52.1],[2.520196,48.714081,53.1],[2.520178,48.714079,53.4],[2.52018,48.714068,53.6],[2.520157,48.714087,54.2],[2.519782,48.714168,60.3],[2.519604,48.714184,62],[2.519571,48.714195,62.4],[2.519492,48.714193,62.5],[2.519482,48.714198,62.5],[2.519498,48.714197,62.5],[2.519484,48.714202,62.5],[2.519488,48.714222,62.5],[2.519503,48.714216,62.5],[2.519466,48.714212,62.5],[2.519454,48.714225,62.5],[2.519467,48.714232,62.5],[2.519437,48.714211,62.4],[2.519394,48.714113,61.9],[2.519396,48.71412,61.9],[2.519357,48.714019,61.4],[2.519288,48.713945,61],[2.519196,48.713901,60.7],[2.519014,48.713849,59.1],[2.51877,48.713795,56],[2.518662,48.713755,54.3],[2.518489,48.713706,52.3],[2.51827,48.713604,50.7],[2.518205,48.713583,50.5],[2.518161,48.713583,50.4],[2.517876,48.713629,49.9],[2.5177,48.713643,49.9],[2.51763,48.713631,49.9],[2.517594,48.713611,49.9],[2.517468,48.713588,49.9],[2.517009,48.713443,49.5],[2.516576,48.713245,49],[2.516348,48.713166,49],[2.516068,48.71305,49],[2.515604,48.712915,49.1],[2.51552,48.712899,49.2],[2.515375,48.712892,49.3],[2.51524,48.71285,49.3],[2.514653,48.712755,49.3],[2.514497,48.712719,49.2],[2.514434,48.712694,49.2],[2.514286,48.712575,48.9],[2.514226,48.712541,48.7],[2.514143,48.712516,48.6],[2.513806,48.712456,48.2],[2.513474,48.71244,48],[2.51339,48.71245,48],[2.513186,48.712535,48],[2.513041,48.712586,48.3],[2.512802,48.712713,48.6],[2.512687,48.712737,48.4],[2.512526,48.71274,47.9],[2.512337,48.71276,47.4],[2.51198,48.712759,47.1],[2.511727,48.712747,46.9],[2.511634,48.712724,46.8],[2.511469,48.712702,46.7],[2.511384,48.712678,46.7],[2.511054,48.712642,46.7],[2.510928,48.712605,46.7],[2.510596,48.712558,46.5],[2.509849,48.712495,46.2],[2.509611,48.712485,46],[2.50929,48.712439,45.8],[2.509068,48.712438,45.6],[2.508812,48.712424,45.4],[2.508641,48.712404,45.3],[2.508288,48.712341,45.2],[2.507901,48.712245,45.5],[2.507792,48.712185,45.5],[2.507678,48.712136,45.5],[2.50757,48.712072,45.4],[2.507465,48.711975,45.1],[2.50734,48.711889,44.6],[2.50729,48.711845,44.4],[2.507101,48.711735,43.8],[2.507035,48.711723,43.8],[2.506979,48.711728,43.7],[2.506818,48.711679,43.7],[2.506669,48.71167,43.5],[2.506518,48.711628,43.3],[2.506456,48.71162,43.2],[2.506386,48.711628,43.2],[2.506264,48.711626,43.1],[2.506133,48.711595,43.1],[2.505983,48.711573,43],[2.505856,48.711573,43],[2.505809,48.711539,42.9],[2.505788,48.711507,42.9],[2.505714,48.711454,42.8],[2.505666,48.711435,42.8],[2.505589,48.711384,42.7],[2.505549,48.711346,42.7],[2.505481,48.711302,42.6],[2.505387,48.711266,42.6],[2.505328,48.7112,42.5],[2.505227,48.711149,42.5],[2.5051,48.711042,42.4],[2.505046,48.711023,42.4],[2.504937,48.711,42.4],[2.504688,48.710865,42.4],[2.504575,48.710838,42.4],[2.50451,48.71081,42.4],[2.504487,48.710789,42.4],[2.504454,48.710778,42.4],[2.504379,48.710783,42.5],[2.50433,48.710741,42.4],[2.504258,48.710717,42.4],[2.504223,48.710721,42.4],[2.504167,48.71076,42.4],[2.504069,48.710756,42.3],[2.503996,48.710718,42.3],[2.503861,48.710718,42.3],[2.503764,48.710649,42.2],[2.503718,48.710629,42.2],[2.503597,48.710621,42.2],[2.503481,48.710632,42.2],[2.503283,48.710614,42.2],[2.503148,48.710571,42.1],[2.503117,48.710538,42.1],[2.503117,48.710462,42.1],[2.503142,48.710397,42.1],[2.50315,48.710307,42.1],[2.503127,48.710273,42.1],[2.502823,48.710098,42],[2.502771,48.710077,41.9],[2.502771,48.71007,41.9],[2.502722,48.710062,41.8],[2.502732,48.710063,41.8],[2.502707,48.710064,41.8],[2.502637,48.710048,41.7],[2.502592,48.710023,41.7],[2.502586,48.709996,41.7],[2.502572,48.709987,41.6],[2.502524,48.709981,41.6],[2.50252,48.709953,41.6],[2.502535,48.70995,41.5],[2.502517,48.709962,41.5],[2.502526,48.70996,41.5],[2.502517,48.709953,41.5],[2.502403,48.709991,41.4],[2.502398,48.710005,41.4],[2.502458,48.709992,41.4],[2.502522,48.709963,41.4],[2.502523,48.709973,41.4],[2.502542,48.709971,41.4],[2.502532,48.709974,41.4],[2.502536,48.70997,41.4],[2.502427,48.709982,41.4],[2.502382,48.709969,41.5],[2.502331,48.709933,41.5],[2.50208,48.709815,41.7],[2.50205,48.709771,41.9],[2.502051,48.709754,42],[2.501992,48.709765,42.3],[2.501935,48.709755,42.6],[2.501951,48.709746,42.7],[2.501861,48.709749,43.1],[2.501808,48.709762,43.4],[2.501768,48.709743,43.6],[2.501797,48.709721,43.3],[2.501828,48.70972,43.1],[2.501925,48.709758,42.4],[2.502004,48.709774,41.8],[2.502052,48.709766,41.7],[2.502132,48.709733,41.7],[2.50215,48.709712,41.7],[2.502315,48.709632,41.8],[2.502464,48.709543,41.9],[2.502546,48.709541,42],[2.502587,48.70958,42.1],[2.502635,48.709606,42.2],[2.502693,48.70962,42.3],[2.502743,48.709652,42.4],[2.50286,48.709669,42.8],[2.5029,48.709684,42.9],[2.502965,48.709689,43.1],[2.50308,48.709675,43.6],[2.503349,48.709613,45],[2.50367,48.709499,47],[2.503921,48.709393,48.7],[2.503982,48.709329,49.1],[2.504072,48.709207,50],[2.504413,48.708839,52.9],[2.504537,48.70868,54.1],[2.504651,48.708561,55.1],[2.504818,48.70836,56.7],[2.50481,48.708228,56.9],[2.504404,48.707827,57.1],[2.503717,48.707122,57.9],[2.50368,48.707108,57.7],[2.503624,48.707108,57.3],[2.503411,48.70714,56.1],[2.503024,48.707171,54],[2.502545,48.707224,51.2],[2.500734,48.707378,41.6],[2.500619,48.707382,41.5],[2.500401,48.707354,41.4],[2.500188,48.707317,41.3],[2.500079,48.707312,41.2],[2.499773,48.707347,41.1],[2.499485,48.707357,41],[2.499132,48.707356,41.2],[2.498813,48.707377,41.3],[2.498594,48.707439,41.1],[2.49847,48.707491,40.9],[2.498397,48.707505,40.6],[2.49831,48.707501,40.1],[2.498232,48.707474,40.1],[2.498173,48.707429,40.2],[2.498083,48.707326,40.5],[2.498,48.707299,40.6],[2.497915,48.707282,40.5],[2.497782,48.707223,40.5],[2.497628,48.707172,40.5],[2.497004,48.707083,40.5],[2.496488,48.707023,40.7],[2.496402,48.70703,40.7],[2.496167,48.707081,40.7],[2.496103,48.707115,40.8],[2.495995,48.707195,40.8],[2.495964,48.707291,40.9],[2.495938,48.707331,40.9],[2.495892,48.707358,41],[2.495833,48.707365,41],[2.495796,48.707395,41],[2.4957,48.707518,41.1],[2.495581,48.707627,41.1],[2.495362,48.707893,41.1],[2.495378,48.707929,41.1],[2.495357,48.707997,41],[2.495318,48.708028,41],[2.495231,48.708061,40.9],[2.494918,48.708394,40.5],[2.494883,48.708491,40.4],[2.494857,48.708529,40.4],[2.494772,48.708611,40.2],[2.494668,48.708673,40.1],[2.494631,48.708723,40.1],[2.494574,48.708777,40],[2.494538,48.708826,40],[2.494311,48.709066,40.1],[2.494157,48.709196,40.3],[2.494032,48.709277,40.4],[2.4939,48.709334,40.5],[2.493545,48.709452,41.1],[2.493307,48.709484,41.6],[2.493017,48.7095,42.3],[2.4925,48.709508,44.1],[2.492184,48.709553,45.1],[2.492124,48.709572,45.3],[2.491996,48.709579,45.6],[2.491891,48.709604,46],[2.491436,48.709749,47.4],[2.490971,48.709954,48.2],[2.490528,48.710218,48.9],[2.490354,48.710298,49],[2.489495,48.710615,49.6],[2.489056,48.710814,49.5],[2.488925,48.710849,49.5],[2.48867,48.710955,49.3],[2.488599,48.71097,49.2],[2.488519,48.710968,49.2],[2.48837,48.710937,49.1],[2.488212,48.71092,49.2],[2.488138,48.710924,49.2],[2.487361,48.711031,49],[2.487226,48.711037,48.9],[2.487164,48.711025,48.9],[2.487095,48.711022,48.8],[2.486365,48.711126,48.3],[2.486278,48.711129,48.3],[2.486197,48.71112,48.2],[2.486071,48.711087,48.1],[2.486002,48.711061,48],[2.485951,48.711026,48],[2.485831,48.710966,47.9],[2.485554,48.710789,47.5],[2.485398,48.710664,47.2],[2.485232,48.71046,46.4],[2.484492,48.709688,42.9],[2.484028,48.709277,41],[2.483823,48.70911,40.6],[2.483161,48.708642,39.6],[2.482436,48.708213,38.8],[2.482322,48.708113,38.8],[2.482249,48.708064,38.7],[2.482087,48.707975,38.7],[2.481852,48.707828,38.6],[2.481287,48.70751,38.5],[2.481199,48.70747,38.5],[2.480907,48.707383,38.5],[2.479612,48.707126,38],[2.478925,48.707001,37.8],[2.478803,48.706989,37.8],[2.478557,48.706988,37.7],[2.477701,48.706958,37.5],[2.477229,48.70696,37.3],[2.476176,48.707009,36.9],[2.475101,48.70704,37],[2.475029,48.707048,37],[2.474472,48.707177,36.6],[2.474381,48.707192,36.5],[2.474189,48.707207,36.4],[2.47377,48.707194,36.2],[2.473026,48.707195,36.2],[2.47282,48.707228,36.2],[2.472382,48.707271,36.3],[2.472286,48.707289,36.3],[2.471792,48.707343,36.5],[2.471588,48.707374,36.5],[2.471287,48.707404,36.6],[2.471088,48.707436,36.7],[2.470294,48.707523,37],[2.470002,48.707565,37.1],[2.468517,48.707736,37.2],[2.467795,48.707799,36.8],[2.467396,48.707883,36.6],[2.466583,48.708032,36.3],[2.465305,48.708237,36.2],[2.465034,48.708306,36.2],[2.4644,48.708555,36.3],[2.46398,48.708699,36.6],[2.463919,48.708709,36.6],[2.463863,48.70869,36.7],[2.463826,48.708646,36.8],[2.463714,48.708439,37.3],[2.463183,48.707735,41.1],[2.463119,48.707685,41.7],[2.462966,48.707507,43.1],[2.462939,48.707453,43.6],[2.462903,48.707412,44],[2.462866,48.707396,44.3],[2.462746,48.707274,45.7],[2.462741,48.707244,46],[2.46268,48.707162,46.8],[2.462273,48.706693,51.8],[2.462236,48.706681,52.2],[2.462194,48.706686,52.3],[2.461855,48.706844,53.2],[2.461759,48.706879,53.4],[2.461593,48.706966,54],[2.461338,48.707066,54.9],[2.461234,48.707085,55.3],[2.461168,48.707082,55.6],[2.461099,48.707036,56.2],[2.461049,48.706957,56.9],[2.460816,48.706701,59.4],[2.460774,48.706686,59.7],[2.460744,48.706611,60.3],[2.460688,48.706538,61],[2.460591,48.706463,61.8],[2.460545,48.706374,62.5],[2.460361,48.706163,64.5],[2.460308,48.706122,65],[2.4602,48.705971,66.3],[2.460162,48.705942,66.6],[2.459717,48.705436,70.9],[2.45971,48.705417,71],[2.459466,48.705155,73.4],[2.459406,48.705103,74],[2.459371,48.705043,74.4],[2.459311,48.704989,74.9],[2.459261,48.704959,75.2],[2.459231,48.704955,75.3],[2.459159,48.704971,75.4],[2.458984,48.705076,75.5],[2.458567,48.705302,75.8],[2.458444,48.705346,75.8],[2.45839,48.705348,75.9],[2.458303,48.705308,76],[2.458175,48.705175,76.2],[2.4579,48.704958,77],[2.457853,48.704903,77.1],[2.457792,48.70478,77.4],[2.457695,48.704663,77.6],[2.457575,48.70455,77.8],[2.457368,48.704389,78.2],[2.45695,48.704001,79.2],[2.456913,48.703989,79.2],[2.456869,48.703987,79.3],[2.456816,48.704005,79.3],[2.456417,48.704232,79.5],[2.45637,48.704232,79.6],[2.456324,48.704214,79.6],[2.456289,48.704187,79.7],[2.456215,48.704103,79.9],[2.456064,48.703975,80.2],[2.455906,48.703818,80.6],[2.455698,48.703644,81],[2.455556,48.703507,81.3],[2.455519,48.703485,81.3],[2.45552,48.703474,81.3],[2.455489,48.703464,81.3],[2.45542,48.703461,81.3],[2.455355,48.703426,81.4],[2.455322,48.703419,81.4],[2.455223,48.703369,81.5],[2.455139,48.703355,81.6],[2.455114,48.703344,81.6],[2.455057,48.703337,81.6],[2.455047,48.703322,81.6],[2.454959,48.703287,81.7],[2.454906,48.703279,81.7],[2.454819,48.703241,81.8],[2.454701,48.703204,81.8],[2.454609,48.703157,81.9],[2.454539,48.703137,82],[2.454256,48.703013,82.3],[2.453915,48.702914,82.5],[2.453878,48.702885,82.6]]}}]}