<?xml version="1.0" encoding="UTF-8"?>
<gpx version="1.1" creator="GPSBabel - https://www.gpsbabel.org" xmlns="http://www.topografix.com/GPX/1/1" xmlns:xsi="http://www.w3.org/2001/XMLSchema-instance" xmlns:gpxtpx="http://www.garmin.com/xmlschemas/TrackPointExtension/v1" xmlns:gpxx="http://www.garmin.com/xmlschemas/GpxExtensions/v3" xmlns:gpxpx="http://www.garmin.com/xmlschemas/PowerExtension/v1" xmlns:gpx_style="http://www.topografix.com/GPX/gpx_style/0/2">
  <metadata>
    <name>gps4cam trip started at 2018-08-13 08-14 decoded at 2018-08-15 09-35-05</name>
    <link href="http://gps4cam.com">
      <text>gps4cam</text>
    </link>
    <time>2025-09-11T12:33:13.761Z</time>
    <bounds minlat="41.686874612" minlon="44.803908098" maxlat="41.694828211" maxlon="44.811219317"/>
  </metadata>
  <trk>
    <name>gps4cam trip started at: 2018-08-13T06:14:15Z</name>
    <trkseg>
      <trkpt lat="41.694748352" lon="44.803908098">
        <time>2018-08-13T06:14:15Z</time>
      </trkpt>
      <trkpt lat="41.694828211" lon="44.804014298">
        <time>2018-08-13T06:19:15Z</time>
      </trkpt>
      <trkpt lat="41.694767992" lon="44.804109696">
        <time>2018-08-13T06:24:15Z</time>
      </trkpt>
      <trkpt lat="41.694787293" lon="44.804098438">
        <time>2018-08-13T06:29:16Z</time>
      </trkpt>
      <trkpt lat="41.693252794" lon="44.804943021">
        <time>2018-08-13T06:34:14Z</time>
      </trkpt>
      <trkpt lat="41.690575737" lon="44.807112662">
        <time>2018-08-13T06:39:14Z</time>
      </trkpt>
      <trkpt lat="41.689490975" lon="44.809899423">
        <time>2018-08-13T06:44:14Z</time>
      </trkpt>
      <trkpt lat="41.688330882" lon="44.810837991">
        <time>2018-08-13T06:49:14Z</time>
      </trkpt>
      <trkpt lat="41.687661827" lon="44.810744619">
        <time>2018-08-13T06:54:15Z</time>
      </trkpt>
      <trkpt lat="41.686956576" lon="44.810668152">
        <time>2018-08-13T06:59:14Z</time>
      </trkpt>
      <trkpt lat="41.686874612" lon="44.809195366">
        <time>2018-08-13T07:04:14Z</time>
      </trkpt>
      <trkpt lat="41.687035963" lon="44.810471904">
        <time>2018-08-13T07:09:14Z</time>
      </trkpt>
      <trkpt lat="41.687019636" lon="44.810847204">
        <time>2018-08-13T07:14:15Z</time>
      </trkpt>
      <trkpt lat="41.687048562" lon="44.810813520">
        <time>2018-08-13T07:19:17Z</time>
      </trkpt>
      <trkpt lat="41.687169424" lon="44.810891598">
        <time>2018-08-13T07:24:15Z</time>
      </trkpt>
      <trkpt lat="41.687038903" lon="44.810813546">
        <time>2018-08-13T07:29:15Z</time>
      </trkpt>
      <trkpt lat="41.687053495" lon="44.810880716">
        <time>2018-08-13T07:34:14Z</time>
      </trkpt>
      <trkpt lat="41.687017212" lon="44.810841610">
        <time>2018-08-13T07:39:14Z</time>
      </trkpt>
      <trkpt lat="41.686985931" lon="44.810914507">
        <time>2018-08-13T07:44:15Z</time>
      </trkpt>
      <trkpt lat="41.687200722" lon="44.810829903">
        <time>2018-08-13T07:49:15Z</time>
      </trkpt>
      <trkpt lat="41.686995608" lon="44.810925682">
        <time>2018-08-13T07:54:15Z</time>
      </trkpt>
      <trkpt lat="41.687031701" lon="44.810841570">
        <time>2018-08-13T07:59:14Z</time>
      </trkpt>
      <trkpt lat="41.687393444" lon="44.810526926">
        <time>2018-08-13T08:04:14Z</time>
      </trkpt>
      <trkpt lat="41.688796159" lon="44.810327021">
        <time>2018-08-13T08:09:14Z</time>
      </trkpt>
      <trkpt lat="41.689605481" lon="44.808991737">
        <time>2018-08-13T08:14:14Z</time>
      </trkpt>
      <trkpt lat="41.691013404" lon="44.810600956">
        <time>2018-08-13T08:19:14Z</time>
      </trkpt>
      <trkpt lat="41.692238678" lon="44.811219317">
        <time>2018-08-13T08:24:14Z</time>
      </trkpt>
      <trkpt lat="41.692286735" lon="44.811062349">
        <time>2018-08-13T08:29:14Z</time>
      </trkpt>
      <trkpt lat="41.692322828" lon="44.810978230">
        <time>2018-08-13T08:34:15Z</time>
      </trkpt>
      <trkpt lat="41.692119758" lon="44.810833157">
        <time>2018-08-13T08:39:15Z</time>
      </trkpt>
      <trkpt lat="41.692141569" lon="44.810883508">
        <time>2018-08-13T08:44:15Z</time>
      </trkpt>
      <trkpt lat="41.692170461" lon="44.810827416">
        <time>2018-08-13T08:49:15Z</time>
      </trkpt>
      <trkpt lat="41.691358492" lon="44.810448772">
        <time>2018-08-13T08:54:14Z</time>
      </trkpt>
      <trkpt lat="41.688042351" lon="44.806979764">
        <time>2018-08-13T08:59:14Z</time>
      </trkpt>
      <trkpt lat="41.687963617" lon="44.807590483">
        <time>2018-08-13T09:04:14Z</time>
      </trkpt>
      <trkpt lat="41.688052122" lon="44.808598399">
        <time>2018-08-13T09:09:14Z</time>
      </trkpt>
      <trkpt lat="41.688205100" lon="44.809141261">
        <time>2018-08-13T09:14:15Z</time>
      </trkpt>
      <trkpt lat="41.688209530" lon="44.808883607">
        <time>2018-08-13T09:19:14Z</time>
      </trkpt>
      <trkpt lat="41.687782026" lon="44.808834389">
        <time>2018-08-13T09:24:14Z</time>
      </trkpt>
      <trkpt lat="41.687851159" lon="44.808257305">
        <time>2018-08-13T09:29:15Z</time>
      </trkpt>
      <trkpt lat="41.687913456" lon="44.807943480">
        <time>2018-08-13T09:34:14Z</time>
      </trkpt>
      <trkpt lat="41.688008899" lon="44.808755344">
        <time>2018-08-13T09:39:14Z</time>
      </trkpt>
      <trkpt lat="41.688333689" lon="44.807975910">
        <time>2018-08-13T09:44:15Z</time>
      </trkpt>
      <trkpt lat="41.688105574" lon="44.807259631">
        <time>2018-08-13T09:49:14Z</time>
      </trkpt>
      <trkpt lat="41.688038818" lon="44.806268458">
        <time>2018-08-13T09:54:14Z</time>
      </trkpt>
      <trkpt lat="41.688058686" lon="44.805086610">
        <time>2018-08-13T09:59:14Z</time>
      </trkpt>
      <trkpt lat="41.687977130" lon="44.805434098">
        <time>2018-08-13T10:04:14Z</time>
      </trkpt>
      <trkpt lat="41.688066093" lon="44.806722055">
        <time>2018-08-13T10:09:14Z</time>
      </trkpt>
      <trkpt lat="41.688034709" lon="44.806727744">
        <time>2018-08-13T10:14:14Z</time>
      </trkpt>
      <trkpt lat="41.688300692" lon="44.806951033">
        <time>2018-08-13T10:19:14Z</time>
      </trkpt>
      <trkpt lat="41.688257207" lon="44.806939953">
        <time>2018-08-13T10:24:15Z</time>
      </trkpt>
      <trkpt lat="41.688278897" lon="44.806911887">
        <time>2018-08-13T10:29:15Z</time>
      </trkpt>
      <trkpt lat="41.688307927" lon="44.806945411">
        <time>2018-08-13T10:34:15Z</time>
      </trkpt>
      <trkpt lat="41.688300657" lon="44.806928629">
        <time>2018-08-13T10:39:15Z</time>
      </trkpt>
      <trkpt lat="41.688262019" lon="44.806928738">
        <time>2018-08-13T10:44:15Z</time>
      </trkpt>
      <trkpt lat="41.688353818" lon="44.806950883">
        <time>2018-08-13T10:54:14Z</time>
      </trkpt>
      <trkpt lat="41.688104325" lon="44.806464305">
        <time>2018-08-13T10:59:14Z</time>
      </trkpt>
      <trkpt lat="41.688629728" lon="44.804284051">
        <time>2018-08-13T11:04:14Z</time>
      </trkpt>
      <trkpt lat="41.689086709" lon="44.804646814">
        <time>2018-08-13T11:09:14Z</time>
      </trkpt>
      <trkpt lat="41.689012356" lon="44.804966282">
        <time>2018-08-13T11:14:14Z</time>
      </trkpt>
      <trkpt lat="41.689353387" lon="44.805306975">
        <time>2018-08-13T11:19:14Z</time>
      </trkpt>
      <trkpt lat="41.689976874" lon="44.805596463">
        <time>2018-08-13T11:24:14Z</time>
      </trkpt>
      <trkpt lat="41.689836690" lon="44.805518445">
        <time>2018-08-13T11:29:14Z</time>
      </trkpt>
      <trkpt lat="41.690189078" lon="44.805405425">
        <time>2018-08-13T11:34:14Z</time>
      </trkpt>
      <trkpt lat="41.690927024" lon="44.804776004">
        <time>2018-08-13T11:39:14Z</time>
      </trkpt>
      <trkpt lat="41.691197467" lon="44.806293155">
        <time>2018-08-13T11:44:14Z</time>
      </trkpt>
      <trkpt lat="41.692180840" lon="44.806632058">
        <time>2018-08-13T11:49:14Z</time>
      </trkpt>
      <trkpt lat="41.692280015" lon="44.806738203">
        <time>2018-08-13T11:54:14Z</time>
      </trkpt>
      <trkpt lat="41.692183264" lon="44.806637652">
        <time>2018-08-13T11:59:14Z</time>
      </trkpt>
      <trkpt lat="41.692306569" lon="44.806732527">
        <time>2018-08-13T12:04:15Z</time>
      </trkpt>
      <trkpt lat="41.692209924" lon="44.806699191">
        <time>2018-08-13T12:09:14Z</time>
      </trkpt>
      <trkpt lat="41.692151915" lon="44.806665747">
        <time>2018-08-13T12:14:15Z</time>
      </trkpt>
      <trkpt lat="41.692250914" lon="44.806659867">
        <time>2018-08-13T12:19:15Z</time>
      </trkpt>
      <trkpt lat="41.692161574" lon="44.806665720">
        <time>2018-08-13T12:24:15Z</time>
      </trkpt>
      <trkpt lat="41.692318617" lon="44.806715689">
        <time>2018-08-13T12:29:15Z</time>
      </trkpt>
      <trkpt lat="41.692265438" lon="44.806682231">
        <time>2018-08-13T12:34:15Z</time>
      </trkpt>
      <trkpt lat="41.692176081" lon="44.806676882">
        <time>2018-08-13T12:39:18Z</time>
      </trkpt>
      <trkpt lat="41.692350001" lon="44.806710000">
        <time>2018-08-13T12:44:15Z</time>
      </trkpt>
      <trkpt lat="41.692231683" lon="44.806715934">
        <time>2018-08-13T12:49:15Z</time>
      </trkpt>
      <trkpt lat="41.692164121" lon="44.806749732">
        <time>2018-08-13T12:54:15Z</time>
      </trkpt>
      <trkpt lat="41.692270074" lon="44.806558990">
        <time>2018-08-13T12:59:15Z</time>
      </trkpt>
      <trkpt lat="41.692130225" lon="44.806693814">
        <time>2018-08-13T13:04:15Z</time>
      </trkpt>
      <trkpt lat="41.692265280" lon="44.806581409">
        <time>2018-08-13T13:09:14Z</time>
      </trkpt>
      <trkpt lat="41.692156815" lon="44.806710543">
        <time>2018-08-13T13:14:15Z</time>
      </trkpt>
      <trkpt lat="41.692221848" lon="44.806603936">
        <time>2018-08-13T13:19:15Z</time>
      </trkpt>
      <trkpt lat="41.692178399" lon="44.806615261">
        <time>2018-08-13T13:24:14Z</time>
      </trkpt>
      <trkpt lat="41.692251143" lon="44.806805499">
        <time>2018-08-13T13:29:15Z</time>
      </trkpt>
      <trkpt lat="41.692233931" lon="44.806609503">
        <time>2018-08-13T13:34:14Z</time>
      </trkpt>
      <trkpt lat="41.692332666" lon="44.806435585">
        <time>2018-08-13T13:39:33Z</time>
      </trkpt>
      <trkpt lat="41.692187741" lon="44.806413589">
        <time>2018-08-13T13:44:15Z</time>
      </trkpt>
      <trkpt lat="41.692054987" lon="44.806453172">
        <time>2018-08-13T13:49:15Z</time>
      </trkpt>
      <trkpt lat="41.692074323" lon="44.806464320">
        <time>2018-08-13T13:54:14Z</time>
      </trkpt>
      <trkpt lat="41.692038233" lon="44.806548441">
        <time>2018-08-13T13:59:15Z</time>
      </trkpt>
      <trkpt lat="41.692074288" lon="44.806441915">
        <time>2018-08-13T14:04:15Z</time>
      </trkpt>
      <trkpt lat="41.691340637" lon="44.806735246">
        <time>2018-08-13T14:09:14Z</time>
      </trkpt>
      <trkpt lat="41.690260843" lon="44.808048943">
        <time>2018-08-13T14:14:15Z</time>
      </trkpt>
      <trkpt lat="41.691433015" lon="44.807127068">
        <time>2018-08-13T14:19:14Z</time>
      </trkpt>
      <trkpt lat="41.692574782" lon="44.806838194">
        <time>2018-08-13T14:24:14Z</time>
      </trkpt>
      <trkpt lat="41.694019742" lon="44.805865082">
        <time>2018-08-13T14:29:14Z</time>
      </trkpt>
      <trkpt lat="41.694536242" lon="44.804166375">
        <time>2018-08-13T14:34:14Z</time>
      </trkpt>
    </trkseg>
  </trk>
</gpx>
