{"type":"FeatureCollection","features":[{"type":"Feature","properties":{"name":"Un tour autour de Tournus","type":"gravel","time":"2025-07-28T11:52:09Z","coordTimes":["2025-07-28T11:52:09Z","2025-07-28T11:52:11Z","2025-07-28T11:52:15Z","2025-07-28T11:52:29Z","2025-07-28T11:52:33Z","2025-07-28T11:52:38Z","2025-07-28T11:52:41Z","2025-07-28T11:52:43Z","2025-07-28T11:52:47Z","2025-07-28T11:52:50Z","2025-07-28T11:52:57Z","2025-07-28T11:53:01Z","2025-07-28T11:53:28Z","2025-07-28T11:53:29Z","2025-07-28T11:53:30Z","2025-07-28T11:53:41Z","2025-07-28T11:53:47Z","2025-07-28T11:53:50Z","2025-07-28T11:53:58Z","2025-07-28T11:54:01Z","2025-07-28T11:54:02Z","2025-07-28T11:54:04Z","2025-07-28T11:54:06Z","2025-07-28T11:54:11Z","2025-07-28T11:54:12Z","2025-07-28T11:54:14Z","2025-07-28T11:54:17Z","2025-07-28T11:54:20Z","2025-07-28T11:54:37Z","2025-07-28T11:54:41Z","2025-07-28T11:54:43Z","2025-07-28T11:54:46Z","2025-07-28T11:54:49Z","2025-07-28T11:54:52Z","2025-07-28T11:54:55Z","2025-07-28T11:55:14Z","2025-07-28T11:55:19Z","2025-07-28T11:55:21Z","2025-07-28T11:55:26Z","2025-07-28T11:55:29Z","2025-07-28T11:55:33Z","2025-07-28T11:55:34Z","2025-07-28T11:55:35Z","2025-07-28T11:55:37Z","2025-07-28T11:55:38Z","2025-07-28T11:55:40Z","2025-07-28T11:55:53Z","2025-07-28T11:55:55Z","2025-07-28T11:55:57Z","2025-07-28T11:55:59Z","2025-07-28T11:56:02Z","2025-07-28T11:56:07Z","2025-07-28T11:56:11Z","2025-07-28T11:56:13Z","2025-07-28T11:56:17Z","2025-07-28T11:56:20Z","2025-07-28T11:56:38Z","2025-07-28T11:56:44Z","2025-07-28T11:56:46Z","2025-07-28T11:56:47Z","2025-07-28T11:56:49Z","2025-07-28T11:56:50Z","2025-07-28T11:56:52Z","2025-07-28T11:56:55Z","2025-07-28T11:56:58Z","2025-07-28T11:56:59Z","2025-07-28T11:57:10Z","2025-07-28T11:57:12Z","2025-07-28T11:57:20Z","2025-07-28T11:57:24Z","2025-07-28T11:57:26Z","2025-07-28T11:57:39Z","2025-07-28T11:57:40Z","2025-07-28T11:57:44Z","2025-07-28T11:57:45Z","2025-07-28T11:57:48Z","2025-07-28T11:57:49Z","2025-07-28T11:58:12Z","2025-07-28T11:58:15Z","2025-07-28T11:58:59Z","2025-07-28T11:59:07Z","2025-07-28T11:59:12Z","2025-07-28T11:59:16Z","2025-07-28T11:59:17Z","2025-07-28T11:59:22Z","2025-07-28T11:59:30Z","2025-07-28T11:59:32Z","2025-07-28T11:59:33Z","2025-07-28T11:59:35Z","2025-07-28T11:59:37Z","2025-07-28T11:59:38Z","2025-07-28T11:59:39Z","2025-07-28T11:59:41Z","2025-07-28T11:59:43Z","2025-07-28T11:59:46Z","2025-07-28T11:59:48Z","2025-07-28T11:59:56Z","2025-07-28T11:59:58Z","2025-07-28T12:00:02Z","2025-07-28T12:00:04Z","2025-07-28T12:00:12Z","2025-07-28T12:00:16Z","2025-07-28T12:00:18Z","2025-07-28T12:00:33Z","2025-07-28T12:00:39Z","2025-07-28T12:00:52Z","2025-07-28T12:01:30Z","2025-07-28T12:01:36Z","2025-07-28T12:01:55Z","2025-07-28T12:02:17Z","2025-07-28T12:02:41Z","2025-07-28T12:02:43Z","2025-07-28T12:02:48Z","2025-07-28T12:02:52Z","2025-07-28T12:03:05Z","2025-07-28T12:03:07Z","2025-07-28T12:03:14Z","2025-07-28T12:03:18Z","2025-07-28T12:03:24Z","2025-07-28T12:03:27Z","2025-07-28T12:03:30Z","2025-07-28T12:03:35Z","2025-07-28T12:03:37Z","2025-07-28T12:03:45Z","2025-07-28T12:03:51Z","2025-07-28T12:03:54Z","2025-07-28T12:03:55Z","2025-07-28T12:03:59Z","2025-07-28T12:04:01Z","2025-07-28T12:04:03Z","2025-07-28T12:04:04Z","2025-07-28T12:04:07Z","2025-07-28T12:04:09Z","2025-07-28T12:04:12Z","2025-07-28T12:05:25Z","2025-07-28T12:05:29Z","2025-07-28T12:05:35Z","2025-07-28T12:05:41Z","2025-07-28T12:05:44Z","2025-07-28T12:05:48Z","2025-07-28T12:05:57Z","2025-07-28T12:06:07Z","2025-07-28T12:06:13Z","2025-07-28T12:06:18Z","2025-07-28T12:06:19Z","2025-07-28T12:06:25Z","2025-07-28T12:06:28Z","2025-07-28T12:06:30Z","2025-07-28T12:06:35Z","2025-07-28T12:06:44Z","2025-07-28T12:06:51Z","2025-07-28T12:14:45Z","2025-07-28T12:14:54Z","2025-07-28T12:15:00Z","2025-07-28T12:15:05Z","2025-07-28T12:15:06Z","2025-07-28T12:15:08Z","2025-07-28T12:15:13Z","2025-07-28T12:15:58Z","2025-07-28T12:16:02Z","2025-07-28T12:16:05Z","2025-07-28T12:16:06Z","2025-07-28T12:16:08Z","2025-07-28T12:16:11Z","2025-07-28T12:16:13Z","2025-07-28T12:16:15Z","2025-07-28T12:16:16Z","2025-07-28T12:16:20Z","2025-07-28T12:16:25Z","2025-07-28T12:16:27Z","2025-07-28T12:16:28Z","2025-07-28T12:16:39Z","2025-07-28T12:17:00Z","2025-07-28T12:17:04Z","2025-07-28T12:17:07Z","2025-07-28T12:17:19Z","2025-07-28T12:17:20Z","2025-07-28T12:17:26Z","2025-07-28T12:17:31Z","2025-07-28T12:17:32Z","2025-07-28T12:17:34Z","2025-07-28T12:17:35Z","2025-07-28T12:17:38Z","2025-07-28T12:17:41Z","2025-07-28T12:17:44Z","2025-07-28T12:17:48Z","2025-07-28T12:17:50Z","2025-07-28T12:17:52Z","2025-07-28T12:17:57Z","2025-07-28T12:18:02Z","2025-07-28T12:18:04Z","2025-07-28T12:18:20Z","2025-07-28T12:18:22Z","2025-07-28T12:18:23Z","2025-07-28T12:18:25Z","2025-07-28T12:18:26Z","2025-07-28T12:18:28Z","2025-07-28T12:18:29Z","2025-07-28T12:18:30Z","2025-07-28T12:18:32Z","2025-07-28T12:18:33Z","2025-07-28T12:18:40Z","2025-07-28T12:18:41Z","2025-07-28T12:18:45Z","2025-07-28T12:18:51Z","2025-07-28T12:18:56Z","2025-07-28T12:19:01Z","2025-07-28T12:19:04Z","2025-07-28T12:19:12Z","2025-07-28T12:19:24Z","2025-07-28T12:19:28Z","2025-07-28T12:19:35Z","2025-07-28T12:19:42Z","2025-07-28T12:19:45Z","2025-07-28T12:20:08Z","2025-07-28T12:20:12Z","2025-07-28T12:20:44Z","2025-07-28T12:20:50Z","2025-07-28T12:22:56Z","2025-07-28T12:23:02Z","2025-07-28T12:23:27Z","2025-07-28T12:23:41Z","2025-07-28T12:23:48Z","2025-07-28T12:23:52Z","2025-07-28T12:24:03Z","2025-07-28T12:24:05Z","2025-07-28T12:24:09Z","2025-07-28T12:24:12Z","2025-07-28T12:24:14Z","2025-07-28T12:24:19Z","2025-07-28T12:25:49Z","2025-07-28T12:26:05Z","2025-07-28T12:26:15Z","2025-07-28T12:26:22Z","2025-07-28T12:26:23Z","2025-07-28T12:26:26Z","2025-07-28T12:26:36Z","2025-07-28T12:26:54Z","2025-07-28T12:26:56Z","2025-07-28T12:27:07Z","2025-07-28T12:27:08Z","2025-07-28T12:27:10Z","2025-07-28T12:27:18Z","2025-07-28T12:27:32Z","2025-07-28T12:27:37Z","2025-07-28T12:27:42Z","2025-07-28T12:27:44Z","2025-07-28T12:27:56Z","2025-07-28T12:27:57Z","2025-07-28T12:27:58Z","2025-07-28T12:27:59Z","2025-07-28T12:28:00Z","2025-07-28T12:28:03Z","2025-07-28T12:28:09Z","2025-07-28T12:28:27Z","2025-07-28T12:28:34Z","2025-07-28T12:28:39Z","2025-07-28T12:28:42Z","2025-07-28T12:28:48Z","2025-07-28T12:28:50Z","2025-07-28T12:28:52Z","2025-07-28T12:28:54Z","2025-07-28T12:29:00Z","2025-07-28T12:29:07Z","2025-07-28T12:29:11Z","2025-07-28T12:29:16Z","2025-07-28T12:29:17Z","2025-07-28T12:29:26Z","2025-07-28T12:29:30Z","2025-07-28T12:29:34Z","2025-07-28T12:29:41Z","2025-07-28T12:29:47Z","2025-07-28T12:29:48Z","2025-07-28T12:29:49Z","2025-07-28T12:29:50Z","2025-07-28T12:29:51Z","2025-07-28T12:30:01Z","2025-07-28T12:30:02Z","2025-07-28T12:30:03Z","2025-07-28T12:30:04Z","2025-07-28T12:30:05Z","2025-07-28T12:30:09Z","2025-07-28T12:30:29Z","2025-07-28T12:30:39Z","2025-07-28T12:30:40Z","2025-07-28T12:30:41Z","2025-07-28T12:30:42Z","2025-07-28T12:30:43Z","2025-07-28T12:30:47Z","2025-07-28T12:30:48Z","2025-07-28T12:30:49Z","2025-07-28T12:30:51Z","2025-07-28T12:30:52Z","2025-07-28T12:30:56Z","2025-07-28T12:30:57Z","2025-07-28T12:30:58Z","2025-07-28T12:30:59Z","2025-07-28T12:31:04Z","2025-07-28T12:31:08Z","2025-07-28T12:31:16Z","2025-07-28T12:31:19Z","2025-07-28T12:31:24Z","2025-07-28T12:31:36Z","2025-07-28T12:31:38Z","2025-07-28T12:31:41Z","2025-07-28T12:31:42Z","2025-07-28T12:31:44Z","2025-07-28T12:31:50Z","2025-07-28T12:31:57Z","2025-07-28T12:32:03Z","2025-07-28T12:32:04Z","2025-07-28T12:32:05Z","2025-07-28T12:32:06Z","2025-07-28T12:32:07Z","2025-07-28T12:32:09Z","2025-07-28T12:32:11Z","2025-07-28T12:32:17Z","2025-07-28T12:32:19Z","2025-07-28T12:32:22Z","2025-07-28T12:32:33Z","2025-07-28T12:32:36Z","2025-07-28T12:32:40Z","2025-07-28T12:32:47Z","2025-07-28T12:32:50Z","2025-07-28T12:32:56Z","2025-07-28T12:32:59Z","2025-07-28T12:33:06Z","2025-07-28T12:33:09Z","2025-07-28T12:33:15Z","2025-07-28T12:33:17Z","2025-07-28T12:33:23Z","2025-07-28T12:33:26Z","2025-07-28T12:33:34Z","2025-07-28T12:33:39Z","2025-07-28T12:33:48Z","2025-07-28T12:33:56Z","2025-07-28T12:33:57Z","2025-07-28T12:33:59Z","2025-07-28T12:34:10Z","2025-07-28T12:34:13Z","2025-07-28T12:34:17Z","2025-07-28T12:34:28Z","2025-07-28T12:34:36Z","2025-07-28T12:34:44Z","2025-07-28T12:34:46Z","2025-07-28T12:34:48Z","2025-07-28T12:34:57Z","2025-07-28T12:34:58Z","2025-07-28T12:34:59Z","2025-07-28T12:35:01Z","2025-07-28T12:35:05Z","2025-07-28T12:35:06Z","2025-07-28T12:35:07Z","2025-07-28T12:35:08Z","2025-07-28T12:35:12Z","2025-07-28T12:35:18Z","2025-07-28T12:35:21Z","2025-07-28T12:36:15Z","2025-07-28T12:36:21Z","2025-07-28T12:36:24Z","2025-07-28T12:36:29Z","2025-07-28T12:36:33Z","2025-07-28T12:36:39Z","2025-07-28T12:36:45Z","2025-07-28T12:36:49Z","2025-07-28T12:36:50Z","2025-07-28T12:36:53Z","2025-07-28T12:36:58Z","2025-07-28T12:37:02Z","2025-07-28T12:37:07Z","2025-07-28T12:37:08Z","2025-07-28T12:37:09Z","2025-07-28T12:37:10Z","2025-07-28T12:37:13Z","2025-07-28T12:37:17Z","2025-07-28T12:37:19Z","2025-07-28T12:37:33Z","2025-07-28T12:37:38Z","2025-07-28T12:37:40Z","2025-07-28T12:37:42Z","2025-07-28T12:37:45Z","2025-07-28T12:37:48Z","2025-07-28T12:37:56Z","2025-07-28T12:38:10Z","2025-07-28T12:38:39Z","2025-07-28T12:38:46Z","2025-07-28T12:38:50Z","2025-07-28T12:38:54Z","2025-07-28T12:38:57Z","2025-07-28T12:39:02Z","2025-07-28T12:39:15Z","2025-07-28T12:39:29Z","2025-07-28T12:39:47Z","2025-07-28T12:39:48Z","2025-07-28T12:39:53Z","2025-07-28T12:40:01Z","2025-07-28T12:40:02Z","2025-07-28T12:40:05Z","2025-07-28T12:40:06Z","2025-07-28T12:40:08Z","2025-07-28T12:40:09Z","2025-07-28T12:40:14Z","2025-07-28T12:40:16Z","2025-07-28T12:40:18Z","2025-07-28T12:40:19Z","2025-07-28T12:40:21Z","2025-07-28T12:40:22Z","2025-07-28T12:40:25Z","2025-07-28T12:43:51Z","2025-07-28T12:43:53Z","2025-07-28T12:44:03Z","2025-07-28T12:44:05Z","2025-07-28T12:44:13Z","2025-07-28T12:44:27Z","2025-07-28T12:44:28Z","2025-07-28T12:44:31Z","2025-07-28T12:44:46Z","2025-07-28T12:44:50Z","2025-07-28T12:44:51Z","2025-07-28T12:45:02Z","2025-07-28T12:45:04Z","2025-07-28T12:45:07Z","2025-07-28T12:45:10Z","2025-07-28T12:45:17Z","2025-07-28T12:45:24Z","2025-07-28T12:45:27Z","2025-07-28T12:45:31Z","2025-07-28T12:45:37Z","2025-07-28T12:45:42Z","2025-07-28T12:45:46Z","2025-07-28T12:45:53Z","2025-07-28T12:45:54Z","2025-07-28T12:45:56Z","2025-07-28T12:45:59Z","2025-07-28T12:46:03Z","2025-07-28T12:46:09Z","2025-07-28T12:46:17Z","2025-07-28T12:46:22Z","2025-07-28T12:46:26Z","2025-07-28T12:46:35Z","2025-07-28T12:46:36Z","2025-07-28T12:46:42Z","2025-07-28T12:46:44Z","2025-07-28T12:46:51Z","2025-07-28T12:46:52Z","2025-07-28T12:46:54Z","2025-07-28T12:46:57Z","2025-07-28T12:46:59Z","2025-07-28T12:47:02Z","2025-07-28T12:47:10Z","2025-07-28T12:47:13Z","2025-07-28T12:47:19Z","2025-07-28T12:47:21Z","2025-07-28T12:47:23Z","2025-07-28T12:47:30Z","2025-07-28T12:47:36Z","2025-07-28T12:47:45Z","2025-07-28T12:47:48Z","2025-07-28T12:47:50Z","2025-07-28T12:47:52Z","2025-07-28T12:47:54Z","2025-07-28T12:47:59Z","2025-07-28T12:48:01Z","2025-07-28T12:48:03Z","2025-07-28T12:48:04Z","2025-07-28T12:48:07Z","2025-07-28T12:48:09Z","2025-07-28T12:48:10Z","2025-07-28T12:48:12Z","2025-07-28T12:48:18Z","2025-07-28T12:48:19Z","2025-07-28T12:48:21Z","2025-07-28T12:48:30Z","2025-07-28T12:48:46Z","2025-07-28T12:48:49Z","2025-07-28T12:48:59Z","2025-07-28T12:49:01Z","2025-07-28T12:49:12Z","2025-07-28T12:49:13Z","2025-07-28T12:49:15Z","2025-07-28T12:49:19Z","2025-07-28T12:49:29Z","2025-07-28T12:49:31Z","2025-07-28T12:49:35Z","2025-07-28T12:49:41Z","2025-07-28T12:49:47Z","2025-07-28T12:49:49Z","2025-07-28T12:49:59Z","2025-07-28T12:50:01Z","2025-07-28T12:50:16Z","2025-07-28T12:50:22Z","2025-07-28T12:50:27Z","2025-07-28T12:50:29Z","2025-07-28T12:50:30Z","2025-07-28T12:50:31Z","2025-07-28T12:50:33Z","2025-07-28T12:50:38Z","2025-07-28T12:50:52Z","2025-07-28T12:50:54Z","2025-07-28T12:51:01Z","2025-07-28T12:51:04Z","2025-07-28T12:51:08Z","2025-07-28T12:51:09Z","2025-07-28T12:51:12Z","2025-07-28T12:51:14Z","2025-07-28T12:51:16Z","2025-07-28T12:51:34Z","2025-07-28T12:51:36Z","2025-07-28T12:51:40Z","2025-07-28T12:51:52Z","2025-07-28T12:51:53Z","2025-07-28T12:51:55Z","2025-07-28T12:52:06Z","2025-07-28T12:52:10Z","2025-07-28T12:52:11Z","2025-07-28T12:52:15Z","2025-07-28T12:52:24Z","2025-07-28T12:52:28Z","2025-07-28T12:52:31Z","2025-07-28T12:52:32Z","2025-07-28T12:52:34Z","2025-07-28T12:52:35Z","2025-07-28T12:52:36Z","2025-07-28T12:52:42Z","2025-07-28T12:52:45Z","2025-07-28T12:52:56Z","2025-07-28T12:53:02Z","2025-07-28T12:53:13Z","2025-07-28T12:53:15Z","2025-07-28T12:53:17Z","2025-07-28T12:53:20Z","2025-07-28T12:53:23Z","2025-07-28T12:53:30Z","2025-07-28T12:53:37Z","2025-07-28T12:53:39Z","2025-07-28T12:53:41Z","2025-07-28T12:53:42Z","2025-07-28T12:53:44Z","2025-07-28T12:53:47Z","2025-07-28T12:53:53Z","2025-07-28T12:54:37Z","2025-07-28T12:54:39Z","2025-07-28T12:54:40Z","2025-07-28T12:54:45Z","2025-07-28T12:54:53Z","2025-07-28T12:55:09Z","2025-07-28T12:55:11Z","2025-07-28T12:55:21Z","2025-07-28T12:55:23Z","2025-07-28T12:55:26Z","2025-07-28T12:55:38Z","2025-07-28T12:55:39Z","2025-07-28T12:55:43Z","2025-07-28T12:55:46Z","2025-07-28T12:55:48Z","2025-07-28T12:55:49Z","2025-07-28T12:55:52Z","2025-07-28T12:55:54Z","2025-07-28T12:55:59Z","2025-07-28T12:56:00Z","2025-07-28T12:56:01Z","2025-07-28T12:56:04Z","2025-07-28T12:56:07Z","2025-07-28T12:56:12Z","2025-07-28T12:56:26Z","2025-07-28T12:56:28Z","2025-07-28T12:56:29Z","2025-07-28T12:56:31Z","2025-07-28T12:56:34Z","2025-07-28T12:56:36Z","2025-07-28T12:56:43Z","2025-07-28T12:56:44Z","2025-07-28T12:56:46Z","2025-07-28T12:56:47Z","2025-07-28T12:56:51Z","2025-07-28T12:56:57Z","2025-07-28T12:57:03Z","2025-07-28T12:57:09Z","2025-07-28T12:57:12Z","2025-07-28T12:57:15Z","2025-07-28T12:57:16Z","2025-07-28T12:57:17Z","2025-07-28T12:57:18Z","2025-07-28T12:57:21Z","2025-07-28T12:57:22Z","2025-07-28T12:57:26Z","2025-07-28T12:57:27Z","2025-07-28T12:57:28Z","2025-07-28T12:57:29Z","2025-07-28T12:57:35Z","2025-07-28T12:57:39Z","2025-07-28T12:57:41Z","2025-07-28T12:57:43Z","2025-07-28T12:57:45Z","2025-07-28T12:57:50Z","2025-07-28T12:57:54Z"],"heartRates":[116,116,116,124,126,129,133,133,133,134,133,133,132,132,131,129,128,128,126,125,125,125,125,122,122,122,124,124,124,122,122,122,122,122,124,125,125,127,127,127,128,128,128,129,129,130,131,135,135,138,139,141,141,142,142,143,149,149,149,149,148,148,148,148,147,147,148,148,148,147,147,141,140,140,140,140,134,134,117,110,110,117,117,117,117,118,118,118,128,128,132,132,135,135,135,135,144,144,145,145,145,150,150,152,155,157,159,159,158,156,155,155,155,155,157,157,157,158,161,161,161,163,163,165,166,166,167,167,167,168,168,168,166,166,166,136,138,138,142,144,145,152,153,153,156,157,157,157,157,153,147,111,113,120,118,118,118,117,120,119,119,119,117,117,113,113,113,112,112,110,110,110,110,110,115,111,111,110,111,111,111,111,112,112,112,112,112,112,111,114,114,113,113,112,112,112,112,111,111,111,111,115,115,115,124,125,128,128,131,136,136,143,144,144,154,156,162,163,116,122,142,150,155,157,163,163,164,164,165,168,166,134,141,141,141,149,153,159,159,158,158,158,156,147,147,139,136,128,128,128,128,128,128,129,129,127,128,128,127,127,127,125,125,124,122,121,121,121,121,119,119,116,116,116,116,116,117,117,122,122,122,124,125,122,122,122,122,122,125,125,125,125,125,124,124,124,124,119,119,120,120,121,122,127,127,127,134,138,141,149,149,151,151,151,151,151,160,160,163,168,168,169,169,167,167,167,164,163,161,161,158,158,155,151,146,143,141,141,138,138,134,132,125,122,122,120,121,121,121,121,120,120,120,120,120,114,122,122,124,122,122,122,122,121,121,121,121,121,120,120,120,120,120,119,119,119,127,127,136,136,143,146,150,150,145,145,146,148,148,149,149,149,135,135,136,144,144,144,144,144,151,153,153,153,153,153,153,153,153,153,124,124,126,128,127,127,122,120,120,120,120,120,119,122,118,118,117,117,119,120,121,121,122,122,122,126,127,127,127,130,130,128,128,124,124,124,121,121,121,124,124,128,128,128,132,132,135,135,135,135,135,132,132,132,125,124,124,124,120,119,119,119,118,119,119,121,121,130,130,136,138,142,142,146,147,150,150,150,150,144,143,141,141,141,141,141,132,142,142,149,149,149,149,149,149,149,148,148,148,147,147,147,144,143,143,143,136,136,136,134,134,134,134,133,132,129,128,125,122,122,122,122,122,122,121,121,121,121,121,124,125,125,125,127,129,129,129,129,127,127,122,122,122,122,122,122,122,122,122,122,122,126,126,131,134,134,134,134,134,134,128,128,128,128,124,124,125,125,125,127,127,127,127,126,126,126,122,122,122,122,119,119,119,118,118,118],"month":"2025-07-01"},"geometry":{"type":"LineString","coordinates":[[4.90612,46.564974,189.2],[4.906003,46.565009,189.5],[4.905796,46.565055,190.7],[4.905094,46.56518,194.7],[4.904939,46.565218,195],[4.90474,46.56525,195.4],[4.904634,46.56528,195.6],[4.904548,46.565294,195.8],[4.904401,46.565347,196.1],[4.904276,46.565366,196.2],[4.904072,46.565427,196.6],[4.903933,46.565456,196.8],[4.902844,46.565747,198],[4.902804,46.565772,198.1],[4.902784,46.565807,198.1],[4.902843,46.566181,198.1],[4.902843,46.56638,198.3],[4.902864,46.566483,198.4],[4.902883,46.566762,198.9],[4.902855,46.566858,199.1],[4.902828,46.566883,199.1],[4.902736,46.566921,199.2],[4.902635,46.56694,199.2],[4.902391,46.567014,199.3],[4.902349,46.567042,199.3],[4.902291,46.56711,199.4],[4.902235,46.567222,199.3],[4.902214,46.567344,199.3],[4.902233,46.568165,199],[4.902246,46.568356,198.9],[4.902239,46.568462,198.8],[4.902248,46.56862,198.7],[4.902235,46.568784,198.7],[4.902179,46.568939,198.6],[4.902088,46.56909,198.6],[4.90129,46.570062,198.1],[4.901066,46.57029,198.4],[4.900996,46.570377,198.5],[4.900882,46.570606,198.8],[4.900804,46.570734,199.1],[4.900697,46.570883,199.3],[4.900656,46.570906,199.5],[4.900595,46.570909,199.6],[4.900472,46.570883,199.9],[4.900409,46.570877,200.1],[4.900278,46.570879,200.4],[4.899574,46.571011,202.8],[4.899473,46.571055,203],[4.899382,46.571107,203.3],[4.899303,46.571169,203.6],[4.899212,46.571266,204.1],[4.899105,46.571418,204.7],[4.898999,46.571521,205.2],[4.898926,46.571566,205.5],[4.898761,46.571631,205.9],[4.898629,46.571664,206.3],[4.897812,46.571807,208.4],[4.897566,46.571844,209.1],[4.897485,46.571849,209.3],[4.897445,46.571838,209.4],[4.897394,46.571798,209.5],[4.897386,46.57177,209.5],[4.897397,46.571696,209.5],[4.897364,46.571621,209.5],[4.897413,46.571572,209.5],[4.897421,46.57155,209.5],[4.89741,46.571506,209.5],[4.897398,46.571507,209.5],[4.897444,46.571518,209.5],[4.897415,46.571507,209.5],[4.897436,46.571502,209.5],[4.897473,46.571423,209.6],[4.897469,46.57143,209.6],[4.897467,46.571398,209.6],[4.897464,46.571405,209.6],[4.897471,46.571389,209.6],[4.897469,46.571395,209.6],[4.897391,46.571399,209.6],[4.897379,46.571415,209.6],[4.897371,46.571527,209.6],[4.89733,46.571601,209.6],[4.897374,46.571744,209.5],[4.89738,46.571854,209.4],[4.897344,46.571878,209.5],[4.897059,46.57195,210],[4.896686,46.572097,210.8],[4.896621,46.572145,211],[4.896579,46.572156,211],[4.896476,46.57223,211.3],[4.896358,46.572283,211.4],[4.896298,46.572271,211.5],[4.896302,46.572294,211.6],[4.896216,46.572352,211.8],[4.896176,46.572419,212.1],[4.896165,46.572527,212.4],[4.896184,46.572591,212.7],[4.896349,46.572836,213.9],[4.89638,46.572898,214.1],[4.896454,46.573006,214.7],[4.896475,46.573061,214.9],[4.896602,46.573278,216],[4.896635,46.573389,216.6],[4.896662,46.573444,216.8],[4.896803,46.573862,218.8],[4.896842,46.574032,219.6],[4.896958,46.574382,221.3],[4.897237,46.5754,226.4],[4.897262,46.575558,227.2],[4.89736,46.576008,229.2],[4.897446,46.576507,231.6],[4.897562,46.577059,234.5],[4.89756,46.577103,234.7],[4.897581,46.577218,235.4],[4.897582,46.577306,236],[4.897519,46.577578,238.1],[4.897519,46.57762,238.5],[4.897479,46.577763,239.8],[4.897472,46.57784,240.5],[4.897423,46.577949,241.8],[4.897373,46.577992,242.4],[4.897297,46.578025,243.1],[4.897164,46.57803,244.2],[4.897121,46.578012,244.6],[4.896978,46.577904,246.2],[4.8969,46.577814,247.3],[4.896845,46.577777,247.9],[4.896834,46.577761,248],[4.896757,46.577714,248.8],[4.896743,46.577681,249.2],[4.896724,46.57767,249.4],[4.896725,46.577675,249.5],[4.89671,46.577667,249.6],[4.896721,46.577666,249.7],[4.896713,46.577663,249.8],[4.896673,46.577682,250.2],[4.896621,46.577684,250.6],[4.896557,46.577717,251.3],[4.896487,46.577824,252.8],[4.896478,46.577887,253.9],[4.896487,46.577955,255.1],[4.896459,46.578117,257.7],[4.896465,46.578317,260.7],[4.896486,46.578424,262.4],[4.89648,46.578533,264],[4.896493,46.578553,264.3],[4.896506,46.578685,266],[4.896521,46.57874,266.7],[4.89651,46.578783,267.1],[4.896516,46.578849,267.2],[4.896558,46.578944,266.9],[4.896523,46.578943,266.8],[4.896506,46.578998,266.6],[4.896562,46.579175,265.8],[4.896591,46.579323,265],[4.896632,46.579397,264.5],[4.896633,46.579384,264.5],[4.896641,46.579386,264.5],[4.896646,46.579378,264.4],[4.896717,46.579738,262.6],[4.896726,46.579872,261.9],[4.89672,46.57997,261.4],[4.89673,46.58,261.2],[4.89671,46.580059,260.8],[4.8967,46.580156,260.1],[4.896655,46.580184,259.6],[4.896677,46.580212,259.1],[4.8967,46.580219,258.9],[4.896691,46.580311,257.4],[4.896713,46.580411,255.7],[4.896705,46.580467,254.7],[4.896714,46.580487,254.3],[4.896739,46.580487,253.8],[4.896759,46.580503,253.4],[4.896805,46.580571,251.8],[4.896857,46.580624,250.5],[4.897131,46.580855,243.9],[4.897164,46.58087,243.3],[4.89729,46.58099,240.3],[4.897414,46.58109,237.9],[4.897446,46.581102,237.5],[4.897475,46.581142,236.8],[4.89751,46.581158,236.4],[4.897601,46.581227,235.1],[4.897683,46.581312,233.8],[4.897762,46.581374,232.8],[4.897929,46.581529,230.9],[4.89802,46.581601,230.2],[4.898081,46.581674,229.6],[4.898268,46.581842,228.2],[4.898438,46.582023,226.6],[4.898506,46.582084,226],[4.898995,46.58259,222],[4.899068,46.582649,221.8],[4.899114,46.58267,221.7],[4.899221,46.582697,221.5],[4.899271,46.582702,221.4],[4.89936,46.582724,221.3],[4.899399,46.582744,221.3],[4.899425,46.582772,221.3],[4.899453,46.582846,221.3],[4.89945,46.582885,221.3],[4.899343,46.583121,222.1],[4.89932,46.583151,222.3],[4.899266,46.583282,222.8],[4.899171,46.583467,223.7],[4.89912,46.583613,224.5],[4.899044,46.583745,225.2],[4.89902,46.583822,225.7],[4.898928,46.584018,225.8],[4.898846,46.584282,226],[4.898851,46.584369,226.2],[4.898835,46.584519,227.1],[4.898801,46.584648,228.5],[4.898776,46.584698,229],[4.89872,46.58509,233],[4.898695,46.585154,233.7],[4.898621,46.585664,239.7],[4.898622,46.585656,239.8],[4.898598,46.585721,240.7],[4.8986,46.585797,241.7],[4.898522,46.58624,247.2],[4.898456,46.586499,250.4],[4.898368,46.586616,251.9],[4.898306,46.58668,252.8],[4.898111,46.586827,254],[4.898071,46.586846,254.4],[4.898008,46.586903,255.1],[4.89795,46.586932,255.6],[4.897926,46.586954,255.9],[4.897934,46.586955,256],[4.897895,46.586972,256.3],[4.897564,46.587202,259.4],[4.897395,46.587382,261.4],[4.897305,46.587515,262.7],[4.897275,46.587534,263],[4.897245,46.587598,263.6],[4.897114,46.587786,265.4],[4.896933,46.58811,267.3],[4.896907,46.588137,267.4],[4.896835,46.588269,267.9],[4.896818,46.588281,267.9],[4.896805,46.588324,267.9],[4.896718,46.588466,267.6],[4.896476,46.588941,265],[4.896344,46.589151,263.3],[4.896211,46.58939,261.4],[4.896142,46.589486,260.5],[4.895784,46.590168,255.2],[4.895758,46.59017,255.1],[4.895731,46.590156,254.9],[4.89571,46.59016,254.8],[4.895701,46.590173,254.7],[4.895712,46.590169,254.6],[4.895703,46.590167,254.5],[4.895714,46.590191,254.4],[4.895686,46.59036,253.2],[4.895591,46.590569,251.6],[4.895503,46.590722,250.3],[4.895297,46.591146,247],[4.895234,46.591317,245.8],[4.895187,46.591493,244.8],[4.895162,46.591671,243.8],[4.895127,46.592202,240],[4.895048,46.592911,233.7],[4.894976,46.59328,230.4],[4.89487,46.593713,226.1],[4.894821,46.593812,225.2],[4.894273,46.59467,217.7],[4.894021,46.595013,215],[4.893761,46.595298,212.9],[4.893352,46.595711,209.9],[4.893041,46.595969,208.4],[4.893026,46.595996,208.3],[4.893026,46.596019,208.2],[4.893043,46.596054,208.1],[4.893083,46.596092,208],[4.893588,46.596423,207.6],[4.893677,46.596432,207.6],[4.893652,46.596481,207.6],[4.893701,46.596506,207.6],[4.893746,46.596549,207.6],[4.893952,46.596682,207.5],[4.894954,46.597382,206.6],[4.895571,46.597792,203.7],[4.895638,46.597851,203.2],[4.895692,46.597921,202.7],[4.895722,46.597999,202.1],[4.895725,46.598084,201.6],[4.895646,46.598437,199.2],[4.895639,46.598531,198.5],[4.895649,46.598625,197.8],[4.895699,46.598816,196.4],[4.895733,46.598902,195.8],[4.895878,46.599185,193.8],[4.895921,46.599245,193.3],[4.895998,46.599289,192.5],[4.896102,46.599319,191.6],[4.896356,46.599353,189.6],[4.896479,46.599395,188.7],[4.896801,46.599442,187.2],[4.896983,46.599451,186.8],[4.897323,46.599432,187],[4.898018,46.599429,189.6],[4.89811,46.59942,190.2],[4.898246,46.599425,191.1],[4.898282,46.599414,191.4],[4.898386,46.599437,192.2],[4.898632,46.599468,194],[4.898888,46.599548,196.2],[4.899066,46.599584,197.9],[4.899137,46.599606,198.5],[4.89919,46.599577,199],[4.899249,46.599563,199.3],[4.899279,46.599568,199.3],[4.89922,46.599638,199.5],[4.899262,46.599667,199.6],[4.899413,46.599743,200.4],[4.89947,46.599756,200.9],[4.899537,46.599789,201.5],[4.899794,46.599879,203.6],[4.899847,46.599908,204],[4.899924,46.599935,204.6],[4.90008,46.599971,205.6],[4.900135,46.599995,206],[4.900266,46.600034,206.8],[4.90033,46.600042,207.1],[4.900473,46.600082,207.8],[4.900536,46.600088,207.8],[4.900678,46.600141,208],[4.900729,46.600152,208],[4.900868,46.600214,208],[4.900961,46.600265,208],[4.901302,46.600415,207.9],[4.901517,46.600527,208.1],[4.90187,46.600662,208.6],[4.90204,46.600849,208.3],[4.902033,46.600883,208.1],[4.90199,46.600928,207.2],[4.90165,46.601148,201.4],[4.901555,46.601197,199.9],[4.901434,46.601277,197.8],[4.901042,46.601502,191.4],[4.900756,46.601699,186.7],[4.900468,46.601882,184.6],[4.900423,46.601928,184.4],[4.900427,46.601984,184.3],[4.900687,46.602214,183.8],[4.900714,46.60222,183.8],[4.900756,46.602247,183.8],[4.900819,46.602309,183.7],[4.900962,46.602404,183.6],[4.90098,46.60243,183.5],[4.900964,46.602464,183.5],[4.900934,46.602494,183.5],[4.900837,46.602527,183.4],[4.900842,46.60251,183.4],[4.900834,46.602514,183.4],[4.900825,46.602492,183.3],[4.900728,46.602591,183.3],[4.900724,46.602662,183.3],[4.900789,46.602815,183.3],[4.900875,46.602949,183.3],[4.900978,46.60317,183.3],[4.901021,46.603393,183.4],[4.901068,46.603563,183.4],[4.901091,46.603601,183.4],[4.901114,46.603724,183.5],[4.901136,46.603949,183.6],[4.90117,46.604107,183.8],[4.901156,46.60433,183.8],[4.901177,46.604371,183.8],[4.901223,46.604406,183.8],[4.901297,46.604416,183.9],[4.901456,46.604384,183.9],[4.901684,46.604364,183.6],[4.901834,46.604342,183.4],[4.903053,46.604078,184.1],[4.903513,46.603954,185.7],[4.903676,46.603899,186.9],[4.903782,46.603835,188.1],[4.903854,46.60375,189.4],[4.903864,46.603701,190],[4.903869,46.603713,190.3],[4.903894,46.603651,191.2],[4.903956,46.603329,196],[4.903989,46.603259,197.2],[4.903998,46.603205,198],[4.904032,46.603168,198.6],[4.904039,46.603132,199.1],[4.904079,46.603086,199.8],[4.904101,46.603038,200.4],[4.904137,46.603017,200.8],[4.904234,46.602912,202.2],[4.904256,46.602905,202.4],[4.904326,46.602807,203.6],[4.904505,46.602641,205.9],[4.904501,46.602624,206.1],[4.904559,46.602554,206.8],[4.904587,46.602533,207],[4.904614,46.602484,207.3],[4.904635,46.602471,207.4],[4.904671,46.602392,207.6],[4.904667,46.602396,207.6],[4.904674,46.602384,207.6],[4.904667,46.602377,207.7],[4.904675,46.602365,207.7],[4.904685,46.602366,207.7],[4.904677,46.602371,207.7],[4.904783,46.602366,207.8],[4.904829,46.602344,207.9],[4.905065,46.602153,208.2],[4.905103,46.602102,208.2],[4.905357,46.6019,208.2],[4.905727,46.60153,208.7],[4.905758,46.601509,208.7],[4.905826,46.601436,208.8],[4.906159,46.601131,209],[4.906252,46.601061,209],[4.906273,46.601036,209],[4.906419,46.600753,208.9],[4.906436,46.600699,208.8],[4.906442,46.600618,208.8],[4.906478,46.600513,208.7],[4.906526,46.600248,208.4],[4.906518,46.599971,207.8],[4.906547,46.599825,207.4],[4.906625,46.599616,206.8],[4.906697,46.599249,206.1],[4.906728,46.598923,205.6],[4.906735,46.598654,205.4],[4.906684,46.598197,205.4],[4.906686,46.598139,205.4],[4.906723,46.598022,205.3],[4.90681,46.597845,205.3],[4.9069,46.597611,205.5],[4.90699,46.597283,205.9],[4.907012,46.596856,206.4],[4.907039,46.596596,206.8],[4.907073,46.596408,207.1],[4.907175,46.596036,207.3],[4.90718,46.59599,207.2],[4.907276,46.595713,206.5],[4.907324,46.595616,206.1],[4.907586,46.595188,204.1],[4.907636,46.595127,203.9],[4.9077,46.594995,203.6],[4.90781,46.594804,203.1],[4.907869,46.594679,202.9],[4.907936,46.594472,202.6],[4.907995,46.593909,202.7],[4.907986,46.593701,203],[4.907933,46.593313,203.2],[4.907924,46.593182,202.9],[4.907942,46.593038,202.6],[4.908075,46.592518,201.1],[4.908255,46.591996,198.8],[4.908566,46.591147,196.1],[4.908649,46.590868,195.4],[4.908685,46.59068,194.8],[4.908693,46.590487,194.3],[4.90868,46.590295,193.7],[4.908581,46.589815,192.2],[4.908482,46.589636,192],[4.908356,46.589476,191.9],[4.908308,46.5894,191.9],[4.908192,46.589172,191.8],[4.908142,46.589033,191.8],[4.908127,46.588956,191.6],[4.908135,46.588807,191.3],[4.908292,46.588363,189.7],[4.908286,46.588285,189.5],[4.90825,46.588133,189],[4.907975,46.587528,188.1],[4.907556,46.586521,187.8],[4.907493,46.586341,187.8],[4.907318,46.585908,188.2],[4.907314,46.585816,188.5],[4.907122,46.585302,189.9],[4.907111,46.585252,190],[4.907062,46.585159,190.2],[4.906995,46.584969,190.6],[4.906796,46.584502,191.8],[4.906771,46.58442,192.1],[4.906684,46.584248,192.5],[4.906598,46.584021,192.9],[4.906475,46.58381,193.2],[4.906458,46.58374,193.2],[4.906331,46.583411,193.2],[4.906294,46.583346,193.2],[4.906048,46.582694,191.2],[4.905888,46.582326,189.8],[4.905756,46.581991,189],[4.905713,46.581853,188.8],[4.905672,46.581789,188.7],[4.90562,46.581733,188.7],[4.905607,46.581601,188.6],[4.905495,46.581263,189.1],[4.905258,46.580416,192.1],[4.90525,46.580333,192.2],[4.905188,46.580049,192.7],[4.905138,46.579933,192.8],[4.90512,46.579765,192.9],[4.905127,46.579719,192.9],[4.905093,46.579586,193],[4.905089,46.579496,193],[4.905063,46.579407,193],[4.904935,46.578654,194.8],[4.904933,46.578591,195],[4.904906,46.578459,195.4],[4.904865,46.578117,196.2],[4.90487,46.578089,196.2],[4.90486,46.578033,196.3],[4.904849,46.577682,196.5],[4.904808,46.577542,196.5],[4.904789,46.577508,196.5],[4.904681,46.577383,196.6],[4.904474,46.577101,196.9],[4.904368,46.576995,197],[4.904323,46.576919,197],[4.904317,46.576886,197],[4.904264,46.576825,196.9],[4.904246,46.57679,196.9],[4.904242,46.576744,196.7],[4.904146,46.57648,196.2],[4.904074,46.576348,196],[4.903844,46.575826,195.5],[4.903699,46.575546,195.6],[4.903389,46.575079,195.7],[4.90337,46.574997,195.8],[4.903384,46.574916,195.7],[4.903433,46.574794,195.6],[4.903471,46.574659,195.4],[4.903631,46.574335,195],[4.903759,46.574037,194.8],[4.903771,46.573976,194.7],[4.903762,46.573921,194.7],[4.903738,46.573898,194.7],[4.903682,46.57387,194.7],[4.903692,46.573883,194.7],[4.903702,46.573877,194.7],[4.903563,46.573794,194.9],[4.903529,46.573736,194.9],[4.90353,46.5737,194.9],[4.903619,46.573495,194.8],[4.903808,46.573119,194.5],[4.904251,46.572293,194],[4.904295,46.572195,194],[4.904575,46.571681,193.4],[4.904623,46.571571,193.3],[4.904719,46.571411,193],[4.905087,46.57071,191.1],[4.905114,46.570639,190.9],[4.905265,46.570379,190.1],[4.90545,46.570165,188.8],[4.905616,46.570015,187.9],[4.905717,46.569941,187.5],[4.906072,46.569723,187.2],[4.9063,46.569572,187.5],[4.906702,46.569253,189.1],[4.906759,46.569192,189.6],[4.906803,46.569128,190],[4.906895,46.56895,190.9],[4.906958,46.568774,191.3],[4.907007,46.568479,191.5],[4.907174,46.567681,191.4],[4.907204,46.567574,191.5],[4.907204,46.567523,191.5],[4.907128,46.567426,191.5],[4.907058,46.567309,191.6],[4.90705,46.567235,191.6],[4.907085,46.567031,191.8],[4.907111,46.56701,191.8],[4.907201,46.566981,192],[4.907247,46.566952,192],[4.90735,46.566811,192.1],[4.907402,46.566557,192.4],[4.907486,46.566287,192.7],[4.90763,46.565984,192.6],[4.907667,46.565819,192.6],[4.907685,46.565656,192.5],[4.907701,46.565609,192.5],[4.907771,46.565578,192.5],[4.907863,46.565575,192.6],[4.908075,46.565648,192.5],[4.908141,46.565664,192.4],[4.908334,46.565687,192.3],[4.908369,46.565704,192.3],[4.908407,46.5657,192.3],[4.908445,46.565683,192.2],[4.908554,46.565566,191.7],[4.908618,46.565521,191.6],[4.908621,46.565483,191.4],[4.908584,46.565453,191.3],[4.908544,46.565437,191.2],[4.908558,46.56545,191.1],[4.908525,46.565445,191]]}}]}