{"type":"FeatureCollection","features":[{"type":"Feature","properties":{"name":"Balade à la Mare aux Pigeons","type":"randonnée","time":"2025-09-07T08:19:33Z","coordTimes":["2025-09-07T08:19:33Z","2025-09-07T08:20:38Z","2025-09-07T08:20:39Z","2025-09-07T08:22:38Z","2025-09-07T08:22:39Z","2025-09-07T08:23:01Z","2025-09-07T08:23:02Z","2025-09-07T08:23:13Z","2025-09-07T08:23:14Z","2025-09-07T08:23:18Z","2025-09-07T08:23:19Z","2025-09-07T08:23:26Z","2025-09-07T08:23:32Z","2025-09-07T08:23:34Z","2025-09-07T08:23:38Z","2025-09-07T08:23:42Z","2025-09-07T08:23:46Z","2025-09-07T08:23:49Z","2025-09-07T08:23:51Z","2025-09-07T08:23:56Z","2025-09-07T08:23:59Z","2025-09-07T08:24:08Z","2025-09-07T08:24:10Z","2025-09-07T08:24:11Z","2025-09-07T08:24:15Z","2025-09-07T08:24:23Z","2025-09-07T08:24:25Z","2025-09-07T08:24:28Z","2025-09-07T08:24:43Z","2025-09-07T08:25:24Z","2025-09-07T08:25:25Z","2025-09-07T08:25:47Z","2025-09-07T08:25:48Z","2025-09-07T08:25:49Z","2025-09-07T08:25:52Z","2025-09-07T08:25:54Z","2025-09-07T08:26:00Z","2025-09-07T08:26:06Z","2025-09-07T08:26:10Z","2025-09-07T08:26:19Z","2025-09-07T08:26:21Z","2025-09-07T08:26:25Z","2025-09-07T08:26:32Z","2025-09-07T08:26:35Z","2025-09-07T08:26:45Z","2025-09-07T08:26:49Z","2025-09-07T08:26:59Z","2025-09-07T08:27:02Z","2025-09-07T08:27:04Z","2025-09-07T08:27:07Z","2025-09-07T08:27:24Z","2025-09-07T08:27:25Z","2025-09-07T08:27:47Z","2025-09-07T08:27:48Z","2025-09-07T08:28:10Z","2025-09-07T08:28:11Z","2025-09-07T08:28:16Z","2025-09-07T08:28:17Z","2025-09-07T08:28:20Z","2025-09-07T08:28:22Z","2025-09-07T08:28:24Z","2025-09-07T08:28:26Z","2025-09-07T08:28:32Z","2025-09-07T08:28:34Z","2025-09-07T08:28:36Z","2025-09-07T08:28:41Z","2025-09-07T08:28:44Z","2025-09-07T08:28:52Z","2025-09-07T08:28:56Z","2025-09-07T08:29:01Z","2025-09-07T08:29:06Z","2025-09-07T08:29:08Z","2025-09-07T08:29:10Z","2025-09-07T08:29:14Z","2025-09-07T08:29:20Z","2025-09-07T08:29:23Z","2025-09-07T08:29:27Z","2025-09-07T08:29:30Z","2025-09-07T08:29:32Z","2025-09-07T08:29:35Z","2025-09-07T08:29:42Z","2025-09-07T08:30:11Z","2025-09-07T08:30:59Z","2025-09-07T08:31:59Z","2025-09-07T08:32:03Z","2025-09-07T08:32:08Z","2025-09-07T08:32:10Z","2025-09-07T08:32:13Z","2025-09-07T08:32:17Z","2025-09-07T08:32:18Z","2025-09-07T08:32:20Z","2025-09-07T08:32:23Z","2025-09-07T08:32:24Z","2025-09-07T08:32:26Z","2025-09-07T08:32:28Z","2025-09-07T08:32:29Z","2025-09-07T08:32:30Z","2025-09-07T08:32:36Z","2025-09-07T08:32:46Z","2025-09-07T08:32:50Z","2025-09-07T08:32:56Z","2025-09-07T08:33:01Z","2025-09-07T08:33:05Z","2025-09-07T08:33:16Z","2025-09-07T08:33:24Z","2025-09-07T08:33:34Z","2025-09-07T08:33:35Z","2025-09-07T08:33:36Z","2025-09-07T08:33:38Z","2025-09-07T08:33:41Z","2025-09-07T08:33:44Z","2025-09-07T08:33:57Z","2025-09-07T08:34:03Z","2025-09-07T08:34:05Z","2025-09-07T08:34:09Z","2025-09-07T08:34:14Z","2025-09-07T08:34:23Z","2025-09-07T08:34:25Z","2025-09-07T08:34:29Z","2025-09-07T08:34:32Z","2025-09-07T08:34:37Z","2025-09-07T08:34:42Z","2025-09-07T08:34:45Z","2025-09-07T08:34:49Z","2025-09-07T08:34:52Z","2025-09-07T08:34:56Z","2025-09-07T08:35:04Z","2025-09-07T08:35:05Z","2025-09-07T08:35:07Z","2025-09-07T08:35:10Z","2025-09-07T08:35:11Z","2025-09-07T08:35:13Z","2025-09-07T08:35:21Z","2025-09-07T08:35:27Z","2025-09-07T08:35:29Z","2025-09-07T08:35:30Z","2025-09-07T08:35:32Z","2025-09-07T08:35:36Z","2025-09-07T08:35:37Z","2025-09-07T08:35:38Z","2025-09-07T08:35:39Z","2025-09-07T08:35:40Z","2025-09-07T08:35:41Z","2025-09-07T08:35:42Z","2025-09-07T08:35:46Z","2025-09-07T08:36:06Z","2025-09-07T08:36:17Z","2025-09-07T08:36:41Z","2025-09-07T08:36:46Z","2025-09-07T08:36:54Z","2025-09-07T08:37:25Z","2025-09-07T08:37:26Z","2025-09-07T08:37:36Z","2025-09-07T08:37:46Z","2025-09-07T08:37:49Z","2025-09-07T08:37:54Z","2025-09-07T08:37:57Z","2025-09-07T08:38:03Z","2025-09-07T08:38:14Z","2025-09-07T08:38:30Z","2025-09-07T08:38:32Z","2025-09-07T08:38:38Z","2025-09-07T08:39:27Z","2025-09-07T08:39:35Z","2025-09-07T08:39:45Z","2025-09-07T08:40:25Z","2025-09-07T08:40:30Z","2025-09-07T08:40:31Z","2025-09-07T08:40:35Z","2025-09-07T08:40:46Z","2025-09-07T08:40:49Z","2025-09-07T08:40:52Z","2025-09-07T08:40:54Z","2025-09-07T08:40:57Z","2025-09-07T08:40:58Z","2025-09-07T08:40:59Z","2025-09-07T08:41:03Z","2025-09-07T08:41:06Z","2025-09-07T08:41:08Z","2025-09-07T08:41:10Z","2025-09-07T08:41:14Z","2025-09-07T08:41:29Z","2025-09-07T08:57:28Z","2025-09-07T08:59:28Z","2025-09-07T09:02:36Z","2025-09-07T09:04:59Z","2025-09-07T09:08:08Z","2025-09-07T09:12:54Z","2025-09-07T09:13:40Z","2025-09-07T09:16:26Z","2025-09-07T09:21:58Z","2025-09-07T09:30:16Z","2025-09-07T09:30:18Z","2025-09-07T09:30:39Z","2025-09-07T09:30:40Z","2025-09-07T09:30:43Z","2025-09-07T09:30:56Z","2025-09-07T09:31:02Z","2025-09-07T09:31:06Z","2025-09-07T09:31:14Z","2025-09-07T09:31:16Z","2025-09-07T09:31:21Z","2025-09-07T09:31:24Z","2025-09-07T09:31:39Z","2025-09-07T09:31:49Z","2025-09-07T09:31:55Z","2025-09-07T09:32:10Z","2025-09-07T09:32:13Z","2025-09-07T09:32:20Z","2025-09-07T09:33:02Z","2025-09-07T09:33:25Z","2025-09-07T09:33:30Z","2025-09-07T09:33:42Z","2025-09-07T09:33:46Z","2025-09-07T09:34:00Z","2025-09-07T09:34:03Z","2025-09-07T09:34:08Z","2025-09-07T09:34:12Z","2025-09-07T09:34:18Z","2025-09-07T09:34:21Z","2025-09-07T09:34:38Z","2025-09-07T09:34:46Z","2025-09-07T09:34:47Z","2025-09-07T09:34:54Z","2025-09-07T09:36:11Z","2025-09-07T09:36:30Z","2025-09-07T09:36:35Z","2025-09-07T09:36:41Z","2025-09-07T09:36:59Z","2025-09-07T09:37:12Z","2025-09-07T09:37:19Z","2025-09-07T09:37:26Z","2025-09-07T09:37:35Z","2025-09-07T09:37:45Z","2025-09-07T09:38:57Z","2025-09-07T09:39:29Z","2025-09-07T09:39:55Z","2025-09-07T09:40:05Z","2025-09-07T09:40:10Z","2025-09-07T09:40:17Z","2025-09-07T09:40:32Z","2025-09-07T09:40:40Z","2025-09-07T09:40:43Z","2025-09-07T09:40:48Z","2025-09-07T09:40:55Z","2025-09-07T09:41:13Z","2025-09-07T09:41:20Z","2025-09-07T09:41:26Z","2025-09-07T09:41:31Z","2025-09-07T09:41:43Z","2025-09-07T09:42:06Z","2025-09-07T09:42:12Z","2025-09-07T09:42:19Z","2025-09-07T09:42:21Z","2025-09-07T09:42:37Z","2025-09-07T09:43:03Z","2025-09-07T09:43:07Z","2025-09-07T09:43:20Z","2025-09-07T09:43:29Z","2025-09-07T09:43:35Z","2025-09-07T09:44:30Z","2025-09-07T09:44:52Z","2025-09-07T09:45:15Z","2025-09-07T09:45:20Z","2025-09-07T09:45:31Z","2025-09-07T09:45:36Z","2025-09-07T09:45:44Z","2025-09-07T09:46:00Z"],"heartRates":[74,70,70,95,95,95,95,95,95,95,95,95,95,95,95,95,95,95,95,95,95,95,95,95,95,95,95,95,95,95,95,95,95,95,95,95,95,95,95,95,95,95,95,95,95,95,95,95,95,95,95,95,95,95,95,95,95,95,95,95,95,95,95,95,95,95,95,95,95,95,95,95,95,95,95,95,95,95,95,95,95,95,95,95,95,95,95,95,95,95,95,95,95,95,95,95,95,95,95,95,95,95,87,87,87,87,87,87,87,87,87,90,90,90,90,90,90,90,90,90,80,80,80,80,80,80,92,92,92,92,92,92,92,92,92,92,92,92,92,92,92,92,92,92,92,93,88,83,83,86,83,83,83,84,84,84,84,84,85,83,83,83,84,84,84,84,84,84,84,84,84,84,84,84,84,84,84,84,84,84,84,84,83,87,87,87,87,87,87,87,87,99,99,97,97,94,94,93,93,91,91,91,97,97,99,99,98,98,102,93,92,89,90,93,93,95,93,93,95,98,112,114,114,115,95,94,93,92,94,98,100,100,97,94,99,100,104,104,103,104,100,98,98,98,99,96,99,105,104,101,100,100,100,100,97,99,99,95,96,98,102,99,98,100,98,98,100,98],"month":"2025-09-01"},"geometry":{"type":"LineString","coordinates":[[2.636202,48.408574,137.3],[2.63579,48.408549,137.3],[2.635761,48.408538,137.3],[2.635236,48.407983,132],[2.635251,48.407969,132],[2.635444,48.407882,132],[2.635449,48.407867,132],[2.635564,48.407775,132.4],[2.63558,48.407774,132.5],[2.635615,48.407745,132.6],[2.635631,48.407745,132.7],[2.635718,48.4077,133.1],[2.635774,48.407685,133.3],[2.635787,48.407668,133.4],[2.635824,48.40765,133.5],[2.635838,48.407652,133.6],[2.635861,48.407623,133.7],[2.635899,48.407616,133.8],[2.635912,48.407601,133.9],[2.635985,48.407564,134.1],[2.635995,48.407549,134.2],[2.636007,48.407423,134.8],[2.636029,48.407388,135],[2.636015,48.407383,135],[2.636006,48.407346,135.3],[2.635967,48.407281,135.7],[2.635974,48.407257,135.8],[2.636003,48.407242,136],[2.636045,48.407177,136.2],[2.636189,48.407091,136.4],[2.636183,48.407067,136.4],[2.636201,48.406898,135.8],[2.636194,48.406882,135.8],[2.636137,48.406868,135.6],[2.636146,48.40684,135.4],[2.636089,48.406822,135.2],[2.636045,48.406788,135],[2.636058,48.406736,134.8],[2.636053,48.406691,134.6],[2.636071,48.406635,134.4],[2.636066,48.406614,134.3],[2.636091,48.406574,134.2],[2.636093,48.406507,134],[2.636104,48.406478,133.9],[2.636097,48.406374,133.8],[2.636107,48.406332,133.7],[2.63608,48.40621,133.6],[2.63606,48.406189,133.6],[2.636065,48.406173,133.6],[2.636077,48.406178,133.5],[2.636199,48.406034,133.4],[2.636206,48.406003,133.4],[2.636031,48.405881,133.5],[2.636017,48.405847,133.5],[2.63589,48.405675,133.8],[2.635855,48.405662,133.8],[2.635822,48.405614,133.9],[2.635808,48.40561,134],[2.63579,48.405573,134],[2.635772,48.405577,134],[2.635757,48.405564,134.1],[2.635724,48.405564,134.1],[2.635664,48.405502,134.3],[2.635642,48.405495,134.4],[2.635599,48.405498,134.5],[2.635518,48.405471,134.7],[2.635499,48.405452,134.9],[2.635448,48.405428,135.1],[2.635461,48.405399,135.2],[2.635402,48.405355,135.5],[2.635285,48.405336,135.8],[2.635236,48.405342,135.9],[2.635214,48.405355,136],[2.635147,48.405366,136],[2.635108,48.405417,136.1],[2.63507,48.405417,136],[2.635031,48.40543,136],[2.634992,48.405457,136],[2.634982,48.405442,135.9],[2.634942,48.405436,135.9],[2.634818,48.405436,135.7],[2.634673,48.405553,135.6],[2.634219,48.405541,135.6],[2.63409,48.405531,135.6],[2.63407,48.405549,135.6],[2.634114,48.40554,135.6],[2.634113,48.405548,135.6],[2.634131,48.405541,135.6],[2.63413,48.405554,135.6],[2.634146,48.405553,135.6],[2.634135,48.405551,135.6],[2.634152,48.405534,135.6],[2.634143,48.405535,135.6],[2.634168,48.405533,135.6],[2.634162,48.40552,135.6],[2.634161,48.405528,135.6],[2.634154,48.405523,135.6],[2.634137,48.405528,135.6],[2.634167,48.405524,135.6],[2.634172,48.405533,135.6],[2.634147,48.405528,135.6],[2.634155,48.405521,135.6],[2.634158,48.405532,135.6],[2.634194,48.405501,135.6],[2.634227,48.4055,135.6],[2.634207,48.40553,135.6],[2.6342,48.405528,135.6],[2.634206,48.405537,135.6],[2.634216,48.405526,135.6],[2.634207,48.40553,135.6],[2.634218,48.405534,135.6],[2.634208,48.405568,135.6],[2.634185,48.405553,135.6],[2.634193,48.405562,135.6],[2.634202,48.405549,135.6],[2.634192,48.405559,135.6],[2.63416,48.405563,135.6],[2.634157,48.40557,135.6],[2.634149,48.405565,135.6],[2.634169,48.405554,135.6],[2.634152,48.405556,135.6],[2.634179,48.405541,135.6],[2.634188,48.405546,135.6],[2.634156,48.405539,135.6],[2.634143,48.405547,135.6],[2.63415,48.405538,135.6],[2.634173,48.40555,135.6],[2.634187,48.405542,135.6],[2.634172,48.405541,135.6],[2.634148,48.405569,135.6],[2.634133,48.405559,135.6],[2.634151,48.405559,135.6],[2.634149,48.405578,135.6],[2.634175,48.405554,135.6],[2.634163,48.405563,135.6],[2.634164,48.405553,135.6],[2.634167,48.405561,135.6],[2.634151,48.405571,135.6],[2.634149,48.405565,135.6],[2.634138,48.405568,135.6],[2.634131,48.405562,135.6],[2.634123,48.405568,135.6],[2.634129,48.405558,135.6],[2.634119,48.405561,135.6],[2.634149,48.405538,135.6],[2.634151,48.405551,135.6],[2.634175,48.405562,135.6],[2.634165,48.405567,135.6],[2.63419,48.405566,135.6],[2.634175,48.405556,135.6],[2.634183,48.405557,135.6],[2.634193,48.405518,135.6],[2.634195,48.405525,135.6],[2.634186,48.405521,135.6],[2.634179,48.405538,135.6],[2.634195,48.405537,135.6],[2.634176,48.405543,135.6],[2.634206,48.405533,135.6],[2.634177,48.405545,135.6],[2.634137,48.405538,135.6],[2.634126,48.405547,135.6],[2.634136,48.405555,135.6],[2.634173,48.40556,135.6],[2.634158,48.405564,135.6],[2.634176,48.405564,135.6],[2.634153,48.40551,135.6],[2.634142,48.405525,135.6],[2.634151,48.405524,135.6],[2.634133,48.405547,135.6],[2.634136,48.405575,135.6],[2.634111,48.405581,135.6],[2.634119,48.405589,135.6],[2.634113,48.405582,135.6],[2.634132,48.40558,135.6],[2.634134,48.40559,135.6],[2.634136,48.405581,135.6],[2.634122,48.405589,135.6],[2.634128,48.405578,135.6],[2.634112,48.405588,135.6],[2.634124,48.405591,135.6],[2.634119,48.40558,135.6],[2.634108,48.405592,135.6],[2.634156,48.405598,135.6],[2.633979,48.405547,135.6],[2.633492,48.405564,135.6],[2.633428,48.405669,135.6],[2.634126,48.405247,135.7],[2.634502,48.40575,135.6],[2.634256,48.405877,135.6],[2.633753,48.405825,135.6],[2.633883,48.405674,135.6],[2.633274,48.405941,134.5],[2.633217,48.405954,134.4],[2.632991,48.406032,134.1],[2.63294,48.406032,133.9],[2.632911,48.40604,133.9],[2.632669,48.406059,133.4],[2.63258,48.406059,133.2],[2.632522,48.406071,133.1],[2.632443,48.406072,133],[2.63242,48.406063,133],[2.632362,48.40606,132.9],[2.632325,48.406069,132.9],[2.632174,48.406139,132.9],[2.632075,48.406128,132.9],[2.632056,48.406134,132.9],[2.632051,48.406122,132.9],[2.632007,48.406099,132.9],[2.631816,48.406067,132.4],[2.631626,48.405982,132.1],[2.631369,48.405954,132],[2.631297,48.405969,131.9],[2.631165,48.406077,131.1],[2.631121,48.406123,130.9],[2.630961,48.406255,130.9],[2.630949,48.406288,131.1],[2.631003,48.406347,131.5],[2.631052,48.406372,131.8],[2.631064,48.406407,132.1],[2.631053,48.406422,132.2],[2.631148,48.406574,133.3],[2.631229,48.40661,133.5],[2.63124,48.406622,133.5],[2.631245,48.406679,133.7],[2.631333,48.406693,133.8],[2.631356,48.406765,133.9],[2.631407,48.406796,134],[2.631415,48.406856,134],[2.631488,48.407027,134.2],[2.631471,48.407143,134],[2.63149,48.407208,133.9],[2.631452,48.407291,133.8],[2.631442,48.407374,133.8],[2.631405,48.407414,133.8],[2.631584,48.407965,134.7],[2.63161,48.408305,135.2],[2.631724,48.408475,135.6],[2.631759,48.408497,135.6],[2.631803,48.408549,135.4],[2.631872,48.408592,135],[2.631973,48.408617,134.3],[2.632069,48.408619,134],[2.63206,48.408642,134.1],[2.632073,48.408662,134.2],[2.632104,48.408681,134.3],[2.6321,48.408686,134.4],[2.63218,48.408704,134.6],[2.632288,48.408698,134.9],[2.632389,48.408673,134.9],[2.632564,48.408652,134.9],[2.632943,48.408557,135.2],[2.63304,48.408591,135.2],[2.633156,48.40861,135.2],[2.633149,48.40861,135.2],[2.633168,48.408622,135.2],[2.633513,48.40874,135.7],[2.633555,48.408768,135.8],[2.633739,48.408847,136.1],[2.633887,48.408857,136.3],[2.634011,48.408849,136.3],[2.634887,48.409032,137],[2.635244,48.40903,137.1],[2.635589,48.408914,137.2],[2.635683,48.408899,137.2],[2.635841,48.408839,137.2],[2.63589,48.408804,137.2],[2.63599,48.408753,137.2],[2.636225,48.408669,137.1]]}}]}