{"type":"FeatureCollection","features":[{"type":"Feature","properties":{"name":"Costa Rica - Parque nacional Manuel Antonio","type":"marche","time":"2026-08-22T15:42:45Z","coordTimes":["2026-08-22T15:42:45Z","2026-08-22T15:42:59Z","2026-08-22T15:43:05Z","2026-08-22T15:43:10Z","2026-08-22T15:43:14Z","2026-08-22T15:43:16Z","2026-08-22T15:43:22Z","2026-08-22T15:43:28Z","2026-08-22T15:43:29Z","2026-08-22T15:43:35Z","2026-08-22T15:43:38Z","2026-08-22T15:43:45Z","2026-08-22T15:43:52Z","2026-08-22T15:43:57Z","2026-08-22T15:43:58Z","2026-08-22T15:44:11Z","2026-08-22T15:44:22Z","2026-08-22T15:44:25Z","2026-08-22T15:44:31Z","2026-08-22T15:44:36Z","2026-08-22T15:44:40Z","2026-08-22T15:44:41Z","2026-08-22T15:44:43Z","2026-08-22T15:44:48Z","2026-08-22T15:44:51Z","2026-08-22T15:44:54Z","2026-08-22T15:45:07Z","2026-08-22T15:45:09Z","2026-08-22T15:45:18Z","2026-08-22T15:45:31Z","2026-08-22T15:45:35Z","2026-08-22T15:45:39Z","2026-08-22T15:45:47Z","2026-08-22T15:45:54Z","2026-08-22T15:46:10Z","2026-08-22T15:46:20Z","2026-08-22T15:46:33Z","2026-08-22T15:46:35Z","2026-08-22T15:46:54Z","2026-08-22T15:47:00Z","2026-08-22T15:47:03Z","2026-08-22T15:47:04Z","2026-08-22T15:47:15Z","2026-08-22T15:47:20Z","2026-08-22T15:47:29Z","2026-08-22T15:47:33Z","2026-08-22T15:47:42Z","2026-08-22T15:47:44Z","2026-08-22T15:47:52Z","2026-08-22T15:48:00Z","2026-08-22T15:48:08Z","2026-08-22T15:48:13Z","2026-08-22T15:48:16Z","2026-08-22T15:48:20Z","2026-08-22T15:50:07Z","2026-08-22T15:50:12Z","2026-08-22T15:50:16Z","2026-08-22T15:50:33Z","2026-08-22T15:50:50Z","2026-08-22T15:50:51Z","2026-08-22T15:50:57Z","2026-08-22T15:51:23Z","2026-08-22T15:51:27Z","2026-08-22T15:51:48Z","2026-08-22T15:51:59Z","2026-08-22T15:52:02Z","2026-08-22T15:52:10Z","2026-08-22T15:52:31Z","2026-08-22T15:52:44Z","2026-08-22T15:53:24Z","2026-08-22T15:53:30Z","2026-08-22T15:53:33Z","2026-08-22T15:54:01Z","2026-08-22T15:54:06Z","2026-08-22T15:54:14Z","2026-08-22T15:54:24Z","2026-08-22T15:54:26Z","2026-08-22T15:54:31Z","2026-08-22T15:54:47Z","2026-08-22T15:54:51Z","2026-08-22T15:54:58Z","2026-08-22T15:55:10Z","2026-08-22T15:55:20Z","2026-08-22T15:55:40Z","2026-08-22T15:55:44Z","2026-08-22T15:55:51Z","2026-08-22T15:55:58Z","2026-08-22T15:56:10Z","2026-08-22T15:56:24Z","2026-08-22T15:56:33Z","2026-08-22T15:56:41Z","2026-08-22T15:56:46Z","2026-08-22T15:56:54Z","2026-08-22T15:57:00Z","2026-08-22T15:57:03Z","2026-08-22T15:57:19Z","2026-08-22T15:57:39Z","2026-08-22T15:57:41Z","2026-08-22T15:57:53Z","2026-08-22T15:58:02Z","2026-08-22T15:58:06Z","2026-08-22T15:58:17Z","2026-08-22T15:58:25Z","2026-08-22T15:58:31Z","2026-08-22T15:58:34Z","2026-08-22T15:58:42Z","2026-08-22T15:58:54Z","2026-08-22T15:58:59Z","2026-08-22T15:59:45Z","2026-08-22T15:59:57Z","2026-08-22T16:00:04Z","2026-08-22T16:00:09Z","2026-08-22T16:00:17Z","2026-08-22T16:00:22Z","2026-08-22T16:00:40Z","2026-08-22T16:00:53Z","2026-08-22T16:00:56Z","2026-08-22T16:00:58Z","2026-08-22T16:01:03Z","2026-08-22T16:01:12Z","2026-08-22T16:01:18Z","2026-08-22T16:01:21Z","2026-08-22T16:01:26Z","2026-08-22T16:01:27Z","2026-08-22T16:01:29Z","2026-08-22T16:01:31Z","2026-08-22T16:01:33Z","2026-08-22T16:01:39Z","2026-08-22T16:01:41Z","2026-08-22T16:01:49Z","2026-08-22T16:01:51Z","2026-08-22T16:01:55Z","2026-08-22T16:01:58Z","2026-08-22T16:02:01Z","2026-08-22T16:02:07Z","2026-08-22T16:02:19Z","2026-08-22T16:02:22Z","2026-08-22T16:02:27Z","2026-08-22T16:02:30Z","2026-08-22T16:02:35Z","2026-08-22T16:02:42Z","2026-08-22T16:02:50Z","2026-08-22T16:03:07Z","2026-08-22T16:03:10Z","2026-08-22T16:03:11Z","2026-08-22T16:03:30Z","2026-08-22T16:03:37Z","2026-08-22T16:03:49Z","2026-08-22T16:03:53Z","2026-08-22T16:04:01Z","2026-08-22T16:04:14Z","2026-08-22T16:04:24Z","2026-08-22T16:04:34Z","2026-08-22T16:04:39Z","2026-08-22T16:04:46Z","2026-08-22T16:04:56Z","2026-08-22T16:05:24Z","2026-08-22T16:05:29Z","2026-08-22T16:05:37Z","2026-08-22T16:05:43Z","2026-08-22T16:05:45Z","2026-08-22T16:05:50Z","2026-08-22T16:05:55Z","2026-08-22T16:06:14Z","2026-08-22T16:06:27Z","2026-08-22T16:06:30Z","2026-08-22T16:06:32Z","2026-08-22T16:06:34Z","2026-08-22T16:06:39Z","2026-08-22T16:06:49Z","2026-08-22T16:06:55Z","2026-08-22T16:07:07Z","2026-08-22T16:07:15Z","2026-08-22T16:07:21Z","2026-08-22T16:07:28Z","2026-08-22T16:07:32Z","2026-08-22T16:07:36Z","2026-08-22T16:07:37Z","2026-08-22T16:07:40Z","2026-08-22T16:08:12Z","2026-08-22T16:08:52Z","2026-08-22T16:09:18Z","2026-08-22T16:09:21Z","2026-08-22T16:09:23Z","2026-08-22T16:09:26Z","2026-08-22T16:09:29Z","2026-08-22T16:09:35Z","2026-08-22T16:09:40Z","2026-08-22T16:09:45Z","2026-08-22T16:09:55Z","2026-08-22T16:10:05Z","2026-08-22T16:10:09Z","2026-08-22T16:10:14Z","2026-08-22T16:10:29Z","2026-08-22T16:10:32Z","2026-08-22T16:10:38Z","2026-08-22T16:10:55Z","2026-08-22T16:11:08Z","2026-08-22T16:11:12Z","2026-08-22T16:11:14Z","2026-08-22T16:11:23Z","2026-08-22T16:11:29Z","2026-08-22T16:11:33Z","2026-08-22T16:11:39Z","2026-08-22T16:11:43Z","2026-08-22T16:11:53Z","2026-08-22T16:12:02Z","2026-08-22T16:12:17Z","2026-08-22T16:12:21Z","2026-08-22T16:12:24Z","2026-08-22T16:12:28Z","2026-08-22T16:12:33Z","2026-08-22T16:13:03Z","2026-08-22T16:13:07Z","2026-08-22T16:13:11Z","2026-08-22T16:13:16Z","2026-08-22T16:13:22Z","2026-08-22T16:13:31Z","2026-08-22T16:13:38Z","2026-08-22T16:13:50Z","2026-08-22T16:13:54Z","2026-08-22T16:14:01Z","2026-08-22T16:14:05Z","2026-08-22T16:14:15Z","2026-08-22T16:14:32Z","2026-08-22T16:14:49Z","2026-08-22T16:14:52Z","2026-08-22T16:14:58Z","2026-08-22T16:15:07Z","2026-08-22T16:15:21Z","2026-08-22T16:15:25Z","2026-08-22T16:15:28Z","2026-08-22T16:15:38Z","2026-08-22T16:15:44Z","2026-08-22T16:15:50Z","2026-08-22T16:15:56Z","2026-08-22T16:16:01Z","2026-08-22T16:16:16Z","2026-08-22T16:16:22Z","2026-08-22T16:16:35Z","2026-08-22T16:16:38Z","2026-08-22T16:17:48Z","2026-08-22T16:17:49Z","2026-08-22T16:19:22Z","2026-08-22T16:19:56Z","2026-08-22T16:20:01Z","2026-08-22T16:20:04Z","2026-08-22T16:20:14Z","2026-08-22T16:20:16Z","2026-08-22T16:21:18Z","2026-08-22T16:21:42Z","2026-08-22T16:21:48Z","2026-08-22T16:21:55Z","2026-08-22T16:22:00Z","2026-08-22T16:22:55Z","2026-08-22T16:23:59Z","2026-08-22T16:24:03Z","2026-08-22T16:24:12Z","2026-08-22T16:24:28Z","2026-08-22T16:24:31Z","2026-08-22T16:24:34Z","2026-08-22T16:24:42Z","2026-08-22T16:24:44Z","2026-08-22T16:24:47Z","2026-08-22T16:25:37Z","2026-08-22T16:25:57Z","2026-08-22T16:25:59Z","2026-08-22T16:26:02Z","2026-08-22T16:26:12Z","2026-08-22T16:26:20Z","2026-08-22T16:26:30Z","2026-08-22T16:26:38Z","2026-08-22T16:26:41Z","2026-08-22T16:26:49Z","2026-08-22T16:27:06Z","2026-08-22T16:27:19Z","2026-08-22T16:27:25Z","2026-08-22T16:27:50Z","2026-08-22T16:27:54Z","2026-08-22T16:28:26Z","2026-08-22T16:28:51Z","2026-08-22T16:28:59Z","2026-08-22T16:29:07Z","2026-08-22T16:29:15Z","2026-08-22T16:29:30Z","2026-08-22T16:29:33Z","2026-08-22T16:29:37Z","2026-08-22T16:29:48Z","2026-08-22T16:30:01Z","2026-08-22T16:30:12Z","2026-08-22T16:30:30Z","2026-08-22T16:30:35Z","2026-08-22T16:30:46Z","2026-08-22T16:30:53Z","2026-08-22T16:30:58Z","2026-08-22T16:32:04Z","2026-08-22T16:32:10Z","2026-08-22T16:33:08Z","2026-08-22T16:33:17Z","2026-08-22T16:33:24Z","2026-08-22T16:33:27Z","2026-08-22T16:33:30Z","2026-08-22T16:33:37Z","2026-08-22T16:33:39Z","2026-08-22T16:33:45Z","2026-08-22T16:33:52Z","2026-08-22T16:33:58Z","2026-08-22T16:34:05Z","2026-08-22T16:34:12Z","2026-08-22T16:34:17Z","2026-08-22T16:34:33Z","2026-08-22T16:34:38Z","2026-08-22T16:34:44Z","2026-08-22T16:34:50Z","2026-08-22T16:35:02Z","2026-08-22T16:35:06Z","2026-08-22T16:35:09Z","2026-08-22T16:35:12Z","2026-08-22T16:35:15Z","2026-08-22T16:35:18Z","2026-08-22T16:35:26Z","2026-08-22T16:35:31Z","2026-08-22T16:35:35Z","2026-08-22T16:35:38Z","2026-08-22T16:35:48Z","2026-08-22T16:35:52Z","2026-08-22T16:36:07Z","2026-08-22T16:36:13Z","2026-08-22T16:36:14Z","2026-08-22T16:36:15Z","2026-08-22T16:36:16Z","2026-08-22T16:36:23Z","2026-08-22T16:36:34Z","2026-08-22T16:36:36Z","2026-08-22T16:36:38Z","2026-08-22T16:36:45Z","2026-08-22T16:36:51Z","2026-08-22T16:36:57Z","2026-08-22T16:37:05Z","2026-08-22T16:37:08Z","2026-08-22T16:37:15Z","2026-08-22T16:37:20Z","2026-08-22T16:37:27Z","2026-08-22T16:37:30Z","2026-08-22T16:37:37Z","2026-08-22T16:37:41Z","2026-08-22T16:38:03Z","2026-08-22T16:38:10Z","2026-08-22T16:38:12Z","2026-08-22T16:38:15Z","2026-08-22T16:38:24Z","2026-08-22T16:38:29Z","2026-08-22T16:38:34Z","2026-08-22T16:39:00Z","2026-08-22T16:39:03Z","2026-08-22T16:39:05Z","2026-08-22T16:39:11Z","2026-08-22T16:39:13Z","2026-08-22T16:39:19Z","2026-08-22T16:39:26Z","2026-08-22T16:39:30Z","2026-08-22T16:39:33Z","2026-08-22T16:39:35Z","2026-08-22T16:39:43Z","2026-08-22T16:39:48Z","2026-08-22T16:39:52Z","2026-08-22T16:39:59Z","2026-08-22T16:40:02Z","2026-08-22T16:40:06Z","2026-08-22T16:40:11Z","2026-08-22T16:40:14Z","2026-08-22T16:40:26Z","2026-08-22T16:40:29Z","2026-08-22T16:40:32Z","2026-08-22T16:40:55Z","2026-08-22T16:40:56Z","2026-08-22T16:40:58Z","2026-08-22T16:41:02Z","2026-08-22T16:41:06Z","2026-08-22T16:41:14Z","2026-08-22T16:41:17Z","2026-08-22T16:41:46Z","2026-08-22T16:42:08Z","2026-08-22T16:42:15Z","2026-08-22T16:42:22Z","2026-08-22T16:42:25Z","2026-08-22T16:42:28Z","2026-08-22T16:42:31Z","2026-08-22T16:42:37Z","2026-08-22T16:42:40Z","2026-08-22T16:42:43Z","2026-08-22T16:42:48Z","2026-08-22T16:42:53Z","2026-08-22T16:43:15Z","2026-08-22T16:43:23Z","2026-08-22T16:43:29Z","2026-08-22T16:43:31Z","2026-08-22T16:43:41Z","2026-08-22T16:43:44Z","2026-08-22T16:43:56Z","2026-08-22T16:43:59Z","2026-08-22T16:44:03Z","2026-08-22T16:44:10Z","2026-08-22T16:44:16Z","2026-08-22T16:44:17Z","2026-08-22T16:44:22Z","2026-08-22T16:44:25Z","2026-08-22T16:44:33Z","2026-08-22T16:44:36Z","2026-08-22T16:44:42Z","2026-08-22T16:44:59Z","2026-08-22T16:45:16Z","2026-08-22T16:45:28Z","2026-08-22T16:45:30Z","2026-08-22T16:45:36Z","2026-08-22T16:45:40Z","2026-08-22T16:46:03Z","2026-08-22T16:46:04Z","2026-08-22T16:46:08Z","2026-08-22T16:46:28Z","2026-08-22T16:46:29Z","2026-08-22T16:46:50Z","2026-08-22T16:47:19Z","2026-08-22T16:47:22Z","2026-08-22T16:47:24Z","2026-08-22T16:47:32Z","2026-08-22T16:47:42Z","2026-08-22T16:47:44Z","2026-08-22T16:47:54Z","2026-08-22T16:48:04Z","2026-08-22T16:48:08Z","2026-08-22T16:48:18Z","2026-08-22T16:48:26Z","2026-08-22T16:48:34Z","2026-08-22T16:48:53Z","2026-08-22T16:49:02Z","2026-08-22T16:49:05Z","2026-08-22T16:49:06Z","2026-08-22T16:49:13Z","2026-08-22T16:49:31Z","2026-08-22T16:49:35Z","2026-08-22T16:49:39Z","2026-08-22T16:49:46Z","2026-08-22T16:49:47Z","2026-08-22T16:49:50Z","2026-08-22T16:49:52Z","2026-08-22T16:49:53Z","2026-08-22T16:49:59Z","2026-08-22T16:50:06Z","2026-08-22T16:50:10Z","2026-08-22T16:50:13Z","2026-08-22T16:50:21Z","2026-08-22T16:50:28Z","2026-08-22T16:50:33Z","2026-08-22T16:50:44Z","2026-08-22T16:50:54Z","2026-08-22T16:51:05Z","2026-08-22T16:51:11Z","2026-08-22T16:51:25Z","2026-08-22T16:51:34Z","2026-08-22T16:51:36Z","2026-08-22T16:51:43Z","2026-08-22T16:51:50Z","2026-08-22T16:51:54Z","2026-08-22T16:52:08Z","2026-08-22T16:52:12Z","2026-08-22T16:52:23Z","2026-08-22T16:52:44Z","2026-08-22T16:53:09Z","2026-08-22T16:53:38Z","2026-08-22T16:53:42Z","2026-08-22T16:53:53Z","2026-08-22T16:54:01Z","2026-08-22T16:54:18Z","2026-08-22T16:55:13Z","2026-08-22T16:55:18Z","2026-08-22T16:55:29Z","2026-08-22T16:55:34Z","2026-08-22T16:55:59Z","2026-08-22T16:56:00Z","2026-08-22T16:56:01Z","2026-08-22T16:56:08Z","2026-08-22T16:56:11Z","2026-08-22T16:56:17Z","2026-08-22T16:56:28Z","2026-08-22T16:56:31Z","2026-08-22T16:56:32Z","2026-08-22T16:56:50Z","2026-08-22T16:56:52Z","2026-08-22T16:57:04Z","2026-08-22T16:57:14Z","2026-08-22T16:57:24Z","2026-08-22T16:57:30Z","2026-08-22T16:57:34Z","2026-08-22T16:57:40Z","2026-08-22T16:57:44Z","2026-08-22T16:57:50Z","2026-08-22T16:57:53Z","2026-08-22T16:57:55Z","2026-08-22T16:58:04Z","2026-08-22T16:58:07Z","2026-08-22T16:58:17Z","2026-08-22T16:58:29Z","2026-08-22T16:58:49Z","2026-08-22T16:58:56Z","2026-08-22T16:59:01Z","2026-08-22T16:59:05Z","2026-08-22T16:59:17Z","2026-08-22T16:59:20Z","2026-08-22T16:59:29Z","2026-08-22T16:59:36Z","2026-08-22T16:59:54Z","2026-08-22T17:00:09Z","2026-08-22T17:00:14Z","2026-08-22T17:00:19Z","2026-08-22T17:00:25Z","2026-08-22T17:00:34Z","2026-08-22T17:00:38Z","2026-08-22T17:00:40Z","2026-08-22T17:00:46Z","2026-08-22T17:00:47Z","2026-08-22T17:00:51Z","2026-08-22T17:01:14Z","2026-08-22T17:01:19Z","2026-08-22T17:01:22Z","2026-08-22T17:01:28Z","2026-08-22T17:01:35Z","2026-08-22T17:01:38Z","2026-08-22T17:01:46Z","2026-08-22T17:02:48Z","2026-08-22T17:03:44Z","2026-08-22T17:03:53Z","2026-08-22T17:04:33Z","2026-08-22T17:04:52Z","2026-08-22T17:05:03Z","2026-08-22T17:05:14Z","2026-08-22T17:05:28Z","2026-08-22T17:05:30Z","2026-08-22T17:06:18Z","2026-08-22T17:06:22Z","2026-08-22T17:07:17Z","2026-08-22T17:07:27Z","2026-08-22T17:07:30Z","2026-08-22T17:07:41Z","2026-08-22T17:07:45Z","2026-08-22T17:07:52Z","2026-08-22T17:07:57Z","2026-08-22T17:07:59Z","2026-08-22T17:08:06Z","2026-08-22T17:08:08Z","2026-08-22T17:08:13Z","2026-08-22T17:08:31Z","2026-08-22T17:08:36Z","2026-08-22T17:08:55Z","2026-08-22T17:08:57Z","2026-08-22T17:09:06Z","2026-08-22T17:09:15Z","2026-08-22T17:09:25Z","2026-08-22T17:09:28Z","2026-08-22T17:09:32Z","2026-08-22T17:09:45Z","2026-08-22T17:09:48Z","2026-08-22T17:09:55Z","2026-08-22T17:10:03Z","2026-08-22T17:10:15Z","2026-08-22T17:10:18Z","2026-08-22T17:10:32Z","2026-08-22T17:10:40Z","2026-08-22T17:11:02Z","2026-08-22T17:11:05Z","2026-08-22T17:11:10Z","2026-08-22T17:11:18Z","2026-08-22T17:11:21Z","2026-08-22T17:11:32Z","2026-08-22T17:11:48Z","2026-08-22T17:12:05Z","2026-08-22T17:12:29Z","2026-08-22T17:12:33Z","2026-08-22T17:12:47Z","2026-08-22T17:12:59Z","2026-08-22T17:13:03Z","2026-08-22T17:13:19Z","2026-08-22T17:13:29Z","2026-08-22T17:13:52Z","2026-08-22T17:14:07Z","2026-08-22T17:14:12Z","2026-08-22T17:14:21Z","2026-08-22T17:14:24Z","2026-08-22T17:14:31Z","2026-08-22T17:14:40Z","2026-08-22T17:14:51Z","2026-08-22T17:14:59Z","2026-08-22T17:15:11Z","2026-08-22T17:15:47Z","2026-08-22T17:16:05Z","2026-08-22T17:16:43Z","2026-08-22T17:16:56Z","2026-08-22T17:17:40Z","2026-08-22T17:18:29Z","2026-08-22T17:18:52Z","2026-08-22T17:20:08Z","2026-08-22T17:20:35Z","2026-08-22T17:20:49Z","2026-08-22T17:20:56Z","2026-08-22T17:21:26Z","2026-08-22T17:21:37Z","2026-08-22T17:23:08Z","2026-08-22T17:23:21Z","2026-08-22T17:23:33Z","2026-08-22T17:23:57Z","2026-08-22T17:24:01Z","2026-08-22T17:24:28Z","2026-08-22T17:24:40Z","2026-08-22T17:24:50Z","2026-08-22T17:25:00Z","2026-08-22T17:25:05Z","2026-08-22T17:25:10Z","2026-08-22T17:25:12Z","2026-08-22T17:25:19Z","2026-08-22T17:25:31Z","2026-08-22T17:25:36Z","2026-08-22T17:25:53Z","2026-08-22T17:26:03Z","2026-08-22T17:26:32Z","2026-08-22T17:26:38Z","2026-08-22T17:26:43Z","2026-08-22T17:26:45Z","2026-08-22T17:26:57Z","2026-08-22T17:27:20Z","2026-08-22T17:27:33Z","2026-08-22T17:27:35Z","2026-08-22T17:27:56Z","2026-08-22T17:28:05Z","2026-08-22T17:28:08Z","2026-08-22T17:28:42Z","2026-08-22T17:29:12Z","2026-08-22T17:29:24Z","2026-08-22T17:29:29Z","2026-08-22T17:29:52Z","2026-08-22T17:30:51Z","2026-08-22T17:31:11Z","2026-08-22T17:31:19Z","2026-08-22T17:31:56Z","2026-08-22T17:32:15Z","2026-08-22T17:32:25Z","2026-08-22T17:34:10Z","2026-08-22T17:35:11Z","2026-08-22T17:37:39Z","2026-08-22T17:37:41Z","2026-08-22T17:37:50Z","2026-08-22T17:39:35Z","2026-08-22T17:39:42Z","2026-08-22T17:40:21Z","2026-08-22T17:40:22Z","2026-08-22T17:40:34Z","2026-08-22T17:41:31Z","2026-08-22T17:41:34Z","2026-08-22T17:41:36Z","2026-08-22T17:41:45Z","2026-08-22T17:42:05Z","2026-08-22T17:42:10Z","2026-08-22T17:42:38Z","2026-08-22T17:42:39Z","2026-08-22T17:42:42Z","2026-08-22T17:42:44Z","2026-08-22T17:42:45Z","2026-08-22T17:42:47Z","2026-08-22T17:42:50Z","2026-08-22T17:43:14Z","2026-08-22T17:43:32Z","2026-08-22T17:43:33Z","2026-08-22T17:43:43Z","2026-08-22T17:43:53Z","2026-08-22T17:43:57Z","2026-08-22T17:44:01Z","2026-08-22T17:44:15Z","2026-08-22T17:44:23Z","2026-08-22T17:44:27Z","2026-08-22T17:44:42Z","2026-08-22T17:44:49Z","2026-08-22T17:44:57Z","2026-08-22T17:45:06Z","2026-08-22T17:45:08Z","2026-08-22T17:45:14Z","2026-08-22T17:45:20Z","2026-08-22T17:45:27Z","2026-08-22T17:45:32Z","2026-08-22T17:45:39Z","2026-08-22T17:45:50Z","2026-08-22T17:46:12Z","2026-08-22T17:48:05Z","2026-08-22T17:48:37Z","2026-08-22T17:50:34Z","2026-08-22T17:51:14Z","2026-08-22T17:53:44Z","2026-08-22T17:53:53Z","2026-08-22T17:54:26Z","2026-08-22T17:54:53Z","2026-08-22T17:55:30Z","2026-08-22T17:55:44Z","2026-08-22T17:55:51Z","2026-08-22T17:56:07Z","2026-08-22T17:56:23Z","2026-08-22T17:57:12Z","2026-08-22T17:57:27Z","2026-08-22T17:57:43Z","2026-08-22T17:57:57Z","2026-08-22T17:58:03Z","2026-08-22T17:58:38Z","2026-08-22T17:58:59Z","2026-08-22T17:59:07Z","2026-08-22T17:59:25Z","2026-08-22T17:59:30Z","2026-08-22T17:59:34Z","2026-08-22T17:59:58Z","2026-08-22T18:02:58Z","2026-08-22T18:03:34Z","2026-08-22T18:04:06Z","2026-08-22T18:04:09Z","2026-08-22T18:04:17Z","2026-08-22T18:04:35Z","2026-08-22T18:05:00Z","2026-08-22T18:05:12Z","2026-08-22T18:05:18Z","2026-08-22T18:05:22Z","2026-08-22T18:05:27Z","2026-08-22T18:05:33Z","2026-08-22T18:05:40Z","2026-08-22T18:06:04Z","2026-08-22T18:06:07Z","2026-08-22T18:06:22Z","2026-08-22T18:07:02Z","2026-08-22T18:07:12Z","2026-08-22T18:07:23Z","2026-08-22T18:07:39Z","2026-08-22T18:08:30Z","2026-08-22T18:08:44Z","2026-08-22T18:08:48Z","2026-08-22T18:08:51Z","2026-08-22T18:09:40Z","2026-08-22T18:09:41Z","2026-08-22T18:09:42Z","2026-08-22T18:09:43Z","2026-08-22T18:11:17Z","2026-08-22T18:11:18Z","2026-08-22T18:11:19Z","2026-08-22T18:12:19Z","2026-08-22T18:12:20Z","2026-08-22T18:12:21Z","2026-08-22T18:12:22Z","2026-08-22T18:12:56Z","2026-08-22T18:12:57Z","2026-08-22T18:13:18Z","2026-08-22T18:13:28Z","2026-08-22T18:13:42Z","2026-08-22T18:13:43Z","2026-08-22T18:13:47Z","2026-08-22T18:13:51Z","2026-08-22T18:13:52Z","2026-08-22T18:14:00Z","2026-08-22T18:14:05Z","2026-08-22T18:14:07Z","2026-08-22T18:14:13Z","2026-08-22T18:14:18Z","2026-08-22T18:15:40Z","2026-08-22T18:15:42Z","2026-08-22T18:15:45Z","2026-08-22T18:15:46Z","2026-08-22T18:15:50Z","2026-08-22T18:15:53Z","2026-08-22T18:16:01Z","2026-08-22T18:16:05Z","2026-08-22T18:16:21Z","2026-08-22T18:16:26Z","2026-08-22T18:17:00Z","2026-08-22T18:17:02Z","2026-08-22T18:17:03Z","2026-08-22T18:17:05Z","2026-08-22T18:17:11Z","2026-08-22T18:17:14Z","2026-08-22T18:17:15Z","2026-08-22T18:18:37Z","2026-08-22T18:18:46Z","2026-08-22T18:20:07Z","2026-08-22T18:20:54Z","2026-08-22T18:20:56Z","2026-08-22T18:20:57Z","2026-08-22T18:21:04Z","2026-08-22T18:21:07Z","2026-08-22T18:21:11Z","2026-08-22T18:21:22Z","2026-08-22T18:21:27Z","2026-08-22T18:21:34Z","2026-08-22T18:21:47Z","2026-08-22T18:22:01Z","2026-08-22T18:22:03Z","2026-08-22T18:22:10Z","2026-08-22T18:22:43Z","2026-08-22T18:24:12Z","2026-08-22T18:24:19Z","2026-08-22T18:24:22Z","2026-08-22T18:25:20Z","2026-08-22T18:27:04Z","2026-08-22T18:27:33Z","2026-08-22T18:28:25Z","2026-08-22T18:28:43Z","2026-08-22T18:29:12Z","2026-08-22T18:29:42Z","2026-08-22T18:31:16Z","2026-08-22T18:32:23Z","2026-08-22T18:33:07Z","2026-08-22T18:33:42Z","2026-08-22T18:34:46Z","2026-08-22T18:34:49Z","2026-08-22T18:35:21Z","2026-08-22T18:36:10Z","2026-08-22T18:37:27Z","2026-08-22T18:37:58Z","2026-08-22T18:38:05Z","2026-08-22T18:38:11Z","2026-08-22T18:38:19Z","2026-08-22T18:38:56Z","2026-08-22T18:39:07Z","2026-08-22T18:39:21Z","2026-08-22T18:39:31Z","2026-08-22T18:39:45Z","2026-08-22T18:39:50Z","2026-08-22T18:39:56Z","2026-08-22T18:39:59Z","2026-08-22T18:40:07Z","2026-08-22T18:40:12Z","2026-08-22T18:40:17Z","2026-08-22T18:40:31Z","2026-08-22T18:40:34Z","2026-08-22T18:40:46Z","2026-08-22T18:41:03Z","2026-08-22T18:41:13Z","2026-08-22T18:41:17Z","2026-08-22T18:41:37Z","2026-08-22T18:41:44Z","2026-08-22T18:41:47Z","2026-08-22T18:41:51Z","2026-08-22T18:41:54Z","2026-08-22T18:42:20Z","2026-08-22T18:42:23Z","2026-08-22T18:42:26Z","2026-08-22T18:42:31Z","2026-08-22T18:42:40Z","2026-08-22T18:42:50Z","2026-08-22T18:43:02Z","2026-08-22T18:43:10Z","2026-08-22T18:43:25Z","2026-08-22T18:43:32Z","2026-08-22T18:43:39Z","2026-08-22T18:43:49Z","2026-08-22T18:44:00Z","2026-08-22T18:44:06Z","2026-08-22T18:44:16Z","2026-08-22T18:44:19Z","2026-08-22T18:44:30Z","2026-08-22T18:44:39Z","2026-08-22T18:44:45Z","2026-08-22T18:44:47Z","2026-08-22T18:44:49Z","2026-08-22T18:46:40Z","2026-08-22T18:46:49Z","2026-08-22T18:47:11Z","2026-08-22T18:47:12Z","2026-08-22T18:47:32Z","2026-08-22T18:48:10Z","2026-08-22T18:48:20Z","2026-08-22T18:50:26Z","2026-08-22T18:50:30Z","2026-08-22T18:50:41Z","2026-08-22T18:50:44Z","2026-08-22T18:50:45Z","2026-08-22T18:51:17Z","2026-08-22T18:51:25Z","2026-08-22T18:51:56Z","2026-08-22T18:52:23Z","2026-08-22T18:52:41Z","2026-08-22T18:53:58Z","2026-08-22T18:54:05Z","2026-08-22T18:54:09Z","2026-08-22T18:54:16Z","2026-08-22T18:54:19Z","2026-08-22T18:54:37Z","2026-08-22T18:55:10Z","2026-08-22T18:55:21Z","2026-08-22T18:55:28Z","2026-08-22T18:55:32Z","2026-08-22T18:55:39Z","2026-08-22T18:55:53Z","2026-08-22T18:56:07Z","2026-08-22T18:56:09Z","2026-08-22T18:56:16Z","2026-08-22T18:56:23Z","2026-08-22T18:56:34Z","2026-08-22T18:56:41Z","2026-08-22T18:56:53Z","2026-08-22T18:56:58Z","2026-08-22T18:57:11Z","2026-08-22T18:57:12Z","2026-08-22T18:57:15Z","2026-08-22T18:57:22Z","2026-08-22T18:57:26Z","2026-08-22T18:57:33Z","2026-08-22T18:57:39Z","2026-08-22T18:57:52Z","2026-08-22T18:57:57Z","2026-08-22T18:58:05Z","2026-08-22T18:58:06Z","2026-08-22T18:58:18Z","2026-08-22T18:58:27Z","2026-08-22T18:58:35Z","2026-08-22T18:58:41Z","2026-08-22T18:58:53Z","2026-08-22T18:59:00Z","2026-08-22T18:59:03Z","2026-08-22T18:59:06Z","2026-08-22T18:59:08Z","2026-08-22T18:59:12Z","2026-08-22T18:59:16Z","2026-08-22T18:59:23Z","2026-08-22T18:59:26Z","2026-08-22T18:59:30Z","2026-08-22T18:59:33Z","2026-08-22T18:59:42Z","2026-08-22T18:59:45Z","2026-08-22T18:59:52Z","2026-08-22T19:00:06Z","2026-08-22T19:00:07Z","2026-08-22T19:00:35Z","2026-08-22T19:00:37Z","2026-08-22T19:00:42Z","2026-08-22T19:00:45Z","2026-08-22T19:00:46Z","2026-08-22T19:00:52Z","2026-08-22T19:01:02Z","2026-08-22T19:01:03Z","2026-08-22T19:01:07Z","2026-08-22T19:01:12Z","2026-08-22T19:01:15Z","2026-08-22T19:01:17Z","2026-08-22T19:01:18Z","2026-08-22T19:01:27Z","2026-08-22T19:01:28Z","2026-08-22T19:01:33Z","2026-08-22T19:01:45Z","2026-08-22T19:01:50Z","2026-08-22T19:01:52Z","2026-08-22T19:01:55Z","2026-08-22T19:01:59Z","2026-08-22T19:02:00Z","2026-08-22T19:02:02Z","2026-08-22T19:02:07Z","2026-08-22T19:02:08Z","2026-08-22T19:02:09Z","2026-08-22T19:02:15Z","2026-08-22T19:02:16Z","2026-08-22T19:02:21Z","2026-08-22T19:12:12Z","2026-08-22T19:12:14Z","2026-08-22T19:12:15Z","2026-08-22T19:12:18Z","2026-08-22T19:12:25Z","2026-08-22T19:12:27Z","2026-08-22T19:12:31Z","2026-08-22T19:12:33Z","2026-08-22T19:12:49Z","2026-08-22T19:12:57Z","2026-08-22T19:13:01Z","2026-08-22T19:13:05Z","2026-08-22T19:13:08Z","2026-08-22T19:13:11Z","2026-08-22T19:13:20Z","2026-08-22T19:13:25Z","2026-08-22T19:13:26Z","2026-08-22T19:13:37Z","2026-08-22T19:13:56Z","2026-08-22T19:14:07Z","2026-08-22T19:14:15Z","2026-08-22T19:14:19Z","2026-08-22T19:14:20Z","2026-08-22T19:14:48Z","2026-08-22T19:14:53Z","2026-08-22T19:14:59Z","2026-08-22T19:15:09Z","2026-08-22T19:15:10Z","2026-08-22T19:15:54Z","2026-08-22T19:16:02Z","2026-08-22T19:16:07Z","2026-08-22T19:16:11Z","2026-08-22T19:16:12Z","2026-08-22T19:16:21Z","2026-08-22T19:16:27Z","2026-08-22T19:16:30Z","2026-08-22T19:16:37Z","2026-08-22T19:16:39Z","2026-08-22T19:16:40Z","2026-08-22T19:16:51Z","2026-08-22T19:16:56Z","2026-08-22T19:17:00Z","2026-08-22T19:17:07Z","2026-08-22T19:17:30Z","2026-08-22T19:17:39Z","2026-08-22T19:17:41Z","2026-08-22T19:17:48Z","2026-08-22T19:17:57Z","2026-08-22T19:18:02Z","2026-08-22T19:18:16Z","2026-08-22T19:18:36Z","2026-08-22T19:18:50Z","2026-08-22T19:18:59Z","2026-08-22T19:19:01Z","2026-08-22T19:19:17Z","2026-08-22T19:19:19Z","2026-08-22T19:19:25Z","2026-08-22T19:19:32Z","2026-08-22T19:19:37Z","2026-08-22T19:19:40Z","2026-08-22T19:19:44Z","2026-08-22T19:19:48Z","2026-08-22T19:19:56Z","2026-08-22T19:19:58Z","2026-08-22T19:19:59Z","2026-08-22T19:20:05Z","2026-08-22T19:20:11Z","2026-08-22T19:20:12Z","2026-08-22T19:20:14Z","2026-08-22T19:20:18Z","2026-08-22T19:20:22Z","2026-08-22T19:20:29Z","2026-08-22T19:20:33Z","2026-08-22T19:20:34Z","2026-08-22T19:20:37Z","2026-08-22T19:20:40Z","2026-08-22T19:20:47Z","2026-08-22T19:20:54Z","2026-08-22T19:20:56Z","2026-08-22T19:21:01Z","2026-08-22T19:21:04Z","2026-08-22T19:21:09Z","2026-08-22T19:21:12Z","2026-08-22T19:21:13Z","2026-08-22T19:21:14Z","2026-08-22T19:21:20Z","2026-08-22T19:21:27Z","2026-08-22T19:21:30Z","2026-08-22T19:21:41Z","2026-08-22T19:21:45Z","2026-08-22T19:21:47Z","2026-08-22T19:21:50Z","2026-08-22T19:21:54Z","2026-08-22T19:22:08Z","2026-08-22T19:22:09Z","2026-08-22T19:22:15Z","2026-08-22T19:22:17Z","2026-08-22T19:22:20Z","2026-08-22T19:22:23Z","2026-08-22T19:22:40Z","2026-08-22T19:22:46Z","2026-08-22T19:22:55Z","2026-08-22T19:23:14Z","2026-08-22T19:23:29Z","2026-08-22T19:23:31Z","2026-08-22T19:23:35Z","2026-08-22T19:23:37Z","2026-08-22T19:23:41Z","2026-08-22T19:23:44Z","2026-08-22T19:23:54Z","2026-08-22T19:23:55Z","2026-08-22T19:23:58Z","2026-08-22T19:24:02Z","2026-08-22T19:24:03Z","2026-08-22T19:24:06Z","2026-08-22T19:24:07Z","2026-08-22T19:24:11Z","2026-08-22T19:24:16Z","2026-08-22T19:24:18Z","2026-08-22T19:24:19Z","2026-08-22T19:24:20Z","2026-08-22T19:24:24Z","2026-08-22T19:24:25Z","2026-08-22T19:24:30Z","2026-08-22T19:24:37Z","2026-08-22T19:24:41Z","2026-08-22T19:24:45Z","2026-08-22T19:24:48Z","2026-08-22T19:24:52Z","2026-08-22T19:24:54Z","2026-08-22T19:24:56Z","2026-08-22T19:25:05Z","2026-08-22T19:25:07Z","2026-08-22T19:25:16Z","2026-08-22T19:25:25Z","2026-08-22T19:25:32Z","2026-08-22T19:25:35Z","2026-08-22T19:25:38Z","2026-08-22T19:25:39Z","2026-08-22T19:25:41Z","2026-08-22T19:25:43Z","2026-08-22T19:25:52Z","2026-08-22T19:26:18Z","2026-08-22T19:26:19Z","2026-08-22T19:26:33Z","2026-08-22T19:26:43Z","2026-08-22T19:26:47Z","2026-08-22T19:26:54Z","2026-08-22T19:27:03Z","2026-08-22T19:27:08Z","2026-08-22T19:27:12Z","2026-08-22T19:27:14Z","2026-08-22T19:27:18Z","2026-08-22T19:27:24Z","2026-08-22T19:27:28Z","2026-08-22T19:27:31Z","2026-08-22T19:27:45Z","2026-08-22T19:27:51Z","2026-08-22T19:27:52Z","2026-08-22T19:28:00Z","2026-08-22T19:28:11Z","2026-08-22T19:28:15Z","2026-08-22T19:28:18Z","2026-08-22T19:28:21Z","2026-08-22T19:28:26Z","2026-08-22T19:28:28Z","2026-08-22T19:28:39Z","2026-08-22T19:28:56Z","2026-08-22T19:29:07Z","2026-08-22T19:29:13Z","2026-08-22T19:29:20Z","2026-08-22T19:29:28Z","2026-08-22T19:29:34Z","2026-08-22T19:29:37Z","2026-08-22T19:29:44Z","2026-08-22T19:29:52Z","2026-08-22T19:30:00Z","2026-08-22T19:30:05Z","2026-08-22T19:30:16Z","2026-08-22T19:30:31Z","2026-08-22T19:30:35Z","2026-08-22T19:30:44Z","2026-08-22T19:30:55Z","2026-08-22T19:30:59Z","2026-08-22T19:31:06Z","2026-08-22T19:31:15Z","2026-08-22T19:31:25Z","2026-08-22T19:31:33Z","2026-08-22T19:31:37Z","2026-08-22T19:31:39Z","2026-08-22T19:31:53Z","2026-08-22T19:32:03Z","2026-08-22T19:32:09Z","2026-08-22T19:32:19Z","2026-08-22T19:32:26Z","2026-08-22T19:32:35Z","2026-08-22T19:32:43Z","2026-08-22T19:32:45Z","2026-08-22T19:32:50Z","2026-08-22T19:32:53Z","2026-08-22T19:32:55Z","2026-08-22T19:33:02Z","2026-08-22T19:33:17Z","2026-08-22T19:33:22Z","2026-08-22T19:33:24Z","2026-08-22T19:33:28Z","2026-08-22T19:33:32Z","2026-08-22T19:33:39Z","2026-08-22T19:33:45Z","2026-08-22T19:33:53Z","2026-08-22T19:34:09Z","2026-08-22T19:34:35Z","2026-08-22T19:34:40Z","2026-08-22T19:34:58Z","2026-08-22T19:35:00Z","2026-08-22T19:35:01Z","2026-08-22T19:35:11Z","2026-08-22T19:35:27Z","2026-08-22T19:35:38Z","2026-08-22T19:35:39Z","2026-08-22T19:35:44Z","2026-08-22T19:35:53Z","2026-08-22T19:36:01Z","2026-08-22T19:36:06Z","2026-08-22T19:36:09Z","2026-08-22T19:36:38Z","2026-08-22T19:36:40Z","2026-08-22T19:36:51Z","2026-08-22T19:36:54Z","2026-08-22T19:37:04Z","2026-08-22T19:37:07Z","2026-08-22T19:37:12Z","2026-08-22T19:37:22Z","2026-08-22T19:37:27Z","2026-08-22T19:37:34Z","2026-08-22T19:37:42Z","2026-08-22T19:37:49Z","2026-08-22T19:37:53Z","2026-08-22T19:37:58Z","2026-08-22T19:38:10Z","2026-08-22T19:38:18Z","2026-08-22T19:38:20Z","2026-08-22T19:38:25Z","2026-08-22T19:38:28Z","2026-08-22T19:38:32Z","2026-08-22T19:38:37Z","2026-08-22T19:38:42Z","2026-08-22T19:39:02Z","2026-08-22T19:39:07Z","2026-08-22T19:39:15Z","2026-08-22T19:39:23Z","2026-08-22T19:39:29Z","2026-08-22T19:39:42Z","2026-08-22T19:39:47Z","2026-08-22T19:39:56Z","2026-08-22T19:40:08Z","2026-08-22T19:40:20Z","2026-08-22T19:40:44Z","2026-08-22T19:40:49Z","2026-08-22T19:40:58Z","2026-08-22T19:41:10Z","2026-08-22T19:41:21Z","2026-08-22T19:41:26Z","2026-08-22T19:41:37Z","2026-08-22T19:41:40Z","2026-08-22T19:41:48Z","2026-08-22T19:41:57Z","2026-08-22T19:42:04Z","2026-08-22T19:42:16Z","2026-08-22T19:42:28Z","2026-08-22T19:42:33Z","2026-08-22T19:42:48Z","2026-08-22T19:42:57Z","2026-08-22T19:43:02Z","2026-08-22T19:43:05Z","2026-08-22T19:43:10Z","2026-08-22T19:43:16Z","2026-08-22T19:43:27Z","2026-08-22T19:43:30Z","2026-08-22T19:43:41Z","2026-08-22T19:43:42Z","2026-08-22T19:43:49Z","2026-08-22T19:43:56Z","2026-08-22T19:44:03Z","2026-08-22T19:44:07Z","2026-08-22T19:44:10Z","2026-08-22T19:44:22Z","2026-08-22T19:44:42Z","2026-08-22T19:44:45Z","2026-08-22T19:44:49Z","2026-08-22T19:44:54Z","2026-08-22T19:45:02Z","2026-08-22T19:45:06Z","2026-08-22T19:45:13Z","2026-08-22T19:45:14Z","2026-08-22T19:45:23Z","2026-08-22T19:45:29Z","2026-08-22T19:45:33Z","2026-08-22T19:45:40Z","2026-08-22T19:45:42Z","2026-08-22T19:45:47Z","2026-08-22T19:45:52Z","2026-08-22T19:45:54Z","2026-08-22T19:46:01Z","2026-08-22T19:46:05Z","2026-08-22T19:46:18Z","2026-08-22T19:46:23Z","2026-08-22T19:46:25Z","2026-08-22T19:46:31Z","2026-08-22T19:46:37Z","2026-08-22T19:46:41Z","2026-08-22T19:46:54Z","2026-08-22T19:46:57Z","2026-08-22T19:47:00Z","2026-08-22T19:47:12Z","2026-08-22T19:47:14Z","2026-08-22T19:47:19Z","2026-08-22T19:47:24Z"],"month":"2026-08-01"},"geometry":{"type":"LineString","coordinates":[[-84.14516,9.39092,22.6],[-84.145133,9.390837,22.4],[-84.145118,9.390756,22.3],[-84.145115,9.390696,22.2],[-84.145101,9.390669,22.1],[-84.14511,9.390652,22.1],[-84.145111,9.390601,22],[-84.145076,9.390544,21.9],[-84.145062,9.390537,21.9],[-84.145023,9.390468,21.8],[-84.145018,9.390428,21.8],[-84.144981,9.390331,21.6],[-84.144935,9.390266,21.4],[-84.144918,9.390212,21.3],[-84.144909,9.390208,21.3],[-84.144891,9.390136,21.1],[-84.144914,9.39013,21.1],[-84.144893,9.390142,21],[-84.144905,9.390138,21],[-84.144926,9.390169,20.9],[-84.144927,9.390159,20.9],[-84.144919,9.390152,20.9],[-84.14492,9.390119,20.8],[-84.144908,9.390072,20.7],[-84.144885,9.390057,20.7],[-84.144876,9.390038,20.7],[-84.144761,9.389918,20.4],[-84.14474,9.38991,20.4],[-84.144651,9.389843,20.3],[-84.144506,9.389759,20.2],[-84.14447,9.389723,20.2],[-84.14445,9.389681,20.2],[-84.144446,9.389591,20.3],[-84.144428,9.389534,20.3],[-84.144418,9.389383,20.4],[-84.144396,9.389266,20.4],[-84.144402,9.389115,20.3],[-84.144412,9.389095,20.3],[-84.144455,9.38891,20.2],[-84.144452,9.38885,20.1],[-84.144439,9.388817,20.1],[-84.144441,9.388805,20.1],[-84.144409,9.3887,20.1],[-84.144422,9.388647,20],[-84.144391,9.38854,19.9],[-84.144373,9.388503,19.9],[-84.144363,9.388396,19.8],[-84.14437,9.388381,19.7],[-84.144376,9.388287,19.6],[-84.144413,9.388202,19.3],[-84.144464,9.388137,19.1],[-84.144485,9.388092,18.9],[-84.144489,9.388061,18.9],[-84.144504,9.388033,18.8],[-84.144504,9.387942,18.5],[-84.144527,9.387938,18.5],[-84.144541,9.38792,18.5],[-84.144538,9.387913,18.5],[-84.144505,9.387918,18.4],[-84.144517,9.387919,18.4],[-84.144503,9.387916,18.4],[-84.144501,9.387899,18.4],[-84.144495,9.387906,18.4],[-84.144504,9.387887,18.4],[-84.144503,9.387896,18.4],[-84.144519,9.387882,18.3],[-84.144526,9.387863,18.3],[-84.144517,9.387837,18.3],[-84.144529,9.387817,18.3],[-84.144514,9.387765,18.3],[-84.144519,9.387711,18.3],[-84.144528,9.387711,18.3],[-84.144532,9.387699,18.3],[-84.144522,9.387657,18.3],[-84.144531,9.387582,18.3],[-84.14452,9.38753,18.2],[-84.144524,9.387541,18.2],[-84.144516,9.387509,18.2],[-84.144519,9.387494,18.2],[-84.144512,9.387492,18.2],[-84.144524,9.387436,18.2],[-84.144517,9.387343,18.2],[-84.144498,9.387261,18.2],[-84.144489,9.387098,18.2],[-84.144493,9.387064,18.2],[-84.144486,9.386992,18.1],[-84.144496,9.386935,18.1],[-84.14449,9.3869,18.1],[-84.144484,9.386906,18.1],[-84.144489,9.386897,18.1],[-84.144469,9.386814,18.1],[-84.144444,9.38678,18.1],[-84.144368,9.386717,18.1],[-84.144365,9.386693,18.1],[-84.144363,9.386704,18.2],[-84.144367,9.386695,18.2],[-84.144322,9.386696,18.3],[-84.144305,9.386686,18.3],[-84.144208,9.386577,18.6],[-84.144134,9.386523,18.8],[-84.144107,9.386513,18.8],[-84.144064,9.386477,19],[-84.144044,9.386428,19.2],[-84.144012,9.386394,19.5],[-84.144001,9.386368,19.7],[-84.143956,9.386312,20.3],[-84.143854,9.386288,21],[-84.143817,9.386271,21.3],[-84.14381,9.386259,21.4],[-84.143766,9.386243,21.7],[-84.143697,9.386232,21.9],[-84.143666,9.386241,22.1],[-84.143617,9.386233,22.3],[-84.14359,9.386237,22.4],[-84.143444,9.386192,22.8],[-84.14336,9.386071,22.4],[-84.143353,9.386044,22.3],[-84.143338,9.38603,22.3],[-84.143328,9.385992,22.2],[-84.143301,9.385939,22.1],[-84.143303,9.385913,22.1],[-84.143285,9.385887,22.2],[-84.143268,9.385822,22.3],[-84.143259,9.385811,22.3],[-84.143254,9.385777,22.4],[-84.143241,9.385759,22.4],[-84.143221,9.38575,22.4],[-84.143158,9.385697,22.6],[-84.143149,9.385672,22.6],[-84.143106,9.385628,22.7],[-84.143109,9.385615,22.7],[-84.143087,9.385593,22.8],[-84.143067,9.385557,22.8],[-84.143038,9.385531,22.7],[-84.143012,9.385488,22.7],[-84.143011,9.385434,22.6],[-84.143001,9.385389,22.6],[-84.143004,9.385322,22.5],[-84.143023,9.385289,22.4],[-84.143034,9.385237,22.3],[-84.143057,9.385181,22.1],[-84.143056,9.385101,22],[-84.143093,9.384949,21.9],[-84.143091,9.384929,21.9],[-84.143081,9.384928,21.9],[-84.143093,9.384802,22],[-84.143081,9.38477,22.1],[-84.143096,9.384745,22.1],[-84.143097,9.384684,22.3],[-84.143105,9.384649,22.4],[-84.143098,9.384618,22.6],[-84.14305,9.384573,23.1],[-84.143065,9.384496,24],[-84.143048,9.384462,24.4],[-84.14305,9.384427,24.9],[-84.143063,9.384425,25],[-84.143021,9.384352,25.7],[-84.142946,9.384321,25.6],[-84.142903,9.384311,25.4],[-84.142834,9.384244,24.7],[-84.142792,9.38422,24.4],[-84.142712,9.38419,24.3],[-84.142646,9.384156,24.3],[-84.142393,9.384122,25.1],[-84.142253,9.384074,26],[-84.142222,9.384071,26.1],[-84.1422,9.38406,26.1],[-84.142185,9.38404,26.2],[-84.142138,9.384009,26.3],[-84.142085,9.383898,26.3],[-84.142065,9.383834,26.1],[-84.141991,9.383741,25.8],[-84.141982,9.383679,25.7],[-84.141962,9.383644,25.8],[-84.141921,9.383603,25.8],[-84.141897,9.383564,25.9],[-84.14189,9.383531,26],[-84.141895,9.38352,26.1],[-84.141883,9.3835,26.2],[-84.141878,9.383424,26.5],[-84.141869,9.383406,26.6],[-84.141857,9.383333,26.9],[-84.141869,9.383314,26.9],[-84.141867,9.383286,26.9],[-84.141839,9.383208,26.9],[-84.141836,9.383157,26.8],[-84.14185,9.383091,26.6],[-84.141879,9.383058,26.5],[-84.141894,9.383009,26.5],[-84.141955,9.382935,26.5],[-84.142038,9.382871,26.6],[-84.142047,9.382857,26.8],[-84.142089,9.382835,27.5],[-84.14218,9.382754,29.2],[-84.142205,9.382743,29.5],[-84.142258,9.382699,30.4],[-84.142368,9.382579,32.7],[-84.142421,9.382472,34.2],[-84.142454,9.382446,34.7],[-84.142459,9.382431,34.8],[-84.142506,9.382386,35.5],[-84.142539,9.382341,35.9],[-84.14255,9.382298,36.2],[-84.142543,9.382243,36.5],[-84.142547,9.382207,36.7],[-84.142582,9.382127,37],[-84.142616,9.382086,37.2],[-84.142641,9.382109,37.3],[-84.142685,9.382131,37.3],[-84.142724,9.382124,37.2],[-84.142742,9.382113,37.2],[-84.14275,9.382122,37.1],[-84.142849,9.382145,36.3],[-84.142945,9.382132,35],[-84.143018,9.382138,33.9],[-84.14312,9.38213,32.2],[-84.143194,9.382147,30.9],[-84.143305,9.382144,29.1],[-84.143391,9.382156,27.7],[-84.143457,9.382156,26.7],[-84.143473,9.38215,26.4],[-84.143543,9.382152,25.4],[-84.143587,9.382136,24.7],[-84.143626,9.382131,24.1],[-84.143615,9.38213,23.9],[-84.143751,9.3821,22],[-84.143752,9.382109,21.9],[-84.143787,9.382099,21.4],[-84.14387,9.382096,20.6],[-84.143975,9.382034,19.6],[-84.143962,9.382029,19.6],[-84.143974,9.382033,19.5],[-84.143969,9.382018,19.5],[-84.144017,9.382001,19.3],[-84.144078,9.382007,19.2],[-84.144151,9.382001,19.1],[-84.144196,9.381987,19.1],[-84.144363,9.382039,19],[-84.144423,9.382028,18.9],[-84.144489,9.381991,18.9],[-84.144482,9.381997,18.9],[-84.144615,9.38195,18.9],[-84.144602,9.381952,18.9],[-84.14464,9.381947,18.9],[-84.144827,9.381856,19],[-84.144792,9.381861,19],[-84.144829,9.381853,19],[-84.144857,9.38182,19],[-84.144838,9.381825,19],[-84.144879,9.381811,19],[-84.144888,9.381801,19],[-84.144947,9.381775,19.1],[-84.144971,9.381772,19.1],[-84.144967,9.381768,19.1],[-84.144975,9.381773,19.1],[-84.145099,9.381718,19.1],[-84.14515,9.381684,19.1],[-84.145236,9.381608,19.2],[-84.145334,9.381553,19.2],[-84.145369,9.381541,19.2],[-84.145402,9.381519,19.2],[-84.145455,9.381498,19.2],[-84.145442,9.381485,19.2],[-84.145454,9.381497,19.2],[-84.145506,9.381427,19.2],[-84.145542,9.381394,19.3],[-84.145537,9.381397,19.3],[-84.145546,9.381396,19.3],[-84.145617,9.381321,19.3],[-84.145648,9.381261,19.3],[-84.145619,9.38119,19.2],[-84.14567,9.381167,19.2],[-84.145692,9.381171,19.2],[-84.145746,9.381158,19.1],[-84.14579,9.381175,19],[-84.145867,9.381282,18.7],[-84.145894,9.381347,18.6],[-84.145924,9.381391,18.5],[-84.145927,9.381385,18.4],[-84.145956,9.381379,18.5],[-84.145989,9.381287,18.5],[-84.146055,9.381185,18.5],[-84.146152,9.381057,18.4],[-84.146199,9.380973,18.5],[-84.146305,9.380826,18.6],[-84.146317,9.380819,18.6],[-84.146302,9.38085,18.7],[-84.146317,9.380824,18.7],[-84.146341,9.380806,18.7],[-84.146378,9.380759,18.7],[-84.146557,9.380596,18.7],[-84.14661,9.380557,18.7],[-84.146696,9.380445,18.7],[-84.146723,9.380374,18.8],[-84.146768,9.380345,19],[-84.146844,9.380321,19.7],[-84.146864,9.380298,20.1],[-84.14689,9.38023,21.4],[-84.146848,9.380174,22.6],[-84.146823,9.38011,23.8],[-84.146822,9.380077,24.4],[-84.146809,9.380062,24.7],[-84.146789,9.379999,25.8],[-84.146775,9.37999,26],[-84.146763,9.379918,27.1],[-84.146788,9.379829,28.2],[-84.146853,9.379786,28.5],[-84.146915,9.379773,28.8],[-84.147001,9.379736,29.5],[-84.147084,9.379713,30.4],[-84.147193,9.379645,31.9],[-84.147206,9.379626,32.2],[-84.147252,9.379606,32.7],[-84.147283,9.379582,33],[-84.147343,9.379552,33.4],[-84.147351,9.379535,33.5],[-84.147376,9.379523,33.6],[-84.147384,9.379491,33.6],[-84.147398,9.37947,33.6],[-84.147418,9.379461,33.5],[-84.147432,9.379414,33.4],[-84.147428,9.379356,33.3],[-84.147453,9.379311,33.4],[-84.14746,9.379277,33.7],[-84.14746,9.37919,34.8],[-84.147476,9.379172,35.3],[-84.147538,9.379225,37],[-84.147542,9.379205,37.6],[-84.147551,9.379205,37.8],[-84.147552,9.379196,38],[-84.147562,9.379191,38.2],[-84.147575,9.379153,39.2],[-84.147577,9.379077,41],[-84.14757,9.379068,41.2],[-84.147572,9.379051,41.6],[-84.147612,9.378998,43],[-84.147619,9.378974,43.6],[-84.147612,9.378959,44],[-84.147631,9.378948,44.5],[-84.147628,9.37892,45.2],[-84.147633,9.378946,45.9],[-84.147657,9.378903,47.1],[-84.147707,9.378868,48.5],[-84.14772,9.378851,49],[-84.147715,9.37882,49.8],[-84.147712,9.378834,50.2],[-84.147727,9.37878,51.4],[-84.147757,9.378726,52.5],[-84.147788,9.378708,53],[-84.147824,9.378704,53.5],[-84.147927,9.378655,54.7],[-84.147983,9.378646,55.2],[-84.148009,9.378624,55.5],[-84.148036,9.378546,56.4],[-84.14804,9.378501,56.8],[-84.148055,9.378478,57],[-84.148075,9.37841,57.6],[-84.148068,9.378399,57.7],[-84.148097,9.378338,58.3],[-84.148131,9.378289,58.9],[-84.148151,9.37824,59.3],[-84.148146,9.378213,59.5],[-84.148153,9.378196,59.7],[-84.148147,9.378108,60.3],[-84.148155,9.378056,60.6],[-84.14817,9.378017,60.8],[-84.148163,9.377969,61],[-84.148172,9.377954,61.1],[-84.148179,9.377909,61.3],[-84.148199,9.377876,61.4],[-84.148186,9.377837,61.5],[-84.148201,9.377791,61.7],[-84.148208,9.377803,61.7],[-84.148208,9.377796,61.8],[-84.148171,9.377793,62],[-84.148187,9.377793,62.1],[-84.148171,9.37779,62.2],[-84.148166,9.377781,62.3],[-84.148176,9.377781,62.4],[-84.148162,9.377786,62.6],[-84.148168,9.377785,62.6],[-84.148157,9.377783,62.9],[-84.148165,9.377778,63.1],[-84.148144,9.377748,63.6],[-84.148145,9.377693,64.4],[-84.148123,9.377671,64.9],[-84.148098,9.377659,65.3],[-84.148064,9.377665,65.9],[-84.14801,9.37766,66.9],[-84.147995,9.377646,67.2],[-84.147971,9.377639,67.6],[-84.147949,9.377612,68.2],[-84.147967,9.377585,68.6],[-84.147975,9.377556,69],[-84.147955,9.377524,69.4],[-84.147942,9.377516,69.6],[-84.147954,9.377523,69.7],[-84.147947,9.377515,69.8],[-84.147953,9.377516,69.8],[-84.147898,9.377429,70.6],[-84.147884,9.377379,70.9],[-84.14786,9.377337,71.1],[-84.147812,9.377304,71.4],[-84.147798,9.377278,71.5],[-84.147794,9.377283,71.5],[-84.147765,9.377277,71.5],[-84.147735,9.377283,71.6],[-84.14767,9.377265,71.5],[-84.147647,9.377274,71.3],[-84.14758,9.377279,70.8],[-84.147451,9.377311,69],[-84.147415,9.377338,68.2],[-84.147403,9.377322,67.8],[-84.14738,9.377319,67.4],[-84.147363,9.377301,67],[-84.14734,9.377291,66.6],[-84.147325,9.377244,65.8],[-84.147313,9.377232,65.5],[-84.147305,9.377189,64.9],[-84.147277,9.377145,64.2],[-84.147277,9.37715,64.2],[-84.147254,9.377131,63.8],[-84.147197,9.377141,63.1],[-84.147145,9.377138,62.6],[-84.147124,9.377129,62.4],[-84.147054,9.37707,61.6],[-84.146921,9.377045,61],[-84.146904,9.377047,60.9],[-84.146817,9.377028,60.9],[-84.146737,9.377033,60.9],[-84.14671,9.377046,60.9],[-84.146618,9.377117,60.2],[-84.146575,9.377102,59.7],[-84.146562,9.377106,59.5],[-84.146537,9.377097,59.1],[-84.146415,9.377085,57],[-84.146374,9.377092,56.3],[-84.146361,9.377085,56],[-84.146323,9.377026,54.8],[-84.146342,9.377041,54.4],[-84.146365,9.377038,54.1],[-84.146382,9.377058,53.8],[-84.146383,9.377095,53.4],[-84.146375,9.377097,53.4],[-84.146355,9.377131,53],[-84.14632,9.377142,52.8],[-84.146315,9.37715,52.7],[-84.146229,9.377175,52.3],[-84.146164,9.377228,51.9],[-84.146144,9.377255,51.8],[-84.146132,9.377292,51.6],[-84.146141,9.377372,51.3],[-84.146121,9.377458,51],[-84.146088,9.377508,50.8],[-84.146066,9.377598,50.5],[-84.145985,9.377676,50.2],[-84.145916,9.37776,49.8],[-84.145861,9.377799,49.7],[-84.145696,9.377865,49.5],[-84.14564,9.377913,49.4],[-84.14562,9.377921,49.4],[-84.145584,9.377953,49.3],[-84.145555,9.378002,49.2],[-84.145529,9.378024,49],[-84.145477,9.378124,48.2],[-84.145485,9.378133,48],[-84.145439,9.378182,47.4],[-84.1454,9.378286,46],[-84.145311,9.378472,43.2],[-84.145317,9.378481,42.9],[-84.145301,9.378513,42.3],[-84.145289,9.378521,42],[-84.145299,9.378482,41.3],[-84.145285,9.378463,40.9],[-84.145335,9.378531,39.1],[-84.145344,9.378563,38.5],[-84.145404,9.378568,37.5],[-84.145414,9.37858,37.2],[-84.145448,9.378582,36.6],[-84.145458,9.37859,36.4],[-84.145473,9.378576,36],[-84.145511,9.378574,35.4],[-84.145534,9.378597,34.8],[-84.145565,9.378652,33.6],[-84.145566,9.378764,31.6],[-84.145574,9.378757,31.4],[-84.145552,9.378755,31],[-84.145543,9.378738,30.7],[-84.145537,9.378739,30.6],[-84.145542,9.37875,30.1],[-84.145552,9.37874,29.9],[-84.145559,9.378814,28.9],[-84.145592,9.37883,28.6],[-84.14561,9.378851,28.3],[-84.145692,9.378887,27.7],[-84.14575,9.378922,27.6],[-84.145791,9.378971,27.8],[-84.145823,9.37899,28.1],[-84.145831,9.379003,28.3],[-84.145882,9.379036,29],[-84.145892,9.379056,29.4],[-84.145919,9.379076,30],[-84.145944,9.37908,30.6],[-84.145956,9.379092,31],[-84.146036,9.379094,32.7],[-84.146101,9.379107,34.1],[-84.14616,9.379104,35],[-84.146271,9.37908,35.4],[-84.14631,9.379081,35.1],[-84.146366,9.379113,34.4],[-84.146405,9.379111,33.8],[-84.146461,9.379261,30.7],[-84.146465,9.379357,28.7],[-84.146458,9.379385,28.1],[-84.146474,9.379398,27.7],[-84.146484,9.379423,27.2],[-84.146476,9.379451,26.6],[-84.146471,9.379438,26.3],[-84.146461,9.379434,26.1],[-84.146465,9.37942,25.6],[-84.146469,9.379426,25.5],[-84.146473,9.379419,25.3],[-84.14643,9.379509,23.5],[-84.146436,9.379583,22.4],[-84.146425,9.379614,22],[-84.146402,9.379634,21.8],[-84.146405,9.379652,21.9],[-84.146391,9.379665,22],[-84.146359,9.379737,22.5],[-84.146322,9.379796,23],[-84.146326,9.379815,23.2],[-84.146346,9.379793,23.5],[-84.146362,9.3797,24],[-84.146324,9.379662,23.4],[-84.146336,9.379684,23.1],[-84.146317,9.379669,22.8],[-84.146308,9.37967,22.7],[-84.146315,9.379668,22.6],[-84.14629,9.379641,22.1],[-84.146288,9.379629,21.9],[-84.146298,9.379622,21.7],[-84.146331,9.379649,21.8],[-84.146341,9.379643,21.8],[-84.146356,9.379665,21.8],[-84.146378,9.379646,22],[-84.146453,9.379695,22.7],[-84.146533,9.379714,23.7],[-84.146544,9.379732,24],[-84.146611,9.379746,25],[-84.146624,9.379756,25.2],[-84.146652,9.379761,25.6],[-84.146818,9.379841,28.1],[-84.146843,9.379869,27.6],[-84.146883,9.380008,25.5],[-84.14688,9.380023,25.3],[-84.146902,9.380105,23.8],[-84.14694,9.380183,22.3],[-84.146944,9.380272,20.7],[-84.146938,9.380294,20.4],[-84.146918,9.380312,20],[-84.146829,9.380351,19.1],[-84.146799,9.380349,18.9],[-84.146741,9.38037,18.7],[-84.146717,9.380405,18.7],[-84.146654,9.380465,18.7],[-84.14663,9.380479,18.7],[-84.146525,9.380579,18.7],[-84.14647,9.380646,18.7],[-84.146292,9.380767,18.7],[-84.146277,9.380793,18.6],[-84.146239,9.380831,18.6],[-84.146184,9.38091,18.5],[-84.146176,9.380945,18.5],[-84.146118,9.381039,18.4],[-84.146043,9.381196,18.5],[-84.146015,9.381337,18.5],[-84.145959,9.381361,18.5],[-84.145926,9.381354,18.5],[-84.14587,9.381231,18.8],[-84.145791,9.38114,19.1],[-84.145758,9.381116,19.1],[-84.14569,9.381089,19.2],[-84.145684,9.381022,18.8],[-84.145724,9.38091,18.4],[-84.14579,9.380797,18.3],[-84.145825,9.380773,18.3],[-84.145863,9.38071,18.4],[-84.145879,9.380697,18.4],[-84.145911,9.380646,18.4],[-84.145943,9.380573,18.5],[-84.146006,9.380507,18.6],[-84.146084,9.380466,18.7],[-84.146159,9.380464,18.8],[-84.146139,9.380462,18.8],[-84.146125,9.380452,18.8],[-84.14612,9.380458,18.8],[-84.146127,9.380475,18.8],[-84.146112,9.380477,18.8],[-84.146118,9.380479,18.8],[-84.146109,9.380474,18.8],[-84.146111,9.38048,18.8],[-84.146107,9.380477,18.8],[-84.146111,9.38048,18.8],[-84.146106,9.380475,18.8],[-84.146111,9.380475,18.8],[-84.146105,9.380472,18.8],[-84.146106,9.380485,18.8],[-84.146117,9.380485,18.8],[-84.146105,9.38048,18.7],[-84.146114,9.380485,18.7],[-84.146109,9.380482,18.7],[-84.14612,9.380488,18.7],[-84.146115,9.380487,18.7],[-84.146131,9.380489,18.7],[-84.146138,9.380482,18.7],[-84.14613,9.380483,18.7],[-84.146167,9.380492,18.7],[-84.146154,9.380488,18.7],[-84.14617,9.380492,18.7],[-84.146128,9.380484,18.7],[-84.146144,9.380494,18.7],[-84.146123,9.380493,18.7],[-84.146134,9.380488,18.7],[-84.146129,9.380493,18.7],[-84.146139,9.38049,18.7],[-84.146125,9.380495,18.7],[-84.146129,9.380492,18.6],[-84.146131,9.380504,18.6],[-84.146109,9.380508,18.6],[-84.146104,9.380492,18.6],[-84.14611,9.380493,18.6],[-84.146107,9.380488,18.6],[-84.146099,9.380493,18.6],[-84.146093,9.380482,18.6],[-84.146106,9.380462,18.6],[-84.146105,9.38047,18.6],[-84.146096,9.380473,18.6],[-84.146101,9.380471,18.6],[-84.146096,9.380476,18.6],[-84.146105,9.380477,18.6],[-84.146099,9.380471,18.6],[-84.146103,9.380475,18.6],[-84.146088,9.380472,18.6],[-84.146101,9.380469,18.6],[-84.146058,9.380472,18.6],[-84.145366,9.380618,18.4],[-84.14591,9.381093,18.3],[-84.145577,9.380833,18.3],[-84.145522,9.380803,18.3],[-84.145523,9.380746,18.3],[-84.145611,9.380661,18.3],[-84.145579,9.380661,18.3],[-84.145762,9.380791,18.3],[-84.145658,9.380777,18.3],[-84.14569,9.380812,18.4],[-84.145585,9.380763,18.4],[-84.14568,9.380741,18.4],[-84.145721,9.380722,18.4],[-84.145697,9.38073,18.4],[-84.145618,9.380589,18.5],[-84.145641,9.380562,18.5],[-84.145652,9.380585,18.5],[-84.145698,9.380577,18.5],[-84.145725,9.380515,18.5],[-84.145759,9.380492,18.5],[-84.145758,9.38048,18.5],[-84.145779,9.380481,18.5],[-84.145812,9.380466,18.5],[-84.145731,9.38051,18.6],[-84.145736,9.38051,18.6],[-84.14573,9.380505,18.6],[-84.145747,9.380501,18.6],[-84.145759,9.380474,18.6],[-84.145778,9.380474,18.6],[-84.145793,9.380495,18.6],[-84.145798,9.38049,18.6],[-84.145783,9.38052,18.6],[-84.145784,9.380557,18.6],[-84.145803,9.380571,18.6],[-84.145829,9.380574,18.6],[-84.145866,9.380564,18.7],[-84.14591,9.380529,18.7],[-84.145918,9.380515,18.7],[-84.145945,9.380496,18.7],[-84.145979,9.380486,18.7],[-84.146014,9.380465,18.7],[-84.146047,9.380465,18.7],[-84.146083,9.380452,18.7],[-84.14614,9.380449,18.8],[-84.14613,9.38045,18.8],[-84.146125,9.380466,18.8],[-84.146133,9.380464,18.8],[-84.14612,9.380463,18.8],[-84.146117,9.38047,18.8],[-84.14608,9.380476,18.9],[-84.146085,9.38045,18.9],[-84.146074,9.380394,18.9],[-84.146062,9.380393,18.9],[-84.146065,9.380397,18.9],[-84.146022,9.380397,18.9],[-84.146008,9.380387,18.9],[-84.146001,9.380399,18.9],[-84.146001,9.380393,18.9],[-84.145978,9.38039,18.9],[-84.145978,9.380381,18.9],[-84.145973,9.380386,18.9],[-84.14598,9.380395,18.9],[-84.145976,9.3804,18.9],[-84.146027,9.380418,18.9],[-84.146034,9.380428,18.9],[-84.146026,9.380357,18.9],[-84.146023,9.380201,18.9],[-84.146016,9.380155,18.9],[-84.146032,9.38012,18.9],[-84.146052,9.380118,18.9],[-84.146045,9.380129,18.9],[-84.146105,9.380076,18.9],[-84.146104,9.380102,18.9],[-84.146086,9.380117,18.9],[-84.146062,9.380164,18.9],[-84.146084,9.380155,18.9],[-84.146083,9.380149,18.9],[-84.146056,9.380174,18.9],[-84.146032,9.380216,18.9],[-84.14602,9.380259,18.9],[-84.146018,9.38031,18.9],[-84.146031,9.380363,18.9],[-84.146,9.380426,18.9],[-84.145854,9.380562,18.9],[-84.145857,9.380558,18.9],[-84.145843,9.380577,18.9],[-84.145903,9.380523,18.9],[-84.145977,9.380482,18.9],[-84.146069,9.380459,18.9],[-84.146177,9.380451,18.9],[-84.146049,9.380478,18.9],[-84.145885,9.380545,18.9],[-84.1458,9.38059,18.8],[-84.145741,9.38061,18.8],[-84.145657,9.380503,18.8],[-84.145604,9.380533,18.8],[-84.145598,9.380528,18.8],[-84.145593,9.380553,18.7],[-84.145609,9.380584,18.7],[-84.145644,9.380538,18.7],[-84.145704,9.380495,18.7],[-84.145751,9.380484,18.7],[-84.145669,9.380512,18.7],[-84.145678,9.380547,18.6],[-84.145711,9.380549,18.6],[-84.145687,9.380587,18.6],[-84.145712,9.380603,18.6],[-84.145716,9.380658,18.6],[-84.145717,9.380593,18.6],[-84.145719,9.38064,18.6],[-84.145715,9.380628,18.6],[-84.145717,9.380634,18.6],[-84.145718,9.380618,18.6],[-84.145717,9.380623,18.6],[-84.145715,9.380608,18.5],[-84.145705,9.380613,18.5],[-84.145699,9.380603,18.5],[-84.145693,9.380613,18.5],[-84.145686,9.380607,18.5],[-84.145723,9.380555,18.5],[-84.145704,9.380566,18.5],[-84.145738,9.380585,18.5],[-84.145723,9.38059,18.5],[-84.145719,9.380581,18.5],[-84.145721,9.380587,18.5],[-84.145713,9.380581,18.5],[-84.145717,9.380597,18.5],[-84.145732,9.380602,18.5],[-84.145752,9.38059,18.5],[-84.145752,9.380641,18.5],[-84.14575,9.380608,18.5],[-84.145761,9.380605,18.5],[-84.145735,9.380604,18.5],[-84.145722,9.380587,18.5],[-84.145724,9.380592,18.4],[-84.145721,9.380584,18.4],[-84.145607,9.380594,18.4],[-84.14567,9.380605,18.4],[-84.14569,9.380651,18.4],[-84.145675,9.380614,18.4],[-84.145733,9.380632,18.4],[-84.145719,9.380619,18.4],[-84.145745,9.380634,18.4],[-84.145761,9.380624,18.4],[-84.145775,9.380631,18.4],[-84.145843,9.380603,18.4],[-84.145888,9.380595,18.3],[-84.145933,9.380564,18.3],[-84.146007,9.380496,18.3],[-84.146095,9.38045,18.3],[-84.146089,9.380452,18.3],[-84.146103,9.380435,18.3],[-84.146118,9.380453,18.3],[-84.146111,9.38047,18.3],[-84.146105,9.380444,18.3],[-84.146112,9.380442,18.3],[-84.146098,9.380447,18.3],[-84.146091,9.380469,18.3],[-84.146093,9.380463,18.3],[-84.146088,9.380469,18.3],[-84.146094,9.380479,18.3],[-84.14609,9.380466,18.3],[-84.146117,9.380465,18.3],[-84.146096,9.380461,18.3],[-84.146116,9.380482,18.3],[-84.14611,9.380484,18.3],[-84.146115,9.380482,18.3],[-84.146091,9.380464,18.3],[-84.14608,9.380464,18.3],[-84.146077,9.380473,18.3],[-84.146101,9.380467,18.3],[-84.146097,9.380477,18.4],[-84.146114,9.380473,18.4],[-84.146105,9.380463,18.4],[-84.146102,9.380467,18.4],[-84.146107,9.380456,18.4],[-84.146057,9.380458,18.4],[-84.145982,9.380499,18.4],[-84.145907,9.380608,18.5],[-84.145862,9.380697,18.5],[-84.145784,9.380809,18.6],[-84.145771,9.380854,18.7],[-84.145739,9.380904,18.7],[-84.145732,9.380899,18.7],[-84.145712,9.380939,18.8],[-84.145683,9.380969,18.9],[-84.145658,9.381011,18.9],[-84.145658,9.381136,19.1],[-84.145668,9.381144,19.1],[-84.145686,9.381214,19.2],[-84.145678,9.38124,19.2],[-84.14565,9.381276,19.2],[-84.145625,9.381276,19.3],[-84.145519,9.381396,19.3],[-84.145491,9.381467,19.3],[-84.145471,9.381495,19.3],[-84.145431,9.381512,19.3],[-84.145407,9.381531,19.2],[-84.145208,9.381624,19.2],[-84.145192,9.381639,19.2],[-84.14516,9.381651,19.2],[-84.145132,9.381673,19.2],[-84.145056,9.381706,19.2],[-84.144966,9.381758,19.2],[-84.144889,9.381829,19.1],[-84.144804,9.381869,19.1],[-84.144665,9.381902,19.1],[-84.144628,9.381936,19.1],[-84.14457,9.381943,19.1],[-84.144489,9.381971,19],[-84.144406,9.382038,19],[-84.144369,9.382059,19],[-84.14429,9.382075,19],[-84.144277,9.38207,19],[-84.144223,9.382082,19],[-84.144229,9.382089,18.9],[-84.144214,9.382132,18.9],[-84.144203,9.382143,18.9],[-84.144185,9.382144,18.9],[-84.144177,9.382122,18.9],[-84.144167,9.382121,18.9],[-84.144159,9.382132,18.9],[-84.144159,9.382118,18.9],[-84.14416,9.382132,18.9],[-84.144154,9.38213,18.9],[-84.144152,9.382152,18.9],[-84.144165,9.382135,18.9],[-84.144158,9.38213,18.9],[-84.144172,9.382126,18.9],[-84.14417,9.382113,18.9],[-84.14417,9.382126,18.9],[-84.144158,9.382131,18.9],[-84.144176,9.382123,18.9],[-84.144179,9.382129,18.9],[-84.144179,9.382117,18.9],[-84.144198,9.382114,18.9],[-84.144197,9.382134,18.9],[-84.144248,9.382098,18.9],[-84.144286,9.382089,18.9],[-84.144378,9.382111,19],[-84.144379,9.382119,19],[-84.144383,9.382116,19],[-84.144383,9.382123,19],[-84.144292,9.382107,19.1],[-84.144233,9.382128,19.1],[-84.144233,9.382137,19.1],[-84.144215,9.382135,19.1],[-84.144146,9.382081,19.2],[-84.143988,9.382049,19.5],[-84.143964,9.382052,19.6],[-84.143908,9.382086,20],[-84.14385,9.382109,20.5],[-84.143756,9.382128,21.5],[-84.143727,9.382127,21.8],[-84.143677,9.382143,22.5],[-84.143622,9.382132,23.2],[-84.143488,9.382148,25.2],[-84.143478,9.382143,25.3],[-84.143445,9.382146,25.8],[-84.14339,9.382139,26.7],[-84.143352,9.382153,27.3],[-84.143282,9.382144,28.4],[-84.143231,9.382155,29.2],[-84.143139,9.382157,30.7],[-84.143101,9.382174,31.4],[-84.143036,9.382184,32.5],[-84.143029,9.382179,32.6],[-84.142935,9.382186,34.2],[-84.142875,9.382202,35.2],[-84.142805,9.382199,36.1],[-84.142757,9.382231,36.7],[-84.142667,9.38221,37.2],[-84.142616,9.382184,37.3],[-84.142598,9.382155,37.3],[-84.142566,9.38213,37.2],[-84.142556,9.38213,37.2],[-84.142534,9.382151,37.1],[-84.14252,9.382192,36.9],[-84.142496,9.382232,36.7],[-84.142501,9.382239,36.7],[-84.142514,9.382237,36.7],[-84.142516,9.382198,36.7],[-84.142526,9.382218,36.7],[-84.14255,9.382224,36.7],[-84.142557,9.382187,36.7],[-84.142526,9.382218,36.7],[-84.14254,9.3822,36.7],[-84.14252,9.382197,36.7],[-84.142517,9.382208,36.7],[-84.142527,9.382193,36.7],[-84.142515,9.38218,36.7],[-84.142497,9.382175,36.7],[-84.142489,9.382156,36.7],[-84.142492,9.382145,36.7],[-84.142496,9.382153,36.7],[-84.142503,9.382127,36.7],[-84.142491,9.382134,36.7],[-84.142495,9.382149,36.7],[-84.142491,9.382132,36.7],[-84.142496,9.382131,36.7],[-84.142496,9.382109,36.7],[-84.142495,9.382118,36.7],[-84.142483,9.382085,36.7],[-84.142454,9.382115,36.7],[-84.142433,9.382107,36.7],[-84.142425,9.382117,36.7],[-84.142412,9.382119,36.7],[-84.142409,9.38213,36.7],[-84.142391,9.382144,36.7],[-84.142388,9.382157,36.7],[-84.142368,9.382133,36.7],[-84.142376,9.382126,36.7],[-84.142366,9.382113,36.7],[-84.142362,9.382067,36.7],[-84.142365,9.382095,36.7],[-84.142352,9.382052,36.7],[-84.142501,9.382205,36.7],[-84.14248,9.382232,36.7],[-84.142458,9.382247,36.7],[-84.142457,9.382207,36.7],[-84.142429,9.382164,36.7],[-84.142436,9.382163,36.7],[-84.142431,9.382151,36.7],[-84.142402,9.382149,36.7],[-84.142418,9.382145,36.7],[-84.142421,9.38215,36.7],[-84.142439,9.382141,36.7],[-84.142439,9.382102,36.7],[-84.142422,9.382104,36.7],[-84.142423,9.382133,36.7],[-84.142428,9.382102,36.7],[-84.142448,9.382082,36.7],[-84.142436,9.382105,36.7],[-84.142476,9.382014,36.7],[-84.1424,9.382055,36.7],[-84.142443,9.382026,36.7],[-84.142422,9.382096,36.7],[-84.142412,9.382095,36.7],[-84.142427,9.382068,36.7],[-84.142358,9.382114,36.7],[-84.142398,9.382092,36.7],[-84.142365,9.382121,36.7],[-84.142399,9.382097,36.7],[-84.142387,9.382118,36.6],[-84.142443,9.382215,36.6],[-84.142428,9.382152,36.6],[-84.142444,9.382221,36.6],[-84.142454,9.382234,36.6],[-84.142444,9.382204,36.6],[-84.142463,9.382248,36.6],[-84.142443,9.382231,36.6],[-84.142445,9.382214,36.6],[-84.142436,9.382217,36.6],[-84.142428,9.382211,36.6],[-84.142438,9.38221,36.6],[-84.142417,9.382202,36.6],[-84.142424,9.382204,36.6],[-84.142416,9.382204,36.6],[-84.142417,9.382195,36.6],[-84.142437,9.382196,36.6],[-84.142444,9.382166,36.6],[-84.142439,9.382162,36.6],[-84.142443,9.382137,36.6],[-84.142435,9.382178,36.6],[-84.142421,9.38216,36.6],[-84.142431,9.382158,36.6],[-84.142423,9.38216,36.6],[-84.142431,9.382159,36.6],[-84.142436,9.382146,36.6],[-84.142442,9.382149,36.6],[-84.142438,9.382132,36.6],[-84.14244,9.382146,36.6],[-84.14244,9.382126,36.6],[-84.142405,9.382132,36.6],[-84.14241,9.382129,36.6],[-84.142404,9.382145,36.6],[-84.142388,9.38213,36.6],[-84.142389,9.382091,36.6],[-84.142408,9.382053,36.6],[-84.142404,9.382039,36.6],[-84.142395,9.382052,36.6],[-84.142393,9.382015,36.6],[-84.142372,9.382047,36.6],[-84.142387,9.382032,36.6],[-84.142385,9.382024,36.6],[-84.142364,9.382059,36.6],[-84.142357,9.382052,36.6],[-84.14235,9.382004,36.6],[-84.142339,9.382011,36.6],[-84.14235,9.38198,36.6],[-84.142352,9.382037,36.6],[-84.142344,9.382034,36.6],[-84.142342,9.381998,36.6],[-84.142345,9.382052,36.6],[-84.14234,9.382048,36.6],[-84.142375,9.382049,36.6],[-84.142369,9.382036,36.6],[-84.142378,9.382008,36.6],[-84.142383,9.382017,36.6],[-84.142355,9.382007,36.6],[-84.142389,9.38204,36.6],[-84.142356,9.38203,36.6],[-84.14238,9.382096,36.5],[-84.142382,9.382089,36.5],[-84.142392,9.382102,36.5],[-84.142386,9.382135,36.5],[-84.142394,9.382155,36.5],[-84.142391,9.382171,36.5],[-84.142385,9.382166,36.5],[-84.142418,9.382169,36.5],[-84.142417,9.382174,36.5],[-84.142388,9.382163,36.5],[-84.142393,9.382173,36.5],[-84.142406,9.382141,36.5],[-84.142402,9.382147,36.5],[-84.142405,9.382111,36.5],[-84.142423,9.382111,36.5],[-84.142422,9.38212,36.5],[-84.142416,9.382117,36.5],[-84.142419,9.382101,36.5],[-84.142426,9.382102,36.5],[-84.142439,9.38208,36.5],[-84.142437,9.38206,36.5],[-84.142429,9.382064,36.5],[-84.14241,9.382048,36.5],[-84.142363,9.38205,36.5],[-84.142369,9.382053,36.5],[-84.142357,9.382058,36.5],[-84.142328,9.382028,36.5],[-84.142319,9.382027,36.5],[-84.142317,9.382042,36.5],[-84.142327,9.382056,36.5],[-84.142377,9.382065,36.5],[-84.142415,9.382082,36.5],[-84.142418,9.382063,36.6],[-84.142387,9.38205,36.6],[-84.142402,9.382081,36.6],[-84.142394,9.382074,36.6],[-84.142399,9.382069,36.6],[-84.142388,9.382043,36.6],[-84.142399,9.38203,36.6],[-84.142398,9.382042,36.6],[-84.142405,9.382015,36.6],[-84.142419,9.382,36.6],[-84.142402,9.381979,36.6],[-84.142391,9.38198,36.6],[-84.142393,9.381967,36.6],[-84.142393,9.381976,36.6],[-84.142402,9.38198,36.6],[-84.142366,9.382004,36.6],[-84.142373,9.382029,36.7],[-84.142401,9.382016,36.7],[-84.142392,9.382031,36.7],[-84.142381,9.382019,36.7],[-84.14239,9.382016,36.7],[-84.142406,9.382041,36.7],[-84.142446,9.382041,36.7],[-84.142479,9.38208,36.7],[-84.14248,9.382118,36.7],[-84.14248,9.38211,36.7],[-84.142496,9.382165,36.7],[-84.142536,9.382125,36.7],[-84.142583,9.382116,36.7],[-84.142597,9.382142,36.7],[-84.142593,9.382176,36.7],[-84.1426,9.382268,36.6],[-84.142592,9.382319,36.3],[-84.142581,9.382341,36.2],[-84.142553,9.382369,35.9],[-84.142514,9.38243,35.4],[-84.142496,9.382474,34.9],[-84.14248,9.382479,34.8],[-84.142474,9.3825,34.5],[-84.142432,9.382538,33.9],[-84.14243,9.382549,33.7],[-84.142383,9.382582,33.1],[-84.142329,9.382658,31.8],[-84.142295,9.382676,31.3],[-84.142283,9.382703,30.9],[-84.142281,9.382731,30.6],[-84.142252,9.382797,29.6],[-84.142237,9.382807,29.4],[-84.142144,9.382827,28.2],[-84.142112,9.382843,27.6],[-84.142017,9.382944,26.6],[-84.141995,9.382994,26.5],[-84.141926,9.383083,26.5],[-84.14184,9.383133,26.7],[-84.14182,9.383184,26.8],[-84.141798,9.383203,26.9],[-84.1418,9.383281,26.9],[-84.141882,9.38336,26.7],[-84.141915,9.383437,26.3],[-84.141937,9.383471,26.2],[-84.141957,9.383577,25.9],[-84.142003,9.383689,25.7],[-84.142021,9.383702,25.8],[-84.142046,9.383747,25.9],[-84.142076,9.383867,26.2],[-84.142093,9.383905,26.3],[-84.142141,9.383951,26.3],[-84.142183,9.384033,26.2],[-84.142237,9.384069,26.1],[-84.142295,9.384139,25.7],[-84.142348,9.384127,25.4],[-84.142378,9.38414,25.2],[-84.142466,9.384151,24.7],[-84.142572,9.384176,24.4],[-84.142637,9.384164,24.3],[-84.142764,9.384194,24.3],[-84.142833,9.384234,24.7],[-84.142902,9.384258,25.3],[-84.142946,9.384292,25.6],[-84.142968,9.384298,25.7],[-84.142997,9.384326,25.8],[-84.143001,9.384362,25.6],[-84.143023,9.384383,25.5],[-84.143023,9.384402,25.3],[-84.143062,9.384455,24.5],[-84.143084,9.384543,23.5],[-84.14308,9.384574,23.1],[-84.143089,9.384625,22.7],[-84.143075,9.38468,22.4],[-84.143086,9.384771,22.1],[-84.143076,9.384841,22],[-84.143075,9.384948,21.9],[-84.143066,9.384982,21.9],[-84.143065,9.384973,21.9],[-84.14306,9.384979,21.9],[-84.143073,9.38519,22.1],[-84.143063,9.385218,22.2],[-84.143066,9.385232,22.2],[-84.143042,9.385354,22.5],[-84.143044,9.385536,22.7],[-84.143032,9.385576,22.8],[-84.143037,9.385573,22.8],[-84.143051,9.38559,22.8],[-84.14312,9.385621,22.7],[-84.143151,9.385656,22.7],[-84.143151,9.385667,22.7],[-84.14314,9.385668,22.6],[-84.143192,9.385755,22.4],[-84.143189,9.385749,22.4],[-84.143247,9.385815,22.3],[-84.14328,9.38584,22.2],[-84.143341,9.385948,22.2],[-84.143372,9.385988,22.2],[-84.143399,9.38605,22.4],[-84.143402,9.386172,22.9],[-84.143429,9.386191,22.8],[-84.143514,9.386198,22.5],[-84.143582,9.386246,22.2],[-84.143645,9.386248,22],[-84.143679,9.386235,21.8],[-84.143735,9.386235,21.6],[-84.143881,9.386274,20.7],[-84.143968,9.38628,20],[-84.143991,9.386293,19.8],[-84.144022,9.386352,19.3],[-84.144056,9.386387,19.1],[-84.14408,9.386431,18.9],[-84.144118,9.386468,18.8],[-84.144157,9.386524,18.7],[-84.144329,9.386668,18.2],[-84.144364,9.386714,18.1],[-84.144425,9.386764,18.1],[-84.144446,9.386791,18.1],[-84.144441,9.38679,18.1],[-84.144454,9.386786,18.1],[-84.144478,9.386838,18.1],[-84.144474,9.386952,18.1],[-84.144483,9.387091,18.2],[-84.144518,9.387228,18.2],[-84.144536,9.387501,18.2],[-84.144546,9.387556,18.3],[-84.144551,9.387655,18.3],[-84.144535,9.387779,18.3],[-84.144535,9.387889,18.4],[-84.144521,9.387942,18.4],[-84.144539,9.388062,18.5],[-84.144536,9.3881,18.6],[-84.144506,9.38818,18.8],[-84.144451,9.388262,19.1],[-84.144418,9.388332,19.4],[-84.144406,9.388466,19.7],[-84.144411,9.388599,19.9],[-84.144434,9.388649,20],[-84.144419,9.388785,20.1],[-84.14444,9.388897,20.1],[-84.144438,9.388956,20.2],[-84.144447,9.388979,20.2],[-84.144443,9.389045,20.2],[-84.144428,9.389098,20.2],[-84.144356,9.389191,20.3],[-84.144343,9.389219,20.3],[-84.144364,9.389355,20.4],[-84.144377,9.389369,20.4],[-84.144393,9.389462,20.3],[-84.144418,9.389539,20.3],[-84.144423,9.389604,20.3],[-84.14445,9.389658,20.2],[-84.144453,9.389693,20.2],[-84.144481,9.389789,20.2],[-84.144484,9.389785,20.2],[-84.144487,9.389795,20.2],[-84.14448,9.3898,20.2],[-84.144486,9.389783,20.2],[-84.144476,9.389759,20.2],[-84.144487,9.389776,20.2],[-84.144515,9.389792,20.3],[-84.144523,9.389787,20.3],[-84.144598,9.389827,20.4],[-84.144687,9.389858,20.5],[-84.144728,9.389881,20.6],[-84.144769,9.389943,20.7],[-84.14479,9.389955,20.8],[-84.144822,9.389989,20.8],[-84.144852,9.390002,20.9],[-84.144863,9.39002,20.9],[-84.144879,9.390106,21.1],[-84.144878,9.390165,21.2],[-84.144924,9.390349,21.7],[-84.144944,9.390396,21.7],[-84.14496,9.390412,21.8],[-84.144984,9.390458,21.8],[-84.145035,9.390515,21.9],[-84.145052,9.390559,22],[-84.145134,9.390681,22.2],[-84.145141,9.390717,22.3],[-84.145136,9.390744,22.4],[-84.145177,9.390889,22.6],[-84.145188,9.390907,22.6],[-84.145173,9.390942,22.6],[-84.145196,9.390977,22.5]]}}]}