{"type":"FeatureCollection","features":[{"type":"Feature","properties":{"name":"Bords de l’Yerres et prairie de Chalandray","type":"gravel","time":"2025-09-16T10:33:47Z","coordTimes":["2025-09-16T10:33:47Z","2025-09-16T10:33:55Z","2025-09-16T10:33:58Z","2025-09-16T10:34:05Z","2025-09-16T10:34:11Z","2025-09-16T10:34:16Z","2025-09-16T10:34:18Z","2025-09-16T10:34:20Z","2025-09-16T10:34:22Z","2025-09-16T10:34:23Z","2025-09-16T10:34:24Z","2025-09-16T10:34:25Z","2025-09-16T10:34:26Z","2025-09-16T10:34:28Z","2025-09-16T10:34:34Z","2025-09-16T10:34:36Z","2025-09-16T10:34:40Z","2025-09-16T10:34:41Z","2025-09-16T10:34:46Z","2025-09-16T10:34:55Z","2025-09-16T10:34:56Z","2025-09-16T10:34:58Z","2025-09-16T10:35:01Z","2025-09-16T10:35:04Z","2025-09-16T10:35:05Z","2025-09-16T10:35:07Z","2025-09-16T10:35:09Z","2025-09-16T10:35:10Z","2025-09-16T10:35:11Z","2025-09-16T10:35:13Z","2025-09-16T10:35:16Z","2025-09-16T10:35:21Z","2025-09-16T10:35:27Z","2025-09-16T10:35:29Z","2025-09-16T10:35:31Z","2025-09-16T10:35:34Z","2025-09-16T10:35:38Z","2025-09-16T10:35:44Z","2025-09-16T10:35:46Z","2025-09-16T10:35:47Z","2025-09-16T10:35:48Z","2025-09-16T10:35:49Z","2025-09-16T10:35:50Z","2025-09-16T10:35:53Z","2025-09-16T10:35:54Z","2025-09-16T10:35:58Z","2025-09-16T10:36:00Z","2025-09-16T10:36:03Z","2025-09-16T10:36:04Z","2025-09-16T10:36:06Z","2025-09-16T10:36:08Z","2025-09-16T10:36:10Z","2025-09-16T10:36:15Z","2025-09-16T10:36:16Z","2025-09-16T10:36:17Z","2025-09-16T10:36:19Z","2025-09-16T10:36:22Z","2025-09-16T10:36:24Z","2025-09-16T10:36:27Z","2025-09-16T10:36:30Z","2025-09-16T10:36:31Z","2025-09-16T10:36:33Z","2025-09-16T10:36:37Z","2025-09-16T10:36:45Z","2025-09-16T10:36:46Z","2025-09-16T10:36:52Z","2025-09-16T10:36:53Z","2025-09-16T10:36:59Z","2025-09-16T10:37:02Z","2025-09-16T10:37:03Z","2025-09-16T10:37:06Z","2025-09-16T10:37:07Z","2025-09-16T10:37:09Z","2025-09-16T10:37:19Z","2025-09-16T10:37:21Z","2025-09-16T10:37:22Z","2025-09-16T10:37:23Z","2025-09-16T10:37:26Z","2025-09-16T10:37:27Z","2025-09-16T10:37:28Z","2025-09-16T10:37:29Z","2025-09-16T10:37:31Z","2025-09-16T10:37:33Z","2025-09-16T10:37:35Z","2025-09-16T10:37:41Z","2025-09-16T10:37:42Z","2025-09-16T10:37:44Z","2025-09-16T10:37:46Z","2025-09-16T10:37:48Z","2025-09-16T10:37:49Z","2025-09-16T10:37:50Z","2025-09-16T10:37:53Z","2025-09-16T10:37:57Z","2025-09-16T10:38:03Z","2025-09-16T10:38:04Z","2025-09-16T10:38:06Z","2025-09-16T10:38:08Z","2025-09-16T10:38:10Z","2025-09-16T10:38:12Z","2025-09-16T10:38:15Z","2025-09-16T10:38:22Z","2025-09-16T10:38:24Z","2025-09-16T10:38:29Z","2025-09-16T10:38:33Z","2025-09-16T10:38:37Z","2025-09-16T10:38:39Z","2025-09-16T10:38:44Z","2025-09-16T10:38:45Z","2025-09-16T10:38:46Z","2025-09-16T10:38:48Z","2025-09-16T10:38:49Z","2025-09-16T10:38:50Z","2025-09-16T10:38:54Z","2025-09-16T10:38:57Z","2025-09-16T10:38:59Z","2025-09-16T10:39:00Z","2025-09-16T10:39:01Z","2025-09-16T10:39:09Z","2025-09-16T10:39:10Z","2025-09-16T10:39:11Z","2025-09-16T10:39:12Z","2025-09-16T10:39:13Z","2025-09-16T10:39:17Z","2025-09-16T10:39:18Z","2025-09-16T10:39:19Z","2025-09-16T10:39:21Z","2025-09-16T10:39:25Z","2025-09-16T10:39:27Z","2025-09-16T10:39:28Z","2025-09-16T10:39:30Z","2025-09-16T10:39:31Z","2025-09-16T10:39:33Z","2025-09-16T10:39:36Z","2025-09-16T10:39:39Z","2025-09-16T10:39:41Z","2025-09-16T10:41:08Z","2025-09-16T10:41:12Z","2025-09-16T10:41:14Z","2025-09-16T10:41:15Z","2025-09-16T10:41:17Z","2025-09-16T10:41:22Z","2025-09-16T10:41:26Z","2025-09-16T10:41:29Z","2025-09-16T10:41:30Z","2025-09-16T10:41:31Z","2025-09-16T10:41:34Z","2025-09-16T10:41:36Z","2025-09-16T10:41:37Z","2025-09-16T10:41:40Z","2025-09-16T10:41:41Z","2025-09-16T10:41:46Z","2025-09-16T10:41:48Z","2025-09-16T10:41:55Z","2025-09-16T10:42:06Z","2025-09-16T10:42:09Z","2025-09-16T10:42:13Z","2025-09-16T10:42:16Z","2025-09-16T10:42:20Z","2025-09-16T10:42:21Z","2025-09-16T10:42:23Z","2025-09-16T10:42:25Z","2025-09-16T10:42:26Z","2025-09-16T10:42:28Z","2025-09-16T10:42:31Z","2025-09-16T10:42:34Z","2025-09-16T10:42:56Z","2025-09-16T10:43:02Z","2025-09-16T10:43:04Z","2025-09-16T10:43:18Z","2025-09-16T10:43:21Z","2025-09-16T10:43:23Z","2025-09-16T10:43:25Z","2025-09-16T10:43:26Z","2025-09-16T10:43:29Z","2025-09-16T10:43:32Z","2025-09-16T10:43:37Z","2025-09-16T10:43:39Z","2025-09-16T10:43:42Z","2025-09-16T10:43:44Z","2025-09-16T10:43:47Z","2025-09-16T10:43:49Z","2025-09-16T10:43:50Z","2025-09-16T10:43:51Z","2025-09-16T10:43:52Z","2025-09-16T10:43:53Z","2025-09-16T10:43:54Z","2025-09-16T10:43:55Z","2025-09-16T10:43:56Z","2025-09-16T10:43:57Z","2025-09-16T10:43:59Z","2025-09-16T10:44:00Z","2025-09-16T10:44:01Z","2025-09-16T10:44:02Z","2025-09-16T10:44:03Z","2025-09-16T10:44:06Z","2025-09-16T10:44:07Z","2025-09-16T10:44:08Z","2025-09-16T10:44:09Z","2025-09-16T10:44:10Z","2025-09-16T10:44:12Z","2025-09-16T10:44:20Z","2025-09-16T10:44:23Z","2025-09-16T10:44:24Z","2025-09-16T10:44:25Z","2025-09-16T10:44:28Z","2025-09-16T10:44:30Z","2025-09-16T10:44:33Z","2025-09-16T10:44:35Z","2025-09-16T10:44:38Z","2025-09-16T10:44:39Z","2025-09-16T10:44:41Z","2025-09-16T10:44:43Z","2025-09-16T10:44:45Z","2025-09-16T10:44:47Z","2025-09-16T10:44:48Z","2025-09-16T10:44:49Z","2025-09-16T10:44:52Z","2025-09-16T10:44:59Z","2025-09-16T10:45:01Z","2025-09-16T10:45:03Z","2025-09-16T10:45:04Z","2025-09-16T10:45:05Z","2025-09-16T10:45:08Z","2025-09-16T10:45:11Z","2025-09-16T10:45:15Z","2025-09-16T10:45:16Z","2025-09-16T10:45:18Z","2025-09-16T10:45:20Z","2025-09-16T10:45:27Z","2025-09-16T10:45:34Z","2025-09-16T10:45:35Z","2025-09-16T10:45:38Z","2025-09-16T10:45:39Z","2025-09-16T10:45:45Z","2025-09-16T10:45:48Z","2025-09-16T10:45:49Z","2025-09-16T10:45:53Z","2025-09-16T10:45:57Z","2025-09-16T10:46:04Z","2025-09-16T10:46:07Z","2025-09-16T10:46:10Z","2025-09-16T10:46:15Z","2025-09-16T10:46:16Z","2025-09-16T10:46:23Z","2025-09-16T10:46:24Z","2025-09-16T10:46:33Z","2025-09-16T10:46:37Z","2025-09-16T10:46:41Z","2025-09-16T10:46:42Z","2025-09-16T10:46:45Z","2025-09-16T10:46:47Z","2025-09-16T10:46:48Z","2025-09-16T10:46:49Z","2025-09-16T10:46:50Z","2025-09-16T10:46:51Z","2025-09-16T10:46:54Z","2025-09-16T10:46:57Z","2025-09-16T10:47:02Z","2025-09-16T10:47:05Z","2025-09-16T10:47:07Z","2025-09-16T10:47:09Z","2025-09-16T10:47:11Z","2025-09-16T10:47:12Z","2025-09-16T10:47:13Z","2025-09-16T10:47:14Z","2025-09-16T10:47:15Z","2025-09-16T10:47:21Z","2025-09-16T10:47:22Z","2025-09-16T10:47:23Z","2025-09-16T10:47:28Z","2025-09-16T10:47:33Z","2025-09-16T10:48:19Z","2025-09-16T10:48:22Z","2025-09-16T10:48:34Z","2025-09-16T10:48:40Z","2025-09-16T10:48:41Z","2025-09-16T10:48:42Z","2025-09-16T10:48:44Z","2025-09-16T10:48:45Z","2025-09-16T10:48:50Z","2025-09-16T10:48:51Z","2025-09-16T10:48:54Z","2025-09-16T10:48:55Z","2025-09-16T10:48:56Z","2025-09-16T10:48:58Z","2025-09-16T10:49:05Z","2025-09-16T10:49:10Z","2025-09-16T10:49:14Z","2025-09-16T10:49:17Z","2025-09-16T10:49:20Z","2025-09-16T10:49:21Z","2025-09-16T10:49:22Z","2025-09-16T10:49:24Z","2025-09-16T10:49:26Z","2025-09-16T10:49:48Z","2025-09-16T10:49:49Z","2025-09-16T10:49:52Z","2025-09-16T10:50:02Z","2025-09-16T10:50:03Z","2025-09-16T10:50:09Z","2025-09-16T10:50:17Z","2025-09-16T10:50:19Z","2025-09-16T10:50:20Z","2025-09-16T10:50:23Z","2025-09-16T10:50:25Z","2025-09-16T10:50:26Z","2025-09-16T10:50:27Z","2025-09-16T10:50:30Z","2025-09-16T10:50:32Z","2025-09-16T10:50:34Z","2025-09-16T10:50:35Z","2025-09-16T10:50:36Z","2025-09-16T10:50:39Z","2025-09-16T10:50:40Z","2025-09-16T10:50:42Z","2025-09-16T10:50:43Z","2025-09-16T10:50:46Z","2025-09-16T10:50:49Z","2025-09-16T10:50:51Z","2025-09-16T10:50:53Z","2025-09-16T10:50:58Z","2025-09-16T10:51:01Z","2025-09-16T10:51:06Z","2025-09-16T10:51:11Z","2025-09-16T10:51:14Z","2025-09-16T10:51:18Z","2025-09-16T10:51:23Z","2025-09-16T10:51:26Z","2025-09-16T10:51:30Z","2025-09-16T10:51:33Z","2025-09-16T10:51:34Z","2025-09-16T10:51:37Z","2025-09-16T10:51:38Z","2025-09-16T10:51:44Z","2025-09-16T10:51:47Z","2025-09-16T10:51:52Z","2025-09-16T10:51:59Z","2025-09-16T10:52:02Z","2025-09-16T10:52:04Z","2025-09-16T10:52:05Z","2025-09-16T10:52:06Z","2025-09-16T10:52:07Z","2025-09-16T10:52:10Z","2025-09-16T10:52:14Z","2025-09-16T10:52:22Z","2025-09-16T10:52:24Z","2025-09-16T10:52:26Z","2025-09-16T10:52:29Z","2025-09-16T10:52:36Z","2025-09-16T10:52:37Z","2025-09-16T10:52:44Z","2025-09-16T10:52:46Z","2025-09-16T10:52:59Z","2025-09-16T10:53:03Z","2025-09-16T10:53:05Z","2025-09-16T10:53:06Z","2025-09-16T10:53:08Z","2025-09-16T10:53:11Z","2025-09-16T10:53:14Z","2025-09-16T10:53:15Z","2025-09-16T10:53:20Z","2025-09-16T10:53:21Z","2025-09-16T10:53:24Z","2025-09-16T10:53:27Z","2025-09-16T10:53:29Z","2025-09-16T10:53:30Z","2025-09-16T10:53:35Z","2025-09-16T10:53:37Z","2025-09-16T10:53:39Z","2025-09-16T10:53:43Z","2025-09-16T10:53:45Z","2025-09-16T10:53:46Z","2025-09-16T10:53:47Z","2025-09-16T10:53:48Z","2025-09-16T10:53:49Z","2025-09-16T10:53:50Z","2025-09-16T10:53:51Z","2025-09-16T10:53:52Z","2025-09-16T10:53:54Z","2025-09-16T10:53:55Z","2025-09-16T10:53:56Z","2025-09-16T10:53:57Z","2025-09-16T10:53:59Z","2025-09-16T10:54:00Z","2025-09-16T10:54:01Z","2025-09-16T10:54:02Z","2025-09-16T10:54:03Z","2025-09-16T10:54:05Z","2025-09-16T10:54:07Z","2025-09-16T10:54:11Z","2025-09-16T10:54:13Z","2025-09-16T10:54:14Z","2025-09-16T10:54:18Z","2025-09-16T10:54:20Z","2025-09-16T10:54:41Z","2025-09-16T10:54:44Z","2025-09-16T10:54:46Z","2025-09-16T10:54:48Z","2025-09-16T10:54:54Z","2025-09-16T10:54:55Z","2025-09-16T10:54:59Z","2025-09-16T10:55:00Z","2025-09-16T10:55:01Z","2025-09-16T10:55:02Z","2025-09-16T10:55:03Z","2025-09-16T10:55:07Z","2025-09-16T10:55:10Z","2025-09-16T10:55:13Z","2025-09-16T10:55:15Z","2025-09-16T10:55:19Z","2025-09-16T10:55:20Z","2025-09-16T10:55:24Z","2025-09-16T10:55:27Z","2025-09-16T10:55:28Z","2025-09-16T10:55:30Z","2025-09-16T10:55:31Z","2025-09-16T10:55:32Z","2025-09-16T10:55:34Z","2025-09-16T10:55:42Z","2025-09-16T10:55:47Z","2025-09-16T10:55:53Z","2025-09-16T10:55:54Z","2025-09-16T10:55:57Z","2025-09-16T10:56:03Z","2025-09-16T10:56:10Z","2025-09-16T10:56:33Z","2025-09-16T10:56:36Z","2025-09-16T10:56:49Z","2025-09-16T10:56:52Z","2025-09-16T10:56:58Z","2025-09-16T10:57:02Z","2025-09-16T10:57:11Z","2025-09-16T10:57:13Z","2025-09-16T10:57:14Z","2025-09-16T10:57:16Z","2025-09-16T10:57:20Z","2025-09-16T10:57:22Z","2025-09-16T10:57:23Z","2025-09-16T10:57:25Z","2025-09-16T10:57:27Z","2025-09-16T10:57:29Z","2025-09-16T10:57:31Z","2025-09-16T10:57:32Z","2025-09-16T10:57:37Z","2025-09-16T10:57:38Z","2025-09-16T10:57:56Z","2025-09-16T10:57:57Z","2025-09-16T10:57:58Z","2025-09-16T10:58:08Z","2025-09-16T10:58:10Z","2025-09-16T10:58:14Z","2025-09-16T10:58:18Z","2025-09-16T10:58:21Z","2025-09-16T10:58:22Z","2025-09-16T10:58:27Z","2025-09-16T10:58:28Z","2025-09-16T10:58:29Z","2025-09-16T10:58:30Z","2025-09-16T10:58:32Z","2025-09-16T10:58:38Z","2025-09-16T10:58:40Z","2025-09-16T10:58:42Z","2025-09-16T10:58:44Z","2025-09-16T10:58:50Z","2025-09-16T10:58:52Z","2025-09-16T10:58:59Z","2025-09-16T10:59:04Z","2025-09-16T10:59:06Z","2025-09-16T10:59:11Z","2025-09-16T10:59:15Z","2025-09-16T10:59:33Z","2025-09-16T10:59:35Z","2025-09-16T10:59:44Z","2025-09-16T10:59:49Z","2025-09-16T10:59:54Z","2025-09-16T10:59:59Z","2025-09-16T11:00:01Z","2025-09-16T11:00:05Z","2025-09-16T11:00:14Z","2025-09-16T11:00:16Z","2025-09-16T11:00:17Z","2025-09-16T11:00:18Z","2025-09-16T11:00:19Z","2025-09-16T11:00:21Z","2025-09-16T11:00:22Z","2025-09-16T11:00:24Z","2025-09-16T11:00:27Z","2025-09-16T11:00:34Z","2025-09-16T11:00:37Z","2025-09-16T11:00:41Z","2025-09-16T11:00:44Z","2025-09-16T11:00:48Z","2025-09-16T11:00:49Z","2025-09-16T11:00:52Z","2025-09-16T11:00:56Z","2025-09-16T11:00:58Z","2025-09-16T11:01:01Z","2025-09-16T11:01:03Z","2025-09-16T11:01:05Z","2025-09-16T11:01:08Z","2025-09-16T11:01:16Z","2025-09-16T11:01:20Z","2025-09-16T11:01:26Z","2025-09-16T11:01:28Z","2025-09-16T11:01:29Z","2025-09-16T11:01:33Z","2025-09-16T11:01:37Z","2025-09-16T11:01:39Z","2025-09-16T11:01:41Z","2025-09-16T11:01:42Z","2025-09-16T11:01:44Z","2025-09-16T11:01:51Z","2025-09-16T11:01:52Z","2025-09-16T11:01:53Z","2025-09-16T11:01:55Z","2025-09-16T11:01:58Z","2025-09-16T11:02:00Z","2025-09-16T11:02:07Z","2025-09-16T11:02:08Z","2025-09-16T11:02:25Z","2025-09-16T11:02:31Z","2025-09-16T11:02:37Z","2025-09-16T11:02:39Z","2025-09-16T11:02:44Z","2025-09-16T11:02:47Z","2025-09-16T11:02:50Z","2025-09-16T11:02:52Z","2025-09-16T11:02:55Z","2025-09-16T11:02:56Z","2025-09-16T11:02:59Z","2025-09-16T11:03:02Z","2025-09-16T11:03:09Z","2025-09-16T11:03:11Z","2025-09-16T11:03:13Z","2025-09-16T11:03:17Z","2025-09-16T11:03:18Z","2025-09-16T11:03:19Z","2025-09-16T11:03:22Z","2025-09-16T11:03:28Z","2025-09-16T11:03:32Z","2025-09-16T11:03:33Z","2025-09-16T11:03:35Z","2025-09-16T11:03:36Z","2025-09-16T11:03:43Z","2025-09-16T11:03:45Z","2025-09-16T11:03:48Z","2025-09-16T11:04:01Z","2025-09-16T11:04:04Z","2025-09-16T11:04:09Z","2025-09-16T11:04:10Z","2025-09-16T11:04:15Z","2025-09-16T11:04:24Z","2025-09-16T11:04:51Z","2025-09-16T11:04:55Z","2025-09-16T11:04:56Z","2025-09-16T11:04:57Z","2025-09-16T11:04:58Z","2025-09-16T11:04:59Z","2025-09-16T11:05:00Z","2025-09-16T11:05:01Z","2025-09-16T11:05:05Z","2025-09-16T11:05:12Z","2025-09-16T11:05:15Z","2025-09-16T11:05:21Z","2025-09-16T11:05:25Z","2025-09-16T11:05:27Z","2025-09-16T11:05:33Z","2025-09-16T11:05:40Z","2025-09-16T11:05:51Z","2025-09-16T11:05:52Z","2025-09-16T11:06:10Z","2025-09-16T11:06:21Z","2025-09-16T11:06:23Z","2025-09-16T11:06:28Z","2025-09-16T11:06:31Z","2025-09-16T11:06:34Z","2025-09-16T11:06:36Z","2025-09-16T11:06:38Z","2025-09-16T11:06:40Z","2025-09-16T11:06:43Z","2025-09-16T11:06:45Z","2025-09-16T11:06:49Z","2025-09-16T11:06:51Z","2025-09-16T11:06:52Z","2025-09-16T11:06:53Z","2025-09-16T11:06:58Z","2025-09-16T11:07:05Z","2025-09-16T11:07:16Z","2025-09-16T11:07:20Z","2025-09-16T11:07:26Z","2025-09-16T11:07:29Z","2025-09-16T11:07:31Z","2025-09-16T11:07:34Z","2025-09-16T11:07:35Z","2025-09-16T11:07:37Z","2025-09-16T11:07:39Z","2025-09-16T11:07:42Z","2025-09-16T11:07:46Z","2025-09-16T11:07:55Z","2025-09-16T11:08:24Z","2025-09-16T11:08:25Z","2025-09-16T11:08:27Z","2025-09-16T11:08:28Z","2025-09-16T11:08:38Z","2025-09-16T11:08:47Z","2025-09-16T11:08:48Z","2025-09-16T11:08:49Z","2025-09-16T11:08:50Z","2025-09-16T11:08:53Z","2025-09-16T11:08:54Z","2025-09-16T11:08:57Z","2025-09-16T11:09:09Z","2025-09-16T11:09:14Z","2025-09-16T11:09:15Z","2025-09-16T11:09:16Z","2025-09-16T11:09:17Z","2025-09-16T11:09:20Z","2025-09-16T11:09:22Z","2025-09-16T11:09:24Z","2025-09-16T11:09:26Z","2025-09-16T11:09:28Z","2025-09-16T11:09:32Z","2025-09-16T11:09:36Z","2025-09-16T11:09:45Z","2025-09-16T11:09:50Z","2025-09-16T11:09:52Z","2025-09-16T11:09:54Z","2025-09-16T11:09:57Z","2025-09-16T11:10:06Z","2025-09-16T11:10:08Z","2025-09-16T11:10:19Z","2025-09-16T11:10:20Z","2025-09-16T11:10:27Z","2025-09-16T11:10:28Z","2025-09-16T11:10:30Z","2025-09-16T11:10:32Z","2025-09-16T11:10:41Z","2025-09-16T11:10:42Z","2025-09-16T11:10:44Z","2025-09-16T11:10:45Z","2025-09-16T11:10:46Z","2025-09-16T11:10:47Z","2025-09-16T11:11:07Z","2025-09-16T11:11:12Z","2025-09-16T11:11:13Z","2025-09-16T11:11:14Z","2025-09-16T11:11:19Z","2025-09-16T11:11:23Z","2025-09-16T11:11:27Z","2025-09-16T11:11:36Z","2025-09-16T11:12:22Z","2025-09-16T11:12:41Z","2025-09-16T11:12:46Z","2025-09-16T11:12:49Z","2025-09-16T11:12:56Z","2025-09-16T11:12:57Z","2025-09-16T11:12:59Z","2025-09-16T11:13:00Z","2025-09-16T11:13:02Z","2025-09-16T11:13:03Z","2025-09-16T11:13:04Z","2025-09-16T11:13:05Z","2025-09-16T11:13:07Z","2025-09-16T11:13:12Z","2025-09-16T11:13:13Z","2025-09-16T11:13:15Z","2025-09-16T11:13:17Z","2025-09-16T11:13:18Z","2025-09-16T11:13:19Z","2025-09-16T11:13:22Z","2025-09-16T11:13:24Z","2025-09-16T11:13:28Z","2025-09-16T11:13:31Z","2025-09-16T11:13:32Z","2025-09-16T11:13:35Z","2025-09-16T11:13:44Z","2025-09-16T11:13:46Z","2025-09-16T11:13:48Z","2025-09-16T11:13:49Z","2025-09-16T11:13:52Z","2025-09-16T11:13:55Z","2025-09-16T11:14:12Z","2025-09-16T11:14:13Z","2025-09-16T11:14:14Z","2025-09-16T11:14:17Z","2025-09-16T11:14:21Z","2025-09-16T11:14:23Z","2025-09-16T11:14:25Z","2025-09-16T11:14:27Z","2025-09-16T11:14:47Z","2025-09-16T11:14:51Z","2025-09-16T11:14:52Z","2025-09-16T11:14:55Z","2025-09-16T11:14:57Z","2025-09-16T11:14:58Z","2025-09-16T11:15:01Z","2025-09-16T11:15:03Z","2025-09-16T11:15:09Z","2025-09-16T11:15:12Z","2025-09-16T11:15:13Z","2025-09-16T11:15:18Z","2025-09-16T11:15:20Z","2025-09-16T11:15:24Z","2025-09-16T11:15:26Z","2025-09-16T11:15:29Z","2025-09-16T11:15:31Z","2025-09-16T11:15:34Z","2025-09-16T11:15:37Z","2025-09-16T11:15:41Z","2025-09-16T11:15:43Z","2025-09-16T11:15:46Z","2025-09-16T11:15:53Z","2025-09-16T11:15:56Z","2025-09-16T11:16:04Z","2025-09-16T11:16:07Z","2025-09-16T11:16:08Z","2025-09-16T11:16:09Z","2025-09-16T11:16:10Z","2025-09-16T11:16:13Z","2025-09-16T11:16:15Z","2025-09-16T11:16:17Z","2025-09-16T11:16:20Z","2025-09-16T11:16:25Z","2025-09-16T11:16:30Z","2025-09-16T11:16:35Z","2025-09-16T11:16:36Z","2025-09-16T11:16:39Z","2025-09-16T11:16:41Z","2025-09-16T11:16:44Z","2025-09-16T11:16:54Z","2025-09-16T11:16:59Z","2025-09-16T11:17:00Z","2025-09-16T11:17:01Z","2025-09-16T11:17:02Z","2025-09-16T11:17:05Z","2025-09-16T11:17:09Z","2025-09-16T11:17:10Z","2025-09-16T11:17:29Z","2025-09-16T11:17:32Z","2025-09-16T11:17:33Z","2025-09-16T11:17:34Z","2025-09-16T11:17:35Z","2025-09-16T11:17:36Z","2025-09-16T11:17:38Z","2025-09-16T11:17:39Z","2025-09-16T11:17:41Z","2025-09-16T11:17:44Z","2025-09-16T11:17:46Z","2025-09-16T11:17:58Z","2025-09-16T11:17:59Z","2025-09-16T11:18:00Z","2025-09-16T11:18:01Z","2025-09-16T11:18:04Z","2025-09-16T11:18:13Z","2025-09-16T11:18:14Z","2025-09-16T11:18:15Z","2025-09-16T11:18:19Z","2025-09-16T11:18:20Z","2025-09-16T11:18:21Z","2025-09-16T11:18:23Z","2025-09-16T11:18:31Z","2025-09-16T11:18:33Z","2025-09-16T11:18:39Z","2025-09-16T11:18:40Z","2025-09-16T11:18:46Z","2025-09-16T11:18:48Z","2025-09-16T11:18:51Z","2025-09-16T11:18:52Z","2025-09-16T11:18:59Z","2025-09-16T11:19:06Z","2025-09-16T11:19:10Z","2025-09-16T11:19:13Z","2025-09-16T11:19:15Z","2025-09-16T11:19:17Z","2025-09-16T11:19:25Z","2025-09-16T11:19:28Z","2025-09-16T11:19:31Z","2025-09-16T11:19:39Z","2025-09-16T11:19:41Z","2025-09-16T11:19:44Z","2025-09-16T11:19:46Z","2025-09-16T11:19:47Z","2025-09-16T11:19:49Z","2025-09-16T11:19:50Z","2025-09-16T11:19:51Z","2025-09-16T11:19:52Z","2025-09-16T11:19:54Z","2025-09-16T11:19:55Z","2025-09-16T11:19:59Z","2025-09-16T11:20:03Z","2025-09-16T11:20:11Z","2025-09-16T11:20:12Z","2025-09-16T11:20:13Z","2025-09-16T11:20:14Z","2025-09-16T11:20:18Z","2025-09-16T11:20:26Z","2025-09-16T11:20:28Z","2025-09-16T11:20:31Z","2025-09-16T11:20:35Z","2025-09-16T11:20:37Z","2025-09-16T11:20:39Z","2025-09-16T11:20:48Z","2025-09-16T11:20:50Z","2025-09-16T11:20:55Z","2025-09-16T11:20:57Z","2025-09-16T11:20:59Z","2025-09-16T11:21:02Z","2025-09-16T11:21:03Z","2025-09-16T11:21:04Z","2025-09-16T11:21:05Z","2025-09-16T11:21:07Z","2025-09-16T11:21:08Z","2025-09-16T11:21:10Z","2025-09-16T11:21:15Z","2025-09-16T11:21:16Z","2025-09-16T11:21:17Z","2025-09-16T11:21:25Z","2025-09-16T11:21:30Z","2025-09-16T11:21:33Z","2025-09-16T11:21:34Z","2025-09-16T11:21:35Z","2025-09-16T11:21:36Z","2025-09-16T11:21:41Z","2025-09-16T11:21:45Z","2025-09-16T11:21:50Z","2025-09-16T11:21:52Z","2025-09-16T11:21:56Z","2025-09-16T11:22:02Z","2025-09-16T11:22:10Z","2025-09-16T11:22:13Z","2025-09-16T11:22:15Z","2025-09-16T11:22:16Z","2025-09-16T11:22:20Z","2025-09-16T11:22:23Z","2025-09-16T11:22:27Z","2025-09-16T11:22:29Z","2025-09-16T11:22:30Z","2025-09-16T11:22:33Z","2025-09-16T11:22:35Z","2025-09-16T11:22:40Z","2025-09-16T11:22:41Z","2025-09-16T11:22:44Z","2025-09-16T11:22:47Z","2025-09-16T11:22:49Z","2025-09-16T11:23:19Z","2025-09-16T11:24:03Z","2025-09-16T11:24:05Z","2025-09-16T11:24:08Z","2025-09-16T11:24:18Z","2025-09-16T11:24:21Z","2025-09-16T11:24:29Z","2025-09-16T11:24:31Z","2025-09-16T11:24:33Z","2025-09-16T11:24:35Z","2025-09-16T11:24:36Z","2025-09-16T11:24:37Z","2025-09-16T11:24:38Z","2025-09-16T11:24:44Z","2025-09-16T11:24:45Z","2025-09-16T11:24:49Z","2025-09-16T11:25:00Z","2025-09-16T11:25:03Z","2025-09-16T11:25:04Z","2025-09-16T11:25:15Z","2025-09-16T11:25:17Z","2025-09-16T11:25:27Z","2025-09-16T11:25:28Z","2025-09-16T11:25:30Z","2025-09-16T11:25:33Z","2025-09-16T11:25:34Z","2025-09-16T11:25:40Z","2025-09-16T11:25:45Z","2025-09-16T11:25:55Z","2025-09-16T11:25:56Z","2025-09-16T11:26:04Z","2025-09-16T11:26:06Z","2025-09-16T11:26:07Z","2025-09-16T11:26:08Z","2025-09-16T11:26:10Z","2025-09-16T11:27:27Z","2025-09-16T11:27:56Z","2025-09-16T11:28:00Z","2025-09-16T11:28:01Z","2025-09-16T11:28:03Z","2025-09-16T11:28:06Z","2025-09-16T11:28:08Z","2025-09-16T11:28:09Z","2025-09-16T11:28:10Z","2025-09-16T11:28:11Z","2025-09-16T11:28:13Z","2025-09-16T11:28:15Z","2025-09-16T11:28:17Z","2025-09-16T11:28:18Z","2025-09-16T11:28:19Z","2025-09-16T11:28:22Z","2025-09-16T11:29:11Z","2025-09-16T11:29:14Z","2025-09-16T11:29:25Z","2025-09-16T11:29:28Z","2025-09-16T11:29:29Z","2025-09-16T11:29:34Z","2025-09-16T11:29:36Z","2025-09-16T11:29:37Z","2025-09-16T11:29:40Z","2025-09-16T11:29:41Z","2025-09-16T11:29:43Z","2025-09-16T11:29:45Z","2025-09-16T11:29:46Z","2025-09-16T11:29:49Z","2025-09-16T11:29:50Z","2025-09-16T11:30:07Z","2025-09-16T11:30:09Z","2025-09-16T11:30:15Z","2025-09-16T11:30:17Z","2025-09-16T11:30:19Z","2025-09-16T11:30:21Z","2025-09-16T11:30:27Z","2025-09-16T11:30:30Z","2025-09-16T11:30:37Z","2025-09-16T11:30:41Z","2025-09-16T11:30:48Z","2025-09-16T11:30:56Z","2025-09-16T11:31:03Z","2025-09-16T11:31:13Z","2025-09-16T11:31:16Z","2025-09-16T11:31:21Z","2025-09-16T11:31:23Z","2025-09-16T11:31:26Z","2025-09-16T11:31:29Z","2025-09-16T11:31:30Z","2025-09-16T11:31:33Z","2025-09-16T11:31:34Z","2025-09-16T11:31:38Z","2025-09-16T11:31:45Z","2025-09-16T11:31:49Z","2025-09-16T11:31:50Z","2025-09-16T11:31:53Z","2025-09-16T11:31:55Z","2025-09-16T11:31:59Z","2025-09-16T11:32:02Z","2025-09-16T11:32:05Z","2025-09-16T11:32:07Z","2025-09-16T11:32:09Z","2025-09-16T11:32:10Z","2025-09-16T11:32:20Z","2025-09-16T11:32:23Z","2025-09-16T11:32:26Z","2025-09-16T11:32:27Z","2025-09-16T11:32:30Z","2025-09-16T11:32:31Z","2025-09-16T11:32:35Z","2025-09-16T11:32:46Z","2025-09-16T11:32:49Z","2025-09-16T11:32:51Z","2025-09-16T11:32:55Z","2025-09-16T11:32:58Z","2025-09-16T11:33:03Z","2025-09-16T11:33:06Z","2025-09-16T11:33:08Z","2025-09-16T11:33:10Z","2025-09-16T11:33:11Z","2025-09-16T11:33:12Z","2025-09-16T11:33:14Z","2025-09-16T11:33:15Z","2025-09-16T11:33:16Z","2025-09-16T11:33:17Z","2025-09-16T11:33:18Z","2025-09-16T11:33:22Z","2025-09-16T11:33:24Z","2025-09-16T11:33:29Z","2025-09-16T11:33:33Z","2025-09-16T11:33:36Z","2025-09-16T11:33:40Z","2025-09-16T11:33:42Z","2025-09-16T11:33:43Z","2025-09-16T11:33:44Z","2025-09-16T11:33:45Z","2025-09-16T11:33:46Z","2025-09-16T11:33:48Z","2025-09-16T11:33:49Z","2025-09-16T11:33:50Z","2025-09-16T11:33:51Z","2025-09-16T11:33:53Z","2025-09-16T11:34:17Z","2025-09-16T11:34:18Z","2025-09-16T11:34:19Z","2025-09-16T11:34:21Z","2025-09-16T11:34:36Z","2025-09-16T11:34:38Z","2025-09-16T11:34:45Z","2025-09-16T11:34:51Z","2025-09-16T11:34:56Z","2025-09-16T11:34:59Z","2025-09-16T11:35:13Z","2025-09-16T11:35:14Z","2025-09-16T11:35:15Z","2025-09-16T11:35:18Z","2025-09-16T11:35:19Z","2025-09-16T11:35:20Z","2025-09-16T11:35:22Z","2025-09-16T11:35:23Z","2025-09-16T11:35:30Z","2025-09-16T11:35:31Z","2025-09-16T11:35:33Z","2025-09-16T11:35:34Z","2025-09-16T11:35:35Z","2025-09-16T11:35:36Z","2025-09-16T11:35:38Z","2025-09-16T11:35:46Z","2025-09-16T11:35:53Z","2025-09-16T11:35:58Z","2025-09-16T11:36:04Z","2025-09-16T11:36:09Z","2025-09-16T11:36:10Z","2025-09-16T11:36:11Z","2025-09-16T11:36:12Z","2025-09-16T11:36:13Z","2025-09-16T11:36:15Z","2025-09-16T11:36:21Z","2025-09-16T11:36:23Z","2025-09-16T11:36:25Z","2025-09-16T11:36:28Z","2025-09-16T11:36:32Z","2025-09-16T11:36:35Z","2025-09-16T11:36:43Z","2025-09-16T11:36:45Z","2025-09-16T11:36:47Z","2025-09-16T11:36:58Z","2025-09-16T11:37:09Z","2025-09-16T11:37:11Z","2025-09-16T11:37:13Z","2025-09-16T11:37:15Z","2025-09-16T11:37:22Z","2025-09-16T11:37:24Z","2025-09-16T11:37:33Z","2025-09-16T11:37:35Z","2025-09-16T11:37:38Z","2025-09-16T11:37:40Z","2025-09-16T11:37:41Z","2025-09-16T11:37:42Z","2025-09-16T11:37:43Z","2025-09-16T11:37:46Z","2025-09-16T11:37:49Z","2025-09-16T11:37:51Z","2025-09-16T11:37:56Z","2025-09-16T11:37:58Z","2025-09-16T11:38:20Z","2025-09-16T11:38:21Z","2025-09-16T11:38:25Z","2025-09-16T11:38:29Z","2025-09-16T11:38:31Z","2025-09-16T11:38:33Z","2025-09-16T11:38:34Z","2025-09-16T11:38:36Z","2025-09-16T11:38:38Z","2025-09-16T11:38:40Z","2025-09-16T11:38:44Z","2025-09-16T11:38:45Z","2025-09-16T11:38:50Z","2025-09-16T11:38:56Z","2025-09-16T11:39:00Z","2025-09-16T11:39:03Z","2025-09-16T11:39:06Z","2025-09-16T11:39:08Z","2025-09-16T11:39:11Z","2025-09-16T11:39:13Z","2025-09-16T11:39:19Z","2025-09-16T11:39:21Z","2025-09-16T11:39:25Z","2025-09-16T11:39:26Z","2025-09-16T11:39:27Z","2025-09-16T11:39:29Z","2025-09-16T11:39:34Z","2025-09-16T11:39:38Z","2025-09-16T11:39:40Z","2025-09-16T11:39:43Z","2025-09-16T11:39:44Z","2025-09-16T11:39:45Z","2025-09-16T11:39:46Z","2025-09-16T11:39:48Z","2025-09-16T11:39:50Z","2025-09-16T11:39:51Z","2025-09-16T11:39:54Z","2025-09-16T11:39:55Z","2025-09-16T11:40:00Z","2025-09-16T11:40:01Z","2025-09-16T11:40:02Z","2025-09-16T11:40:04Z","2025-09-16T11:40:06Z","2025-09-16T11:40:08Z","2025-09-16T11:40:13Z","2025-09-16T11:40:16Z","2025-09-16T11:40:17Z","2025-09-16T11:40:21Z","2025-09-16T11:40:24Z","2025-09-16T11:40:27Z","2025-09-16T11:40:32Z","2025-09-16T11:40:33Z","2025-09-16T11:40:36Z","2025-09-16T11:40:38Z","2025-09-16T11:40:41Z","2025-09-16T11:40:44Z","2025-09-16T11:40:48Z","2025-09-16T11:40:52Z","2025-09-16T11:40:55Z","2025-09-16T11:40:57Z","2025-09-16T11:40:59Z","2025-09-16T11:41:03Z","2025-09-16T11:41:05Z","2025-09-16T11:41:06Z","2025-09-16T11:41:07Z","2025-09-16T11:41:09Z","2025-09-16T11:41:12Z","2025-09-16T11:41:13Z","2025-09-16T11:41:16Z","2025-09-16T11:41:27Z","2025-09-16T11:41:32Z","2025-09-16T11:41:35Z","2025-09-16T11:41:38Z","2025-09-16T11:41:42Z","2025-09-16T11:41:45Z","2025-09-16T11:41:48Z","2025-09-16T11:41:53Z","2025-09-16T11:41:58Z","2025-09-16T11:42:04Z","2025-09-16T11:42:09Z","2025-09-16T11:42:10Z","2025-09-16T11:42:11Z","2025-09-16T11:42:12Z","2025-09-16T11:42:13Z","2025-09-16T11:42:14Z","2025-09-16T11:42:16Z","2025-09-16T11:42:18Z","2025-09-16T11:42:19Z","2025-09-16T11:42:20Z","2025-09-16T11:42:22Z","2025-09-16T11:42:24Z","2025-09-16T11:42:26Z","2025-09-16T11:42:28Z","2025-09-16T11:42:30Z","2025-09-16T11:42:31Z","2025-09-16T11:42:32Z","2025-09-16T11:42:35Z","2025-09-16T11:42:39Z","2025-09-16T11:42:45Z","2025-09-16T11:42:47Z","2025-09-16T11:42:50Z","2025-09-16T11:42:55Z","2025-09-16T11:42:56Z","2025-09-16T11:42:58Z","2025-09-16T11:43:00Z","2025-09-16T11:43:01Z","2025-09-16T11:43:03Z","2025-09-16T11:43:05Z","2025-09-16T11:43:07Z","2025-09-16T11:43:08Z","2025-09-16T11:43:15Z","2025-09-16T11:43:17Z","2025-09-16T11:43:18Z","2025-09-16T11:43:20Z","2025-09-16T11:43:27Z","2025-09-16T11:43:28Z","2025-09-16T11:43:29Z","2025-09-16T11:43:32Z","2025-09-16T11:43:33Z","2025-09-16T11:43:35Z","2025-09-16T11:43:39Z","2025-09-16T11:43:40Z","2025-09-16T11:43:45Z","2025-09-16T11:43:49Z","2025-09-16T11:43:50Z","2025-09-16T11:43:54Z","2025-09-16T11:43:55Z","2025-09-16T11:43:59Z","2025-09-16T11:44:01Z","2025-09-16T11:44:06Z","2025-09-16T11:44:17Z","2025-09-16T11:44:25Z","2025-09-16T11:44:33Z","2025-09-16T11:44:36Z","2025-09-16T11:44:38Z","2025-09-16T11:44:44Z","2025-09-16T11:44:48Z","2025-09-16T11:44:51Z","2025-09-16T11:44:55Z","2025-09-16T11:45:00Z","2025-09-16T11:45:01Z","2025-09-16T11:45:04Z","2025-09-16T11:45:07Z","2025-09-16T11:45:09Z","2025-09-16T11:45:14Z","2025-09-16T11:45:20Z","2025-09-16T11:45:21Z","2025-09-16T11:45:31Z","2025-09-16T11:45:37Z","2025-09-16T11:45:40Z","2025-09-16T11:45:41Z","2025-09-16T11:45:50Z","2025-09-16T11:45:55Z","2025-09-16T11:45:58Z","2025-09-16T11:46:03Z","2025-09-16T11:46:07Z","2025-09-16T11:46:09Z","2025-09-16T11:46:11Z","2025-09-16T11:46:14Z","2025-09-16T11:46:24Z","2025-09-16T11:46:29Z","2025-09-16T11:46:30Z","2025-09-16T11:46:36Z","2025-09-16T11:46:38Z","2025-09-16T11:46:42Z","2025-09-16T11:46:49Z","2025-09-16T11:47:07Z","2025-09-16T11:47:10Z","2025-09-16T11:47:13Z","2025-09-16T11:47:17Z","2025-09-16T11:47:27Z","2025-09-16T11:47:31Z","2025-09-16T11:47:55Z","2025-09-16T11:47:57Z","2025-09-16T11:48:03Z","2025-09-16T11:48:04Z","2025-09-16T11:48:06Z","2025-09-16T11:48:08Z","2025-09-16T11:48:09Z","2025-09-16T11:48:10Z","2025-09-16T11:48:11Z","2025-09-16T11:48:12Z","2025-09-16T11:48:15Z","2025-09-16T11:48:21Z","2025-09-16T11:48:22Z","2025-09-16T11:48:24Z","2025-09-16T11:48:27Z","2025-09-16T11:48:28Z","2025-09-16T11:48:29Z","2025-09-16T11:48:33Z","2025-09-16T11:48:35Z","2025-09-16T11:48:42Z","2025-09-16T11:48:44Z","2025-09-16T11:48:48Z","2025-09-16T11:48:52Z","2025-09-16T11:48:56Z","2025-09-16T11:49:06Z","2025-09-16T11:49:11Z","2025-09-16T11:49:14Z"],"heartRates":[108,108,108,108,109,103,103,102,102,102,102,102,102,102,106,106,108,108,108,108,108,108,108,106,106,106,105,105,105,105,105,102,101,101,101,101,102,102,102,102,102,101,101,101,101,101,101,104,104,104,106,106,107,107,107,107,107,103,103,104,104,104,104,100,100,97,96,95,95,95,95,94,94,95,95,95,95,94,94,94,93,93,93,93,94,94,94,94,93,92,92,92,92,97,95,95,95,95,95,95,96,94,95,95,91,91,92,92,92,92,92,92,91,91,91,91,91,88,88,88,89,89,90,90,90,90,94,94,93,92,92,92,92,94,94,94,95,98,98,98,98,99,99,99,99,101,101,101,105,105,112,112,109,109,104,104,104,104,104,107,107,107,107,107,107,96,99,99,101,103,103,106,106,111,111,111,112,112,108,108,108,108,108,108,108,109,109,109,109,109,106,106,106,106,104,104,104,104,104,105,107,112,112,112,113,113,110,110,109,109,109,109,107,107,107,107,107,103,103,103,103,103,102,105,105,105,105,105,104,101,101,101,101,101,100,100,100,100,99,99,103,102,102,102,102,106,106,107,107,107,105,105,105,105,105,106,107,106,106,102,102,103,103,103,103,103,103,103,103,104,105,97,97,104,103,103,103,102,102,103,103,105,105,105,105,104,105,106,106,106,106,106,109,109,106,106,106,106,106,109,111,111,111,111,112,112,112,114,114,114,114,114,117,117,117,117,115,115,115,127,127,127,127,128,128,128,126,126,125,125,124,124,124,120,115,115,111,108,108,108,108,105,105,107,109,109,109,106,107,107,109,109,108,108,110,110,110,113,114,114,114,114,126,126,128,128,128,137,137,140,140,140,140,145,145,145,145,145,149,149,150,150,150,148,148,148,148,148,148,148,141,141,140,140,134,134,134,134,134,134,132,132,132,133,133,134,137,137,137,147,147,152,152,155,157,157,157,157,162,157,156,156,153,149,148,143,143,146,144,141,141,138,138,136,136,136,133,133,134,134,134,134,134,132,132,125,125,125,123,123,118,118,118,119,120,120,122,122,122,123,118,118,118,126,126,126,123,124,124,122,121,120,120,119,119,119,119,119,122,122,122,121,121,121,121,122,122,120,120,120,120,121,121,121,121,121,121,121,121,121,120,120,120,120,119,119,117,117,117,117,117,118,118,117,117,117,117,115,116,116,116,116,116,118,118,117,117,117,117,126,130,132,132,132,135,135,135,135,134,134,134,134,133,131,131,125,120,117,118,118,117,120,116,111,111,111,111,111,111,111,115,116,117,117,117,118,121,122,126,126,129,128,128,127,127,127,127,126,126,126,126,127,127,127,127,129,129,130,130,130,130,132,132,132,135,135,135,135,134,123,123,123,123,126,132,132,132,132,135,135,135,133,134,134,134,133,132,132,132,132,130,130,130,124,124,119,119,119,118,118,118,118,117,117,118,118,117,117,121,121,121,121,120,117,117,117,119,119,119,115,115,118,115,115,113,113,114,114,114,114,114,114,112,111,111,111,111,108,108,109,110,110,113,113,114,116,116,123,123,123,124,128,132,132,132,132,132,132,130,126,122,122,122,122,122,119,119,117,117,117,118,118,118,118,118,118,117,117,118,117,117,116,116,116,118,118,118,118,117,117,117,125,125,132,132,132,132,132,134,140,147,147,148,148,148,148,148,149,149,147,147,146,146,146,146,146,141,140,136,136,134,134,134,131,131,131,131,127,127,127,125,123,124,124,122,122,121,121,121,122,126,126,126,128,129,133,135,135,135,131,131,131,131,131,131,131,126,126,123,122,118,118,118,118,116,114,112,110,110,110,109,109,109,112,112,116,118,118,118,118,118,119,120,123,123,123,124,121,121,121,121,121,120,120,117,117,116,115,116,118,117,117,119,119,119,132,132,133,133,133,133,135,136,134,125,125,122,122,114,114,113,113,116,116,116,116,116,116,116,116,116,125,126,125,125,120,120,120,116,115,116,116,120,120,121,121,121,121,121,122,126,126,126,127,127,127,127,127,127,129,130,130,130,130,129,115,115,123,128,128,136,136,136,138,138,138,142,142,142,142,151,151,151,150,150,149,149,149,149,149,142,141,131,130,130,130,131,131,130,130,130,130,130,129,129,129,131,131,130,131,131,131,131,131,130,129,130,130,130,130,130,131,131,131,130,130,130,130,129,129,127,127,127,127,124,124,124,122,122,121,121,122,122,122,122,122,122,122,120,120,120,120,121,129,137,138,138,148,150,151,151,153,153,153,153,152,152,149,149,149,149,141,141,141,141,141,141,136,136,135,134,132,132,134,134,134,134,134,138,138,138,142,142,150,156,156,155,153,150,148,148,146,142,142,136,136,132,132,132,132,132,132,132,132,132,132,133,133,133,136,136,140,140,141,141,141,142,142,142,142,143,143,141,141,141,138,138,138,137,137,137,137,137,137,136,136,135,135,135,135,134,134,134,134,134,134,134,134,134,134,133,133,133,133,133,132,132,129,129,129,127,127,126,127,126,126,126,125,125,124,124,124,124,122,122,122,126,126,129,129,129,131,131,131,132,132,133,133,133,133,133,135,135,137,137,137,137,140,140,140,140,140,141,141,142,142,142,144,144,144,145,145,145,145,145,145,142,142,142,143,142,142,145,145,145,145,157,157,160,166,166,172,172,172,174,174,173,168,167,167,167,168,168,168,169,168,168,168,168,169,167,167,167,166,167,167,167,163,162,162,159,158,157,157,157,156,156,156,155,155,155,154,153,153,153,153,149,149,148,148,147,147,145,145,145,145,145,146,146,147,147,149,148,148,147,147,146,146,146,146,146,146,141,140,140],"month":"2025-09-01"},"geometry":{"type":"LineString","coordinates":[[2.455239,48.703677,81.1],[2.455087,48.703866,81],[2.454986,48.703943,80.9],[2.45475,48.7042,80.6],[2.454469,48.704433,80.3],[2.454229,48.704656,79.9],[2.454158,48.704746,79.7],[2.454105,48.704851,79.6],[2.454032,48.704935,79.5],[2.453984,48.704953,79.4],[2.453953,48.704989,79.3],[2.453947,48.705016,79.2],[2.453933,48.705013,79.2],[2.453913,48.705041,79.1],[2.453931,48.70515,78.7],[2.453915,48.705235,78.4],[2.453966,48.705466,77.9],[2.453971,48.70553,77.7],[2.454041,48.705862,76.8],[2.454213,48.706447,75],[2.45425,48.706514,74.7],[2.454348,48.70664,74.3],[2.454541,48.706814,73.6],[2.454721,48.706995,73],[2.454781,48.707043,72.9],[2.45489,48.707104,72.6],[2.454995,48.707141,72.4],[2.455035,48.707172,72.2],[2.455015,48.707226,72],[2.454901,48.707294,71.7],[2.454755,48.707406,71.2],[2.45442,48.707598,70.4],[2.454217,48.7077,70],[2.454138,48.707714,69.9],[2.454045,48.707766,69.7],[2.453889,48.707882,69.1],[2.453625,48.708032,68.3],[2.453198,48.708295,66.8],[2.453077,48.708381,66.4],[2.453042,48.708415,66.2],[2.453052,48.708451,66.1],[2.453095,48.708486,66.1],[2.453151,48.708506,66.1],[2.453325,48.708512,66.2],[2.453383,48.708508,66.3],[2.453614,48.708522,66.5],[2.453742,48.708521,66.7],[2.453925,48.70848,67],[2.453973,48.708454,67],[2.454065,48.708428,67.1],[2.454193,48.708406,67.2],[2.454305,48.708367,67.4],[2.454587,48.708298,67.5],[2.45463,48.708305,67.6],[2.454665,48.708335,67.4],[2.454663,48.708424,67.2],[2.454719,48.708518,66.9],[2.454739,48.708576,66.8],[2.45472,48.708682,66.6],[2.454724,48.708817,66.2],[2.454742,48.708864,66.1],[2.454719,48.708928,65.8],[2.454698,48.709086,65.1],[2.454771,48.70939,63.2],[2.454766,48.709424,63],[2.454795,48.709603,61.8],[2.45482,48.709645,61.5],[2.454865,48.709889,59.7],[2.454872,48.71001,58.7],[2.454888,48.710045,58.3],[2.454875,48.710128,57.6],[2.454836,48.710139,57.6],[2.454707,48.710141,57.7],[2.454196,48.7102,58],[2.454108,48.710218,58.1],[2.454067,48.710204,58.2],[2.45404,48.710171,58.3],[2.454017,48.710066,58.4],[2.454024,48.710028,58.4],[2.454013,48.709998,58.5],[2.453991,48.709992,58.5],[2.453901,48.710015,58.5],[2.453818,48.710046,58.5],[2.453718,48.710071,58.4],[2.453398,48.710177,58],[2.453365,48.710213,57.5],[2.453343,48.710305,56.4],[2.453346,48.710412,55.1],[2.453323,48.710505,53.9],[2.45329,48.710527,53.6],[2.453219,48.710531,53.6],[2.453004,48.710508,53.7],[2.452727,48.710509,53.8],[2.452357,48.710488,53.9],[2.4523,48.710503,53.8],[2.45225,48.710577,53.5],[2.452223,48.710658,53.2],[2.452178,48.710745,53],[2.45215,48.710846,52.7],[2.452144,48.711006,51.9],[2.452088,48.711398,50],[2.45202,48.711488,49.6],[2.451765,48.711712,48.5],[2.451565,48.711914,47.4],[2.451328,48.712124,46.1],[2.451184,48.712225,45.5],[2.45091,48.712497,44.4],[2.450884,48.712533,44.2],[2.450894,48.712573,44.1],[2.450999,48.712651,43.7],[2.451024,48.712695,43.6],[2.451011,48.712745,43.2],[2.450877,48.712966,41.7],[2.450748,48.713134,40.8],[2.450672,48.71325,40.2],[2.450608,48.7133,39.9],[2.450528,48.713338,39.5],[2.449973,48.71354,37.3],[2.449968,48.713563,37.1],[2.449987,48.713595,36.9],[2.450041,48.713633,36.7],[2.450115,48.713663,36.5],[2.450366,48.713851,35.6],[2.450379,48.713949,35.4],[2.450481,48.71399,35.3],[2.450636,48.714089,35.1],[2.450855,48.71427,35.1],[2.450934,48.71432,35.2],[2.450949,48.714345,35.2],[2.450928,48.714389,35.2],[2.450946,48.714405,35.3],[2.451,48.714407,35.3],[2.451043,48.714423,35.3],[2.451044,48.714416,35.3],[2.451052,48.714422,35.3],[2.451,48.714387,35.3],[2.450902,48.714413,35.3],[2.450836,48.71445,35.3],[2.450811,48.714477,35.2],[2.450787,48.714537,35.2],[2.450775,48.714714,35],[2.450836,48.714872,34.8],[2.450845,48.714977,34.9],[2.45086,48.715001,34.9],[2.450884,48.715007,35],[2.450901,48.715036,35.1],[2.45086,48.715052,35.1],[2.450849,48.715065,35.1],[2.450841,48.715117,35.2],[2.450814,48.715136,35.2],[2.450836,48.71521,35.2],[2.450839,48.715203,35.3],[2.450848,48.715208,35.3],[2.450824,48.715225,35.3],[2.450819,48.715292,35.3],[2.450754,48.715378,35.2],[2.450697,48.715429,35.3],[2.45065,48.715546,35.3],[2.450674,48.71559,35.3],[2.450757,48.715643,35.3],[2.450815,48.715651,35.3],[2.45082,48.715665,35.3],[2.450812,48.715656,35.3],[2.450824,48.715657,35.3],[2.450814,48.715656,35.3],[2.450911,48.715689,35.2],[2.451029,48.715756,35],[2.451076,48.715817,34.7],[2.451389,48.716445,33.8],[2.451446,48.716591,33.7],[2.451514,48.716683,33.7],[2.451565,48.716776,33.7],[2.451616,48.716831,33.7],[2.451688,48.716981,33.8],[2.451803,48.717098,33.9],[2.45206,48.717274,34.1],[2.452181,48.717332,34.1],[2.45237,48.717392,34.2],[2.452504,48.717423,34.2],[2.452703,48.717487,34.1],[2.452837,48.717539,34.1],[2.452897,48.717554,34.1],[2.45292,48.717581,34.1],[2.452912,48.717602,34.1],[2.452888,48.717624,34],[2.452846,48.717633,34],[2.452794,48.717627,34],[2.452736,48.717638,34],[2.452698,48.717669,34],[2.452644,48.717743,33.9],[2.452609,48.717773,33.9],[2.452555,48.717781,33.9],[2.452498,48.717766,33.9],[2.452446,48.717742,33.8],[2.452327,48.717655,33.8],[2.452275,48.717636,33.8],[2.452217,48.71763,33.7],[2.452174,48.717637,33.7],[2.452116,48.717665,33.7],[2.452047,48.717725,33.7],[2.451684,48.717964,33.6],[2.451565,48.718052,33.6],[2.451537,48.71806,33.6],[2.451513,48.718053,33.6],[2.451469,48.717974,33.5],[2.451475,48.717912,33.4],[2.451527,48.717816,33.4],[2.451531,48.717744,33.3],[2.451479,48.717635,33.3],[2.45145,48.717601,33.2],[2.451358,48.717551,33.2],[2.451255,48.717516,33.2],[2.451171,48.717467,33.2],[2.451123,48.717403,33.2],[2.45112,48.717366,33.1],[2.451142,48.71733,33],[2.451257,48.717249,32.8],[2.45136,48.71714,32.8],[2.451345,48.717122,32.9],[2.451366,48.717124,32.8],[2.451376,48.717139,32.8],[2.451366,48.717153,32.8],[2.451287,48.717194,32.8],[2.451188,48.717262,32.7],[2.451094,48.717358,32.5],[2.451065,48.717371,32.5],[2.451006,48.717374,32.4],[2.450944,48.717401,32.4],[2.450808,48.717492,32.4],[2.450726,48.71757,32.4],[2.450688,48.717585,32.4],[2.450625,48.717636,32.4],[2.450597,48.717645,32.4],[2.45039,48.717768,32.2],[2.450324,48.717833,32.1],[2.450288,48.717856,32],[2.450214,48.71795,31.9],[2.45018,48.718027,31.9],[2.450026,48.718166,31.9],[2.449937,48.718211,31.9],[2.449867,48.718264,32],[2.449832,48.718311,32.1],[2.449837,48.718306,32.1],[2.44987,48.718349,32.2],[2.449921,48.718346,32.2],[2.450111,48.718516,32.4],[2.450203,48.718585,32.6],[2.450274,48.718652,32.7],[2.450306,48.718666,32.8],[2.4504,48.718666,32.9],[2.450459,48.718647,32.8],[2.450477,48.718633,32.9],[2.45045,48.718622,32.8],[2.450424,48.718629,32.8],[2.450406,48.718646,32.8],[2.450415,48.718688,32.9],[2.450413,48.718682,32.9],[2.450402,48.718687,32.9],[2.450465,48.718709,32.9],[2.450502,48.718681,32.9],[2.450536,48.718675,32.9],[2.450568,48.718688,33],[2.450577,48.718707,33],[2.450569,48.718722,33.1],[2.450551,48.718716,33],[2.45056,48.718716,33.1],[2.450549,48.718699,33],[2.450538,48.718711,33],[2.450515,48.718692,33],[2.450411,48.718756,33],[2.450345,48.718786,33],[2.45032,48.718751,32.9],[2.45033,48.718709,32.8],[2.450084,48.718478,32.4],[2.449885,48.718323,32.1],[2.449867,48.718288,32.1],[2.449879,48.71825,32.1],[2.449978,48.718191,32],[2.450028,48.718171,32],[2.450168,48.718061,31.9],[2.450191,48.718053,31.9],[2.450203,48.717979,31.8],[2.450192,48.717955,31.8],[2.450165,48.717937,31.8],[2.450114,48.717927,31.8],[2.449916,48.717838,31.7],[2.449712,48.717758,31.5],[2.449563,48.717682,31.4],[2.449445,48.717633,31.4],[2.449338,48.717604,31.4],[2.449309,48.717608,31.4],[2.449284,48.717622,31.5],[2.449285,48.717662,31.5],[2.449259,48.717675,31.6],[2.449336,48.717621,31.4],[2.449359,48.717619,31.4],[2.449457,48.717651,31.4],[2.449925,48.717859,31.6],[2.449994,48.717879,31.7],[2.450319,48.718034,31.9],[2.450707,48.718236,32.2],[2.450764,48.718293,32.3],[2.450781,48.718324,32.4],[2.450794,48.718454,32.6],[2.450775,48.718533,32.7],[2.450788,48.718568,32.8],[2.450822,48.718597,32.9],[2.450948,48.718665,33.1],[2.45102,48.718728,33.3],[2.45111,48.718777,33.5],[2.451174,48.718791,33.5],[2.451213,48.718791,33.5],[2.451296,48.718816,33.6],[2.451324,48.718835,33.7],[2.451386,48.718858,33.7],[2.451407,48.718876,33.7],[2.45142,48.718935,33.9],[2.451447,48.718987,34],[2.45147,48.718995,34],[2.451462,48.718997,34],[2.451481,48.719022,34],[2.451453,48.71904,33.9],[2.451449,48.71903,33.8],[2.451346,48.71909,33.3],[2.451238,48.719139,33.1],[2.451089,48.719225,33.3],[2.45092,48.719342,33.4],[2.450776,48.719416,33.2],[2.45061,48.719514,33.3],[2.450519,48.719597,33.5],[2.450467,48.719616,33.6],[2.450342,48.719683,33.8],[2.450301,48.71969,33.8],[2.450065,48.719623,33.5],[2.450001,48.719569,33.4],[2.449788,48.719478,33],[2.449515,48.719333,32.8],[2.449455,48.719279,32.7],[2.449403,48.719249,32.7],[2.449417,48.719238,32.7],[2.449448,48.719238,32.6],[2.449477,48.719254,32.6],[2.449548,48.719336,32.8],[2.449699,48.719424,32.9],[2.450046,48.719607,33.5],[2.450088,48.719637,33.5],[2.450141,48.719645,33.6],[2.450251,48.719704,33.8],[2.45054,48.719831,33.7],[2.450577,48.719858,33.7],[2.450904,48.720024,33.7],[2.451002,48.720063,33.8],[2.451485,48.720295,34.9],[2.451559,48.720348,35.2],[2.451637,48.720349,35.4],[2.451671,48.720362,35.5],[2.451717,48.720423,35.5],[2.451758,48.720528,35.8],[2.451824,48.72063,36.2],[2.451864,48.720656,36.4],[2.452082,48.720747,37.3],[2.452138,48.72075,37.6],[2.452293,48.720713,38.4],[2.452442,48.720703,39.2],[2.452536,48.720719,40.2],[2.45258,48.720734,40.7],[2.452737,48.720823,42.9],[2.452792,48.720863,43.6],[2.452867,48.720895,43.9],[2.452976,48.720979,44.1],[2.452988,48.721026,44.1],[2.452966,48.721045,44.2],[2.452931,48.721056,44.2],[2.45289,48.721052,44.2],[2.452852,48.721032,44.3],[2.452827,48.720997,44],[2.452811,48.720951,43.7],[2.452771,48.720905,43.1],[2.452639,48.720815,41.3],[2.452559,48.720776,40.2],[2.452466,48.720743,39.2],[2.452348,48.720734,38.6],[2.452096,48.720777,37.4],[2.45197,48.720767,37],[2.451858,48.720723,36.5],[2.451771,48.720679,36.2],[2.451723,48.720664,36],[2.451696,48.720669,36],[2.451661,48.720662,36],[2.451452,48.720672,35.4],[2.451323,48.7207,35.3],[2.451264,48.720733,35.2],[2.451088,48.7209,35],[2.450984,48.720979,35],[2.449915,48.721929,35.2],[2.449844,48.722011,35.2],[2.449851,48.722033,35.2],[2.44983,48.72203,35.2],[2.449858,48.722013,35.7],[2.449843,48.722006,36],[2.449919,48.721969,37.2],[2.449958,48.721965,37.7],[2.449998,48.721973,38.3],[2.450031,48.721989,38.8],[2.450052,48.72201,39.3],[2.450145,48.722065,40.9],[2.4502,48.722122,42.2],[2.450288,48.722167,43.7],[2.45034,48.72221,44.8],[2.450464,48.722286,46.9],[2.450485,48.72231,47.5],[2.450615,48.722389,49.8],[2.450694,48.72245,51.4],[2.450693,48.72247,51.7],[2.450636,48.72248,50.9],[2.450604,48.722466,50.4],[2.450575,48.722429,49.5],[2.450552,48.722338,47.7],[2.450078,48.722036,38.9],[2.449925,48.721977,36.5],[2.449883,48.721983,35.2],[2.449852,48.721999,35.2],[2.449805,48.722057,35.3],[2.449616,48.722216,35.4],[2.449359,48.722453,35.5],[2.448424,48.723267,35.7],[2.448312,48.723376,35.7],[2.447793,48.723837,35.3],[2.447688,48.72396,35.2],[2.447439,48.724219,34.9],[2.447254,48.724397,34.7],[2.446759,48.724798,34.6],[2.446631,48.724863,34.6],[2.446575,48.724911,34.6],[2.446434,48.724991,34.7],[2.446231,48.725154,34.9],[2.446119,48.725216,35],[2.446055,48.725241,35.1],[2.445954,48.725262,35.2],[2.445888,48.725263,35.2],[2.445851,48.725234,35.2],[2.445804,48.725219,35.2],[2.44578,48.725202,35.2],[2.445733,48.725113,35.2],[2.445701,48.72509,35.2],[2.445461,48.724812,35],[2.445461,48.724788,35],[2.445495,48.724761,34.7],[2.446227,48.724432,32],[2.44638,48.724332,31.7],[2.44657,48.724125,31.7],[2.44669,48.723928,31.8],[2.446787,48.7238,31.9],[2.446811,48.723753,31.9],[2.446961,48.723555,32],[2.446974,48.723515,32.1],[2.447014,48.723467,32.1],[2.447032,48.723426,32.1],[2.447093,48.723354,32.2],[2.447255,48.723116,32.3],[2.447306,48.723016,32.3],[2.447394,48.722934,32.2],[2.447439,48.722837,32.2],[2.447612,48.722549,32.1],[2.447662,48.722447,32],[2.447768,48.722105,32],[2.447777,48.721854,32],[2.447767,48.721758,32.1],[2.447705,48.721526,32.2],[2.447618,48.721338,32.3],[2.447295,48.720492,31.6],[2.44725,48.720401,31.5],[2.447114,48.720012,31.4],[2.447011,48.719806,31.3],[2.446927,48.719587,31.5],[2.44677,48.719386,31.8],[2.446688,48.719315,31.8],[2.446469,48.719181,31.7],[2.445983,48.718918,32],[2.445873,48.718874,32.2],[2.445818,48.718872,32.3],[2.445764,48.718885,32.5],[2.445727,48.718904,32.5],[2.445685,48.718957,32.7],[2.445689,48.718991,32.7],[2.445723,48.719055,32.7],[2.445741,48.719158,32.7],[2.445817,48.719398,32.7],[2.445874,48.719506,32.8],[2.445906,48.719661,32.9],[2.445967,48.719773,33],[2.44602,48.719918,33],[2.446038,48.719943,33],[2.446068,48.720037,33.1],[2.446065,48.720145,33.3],[2.446035,48.720214,33.5],[2.445956,48.720308,33.6],[2.445925,48.720374,33.5],[2.445878,48.720434,33.5],[2.445834,48.72053,33.5],[2.445667,48.720811,33.4],[2.445613,48.720974,33.3],[2.445444,48.721232,33.2],[2.445411,48.721314,33.1],[2.445407,48.721362,33.1],[2.445321,48.721522,33],[2.445282,48.721656,32.9],[2.445294,48.721699,32.8],[2.445264,48.721708,32.8],[2.445243,48.7217,32.8],[2.445234,48.721652,32.7],[2.445353,48.72147,32.8],[2.445377,48.721461,32.8],[2.445393,48.721444,32.8],[2.4454,48.721395,32.9],[2.445443,48.721357,32.9],[2.445468,48.721353,32.9],[2.445457,48.721362,32.9],[2.445464,48.721366,32.9],[2.445427,48.721349,33],[2.44536,48.721455,33.1],[2.445267,48.721637,33.5],[2.445242,48.721711,33.8],[2.445259,48.721904,34.4],[2.445301,48.722023,34.8],[2.445323,48.722151,35.3],[2.445355,48.72223,35.5],[2.445379,48.722346,35.7],[2.445371,48.722384,35.8],[2.445312,48.722508,36],[2.445189,48.722589,36.1],[2.444948,48.722823,36.2],[2.444896,48.722895,36.1],[2.444828,48.722963,36],[2.444664,48.723101,36],[2.444642,48.723146,36],[2.444664,48.723194,35.9],[2.444787,48.723315,35.8],[2.444985,48.72358,35.6],[2.445122,48.723743,35.6],[2.445142,48.723785,35.6],[2.445162,48.723874,35.6],[2.445159,48.723913,35.6],[2.444972,48.724128,35.5],[2.444973,48.724182,35.4],[2.445042,48.724239,35.2],[2.445207,48.72448,34.9],[2.445233,48.724552,34.9],[2.445324,48.724681,34.9],[2.445357,48.724708,34.9],[2.445488,48.724889,35.1],[2.445631,48.725051,35.2],[2.445663,48.725071,35.2],[2.445755,48.725186,35.2],[2.445794,48.725221,35.2],[2.445844,48.725244,35.2],[2.445904,48.725254,35.1],[2.44597,48.725251,35.1],[2.446031,48.725231,35],[2.446085,48.725199,35],[2.446292,48.725031,34.8],[2.446747,48.724742,34.6],[2.446923,48.724617,34.6],[2.44725,48.724355,34.7],[2.447453,48.724168,35],[2.44753,48.724071,35.1],[2.4478,48.723787,35.4],[2.448166,48.72347,35.6],[2.448737,48.722949,35.7],[2.448797,48.722904,35.7],[2.449784,48.721999,35.3],[2.450443,48.721415,34.9],[2.450568,48.721314,34.9],[2.450858,48.72105,34.9],[2.451052,48.720916,35],[2.451185,48.720758,35.1],[2.45129,48.720661,35.3],[2.451415,48.720572,35.4],[2.451494,48.720459,35.5],[2.451661,48.720315,35.5],[2.45176,48.720211,35.6],[2.451989,48.720012,35.6],[2.452112,48.71992,35.7],[2.452179,48.71988,35.7],[2.452257,48.719849,35.7],[2.452697,48.71976,35.7],[2.45332,48.71965,35.9],[2.45423,48.719448,36.4],[2.454555,48.719385,36.6],[2.455022,48.719282,36.9],[2.45526,48.719243,37],[2.45541,48.719193,37.1],[2.455609,48.719095,37],[2.455689,48.719064,37],[2.455824,48.718997,36.9],[2.455857,48.718951,36.9],[2.455913,48.718902,36.8],[2.455942,48.71884,36.8],[2.455927,48.718844,36.8],[2.456059,48.718732,36.7],[2.456099,48.718716,36.7],[2.456203,48.71871,36.7],[2.456256,48.718721,36.8],[2.456653,48.719139,38.3],[2.457033,48.719501,40],[2.457084,48.719525,40.1],[2.457157,48.71951,39.9],[2.457191,48.71947,39.7],[2.45731,48.719384,39.3],[2.457353,48.71938,39.2],[2.457513,48.71927,38.8],[2.45824,48.718812,37.1],[2.458566,48.71862,36.8],[2.458588,48.718588,36.8],[2.458583,48.718547,36.8],[2.458522,48.718512,36.6],[2.458325,48.718456,36.3],[2.458197,48.718395,36.1],[2.458062,48.718344,35.9],[2.457929,48.718283,35.7],[2.457797,48.71821,35.7],[2.4575,48.718097,35.6],[2.457225,48.717975,35.9],[2.456992,48.717888,36.2],[2.457019,48.717844,36.2],[2.457055,48.717823,36.2],[2.457092,48.717771,36.2],[2.457166,48.717706,36.2],[2.45743,48.717432,36.3],[2.4575,48.717373,36.3],[2.457813,48.71703,36.4],[2.457847,48.717006,36.4],[2.458035,48.716801,36.6],[2.458044,48.716777,36.6],[2.458097,48.716727,36.6],[2.458137,48.716707,36.6],[2.458256,48.716603,36.6],[2.458251,48.716579,36.6],[2.458198,48.71653,36.7],[2.458181,48.716496,36.7],[2.458181,48.716455,36.7],[2.45821,48.716414,36.7],[2.45849,48.716113,36.8],[2.458585,48.716031,36.9],[2.458578,48.716003,36.9],[2.458555,48.715988,36.9],[2.458394,48.71593,37],[2.45829,48.715838,37.1],[2.458278,48.715781,37.1],[2.458293,48.715788,37.1],[2.458256,48.715748,37.1],[2.457998,48.715626,37.3],[2.457899,48.715564,37.3],[2.457826,48.715558,37.4],[2.457677,48.715654,37.2],[2.457657,48.715676,37.1],[2.457687,48.715701,37.2],[2.457689,48.715714,37.2],[2.457663,48.715748,37.1],[2.457616,48.715755,37],[2.457575,48.715748,37],[2.457537,48.715759,36.9],[2.457493,48.71579,36.9],[2.457375,48.715781,36.7],[2.457343,48.715787,36.7],[2.457325,48.715773,36.7],[2.457298,48.715814,36.7],[2.457308,48.715828,36.7],[2.457334,48.715837,36.7],[2.457438,48.71583,36.8],[2.457504,48.715843,36.8],[2.457583,48.715798,36.9],[2.457729,48.715855,37],[2.457773,48.715865,37],[2.457903,48.715939,37.1],[2.458335,48.716122,36.9],[2.458393,48.716168,36.8],[2.458403,48.716211,36.8],[2.458428,48.716218,36.8],[2.45847,48.716195,36.8],[2.458514,48.716107,36.8],[2.459121,48.715473,36.9],[2.459137,48.715435,36.8],[2.459107,48.715406,36.8],[2.459079,48.715353,36.7],[2.45902,48.715333,36.6],[2.458988,48.715311,36.6],[2.458985,48.715287,36.6],[2.45897,48.715274,36.6],[2.458932,48.715273,36.6],[2.458883,48.715393,36.6],[2.458858,48.715422,36.6],[2.458769,48.715463,36.6],[2.458739,48.715491,36.6],[2.458745,48.715511,36.6],[2.458821,48.715538,36.7],[2.458843,48.715492,36.8],[2.458956,48.715432,36.9],[2.458983,48.715406,36.9],[2.459006,48.715413,36.9],[2.459132,48.71536,36.9],[2.459188,48.715347,36.8],[2.459286,48.715294,36.8],[2.45931,48.71526,36.8],[2.459364,48.715224,36.8],[2.459396,48.715159,36.8],[2.459516,48.715086,36.7],[2.459608,48.714972,36.6],[2.45974,48.714831,36.6],[2.459832,48.714774,36.6],[2.460006,48.714717,36.6],[2.460465,48.71466,36.7],[2.460665,48.714611,36.7],[2.46118,48.714442,37],[2.461344,48.714376,37.1],[2.461398,48.714369,37.1],[2.461454,48.714383,37.3],[2.461491,48.714402,37.4],[2.46158,48.714486,37.8],[2.46169,48.714543,38],[2.461792,48.714623,38.3],[2.461945,48.714723,38.7],[2.462216,48.714873,39.4],[2.462472,48.715035,40.1],[2.462705,48.715155,41.4],[2.462748,48.715169,41.5],[2.462889,48.715242,41.7],[2.462985,48.715303,41.9],[2.463115,48.715411,42.4],[2.463576,48.715728,44.7],[2.463794,48.71585,45.3],[2.463819,48.715878,45.4],[2.463818,48.715914,45.5],[2.463793,48.715947,45.6],[2.463659,48.716025,45.8],[2.463512,48.716132,45.9],[2.463468,48.716155,46],[2.462708,48.716692,45.7],[2.462564,48.716765,45.6],[2.462531,48.716765,45.6],[2.462518,48.716738,45.5],[2.462549,48.716708,45.6],[2.462594,48.716682,45.6],[2.462717,48.716653,45.7],[2.462766,48.716628,45.7],[2.462836,48.716564,45.7],[2.462964,48.716482,45.9],[2.463038,48.716421,45.9],[2.463576,48.716054,45.9],[2.46364,48.716043,45.8],[2.463707,48.716046,45.8],[2.463758,48.716026,45.7],[2.463877,48.715912,45.5],[2.464289,48.715639,45.9],[2.46433,48.715621,46],[2.464386,48.715634,46.1],[2.464521,48.715743,46.3],[2.46456,48.715756,46.4],[2.464604,48.715736,46.4],[2.464659,48.715678,46.5],[2.464973,48.715453,46.7],[2.465047,48.715388,46.7],[2.465294,48.715262,46.5],[2.46534,48.715249,46.4],[2.465484,48.715104,46.2],[2.465523,48.715081,46.1],[2.465654,48.715045,46.1],[2.465705,48.715023,46.1],[2.466106,48.714913,46.9],[2.466549,48.714904,48],[2.466777,48.714891,48.5],[2.466933,48.714868,48.7],[2.467024,48.714837,48.9],[2.467136,48.714827,49],[2.467437,48.714781,49.3],[2.467508,48.71479,49.4],[2.467614,48.714772,49.5],[2.467843,48.714707,50.4],[2.467879,48.714673,50.4],[2.467867,48.714569,49.5],[2.467825,48.714471,48.7],[2.467814,48.714418,48.4],[2.46777,48.714321,47.8],[2.467737,48.714284,47.5],[2.467671,48.714268,47.3],[2.467596,48.714264,47.2],[2.467457,48.714277,47.1],[2.467395,48.71429,47],[2.467129,48.714317,46.7],[2.46684,48.714333,46.3],[2.466231,48.714406,45.3],[2.466173,48.714384,45.2],[2.466141,48.714338,45.1],[2.466146,48.714286,45],[2.466115,48.714093,44.6],[2.46602,48.713709,43.6],[2.466017,48.713603,43.2],[2.465963,48.71345,42.5],[2.465917,48.713247,41.4],[2.465903,48.713136,40.9],[2.465853,48.713015,40.2],[2.465769,48.712645,38.4],[2.465712,48.712625,38.3],[2.465375,48.712689,38.2],[2.465232,48.712701,38.1],[2.465082,48.712734,38],[2.464879,48.71282,37.8],[2.464819,48.712814,37.8],[2.46477,48.712772,37.7],[2.464762,48.71272,37.7],[2.464842,48.71262,37.5],[2.464856,48.712564,37.4],[2.464819,48.712452,37.2],[2.464755,48.71215,36.7],[2.46477,48.712082,36.5],[2.464745,48.712023,36.4],[2.46463,48.711498,35.7],[2.464587,48.711207,35.7],[2.464598,48.711065,35.7],[2.464611,48.711021,35.8],[2.464651,48.710991,35.8],[2.46471,48.710979,35.7],[2.465009,48.710979,35.4],[2.46525,48.711011,35.1],[2.465572,48.710984,34.9],[2.465697,48.711007,34.8],[2.465913,48.711014,34.7],[2.466298,48.711061,34.7],[2.466831,48.711105,34.8],[2.467048,48.711111,35],[2.467215,48.711138,35.4],[2.46729,48.71114,35.6],[2.467584,48.711176,36.6],[2.467802,48.711218,36.9],[2.468056,48.711317,36.9],[2.468167,48.711376,37],[2.468211,48.711408,37],[2.468335,48.71153,37.1],[2.468401,48.711616,37.2],[2.468532,48.711846,37],[2.468566,48.71189,37],[2.468682,48.711997,36.9],[2.468765,48.712032,36.8],[2.468745,48.712026,36.7],[2.468774,48.712063,36.7],[2.468778,48.712042,36.6],[2.468768,48.712021,36.6],[2.468786,48.711978,36.5],[2.468942,48.711925,36.5],[2.468927,48.711925,36.5],[2.469096,48.711884,36.4],[2.469131,48.711889,36.4],[2.469168,48.711912,36.4],[2.469189,48.711939,36.4],[2.469213,48.711941,36.4],[2.46923,48.711956,36.4],[2.469244,48.711949,36.4],[2.469253,48.711926,36.3],[2.469241,48.711937,36.2],[2.469249,48.711931,36.2],[2.46923,48.711892,35.9],[2.469183,48.711848,35.7],[2.469183,48.711832,35.6],[2.469406,48.711563,35],[2.469452,48.711523,34.9],[2.469668,48.711258,34.7],[2.469694,48.71125,34.7],[2.469739,48.711271,34.7],[2.469837,48.7113,34.6],[2.469855,48.711316,34.6],[2.470081,48.711388,34.5],[2.470264,48.711421,34.4],[2.470599,48.71151,34.4],[2.470636,48.711513,34.4],[2.470832,48.711566,34.3],[2.470838,48.711578,34.3],[2.470834,48.711574,34.3],[2.470839,48.71158,34.3],[2.470833,48.711577,34.3],[2.470887,48.711558,34.2],[2.472591,48.711947,33.7],[2.472746,48.71197,33.6],[2.472764,48.711992,33.6],[2.472822,48.712004,33.6],[2.472903,48.711974,33.6],[2.472931,48.711985,33.6],[2.472932,48.712005,33.5],[2.472905,48.712013,33.5],[2.472907,48.712007,33.5],[2.472891,48.712003,33.5],[2.472884,48.71199,33.5],[2.472845,48.711971,33.5],[2.472859,48.711976,33.5],[2.472852,48.711968,33.5],[2.472856,48.711975,33.5],[2.472707,48.711969,33.6],[2.472564,48.711945,33.6],[2.471837,48.711779,33.8],[2.471603,48.711719,33.9],[2.471522,48.711705,33.9],[2.471138,48.711607,34.1],[2.471023,48.711585,34.2],[2.470963,48.711563,34.2],[2.470744,48.711509,34.3],[2.470668,48.711499,34.3],[2.470521,48.71146,34.4],[2.470372,48.711437,34.4],[2.47032,48.71142,34.4],[2.470131,48.711382,34.5],[2.470085,48.711361,34.5],[2.469166,48.71115,34.3],[2.46907,48.711135,34.2],[2.468875,48.711079,34.2],[2.468859,48.711057,34.2],[2.468878,48.711042,34.1],[2.468871,48.711049,34.1],[2.468892,48.71105,34.1],[2.468964,48.711013,34.1],[2.469155,48.710946,34.1],[2.469267,48.710881,34.1],[2.469254,48.710891,34.1],[2.469287,48.710852,34.1],[2.469398,48.71077,34.1],[2.469638,48.710551,34.1],[2.469736,48.71048,34.1],[2.469919,48.710368,34.1],[2.469999,48.710329,34.1],[2.470139,48.710289,34],[2.470284,48.710258,34],[2.470331,48.710264,34],[2.470488,48.710251,34],[2.470531,48.71024,34],[2.470736,48.710225,34],[2.471068,48.710183,33.9],[2.471278,48.710166,33.8],[2.47132,48.710156,33.8],[2.471462,48.710165,33.8],[2.471556,48.710156,33.8],[2.471717,48.710159,33.8],[2.471824,48.71014,33.9],[2.471893,48.710072,33.9],[2.471962,48.710033,33.9],[2.472002,48.709983,34],[2.472005,48.709958,34],[2.472201,48.709651,34.4],[2.472276,48.709558,34.6],[2.472332,48.709463,34.8],[2.472371,48.709432,34.8],[2.472403,48.709343,34.9],[2.472424,48.709312,34.9],[2.472476,48.709172,34.9],[2.472574,48.708751,34.9],[2.472589,48.708629,35],[2.472621,48.708558,35.1],[2.472707,48.708429,35.2],[2.472731,48.708327,35.3],[2.472787,48.708174,35.4],[2.472775,48.708095,35.4],[2.47279,48.708063,35.4],[2.47275,48.708056,35.4],[2.472751,48.708048,35.4],[2.472772,48.708044,35.4],[2.472823,48.708053,35.4],[2.472847,48.708049,35.4],[2.472869,48.708029,35.4],[2.472882,48.707998,35.4],[2.472868,48.707968,35.4],[2.472879,48.707864,35.4],[2.472927,48.707808,35.5],[2.473021,48.70765,35.6],[2.473077,48.707528,35.6],[2.473166,48.707432,35.7],[2.473232,48.707318,35.7],[2.473243,48.707267,35.7],[2.473237,48.707238,35.7],[2.473219,48.707214,35.8],[2.473185,48.707195,35.8],[2.473129,48.707186,35.8],[2.473007,48.707187,35.8],[2.472955,48.707172,35.8],[2.472916,48.70714,35.8],[2.472889,48.707098,35.9],[2.472884,48.706999,36.1],[2.472622,48.70603,41.7],[2.472599,48.706,41.8],[2.47254,48.70599,41.9],[2.472414,48.706011,42.2],[2.471547,48.70608,44.1],[2.471444,48.706078,44.4],[2.471093,48.70612,45.3],[2.4708,48.706171,45.6],[2.470533,48.706227,45.7],[2.470363,48.706248,45.8],[2.469578,48.706407,45.5],[2.469546,48.706448,45.2],[2.469552,48.7065,44.8],[2.469611,48.706666,43.3],[2.469617,48.706741,42.7],[2.469646,48.706801,42.1],[2.469692,48.706947,40.8],[2.469703,48.70703,40.1],[2.46983,48.707487,37],[2.469849,48.707503,36.9],[2.469859,48.707532,36.8],[2.469854,48.707552,36.8],[2.469822,48.707576,36.8],[2.469769,48.707599,36.8],[2.469625,48.707604,36.8],[2.469072,48.707664,36.8],[2.468557,48.707731,36.7],[2.468185,48.707763,36.6],[2.467715,48.707819,36.3],[2.46735,48.707894,36.2],[2.46728,48.707891,36.1],[2.467213,48.707879,36.3],[2.467182,48.707841,36.5],[2.467175,48.70778,36.9],[2.467122,48.707692,37.6],[2.466959,48.707488,39.8],[2.466922,48.707426,40.5],[2.466867,48.707364,41.3],[2.466806,48.707273,42.3],[2.466711,48.707166,43.5],[2.466632,48.707119,44],[2.466228,48.707213,43.5],[2.466129,48.707244,43.5],[2.466012,48.707262,43.4],[2.465374,48.707425,42.9],[2.464772,48.707565,42.4],[2.464676,48.707607,42.2],[2.46457,48.707622,42.1],[2.464475,48.707655,42],[2.464109,48.707757,41.3],[2.464,48.707803,41],[2.46346,48.707988,39.2],[2.46342,48.708009,39.1],[2.463407,48.708053,38.8],[2.46345,48.708118,38.3],[2.463457,48.708151,38.2],[2.463422,48.708188,38.1],[2.463353,48.70822,37.9],[2.463139,48.708281,37.4],[2.46292,48.708369,36.9],[2.462771,48.70844,36.6],[2.462357,48.708611,35.7],[2.46219,48.708689,35.5],[2.460423,48.709451,36.7],[2.460356,48.709495,36.8],[2.46015,48.709674,37.1],[2.459952,48.709873,37.1],[2.459864,48.709979,36.9],[2.459752,48.710078,36.5],[2.459683,48.710119,36.4],[2.459522,48.710195,36],[2.459335,48.710246,35.7],[2.45913,48.71027,35.7],[2.458753,48.71034,35.8],[2.45867,48.710368,35.9],[2.458315,48.71056,36.1],[2.457926,48.710825,35.5],[2.457718,48.710955,35.2],[2.457712,48.711013,35.2],[2.457616,48.711076,35.3],[2.457568,48.711134,35.4],[2.457526,48.711235,35.4],[2.457511,48.711308,35.4],[2.457529,48.711562,35.1],[2.457547,48.711655,35.1],[2.457597,48.711804,35.3],[2.457622,48.711848,35.3],[2.45763,48.711889,35.3],[2.457616,48.711974,35.3],[2.457622,48.712203,35.3],[2.457576,48.712387,35.2],[2.457533,48.712475,35],[2.457436,48.712605,34.6],[2.457382,48.712654,34.4],[2.457311,48.712696,34.3],[2.457236,48.712721,34.3],[2.457109,48.712799,34.3],[2.456968,48.712839,34.6],[2.45689,48.71285,34.7],[2.456717,48.712908,34.9],[2.45666,48.712939,34.9],[2.456445,48.713124,34.9],[2.456415,48.713169,34.9],[2.456407,48.713218,34.9],[2.456427,48.713313,34.9],[2.45641,48.713411,34.8],[2.456353,48.713489,34.7],[2.456234,48.713576,34.7],[2.456181,48.713629,34.6],[2.456165,48.713635,34.6],[2.456091,48.713708,34.6],[2.455979,48.713778,34.5],[2.455878,48.713827,34.5],[2.455715,48.713927,34.5],[2.455659,48.713935,34.5],[2.455529,48.714026,34.5],[2.45542,48.714072,34.4],[2.45527,48.714152,34.4],[2.455109,48.714224,34.4],[2.454934,48.714343,34.4],[2.454808,48.714491,34.5],[2.454689,48.7146,34.5],[2.454593,48.714662,34.4],[2.454487,48.714713,34.4],[2.454272,48.714763,34.4],[2.454207,48.714794,34.4],[2.454189,48.714794,34.4],[2.454181,48.714782,34.4],[2.454205,48.714761,34.4],[2.454208,48.714772,34.4],[2.454212,48.714765,34.4],[2.454208,48.71477,34.4],[2.454231,48.714755,34.4],[2.454381,48.714737,34.4],[2.454561,48.714668,34.4],[2.454718,48.714565,34.5],[2.454891,48.714407,34.5],[2.455007,48.71428,34.4],[2.455173,48.714177,34.4],[2.455517,48.714031,34.5],[2.455821,48.71387,34.5],[2.456204,48.713631,34.6],[2.456432,48.713432,34.8],[2.456434,48.713364,34.8],[2.456421,48.713303,34.9],[2.456391,48.713249,34.9],[2.456412,48.7132,34.9],[2.456398,48.713152,34.9],[2.456501,48.713066,35],[2.456618,48.71301,35],[2.456646,48.712946,34.9],[2.4567,48.712903,34.9],[2.456849,48.712865,34.7],[2.457016,48.712848,34.5],[2.457193,48.712781,34.3],[2.457327,48.712686,34.3],[2.457462,48.712621,34.6],[2.45749,48.71259,34.7],[2.457518,48.71252,34.9],[2.4576,48.712381,35.2],[2.457631,48.712165,35.3],[2.457635,48.71184,35.3],[2.457594,48.711731,35.2],[2.457549,48.711561,35.1],[2.457534,48.711267,35.4],[2.457551,48.711216,35.4],[2.457608,48.711116,35.4],[2.457701,48.711035,35.2],[2.457751,48.711014,35.2],[2.457804,48.710941,35.2],[2.457869,48.710889,35.3],[2.45792,48.710802,35.4],[2.45796,48.710766,35.5],[2.458293,48.710549,36.1],[2.458379,48.71051,36.2],[2.458369,48.710479,36.4],[2.458303,48.710456,36.7],[2.458171,48.710337,38.3],[2.458145,48.710325,38.6],[2.45811,48.710256,40.7],[2.458202,48.710218,42],[2.458213,48.710203,42.4],[2.458249,48.710187,42.9],[2.45833,48.710114,44.7],[2.458324,48.71009,45.1],[2.458215,48.710014,47.2],[2.458121,48.709963,48.8],[2.458114,48.709946,49.1],[2.458127,48.70987,50.2],[2.458117,48.709857,50.2],[2.45802,48.70982,51],[2.457982,48.709797,51.3],[2.457917,48.709717,52.2],[2.457713,48.709569,53.9],[2.457595,48.709447,55.3],[2.457458,48.709334,56.8],[2.457376,48.70932,57.3],[2.457327,48.709336,57.7],[2.457174,48.70936,58.6],[2.457079,48.709357,59.1],[2.456986,48.709337,59.6],[2.456912,48.709301,60],[2.456823,48.709236,60.6],[2.456807,48.709214,60.8],[2.456751,48.709172,61.1],[2.456704,48.709121,61.5],[2.456666,48.709096,61.8],[2.456599,48.709003,62.4],[2.456477,48.708896,63.3],[2.456451,48.708883,63.4],[2.45627,48.708696,64.6],[2.456129,48.708579,65.2],[2.456067,48.708516,65.4],[2.45603,48.708494,65.5],[2.455815,48.708292,66.3],[2.455677,48.708191,66.8],[2.455601,48.708124,67.2],[2.455453,48.708033,67.7],[2.45537,48.707945,68.1],[2.455336,48.707887,68.4],[2.455317,48.707827,68.6],[2.455266,48.707748,69],[2.455138,48.707502,70.3],[2.455037,48.707391,71.1],[2.455029,48.70737,71.3],[2.454953,48.707299,71.8],[2.454923,48.707246,72],[2.454844,48.707154,72.5],[2.454672,48.707007,73.1],[2.454256,48.706575,74.5],[2.454196,48.706496,74.8],[2.45415,48.706414,75.1],[2.454107,48.706306,75.5],[2.454026,48.706024,76.4],[2.454015,48.705897,76.7],[2.453851,48.705216,78.4],[2.453854,48.705221,78.4],[2.453837,48.705145,78.5],[2.453815,48.705109,78.5],[2.453724,48.705052,78.5],[2.453604,48.705012,78.6],[2.453562,48.704984,78.7],[2.453534,48.704952,78.8],[2.453529,48.704916,78.9],[2.453549,48.704879,79],[2.453688,48.704802,79.1],[2.453859,48.704622,79.6],[2.453862,48.704606,79.7],[2.453863,48.704624,79.7],[2.453928,48.704633,79.9],[2.453943,48.704621,79.9],[2.453943,48.704606,80],[2.454005,48.704548,80.1],[2.454046,48.704483,80.2],[2.454234,48.704296,80.5],[2.454273,48.704242,80.6],[2.454404,48.70415,80.8],[2.454512,48.704029,81],[2.454655,48.703923,81.1],[2.454926,48.703644,81.4],[2.455021,48.703513,81.5],[2.455096,48.703462,81.6]]}}]}