{"type":"FeatureCollection","features":[{"type":"Feature","properties":{"name":"Costa Rica - Découverte des flore et faune locales","type":"marche","time":"2026-08-13T12:05:25Z","coordTimes":["2026-08-13T12:05:25Z","2026-08-13T12:05:29Z","2026-08-13T12:05:33Z","2026-08-13T12:05:35Z","2026-08-13T12:05:39Z","2026-08-13T12:05:43Z","2026-08-13T12:05:48Z","2026-08-13T12:05:52Z","2026-08-13T12:05:55Z","2026-08-13T12:05:59Z","2026-08-13T12:06:01Z","2026-08-13T12:06:04Z","2026-08-13T12:06:05Z","2026-08-13T12:06:08Z","2026-08-13T12:06:13Z","2026-08-13T12:06:15Z","2026-08-13T12:06:17Z","2026-08-13T12:06:20Z","2026-08-13T12:06:23Z","2026-08-13T12:06:26Z","2026-08-13T12:06:31Z","2026-08-13T12:06:33Z","2026-08-13T12:06:37Z","2026-08-13T12:06:51Z","2026-08-13T12:06:52Z","2026-08-13T12:06:57Z","2026-08-13T12:06:59Z","2026-08-13T12:07:01Z","2026-08-13T12:07:02Z","2026-08-13T12:07:04Z","2026-08-13T12:07:05Z","2026-08-13T12:07:07Z","2026-08-13T12:07:13Z","2026-08-13T12:07:14Z","2026-08-13T12:07:19Z","2026-08-13T12:07:20Z","2026-08-13T12:07:25Z","2026-08-13T12:07:26Z","2026-08-13T12:07:29Z","2026-08-13T12:07:32Z","2026-08-13T12:07:34Z","2026-08-13T12:07:39Z","2026-08-13T12:07:40Z","2026-08-13T12:08:12Z","2026-08-13T12:08:28Z","2026-08-13T12:08:35Z","2026-08-13T12:08:41Z","2026-08-13T12:08:43Z","2026-08-13T12:08:48Z","2026-08-13T12:08:49Z","2026-08-13T12:08:52Z","2026-08-13T12:08:55Z","2026-08-13T12:09:02Z","2026-08-13T12:09:06Z","2026-08-13T12:09:09Z","2026-08-13T12:09:10Z","2026-08-13T12:09:12Z","2026-08-13T12:09:14Z","2026-08-13T12:09:19Z","2026-08-13T12:09:22Z","2026-08-13T12:09:25Z","2026-08-13T12:10:41Z","2026-08-13T12:10:42Z","2026-08-13T12:10:46Z","2026-08-13T12:10:49Z","2026-08-13T12:10:52Z","2026-08-13T12:10:53Z","2026-08-13T12:10:55Z","2026-08-13T12:10:57Z","2026-08-13T12:11:01Z","2026-08-13T12:11:02Z","2026-08-13T12:11:11Z","2026-08-13T12:11:12Z","2026-08-13T12:11:15Z","2026-08-13T12:11:16Z","2026-08-13T12:11:19Z","2026-08-13T12:11:22Z","2026-08-13T12:11:26Z","2026-08-13T12:11:29Z","2026-08-13T12:11:30Z","2026-08-13T12:11:31Z","2026-08-13T12:11:32Z","2026-08-13T12:11:33Z","2026-08-13T12:11:35Z","2026-08-13T12:11:36Z","2026-08-13T12:11:38Z","2026-08-13T12:11:39Z","2026-08-13T12:11:40Z","2026-08-13T12:11:45Z","2026-08-13T12:11:48Z","2026-08-13T12:11:53Z","2026-08-13T12:11:54Z","2026-08-13T12:11:56Z","2026-08-13T12:12:00Z","2026-08-13T12:12:01Z","2026-08-13T12:12:03Z","2026-08-13T12:12:05Z","2026-08-13T12:12:06Z","2026-08-13T12:12:11Z","2026-08-13T12:12:12Z","2026-08-13T12:12:17Z","2026-08-13T12:12:21Z","2026-08-13T12:12:22Z","2026-08-13T12:12:25Z","2026-08-13T12:12:27Z","2026-08-13T12:12:32Z","2026-08-13T12:12:33Z","2026-08-13T12:12:37Z","2026-08-13T12:12:39Z","2026-08-13T12:13:04Z","2026-08-13T12:13:06Z","2026-08-13T12:13:09Z","2026-08-13T12:13:11Z","2026-08-13T12:13:12Z","2026-08-13T12:13:16Z","2026-08-13T12:13:18Z","2026-08-13T12:13:19Z","2026-08-13T12:13:21Z","2026-08-13T12:13:23Z","2026-08-13T12:13:26Z","2026-08-13T12:13:28Z","2026-08-13T12:13:32Z","2026-08-13T12:13:35Z","2026-08-13T12:13:36Z","2026-08-13T12:13:38Z","2026-08-13T12:13:45Z","2026-08-13T12:13:55Z","2026-08-13T12:14:16Z","2026-08-13T12:14:21Z","2026-08-13T12:14:24Z","2026-08-13T12:14:26Z","2026-08-13T12:14:27Z","2026-08-13T12:14:30Z","2026-08-13T12:14:48Z","2026-08-13T12:14:50Z","2026-08-13T12:14:51Z","2026-08-13T12:14:53Z","2026-08-13T12:14:54Z","2026-08-13T12:14:55Z","2026-08-13T12:14:56Z","2026-08-13T12:14:59Z","2026-08-13T12:15:00Z","2026-08-13T12:15:04Z","2026-08-13T12:15:06Z","2026-08-13T12:15:09Z","2026-08-13T12:15:12Z","2026-08-13T12:15:19Z","2026-08-13T12:15:22Z","2026-08-13T12:15:26Z","2026-08-13T12:15:28Z","2026-08-13T12:15:51Z","2026-08-13T12:15:52Z","2026-08-13T12:15:54Z","2026-08-13T12:15:56Z","2026-08-13T12:16:04Z","2026-08-13T12:16:07Z","2026-08-13T12:16:10Z","2026-08-13T12:16:12Z","2026-08-13T12:16:13Z","2026-08-13T12:16:20Z","2026-08-13T12:16:22Z","2026-08-13T12:16:24Z","2026-08-13T12:16:34Z","2026-08-13T12:16:49Z","2026-08-13T12:16:50Z","2026-08-13T12:16:54Z","2026-08-13T12:16:56Z","2026-08-13T12:17:02Z","2026-08-13T12:17:09Z","2026-08-13T12:17:11Z","2026-08-13T12:17:13Z","2026-08-13T12:17:15Z","2026-08-13T12:17:19Z","2026-08-13T12:17:26Z","2026-08-13T12:17:27Z","2026-08-13T12:17:30Z","2026-08-13T12:17:31Z","2026-08-13T12:17:35Z","2026-08-13T12:17:36Z","2026-08-13T12:17:39Z","2026-08-13T12:17:41Z","2026-08-13T12:17:43Z","2026-08-13T12:17:45Z","2026-08-13T12:17:50Z","2026-08-13T12:17:51Z","2026-08-13T12:17:53Z","2026-08-13T12:17:55Z","2026-08-13T12:17:56Z","2026-08-13T12:17:57Z","2026-08-13T12:18:03Z","2026-08-13T12:18:05Z","2026-08-13T12:18:07Z","2026-08-13T12:18:09Z","2026-08-13T12:18:11Z","2026-08-13T12:18:12Z","2026-08-13T12:18:14Z","2026-08-13T12:18:16Z","2026-08-13T12:18:17Z","2026-08-13T12:18:18Z","2026-08-13T12:18:20Z","2026-08-13T12:18:38Z","2026-08-13T12:18:41Z","2026-08-13T12:18:43Z","2026-08-13T12:18:46Z","2026-08-13T12:18:48Z","2026-08-13T12:18:50Z","2026-08-13T12:18:52Z","2026-08-13T12:18:57Z","2026-08-13T12:18:59Z","2026-08-13T12:19:00Z","2026-08-13T12:19:02Z","2026-08-13T12:19:06Z","2026-08-13T12:19:12Z","2026-08-13T12:19:15Z","2026-08-13T12:19:17Z","2026-08-13T12:19:19Z","2026-08-13T12:19:21Z","2026-08-13T12:19:22Z","2026-08-13T12:19:24Z","2026-08-13T12:19:25Z","2026-08-13T12:19:27Z","2026-08-13T12:19:30Z","2026-08-13T12:19:31Z","2026-08-13T12:19:34Z","2026-08-13T12:19:35Z","2026-08-13T12:19:37Z","2026-08-13T12:19:39Z","2026-08-13T12:19:41Z","2026-08-13T12:19:44Z","2026-08-13T12:19:45Z","2026-08-13T12:19:55Z","2026-08-13T12:20:00Z","2026-08-13T12:20:03Z","2026-08-13T12:20:04Z","2026-08-13T12:20:06Z","2026-08-13T12:20:12Z","2026-08-13T12:20:13Z","2026-08-13T12:20:15Z","2026-08-13T12:20:16Z","2026-08-13T12:20:20Z","2026-08-13T12:20:25Z","2026-08-13T12:20:28Z","2026-08-13T12:20:29Z","2026-08-13T12:20:31Z","2026-08-13T12:20:32Z","2026-08-13T12:20:40Z","2026-08-13T12:20:42Z","2026-08-13T12:20:45Z","2026-08-13T12:20:51Z","2026-08-13T12:20:53Z","2026-08-13T12:20:54Z","2026-08-13T12:20:57Z","2026-08-13T12:21:05Z","2026-08-13T12:21:09Z","2026-08-13T12:21:13Z","2026-08-13T12:21:15Z","2026-08-13T12:21:17Z","2026-08-13T12:21:21Z","2026-08-13T12:21:22Z","2026-08-13T12:21:23Z","2026-08-13T12:21:30Z","2026-08-13T12:21:31Z","2026-08-13T12:21:33Z","2026-08-13T12:21:41Z","2026-08-13T12:21:45Z","2026-08-13T12:21:46Z","2026-08-13T12:21:48Z","2026-08-13T12:21:51Z","2026-08-13T12:21:53Z","2026-08-13T12:21:55Z","2026-08-13T12:21:57Z","2026-08-13T12:21:59Z","2026-08-13T12:22:02Z","2026-08-13T12:22:09Z","2026-08-13T12:22:11Z","2026-08-13T12:22:13Z","2026-08-13T12:22:14Z","2026-08-13T12:22:18Z","2026-08-13T12:22:23Z","2026-08-13T12:22:25Z","2026-08-13T12:22:26Z","2026-08-13T12:22:28Z","2026-08-13T12:22:30Z","2026-08-13T12:22:33Z","2026-08-13T12:22:37Z","2026-08-13T12:22:39Z","2026-08-13T12:22:40Z","2026-08-13T12:22:42Z","2026-08-13T12:22:44Z","2026-08-13T12:22:47Z","2026-08-13T12:22:49Z","2026-08-13T12:22:54Z","2026-08-13T12:22:58Z","2026-08-13T12:23:00Z","2026-08-13T12:23:01Z","2026-08-13T12:23:03Z","2026-08-13T12:23:06Z","2026-08-13T12:23:09Z","2026-08-13T12:23:11Z","2026-08-13T12:23:13Z","2026-08-13T12:23:14Z","2026-08-13T12:23:15Z","2026-08-13T12:23:16Z","2026-08-13T12:23:17Z","2026-08-13T12:23:18Z","2026-08-13T12:23:20Z","2026-08-13T12:23:22Z","2026-08-13T12:23:24Z","2026-08-13T12:23:46Z","2026-08-13T12:23:54Z","2026-08-13T12:23:58Z","2026-08-13T12:23:59Z","2026-08-13T12:24:00Z","2026-08-13T12:24:02Z","2026-08-13T12:24:04Z","2026-08-13T12:24:06Z","2026-08-13T12:24:09Z","2026-08-13T12:24:11Z","2026-08-13T12:24:14Z","2026-08-13T12:24:16Z","2026-08-13T12:24:18Z","2026-08-13T12:24:20Z","2026-08-13T12:24:30Z","2026-08-13T12:24:32Z","2026-08-13T12:24:33Z","2026-08-13T12:24:34Z","2026-08-13T12:24:37Z","2026-08-13T12:24:39Z","2026-08-13T12:24:40Z","2026-08-13T12:24:42Z","2026-08-13T12:24:45Z","2026-08-13T12:24:47Z","2026-08-13T12:24:48Z","2026-08-13T12:24:51Z","2026-08-13T12:24:53Z","2026-08-13T12:24:54Z","2026-08-13T12:24:57Z","2026-08-13T12:24:59Z","2026-08-13T12:25:00Z","2026-08-13T12:25:03Z","2026-08-13T12:25:05Z","2026-08-13T12:25:07Z","2026-08-13T12:25:09Z","2026-08-13T12:25:10Z","2026-08-13T12:25:15Z","2026-08-13T12:25:18Z","2026-08-13T12:25:24Z","2026-08-13T12:25:32Z","2026-08-13T12:25:36Z","2026-08-13T12:25:37Z","2026-08-13T12:25:39Z","2026-08-13T12:25:40Z","2026-08-13T12:25:42Z","2026-08-13T12:25:44Z","2026-08-13T12:25:47Z","2026-08-13T12:25:49Z","2026-08-13T12:25:51Z","2026-08-13T12:25:56Z","2026-08-13T12:26:11Z","2026-08-13T12:26:53Z","2026-08-13T12:26:58Z","2026-08-13T12:27:01Z","2026-08-13T12:27:27Z","2026-08-13T12:27:39Z","2026-08-13T12:27:40Z","2026-08-13T12:27:42Z","2026-08-13T12:27:45Z","2026-08-13T12:27:49Z","2026-08-13T12:27:51Z","2026-08-13T12:27:53Z","2026-08-13T12:27:55Z","2026-08-13T12:27:56Z","2026-08-13T12:28:01Z","2026-08-13T12:28:03Z","2026-08-13T12:28:05Z","2026-08-13T12:28:07Z","2026-08-13T12:28:08Z","2026-08-13T12:28:10Z","2026-08-13T12:28:16Z","2026-08-13T12:28:22Z","2026-08-13T12:28:32Z","2026-08-13T12:28:33Z","2026-08-13T12:28:36Z","2026-08-13T12:28:40Z","2026-08-13T12:28:41Z","2026-08-13T12:28:44Z","2026-08-13T12:28:49Z","2026-08-13T12:28:52Z","2026-08-13T12:28:54Z","2026-08-13T12:29:01Z","2026-08-13T12:29:03Z","2026-08-13T12:29:04Z","2026-08-13T12:29:06Z","2026-08-13T12:29:09Z","2026-08-13T12:29:13Z","2026-08-13T12:29:16Z","2026-08-13T12:29:20Z","2026-08-13T12:29:24Z","2026-08-13T12:29:27Z","2026-08-13T12:29:29Z","2026-08-13T12:29:33Z","2026-08-13T12:29:34Z","2026-08-13T12:29:37Z","2026-08-13T12:29:41Z","2026-08-13T12:29:42Z","2026-08-13T12:29:50Z","2026-08-13T12:29:52Z","2026-08-13T12:29:55Z","2026-08-13T12:29:58Z","2026-08-13T12:30:01Z","2026-08-13T12:30:08Z","2026-08-13T12:30:09Z","2026-08-13T12:30:14Z","2026-08-13T12:30:18Z","2026-08-13T12:30:20Z","2026-08-13T12:30:24Z","2026-08-13T12:30:25Z","2026-08-13T12:30:49Z","2026-08-13T12:30:58Z","2026-08-13T12:31:28Z","2026-08-13T12:31:33Z","2026-08-13T12:31:59Z","2026-08-13T12:32:01Z","2026-08-13T12:32:05Z","2026-08-13T12:32:06Z","2026-08-13T12:32:08Z","2026-08-13T12:32:10Z","2026-08-13T12:32:19Z","2026-08-13T12:32:20Z","2026-08-13T12:32:22Z","2026-08-13T12:32:25Z","2026-08-13T12:32:28Z","2026-08-13T12:32:31Z","2026-08-13T12:32:38Z","2026-08-13T12:32:40Z","2026-08-13T12:32:41Z","2026-08-13T12:32:47Z","2026-08-13T12:32:48Z","2026-08-13T12:32:52Z","2026-08-13T12:32:55Z","2026-08-13T12:33:00Z","2026-08-13T12:33:02Z","2026-08-13T12:33:05Z","2026-08-13T12:33:07Z","2026-08-13T12:33:08Z","2026-08-13T12:34:33Z","2026-08-13T12:34:36Z","2026-08-13T12:34:49Z","2026-08-13T12:34:52Z","2026-08-13T12:34:57Z","2026-08-13T12:34:58Z","2026-08-13T12:35:02Z","2026-08-13T12:35:09Z","2026-08-13T12:35:10Z","2026-08-13T12:35:12Z","2026-08-13T12:35:17Z","2026-08-13T12:35:18Z","2026-08-13T12:35:22Z","2026-08-13T12:35:30Z","2026-08-13T12:35:32Z","2026-08-13T12:35:35Z","2026-08-13T12:35:40Z","2026-08-13T12:35:45Z","2026-08-13T12:35:52Z","2026-08-13T12:35:53Z","2026-08-13T12:35:54Z","2026-08-13T12:35:56Z","2026-08-13T12:36:03Z","2026-08-13T12:36:06Z","2026-08-13T12:36:07Z","2026-08-13T12:36:08Z","2026-08-13T12:36:10Z","2026-08-13T12:36:13Z","2026-08-13T12:36:17Z","2026-08-13T12:36:18Z","2026-08-13T12:36:22Z","2026-08-13T12:36:26Z","2026-08-13T12:36:27Z","2026-08-13T12:36:30Z","2026-08-13T12:36:31Z","2026-08-13T12:36:33Z","2026-08-13T12:36:35Z","2026-08-13T12:36:38Z","2026-08-13T12:36:42Z","2026-08-13T12:36:44Z","2026-08-13T12:36:45Z","2026-08-13T12:36:46Z","2026-08-13T12:36:52Z","2026-08-13T12:36:53Z","2026-08-13T12:36:54Z","2026-08-13T12:36:56Z","2026-08-13T12:36:57Z","2026-08-13T12:37:00Z","2026-08-13T12:37:02Z","2026-08-13T12:37:04Z","2026-08-13T12:37:07Z","2026-08-13T12:37:09Z","2026-08-13T12:37:10Z","2026-08-13T12:37:13Z","2026-08-13T12:37:15Z","2026-08-13T12:37:17Z","2026-08-13T12:37:21Z","2026-08-13T12:37:28Z","2026-08-13T12:37:32Z","2026-08-13T12:37:34Z","2026-08-13T12:37:35Z","2026-08-13T12:37:38Z","2026-08-13T12:37:44Z","2026-08-13T12:37:47Z","2026-08-13T12:37:51Z","2026-08-13T12:37:56Z","2026-08-13T12:37:57Z","2026-08-13T12:38:00Z","2026-08-13T12:38:01Z","2026-08-13T12:38:03Z","2026-08-13T12:38:08Z","2026-08-13T12:38:10Z","2026-08-13T12:38:13Z","2026-08-13T12:38:16Z","2026-08-13T12:38:20Z","2026-08-13T12:38:25Z","2026-08-13T12:38:28Z","2026-08-13T12:38:30Z","2026-08-13T12:38:33Z","2026-08-13T12:38:40Z","2026-08-13T12:38:46Z","2026-08-13T12:38:48Z","2026-08-13T12:38:50Z","2026-08-13T12:38:51Z","2026-08-13T12:38:55Z","2026-08-13T12:38:56Z","2026-08-13T12:38:58Z","2026-08-13T12:38:59Z","2026-08-13T12:39:00Z","2026-08-13T12:39:07Z","2026-08-13T12:39:31Z","2026-08-13T12:39:36Z","2026-08-13T12:39:39Z","2026-08-13T12:39:40Z","2026-08-13T12:39:41Z","2026-08-13T12:39:42Z","2026-08-13T12:40:13Z","2026-08-13T12:40:14Z","2026-08-13T12:40:15Z","2026-08-13T12:40:18Z","2026-08-13T12:40:20Z","2026-08-13T12:40:23Z","2026-08-13T12:40:26Z","2026-08-13T12:40:27Z","2026-08-13T12:40:31Z","2026-08-13T12:40:33Z","2026-08-13T12:40:35Z","2026-08-13T12:40:39Z","2026-08-13T12:40:42Z","2026-08-13T12:40:44Z","2026-08-13T12:40:45Z","2026-08-13T12:40:46Z","2026-08-13T12:40:50Z","2026-08-13T12:40:54Z","2026-08-13T12:40:55Z","2026-08-13T12:40:57Z","2026-08-13T12:41:01Z","2026-08-13T12:41:02Z","2026-08-13T12:41:05Z","2026-08-13T12:41:08Z","2026-08-13T12:41:39Z","2026-08-13T12:41:45Z","2026-08-13T12:41:47Z","2026-08-13T12:41:49Z","2026-08-13T12:41:51Z","2026-08-13T12:41:52Z","2026-08-13T12:42:34Z","2026-08-13T12:42:39Z","2026-08-13T12:42:42Z","2026-08-13T12:42:43Z","2026-08-13T12:42:44Z","2026-08-13T12:42:46Z","2026-08-13T12:42:50Z","2026-08-13T12:42:53Z","2026-08-13T12:43:08Z","2026-08-13T12:43:14Z","2026-08-13T12:43:15Z","2026-08-13T12:43:17Z","2026-08-13T12:43:19Z","2026-08-13T12:43:24Z","2026-08-13T12:43:25Z","2026-08-13T12:43:26Z","2026-08-13T12:43:28Z","2026-08-13T12:43:30Z","2026-08-13T12:43:32Z","2026-08-13T12:43:34Z","2026-08-13T12:43:35Z","2026-08-13T12:43:36Z","2026-08-13T12:43:39Z","2026-08-13T12:43:40Z","2026-08-13T12:43:42Z","2026-08-13T12:43:43Z","2026-08-13T12:43:47Z","2026-08-13T12:43:50Z","2026-08-13T12:43:52Z","2026-08-13T12:43:55Z","2026-08-13T12:43:59Z","2026-08-13T12:44:00Z","2026-08-13T12:44:01Z","2026-08-13T12:44:02Z","2026-08-13T12:44:04Z","2026-08-13T12:44:08Z","2026-08-13T12:44:11Z","2026-08-13T12:44:15Z","2026-08-13T12:44:19Z","2026-08-13T12:44:23Z","2026-08-13T12:44:25Z","2026-08-13T12:44:26Z","2026-08-13T12:44:29Z","2026-08-13T12:44:33Z","2026-08-13T12:44:38Z","2026-08-13T12:44:40Z","2026-08-13T12:44:41Z","2026-08-13T12:44:44Z","2026-08-13T12:44:47Z","2026-08-13T12:44:49Z","2026-08-13T12:44:51Z","2026-08-13T12:44:54Z","2026-08-13T12:44:57Z","2026-08-13T12:44:58Z","2026-08-13T12:45:04Z","2026-08-13T12:45:05Z","2026-08-13T12:45:07Z","2026-08-13T12:45:09Z","2026-08-13T12:45:13Z","2026-08-13T12:46:03Z","2026-08-13T12:46:04Z","2026-08-13T12:46:12Z","2026-08-13T12:46:14Z","2026-08-13T12:46:57Z","2026-08-13T12:46:59Z","2026-08-13T12:47:02Z","2026-08-13T12:47:21Z","2026-08-13T12:47:25Z","2026-08-13T12:47:26Z","2026-08-13T12:47:28Z","2026-08-13T12:47:29Z","2026-08-13T12:47:34Z","2026-08-13T12:47:42Z","2026-08-13T12:47:43Z","2026-08-13T12:47:47Z","2026-08-13T12:47:48Z","2026-08-13T12:47:49Z","2026-08-13T12:47:51Z","2026-08-13T12:47:54Z","2026-08-13T12:47:59Z","2026-08-13T12:48:03Z","2026-08-13T12:48:09Z","2026-08-13T12:48:10Z","2026-08-13T12:48:11Z","2026-08-13T12:48:13Z","2026-08-13T12:48:17Z","2026-08-13T12:48:18Z","2026-08-13T12:48:20Z","2026-08-13T12:48:25Z","2026-08-13T12:48:26Z","2026-08-13T12:48:27Z","2026-08-13T12:48:31Z","2026-08-13T12:48:32Z","2026-08-13T12:48:36Z","2026-08-13T12:48:38Z","2026-08-13T12:48:42Z","2026-08-13T12:48:43Z","2026-08-13T12:48:45Z","2026-08-13T12:48:48Z","2026-08-13T12:48:51Z","2026-08-13T12:48:53Z","2026-08-13T12:48:55Z","2026-08-13T12:48:57Z","2026-08-13T12:49:03Z","2026-08-13T12:49:04Z","2026-08-13T12:49:07Z","2026-08-13T12:49:10Z","2026-08-13T12:49:22Z","2026-08-13T12:49:28Z","2026-08-13T12:49:32Z","2026-08-13T12:49:37Z","2026-08-13T12:49:45Z","2026-08-13T12:49:51Z","2026-08-13T12:49:53Z","2026-08-13T12:49:57Z","2026-08-13T12:49:59Z","2026-08-13T12:50:00Z","2026-08-13T12:50:02Z","2026-08-13T12:50:05Z","2026-08-13T12:50:08Z","2026-08-13T12:50:10Z","2026-08-13T12:50:11Z","2026-08-13T12:50:14Z","2026-08-13T12:50:19Z","2026-08-13T12:50:20Z","2026-08-13T12:50:21Z","2026-08-13T12:50:24Z","2026-08-13T12:50:27Z","2026-08-13T12:50:29Z","2026-08-13T12:50:30Z","2026-08-13T12:50:33Z","2026-08-13T12:50:34Z","2026-08-13T12:50:36Z","2026-08-13T12:50:39Z","2026-08-13T12:50:41Z","2026-08-13T12:50:45Z","2026-08-13T12:50:49Z","2026-08-13T12:50:53Z","2026-08-13T12:51:00Z","2026-08-13T12:51:03Z","2026-08-13T12:51:04Z","2026-08-13T12:51:06Z","2026-08-13T12:51:08Z","2026-08-13T12:51:12Z","2026-08-13T12:51:17Z","2026-08-13T12:51:19Z","2026-08-13T12:51:20Z","2026-08-13T12:51:28Z","2026-08-13T12:51:30Z","2026-08-13T12:51:33Z","2026-08-13T12:51:34Z","2026-08-13T12:51:37Z","2026-08-13T12:51:39Z","2026-08-13T12:51:41Z","2026-08-13T12:51:44Z","2026-08-13T12:51:46Z","2026-08-13T12:51:49Z","2026-08-13T12:51:54Z","2026-08-13T12:51:58Z","2026-08-13T12:52:00Z","2026-08-13T12:52:06Z","2026-08-13T12:52:10Z","2026-08-13T12:52:14Z","2026-08-13T12:52:15Z","2026-08-13T12:52:18Z","2026-08-13T12:52:19Z","2026-08-13T12:52:21Z","2026-08-13T12:52:25Z","2026-08-13T12:52:26Z","2026-08-13T12:52:27Z","2026-08-13T12:52:30Z","2026-08-13T12:52:32Z","2026-08-13T12:52:37Z","2026-08-13T12:52:39Z","2026-08-13T12:52:41Z","2026-08-13T12:52:42Z","2026-08-13T12:52:44Z","2026-08-13T12:52:46Z","2026-08-13T12:52:47Z","2026-08-13T12:52:48Z","2026-08-13T12:52:52Z","2026-08-13T12:52:53Z","2026-08-13T12:52:55Z","2026-08-13T12:52:56Z","2026-08-13T12:53:00Z","2026-08-13T12:53:01Z","2026-08-13T12:53:07Z","2026-08-13T12:53:09Z","2026-08-13T12:53:13Z","2026-08-13T12:53:18Z","2026-08-13T12:53:19Z","2026-08-13T12:53:21Z","2026-08-13T12:53:26Z","2026-08-13T12:54:17Z","2026-08-13T12:54:21Z","2026-08-13T12:54:46Z","2026-08-13T12:54:49Z","2026-08-13T12:55:12Z","2026-08-13T12:55:45Z","2026-08-13T12:55:48Z","2026-08-13T12:55:49Z","2026-08-13T12:55:52Z","2026-08-13T12:55:59Z","2026-08-13T12:56:01Z","2026-08-13T12:56:04Z","2026-08-13T12:56:06Z","2026-08-13T12:56:09Z","2026-08-13T12:56:13Z","2026-08-13T12:56:14Z","2026-08-13T12:56:16Z","2026-08-13T12:56:23Z","2026-08-13T12:56:29Z","2026-08-13T12:56:30Z","2026-08-13T12:56:34Z","2026-08-13T12:56:35Z","2026-08-13T12:56:40Z","2026-08-13T12:56:43Z","2026-08-13T12:57:20Z","2026-08-13T12:57:23Z","2026-08-13T12:57:24Z","2026-08-13T12:57:26Z","2026-08-13T12:57:29Z","2026-08-13T12:57:30Z","2026-08-13T12:57:31Z","2026-08-13T12:57:35Z","2026-08-13T12:57:37Z","2026-08-13T12:57:38Z","2026-08-13T12:57:43Z","2026-08-13T12:57:56Z","2026-08-13T12:58:14Z","2026-08-13T12:58:15Z","2026-08-13T12:58:18Z","2026-08-13T12:58:19Z","2026-08-13T12:58:21Z","2026-08-13T12:58:23Z","2026-08-13T12:58:24Z","2026-08-13T12:58:26Z","2026-08-13T12:58:28Z","2026-08-13T12:58:29Z","2026-08-13T12:58:47Z","2026-08-13T12:58:49Z","2026-08-13T12:58:53Z","2026-08-13T12:58:55Z","2026-08-13T12:58:57Z","2026-08-13T12:58:59Z","2026-08-13T12:59:01Z","2026-08-13T12:59:03Z","2026-08-13T12:59:07Z","2026-08-13T12:59:08Z","2026-08-13T12:59:10Z","2026-08-13T12:59:11Z","2026-08-13T12:59:17Z","2026-08-13T12:59:20Z","2026-08-13T12:59:22Z","2026-08-13T12:59:26Z","2026-08-13T12:59:28Z","2026-08-13T12:59:32Z","2026-08-13T12:59:33Z","2026-08-13T12:59:34Z","2026-08-13T12:59:36Z","2026-08-13T12:59:37Z","2026-08-13T12:59:43Z","2026-08-13T12:59:45Z","2026-08-13T12:59:51Z","2026-08-13T12:59:54Z","2026-08-13T12:59:56Z","2026-08-13T13:00:01Z","2026-08-13T13:00:02Z","2026-08-13T13:00:04Z","2026-08-13T13:00:05Z","2026-08-13T13:00:07Z","2026-08-13T13:00:12Z","2026-08-13T13:00:18Z","2026-08-13T13:00:21Z","2026-08-13T13:00:25Z","2026-08-13T13:00:29Z","2026-08-13T13:00:30Z","2026-08-13T13:00:36Z","2026-08-13T13:00:40Z","2026-08-13T13:00:45Z","2026-08-13T13:00:46Z","2026-08-13T13:00:49Z","2026-08-13T13:00:52Z","2026-08-13T13:00:54Z","2026-08-13T13:00:57Z","2026-08-13T13:00:59Z","2026-08-13T13:01:03Z","2026-08-13T13:01:04Z","2026-08-13T13:01:05Z","2026-08-13T13:01:06Z","2026-08-13T13:01:07Z","2026-08-13T13:01:09Z","2026-08-13T13:01:12Z","2026-08-13T13:01:14Z","2026-08-13T13:01:15Z","2026-08-13T13:01:17Z","2026-08-13T13:01:19Z","2026-08-13T13:01:20Z","2026-08-13T13:01:21Z","2026-08-13T13:01:22Z","2026-08-13T13:01:26Z","2026-08-13T13:01:29Z","2026-08-13T13:01:31Z","2026-08-13T13:01:35Z","2026-08-13T13:01:36Z","2026-08-13T13:01:37Z","2026-08-13T13:01:41Z","2026-08-13T13:01:44Z","2026-08-13T13:01:46Z","2026-08-13T13:01:49Z","2026-08-13T13:01:50Z","2026-08-13T13:01:51Z","2026-08-13T13:01:52Z","2026-08-13T13:01:53Z","2026-08-13T13:02:56Z","2026-08-13T13:03:02Z","2026-08-13T13:03:04Z","2026-08-13T13:03:10Z","2026-08-13T13:03:11Z","2026-08-13T13:03:12Z","2026-08-13T13:03:19Z","2026-08-13T13:03:26Z","2026-08-13T13:03:29Z","2026-08-13T13:03:34Z","2026-08-13T13:03:36Z","2026-08-13T13:03:42Z","2026-08-13T13:03:50Z","2026-08-13T13:03:52Z","2026-08-13T13:04:01Z","2026-08-13T13:04:04Z","2026-08-13T13:04:09Z","2026-08-13T13:04:11Z","2026-08-13T13:04:13Z","2026-08-13T13:04:19Z","2026-08-13T13:04:22Z","2026-08-13T13:04:25Z","2026-08-13T13:04:28Z","2026-08-13T13:04:29Z","2026-08-13T13:04:32Z","2026-08-13T13:04:33Z","2026-08-13T13:05:41Z","2026-08-13T13:05:44Z","2026-08-13T13:05:47Z","2026-08-13T13:05:51Z","2026-08-13T13:05:53Z","2026-08-13T13:06:02Z","2026-08-13T13:06:04Z","2026-08-13T13:06:06Z","2026-08-13T13:06:07Z","2026-08-13T13:06:08Z","2026-08-13T13:06:12Z","2026-08-13T13:06:13Z","2026-08-13T13:06:15Z","2026-08-13T13:06:19Z","2026-08-13T13:06:23Z","2026-08-13T13:06:24Z","2026-08-13T13:06:27Z","2026-08-13T13:06:36Z","2026-08-13T13:06:39Z","2026-08-13T13:06:42Z","2026-08-13T13:06:44Z","2026-08-13T13:06:46Z","2026-08-13T13:06:52Z","2026-08-13T13:06:55Z","2026-08-13T13:06:58Z","2026-08-13T13:06:59Z","2026-08-13T13:07:00Z","2026-08-13T13:07:04Z","2026-08-13T13:07:10Z","2026-08-13T13:07:12Z","2026-08-13T13:07:15Z","2026-08-13T13:07:16Z","2026-08-13T13:07:19Z","2026-08-13T13:07:22Z","2026-08-13T13:07:27Z","2026-08-13T13:07:29Z","2026-08-13T13:07:39Z","2026-08-13T13:07:44Z","2026-08-13T13:07:46Z","2026-08-13T13:07:50Z","2026-08-13T13:07:52Z","2026-08-13T13:07:56Z","2026-08-13T13:08:00Z","2026-08-13T13:08:01Z","2026-08-13T13:08:03Z","2026-08-13T13:08:05Z","2026-08-13T13:08:06Z","2026-08-13T13:08:10Z","2026-08-13T13:08:13Z","2026-08-13T13:08:15Z","2026-08-13T13:08:17Z","2026-08-13T13:08:19Z","2026-08-13T13:08:20Z","2026-08-13T13:08:22Z","2026-08-13T13:08:24Z","2026-08-13T13:08:26Z","2026-08-13T13:08:28Z","2026-08-13T13:08:29Z","2026-08-13T13:08:31Z","2026-08-13T13:08:34Z","2026-08-13T13:08:39Z","2026-08-13T13:08:45Z","2026-08-13T13:08:46Z","2026-08-13T13:08:50Z","2026-08-13T13:08:52Z","2026-08-13T13:08:54Z","2026-08-13T13:08:56Z","2026-08-13T13:08:59Z","2026-08-13T13:09:01Z","2026-08-13T13:09:04Z","2026-08-13T13:09:05Z","2026-08-13T13:09:06Z","2026-08-13T13:09:12Z","2026-08-13T13:09:13Z","2026-08-13T13:09:15Z","2026-08-13T13:09:17Z","2026-08-13T13:09:18Z","2026-08-13T13:09:20Z","2026-08-13T13:09:23Z","2026-08-13T13:09:27Z","2026-08-13T13:09:32Z","2026-08-13T13:09:35Z","2026-08-13T13:09:37Z","2026-08-13T13:09:40Z","2026-08-13T13:09:42Z","2026-08-13T13:09:46Z","2026-08-13T13:09:52Z","2026-08-13T13:09:57Z","2026-08-13T13:10:00Z","2026-08-13T13:10:06Z","2026-08-13T13:10:07Z","2026-08-13T13:10:14Z","2026-08-13T13:10:16Z","2026-08-13T13:10:17Z","2026-08-13T13:10:21Z","2026-08-13T13:10:23Z","2026-08-13T13:10:27Z","2026-08-13T13:10:30Z","2026-08-13T13:10:33Z","2026-08-13T13:10:35Z","2026-08-13T13:10:40Z","2026-08-13T13:10:41Z","2026-08-13T13:10:46Z","2026-08-13T13:10:48Z","2026-08-13T13:10:59Z","2026-08-13T13:11:08Z","2026-08-13T13:11:09Z","2026-08-13T13:11:14Z","2026-08-13T13:11:18Z","2026-08-13T13:11:20Z","2026-08-13T13:11:25Z","2026-08-13T13:11:28Z","2026-08-13T13:11:32Z","2026-08-13T13:11:33Z","2026-08-13T13:11:34Z","2026-08-13T13:11:38Z","2026-08-13T13:11:53Z","2026-08-13T13:12:05Z","2026-08-13T13:12:07Z","2026-08-13T13:12:42Z","2026-08-13T13:12:43Z","2026-08-13T13:12:44Z","2026-08-13T13:12:46Z","2026-08-13T13:12:54Z","2026-08-13T13:12:55Z","2026-08-13T13:12:59Z","2026-08-13T13:13:01Z","2026-08-13T13:13:03Z","2026-08-13T13:13:11Z","2026-08-13T13:13:14Z","2026-08-13T13:13:24Z","2026-08-13T13:13:25Z","2026-08-13T13:13:29Z","2026-08-13T13:13:39Z","2026-08-13T13:13:41Z","2026-08-13T13:13:45Z","2026-08-13T13:13:54Z","2026-08-13T13:13:55Z","2026-08-13T13:13:57Z","2026-08-13T13:14:08Z","2026-08-13T13:14:14Z","2026-08-13T13:14:31Z","2026-08-13T13:14:45Z","2026-08-13T13:14:46Z","2026-08-13T13:14:47Z","2026-08-13T13:14:48Z","2026-08-13T13:14:56Z","2026-08-13T13:14:58Z","2026-08-13T13:14:59Z","2026-08-13T13:15:01Z","2026-08-13T13:15:08Z","2026-08-13T13:16:09Z","2026-08-13T13:16:10Z","2026-08-13T13:16:14Z","2026-08-13T13:16:17Z","2026-08-13T13:16:19Z","2026-08-13T13:16:24Z","2026-08-13T13:16:46Z","2026-08-13T13:16:50Z","2026-08-13T13:16:51Z","2026-08-13T13:16:52Z","2026-08-13T13:16:54Z","2026-08-13T13:16:57Z","2026-08-13T13:16:59Z","2026-08-13T13:17:00Z","2026-08-13T13:17:01Z","2026-08-13T13:17:03Z","2026-08-13T13:17:04Z","2026-08-13T13:17:06Z","2026-08-13T13:17:12Z","2026-08-13T13:17:13Z","2026-08-13T13:17:14Z","2026-08-13T13:17:16Z","2026-08-13T13:17:22Z","2026-08-13T13:17:24Z","2026-08-13T13:17:26Z","2026-08-13T13:17:28Z","2026-08-13T13:17:33Z","2026-08-13T13:17:34Z","2026-08-13T13:17:35Z","2026-08-13T13:17:36Z","2026-08-13T13:17:40Z","2026-08-13T13:17:42Z","2026-08-13T13:17:45Z","2026-08-13T13:17:48Z","2026-08-13T13:17:49Z","2026-08-13T13:17:54Z","2026-08-13T13:17:58Z","2026-08-13T13:18:02Z","2026-08-13T13:18:04Z","2026-08-13T13:18:07Z","2026-08-13T13:18:09Z","2026-08-13T13:18:10Z","2026-08-13T13:18:12Z","2026-08-13T13:18:14Z","2026-08-13T13:18:18Z","2026-08-13T13:18:28Z","2026-08-13T13:18:30Z","2026-08-13T13:18:35Z","2026-08-13T13:18:37Z","2026-08-13T13:18:41Z","2026-08-13T13:18:50Z","2026-08-13T13:18:52Z","2026-08-13T13:19:00Z","2026-08-13T13:19:10Z","2026-08-13T13:19:13Z","2026-08-13T13:19:19Z","2026-08-13T13:19:24Z","2026-08-13T13:19:31Z","2026-08-13T13:19:32Z","2026-08-13T13:19:36Z","2026-08-13T13:19:38Z","2026-08-13T13:19:39Z","2026-08-13T13:19:44Z","2026-08-13T13:20:00Z","2026-08-13T13:20:01Z","2026-08-13T13:20:13Z","2026-08-13T13:20:18Z","2026-08-13T13:20:32Z","2026-08-13T13:20:36Z","2026-08-13T13:20:38Z","2026-08-13T13:20:44Z","2026-08-13T13:20:45Z","2026-08-13T13:20:49Z","2026-08-13T13:20:51Z","2026-08-13T13:20:53Z","2026-08-13T13:20:55Z","2026-08-13T13:20:56Z","2026-08-13T13:20:57Z","2026-08-13T13:21:00Z","2026-08-13T13:21:02Z","2026-08-13T13:21:03Z","2026-08-13T13:21:05Z","2026-08-13T13:21:07Z","2026-08-13T13:21:10Z","2026-08-13T13:21:13Z","2026-08-13T13:21:21Z","2026-08-13T13:21:25Z","2026-08-13T13:21:30Z","2026-08-13T13:21:37Z","2026-08-13T13:21:38Z","2026-08-13T13:21:41Z","2026-08-13T13:21:43Z","2026-08-13T13:21:44Z","2026-08-13T13:21:48Z","2026-08-13T13:21:52Z","2026-08-13T13:21:57Z","2026-08-13T13:22:01Z","2026-08-13T13:22:04Z","2026-08-13T13:22:11Z","2026-08-13T13:22:13Z","2026-08-13T13:22:16Z","2026-08-13T13:22:18Z","2026-08-13T13:22:39Z","2026-08-13T13:22:48Z","2026-08-13T13:22:53Z","2026-08-13T13:23:17Z","2026-08-13T13:23:22Z","2026-08-13T13:23:27Z","2026-08-13T13:23:28Z","2026-08-13T13:23:32Z","2026-08-13T13:23:35Z","2026-08-13T13:23:41Z","2026-08-13T13:23:45Z","2026-08-13T13:23:46Z","2026-08-13T13:23:48Z","2026-08-13T13:23:50Z","2026-08-13T13:23:53Z","2026-08-13T13:23:55Z","2026-08-13T13:23:57Z","2026-08-13T13:23:58Z","2026-08-13T13:24:00Z","2026-08-13T13:24:02Z","2026-08-13T13:24:08Z","2026-08-13T13:24:10Z","2026-08-13T13:24:11Z","2026-08-13T13:24:29Z","2026-08-13T13:24:40Z","2026-08-13T13:24:43Z","2026-08-13T13:24:45Z","2026-08-13T13:24:47Z","2026-08-13T13:24:48Z","2026-08-13T13:24:50Z","2026-08-13T13:24:51Z","2026-08-13T13:24:52Z","2026-08-13T13:24:53Z","2026-08-13T13:24:55Z","2026-08-13T13:24:56Z","2026-08-13T13:24:59Z","2026-08-13T13:25:01Z","2026-08-13T13:25:02Z","2026-08-13T13:25:03Z","2026-08-13T13:25:05Z","2026-08-13T13:25:08Z","2026-08-13T13:25:12Z","2026-08-13T13:25:13Z","2026-08-13T13:25:18Z","2026-08-13T13:25:21Z","2026-08-13T13:25:24Z","2026-08-13T13:25:30Z","2026-08-13T13:25:34Z","2026-08-13T13:25:35Z","2026-08-13T13:25:40Z","2026-08-13T13:25:45Z","2026-08-13T13:25:47Z","2026-08-13T13:25:54Z","2026-08-13T13:25:58Z","2026-08-13T13:26:03Z","2026-08-13T13:26:07Z","2026-08-13T13:26:08Z","2026-08-13T13:26:15Z","2026-08-13T13:26:18Z","2026-08-13T13:26:33Z","2026-08-13T13:26:34Z","2026-08-13T13:26:40Z","2026-08-13T13:26:56Z","2026-08-13T13:27:05Z","2026-08-13T13:27:12Z","2026-08-13T13:27:31Z","2026-08-13T13:27:57Z","2026-08-13T13:27:58Z","2026-08-13T13:28:00Z","2026-08-13T13:28:04Z","2026-08-13T13:28:13Z","2026-08-13T13:28:19Z","2026-08-13T13:28:23Z","2026-08-13T13:28:25Z","2026-08-13T13:28:29Z","2026-08-13T13:28:34Z","2026-08-13T13:28:36Z","2026-08-13T13:28:40Z","2026-08-13T13:28:43Z","2026-08-13T13:28:44Z","2026-08-13T13:28:49Z","2026-08-13T13:28:50Z","2026-08-13T13:28:51Z","2026-08-13T13:28:53Z","2026-08-13T13:28:57Z","2026-08-13T13:28:59Z","2026-08-13T13:29:00Z","2026-08-13T13:29:02Z","2026-08-13T13:29:04Z","2026-08-13T13:29:07Z","2026-08-13T13:29:08Z","2026-08-13T13:29:13Z","2026-08-13T13:29:15Z","2026-08-13T13:29:18Z","2026-08-13T13:29:20Z","2026-08-13T13:29:24Z","2026-08-13T13:29:26Z","2026-08-13T13:29:29Z","2026-08-13T13:29:31Z","2026-08-13T13:29:34Z","2026-08-13T13:29:37Z","2026-08-13T13:29:43Z","2026-08-13T13:29:47Z","2026-08-13T13:29:51Z","2026-08-13T13:29:55Z","2026-08-13T13:29:56Z","2026-08-13T13:30:02Z","2026-08-13T13:30:15Z","2026-08-13T13:30:24Z","2026-08-13T13:30:33Z","2026-08-13T13:30:36Z","2026-08-13T13:30:40Z","2026-08-13T13:30:41Z","2026-08-13T13:30:43Z","2026-08-13T13:30:52Z","2026-08-13T13:30:58Z","2026-08-13T13:31:07Z","2026-08-13T13:31:09Z","2026-08-13T13:31:22Z","2026-08-13T13:31:24Z","2026-08-13T13:31:32Z","2026-08-13T13:31:34Z","2026-08-13T13:31:37Z","2026-08-13T13:31:40Z","2026-08-13T13:31:43Z"],"heartRates":[102,102,102,102,101,101,101,97,97,97,96,95,95,95,88,88,88,91,91,96,95,95,95,95,95,95,94,94,94,94,94,95,93,93,93,93,95,95,94,94,92,92,92,94,92,91,92,92,92,92,91,91,90,88,89,89,89,89,91,92,92,91,91,91,92,92,92,92,92,93,93,91,92,93,93,93,93,92,90,90,90,90,90,90,90,90,90,90,92,92,92,92,90,90,90,90,90,92,93,93,92,93,93,97,97,95,95,93,92,92,89,89,92,92,90,90,90,89,89,89,90,90,91,91,91,89,90,88,86,86,86,87,86,86,87,87,90,90,90,90,90,90,93,91,91,90,89,89,89,86,88,88,88,88,91,87,86,86,86,88,88,88,85,85,84,87,87,89,88,88,88,87,88,89,89,89,89,90,90,91,92,92,92,92,92,92,92,95,95,97,97,97,97,97,97,97,97,97,97,97,94,94,95,95,95,95,95,93,94,94,94,94,88,87,87,87,87,87,87,87,88,88,88,89,89,90,90,89,89,89,88,88,87,87,88,87,87,87,87,89,89,89,89,89,89,90,90,90,92,92,92,94,94,93,93,93,93,93,93,93,93,95,95,97,96,96,96,96,96,96,96,96,96,95,95,96,96,96,96,96,93,93,93,92,91,90,90,90,90,89,89,88,88,88,88,89,89,90,90,90,90,90,90,90,90,90,90,90,87,87,90,92,92,92,92,95,95,91,91,91,89,89,89,89,88,88,88,88,88,88,87,87,87,87,87,87,87,87,87,88,88,88,88,88,91,91,91,92,93,93,94,94,94,94,93,93,94,93,88,88,89,88,87,87,87,87,89,88,88,88,88,88,88,87,87,87,86,86,86,90,87,88,88,91,91,91,88,87,88,88,84,84,84,84,84,88,88,89,89,89,89,89,89,89,89,86,86,88,88,90,89,89,90,90,89,89,90,86,89,87,86,86,85,85,87,87,86,90,90,89,88,88,90,85,82,82,87,87,87,87,86,86,86,85,85,89,90,89,89,92,92,94,89,89,88,88,88,86,86,86,86,89,88,90,90,91,91,89,89,89,89,89,89,89,89,89,90,90,90,90,90,91,91,90,90,90,90,90,90,90,90,90,90,90,90,90,89,89,89,90,90,90,90,90,90,90,90,90,90,90,92,93,93,93,93,93,93,95,95,95,96,98,98,98,100,99,99,98,98,97,97,97,97,97,94,92,92,91,91,91,91,88,88,88,89,89,87,87,87,89,89,91,91,95,95,95,95,94,93,93,93,93,97,97,99,100,101,99,99,99,96,92,93,93,93,94,94,93,93,88,88,90,90,90,91,91,91,91,92,92,92,92,92,92,92,92,92,93,94,94,95,95,95,96,96,97,97,98,99,99,99,99,101,101,102,102,103,103,103,103,102,102,102,98,98,96,96,96,95,95,93,93,94,94,90,90,90,91,86,86,90,90,90,92,92,94,94,94,93,92,92,94,91,91,91,91,92,92,92,93,93,93,93,93,93,93,93,93,94,95,95,95,94,94,93,93,94,95,94,95,95,95,94,93,93,93,93,93,93,94,94,94,94,93,93,93,93,93,94,94,94,96,96,94,94,94,96,95,95,95,95,95,95,94,94,93,93,93,93,93,93,92,92,93,93,93,93,92,92,92,92,92,92,92,93,93,93,93,93,93,93,91,91,93,93,93,93,93,93,94,94,93,93,93,93,93,93,93,93,93,93,93,90,92,95,96,93,93,92,90,91,91,91,90,90,98,98,94,94,94,94,91,91,91,90,90,91,91,93,93,93,93,90,90,90,91,91,91,87,87,87,86,86,89,89,89,89,89,92,92,88,88,88,89,89,89,90,90,89,89,89,89,91,89,89,89,90,89,89,89,88,88,89,89,89,92,90,90,90,90,90,91,91,89,92,91,91,91,91,91,92,92,92,92,90,90,91,91,91,91,91,94,94,95,96,96,96,96,96,93,93,94,94,94,92,92,91,92,94,94,93,93,93,93,93,88,91,89,87,87,87,86,86,86,86,90,89,88,88,86,88,88,92,92,91,91,90,90,90,89,89,88,89,89,89,89,91,90,90,90,90,91,91,93,93,92,92,89,86,86,86,89,89,88,88,89,89,89,89,92,89,89,88,88,88,87,87,90,88,88,88,88,88,88,88,88,88,90,90,92,93,93,93,93,95,95,94,94,94,94,92,92,90,90,90,90,89,89,89,89,89,92,92,92,91,91,91,91,91,91,90,90,90,90,91,91,91,91,91,91,91,90,92,92,92,92,93,93,93,93,93,93,93,93,95,93,92,92,94,94,94,94,94,94,94,93,93,90,91,91,88,88,88,88,87,87,86,86,86,84,84,81,81,81,84,84,84,85,85,85,87,89,87,87,87,87,87,87,87,87,86,87,88,88,90,90,90,90,90,87,87,87,87,94,94,93,93,93,93,93,91,91,91,91,90,90,90,90,90,90,92,92,92,92,91,91,91,91,93,93,93,93,93,93,93,94,94,90,94,93,93,93,91,95,94,86,86,87,88,88,88,91,91,89,89,82,82,82,82,87,91,91,91,91,91,87,87,87,87,89,88,88,87,87,87,88,88,88,88,88,88,88,88,88,88,88,88,89,86,86,87,87,89,89,89,91,90,86,86,86,86,85,86,86,83,83,83,87,87,87,89,89,89,87,88,88,82,81,84,86,86,86,86,92,92,92,92,92,92,88,86,86,86,86,87,88,88,88,89,89,91,92,92,92,93,93,93,93,93,93,93,94,94,90,90,91,88,88,86,84,87,87,87,87,91,90,90,90,90,87,87,87,87,87,87,87,87,87,86,86,86,87,87,87,87,86,86,86,86,85,85,87,87,87,83,84,85,85,87,87,87,91,91,91,90,90,90,90,90,91,90,90,85,87,88,88,87,87,87],"month":"2026-08-01"},"geometry":{"type":"LineString","coordinates":[[-83.234635,10.168613,6.5],[-83.234615,10.168596,6.5],[-83.234632,10.168606,6.5],[-83.234624,10.168604,6.5],[-83.234638,10.168594,6.5],[-83.234677,10.168586,7.7],[-83.234727,10.168615,8],[-83.23477,10.168621,8.3],[-83.234801,10.168652,8],[-83.234815,10.168699,7.6],[-83.23483,10.168714,7.5],[-83.234834,10.16875,7.5],[-83.234841,10.168758,7],[-83.234838,10.168778,7],[-83.234866,10.168818,6.6],[-83.234865,10.168826,6.6],[-83.234886,10.168843,6.2],[-83.234913,10.168849,6.2],[-83.234945,10.168867,6.2],[-83.234968,10.168893,6],[-83.23503,10.16893,6],[-83.235047,10.168952,6],[-83.235055,10.169002,6],[-83.235176,10.169076,6.7],[-83.235191,10.169075,6.7],[-83.235231,10.169108,6.9],[-83.235233,10.1691,6.9],[-83.235253,10.169111,6.9],[-83.235262,10.16913,7],[-83.235285,10.169144,7],[-83.235278,10.169145,7],[-83.235273,10.16916,7],[-83.235298,10.169194,7],[-83.235303,10.169189,7],[-83.235279,10.169172,7],[-83.235287,10.169169,7],[-83.235264,10.169171,7],[-83.235261,10.169166,7],[-83.235272,10.169166,7],[-83.235269,10.169173,7],[-83.23527,10.169163,7],[-83.235242,10.16916,7],[-83.235232,10.169149,7],[-83.23527,10.16914,7],[-83.235273,10.169155,7],[-83.235301,10.169167,7],[-83.23532,10.169243,7],[-83.235311,10.169252,7],[-83.235304,10.169287,7],[-83.235318,10.169294,7],[-83.235329,10.169323,7],[-83.235341,10.169331,7],[-83.235326,10.169312,7],[-83.235315,10.169335,7],[-83.235342,10.169341,7],[-83.235352,10.169337,7],[-83.235345,10.169323,7],[-83.235337,10.169328,7],[-83.23536,10.169335,7],[-83.23535,10.169335,7],[-83.235361,10.169332,7],[-83.235357,10.169358,7],[-83.235316,10.169299,7],[-83.235319,10.169317,7],[-83.235305,10.169312,7],[-83.235323,10.169329,7],[-83.235326,10.169324,7],[-83.23533,10.169341,7],[-83.235327,10.169336,7],[-83.235351,10.169356,7],[-83.235347,10.169362,7],[-83.235424,10.16942,7],[-83.235433,10.169439,7],[-83.235461,10.169464,7],[-83.235464,10.169475,7],[-83.235492,10.169494,7],[-83.235496,10.169522,7],[-83.235533,10.169538,7],[-83.235548,10.169525,7],[-83.235543,10.169519,7],[-83.235538,10.169525,7],[-83.235547,10.169527,7],[-83.235548,10.169535,7],[-83.235567,10.169545,7],[-83.23557,10.169541,7],[-83.235569,10.169555,7],[-83.23556,10.169555,7],[-83.235559,10.169562,7.1],[-83.235602,10.169608,7.3],[-83.235622,10.169619,7.3],[-83.235625,10.169645,7.5],[-83.235614,10.169645,7.5],[-83.235611,10.169666,7.5],[-83.235619,10.169652,7.5],[-83.23561,10.169659,7.5],[-83.235602,10.169651,7.5],[-83.235597,10.169656,7.6],[-83.235594,10.169648,7.6],[-83.235611,10.169632,7.3],[-83.235606,10.169626,7.3],[-83.235614,10.169642,7.3],[-83.235601,10.169642,7.3],[-83.235608,10.169649,7.5],[-83.235584,10.169654,7.6],[-83.235576,10.169641,7.4],[-83.235597,10.169644,7.6],[-83.235587,10.169648,7.6],[-83.235609,10.169668,7.5],[-83.235635,10.169675,7.5],[-83.235681,10.169643,7.2],[-83.235673,10.169628,7.2],[-83.235658,10.169623,7.2],[-83.235637,10.169645,7.5],[-83.235644,10.169654,7.4],[-83.235666,10.169657,7.4],[-83.235657,10.16967,7.4],[-83.235654,10.169666,7.4],[-83.235649,10.169674,7.4],[-83.235663,10.169684,7.4],[-83.235674,10.169677,7.4],[-83.23567,10.16969,7.5],[-83.235665,10.169664,7.4],[-83.235688,10.169642,7.1],[-83.235683,10.169639,7.2],[-83.235686,10.169644,7.2],[-83.23567,10.169662,7.4],[-83.2357,10.169677,7.2],[-83.235618,10.169664,7.5],[-83.235623,10.16965,7.5],[-83.235642,10.169667,7.4],[-83.235638,10.169681,7.5],[-83.23562,10.169667,7.5],[-83.235649,10.169678,7.4],[-83.235659,10.169647,7.4],[-83.235662,10.169663,7.4],[-83.235672,10.169669,7.4],[-83.235683,10.169692,7.5],[-83.235681,10.169705,7.5],[-83.235667,10.169713,7.5],[-83.235677,10.169723,7.5],[-83.235656,10.169722,7.5],[-83.235663,10.16973,7.6],[-83.235695,10.169728,7.3],[-83.23569,10.169725,7.3],[-83.235706,10.16975,7.3],[-83.235735,10.169768,7.1],[-83.23574,10.16979,7.1],[-83.235745,10.169785,7.1],[-83.235756,10.169795,7.1],[-83.235764,10.169789,7.1],[-83.23573,10.169869,7.1],[-83.235701,10.169875,7.3],[-83.235706,10.169879,7.3],[-83.235695,10.169877,7.3],[-83.235709,10.169855,7.3],[-83.235705,10.169861,7.3],[-83.235677,10.169854,7.6],[-83.235674,10.169837,7.6],[-83.235669,10.169842,7.6],[-83.235686,10.169866,7.3],[-83.235675,10.169864,7.6],[-83.235704,10.169865,7.3],[-83.235711,10.169846,7.3],[-83.235718,10.16986,7.3],[-83.235737,10.169871,7.1],[-83.235735,10.169864,7.1],[-83.235732,10.169874,7.1],[-83.235755,10.169868,7.1],[-83.235819,10.169911,6.7],[-83.235817,10.169916,6.7],[-83.235831,10.169916,6.7],[-83.235838,10.169936,6.7],[-83.235873,10.169947,6.7],[-83.235916,10.16999,6.7],[-83.235927,10.169992,6.7],[-83.235945,10.170027,6.9],[-83.235935,10.170023,6.7],[-83.235961,10.170057,6.9],[-83.235957,10.170064,6.9],[-83.235964,10.170088,7.1],[-83.235982,10.170101,7.1],[-83.236005,10.170106,7.1],[-83.236019,10.17013,7.4],[-83.236014,10.170172,7.6],[-83.236027,10.170168,7.6],[-83.23603,10.170189,7.6],[-83.236053,10.170215,7.9],[-83.236057,10.17023,7.9],[-83.23605,10.170224,7.9],[-83.236058,10.170264,8.1],[-83.23608,10.170274,8.1],[-83.236068,10.170283,8.2],[-83.236093,10.170316,8.3],[-83.236117,10.170319,8.8],[-83.236125,10.170327,8.8],[-83.236117,10.170312,8.5],[-83.23615,10.170322,8.8],[-83.236146,10.170312,8.5],[-83.236143,10.170317,8.5],[-83.236109,10.1703,8.3],[-83.236155,10.170311,8.5],[-83.236162,10.170321,9],[-83.236163,10.170313,8.8],[-83.236152,10.170314,8.5],[-83.236152,10.17032,8.8],[-83.23613,10.170303,8.5],[-83.236126,10.170315,8.5],[-83.236137,10.170341,8.8],[-83.236128,10.170322,8.8],[-83.236122,10.170322,8.8],[-83.236128,10.17032,8.8],[-83.236118,10.170325,8.8],[-83.236124,10.170359,8.8],[-83.23616,10.170379,9.3],[-83.236158,10.170373,9.3],[-83.236163,10.170383,9.3],[-83.236155,10.170373,9],[-83.236162,10.170365,9.3],[-83.236148,10.170338,8.8],[-83.236156,10.170337,9],[-83.236167,10.170351,9],[-83.23618,10.17035,9],[-83.236178,10.170344,9],[-83.236212,10.170349,9.3],[-83.236206,10.170353,9.3],[-83.236216,10.170361,9.3],[-83.236197,10.170352,9],[-83.236202,10.170368,9.5],[-83.236237,10.170397,9.5],[-83.236249,10.170397,9.8],[-83.236334,10.170471,10.6],[-83.236365,10.170513,10.8],[-83.236353,10.170518,10.8],[-83.23636,10.170526,10.8],[-83.236353,10.170547,10.9],[-83.236404,10.170619,11],[-83.236395,10.17062,11],[-83.236412,10.170634,11],[-83.236411,10.170629,11],[-83.236445,10.170658,11],[-83.236454,10.170706,11],[-83.236486,10.170744,11],[-83.236483,10.17076,11],[-83.2365,10.170767,11],[-83.236503,10.170776,11],[-83.236573,10.170831,11],[-83.236566,10.170835,11],[-83.236568,10.170861,11],[-83.236518,10.170879,11],[-83.236522,10.170908,11],[-83.236535,10.170912,10.9],[-83.236542,10.170931,10.8],[-83.236616,10.170972,10.3],[-83.236631,10.171,9.8],[-83.236706,10.171034,9.6],[-83.236713,10.171052,9.2],[-83.236731,10.171061,9.2],[-83.236706,10.171089,8.9],[-83.236712,10.171096,8.9],[-83.236709,10.171106,8.9],[-83.236771,10.171178,8.4],[-83.236769,10.171173,8.4],[-83.236791,10.171172,8.4],[-83.236853,10.171214,8.5],[-83.236864,10.171254,8.3],[-83.236878,10.171261,8.3],[-83.236888,10.171278,8.5],[-83.236885,10.171299,8],[-83.236898,10.171306,8.3],[-83.236909,10.171324,8.3],[-83.236899,10.171338,8],[-83.236903,10.171351,8],[-83.236922,10.171363,8],[-83.236938,10.171397,8],[-83.23696,10.171408,8],[-83.236989,10.171437,7.9],[-83.236986,10.171447,7.9],[-83.237012,10.17147,7.7],[-83.237061,10.171491,7.9],[-83.237045,10.171474,7.8],[-83.237054,10.171475,7.8],[-83.237049,10.171483,7.8],[-83.237068,10.171506,7.8],[-83.237073,10.171527,7.8],[-83.237118,10.171551,7.9],[-83.237111,10.171555,7.9],[-83.237113,10.171564,7.9],[-83.237095,10.171557,7.7],[-83.237093,10.171568,7.7],[-83.237127,10.171597,7.9],[-83.237137,10.171597,7.9],[-83.237187,10.17166,8],[-83.237213,10.171632,8],[-83.237233,10.171633,8],[-83.237247,10.171646,8],[-83.237244,10.171673,8],[-83.237258,10.171701,8],[-83.237286,10.171727,8],[-83.237284,10.17174,8],[-83.237295,10.17176,8.1],[-83.237289,10.171765,8.1],[-83.237308,10.171778,8.1],[-83.237308,10.17179,8.1],[-83.237298,10.171788,8.1],[-83.2373,10.171797,8.1],[-83.237283,10.171809,8.3],[-83.237279,10.171831,8.3],[-83.237301,10.171854,8.5],[-83.237263,10.171823,8.2],[-83.237256,10.171827,8.2],[-83.23727,10.171837,8.2],[-83.237261,10.171839,8.2],[-83.237266,10.171843,8.4],[-83.237258,10.171862,8.4],[-83.237227,10.171869,8.2],[-83.237221,10.171888,8.3],[-83.237227,10.171921,8.3],[-83.237258,10.171939,8.6],[-83.237269,10.17196,8.6],[-83.237256,10.171967,8.6],[-83.237226,10.171961,8.4],[-83.237231,10.171975,8.6],[-83.23731,10.172015,8.9],[-83.2373,10.172009,8.9],[-83.2373,10.172021,8.9],[-83.237327,10.172047,9.1],[-83.237355,10.172091,9.1],[-83.237386,10.172106,9.4],[-83.237392,10.172117,9.4],[-83.237411,10.172116,9.6],[-83.237464,10.172147,9.9],[-83.237467,10.172167,9.9],[-83.237474,10.172167,9.9],[-83.237451,10.172162,9.9],[-83.237438,10.172174,9.6],[-83.237442,10.172179,9.6],[-83.237439,10.172162,9.6],[-83.237429,10.172169,9.6],[-83.237415,10.172165,9.6],[-83.237441,10.172184,9.6],[-83.237475,10.172189,9.9],[-83.237465,10.17219,9.9],[-83.237461,10.172201,9.9],[-83.237452,10.172204,9.9],[-83.237471,10.172222,9.9],[-83.237502,10.172223,10],[-83.237492,10.17222,10],[-83.237469,10.172183,9.9],[-83.237462,10.172191,9.9],[-83.237452,10.17219,9.9],[-83.237484,10.172222,9.9],[-83.237493,10.172218,10.1],[-83.237506,10.172229,10],[-83.237506,10.172244,10],[-83.237532,10.172266,9.9],[-83.237547,10.172269,9.9],[-83.237552,10.172281,9.9],[-83.23754,10.172301,9.9],[-83.237516,10.172312,9.7],[-83.237608,10.172337,9.7],[-83.237604,10.172322,9.7],[-83.237609,10.172317,9.7],[-83.237578,10.172296,9.9],[-83.237615,10.172293,9.9],[-83.237603,10.172307,9.7],[-83.237587,10.172312,9.7],[-83.237592,10.172312,9.7],[-83.237586,10.172316,9.7],[-83.237589,10.172312,9.7],[-83.237593,10.172318,9.7],[-83.237584,10.172326,9.7],[-83.237582,10.172316,9.7],[-83.237562,10.172308,9.7],[-83.237568,10.172301,9.9],[-83.237564,10.172297,9.9],[-83.237584,10.172308,9.7],[-83.237576,10.172309,9.7],[-83.237587,10.172311,9.7],[-83.237607,10.17234,9.7],[-83.237593,10.172343,9.7],[-83.2376,10.172374,9.4],[-83.237614,10.172375,9.4],[-83.237636,10.172393,9.2],[-83.237653,10.172444,8.9],[-83.237644,10.172456,8.9],[-83.237648,10.172481,8.6],[-83.237676,10.172512,8.8],[-83.237681,10.172534,8.5],[-83.237669,10.172546,8.5],[-83.237685,10.172601,7.9],[-83.237675,10.172608,7.9],[-83.237682,10.172609,7.9],[-83.237674,10.172624,7.9],[-83.237686,10.172638,7.9],[-83.237687,10.172663,7.4],[-83.237704,10.172672,7.6],[-83.237698,10.172704,7],[-83.237741,10.172734,7],[-83.237734,10.172733,7],[-83.237744,10.172722,7.6],[-83.237776,10.172747,7.4],[-83.237782,10.172745,7.4],[-83.237784,10.172766,7.4],[-83.237808,10.172793,7.7],[-83.237803,10.172797,7.7],[-83.237819,10.17278,7.7],[-83.237815,10.172785,7.7],[-83.237844,10.172793,8.1],[-83.237862,10.172812,7.8],[-83.237856,10.172839,7.8],[-83.237888,10.172905,7.9],[-83.237884,10.172912,7.9],[-83.237927,10.172951,8.2],[-83.237912,10.172945,7.7],[-83.237929,10.172971,8.2],[-83.237939,10.173013,7.9],[-83.237955,10.173025,7.7],[-83.238011,10.173039,8.6],[-83.238004,10.173017,8.8],[-83.237971,10.173032,8.2],[-83.237991,10.173063,8.2],[-83.237981,10.173096,7.9],[-83.237995,10.173116,7.7],[-83.238004,10.173102,8.4],[-83.238,10.173095,7.9],[-83.238004,10.173104,8.4],[-83.238002,10.173096,8.4],[-83.237963,10.173088,7.9],[-83.237971,10.173097,7.9],[-83.237977,10.173087,7.9],[-83.237974,10.173098,7.9],[-83.237968,10.173087,7.9],[-83.23798,10.173082,7.9],[-83.237985,10.173051,8.2],[-83.237994,10.173053,8.2],[-83.237989,10.173049,8.2],[-83.237996,10.173046,8.2],[-83.238001,10.173056,8.6],[-83.237964,10.173043,8.2],[-83.237962,10.173059,8.2],[-83.237974,10.173053,8.2],[-83.237969,10.173067,7.9],[-83.237959,10.173055,8.2],[-83.237964,10.173054,8.2],[-83.237947,10.173044,7.7],[-83.238147,10.173163,9.7],[-83.238134,10.173161,9.7],[-83.238157,10.173179,9.7],[-83.238164,10.173173,9.7],[-83.238166,10.173198,9.7],[-83.238163,10.173187,9.7],[-83.238184,10.173193,10.2],[-83.23822,10.173253,10.7],[-83.238234,10.173264,10.7],[-83.238242,10.173288,10.7],[-83.238286,10.173325,11.2],[-83.238282,10.173322,11.2],[-83.23828,10.173349,11.2],[-83.238335,10.173424,11.7],[-83.238337,10.173441,11.7],[-83.238356,10.173464,12.2],[-83.23837,10.173504,11.9],[-83.23842,10.173537,12.2],[-83.238403,10.1736,11.9],[-83.238397,10.173599,11.9],[-83.238404,10.173596,11.9],[-83.238397,10.173607,11.9],[-83.23843,10.173673,11.1],[-83.238468,10.173718,11.1],[-83.238483,10.173725,11.6],[-83.238473,10.173728,11.6],[-83.238473,10.17374,11.6],[-83.238463,10.173719,11.1],[-83.238509,10.173733,11.6],[-83.238508,10.173741,11.1],[-83.238547,10.173761,11.4],[-83.238568,10.173784,10.9],[-83.238565,10.17378,11.4],[-83.238599,10.173799,10.9],[-83.238623,10.173802,10.9],[-83.238609,10.173809,10.9],[-83.238624,10.173822,10.9],[-83.238646,10.173813,10.9],[-83.238659,10.173838,10.7],[-83.238652,10.173866,10.7],[-83.238665,10.173868,10.4],[-83.238664,10.173873,10.4],[-83.238766,10.173933,10.6],[-83.238772,10.173926,10.6],[-83.238781,10.173934,10.8],[-83.238778,10.173929,10.8],[-83.238781,10.173948,10.8],[-83.238805,10.173976,10.6],[-83.238794,10.173976,10.6],[-83.238804,10.173992,10.6],[-83.238797,10.174011,10.6],[-83.238807,10.174029,10.6],[-83.238803,10.174036,10.6],[-83.238811,10.174057,10.6],[-83.238803,10.174062,10.6],[-83.238817,10.174063,10.9],[-83.238888,10.174103,11],[-83.238891,10.17414,11],[-83.238951,10.174172,11],[-83.23896,10.174194,11],[-83.238954,10.174202,11],[-83.238977,10.174225,11],[-83.238965,10.174272,11],[-83.238993,10.174292,10.9],[-83.239026,10.174341,10.4],[-83.239006,10.174367,10.4],[-83.239007,10.174377,9.6],[-83.239042,10.174412,9.6],[-83.239048,10.174429,9.1],[-83.239043,10.174441,9.1],[-83.239071,10.174481,8.4],[-83.239094,10.174487,8.5],[-83.239129,10.174523,7.9],[-83.239124,10.174509,7.9],[-83.239157,10.174537,7.9],[-83.239208,10.17455,7.8],[-83.23924,10.174587,7.3],[-83.23924,10.174604,7.3],[-83.239266,10.17463,7.6],[-83.239278,10.174672,7.4],[-83.239331,10.174719,7.9],[-83.239357,10.174725,8.6],[-83.239365,10.174745,8.6],[-83.239352,10.174752,8.6],[-83.239354,10.174804,8.4],[-83.239338,10.174803,8.4],[-83.23934,10.174787,8.6],[-83.239342,10.174797,8.4],[-83.239363,10.174814,8.4],[-83.239326,10.174799,7.6],[-83.239381,10.174812,9],[-83.239371,10.174806,8.4],[-83.239393,10.174817,9],[-83.239388,10.17481,9],[-83.239385,10.174823,9],[-83.239368,10.174808,8.4],[-83.239505,10.174958,10.6],[-83.239499,10.174956,9.8],[-83.239503,10.17496,10.6],[-83.239478,10.174966,9.7],[-83.239491,10.17497,9.7],[-83.239503,10.174986,10.4],[-83.239515,10.17499,10.4],[-83.239504,10.174996,10.4],[-83.239496,10.174989,9.7],[-83.239515,10.17499,10.4],[-83.239522,10.175017,10.2],[-83.2395,10.175015,9.5],[-83.239512,10.175008,10.2],[-83.239514,10.17503,10.2],[-83.239511,10.175016,10.2],[-83.239517,10.175031,10.2],[-83.239516,10.175021,10.2],[-83.239531,10.175047,10.2],[-83.239531,10.175042,10.2],[-83.239556,10.175056,10.4],[-83.239601,10.175105,10.4],[-83.239597,10.175117,10.4],[-83.239606,10.175143,10.2],[-83.239636,10.175153,10.4],[-83.239641,10.175141,10.4],[-83.239651,10.175154,10.4],[-83.239647,10.175164,10.4],[-83.239642,10.175154,10.4],[-83.239652,10.175151,10.4],[-83.239634,10.175137,10.4],[-83.239629,10.175194,9.9],[-83.239599,10.175198,9.9],[-83.239598,10.175219,9.7],[-83.239591,10.175207,9.9],[-83.239596,10.175203,9.9],[-83.239588,10.175195,9.7],[-83.239597,10.175168,10.2],[-83.23959,10.175149,10.2],[-83.239578,10.175169,9.9],[-83.239626,10.175148,10.2],[-83.239623,10.175155,10.2],[-83.239634,10.175162,10.4],[-83.239633,10.175169,10.4],[-83.239694,10.175192,10.4],[-83.239695,10.175186,10.4],[-83.239681,10.175181,10.4],[-83.239694,10.175201,10.4],[-83.239721,10.175206,10.5],[-83.239704,10.175211,10.4],[-83.239701,10.175233,10.2],[-83.239714,10.175246,10.2],[-83.239707,10.175258,10.2],[-83.23974,10.175301,10],[-83.239756,10.175309,9.5],[-83.23975,10.175299,10],[-83.239764,10.175299,9.7],[-83.23981,10.175337,9.1],[-83.239827,10.175342,9.1],[-83.239845,10.175359,8.8],[-83.239818,10.175333,9.1],[-83.239897,10.175401,8.3],[-83.239903,10.175396,8.3],[-83.239926,10.175399,8.3],[-83.23993,10.175413,8.3],[-83.239946,10.175415,8.3],[-83.239912,10.175395,8.3],[-83.239933,10.175427,8.3],[-83.239935,10.175476,7.9],[-83.23991,10.1755,7.8],[-83.239957,10.175535,7.7],[-83.23996,10.175551,7.7],[-83.239952,10.175557,7.6],[-83.23996,10.175589,7.6],[-83.239993,10.175617,7.6],[-83.240053,10.175642,7.8],[-83.240047,10.175639,7.9],[-83.240043,10.175647,7.8],[-83.240097,10.175665,8.2],[-83.240116,10.175691,8.7],[-83.240102,10.175698,8.2],[-83.240111,10.175719,8.7],[-83.240161,10.175756,9.2],[-83.240176,10.175776,9.2],[-83.240168,10.175778,9.2],[-83.240223,10.175835,9.5],[-83.240216,10.175842,9.5],[-83.240198,10.175833,9.5],[-83.240194,10.175841,9.5],[-83.240181,10.175832,9.1],[-83.240187,10.17584,9.1],[-83.240177,10.175859,8.9],[-83.240191,10.175869,9.3],[-83.240202,10.175867,9.3],[-83.240193,10.175882,9.3],[-83.2402,10.175887,9.3],[-83.240206,10.17588,9.3],[-83.240236,10.175878,9.7],[-83.240204,10.175876,9.3],[-83.240205,10.17587,9.3],[-83.240184,10.175859,8.9],[-83.240182,10.175851,9.1],[-83.240149,10.175828,9.1],[-83.240108,10.175773,8.7],[-83.240096,10.175766,8.2],[-83.240073,10.175728,8.2],[-83.240063,10.17573,8.2],[-83.240038,10.175715,7.8],[-83.240042,10.175704,7.8],[-83.240012,10.175694,7.6],[-83.240007,10.175641,7.6],[-83.24002,10.175606,7.9],[-83.239995,10.175569,7.7],[-83.239994,10.175557,7.7],[-83.239985,10.175558,7.7],[-83.239982,10.175546,7.8],[-83.239962,10.175549,7.7],[-83.239969,10.175548,7.7],[-83.239971,10.175535,7.7],[-83.239931,10.175508,7.8],[-83.239917,10.175509,7.8],[-83.23992,10.175504,7.8],[-83.239911,10.175493,7.8],[-83.239917,10.17549,7.8],[-83.239912,10.175465,8.1],[-83.239927,10.175459,8.1],[-83.239909,10.175435,8.1],[-83.239912,10.175428,8.3],[-83.239897,10.175403,8.3],[-83.239859,10.175394,8.4],[-83.23982,10.175369,8.8],[-83.239812,10.175355,8.8],[-83.239792,10.175343,9.3],[-83.239787,10.17535,8.9],[-83.239773,10.175346,8.9],[-83.239777,10.175349,8.9],[-83.239767,10.17533,9.3],[-83.239736,10.17531,9.5],[-83.239688,10.175213,10.4],[-83.239647,10.175181,10.2],[-83.239626,10.175176,10.2],[-83.239619,10.175159,10.2],[-83.239599,10.175143,10.2],[-83.239588,10.175098,10.2],[-83.239567,10.175088,10.4],[-83.239569,10.175077,10.4],[-83.239582,10.175077,10.4],[-83.239571,10.17507,10.4],[-83.239571,10.175062,10.4],[-83.23955,10.175046,10.7],[-83.239529,10.175054,10],[-83.239501,10.175036,9.5],[-83.239507,10.17503,10.2],[-83.239462,10.175023,9.5],[-83.239473,10.175018,9.5],[-83.239465,10.175007,9.7],[-83.239469,10.174997,9.7],[-83.239495,10.174994,9.7],[-83.239492,10.174979,9.7],[-83.239461,10.174962,9.8],[-83.239459,10.174954,9.1],[-83.239452,10.174968,9],[-83.239442,10.174965,9.1],[-83.239439,10.174971,9],[-83.239426,10.174949,9.1],[-83.239409,10.17494,8.4],[-83.239401,10.174911,8.6],[-83.239381,10.174901,8.6],[-83.239348,10.174854,8.1],[-83.239322,10.174831,7.6],[-83.239342,10.174829,8.4],[-83.239332,10.174826,8.4],[-83.239324,10.174808,7.6],[-83.239329,10.174807,7.6],[-83.239315,10.174784,7.8],[-83.239271,10.174746,7.3],[-83.239262,10.174729,7.3],[-83.239245,10.174734,6.6],[-83.239196,10.174694,6.3],[-83.239202,10.174669,6.6],[-83.239175,10.174632,6.6],[-83.239168,10.174632,6.6],[-83.239176,10.174627,7],[-83.239165,10.174612,7],[-83.239171,10.174624,7],[-83.239164,10.174626,7],[-83.239149,10.174609,6.7],[-83.239118,10.174595,6.7],[-83.239096,10.174556,7.2],[-83.239024,10.174504,7.7],[-83.239031,10.174488,8.4],[-83.239027,10.174436,9.1],[-83.238999,10.174389,9.6],[-83.238989,10.174339,10.4],[-83.239005,10.17434,10.4],[-83.23902,10.174321,10.9],[-83.239013,10.174325,10.9],[-83.238991,10.17431,10.9],[-83.239018,10.174313,10.9],[-83.239023,10.174308,10.9],[-83.239003,10.174296,10.9],[-83.238975,10.174262,11],[-83.238983,10.174247,11],[-83.238936,10.174224,11],[-83.238924,10.174205,11],[-83.238929,10.174171,11],[-83.238922,10.174158,11],[-83.238896,10.174141,11],[-83.238874,10.174137,11],[-83.238871,10.17413,11],[-83.238871,10.174136,11],[-83.238871,10.174122,11],[-83.238859,10.174119,10.9],[-83.238862,10.174106,11],[-83.238855,10.174115,10.9],[-83.238857,10.174078,10.9],[-83.238867,10.174077,11],[-83.238833,10.174021,10.9],[-83.238818,10.174021,10.9],[-83.238802,10.174005,10.6],[-83.238783,10.174004,10.6],[-83.238789,10.174017,10.6],[-83.238798,10.174005,10.6],[-83.238773,10.173989,10.4],[-83.238742,10.173888,10.8],[-83.238734,10.173883,10.8],[-83.238755,10.173891,10.8],[-83.238754,10.173902,10.8],[-83.238773,10.173934,10.6],[-83.238738,10.173976,10.4],[-83.238724,10.173967,10.1],[-83.238727,10.173963,10.1],[-83.238732,10.173973,10.4],[-83.238695,10.173901,10.6],[-83.238658,10.173892,10.4],[-83.238642,10.173867,10.6],[-83.238649,10.173869,10.4],[-83.238637,10.173848,10.6],[-83.238616,10.173841,10.6],[-83.238625,10.173839,10.6],[-83.238623,10.17381,10.9],[-83.238546,10.173749,11.4],[-83.238553,10.17371,11.9],[-83.238538,10.173696,12.4],[-83.238478,10.173671,12.1],[-83.238489,10.173669,12.1],[-83.238524,10.173685,12.4],[-83.238525,10.17368,12.4],[-83.238517,10.173701,11.9],[-83.238534,10.173717,11.9],[-83.238544,10.173712,11.9],[-83.238546,10.173702,11.9],[-83.238522,10.173706,11.9],[-83.238513,10.173694,12.1],[-83.238518,10.173697,12.4],[-83.238502,10.173697,12.1],[-83.238517,10.173714,11.9],[-83.238518,10.173707,11.9],[-83.238511,10.173708,11.6],[-83.238505,10.173693,12.1],[-83.238513,10.173692,12.1],[-83.238488,10.173703,11.6],[-83.238484,10.173681,12.1],[-83.238495,10.173691,12.1],[-83.238498,10.173681,12.1],[-83.238493,10.173693,12.1],[-83.238481,10.173692,12.1],[-83.238473,10.173701,11.6],[-83.238473,10.173692,12.1],[-83.238478,10.173695,12.1],[-83.238409,10.173641,11.6],[-83.238415,10.17364,11.6],[-83.2384,10.173621,11.6],[-83.238414,10.173623,11.6],[-83.238394,10.173612,11.9],[-83.23839,10.173601,11.9],[-83.238376,10.173593,11.4],[-83.238382,10.173574,11.4],[-83.238355,10.173569,11.7],[-83.238362,10.173578,11.4],[-83.238353,10.173572,11.4],[-83.238363,10.173571,11.7],[-83.238338,10.173533,11.1],[-83.238333,10.173498,11.4],[-83.238311,10.173482,11.7],[-83.238304,10.173456,11.7],[-83.23831,10.17343,11.7],[-83.238292,10.173417,11.2],[-83.238297,10.173419,11.2],[-83.238292,10.173409,11.2],[-83.23828,10.173412,11.2],[-83.238275,10.173401,11.2],[-83.238287,10.173425,11.2],[-83.238278,10.173428,11.2],[-83.238255,10.173389,10.7],[-83.238265,10.173373,11.2],[-83.238247,10.173346,10.7],[-83.238212,10.173323,10.2],[-83.238217,10.173317,10.7],[-83.238213,10.173329,10.2],[-83.238211,10.173322,10.2],[-83.238196,10.173322,10.2],[-83.238168,10.173277,9.6],[-83.238122,10.173253,8.9],[-83.238132,10.173233,9.7],[-83.238114,10.173218,9],[-83.238129,10.173205,9],[-83.23812,10.173196,9],[-83.238143,10.173194,9.7],[-83.238122,10.173173,9.1],[-83.238075,10.173157,8.5],[-83.238067,10.173162,8.5],[-83.238077,10.173167,8.5],[-83.238054,10.17314,8.7],[-83.238046,10.173143,8.7],[-83.238049,10.173128,8.7],[-83.238044,10.173126,8.7],[-83.238034,10.173148,8.2],[-83.238046,10.173154,8.5],[-83.238045,10.17316,8.5],[-83.238042,10.17315,8],[-83.238033,10.173151,8],[-83.238026,10.173133,8.2],[-83.238001,10.173128,8.2],[-83.238002,10.17314,8.2],[-83.23801,10.173143,8.2],[-83.238005,10.173121,8.2],[-83.23801,10.173127,8.2],[-83.238002,10.173109,8.2],[-83.238006,10.17312,8.2],[-83.237994,10.173129,7.7],[-83.238004,10.173138,8.2],[-83.237992,10.173134,7.7],[-83.237996,10.173139,7.7],[-83.237973,10.173118,7.7],[-83.237955,10.173118,7.2],[-83.237966,10.173107,7.7],[-83.238009,10.173093,8.4],[-83.237996,10.173057,8.2],[-83.238015,10.17306,8.6],[-83.238025,10.17308,8.4],[-83.238017,10.173072,8.4],[-83.238035,10.173081,8.4],[-83.238037,10.173096,8.4],[-83.238029,10.173115,8.2],[-83.237896,10.17297,7.7],[-83.237904,10.172984,7.4],[-83.237899,10.17298,7.7],[-83.237929,10.172988,7.9],[-83.237926,10.172983,7.9],[-83.237932,10.172984,7.9],[-83.237855,10.172952,7.2],[-83.237842,10.172921,7.4],[-83.237824,10.172907,6.8],[-83.237805,10.172862,7.1],[-83.237812,10.17283,7.4],[-83.237794,10.172784,7.7],[-83.237762,10.172775,7.2],[-83.237769,10.172775,7.2],[-83.237768,10.172795,7.2],[-83.237757,10.172759,7.4],[-83.237732,10.172746,7],[-83.237737,10.172732,7],[-83.237756,10.172737,7.4],[-83.237722,10.17271,7.3],[-83.2377,10.172703,7],[-83.237716,10.172704,7.3],[-83.237694,10.172692,7],[-83.237697,10.17268,7.4],[-83.23768,10.172641,7.9],[-83.237665,10.172624,7.9],[-83.237475,10.172277,9.8],[-83.237454,10.172289,9.8],[-83.237425,10.172271,9.6],[-83.237445,10.172302,9.8],[-83.237509,10.172329,9.7],[-83.237511,10.172361,9.4],[-83.237508,10.172353,9.4],[-83.237484,10.172345,9.6],[-83.237471,10.172348,9.3],[-83.237453,10.172339,9.6],[-83.237469,10.172356,9.3],[-83.23747,10.172349,9.3],[-83.23749,10.172341,9.7],[-83.237507,10.172354,9.4],[-83.237531,10.172334,9.7],[-83.237527,10.172328,9.7],[-83.237541,10.172332,9.7],[-83.237509,10.172312,9.7],[-83.237529,10.172337,9.7],[-83.237499,10.172324,9.7],[-83.237481,10.172324,9.6],[-83.237472,10.172337,9.6],[-83.237472,10.172324,9.6],[-83.237453,10.172313,9.6],[-83.23746,10.172304,9.8],[-83.237454,10.172299,9.8],[-83.237456,10.172305,9.6],[-83.237428,10.172295,9.6],[-83.237482,10.172298,9.8],[-83.237478,10.172279,9.8],[-83.237441,10.172241,9.6],[-83.237445,10.172244,9.9],[-83.237433,10.172222,9.6],[-83.237404,10.172218,9.6],[-83.23734,10.172146,9.1],[-83.237349,10.172129,9.1],[-83.23729,10.172051,8.9],[-83.237254,10.172024,8.6],[-83.23726,10.172018,8.6],[-83.237249,10.17201,8.6],[-83.23725,10.171988,8.6],[-83.237233,10.171968,8.6],[-83.237203,10.171956,8.4],[-83.23721,10.171956,8.4],[-83.237207,10.171943,8.4],[-83.237189,10.171929,8.4],[-83.237199,10.171926,8.4],[-83.237212,10.171878,8.2],[-83.237239,10.171846,8.4],[-83.237252,10.171844,8.4],[-83.237267,10.171828,8.2],[-83.237283,10.171823,8.3],[-83.237274,10.171822,8.3],[-83.237271,10.171807,8.2],[-83.237294,10.171807,8.3],[-83.237301,10.171795,8.1],[-83.237283,10.171784,8.1],[-83.237288,10.171782,8.1],[-83.237276,10.171781,8.1],[-83.23725,10.17176,8.1],[-83.23727,10.17174,8],[-83.237245,10.17172,8],[-83.23725,10.171726,8],[-83.237233,10.171707,8],[-83.237244,10.171709,8],[-83.237232,10.171702,8],[-83.237243,10.171715,8],[-83.237246,10.171708,8],[-83.23722,10.17169,8],[-83.237201,10.171689,8],[-83.237205,10.171692,8],[-83.237194,10.171684,8],[-83.237155,10.171613,8],[-83.237141,10.171615,7.9],[-83.237127,10.171604,7.9],[-83.237118,10.171582,7.9],[-83.23712,10.171564,7.9],[-83.237106,10.17155,7.9],[-83.237088,10.171555,7.7],[-83.237076,10.171523,7.8],[-83.237049,10.171501,7.8],[-83.237045,10.171478,7.8],[-83.237028,10.171468,7.8],[-83.237026,10.17144,7.9],[-83.236997,10.171416,8.1],[-83.23699,10.17138,8.1],[-83.236933,10.171374,8.3],[-83.236911,10.171346,8],[-83.236895,10.171339,8],[-83.236872,10.171279,8.3],[-83.236875,10.17127,8.3],[-83.236837,10.17123,8.3],[-83.236819,10.171226,8.3],[-83.236814,10.171216,8.3],[-83.236788,10.171211,8.2],[-83.236771,10.17119,8.4],[-83.236716,10.171185,8.4],[-83.236707,10.171151,8.7],[-83.236707,10.171104,8.9],[-83.236685,10.171106,8.9],[-83.236658,10.171076,9.3],[-83.236654,10.171061,9.3],[-83.236611,10.171025,9.9],[-83.236618,10.171014,9.9],[-83.236604,10.17094,10.8],[-83.236552,10.170873,11],[-83.236547,10.170875,11],[-83.236506,10.170832,11],[-83.236535,10.170809,11],[-83.236517,10.170805,11],[-83.236497,10.170775,11],[-83.236475,10.17076,11],[-83.236479,10.170772,11],[-83.236501,10.170787,11],[-83.236494,10.17078,11],[-83.236494,10.170787,11],[-83.236517,10.170792,11],[-83.236486,10.170786,11],[-83.236461,10.17077,11],[-83.23651,10.170829,11],[-83.236516,10.170822,11],[-83.236519,10.170826,11],[-83.236525,10.170816,11],[-83.236492,10.170796,11],[-83.236489,10.170805,11],[-83.236505,10.170818,11],[-83.236498,10.170806,11],[-83.236487,10.170816,11],[-83.236476,10.170845,11],[-83.236481,10.170819,11],[-83.236476,10.170806,11],[-83.23648,10.17081,11],[-83.236447,10.170806,11],[-83.236475,10.170815,11],[-83.236478,10.170809,11],[-83.236511,10.170807,11],[-83.23651,10.170815,11],[-83.236537,10.170805,11],[-83.236524,10.17078,11],[-83.236504,10.170792,11],[-83.236527,10.170834,11],[-83.236487,10.170821,11],[-83.236523,10.170811,11],[-83.236526,10.170829,11],[-83.236531,10.170829,11],[-83.236509,10.170826,11],[-83.236488,10.170836,11],[-83.236477,10.170856,11],[-83.236482,10.170852,11],[-83.236479,10.170834,11],[-83.236455,10.170814,11],[-83.236498,10.170834,11],[-83.236501,10.170824,11],[-83.236487,10.170783,11],[-83.236462,10.170783,11],[-83.236481,10.170788,11],[-83.236476,10.170785,11],[-83.236501,10.170782,11],[-83.236547,10.170796,11],[-83.23653,10.170765,11],[-83.236527,10.170739,11],[-83.236551,10.17073,11],[-83.236482,10.170709,11],[-83.23648,10.170702,11],[-83.236485,10.170702,11],[-83.236478,10.1707,11],[-83.236482,10.170692,11],[-83.236476,10.170688,11],[-83.236487,10.170687,11],[-83.236432,10.170648,11],[-83.236438,10.170647,11],[-83.236429,10.170639,11],[-83.23643,10.17062,11],[-83.236387,10.170612,11],[-83.236393,10.170596,11],[-83.236407,10.17059,11],[-83.236398,10.170574,11],[-83.236318,10.170505,10.7],[-83.236306,10.170503,10.7],[-83.236297,10.170488,10.7],[-83.236302,10.170494,10.7],[-83.236272,10.170487,10.2],[-83.236256,10.170498,10.4],[-83.236239,10.17049,10],[-83.236248,10.170465,10.2],[-83.236236,10.17045,9.9],[-83.236219,10.170397,9.5],[-83.236198,10.170371,9.3],[-83.23618,10.17032,9],[-83.236171,10.170324,9],[-83.236143,10.170305,8.5],[-83.236106,10.170292,8.3],[-83.236104,10.170284,8.3],[-83.236092,10.170291,8.3],[-83.236078,10.170283,8.3],[-83.236062,10.170254,8.1],[-83.236076,10.17025,8.1],[-83.236086,10.17027,8.1],[-83.236105,10.170262,8.1],[-83.236113,10.170244,8.3],[-83.236089,10.170254,8.1],[-83.236097,10.170249,8.1],[-83.236089,10.170254,8.1],[-83.236072,10.170246,8.1],[-83.236068,10.170271,8.1],[-83.236082,10.170288,8.3],[-83.236094,10.17028,8.3],[-83.236088,10.170281,8.3],[-83.236093,10.170248,8.1],[-83.236087,10.17024,8.1],[-83.236049,10.170229,7.9],[-83.236036,10.170237,8.1],[-83.23603,10.17023,7.9],[-83.236072,10.170224,7.9],[-83.236024,10.170205,7.9],[-83.236031,10.170201,7.9],[-83.236035,10.170179,7.6],[-83.236042,10.170181,7.6],[-83.236034,10.170208,7.9],[-83.236018,10.170202,7.9],[-83.236004,10.170179,7.6],[-83.236014,10.170174,7.6],[-83.236009,10.170175,7.6],[-83.235996,10.170131,7.4],[-83.236015,10.170119,7.4],[-83.235993,10.170099,7.1],[-83.235997,10.170086,7.1],[-83.235977,10.170079,7.1],[-83.235973,10.170067,7.1],[-83.235945,10.170046,6.9],[-83.23594,10.170031,7],[-83.23593,10.170027,7],[-83.235926,10.170011,6.7],[-83.23591,10.169993,6.7],[-83.235886,10.169992,7],[-83.235871,10.16997,6.7],[-83.235829,10.169947,7],[-83.235804,10.169917,7],[-83.235756,10.169893,7.1],[-83.235728,10.169854,7.1],[-83.235736,10.169849,7.1],[-83.235708,10.169824,7.3],[-83.235709,10.169815,7.3],[-83.235698,10.169815,7.3],[-83.235696,10.169785,7.3],[-83.235734,10.169766,7.1],[-83.235722,10.169747,7.3],[-83.235747,10.16976,7.1],[-83.235732,10.169761,7.1],[-83.235742,10.169769,7.1],[-83.235749,10.169766,7.1],[-83.235741,10.16977,7.1],[-83.235724,10.169761,7.3],[-83.23575,10.169751,7.1],[-83.235721,10.169735,7.3],[-83.235703,10.16976,7.3],[-83.235743,10.169763,7.1],[-83.23573,10.169749,7.1],[-83.235722,10.169758,7.3],[-83.235723,10.169752,7.3],[-83.235708,10.169746,7.3],[-83.235717,10.169742,7.3],[-83.235702,10.169742,7.3],[-83.235696,10.16975,7.3],[-83.235687,10.169737,7.3],[-83.235689,10.169748,7.3],[-83.235684,10.169744,7.3],[-83.235699,10.169743,7.3],[-83.235674,10.169713,7.5],[-83.235677,10.169696,7.5],[-83.23568,10.169706,7.5],[-83.235707,10.169721,7.3],[-83.235703,10.169704,7.3],[-83.235705,10.169725,7.3],[-83.235665,10.169715,7.5],[-83.235679,10.169721,7.5],[-83.235708,10.169711,7.3],[-83.235689,10.169699,7.3],[-83.235686,10.169704,7.3],[-83.235676,10.169687,7.5],[-83.23568,10.169673,7.4],[-83.235667,10.169667,7.4],[-83.235661,10.16964,7.2],[-83.235666,10.169632,7.2],[-83.235656,10.169622,7.2],[-83.235657,10.169627,7.2],[-83.235663,10.169619,7.2],[-83.235658,10.169622,7.2],[-83.235619,10.169599,7.1],[-83.235587,10.169595,7.1],[-83.23558,10.169603,7.4],[-83.235566,10.169601,7.4],[-83.235557,10.169591,7.1],[-83.235541,10.169591,7.1],[-83.235502,10.169564,7.1],[-83.235509,10.169556,7],[-83.235491,10.169529,7],[-83.235497,10.169515,7],[-83.235479,10.169501,7],[-83.235409,10.169475,7],[-83.23539,10.169447,7],[-83.235382,10.169451,7],[-83.235351,10.169436,7],[-83.235316,10.169399,7],[-83.23532,10.16939,7],[-83.235303,10.169321,7],[-83.23527,10.169271,7],[-83.235262,10.169223,7],[-83.235246,10.169209,7],[-83.235251,10.16921,7],[-83.235249,10.169202,7],[-83.235253,10.169211,7],[-83.235246,10.169226,7],[-83.235236,10.169223,7],[-83.235244,10.169229,7],[-83.235233,10.169213,7],[-83.235221,10.169217,7],[-83.235237,10.169222,7],[-83.235262,10.169197,7],[-83.235278,10.169204,7],[-83.235269,10.16921,7],[-83.235262,10.169201,7],[-83.235225,10.169188,7],[-83.235181,10.16914,6.9],[-83.235123,10.169122,6.5],[-83.23512,10.169076,6.3],[-83.235097,10.169058,6.3],[-83.235078,10.169028,6],[-83.235043,10.169011,6],[-83.23506,10.168997,6],[-83.235103,10.168995,6.1],[-83.2351,10.169014,6.1],[-83.235086,10.169021,6.1],[-83.235126,10.169051,6.4],[-83.23512,10.16905,6.1],[-83.235129,10.169059,6.5],[-83.235121,10.169063,6.3],[-83.235113,10.169047,6.1],[-83.235093,10.169052,6.3],[-83.235086,10.169045,6.1],[-83.235068,10.169048,6],[-83.23507,10.169039,6],[-83.235051,10.168995,6],[-83.235034,10.168989,6],[-83.235006,10.168999,6],[-83.234982,10.168991,6],[-83.234958,10.168962,6],[-83.234932,10.168947,6],[-83.234923,10.168918,6],[-83.23494,10.168912,6],[-83.234922,10.168893,6],[-83.234928,10.168901,6],[-83.234917,10.168868,6.2],[-83.234893,10.168834,6.7],[-83.234849,10.168803,6.6],[-83.234823,10.168771,6.9],[-83.23483,10.168753,7.5],[-83.234839,10.168755,7.5],[-83.234836,10.168751,7.5],[-83.234828,10.168768,7],[-83.234841,10.168737,7.5],[-83.234834,10.168741,7.5],[-83.234847,10.168734,7.5],[-83.234842,10.168744,7.5],[-83.234827,10.168739,7.5],[-83.234831,10.168744,7.5],[-83.234825,10.168747,7.2],[-83.234839,10.168751,7.5],[-83.234836,10.168742,7.5],[-83.234812,10.16874,7.2],[-83.234821,10.168741,7.2],[-83.234806,10.168732,7.2],[-83.234804,10.168715,7.2],[-83.234758,10.168664,7.8],[-83.234734,10.168662,7.5],[-83.234711,10.168623,8],[-83.234712,10.168575,8.5],[-83.234721,10.168552,8.5]]}}]}