<?xml version="1.0" encoding="UTF-8"?>
<gpx creator="gps4cam - http://gps4cam.com" version="1.1" schemaLocation="http://www.topografix.com/GPX/1/1 http://www.topografix.com/GPX/1/1/gpx.xsd" xmlns="http://www.topografix.com/GPX/1/1" xmlns:xsi="http://www.w3.org/2001/XMLSchema-instance" xsi:schemaLocation="http://www.topografix.com/GPX/1/1 http://www.topografix.com/GPX/1/1/gpx.xsd http://www.garmin.com/xmlschemas/GpxExtensions/v3 http://www.garmin.com/xmlschemas/GpxExtensionsv3.xsd http://www.garmin.com/xmlschemas/TrackPointExtension/v1 http://www.garmin.com/xmlschemas/TrackPointExtensionv1.xsd http://www.garmin.com/xmlschemas/PowerExtension/v1 http://www.garmin.com/xmlschemas/PowerExtensionv1.xsd http://www.topografix.com/GPX/gpx_style/0/2 http://www.topografix.com/GPX/gpx_style/0/2/gpx_style.xsd" xmlns:gpxtpx="http://www.garmin.com/xmlschemas/TrackPointExtension/v1" xmlns:gpxx="http://www.garmin.com/xmlschemas/GpxExtensions/v3" xmlns:gpxpx="http://www.garmin.com/xmlschemas/PowerExtension/v1" xmlns:gpx_style="http://www.topografix.com/GPX/gpx_style/0/2">
  <metadata>
    <name>gps4cam trip started at 2018-08-26 11-27 decoded at 2018-08-26 18-55-55</name>
    <author>
      <name>gpx.studio</name>
      <link href="https://gpx.studio"/>
    </author>
    <link href="http://gps4cam.com">
      <text>gps4cam</text>
    </link>
    <time>2018-08-26T16:55:58.000Z</time>
  </metadata>
  <trk>
    <name>gps4cam trip started at: 2018-08-26T09:27:21Z</name>
    <trkseg>
      <trkpt lat="53.4864771572" lon="6.2204097838">
        <time>2018-08-26T15:22:40.000Z</time>
      </trkpt>
      <trkpt lat="53.4865439965" lon="6.2202147283">
        <time>2018-08-26T15:25:47.000Z</time>
      </trkpt>
      <trkpt lat="53.4865577613" lon="6.2199556367">
        <time>2018-08-26T15:33:26.000Z</time>
      </trkpt>
      <trkpt lat="53.4865877392" lon="6.2197218641">
        <time>2018-08-26T15:33:30.000Z</time>
      </trkpt>
      <trkpt lat="53.4865805183" lon="6.2194655992">
        <time>2018-08-26T15:33:34.000Z</time>
      </trkpt>
      <trkpt lat="53.4865482165" lon="6.21920786">
        <time>2018-08-26T15:33:39.000Z</time>
      </trkpt>
      <trkpt lat="53.4865285388" lon="6.2189468023">
        <time>2018-08-26T15:33:45.000Z</time>
      </trkpt>
      <trkpt lat="53.4865291701" lon="6.2187153652">
        <time>2018-08-26T15:33:50.000Z</time>
      </trkpt>
      <trkpt lat="53.4864461996" lon="6.2184790146">
        <time>2018-08-26T15:33:55.000Z</time>
      </trkpt>
      <trkpt lat="53.4863715889" lon="6.2182431561">
        <time>2018-08-26T15:34:00.000Z</time>
      </trkpt>
      <trkpt lat="53.486279245" lon="6.2180549875">
        <time>2018-08-26T15:34:05.000Z</time>
      </trkpt>
      <trkpt lat="53.4862467718" lon="6.2178053629">
        <time>2018-08-26T15:34:10.000Z</time>
      </trkpt>
      <trkpt lat="53.4862646277" lon="6.217550574">
        <time>2018-08-26T15:34:14.000Z</time>
      </trkpt>
      <trkpt lat="53.4862783874" lon="6.2172914833">
        <time>2018-08-26T15:34:18.000Z</time>
      </trkpt>
      <trkpt lat="53.486271668" lon="6.2170108849">
        <time>2018-08-26T15:34:22.000Z</time>
      </trkpt>
      <trkpt lat="53.4862475529" lon="6.2167617522">
        <time>2018-08-26T15:34:26.000Z</time>
      </trkpt>
      <trkpt lat="53.4862526135" lon="6.2165183943">
        <time>2018-08-26T15:34:30.000Z</time>
      </trkpt>
      <trkpt lat="53.4862414594" lon="6.2162497185">
        <time>2018-08-26T15:34:34.000Z</time>
      </trkpt>
      <trkpt lat="53.4862045497" lon="6.2160120179">
        <time>2018-08-26T15:34:38.000Z</time>
      </trkpt>
      <trkpt lat="53.4861843598" lon="6.2157752994">
        <time>2018-08-26T15:34:42.000Z</time>
      </trkpt>
      <trkpt lat="53.4862143304" lon="6.2155415262">
        <time>2018-08-26T15:34:45.000Z</time>
      </trkpt>
      <trkpt lat="53.486231676" lon="6.2153110724">
        <time>2018-08-26T15:34:49.000Z</time>
      </trkpt>
      <trkpt lat="53.4861944274" lon="6.2150895964">
        <time>2018-08-26T15:34:53.000Z</time>
      </trkpt>
      <trkpt lat="53.4861880404" lon="6.214792775">
        <time>2018-08-26T15:34:57.000Z</time>
      </trkpt>
      <trkpt lat="53.4862186834" lon="6.2145265534">
        <time>2018-08-26T15:35:01.000Z</time>
      </trkpt>
      <trkpt lat="53.4862291839" lon="6.2142226011">
        <time>2018-08-26T15:35:05.000Z</time>
      </trkpt>
      <trkpt lat="53.4862642585" lon="6.2139444562">
        <time>2018-08-26T15:35:09.000Z</time>
      </trkpt>
      <trkpt lat="53.4863527468" lon="6.2137141148">
        <time>2018-08-26T15:35:13.000Z</time>
      </trkpt>
      <trkpt lat="53.4864826983" lon="6.2135024485">
        <time>2018-08-26T15:35:17.000Z</time>
      </trkpt>
      <trkpt lat="53.4866124809" lon="6.213298893">
        <time>2018-08-26T15:35:21.000Z</time>
      </trkpt>
      <trkpt lat="53.4867255428" lon="6.2130943553">
        <time>2018-08-26T15:35:25.000Z</time>
      </trkpt>
      <trkpt lat="53.4868048269" lon="6.2129040793">
        <time>2018-08-26T15:35:28.000Z</time>
      </trkpt>
      <trkpt lat="53.4869306809" lon="6.2126881069">
        <time>2018-08-26T15:35:32.000Z</time>
      </trkpt>
      <trkpt lat="53.4870560293" lon="6.2124964694">
        <time>2018-08-26T15:35:36.000Z</time>
      </trkpt>
      <trkpt lat="53.4871612347" lon="6.2122671006">
        <time>2018-08-26T15:35:40.000Z</time>
      </trkpt>
      <trkpt lat="53.4872130247" lon="6.211989928">
        <time>2018-08-26T15:35:44.000Z</time>
      </trkpt>
      <trkpt lat="53.4872061246" lon="6.2117174364">
        <time>2018-08-26T15:35:48.000Z</time>
      </trkpt>
      <trkpt lat="53.4871782393" lon="6.2114477759">
        <time>2018-08-26T15:35:52.000Z</time>
      </trkpt>
      <trkpt lat="53.4872008511" lon="6.2111648312">
        <time>2018-08-26T15:35:56.000Z</time>
      </trkpt>
      <trkpt lat="53.4872275582" lon="6.2108861874">
        <time>2018-08-26T15:36:00.000Z</time>
      </trkpt>
      <trkpt lat="53.4872663842" lon="6.2106285583">
        <time>2018-08-26T15:36:04.000Z</time>
      </trkpt>
      <trkpt lat="53.487301282" lon="6.2103585157">
        <time>2018-08-26T15:36:08.000Z</time>
      </trkpt>
      <trkpt lat="53.4873319149" lon="6.2100922838">
        <time>2018-08-26T15:36:12.000Z</time>
      </trkpt>
      <trkpt lat="53.4873540189" lon="6.2098336739">
        <time>2018-08-26T15:36:16.000Z</time>
      </trkpt>
      <trkpt lat="53.4873510419" lon="6.2095735948">
        <time>2018-08-26T15:36:20.000Z</time>
      </trkpt>
      <trkpt lat="53.4873349354" lon="6.2093411739">
        <time>2018-08-26T15:36:24.000Z</time>
      </trkpt>
      <trkpt lat="53.4874700436" lon="6.2092841105">
        <time>2018-08-26T15:36:29.000Z</time>
      </trkpt>
      <trkpt lat="53.4876149168" lon="6.2093616327">
        <time>2018-08-26T15:36:35.000Z</time>
      </trkpt>
      <trkpt lat="53.4877423376" lon="6.2092716301">
        <time>2018-08-26T15:37:53.000Z</time>
      </trkpt>
      <trkpt lat="53.4878634163" lon="6.2090837901">
        <time>2018-08-26T15:38:01.000Z</time>
      </trkpt>
      <trkpt lat="53.487959246" lon="6.2089025926">
        <time>2018-08-26T15:38:05.000Z</time>
      </trkpt>
      <trkpt lat="53.4880639399" lon="6.2086975468">
        <time>2018-08-26T15:38:10.000Z</time>
      </trkpt>
      <trkpt lat="53.4881599371" lon="6.2085082351">
        <time>2018-08-26T15:38:15.000Z</time>
      </trkpt>
      <trkpt lat="53.4882596937" lon="6.2083394482">
        <time>2018-08-26T15:38:20.000Z</time>
      </trkpt>
      <trkpt lat="53.4883510898" lon="6.208170171">
        <time>2018-08-26T15:38:25.000Z</time>
      </trkpt>
      <trkpt lat="53.4884387259" lon="6.2079803674">
        <time>2018-08-26T15:38:30.000Z</time>
      </trkpt>
      <trkpt lat="53.4885190098" lon="6.2077413993">
        <time>2018-08-26T15:38:35.000Z</time>
      </trkpt>
      <trkpt lat="53.4886035574" lon="6.2074986187">
        <time>2018-08-26T15:38:40.000Z</time>
      </trkpt>
      <trkpt lat="53.4886836724" lon="6.2072677611">
        <time>2018-08-26T15:38:45.000Z</time>
      </trkpt>
      <trkpt lat="53.4887511626" lon="6.2070402252">
        <time>2018-08-26T15:38:49.000Z</time>
      </trkpt>
      <trkpt lat="53.4888145562" lon="6.2068083878">
        <time>2018-08-26T15:38:52.000Z</time>
      </trkpt>
      <trkpt lat="53.4888951738" lon="6.2065531903">
        <time>2018-08-26T15:38:55.000Z</time>
      </trkpt>
      <trkpt lat="53.4889636704" lon="6.2062769771">
        <time>2018-08-26T15:38:58.000Z</time>
      </trkpt>
      <trkpt lat="53.4890319984" lon="6.2060088755">
        <time>2018-08-26T15:39:01.000Z</time>
      </trkpt>
      <trkpt lat="53.4890709812" lon="6.2057431183">
        <time>2018-08-26T15:39:04.000Z</time>
      </trkpt>
      <trkpt lat="53.4890809547" lon="6.2054634809">
        <time>2018-08-26T15:39:07.000Z</time>
      </trkpt>
      <trkpt lat="53.4890904238" lon="6.2052081809">
        <time>2018-08-26T15:39:10.000Z</time>
      </trkpt>
      <trkpt lat="53.4890871004" lon="6.2049643165">
        <time>2018-08-26T15:39:13.000Z</time>
      </trkpt>
      <trkpt lat="53.4890970721" lon="6.2046846789">
        <time>2018-08-26T15:39:17.000Z</time>
      </trkpt>
      <trkpt lat="53.4891188282" lon="6.2044422804">
        <time>2018-08-26T15:39:20.000Z</time>
      </trkpt>
      <trkpt lat="53.489136152" lon="6.2042118062">
        <time>2018-08-26T15:39:23.000Z</time>
      </trkpt>
      <trkpt lat="53.4891534754" lon="6.2039813318">
        <time>2018-08-26T15:39:26.000Z</time>
      </trkpt>
      <trkpt lat="53.4891805009" lon="6.2036864453">
        <time>2018-08-26T15:39:30.000Z</time>
      </trkpt>
      <trkpt lat="53.4892109508" lon="6.2034283092">
        <time>2018-08-26T15:39:34.000Z</time>
      </trkpt>
      <trkpt lat="53.489228776" lon="6.2031734964">
        <time>2018-08-26T15:39:41.000Z</time>
      </trkpt>
      <trkpt lat="53.4892293771" lon="6.2029420444">
        <time>2018-08-26T15:39:47.000Z</time>
      </trkpt>
      <trkpt lat="53.4892303132" lon="6.2026943673">
        <time>2018-08-26T15:39:53.000Z</time>
      </trkpt>
      <trkpt lat="53.4892769783" lon="6.2024615444">
        <time>2018-08-26T15:39:56.000Z</time>
      </trkpt>
      <trkpt lat="53.4893610123" lon="6.2022430869">
        <time>2018-08-26T15:39:59.000Z</time>
      </trkpt>
      <trkpt lat="53.4894820798" lon="6.2020552193">
        <time>2018-08-26T15:40:02.000Z</time>
      </trkpt>
      <trkpt lat="53.4896065725" lon="6.2019041016">
        <time>2018-08-26T15:40:05.000Z</time>
      </trkpt>
      <trkpt lat="53.4897634997" lon="6.2018036112">
        <time>2018-08-26T15:40:08.000Z</time>
      </trkpt>
      <trkpt lat="53.4899286194" lon="6.2017117208">
        <time>2018-08-26T15:40:11.000Z</time>
      </trkpt>
      <trkpt lat="53.4900826237" lon="6.2015501391">
        <time>2018-08-26T15:40:14.000Z</time>
      </trkpt>
      <trkpt lat="53.4902248417" lon="6.2013513168">
        <time>2018-08-26T15:40:17.000Z</time>
      </trkpt>
      <trkpt lat="53.4903513446" lon="6.2011028403">
        <time>2018-08-26T15:40:20.000Z</time>
      </trkpt>
      <trkpt lat="53.4904527664" lon="6.2008528986">
        <time>2018-08-26T15:40:23.000Z</time>
      </trkpt>
      <trkpt lat="53.4905576136" lon="6.2006397073">
        <time>2018-08-26T15:40:26.000Z</time>
      </trkpt>
      <trkpt lat="53.4906834447" lon="6.200423678">
        <time>2018-08-26T15:40:29.000Z</time>
      </trkpt>
      <trkpt lat="53.4908094429" lon="6.2001995344">
        <time>2018-08-26T15:40:32.000Z</time>
      </trkpt>
      <trkpt lat="53.4909008271" lon="6.2000302288">
        <time>2018-08-26T15:40:34.000Z</time>
      </trkpt>
      <trkpt lat="53.4909976475" lon="6.1998003194">
        <time>2018-08-26T15:40:37.000Z</time>
      </trkpt>
      <trkpt lat="53.4910861072" lon="6.1995699213">
        <time>2018-08-26T15:40:40.000Z</time>
      </trkpt>
      <trkpt lat="53.4911534147" lon="6.1993504727">
        <time>2018-08-26T15:40:43.000Z</time>
      </trkpt>
      <trkpt lat="53.4912459699" lon="6.1991243731">
        <time>2018-08-26T15:40:46.000Z</time>
      </trkpt>
      <trkpt lat="53.4913432908" lon="6.1988701207">
        <time>2018-08-26T15:40:49.000Z</time>
      </trkpt>
      <trkpt lat="53.4914406111" lon="6.1986158671">
        <time>2018-08-26T15:40:52.000Z</time>
      </trkpt>
      <trkpt lat="53.4915630115" lon="6.1983630745">
        <time>2018-08-26T15:40:55.000Z</time>
      </trkpt>
      <trkpt lat="53.4917149231" lon="6.1980998164">
        <time>2018-08-26T15:40:58.000Z</time>
      </trkpt>
      <trkpt lat="53.4918846382" lon="6.1979878666">
        <time>2018-08-26T15:41:01.000Z</time>
      </trkpt>
      <trkpt lat="53.4920576126" lon="6.1979207815">
        <time>2018-08-26T15:41:04.000Z</time>
      </trkpt>
      <trkpt lat="53.4922182977" lon="6.197840795">
        <time>2018-08-26T15:41:07.000Z</time>
      </trkpt>
      <trkpt lat="53.4923772293" lon="6.1976429229">
        <time>2018-08-26T15:41:10.000Z</time>
      </trkpt>
      <trkpt lat="53.4925278002" lon="6.1974445621">
        <time>2018-08-26T15:41:13.000Z</time>
      </trkpt>
      <trkpt lat="53.4926527881" lon="6.197269078">
        <time>2018-08-26T15:41:16.000Z</time>
      </trkpt>
      <trkpt lat="53.4927625609" lon="6.1970195994">
        <time>2018-08-26T15:41:19.000Z</time>
      </trkpt>
      <trkpt lat="53.4928598766" lon="6.1967653322">
        <time>2018-08-26T15:41:22.000Z</time>
      </trkpt>
      <trkpt lat="53.4929444004" lon="6.1965225033">
        <time>2018-08-26T15:41:25.000Z</time>
      </trkpt>
      <trkpt lat="53.4930785833" lon="6.1963069349">
        <time>2018-08-26T15:41:28.000Z</time>
      </trkpt>
      <trkpt lat="53.4932304052" lon="6.1962507926">
        <time>2018-08-26T15:41:31.000Z</time>
      </trkpt>
      <trkpt lat="53.4933578153" lon="6.1961607355">
        <time>2018-08-26T15:41:34.000Z</time>
      </trkpt>
      <trkpt lat="53.4935275282" lon="6.1960487719">
        <time>2018-08-26T15:41:39.000Z</time>
      </trkpt>
      <trkpt lat="53.4936754206" lon="6.195980214">
        <time>2018-08-26T15:41:42.000Z</time>
      </trkpt>
      <trkpt lat="53.4937915441" lon="6.1958285736">
        <time>2018-08-26T15:41:45.000Z</time>
      </trkpt>
      <trkpt lat="53.4939503045" lon="6.1956387986">
        <time>2018-08-26T15:41:48.000Z</time>
      </trkpt>
      <trkpt lat="53.4940554752" lon="6.1954093477">
        <time>2018-08-26T15:41:51.000Z</time>
      </trkpt>
      <trkpt lat="53.4941307997" lon="6.1952065896">
        <time>2018-08-26T15:41:53.000Z</time>
      </trkpt>
      <trkpt lat="53.4942139826" lon="6.195028658">
        <time>2018-08-26T15:41:55.000Z</time>
      </trkpt>
      <trkpt lat="53.4943025987" lon="6.1947901173">
        <time>2018-08-26T15:41:58.000Z</time>
      </trkpt>
      <trkpt lat="53.4943949767" lon="6.1945721028">
        <time>2018-08-26T15:42:01.000Z</time>
      </trkpt>
      <trkpt lat="53.4945080042" lon="6.1943674739">
        <time>2018-08-26T15:42:04.000Z</time>
      </trkpt>
      <trkpt lat="53.4945966189" lon="6.19412893">
        <time>2018-08-26T15:42:07.000Z</time>
      </trkpt>
      <trkpt lat="53.4946186854" lon="6.1938702668">
        <time>2018-08-26T15:42:10.000Z</time>
      </trkpt>
      <trkpt lat="53.4947072991" lon="6.1936317213">
        <time>2018-08-26T15:42:13.000Z</time>
      </trkpt>
      <trkpt lat="53.4947957453" lon="6.1934012884">
        <time>2018-08-26T15:42:16.000Z</time>
      </trkpt>
      <trkpt lat="53.4948671365" lon="6.1931861094">
        <time>2018-08-26T15:42:19.000Z</time>
      </trkpt>
      <trkpt lat="53.4949467206" lon="6.1929795295">
        <time>2018-08-26T15:42:22.000Z</time>
      </trkpt>
      <trkpt lat="53.4950307349" lon="6.1927610214">
        <time>2018-08-26T15:42:25.000Z</time>
      </trkpt>
      <trkpt lat="53.4951427574" lon="6.1926050667">
        <time>2018-08-26T15:42:28.000Z</time>
      </trkpt>
      <trkpt lat="53.4952754298" lon="6.192462497">
        <time>2018-08-26T15:42:31.000Z</time>
      </trkpt>
      <trkpt lat="53.4953707313" lon="6.1923055684">
        <time>2018-08-26T15:42:34.000Z</time>
      </trkpt>
      <trkpt lat="53.4954789903" lon="6.1921290835">
        <time>2018-08-26T15:42:37.000Z</time>
      </trkpt>
      <trkpt lat="53.4955553102" lon="6.1918776294">
        <time>2018-08-26T15:42:40.000Z</time>
      </trkpt>
      <trkpt lat="53.4956282004" lon="6.1915894193">
        <time>2018-08-26T15:42:44.000Z</time>
      </trkpt>
      <trkpt lat="53.4956917284" lon="6.1913494053">
        <time>2018-08-26T15:42:47.000Z</time>
      </trkpt>
      <trkpt lat="53.4957631157" lon="6.191134218">
        <time>2018-08-26T15:42:50.000Z</time>
      </trkpt>
      <trkpt lat="53.4958556534" lon="6.1909080736">
        <time>2018-08-26T15:42:53.000Z</time>
      </trkpt>
      <trkpt lat="53.4959524542" lon="6.190678114">
        <time>2018-08-26T15:42:56.000Z</time>
      </trkpt>
      <trkpt lat="53.4960154799" lon="6.1904624385">
        <time>2018-08-26T15:42:59.000Z</time>
      </trkpt>
      <trkpt lat="53.4960967268" lon="6.1901747083">
        <time>2018-08-26T15:43:02.000Z</time>
      </trkpt>
      <trkpt lat="53.4961325753" lon="6.1898559076">
        <time>2018-08-26T15:43:05.000Z</time>
      </trkpt>
      <trkpt lat="53.4960091726" lon="6.1897512574">
        <time>2018-08-26T15:43:13.000Z</time>
      </trkpt>
      <trkpt lat="53.4961129975" lon="6.1895866914">
        <time>2018-08-26T15:43:51.000Z</time>
      </trkpt>
      <trkpt lat="53.4961430805" lon="6.1893447298">
        <time>2018-08-26T15:43:58.000Z</time>
      </trkpt>
      <trkpt lat="53.4961943137" lon="6.1890918104">
        <time>2018-08-26T15:44:03.000Z</time>
      </trkpt>
      <trkpt lat="53.4962617668" lon="6.1888642031">
        <time>2018-08-26T15:44:07.000Z</time>
      </trkpt>
      <trkpt lat="53.4963493699" lon="6.1886743213">
        <time>2018-08-26T15:44:10.000Z</time>
      </trkpt>
      <trkpt lat="53.4964084619" lon="6.1884462271">
        <time>2018-08-26T15:44:14.000Z</time>
      </trkpt>
      <trkpt lat="53.4964673868" lon="6.1882262464">
        <time>2018-08-26T15:44:17.000Z</time>
      </trkpt>
      <trkpt lat="53.4965097574" lon="6.1879971806">
        <time>2018-08-26T15:44:20.000Z</time>
      </trkpt>
      <trkpt lat="53.4965770417" lon="6.1877776838">
        <time>2018-08-26T15:44:23.000Z</time>
      </trkpt>
      <trkpt lat="53.4966110511" lon="6.1875481318">
        <time>2018-08-26T15:44:26.000Z</time>
      </trkpt>
      <trkpt lat="53.4965534305" lon="6.1872970159">
        <time>2018-08-26T15:44:30.000Z</time>
      </trkpt>
      <trkpt lat="53.4964525088" lon="6.1871165015">
        <time>2018-08-26T15:44:34.000Z</time>
      </trkpt>
      <trkpt lat="53.4963345333" lon="6.1869512459">
        <time>2018-08-26T15:44:38.000Z</time>
      </trkpt>
      <trkpt lat="53.4962209876" lon="6.1867740626">
        <time>2018-08-26T15:44:42.000Z</time>
      </trkpt>
      <trkpt lat="53.4961418821" lon="6.1865501362">
        <time>2018-08-26T15:44:46.000Z</time>
      </trkpt>
      <trkpt lat="53.4961054103" lon="6.1862880653">
        <time>2018-08-26T15:44:50.000Z</time>
      </trkpt>
      <trkpt lat="53.4960858251" lon="6.1860188507">
        <time>2018-08-26T15:44:54.000Z</time>
      </trkpt>
      <trkpt lat="53.4960106487" lon="6.1858073395">
        <time>2018-08-26T15:44:58.000Z</time>
      </trkpt>
      <trkpt lat="53.4958447755" lon="6.1857327321">
        <time>2018-08-26T15:45:02.000Z</time>
      </trkpt>
      <trkpt lat="53.4956695429" lon="6.1857063233">
        <time>2018-08-26T15:45:06.000Z</time>
      </trkpt>
      <trkpt lat="53.4954943103" lon="6.1856799145">
        <time>2018-08-26T15:45:10.000Z</time>
      </trkpt>
      <trkpt lat="53.4953403947" lon="6.1856344332">
        <time>2018-08-26T15:45:13.000Z</time>
      </trkpt>
      <trkpt lat="53.4951864791" lon="6.1855889521">
        <time>2018-08-26T15:45:16.000Z</time>
      </trkpt>
      <trkpt lat="53.4950492841" lon="6.1855444407">
        <time>2018-08-26T15:45:19.000Z</time>
      </trkpt>
      <trkpt lat="53.494912422" lon="6.185483702">
        <time>2018-08-26T15:45:22.000Z</time>
      </trkpt>
      <trkpt lat="53.4947707971" lon="6.185451119">
        <time>2018-08-26T15:45:25.000Z</time>
      </trkpt>
      <trkpt lat="53.4945999944" lon="6.1854127824">
        <time>2018-08-26T15:45:29.000Z</time>
      </trkpt>
      <trkpt lat="53.4944249284" lon="6.1853782602">
        <time>2018-08-26T15:45:33.000Z</time>
      </trkpt>
      <trkpt lat="53.4942498624" lon="6.1853437381">
        <time>2018-08-26T15:45:37.000Z</time>
      </trkpt>
      <trkpt lat="53.494075296" lon="6.1852848754">
        <time>2018-08-26T15:45:41.000Z</time>
      </trkpt>
      <trkpt lat="53.4939253108" lon="6.1852518079">
        <time>2018-08-26T15:45:44.000Z</time>
      </trkpt>
      <trkpt lat="53.4937845184" lon="6.1851786577">
        <time>2018-08-26T15:45:47.000Z</time>
      </trkpt>
      <trkpt lat="53.4936389631" lon="6.1851336627">
        <time>2018-08-26T15:45:50.000Z</time>
      </trkpt>
      <trkpt lat="53.4934934079" lon="6.1850886677">
        <time>2018-08-26T15:45:53.000Z</time>
      </trkpt>
      <trkpt lat="53.4933567124" lon="6.1850198175">
        <time>2018-08-26T15:45:56.000Z</time>
      </trkpt>
      <trkpt lat="53.4932116567" lon="6.1849504827">
        <time>2018-08-26T15:45:59.000Z</time>
      </trkpt>
      <trkpt lat="53.493078725" lon="6.1849021588">
        <time>2018-08-26T15:46:02.000Z</time>
      </trkpt>
      <trkpt lat="53.4929420296" lon="6.1848333093">
        <time>2018-08-26T15:46:05.000Z</time>
      </trkpt>
      <trkpt lat="53.4927802533" lon="6.1847630057">
        <time>2018-08-26T15:46:09.000Z</time>
      </trkpt>
      <trkpt lat="53.4926433913" lon="6.18470227">
        <time>2018-08-26T15:46:13.000Z</time>
      </trkpt>
      <trkpt lat="53.4924903083" lon="6.1846162253">
        <time>2018-08-26T15:46:18.000Z</time>
      </trkpt>
      <trkpt lat="53.4923452525" lon="6.1845468922">
        <time>2018-08-26T15:46:23.000Z</time>
      </trkpt>
      <trkpt lat="53.4921921695" lon="6.1844608482">
        <time>2018-08-26T15:46:28.000Z</time>
      </trkpt>
      <trkpt lat="53.4920382539" lon="6.1844153704">
        <time>2018-08-26T15:46:33.000Z</time>
      </trkpt>
      <trkpt lat="53.4919010588" lon="6.1843708624">
        <time>2018-08-26T15:46:39.000Z</time>
      </trkpt>
      <trkpt lat="53.4917599334" lon="6.1843139424">
        <time>2018-08-26T15:46:45.000Z</time>
      </trkpt>
      <trkpt lat="53.4916063508" lon="6.1842522389">
        <time>2018-08-26T15:46:51.000Z</time>
      </trkpt>
      <trkpt lat="53.4914827785" lon="6.1841557235">
        <time>2018-08-26T15:46:56.000Z</time>
      </trkpt>
      <trkpt lat="53.4913337923" lon="6.1840739804">
        <time>2018-08-26T15:47:02.000Z</time>
      </trkpt>
      <trkpt lat="53.4911936659" lon="6.1839683834">
        <time>2018-08-26T15:47:08.000Z</time>
      </trkpt>
      <trkpt lat="53.4910494426" lon="6.1838584881">
        <time>2018-08-26T15:47:14.000Z</time>
      </trkpt>
      <trkpt lat="53.4909088165" lon="6.183777231">
        <time>2018-08-26T15:47:20.000Z</time>
      </trkpt>
      <trkpt lat="53.490785244" lon="6.1836807178">
        <time>2018-08-26T15:47:25.000Z</time>
      </trkpt>
      <trkpt lat="53.490661838" lon="6.1835760921">
        <time>2018-08-26T15:47:30.000Z</time>
      </trkpt>
      <trkpt lat="53.4905299051" lon="6.1834790952">
        <time>2018-08-26T15:47:35.000Z</time>
      </trkpt>
      <trkpt lat="53.4903812517" lon="6.1833811292">
        <time>2018-08-26T15:47:39.000Z</time>
      </trkpt>
      <trkpt lat="53.4902244045" lon="6.1832745663">
        <time>2018-08-26T15:47:43.000Z</time>
      </trkpt>
      <trkpt lat="53.4900759175" lon="6.1831684886">
        <time>2018-08-26T15:47:47.000Z</time>
      </trkpt>
      <trkpt lat="53.4899528442" lon="6.1830476399">
        <time>2018-08-26T15:47:51.000Z</time>
      </trkpt>
      <trkpt lat="53.4898086204" lon="6.1829377492">
        <time>2018-08-26T15:47:56.000Z</time>
      </trkpt>
      <trkpt lat="53.4896650625" lon="6.1827954082">
        <time>2018-08-26T15:48:01.000Z</time>
      </trkpt>
      <trkpt lat="53.4895633058" lon="6.182655491">
        <time>2018-08-26T15:48:05.000Z</time>
      </trkpt>
      <trkpt lat="53.4894240111" lon="6.1825093374">
        <time>2018-08-26T15:48:10.000Z</time>
      </trkpt>
      <trkpt lat="53.4893053672" lon="6.182376565">
        <time>2018-08-26T15:48:14.000Z</time>
      </trkpt>
      <trkpt lat="53.4891829592" lon="6.1822232693">
        <time>2018-08-26T15:48:18.000Z</time>
      </trkpt>
      <trkpt lat="53.4890485932" lon="6.1820408534">
        <time>2018-08-26T15:48:22.000Z</time>
      </trkpt>
      <trkpt lat="53.4889343787" lon="6.1818961564">
        <time>2018-08-26T15:48:25.000Z</time>
      </trkpt>
      <trkpt lat="53.4888196649" lon="6.1817757977">
        <time>2018-08-26T15:48:28.000Z</time>
      </trkpt>
      <trkpt lat="53.4886687443" lon="6.1815843029">
        <time>2018-08-26T15:48:32.000Z</time>
      </trkpt>
      <trkpt lat="53.4885176571" lon="6.1814009218">
        <time>2018-08-26T15:48:36.000Z</time>
      </trkpt>
      <trkpt lat="53.4883788606" lon="6.1812304371">
        <time>2018-08-26T15:48:40.000Z</time>
      </trkpt>
      <trkpt lat="53.4882439944" lon="6.1810723641">
        <time>2018-08-26T15:48:44.000Z</time>
      </trkpt>
      <trkpt lat="53.4881299456" lon="6.180919559">
        <time>2018-08-26T15:48:48.000Z</time>
      </trkpt>
      <trkpt lat="53.4880080355" lon="6.1807419332">
        <time>2018-08-26T15:48:53.000Z</time>
      </trkpt>
      <trkpt lat="53.4879110397" lon="6.1805738734">
        <time>2018-08-26T15:48:57.000Z</time>
      </trkpt>
      <trkpt lat="53.4878186397" lon="6.1803857756">
        <time>2018-08-26T15:49:01.000Z</time>
      </trkpt>
      <trkpt lat="53.487722808" lon="6.1801609308">
        <time>2018-08-26T15:49:05.000Z</time>
      </trkpt>
      <trkpt lat="53.4875886062" lon="6.1799704134">
        <time>2018-08-26T15:49:09.000Z</time>
      </trkpt>
      <trkpt lat="53.4874524081" lon="6.1798772446">
        <time>2018-08-26T15:49:12.000Z</time>
      </trkpt>
      <trkpt lat="53.4873160438" lon="6.1797921886">
        <time>2018-08-26T15:49:15.000Z</time>
      </trkpt>
      <trkpt lat="53.4871919703" lon="6.1797200275">
        <time>2018-08-26T15:49:18.000Z</time>
      </trkpt>
      <trkpt lat="53.4870469129" lon="6.1796507124">
        <time>2018-08-26T15:49:21.000Z</time>
      </trkpt>
      <trkpt lat="53.4869061189" lon="6.1795775836">
        <time>2018-08-26T15:49:24.000Z</time>
      </trkpt>
      <trkpt lat="53.4867610615" lon="6.1795082691">
        <time>2018-08-26T15:49:27.000Z</time>
      </trkpt>
      <trkpt lat="53.4866081428" lon="6.1794141343">
        <time>2018-08-26T15:49:30.000Z</time>
      </trkpt>
      <trkpt lat="53.4864584894" lon="6.1793648586">
        <time>2018-08-26T15:49:33.000Z</time>
      </trkpt>
      <trkpt lat="53.4863222913" lon="6.1792716929">
        <time>2018-08-26T15:49:36.000Z</time>
      </trkpt>
      <trkpt lat="53.4861814972" lon="6.1791985657">
        <time>2018-08-26T15:49:39.000Z</time>
      </trkpt>
      <trkpt lat="53.486040703" lon="6.1791254388">
        <time>2018-08-26T15:49:42.000Z</time>
      </trkpt>
      <trkpt lat="53.4858956456" lon="6.1790561261">
        <time>2018-08-26T15:49:45.000Z</time>
      </trkpt>
      <trkpt lat="53.4857376319" lon="6.1790063674">
        <time>2018-08-26T15:49:48.000Z</time>
      </trkpt>
      <trkpt lat="53.4855581354" lon="6.1789837903">
        <time>2018-08-26T15:49:51.000Z</time>
      </trkpt>
      <trkpt lat="53.4853702787" lon="6.178960729">
        <time>2018-08-26T15:49:54.000Z</time>
      </trkpt>
      <trkpt lat="53.4851740617" lon="6.1789371835">
        <time>2018-08-26T15:49:57.000Z</time>
      </trkpt>
      <trkpt lat="53.48500985" lon="6.1787814872">
        <time>2018-08-26T15:50:00.000Z</time>
      </trkpt>
      <trkpt lat="53.4849228765" lon="6.1785328071">
        <time>2018-08-26T15:50:03.000Z</time>
      </trkpt>
      <trkpt lat="53.4848568864" lon="6.1782812822">
        <time>2018-08-26T15:50:06.000Z</time>
      </trkpt>
      <trkpt lat="53.4847910621" lon="6.1780216462">
        <time>2018-08-26T15:50:09.000Z</time>
      </trkpt>
      <trkpt lat="53.4846947294" lon="6.1778211554">
        <time>2018-08-26T15:50:12.000Z</time>
      </trkpt>
      <trkpt lat="53.4845762487" lon="6.1776802936">
        <time>2018-08-26T15:50:15.000Z</time>
      </trkpt>
      <trkpt lat="53.4844154678" lon="6.1775613479">
        <time>2018-08-26T15:50:19.000Z</time>
      </trkpt>
      <trkpt lat="53.4842664791" lon="6.1774796315">
        <time>2018-08-26T15:50:23.000Z</time>
      </trkpt>
      <trkpt lat="53.4841164928" lon="6.1774465854">
        <time>2018-08-26T15:50:28.000Z</time>
      </trkpt>
      <trkpt lat="53.4839787976" lon="6.1774264327">
        <time>2018-08-26T15:50:34.000Z</time>
      </trkpt>
      <trkpt lat="53.4838247143" lon="6.1773890889">
        <time>2018-08-26T15:50:40.000Z</time>
      </trkpt>
      <trkpt lat="53.4836712961" lon="6.1773192988">
        <time>2018-08-26T15:50:46.000Z</time>
      </trkpt>
      <trkpt lat="53.4835311664" lon="6.1772137329">
        <time>2018-08-26T15:50:51.000Z</time>
      </trkpt>
      <trkpt lat="53.4834176139" lon="6.1770366155">
        <time>2018-08-26T15:50:55.000Z</time>
      </trkpt>
      <trkpt lat="53.4833004628" lon="6.1768308668">
        <time>2018-08-26T15:50:59.000Z</time>
      </trkpt>
      <trkpt lat="53.4832085586" lon="6.176618459">
        <time>2018-08-26T15:51:02.000Z</time>
      </trkpt>
      <trkpt lat="53.483142566" lon="6.1763669461">
        <time>2018-08-26T15:51:05.000Z</time>
      </trkpt>
      <trkpt lat="53.4831065818" lon="6.1760806255">
        <time>2018-08-26T15:51:08.000Z</time>
      </trkpt>
      <trkpt lat="53.4830904176" lon="6.1758482391">
        <time>2018-08-26T15:51:10.000Z</time>
      </trkpt>
      <trkpt lat="53.4830293514" lon="6.1755604682">
        <time>2018-08-26T15:51:13.000Z</time>
      </trkpt>
      <trkpt lat="53.4829476332" lon="6.1752593219">
        <time>2018-08-26T15:51:16.000Z</time>
      </trkpt>
      <trkpt lat="53.482844266" lon="6.1749934692">
        <time>2018-08-26T15:51:19.000Z</time>
      </trkpt>
      <trkpt lat="53.4827322059" lon="6.1747433569">
        <time>2018-08-26T15:51:22.000Z</time>
      </trkpt>
      <trkpt lat="53.4826280072" lon="6.1745180635">
        <time>2018-08-26T15:51:25.000Z</time>
      </trkpt>
      <trkpt lat="53.4825575816" lon="6.1742784821">
        <time>2018-08-26T15:51:28.000Z</time>
      </trkpt>
      <trkpt lat="53.4824868235" lon="6.1740551242">
        <time>2018-08-26T15:51:31.000Z</time>
      </trkpt>
      <trkpt lat="53.4824244253" lon="6.1738322503">
        <time>2018-08-26T15:51:34.000Z</time>
      </trkpt>
      <trkpt lat="53.4823659578" lon="6.1736217857">
        <time>2018-08-26T15:51:37.000Z</time>
      </trkpt>
      <trkpt lat="53.4822920978" lon="6.1733454644">
        <time>2018-08-26T15:51:41.000Z</time>
      </trkpt>
      <trkpt lat="53.4822262655" lon="6.1730858499">
        <time>2018-08-26T15:51:45.000Z</time>
      </trkpt>
      <trkpt lat="53.4821774853" lon="6.1728109799">
        <time>2018-08-26T15:51:49.000Z</time>
      </trkpt>
      <trkpt lat="53.4821367329" lon="6.1725528163">
        <time>2018-08-26T15:51:53.000Z</time>
      </trkpt>
      <trkpt lat="53.4820920488" lon="6.1722822446">
        <time>2018-08-26T15:51:57.000Z</time>
      </trkpt>
      <trkpt lat="53.4820552265" lon="6.1720364904">
        <time>2018-08-26T15:52:01.000Z</time>
      </trkpt>
      <trkpt lat="53.4819928251" lon="6.1718136213">
        <time>2018-08-26T15:52:05.000Z</time>
      </trkpt>
      <trkpt lat="53.4819427149" lon="6.1716036443">
        <time>2018-08-26T15:52:09.000Z</time>
      </trkpt>
      <trkpt lat="53.481947693" lon="6.1713603062">
        <time>2018-08-26T15:52:13.000Z</time>
      </trkpt>
      <trkpt lat="53.4819275897" lon="6.1711155194">
        <time>2018-08-26T15:52:17.000Z</time>
      </trkpt>
      <trkpt lat="53.4818989598" lon="6.1708783612">
        <time>2018-08-26T15:52:21.000Z</time>
      </trkpt>
      <trkpt lat="53.4818537747" lon="6.1706321264">
        <time>2018-08-26T15:52:25.000Z</time>
      </trkpt>
      <trkpt lat="53.4818208808" lon="6.1703987831">
        <time>2018-08-26T15:52:29.000Z</time>
      </trkpt>
      <trkpt lat="53.4818006099" lon="6.1701621086">
        <time>2018-08-26T15:52:33.000Z</time>
      </trkpt>
      <trkpt lat="53.4817844359" lon="6.1699297313">
        <time>2018-08-26T15:52:37.000Z</time>
      </trkpt>
      <trkpt lat="53.4817597352" lon="6.1697049828">
        <time>2018-08-26T15:52:41.000Z</time>
      </trkpt>
      <trkpt lat="53.4817268398" lon="6.1694716407">
        <time>2018-08-26T15:52:45.000Z</time>
      </trkpt>
      <trkpt lat="53.4816937781" lon="6.1692464101">
        <time>2018-08-26T15:52:49.000Z</time>
      </trkpt>
      <trkpt lat="53.4816648133" lon="6.1690254768">
        <time>2018-08-26T15:52:53.000Z</time>
      </trkpt>
      <trkpt lat="53.4816319166" lon="6.1687921356">
        <time>2018-08-26T15:52:57.000Z</time>
      </trkpt>
      <trkpt lat="53.4815904935" lon="6.1685664236">
        <time>2018-08-26T15:53:01.000Z</time>
      </trkpt>
      <trkpt lat="53.4815575961" lon="6.1683330832">
        <time>2018-08-26T15:53:05.000Z</time>
      </trkpt>
      <trkpt lat="53.4814706048" lon="6.1680844409">
        <time>2018-08-26T15:53:09.000Z</time>
      </trkpt>
      <trkpt lat="53.4813314166" lon="6.1681373153">
        <time>2018-08-26T15:53:11.000Z</time>
      </trkpt>
      <trkpt lat="53.4811581242" lon="6.168220704">
        <time>2018-08-26T15:53:14.000Z</time>
      </trkpt>
      <trkpt lat="53.4810054838" lon="6.1683174647">
        <time>2018-08-26T15:53:17.000Z</time>
      </trkpt>
      <trkpt lat="53.480853553" lon="6.1681747067">
        <time>2018-08-26T15:53:21.000Z</time>
      </trkpt>
      <trkpt lat="53.4808209868" lon="6.1679251483">
        <time>2018-08-26T15:53:24.000Z</time>
      </trkpt>
      <trkpt lat="53.4807930146" lon="6.1676555537">
        <time>2018-08-26T15:53:28.000Z</time>
      </trkpt>
      <trkpt lat="53.4807560188" lon="6.1674179215">
        <time>2018-08-26T15:53:32.000Z</time>
      </trkpt>
      <trkpt lat="53.4807229541" lon="6.1671926973">
        <time>2018-08-26T15:53:36.000Z</time>
      </trkpt>
      <trkpt lat="53.4806566135" lon="6.1669574335">
        <time>2018-08-26T15:53:41.000Z</time>
      </trkpt>
      <trkpt lat="53.4805248366" lon="6.1668523859">
        <time>2018-08-26T15:53:46.000Z</time>
      </trkpt>
      <trkpt lat="53.4804233976" lon="6.1666963049">
        <time>2018-08-26T15:53:50.000Z</time>
      </trkpt>
      <trkpt lat="53.480314592" lon="6.1664910765">
        <time>2018-08-26T15:53:54.000Z</time>
      </trkpt>
      <trkpt lat="53.4802305359" lon="6.1663035174">
        <time>2018-08-26T15:53:57.000Z</time>
      </trkpt>
      <trkpt lat="53.4801730512" lon="6.1660444066">
        <time>2018-08-26T15:53:59.000Z</time>
      </trkpt>
      <trkpt lat="53.4801399845" lon="6.1658191864">
        <time>2018-08-26T15:54:01.000Z</time>
      </trkpt>
      <trkpt lat="53.4801157746" lon="6.1655701157">
        <time>2018-08-26T15:54:03.000Z</time>
      </trkpt>
      <trkpt lat="53.4800546879" lon="6.1652823773">
        <time>2018-08-26T15:54:06.000Z</time>
      </trkpt>
      <trkpt lat="53.4800321327" lon="6.1649521981">
        <time>2018-08-26T15:54:09.000Z</time>
      </trkpt>
      <trkpt lat="53.4800074245" lon="6.1647274612">
        <time>2018-08-26T15:54:11.000Z</time>
      </trkpt>
      <trkpt lat="53.4799632222" lon="6.1644325773">
        <time>2018-08-26T15:54:14.000Z</time>
      </trkpt>
      <trkpt lat="53.4799524606" lon="6.1641396209">
        <time>2018-08-26T15:54:17.000Z</time>
      </trkpt>
      <trkpt lat="53.479907264" lon="6.1638934034">
        <time>2018-08-26T15:54:20.000Z</time>
      </trkpt>
      <trkpt lat="53.4798741937" lon="6.163668186">
        <time>2018-08-26T15:54:23.000Z</time>
      </trkpt>
      <trkpt lat="53.4798373566" lon="6.163422451">
        <time>2018-08-26T15:54:26.000Z</time>
      </trkpt>
      <trkpt lat="53.4798131422" lon="6.1631733833">
        <time>2018-08-26T15:54:29.000Z</time>
      </trkpt>
      <trkpt lat="53.4797387654" lon="6.1629214266">
        <time>2018-08-26T15:54:34.000Z</time>
      </trkpt>
      <trkpt lat="53.4796761842" lon="6.1627066919">
        <time>2018-08-26T15:54:41.000Z</time>
      </trkpt>
      <trkpt lat="53.4796898382" lon="6.1624476257">
        <time>2018-08-26T15:55:25.000Z</time>
      </trkpt>
      <trkpt lat="53.4796183997" lon="6.1622567431">
        <time>2018-08-26T16:22:35.000Z</time>
      </trkpt>
      <trkpt lat="53.4795515547" lon="6.1620458246">
        <time>2018-08-26T16:22:48.000Z</time>
      </trkpt>
      <trkpt lat="53.4796312632" lon="6.1618311639">
        <time>2018-08-26T16:22:55.000Z</time>
      </trkpt>
      <trkpt lat="53.4797584873" lon="6.1617491643">
        <time>2018-08-26T16:23:00.000Z</time>
      </trkpt>
      <trkpt lat="53.4798985" lon="6.1616557197">
        <time>2018-08-26T16:23:05.000Z</time>
      </trkpt>
      <trkpt lat="53.4800296561" lon="6.1615861258">
        <time>2018-08-26T16:23:10.000Z</time>
      </trkpt>
      <trkpt lat="53.4801775328" lon="6.161517494">
        <time>2018-08-26T16:23:16.000Z</time>
      </trkpt>
      <trkpt lat="53.480312621" lon="6.1614603061">
        <time>2018-08-26T16:23:22.000Z</time>
      </trkpt>
      <trkpt lat="53.4804526332" lon="6.1613668587">
        <time>2018-08-26T16:23:29.000Z</time>
      </trkpt>
      <trkpt lat="53.4805883826" lon="6.1612772256">
        <time>2018-08-26T16:23:35.000Z</time>
      </trkpt>
      <trkpt lat="53.4807249584" lon="6.1611470363">
        <time>2018-08-26T16:23:41.000Z</time>
      </trkpt>
      <trkpt lat="53.4808572712" lon="6.1610206611">
        <time>2018-08-26T16:23:47.000Z</time>
      </trkpt>
      <trkpt lat="53.4809854864" lon="6.1608899889">
        <time>2018-08-26T16:23:53.000Z</time>
      </trkpt>
      <trkpt lat="53.4811127096" lon="6.1608079826">
        <time>2018-08-26T16:23:56.000Z</time>
      </trkpt>
      <trkpt lat="53.4812617426" lon="6.1606825669">
        <time>2018-08-26T16:24:00.000Z</time>
      </trkpt>
      <trkpt lat="53.4814107755" lon="6.1605571502">
        <time>2018-08-26T16:24:04.000Z</time>
      </trkpt>
      <trkpt lat="53.4815340661" lon="6.1604627344">
        <time>2018-08-26T16:24:07.000Z</time>
      </trkpt>
      <trkpt lat="53.481666378" lon="6.1603363539">
        <time>2018-08-26T16:24:10.000Z</time>
      </trkpt>
      <trkpt lat="53.481802622" lon="6.1602223799">
        <time>2018-08-26T16:24:13.000Z</time>
      </trkpt>
      <trkpt lat="53.4819432939" lon="6.1600964786">
        <time>2018-08-26T16:24:16.000Z</time>
      </trkpt>
      <trkpt lat="53.482079868" lon="6.1599662801">
        <time>2018-08-26T16:24:19.000Z</time>
      </trkpt>
      <trkpt lat="53.4822331626" lon="6.1598370424">
        <time>2018-08-26T16:24:22.000Z</time>
      </trkpt>
      <trkpt lat="53.4823618716" lon="6.1596820269">
        <time>2018-08-26T16:24:25.000Z</time>
      </trkpt>
      <trkpt lat="53.4825227003" lon="6.1595938249">
        <time>2018-08-26T16:24:28.000Z</time>
      </trkpt>
      <trkpt lat="53.4826638667" lon="6.1594435843">
        <time>2018-08-26T16:24:31.000Z</time>
      </trkpt>
      <trkpt lat="53.482801596" lon="6.1592566005">
        <time>2018-08-26T16:24:34.000Z</time>
      </trkpt>
      <trkpt lat="53.4829673476" lon="6.159132134">
        <time>2018-08-26T16:24:38.000Z</time>
      </trkpt>
      <trkpt lat="53.48309556" lon="6.1590014478">
        <time>2018-08-26T16:24:41.000Z</time>
      </trkpt>
      <trkpt lat="53.4832603205" lon="6.1589256485">
        <time>2018-08-26T16:24:44.000Z</time>
      </trkpt>
      <trkpt lat="53.4834175462" lon="6.1588088098">
        <time>2018-08-26T16:24:47.000Z</time>
      </trkpt>
      <trkpt lat="53.4835452628" lon="6.1587024557">
        <time>2018-08-26T16:24:50.000Z</time>
      </trkpt>
      <trkpt lat="53.4836828254" lon="6.1585235764">
        <time>2018-08-26T16:24:54.000Z</time>
      </trkpt>
      <trkpt lat="53.4838190671" lon="6.1584095893">
        <time>2018-08-26T16:24:57.000Z</time>
      </trkpt>
      <trkpt lat="53.4839395784" lon="6.1582459703">
        <time>2018-08-26T16:25:00.000Z</time>
      </trkpt>
      <trkpt lat="53.4840186177" lon="6.1580637248">
        <time>2018-08-26T16:25:04.000Z</time>
      </trkpt>
      <trkpt lat="53.484149936" lon="6.1579859977">
        <time>2018-08-26T16:25:07.000Z</time>
      </trkpt>
      <trkpt lat="53.4842576585" lon="6.157833823">
        <time>2018-08-26T16:25:10.000Z</time>
      </trkpt>
    </trkseg>
  </trk>
</gpx>
