<?xml version="1.0" encoding="UTF-8" standalone="no" ?>
<gpx xmlns="http://www.topografix.com/GPX/1/1" creator="gps4cam - http://gps4cam.com" version="1.1" xmlns:xsi="http://www.w3.org/2001/XMLSchema-instance" xsi:schemaLocation="http://www.topografix.com/GPX/1/1 http://www.topografix.com/GPX/1/1/gpx.xsd">
  <metadata>
    <link href="http://gps4cam.com">
      <text>gps4cam</text>
    </link>
    <time>2025-05-23T14:56:17Z</time>
  </metadata>
  <trk>
    <name>gps4cam trip started at: 2020-08-07T07:59:28Z</name>
    <trkseg>
      <trkpt lat="49.7074358704" lon="0.2021723410">
        <time>2020-08-07T07:59:28Z</time>
      </trkpt>
      <trkpt lat="49.7043580588" lon="0.1921215081">
        <time>2020-08-07T08:15:48Z</time>
      </trkpt>
      <trkpt lat="49.7042310174" lon="0.1920215730">
        <time>2020-08-07T08:21:30Z</time>
      </trkpt>
      <trkpt lat="49.7040382293" lon="0.1917260903">
        <time>2020-08-07T08:21:56Z</time>
      </trkpt>
      <trkpt lat="49.7038661909" lon="0.1911459976">
        <time>2020-08-07T08:22:52Z</time>
      </trkpt>
      <trkpt lat="49.7038170548" lon="0.1909423742">
        <time>2020-08-07T08:23:03Z</time>
      </trkpt>
      <trkpt lat="49.7038661158" lon="0.1903205844">
        <time>2020-08-07T08:23:39Z</time>
      </trkpt>
      <trkpt lat="49.7038795288" lon="0.1901034687">
        <time>2020-08-07T08:23:50Z</time>
      </trkpt>
      <trkpt lat="49.7038055308" lon="0.1899156955">
        <time>2020-08-07T08:24:06Z</time>
      </trkpt>
      <trkpt lat="49.7036001366" lon="0.1896169491">
        <time>2020-08-07T08:24:48Z</time>
      </trkpt>
      <trkpt lat="49.7035018385" lon="0.1897550019">
        <time>2020-08-07T08:25:25Z</time>
      </trkpt>
      <trkpt lat="49.7033597835" lon="0.1897676692">
        <time>2020-08-07T08:25:38Z</time>
      </trkpt>
      <trkpt lat="49.7032210530" lon="0.1897241917">
        <time>2020-08-07T08:25:49Z</time>
      </trkpt>
      <trkpt lat="49.7030783125" lon="0.1896920655">
        <time>2020-08-07T08:26:01Z</time>
      </trkpt>
      <trkpt lat="49.7028286936" lon="0.1895107213">
        <time>2020-08-07T08:26:24Z</time>
      </trkpt>
      <trkpt lat="49.7025908762" lon="0.1892803940">
        <time>2020-08-07T08:26:46Z</time>
      </trkpt>
      <trkpt lat="49.7024758632" lon="0.1891464143">
        <time>2020-08-07T08:26:57Z</time>
      </trkpt>
      <trkpt lat="49.7018594479" lon="0.1882352789">
        <time>2020-08-07T08:28:01Z</time>
      </trkpt>
      <trkpt lat="49.7017407671" lon="0.1881350500">
        <time>2020-08-07T08:28:11Z</time>
      </trkpt>
      <trkpt lat="49.7016381261" lon="0.1879894173">
        <time>2020-08-07T08:28:22Z</time>
      </trkpt>
      <trkpt lat="49.7014583897" lon="0.1877270961">
        <time>2020-08-07T08:29:10Z</time>
      </trkpt>
      <trkpt lat="49.7013276787" lon="0.1876609217">
        <time>2020-08-07T08:29:55Z</time>
      </trkpt>
      <trkpt lat="49.7011029178" lon="0.1874637414">
        <time>2020-08-07T08:30:47Z</time>
      </trkpt>
      <trkpt lat="49.7009723290" lon="0.1871324000">
        <time>2020-08-07T08:31:23Z</time>
      </trkpt>
      <trkpt lat="49.7006448110" lon="0.1867821298">
        <time>2020-08-07T08:32:24Z</time>
      </trkpt>
      <trkpt lat="49.7005144428" lon="0.1867383534">
        <time>2020-08-07T08:32:44Z</time>
      </trkpt>
      <trkpt lat="49.7003996567" lon="0.1866193135">
        <time>2020-08-07T08:33:02Z</time>
      </trkpt>
      <trkpt lat="49.7003463913" lon="0.1864195933">
        <time>2020-08-07T08:33:45Z</time>
      </trkpt>
      <trkpt lat="49.7004189122" lon="0.1862376738">
        <time>2020-08-07T08:33:55Z</time>
      </trkpt>
      <trkpt lat="49.7003376853" lon="0.1863975043">
        <time>2020-08-07T08:34:37Z</time>
      </trkpt>
      <trkpt lat="49.7002090327" lon="0.1864657051">
        <time>2020-08-07T08:34:53Z</time>
      </trkpt>
      <trkpt lat="49.6998519577" lon="0.1860978522">
        <time>2020-08-07T08:35:27Z</time>
      </trkpt>
      <trkpt lat="49.6997495440" lon="0.1859671577">
        <time>2020-08-07T08:35:37Z</time>
      </trkpt>
      <trkpt lat="49.6992860440" lon="0.1854799687">
        <time>2020-08-07T08:36:18Z</time>
      </trkpt>
      <trkpt lat="49.6991475415" lon="0.1854514316">
        <time>2020-08-07T08:36:28Z</time>
      </trkpt>
      <trkpt lat="49.6990532615" lon="0.1853055035">
        <time>2020-08-07T08:36:40Z</time>
      </trkpt>
      <trkpt lat="49.6988239249" lon="0.1845371230">
        <time>2020-08-07T08:37:42Z</time>
      </trkpt>
      <trkpt lat="49.6987997556" lon="0.1843251406">
        <time>2020-08-07T08:37:57Z</time>
      </trkpt>
      <trkpt lat="49.6987105195" lon="0.1836898080">
        <time>2020-08-07T08:38:38Z</time>
      </trkpt>
      <trkpt lat="49.6986987213" lon="0.1834661692">
        <time>2020-08-07T08:39:11Z</time>
      </trkpt>
      <trkpt lat="49.6986207068" lon="0.1832897731">
        <time>2020-08-07T08:39:22Z</time>
      </trkpt>
      <trkpt lat="49.6986561070" lon="0.1828702087">
        <time>2020-08-07T08:39:42Z</time>
      </trkpt>
      <trkpt lat="49.6985988270" lon="0.1826818495">
        <time>2020-08-07T08:40:13Z</time>
      </trkpt>
      <trkpt lat="49.6984603239" lon="0.1826533197">
        <time>2020-08-07T08:40:53Z</time>
      </trkpt>
      <trkpt lat="49.6983135724" lon="0.1826325616">
        <time>2020-08-07T08:41:05Z</time>
      </trkpt>
      <trkpt lat="49.6979642781" lon="0.1822271140">
        <time>2020-08-07T08:41:43Z</time>
      </trkpt>
      <trkpt lat="49.6975837097" lon="0.1825099552">
        <time>2020-08-07T08:42:39Z</time>
      </trkpt>
      <trkpt lat="49.6973034958" lon="0.1825164984">
        <time>2020-08-07T08:42:59Z</time>
      </trkpt>
      <trkpt lat="49.6971967261" lon="0.1823747722">
        <time>2020-08-07T08:43:11Z</time>
      </trkpt>
      <trkpt lat="49.6968942877" lon="0.1820236293">
        <time>2020-08-07T08:43:52Z</time>
      </trkpt>
      <trkpt lat="49.6967754889" lon="0.1819159557">
        <time>2020-08-07T08:44:23Z</time>
      </trkpt>
      <trkpt lat="49.6966380168" lon="0.1819546077">
        <time>2020-08-07T08:44:33Z</time>
      </trkpt>
      <trkpt lat="49.6964965351" lon="0.1820046095">
        <time>2020-08-07T08:44:44Z</time>
      </trkpt>
      <trkpt lat="49.6963540224" lon="0.1819874305">
        <time>2020-08-07T08:44:56Z</time>
      </trkpt>
      <trkpt lat="49.6959158299" lon="0.1820595164">
        <time>2020-08-07T08:45:33Z</time>
      </trkpt>
      <trkpt lat="49.6957689640" lon="0.1820312934">
        <time>2020-08-07T08:45:43Z</time>
      </trkpt>
      <trkpt lat="49.6956341270" lon="0.1819690208">
        <time>2020-08-07T08:45:52Z</time>
      </trkpt>
      <trkpt lat="49.6954919580" lon="0.1819742341">
        <time>2020-08-07T08:46:01Z</time>
      </trkpt>
      <trkpt lat="49.6949403510" lon="0.1820168661">
        <time>2020-08-07T08:47:00Z</time>
      </trkpt>
      <trkpt lat="49.6946662077" lon="0.1821464117">
        <time>2020-08-07T08:47:25Z</time>
      </trkpt>
      <trkpt lat="49.6945594390" lon="0.1820046917">
        <time>2020-08-07T08:47:52Z</time>
      </trkpt>
      <trkpt lat="49.6946420392" lon="0.1816618504">
        <time>2020-08-07T08:48:17Z</time>
      </trkpt>
      <trkpt lat="49.6948858239" lon="0.1814624658">
        <time>2020-08-07T08:48:44Z</time>
      </trkpt>
      <trkpt lat="49.6951299517" lon="0.1812854715">
        <time>2020-08-07T08:49:09Z</time>
      </trkpt>
      <trkpt lat="49.6952540203" lon="0.1811912986">
        <time>2020-08-07T08:49:21Z</time>
      </trkpt>
      <trkpt lat="49.6955192266" lon="0.1810247304">
        <time>2020-08-07T08:49:47Z</time>
      </trkpt>
      <trkpt lat="49.6955415651" lon="0.1808446654">
        <time>2020-08-07T08:50:29Z</time>
      </trkpt>
      <trkpt lat="49.6954635487" lon="0.1806682827">
        <time>2020-08-07T08:50:43Z</time>
      </trkpt>
      <trkpt lat="49.6955656207" lon="0.1805039630">
        <time>2020-08-07T08:50:55Z</time>
      </trkpt>
      <trkpt lat="49.6958332329" lon="0.1804941419">
        <time>2020-08-07T08:51:27Z</time>
      </trkpt>
      <trkpt lat="49.6961126444" lon="0.1804353408">
        <time>2020-08-07T08:52:06Z</time>
      </trkpt>
      <trkpt lat="49.6962236518" lon="0.1803080331">
        <time>2020-08-07T08:52:27Z</time>
      </trkpt>
      <trkpt lat="49.6965043242" lon="0.1803313391">
        <time>2020-08-07T08:53:06Z</time>
      </trkpt>
      <trkpt lat="49.6966351527" lon="0.1804049579">
        <time>2020-08-07T08:53:19Z</time>
      </trkpt>
      <trkpt lat="49.6970340520" lon="0.1804986114">
        <time>2020-08-07T08:54:03Z</time>
      </trkpt>
      <trkpt lat="49.6971486134" lon="0.1806027033">
        <time>2020-08-07T08:54:14Z</time>
      </trkpt>
      <trkpt lat="49.6971100091" lon="0.1808132471">
        <time>2020-08-07T08:55:40Z</time>
      </trkpt>
      <trkpt lat="49.6969991163" lon="0.1809480214">
        <time>2020-08-07T08:57:40Z</time>
      </trkpt>
      <trkpt lat="49.6970378356" lon="0.1807449429">
        <time>2020-08-07T08:58:44Z</time>
      </trkpt>
      <trkpt lat="49.6969599328" lon="0.1805760205">
        <time>2020-08-07T09:29:12Z</time>
      </trkpt>
      <trkpt lat="49.6968491515" lon="0.1804456495">
        <time>2020-08-07T09:32:54Z</time>
      </trkpt>
      <trkpt lat="49.6969107872" lon="0.1806450437">
        <time>2020-08-07T09:47:33Z</time>
      </trkpt>
      <trkpt lat="49.6968700013" lon="0.1804411497">
        <time>2020-08-07T09:50:37Z</time>
      </trkpt>
      <trkpt lat="49.6969106725" lon="0.1806375792">
        <time>2020-08-07T09:51:46Z</time>
      </trkpt>
      <trkpt lat="49.6968945167" lon="0.1804029059">
        <time>2020-08-07T09:52:31Z</time>
      </trkpt>
      <trkpt lat="49.6969605059" lon="0.1806133435">
        <time>2020-08-07T09:54:08Z</time>
      </trkpt>
      <trkpt lat="49.6969196052" lon="0.1804019848">
        <time>2020-08-07T09:56:04Z</time>
      </trkpt>
      <trkpt lat="49.6968040154" lon="0.1805033224">
        <time>2020-08-07T09:57:04Z</time>
      </trkpt>
      <trkpt lat="49.6969426336" lon="0.1805393119">
        <time>2020-08-07T09:59:11Z</time>
      </trkpt>
      <trkpt lat="49.6968562530" lon="0.1803632326">
        <time>2020-08-07T10:04:57Z</time>
      </trkpt>
      <trkpt lat="49.6969220129" lon="0.1805587409">
        <time>2020-08-07T10:08:24Z</time>
      </trkpt>
      <trkpt lat="49.6968110057" lon="0.1806860506">
        <time>2020-08-07T10:10:19Z</time>
      </trkpt>
      <trkpt lat="49.6961549175" lon="0.1804636674">
        <time>2020-08-07T10:11:29Z</time>
      </trkpt>
      <trkpt lat="49.6960164141" lon="0.1804351423">
        <time>2020-08-07T10:11:45Z</time>
      </trkpt>
      <trkpt lat="49.6957508652" lon="0.1805793238">
        <time>2020-08-07T10:12:24Z</time>
      </trkpt>
      <trkpt lat="49.6954256274" lon="0.1803784061">
        <time>2020-08-07T10:13:14Z</time>
      </trkpt>
      <trkpt lat="49.6953269898" lon="0.1802214527">
        <time>2020-08-07T10:13:49Z</time>
      </trkpt>
      <trkpt lat="49.6953883955" lon="0.1804059125">
        <time>2020-08-07T10:15:12Z</time>
      </trkpt>
      <trkpt lat="49.6953823201" lon="0.1800103029">
        <time>2020-08-07T10:16:16Z</time>
      </trkpt>
      <trkpt lat="49.6952753191" lon="0.1798536573">
        <time>2020-08-07T10:16:31Z</time>
      </trkpt>
      <trkpt lat="49.6950417282" lon="0.1796269748">
        <time>2020-08-07T10:17:04Z</time>
      </trkpt>
      <trkpt lat="49.6950175530" lon="0.1794150105">
        <time>2020-08-07T10:17:15Z</time>
      </trkpt>
      <trkpt lat="49.6949269332" lon="0.1792353601">
        <time>2020-08-07T10:17:30Z</time>
      </trkpt>
      <trkpt lat="49.6946606927" lon="0.1790621594">
        <time>2020-08-07T10:17:56Z</time>
      </trkpt>
      <trkpt lat="49.6940527159" lon="0.1787035983">
        <time>2020-08-07T10:19:03Z</time>
      </trkpt>
      <trkpt lat="49.6939105469" lon="0.1787088188">
        <time>2020-08-07T10:19:19Z</time>
      </trkpt>
      <trkpt lat="49.6937718139" lon="0.1786653690">
        <time>2020-08-07T10:19:32Z</time>
      </trkpt>
      <trkpt lat="49.6933797860" lon="0.1784743873">
        <time>2020-08-07T10:20:07Z</time>
      </trkpt>
      <trkpt lat="49.6928288634" lon="0.1782892423">
        <time>2020-08-07T10:20:57Z</time>
      </trkpt>
      <trkpt lat="49.6925625081" lon="0.1781085854">
        <time>2020-08-07T10:21:22Z</time>
      </trkpt>
      <trkpt lat="49.6923367054" lon="0.1778442918">
        <time>2020-08-07T10:21:45Z</time>
      </trkpt>
      <trkpt lat="49.6922051826" lon="0.1774533147">
        <time>2020-08-07T10:22:13Z</time>
      </trkpt>
      <trkpt lat="49.6919755990" lon="0.1772153022">
        <time>2020-08-07T10:22:39Z</time>
      </trkpt>
      <trkpt lat="49.6920057232" lon="0.1769976230">
        <time>2020-08-07T10:23:22Z</time>
      </trkpt>
      <trkpt lat="49.6921211971" lon="0.1768888284">
        <time>2020-08-07T10:23:35Z</time>
      </trkpt>
      <trkpt lat="49.6925869859" lon="0.1764348310">
        <time>2020-08-07T10:24:23Z</time>
      </trkpt>
      <trkpt lat="49.6928304190" lon="0.1762130419">
        <time>2020-08-07T10:24:53Z</time>
      </trkpt>
      <trkpt lat="49.6927706250" lon="0.1764056775">
        <time>2020-08-07T10:25:08Z</time>
      </trkpt>
      <trkpt lat="49.6926969575" lon="0.1762403521">
        <time>2020-08-07T10:25:25Z</time>
      </trkpt>
      <trkpt lat="49.6924095100" lon="0.1757766941">
        <time>2020-08-07T10:26:05Z</time>
      </trkpt>
      <trkpt lat="49.6923028497" lon="0.1756424560">
        <time>2020-08-07T10:26:17Z</time>
      </trkpt>
      <trkpt lat="49.6920041542" lon="0.1747199339">
        <time>2020-08-07T10:27:16Z</time>
      </trkpt>
      <trkpt lat="49.6919217773" lon="0.1745325294">
        <time>2020-08-07T10:27:28Z</time>
      </trkpt>
      <trkpt lat="49.6918726218" lon="0.1743289673">
        <time>2020-08-07T10:27:40Z</time>
      </trkpt>
      <trkpt lat="49.6917166892" lon="0.1739837083">
        <time>2020-08-07T10:28:06Z</time>
      </trkpt>
      <trkpt lat="49.6915978851" lon="0.1738760599">
        <time>2020-08-07T10:28:18Z</time>
      </trkpt>
      <trkpt lat="49.6913640560" lon="0.1736344876">
        <time>2020-08-07T10:28:44Z</time>
      </trkpt>
      <trkpt lat="49.6909790052" lon="0.1733536750">
        <time>2020-08-07T10:29:20Z</time>
      </trkpt>
      <trkpt lat="49.6907983272" lon="0.1730317384">
        <time>2020-08-07T10:29:42Z</time>
      </trkpt>
      <trkpt lat="49.6907203023" lon="0.1728553820">
        <time>2020-08-07T10:29:54Z</time>
      </trkpt>
      <trkpt lat="49.6905889955" lon="0.1724793563">
        <time>2020-08-07T10:30:17Z</time>
      </trkpt>
      <trkpt lat="49.6905446352" lon="0.1720441224">
        <time>2020-08-07T10:30:42Z</time>
      </trkpt>
      <trkpt lat="49.6905164412" lon="0.1718435298">
        <time>2020-08-07T10:30:55Z</time>
      </trkpt>
      <trkpt lat="49.6904880168" lon="0.1716280102">
        <time>2020-08-07T10:31:07Z</time>
      </trkpt>
      <trkpt lat="49.6904388574" lon="0.1714244563">
        <time>2020-08-07T10:31:19Z</time>
      </trkpt>
      <trkpt lat="49.6903980606" lon="0.1712205948">
        <time>2020-08-07T10:31:31Z</time>
      </trkpt>
      <trkpt lat="49.6902552590" lon="0.1703707955">
        <time>2020-08-07T10:32:16Z</time>
      </trkpt>
      <trkpt lat="49.6901126096" lon="0.1700736085">
        <time>2020-08-07T10:32:41Z</time>
      </trkpt>
      <trkpt lat="49.6900387047" lon="0.1698933728">
        <time>2020-08-07T10:32:53Z</time>
      </trkpt>
      <trkpt lat="49.6899686931" lon="0.1696943247">
        <time>2020-08-07T10:33:04Z</time>
      </trkpt>
      <trkpt lat="49.6898160672" lon="0.1692929610">
        <time>2020-08-07T10:34:02Z</time>
      </trkpt>
      <trkpt lat="49.6896768708" lon="0.1692196823">
        <time>2020-08-07T10:35:54Z</time>
      </trkpt>
      <trkpt lat="49.6896113277" lon="0.1690391408">
        <time>2020-08-07T10:36:18Z</time>
      </trkpt>
      <trkpt lat="49.6895334129" lon="0.1688702575">
        <time>2020-08-07T10:36:43Z</time>
      </trkpt>
      <trkpt lat="49.6894025791" lon="0.1687966717">
        <time>2020-08-07T10:37:04Z</time>
      </trkpt>
      <trkpt lat="49.6890365486" lon="0.1686645510">
        <time>2020-08-07T10:37:54Z</time>
      </trkpt>
      <trkpt lat="49.6888863627" lon="0.1686924916">
        <time>2020-08-07T10:38:10Z</time>
      </trkpt>
      <trkpt lat="49.6884767902" lon="0.1684499645">
        <time>2020-08-07T10:38:55Z</time>
      </trkpt>
      <trkpt lat="49.6879912607" lon="0.1681654366">
        <time>2020-08-07T10:39:46Z</time>
      </trkpt>
      <trkpt lat="49.6884490060" lon="0.1677341115">
        <time>2020-08-07T10:40:35Z</time>
      </trkpt>
      <trkpt lat="49.6884666291" lon="0.1675206377">
        <time>2020-08-07T10:41:05Z</time>
      </trkpt>
      <trkpt lat="49.6883887128" lon="0.1673517600">
        <time>2020-08-07T10:41:31Z</time>
      </trkpt>
      <trkpt lat="49.6883521497" lon="0.1671514869">
        <time>2020-08-07T10:42:02Z</time>
      </trkpt>
      <trkpt lat="49.6882213152" lon="0.1670779060">
        <time>2020-08-07T10:42:23Z</time>
      </trkpt>
      <trkpt lat="49.6880789161" lon="0.1670682254">
        <time>2020-08-07T10:42:47Z</time>
      </trkpt>
      <trkpt lat="49.6878773106" lon="0.1672884851">
        <time>2020-08-07T10:43:29Z</time>
      </trkpt>
      <trkpt lat="49.6878240220" lon="0.1670888312">
        <time>2020-08-07T10:43:48Z</time>
      </trkpt>
      <trkpt lat="49.6874704770" lon="0.1669525279">
        <time>2020-08-07T10:44:55Z</time>
      </trkpt>
      <trkpt lat="49.6873840824" lon="0.1667764993">
        <time>2020-08-07T10:49:08Z</time>
      </trkpt>
      <trkpt lat="49.6871510847" lon="0.1657770106">
        <time>2020-08-07T10:50:16Z</time>
      </trkpt>
      <trkpt lat="49.6871018025" lon="0.1655660120">
        <time>2020-08-07T10:50:33Z</time>
      </trkpt>
      <trkpt lat="49.6870113977" lon="0.1654013357">
        <time>2020-08-07T10:50:43Z</time>
      </trkpt>
      <trkpt lat="49.6866910432" lon="0.1649763302">
        <time>2020-08-07T10:51:19Z</time>
      </trkpt>
      <trkpt lat="49.6865843735" lon="0.1648421256">
        <time>2020-08-07T10:51:32Z</time>
      </trkpt>
      <trkpt lat="49.6861598000" lon="0.1647121944">
        <time>2020-08-07T10:52:07Z</time>
      </trkpt>
      <trkpt lat="49.6860373275" lon="0.1646383119">
        <time>2020-08-07T10:52:18Z</time>
      </trkpt>
      <trkpt lat="49.6856287876" lon="0.1644629875">
        <time>2020-08-07T10:52:58Z</time>
      </trkpt>
      <trkpt lat="49.6853564758" lon="0.1644394412">
        <time>2020-08-07T10:53:24Z</time>
      </trkpt>
      <trkpt lat="49.6850748783" lon="0.1643565015">
        <time>2020-08-07T10:53:48Z</time>
      </trkpt>
      <trkpt lat="49.6847978661" lon="0.1642995271">
        <time>2020-08-07T10:54:11Z</time>
      </trkpt>
      <trkpt lat="49.6843801848" lon="0.1643448159">
        <time>2020-08-07T10:54:48Z</time>
      </trkpt>
      <trkpt lat="49.6842337772" lon="0.1643464873">
        <time>2020-08-07T10:55:00Z</time>
      </trkpt>
      <trkpt lat="49.6839774115" lon="0.1645426214">
        <time>2020-08-07T10:55:35Z</time>
      </trkpt>
      <trkpt lat="49.6837726320" lon="0.1650989879">
        <time>2020-08-07T10:56:09Z</time>
      </trkpt>
      <trkpt lat="49.6837590181" lon="0.1653010931">
        <time>2020-08-07T10:56:23Z</time>
      </trkpt>
      <trkpt lat="49.6836809863" lon="0.1651247695">
        <time>2020-08-07T10:57:13Z</time>
      </trkpt>
      <trkpt lat="49.6836968152" lon="0.1653369884">
        <time>2020-08-07T10:57:45Z</time>
      </trkpt>
      <trkpt lat="49.6836395178" lon="0.1651486998">
        <time>2020-08-07T10:58:29Z</time>
      </trkpt>
      <trkpt lat="49.6837135409" lon="0.1653363714">
        <time>2020-08-07T11:21:33Z</time>
      </trkpt>
      <trkpt lat="49.6835784675" lon="0.1652592201">
        <time>2020-08-07T11:22:11Z</time>
      </trkpt>
      <trkpt lat="49.6837177799" lon="0.1653399486">
        <time>2020-08-07T11:26:14Z</time>
      </trkpt>
      <trkpt lat="49.6835950779" lon="0.1652511407">
        <time>2020-08-07T11:27:24Z</time>
      </trkpt>
      <trkpt lat="49.6836441275" lon="0.1654472003">
        <time>2020-08-07T11:30:56Z</time>
      </trkpt>
      <trkpt lat="49.6836575112" lon="0.1652301706">
        <time>2020-08-07T11:31:52Z</time>
      </trkpt>
      <trkpt lat="49.6836356494" lon="0.1654400463">
        <time>2020-08-07T11:32:09Z</time>
      </trkpt>
      <trkpt lat="49.6835536093" lon="0.1652750708">
        <time>2020-08-07T11:32:54Z</time>
      </trkpt>
      <trkpt lat="49.6836396579" lon="0.1654286984">
        <time>2020-08-07T11:36:04Z</time>
      </trkpt>
      <trkpt lat="49.6835492550" lon="0.1652640314">
        <time>2020-08-07T11:37:29Z</time>
      </trkpt>
      <trkpt lat="49.6836314102" lon="0.1654364694">
        <time>2020-08-07T11:38:39Z</time>
      </trkpt>
      <trkpt lat="49.6835329902" lon="0.1652944985">
        <time>2020-08-07T11:54:01Z</time>
      </trkpt>
      <trkpt lat="49.6836635940" lon="0.1653531480">
        <time>2020-08-07T11:58:28Z</time>
      </trkpt>
      <trkpt lat="49.6835294426" lon="0.1653356966">
        <time>2020-08-07T12:02:05Z</time>
      </trkpt>
      <trkpt lat="49.6834474024" lon="0.1651707216">
        <time>2020-08-07T12:05:45Z</time>
      </trkpt>
      <trkpt lat="49.6831708519" lon="0.1651435904">
        <time>2020-08-07T12:06:19Z</time>
      </trkpt>
      <trkpt lat="49.6828121459" lon="0.1649440238">
        <time>2020-08-07T12:07:01Z</time>
      </trkpt>
      <trkpt lat="49.6824154035" lon="0.1647197293">
        <time>2020-08-07T12:07:46Z</time>
      </trkpt>
      <trkpt lat="49.6822730045" lon="0.1647100495">
        <time>2020-08-07T12:07:59Z</time>
      </trkpt>
      <trkpt lat="49.6817184052" lon="0.1645587796">
        <time>2020-08-07T12:08:52Z</time>
      </trkpt>
      <trkpt lat="49.6814491803" lon="0.1644641807">
        <time>2020-08-07T12:09:24Z</time>
      </trkpt>
      <trkpt lat="49.6811719384" lon="0.1643922771">
        <time>2020-08-07T12:09:49Z</time>
      </trkpt>
      <trkpt lat="49.6807450869" lon="0.1643856228">
        <time>2020-08-07T12:10:26Z</time>
      </trkpt>
      <trkpt lat="49.6805097987" lon="0.1645921570">
        <time>2020-08-07T12:11:00Z</time>
      </trkpt>
      <trkpt lat="49.6803902077" lon="0.1647048277">
        <time>2020-08-07T12:11:12Z</time>
      </trkpt>
      <trkpt lat="49.6802749707" lon="0.1648285366">
        <time>2020-08-07T12:11:26Z</time>
      </trkpt>
      <trkpt lat="49.6801639726" lon="0.1649558216">
        <time>2020-08-07T12:11:41Z</time>
      </trkpt>
      <trkpt lat="49.6801797991" lon="0.1651680255">
        <time>2020-08-07T12:12:02Z</time>
      </trkpt>
      <trkpt lat="49.6801981791" lon="0.1658169096">
        <time>2020-08-07T12:12:39Z</time>
      </trkpt>
      <trkpt lat="49.6802175722" lon="0.1662604356">
        <time>2020-08-07T12:13:12Z</time>
      </trkpt>
      <trkpt lat="49.6802335116" lon="0.1664801021">
        <time>2020-08-07T12:13:23Z</time>
      </trkpt>
      <trkpt lat="49.6802200079" lon="0.1666896539">
        <time>2020-08-07T12:13:35Z</time>
      </trkpt>
      <trkpt lat="49.6802023800" lon="0.1669030905">
        <time>2020-08-07T12:13:48Z</time>
      </trkpt>
      <trkpt lat="49.6802256629" lon="0.1673278080">
        <time>2020-08-07T12:14:11Z</time>
      </trkpt>
      <trkpt lat="49.6802574223" lon="0.1677596800">
        <time>2020-08-07T12:14:35Z</time>
      </trkpt>
      <trkpt lat="49.6801419826" lon="0.1684134897">
        <time>2020-08-07T12:15:12Z</time>
      </trkpt>
      <trkpt lat="49.6801077407" lon="0.1686350027">
        <time>2020-08-07T12:15:24Z</time>
      </trkpt>
      <trkpt lat="49.6800942332" lon="0.1688445533">
        <time>2020-08-07T12:15:37Z</time>
      </trkpt>
      <trkpt lat="49.6799704120" lon="0.1692261505">
        <time>2020-08-07T12:16:44Z</time>
      </trkpt>
      <trkpt lat="49.6796374246" lon="0.1701529981">
        <time>2020-08-07T12:18:34Z</time>
      </trkpt>
      <trkpt lat="49.6795606758" lon="0.1703312728">
        <time>2020-08-07T12:18:46Z</time>
      </trkpt>
      <trkpt lat="49.6793859831" lon="0.1706699342">
        <time>2020-08-07T12:19:07Z</time>
      </trkpt>
      <trkpt lat="49.6791555036" lon="0.1711898275">
        <time>2020-08-07T12:19:44Z</time>
      </trkpt>
      <trkpt lat="49.6792299796" lon="0.1716798519">
        <time>2020-08-07T12:20:44Z</time>
      </trkpt>
      <trkpt lat="49.6793981608" lon="0.1720059168">
        <time>2020-08-07T12:21:19Z</time>
      </trkpt>
      <trkpt lat="49.6795049336" lon="0.1721475853">
        <time>2020-08-07T12:22:36Z</time>
      </trkpt>
      <trkpt lat="49.6797061066" lon="0.1724425775">
        <time>2020-08-07T12:23:05Z</time>
      </trkpt>
      <trkpt lat="49.6798170032" lon="0.1725803632">
        <time>2020-08-07T12:23:17Z</time>
      </trkpt>
      <trkpt lat="49.6800385666" lon="0.1728410121">
        <time>2020-08-07T12:23:39Z</time>
      </trkpt>
      <trkpt lat="49.6802561202" lon="0.1731130095">
        <time>2020-08-07T12:24:05Z</time>
      </trkpt>
      <trkpt lat="49.6804978448" lon="0.1733243918">
        <time>2020-08-07T12:24:26Z</time>
      </trkpt>
      <trkpt lat="49.6807031401" lon="0.1736155086">
        <time>2020-08-07T12:24:50Z</time>
      </trkpt>
      <trkpt lat="49.6808056729" lon="0.1737536055">
        <time>2020-08-07T12:25:02Z</time>
      </trkpt>
      <trkpt lat="49.6809040815" lon="0.1738955875">
        <time>2020-08-07T12:25:13Z</time>
      </trkpt>
      <trkpt lat="49.6810275786" lon="0.1740366494">
        <time>2020-08-07T12:25:26Z</time>
      </trkpt>
      <trkpt lat="49.6811264455" lon="0.1742084809">
        <time>2020-08-07T12:25:34Z</time>
      </trkpt>
      <trkpt lat="49.6812373407" lon="0.1743462732">
        <time>2020-08-07T12:26:23Z</time>
      </trkpt>
      <trkpt lat="49.6813561403" lon="0.1744539104">
        <time>2020-08-07T12:26:37Z</time>
      </trkpt>
      <trkpt lat="49.6814710449" lon="0.1745803569">
        <time>2020-08-07T12:26:49Z</time>
      </trkpt>
      <trkpt lat="49.6815615484" lon="0.1747524975">
        <time>2020-08-07T12:28:24Z</time>
      </trkpt>
      <trkpt lat="49.6818306504" lon="0.1748396899">
        <time>2020-08-07T12:29:00Z</time>
      </trkpt>
      <trkpt lat="49.6820155518" lon="0.1751651655">
        <time>2020-08-07T12:29:24Z</time>
      </trkpt>
      <trkpt lat="49.6821759367" lon="0.1755288749">
        <time>2020-08-07T12:29:50Z</time>
      </trkpt>
      <trkpt lat="49.6821723853" lon="0.1758425985">
        <time>2020-08-07T12:30:12Z</time>
      </trkpt>
      <trkpt lat="49.6820701974" lon="0.1759994085">
        <time>2020-08-07T12:30:26Z</time>
      </trkpt>
      <trkpt lat="49.6819318088" lon="0.1759783495">
        <time>2020-08-07T12:30:49Z</time>
      </trkpt>
      <trkpt lat="49.6819494516" lon="0.1757649082">
        <time>2020-08-07T12:33:14Z</time>
      </trkpt>
      <trkpt lat="49.6822280619" lon="0.1756538946">
        <time>2020-08-07T12:33:52Z</time>
      </trkpt>
      <trkpt lat="49.6820966614" lon="0.1755429825">
        <time>2020-08-07T12:34:35Z</time>
      </trkpt>
      <trkpt lat="49.6822352791" lon="0.1755789649">
        <time>2020-08-07T12:34:43Z</time>
      </trkpt>
      <trkpt lat="49.6820390377" lon="0.1756048278">
        <time>2020-08-07T12:34:57Z</time>
      </trkpt>
      <trkpt lat="49.6819690413" lon="0.1754057997">
        <time>2020-08-07T12:35:09Z</time>
      </trkpt>
      <trkpt lat="49.6816864213" lon="0.1752556361">
        <time>2020-08-07T12:35:21Z</time>
      </trkpt>
      <trkpt lat="49.6821681447" lon="0.1761115504">
        <time>2020-08-07T12:36:04Z</time>
      </trkpt>
      <trkpt lat="49.6819727060" lon="0.1756445942">
        <time>2020-08-07T12:36:24Z</time>
      </trkpt>
      <trkpt lat="49.6820536999" lon="0.1754698950">
        <time>2020-08-07T12:36:53Z</time>
      </trkpt>
      <trkpt lat="49.6823191354" lon="0.1758633531">
        <time>2020-08-07T12:37:58Z</time>
      </trkpt>
      <trkpt lat="49.6822080122" lon="0.1757106310">
        <time>2020-08-07T12:38:06Z</time>
      </trkpt>
      <trkpt lat="49.6820886405" lon="0.1758382055">
        <time>2020-08-07T12:38:14Z</time>
      </trkpt>
      <trkpt lat="49.6820028347" lon="0.1759720151">
        <time>2020-08-07T12:38:46Z</time>
      </trkpt>
      <trkpt lat="49.6819562093" lon="0.1756601326">
        <time>2020-08-07T12:38:51Z</time>
      </trkpt>
      <trkpt lat="49.6818862131" lon="0.1754611048">
        <time>2020-08-07T12:38:54Z</time>
      </trkpt>
      <trkpt lat="49.6820177281" lon="0.1755794788">
        <time>2020-08-07T12:39:12Z</time>
      </trkpt>
      <trkpt lat="49.6820459097" lon="0.1757800405">
        <time>2020-08-07T12:40:11Z</time>
      </trkpt>
      <trkpt lat="49.6820205913" lon="0.1760385626">
        <time>2020-08-07T12:41:17Z</time>
      </trkpt>
      <trkpt lat="49.6824949851" lon="0.1758718392">
        <time>2020-08-07T12:41:57Z</time>
      </trkpt>
      <trkpt lat="49.6826177934" lon="0.1759681347">
        <time>2020-08-07T12:42:10Z</time>
      </trkpt>
      <trkpt lat="49.6826794264" lon="0.1761674724">
        <time>2020-08-07T12:42:26Z</time>
      </trkpt>
      <trkpt lat="49.6830252793" lon="0.1768939886">
        <time>2020-08-07T12:43:24Z</time>
      </trkpt>
      <trkpt lat="49.6832881900" lon="0.1773958192">
        <time>2020-08-07T12:43:59Z</time>
      </trkpt>
      <trkpt lat="49.6836286540" lon="0.1780441477">
        <time>2020-08-07T12:44:42Z</time>
      </trkpt>
      <trkpt lat="49.6838294736" lon="0.1783167937">
        <time>2020-08-07T12:45:09Z</time>
      </trkpt>
      <trkpt lat="49.6839199731" lon="0.1784889475">
        <time>2020-08-07T12:45:32Z</time>
      </trkpt>
      <trkpt lat="49.6840347602" lon="0.1786079448">
        <time>2020-08-07T12:45:46Z</time>
      </trkpt>
      <trkpt lat="49.6843164618" lon="0.1786984285">
        <time>2020-08-07T12:46:08Z</time>
      </trkpt>
      <trkpt lat="49.6847237212" lon="0.1787917804">
        <time>2020-08-07T12:46:53Z</time>
      </trkpt>
      <trkpt lat="49.6851292642" lon="0.1787731909">
        <time>2020-08-07T12:47:41Z</time>
      </trkpt>
      <trkpt lat="49.6852440515" lon="0.1788921906">
        <time>2020-08-07T12:47:50Z</time>
      </trkpt>
      <trkpt lat="49.6852599716" lon="0.1791118832">
        <time>2020-08-07T12:48:02Z</time>
      </trkpt>
      <trkpt lat="49.6852508027" lon="0.1793324949">
        <time>2020-08-07T12:48:14Z</time>
      </trkpt>
      <trkpt lat="49.6851786055" lon="0.1803543796">
        <time>2020-08-07T12:49:08Z</time>
      </trkpt>
      <trkpt lat="49.6849997670" lon="0.1806969379">
        <time>2020-08-07T12:50:00Z</time>
      </trkpt>
      <trkpt lat="49.6848629607" lon="0.1813254317">
        <time>2020-08-07T12:50:35Z</time>
      </trkpt>
      <trkpt lat="49.6847775962" lon="0.1817616346">
        <time>2020-08-07T12:50:56Z</time>
      </trkpt>
      <trkpt lat="49.6846794121" lon="0.1819070962">
        <time>2020-08-07T12:51:05Z</time>
      </trkpt>
      <trkpt lat="49.6845643878" lon="0.1820457061">
        <time>2020-08-07T12:51:33Z</time>
      </trkpt>
      <trkpt lat="49.6843596424" lon="0.1826094716">
        <time>2020-08-07T12:52:05Z</time>
      </trkpt>
      <trkpt lat="49.6842573327" lon="0.1827588142">
        <time>2020-08-07T12:52:19Z</time>
      </trkpt>
      <trkpt lat="49.6841330309" lon="0.1828380251">
        <time>2020-08-07T12:52:33Z</time>
      </trkpt>
      <trkpt lat="49.6839923308" lon="0.1832127724">
        <time>2020-08-07T12:52:57Z</time>
      </trkpt>
      <trkpt lat="49.6840580771" lon="0.1834082399">
        <time>2020-08-07T12:53:10Z</time>
      </trkpt>
      <trkpt lat="49.6844812267" lon="0.1839938616">
        <time>2020-08-07T12:54:04Z</time>
      </trkpt>
      <trkpt lat="49.6850482548" lon="0.1846862420">
        <time>2020-08-07T12:55:07Z</time>
      </trkpt>
      <trkpt lat="49.6851587977" lon="0.1848016764">
        <time>2020-08-07T12:55:17Z</time>
      </trkpt>
      <trkpt lat="49.6855516080" lon="0.1850449441">
        <time>2020-08-07T12:55:58Z</time>
      </trkpt>
      <trkpt lat="49.6856741819" lon="0.1851263391">
        <time>2020-08-07T12:56:35Z</time>
      </trkpt>
      <trkpt lat="49.6857969839" lon="0.1852226601">
        <time>2020-08-07T12:56:45Z</time>
      </trkpt>
      <trkpt lat="49.6860226498" lon="0.1854795015">
        <time>2020-08-07T12:57:05Z</time>
      </trkpt>
      <trkpt lat="49.6864539668" lon="0.1855048229">
        <time>2020-08-07T12:58:10Z</time>
      </trkpt>
      <trkpt lat="49.6867189381" lon="0.1855959546">
        <time>2020-08-07T12:58:34Z</time>
      </trkpt>
      <trkpt lat="49.6868564128" lon="0.1855573323">
        <time>2020-08-07T12:58:43Z</time>
      </trkpt>
      <trkpt lat="49.6869755467" lon="0.1856873919">
        <time>2020-08-07T12:58:58Z</time>
      </trkpt>
      <trkpt lat="49.6871394788" lon="0.1857374102">
        <time>2020-08-07T12:59:46Z</time>
      </trkpt>
      <trkpt lat="49.6872841389" lon="0.1861689633">
        <time>2020-08-07T13:00:50Z</time>
      </trkpt>
      <trkpt lat="49.6872430086" lon="0.1862152686">
        <time>2020-08-07T13:01:39Z</time>
      </trkpt>
      <trkpt lat="49.6872775054" lon="0.1860086592">
        <time>2020-08-07T13:04:01Z</time>
      </trkpt>
      <trkpt lat="49.6871504464" lon="0.1861813115">
        <time>2020-08-07T13:04:53Z</time>
      </trkpt>
      <trkpt lat="49.6872146126" lon="0.1859997547">
        <time>2020-08-07T13:06:01Z</time>
      </trkpt>
      <trkpt lat="49.6873705239" lon="0.1860724686">
        <time>2020-08-07T13:06:36Z</time>
      </trkpt>
      <trkpt lat="49.6872595064" lon="0.1861997320">
        <time>2020-08-07T13:07:35Z</time>
      </trkpt>
      <trkpt lat="49.6872022393" lon="0.1860114075">
        <time>2020-08-07T13:08:23Z</time>
      </trkpt>
      <trkpt lat="49.6872491091" lon="0.1857931454">
        <time>2020-08-07T13:09:52Z</time>
      </trkpt>
      <trkpt lat="49.6872610078" lon="0.1860241963">
        <time>2020-08-07T13:10:52Z</time>
      </trkpt>
      <trkpt lat="49.6871628198" lon="0.1861696592">
        <time>2020-08-07T13:12:34Z</time>
      </trkpt>
      <trkpt lat="49.6871804767" lon="0.1859561977">
        <time>2020-08-07T13:13:11Z</time>
      </trkpt>
      <trkpt lat="49.6872140236" lon="0.1862349952">
        <time>2020-08-07T13:16:18Z</time>
      </trkpt>
      <trkpt lat="49.6871855135" lon="0.1860120183">
        <time>2020-08-07T13:16:49Z</time>
      </trkpt>
      <trkpt lat="49.6872453269" lon="0.1858194191">
        <time>2020-08-07T13:17:14Z</time>
      </trkpt>
      <trkpt lat="49.6872568834" lon="0.1860280806">
        <time>2020-08-07T13:26:37Z</time>
      </trkpt>
      <trkpt lat="49.6873358178" lon="0.1859915959">
        <time>2020-08-07T13:28:29Z</time>
      </trkpt>
      <trkpt lat="49.6871889537" lon="0.1859633556">
        <time>2020-08-07T13:29:20Z</time>
      </trkpt>
      <trkpt lat="49.6873086760" lon="0.1858581760">
        <time>2020-08-07T13:30:59Z</time>
      </trkpt>
      <trkpt lat="49.6871889537" lon="0.1859633557">
        <time>2020-08-07T13:31:53Z</time>
      </trkpt>
      <trkpt lat="49.6871181541" lon="0.1859846089">
        <time>2020-08-07T13:33:32Z</time>
      </trkpt>
      <trkpt lat="49.6872604376" lon="0.1859868812">
        <time>2020-08-07T13:34:11Z</time>
      </trkpt>
      <trkpt lat="49.6873431356" lon="0.1861966793">
        <time>2020-08-07T13:35:39Z</time>
      </trkpt>
      <trkpt lat="49.6876337461" lon="0.1865967724">
        <time>2020-08-07T13:36:17Z</time>
      </trkpt>
      <trkpt lat="49.6879820981" lon="0.1869424904">
        <time>2020-08-07T13:36:57Z</time>
      </trkpt>
      <trkpt lat="49.6881247236" lon="0.1869671542">
        <time>2020-08-07T13:37:11Z</time>
      </trkpt>
      <trkpt lat="49.6885701629" lon="0.1865476517">
        <time>2020-08-07T13:37:54Z</time>
      </trkpt>
      <trkpt lat="49.6892607300" lon="0.1865635082">
        <time>2020-08-07T13:38:57Z</time>
      </trkpt>
      <trkpt lat="49.6893960194" lon="0.1866556463">
        <time>2020-08-07T13:39:08Z</time>
      </trkpt>
      <trkpt lat="49.6895109148" lon="0.1867821337">
        <time>2020-08-07T13:39:17Z</time>
      </trkpt>
      <trkpt lat="49.6898306063" lon="0.1874425492">
        <time>2020-08-07T13:40:17Z</time>
      </trkpt>
      <trkpt lat="49.6898756135" lon="0.1876500009">
        <time>2020-08-07T13:40:28Z</time>
      </trkpt>
      <trkpt lat="49.6899122575" lon="0.1878577582">
        <time>2020-08-07T13:40:35Z</time>
      </trkpt>
      <trkpt lat="49.6899739900" lon="0.1880646002">
        <time>2020-08-07T13:40:47Z</time>
      </trkpt>
      <trkpt lat="49.6902943811" lon="0.1884972372">
        <time>2020-08-07T13:41:25Z</time>
      </trkpt>
      <trkpt lat="49.6904627574" lon="0.1888383439">
        <time>2020-08-07T13:41:49Z</time>
      </trkpt>
      <trkpt lat="49.6907160596" lon="0.1887133512">
        <time>2020-08-07T13:42:11Z</time>
      </trkpt>
      <trkpt lat="49.6908502081" lon="0.1887308595">
        <time>2020-08-07T13:42:24Z</time>
      </trkpt>
      <trkpt lat="49.6909970719" lon="0.1887591056">
        <time>2020-08-07T13:42:41Z</time>
      </trkpt>
      <trkpt lat="49.6911123077" lon="0.1889079915">
        <time>2020-08-07T13:42:54Z</time>
      </trkpt>
      <trkpt lat="49.6911533029" lon="0.1891267977">
        <time>2020-08-07T13:43:04Z</time>
      </trkpt>
      <trkpt lat="49.6909829236" lon="0.1894765347">
        <time>2020-08-07T13:43:27Z</time>
      </trkpt>
      <trkpt lat="49.6909314699" lon="0.1896688412">
        <time>2020-08-07T13:43:43Z</time>
      </trkpt>
      <trkpt lat="49.6908124291" lon="0.1898188053">
        <time>2020-08-07T13:43:55Z</time>
      </trkpt>
      <trkpt lat="49.6906801929" lon="0.1902007512">
        <time>2020-08-07T13:44:19Z</time>
      </trkpt>
      <trkpt lat="49.6906037630" lon="0.1904014339">
        <time>2020-08-07T13:44:34Z</time>
      </trkpt>
      <trkpt lat="49.6903441193" lon="0.1909336409">
        <time>2020-08-07T13:45:09Z</time>
      </trkpt>
      <trkpt lat="49.6904221173" lon="0.1911100244">
        <time>2020-08-07T13:45:22Z</time>
      </trkpt>
      <trkpt lat="49.6904462683" lon="0.1913219752">
        <time>2020-08-07T13:45:37Z</time>
      </trkpt>
      <trkpt lat="49.6905980247" lon="0.1916711651">
        <time>2020-08-07T13:45:56Z</time>
      </trkpt>
      <trkpt lat="49.6906556265" lon="0.1918818985">
        <time>2020-08-07T13:46:12Z</time>
      </trkpt>
      <trkpt lat="49.6907459970" lon="0.1920466320">
        <time>2020-08-07T13:46:28Z</time>
      </trkpt>
      <trkpt lat="49.6908324703" lon="0.1922301775">
        <time>2020-08-07T13:46:43Z</time>
      </trkpt>
      <trkpt lat="49.6910499905" lon="0.1925022992">
        <time>2020-08-07T13:47:11Z</time>
      </trkpt>
      <trkpt lat="49.6917037468" lon="0.1928481537">
        <time>2020-08-07T13:48:22Z</time>
      </trkpt>
      <trkpt lat="49.6923909848" lon="0.1929202109">
        <time>2020-08-07T13:49:28Z</time>
      </trkpt>
      <trkpt lat="49.6927794329" lon="0.1931525104">
        <time>2020-08-07T13:50:03Z</time>
      </trkpt>
      <trkpt lat="49.6929259546" lon="0.1931583761">
        <time>2020-08-07T13:50:48Z</time>
      </trkpt>
      <trkpt lat="49.6930040647" lon="0.1933422347">
        <time>2020-08-07T13:51:28Z</time>
      </trkpt>
      <trkpt lat="49.6934268435" lon="0.1939056233">
        <time>2020-08-07T13:52:24Z</time>
      </trkpt>
      <trkpt lat="49.6937511161" lon="0.1943195064">
        <time>2020-08-07T13:52:58Z</time>
      </trkpt>
      <trkpt lat="49.6938499617" lon="0.1944914121">
        <time>2020-08-07T13:53:32Z</time>
      </trkpt>
      <trkpt lat="49.6940838645" lon="0.1947405536">
        <time>2020-08-07T13:53:56Z</time>
      </trkpt>
      <trkpt lat="49.6941827097" lon="0.1949124610">
        <time>2020-08-07T13:54:07Z</time>
      </trkpt>
      <trkpt lat="49.6942894630" lon="0.1950542079">
        <time>2020-08-07T13:54:17Z</time>
      </trkpt>
      <trkpt lat="49.6944089310" lon="0.1952066951">
        <time>2020-08-07T13:54:29Z</time>
      </trkpt>
      <trkpt lat="49.6948113079" lon="0.1958044605">
        <time>2020-08-07T13:55:20Z</time>
      </trkpt>
      <trkpt lat="49.6950289374" lon="0.1960840769">
        <time>2020-08-07T13:55:44Z</time>
      </trkpt>
      <trkpt lat="49.6952220459" lon="0.1964019297">
        <time>2020-08-07T13:56:10Z</time>
      </trkpt>
      <trkpt lat="49.6953289115" lon="0.1965511462">
        <time>2020-08-07T13:56:22Z</time>
      </trkpt>
      <trkpt lat="49.6954313116" lon="0.1966818544">
        <time>2020-08-07T13:58:47Z</time>
      </trkpt>
      <trkpt lat="49.6956409175" lon="0.1969841744">
        <time>2020-08-07T13:59:12Z</time>
      </trkpt>
      <trkpt lat="49.6957354087" lon="0.1971450458">
        <time>2020-08-07T13:59:25Z</time>
      </trkpt>
      <trkpt lat="49.6958341379" lon="0.1973094980">
        <time>2020-08-07T13:59:34Z</time>
      </trkpt>
      <trkpt lat="49.6959577286" lon="0.1974581095">
        <time>2020-08-07T13:59:50Z</time>
      </trkpt>
      <trkpt lat="49.6960565711" lon="0.1976300273">
        <time>2020-08-07T14:00:05Z</time>
      </trkpt>
      <trkpt lat="49.6962862310" lon="0.1978756101">
        <time>2020-08-07T14:00:28Z</time>
      </trkpt>
      <trkpt lat="49.6965202425" lon="0.1981322395">
        <time>2020-08-07T14:01:03Z</time>
      </trkpt>
      <trkpt lat="49.6966307772" lon="0.1982477199">
        <time>2020-08-07T14:01:14Z</time>
      </trkpt>
      <trkpt lat="49.6967256078" lon="0.1984309900">
        <time>2020-08-07T14:01:28Z</time>
      </trkpt>
      <trkpt lat="49.6968769352" lon="0.1984777700">
        <time>2020-08-07T14:01:40Z</time>
      </trkpt>
      <trkpt lat="49.6975481632" lon="0.1991479699">
        <time>2020-08-07T14:02:46Z</time>
      </trkpt>
      <trkpt lat="49.6976787535" lon="0.1992067088">
        <time>2020-08-07T14:03:01Z</time>
      </trkpt>
      <trkpt lat="49.6977680213" lon="0.1990242115">
        <time>2020-08-07T14:03:09Z</time>
      </trkpt>
      <trkpt lat="49.6980449807" lon="0.1985286648">
        <time>2020-08-07T14:03:40Z</time>
      </trkpt>
      <trkpt lat="49.6981781061" lon="0.1984790104">
        <time>2020-08-07T14:04:00Z</time>
      </trkpt>
      <trkpt lat="49.6983167191" lon="0.1985150490">
        <time>2020-08-07T14:04:12Z</time>
      </trkpt>
      <trkpt lat="49.6988359789" lon="0.1988210685">
        <time>2020-08-07T14:04:59Z</time>
      </trkpt>
      <trkpt lat="49.6989704671" lon="0.1988609922">
        <time>2020-08-07T14:05:15Z</time>
      </trkpt>
      <trkpt lat="49.6993269336" lon="0.1991916083">
        <time>2020-08-07T14:05:52Z</time>
      </trkpt>
      <trkpt lat="49.6995609450" lon="0.1994482538">
        <time>2020-08-07T14:06:25Z</time>
      </trkpt>
      <trkpt lat="49.6998979223" lon="0.1998729495">
        <time>2020-08-07T14:07:05Z</time>
      </trkpt>
      <trkpt lat="49.7004204722" lon="0.1995701206">
        <time>2020-08-07T14:07:47Z</time>
      </trkpt>
      <trkpt lat="49.7008425556" lon="0.2000888295">
        <time>2020-08-07T14:08:27Z</time>
      </trkpt>
      <trkpt lat="49.7013560608" lon="0.1997415051">
        <time>2020-08-07T14:09:02Z</time>
      </trkpt>
      <trkpt lat="49.7016306744" lon="0.1996418840">
        <time>2020-08-07T14:09:36Z</time>
      </trkpt>
      <trkpt lat="49.7017616060" lon="0.1997230206">
        <time>2020-08-07T14:09:51Z</time>
      </trkpt>
      <trkpt lat="49.7018721413" lon="0.1998385120">
        <time>2020-08-07T14:10:04Z</time>
      </trkpt>
      <trkpt lat="49.7021572759" lon="0.1998804277">
        <time>2020-08-07T14:10:28Z</time>
      </trkpt>
      <trkpt lat="49.7029745352" lon="0.1999739498">
        <time>2020-08-07T14:11:33Z</time>
      </trkpt>
      <trkpt lat="49.7031160233" lon="0.1999239843">
        <time>2020-08-07T14:11:43Z</time>
      </trkpt>
      <trkpt lat="49.7032471824" lon="0.2000200535">
        <time>2020-08-07T14:12:25Z</time>
      </trkpt>
      <trkpt lat="49.7033579453" lon="0.2001504789">
        <time>2020-08-07T14:12:36Z</time>
      </trkpt>
      <trkpt lat="49.7033139016" lon="0.2005554461">
        <time>2020-08-07T14:13:14Z</time>
      </trkpt>
      <trkpt lat="49.7034376418" lon="0.2004388994">
        <time>2020-08-07T14:13:35Z</time>
      </trkpt>
      <trkpt lat="49.7035754596" lon="0.2004226817">
        <time>2020-08-07T14:13:47Z</time>
      </trkpt>
      <trkpt lat="49.7040152559" lon="0.2012806532">
        <time>2020-08-07T14:14:37Z</time>
      </trkpt>
      <trkpt lat="49.7044724174" lon="0.2016300540">
        <time>2020-08-07T14:15:25Z</time>
      </trkpt>
      <trkpt lat="49.7045962344" lon="0.2017936250">
        <time>2020-08-07T14:15:36Z</time>
      </trkpt>
      <trkpt lat="49.7049780902" lon="0.2024184239">
        <time>2020-08-07T14:16:15Z</time>
      </trkpt>
      <trkpt lat="49.7051672954" lon="0.2027551665">
        <time>2020-08-07T14:16:36Z</time>
      </trkpt>
      <trkpt lat="49.7053094652" lon="0.2027499993">
        <time>2020-08-07T14:16:52Z</time>
      </trkpt>
      <trkpt lat="49.7059368726" lon="0.2030147948">
        <time>2020-08-07T14:17:55Z</time>
      </trkpt>
      <trkpt lat="49.7062071356" lon="0.2029041244">
        <time>2020-08-07T14:18:25Z</time>
      </trkpt>
      <trkpt lat="49.7063407154" lon="0.2028843282">
        <time>2020-08-07T14:18:38Z</time>
      </trkpt>
      <trkpt lat="49.7068660659" lon="0.2030407811">
        <time>2020-08-07T14:19:24Z</time>
      </trkpt>
      <trkpt lat="49.7070959513" lon="0.2033013544">
        <time>2020-08-07T14:19:42Z</time>
      </trkpt>
      <trkpt lat="49.7071365923" lon="0.2034978401">
        <time>2020-08-07T14:19:54Z</time>
      </trkpt>
      <trkpt lat="49.7070029732" lon="0.2037903028">
        <time>2020-08-07T14:20:20Z</time>
      </trkpt>
      <trkpt lat="49.7068703010" lon="0.2038698269">
        <time>2020-08-07T14:20:33Z</time>
      </trkpt>
      <trkpt lat="49.7067289254" lon="0.2039272559">
        <time>2020-08-07T14:21:06Z</time>
      </trkpt>
      <trkpt lat="49.7068695068" lon="0.2038175641">
        <time>2020-08-07T14:21:26Z</time>
      </trkpt>
      <trkpt lat="49.7068852114" lon="0.2037497610">
        <time>2020-08-07T14:22:44Z</time>
      </trkpt>
      <trkpt lat="49.7068989472" lon="0.2038276997">
        <time>2020-08-07T14:23:30Z</time>
      </trkpt>
      <trkpt lat="49.7068989472" lon="0.2038276997">
        <time>2020-08-07T14:27:38Z</time>
      </trkpt>
    </trkseg>
  </trk>
</gpx>
