{"type":"FeatureCollection","features":[{"type":"Feature","properties":{"name":"gps4cam trip started at: 2015-08-08T04:06:46Z","time":"2015-08-08T14:56:52Z","coordTimes":["2015-08-08T14:56:52Z","2015-08-08T15:01:52Z","2015-08-08T15:06:49Z","2015-08-08T15:11:53Z","2015-08-08T15:17:01Z","2015-08-08T15:21:53Z"],"type":"marche","month":"2015-08-01"},"geometry":{"type":"LineString","coordinates":[[114.160438847,22.27817941,89],[114.161108227,22.279852672,218],[114.16082974,22.281194383,38],[114.159587242,22.284502692,46],[114.160945781,22.286717753,99],[114.161108584,22.287815993,19]]}}]}