{"type":"FeatureCollection","features":[{"type":"Feature","properties":{"name":"gps4cam trip started at: 2018-02-27T14:02:51Z","time":"2018-02-27T15:20:21Z","coordTimes":["2018-02-27T15:20:21Z","2018-02-27T15:20:39Z","2018-02-27T15:21:06Z","2018-02-27T15:21:15Z","2018-02-27T15:21:23Z","2018-02-27T15:21:44Z","2018-02-27T15:22:34Z","2018-02-27T15:22:50Z","2018-02-27T15:57:56Z","2018-02-27T15:58:06Z","2018-02-27T15:58:40Z","2018-02-27T15:59:12Z","2018-02-27T15:59:23Z","2018-02-27T15:59:54Z","2018-02-27T16:00:23Z","2018-02-27T16:01:10Z","2018-02-27T16:01:48Z","2018-02-27T16:02:19Z"],"type":"randonnée","month":"2018-02-01"},"geometry":{"type":"LineString","coordinates":[[-69.467133044,19.077936818],[-69.467019452,19.07784738],[-69.466748308,19.077738324],[-69.466619203,19.077639492],[-69.466557407,19.077495995],[-69.466484849,19.077622897],[-69.4663529,19.077531985],[-69.466411703,19.077661272],[-69.46649787,19.077256048],[-69.466642635,19.077386408],[-69.466799924,19.07751195],[-69.466932577,19.077563334],[-69.466962493,19.077705439],[-69.467082739,19.077633585],[-69.467155034,19.077612604],[-69.467395736,19.0777914],[-69.467190379,19.07784479],[-69.467150406,19.077933558]]}}]}