{"type":"FeatureCollection","features":[{"type":"Feature","properties":{"name":"gps4cam trip started at: 2015-08-09T04:21:27Z","time":"2015-08-09T04:21:27Z","coordTimes":["2015-08-09T04:21:27Z","2015-08-09T04:31:31Z","2015-08-09T04:36:29Z","2015-08-09T04:41:29Z","2015-08-09T04:46:30Z","2015-08-09T04:51:30Z","2015-08-09T04:56:30Z","2015-08-09T05:01:30Z","2015-08-09T05:06:31Z","2015-08-09T05:11:31Z","2015-08-09T05:16:30Z","2015-08-09T05:21:27Z","2015-08-09T05:26:31Z","2015-08-09T05:31:30Z","2015-08-09T05:36:27Z","2015-08-09T05:41:27Z","2015-08-09T05:46:40Z","2015-08-09T05:51:36Z","2015-08-09T05:56:43Z","2015-08-09T06:01:41Z","2015-08-09T06:06:34Z"],"type":"marche","month":"2015-08-01"},"geometry":{"type":"LineString","coordinates":[[114.178132379,22.298439766,38],[114.176892459,22.297610546,51],[114.176854714,22.296047344,0],[114.176173972,22.294632526,12],[114.175209933,22.293641514,5],[114.173094508,22.293071061,7],[114.17255209,22.293983354,12],[114.172575252,22.294338895,185],[114.172397196,22.294843531,72],[114.172435511,22.294834997,42],[114.17159176,22.29459726,-19],[114.170457192,22.294906354,14],[114.169960811,22.295269901,11],[114.170070525,22.295084777,47],[114.169491133,22.294678174,22],[114.169265283,22.294560371,28],[114.168992799,22.294447825,37],[114.169082409,22.294050078,12],[114.1691762,22.293963663,9],[114.168845628,22.293849235,20],[114.168586304,22.294455718,9]]}}]}