<?xml version="1.0" encoding="UTF-8"?>
<gpx version="1.1" creator="GPSBabel - https://www.gpsbabel.org" xmlns="http://www.topografix.com/GPX/1/1" xmlns:xsi="http://www.w3.org/2001/XMLSchema-instance" xmlns:gpxtpx="http://www.garmin.com/xmlschemas/TrackPointExtension/v1" xmlns:gpxx="http://www.garmin.com/xmlschemas/GpxExtensions/v3" xmlns:gpxpx="http://www.garmin.com/xmlschemas/PowerExtension/v1" xmlns:gpx_style="http://www.topografix.com/GPX/gpx_style/0/2">
  <metadata>
    <name>2008-06-03 06 58 10</name>
    <time>2025-09-04T15:21:45.061Z</time>
    <bounds minlat="49.981610000" minlon="4.334929000" maxlat="49.983253000" maxlon="4.338365000"/>
  </metadata>
  <trk>
    <name>unnamed</name>
    <trkseg>
      <trkpt lat="49.982895000" lon="4.336632000">
        <ele>293.340</ele>
        <time>2008-06-01T15:00:30Z</time>
      </trkpt>
      <trkpt lat="49.982816000" lon="4.336715000">
        <ele>294.300</ele>
        <time>2008-06-01T15:01:00Z</time>
      </trkpt>
      <trkpt lat="49.982734000" lon="4.336728000">
        <ele>295.260</ele>
        <time>2008-06-01T15:01:10Z</time>
      </trkpt>
      <trkpt lat="49.982591000" lon="4.336781000">
        <ele>296.220</ele>
        <time>2008-06-01T15:01:24Z</time>
      </trkpt>
      <trkpt lat="49.982528000" lon="4.336942000">
        <ele>296.700</ele>
        <time>2008-06-01T15:01:37Z</time>
      </trkpt>
      <trkpt lat="49.982512000" lon="4.337174000">
        <ele>297.670</ele>
        <time>2008-06-01T15:01:52Z</time>
      </trkpt>
      <trkpt lat="49.982554000" lon="4.337211000">
        <ele>298.630</ele>
        <time>2008-06-01T15:02:15Z</time>
      </trkpt>
      <trkpt lat="49.982527000" lon="4.337199000">
        <ele>299.110</ele>
        <time>2008-06-01T15:02:55Z</time>
      </trkpt>
      <trkpt lat="49.982164000" lon="4.337400000">
        <ele>300.550</ele>
        <time>2008-06-01T15:04:01Z</time>
      </trkpt>
      <trkpt lat="49.981999000" lon="4.337539000">
        <ele>301.510</ele>
        <time>2008-06-01T15:04:38Z</time>
      </trkpt>
      <trkpt lat="49.981967000" lon="4.337719000">
        <ele>301.990</ele>
        <time>2008-06-01T15:04:57Z</time>
      </trkpt>
      <trkpt lat="49.981982000" lon="4.337888000">
        <ele>302.470</ele>
        <time>2008-06-01T15:05:15Z</time>
      </trkpt>
      <trkpt lat="49.982013000" lon="4.338055000">
        <ele>302.950</ele>
        <time>2008-06-01T15:05:34Z</time>
      </trkpt>
      <trkpt lat="49.982086000" lon="4.338100000">
        <ele>303.430</ele>
        <time>2008-06-01T15:05:53Z</time>
      </trkpt>
      <trkpt lat="49.982060000" lon="4.338103000">
        <ele>303.910</ele>
        <time>2008-06-01T15:06:17Z</time>
      </trkpt>
      <trkpt lat="49.981912000" lon="4.338170000">
        <ele>304.390</ele>
        <time>2008-06-01T15:06:41Z</time>
      </trkpt>
      <trkpt lat="49.982042000" lon="4.338084000">
        <ele>304.880</ele>
        <time>2008-06-01T15:06:56Z</time>
      </trkpt>
      <trkpt lat="49.981990000" lon="4.338235000">
        <ele>306.320</ele>
        <time>2008-06-01T15:08:09Z</time>
      </trkpt>
      <trkpt lat="49.982022000" lon="4.338364000">
        <ele>306.800</ele>
        <time>2008-06-01T15:08:31Z</time>
      </trkpt>
      <trkpt lat="49.981939000" lon="4.338192000">
        <ele>307.760</ele>
        <time>2008-06-01T15:08:52Z</time>
      </trkpt>
      <trkpt lat="49.981842000" lon="4.337906000">
        <ele>308.240</ele>
        <time>2008-06-01T15:09:19Z</time>
      </trkpt>
      <trkpt lat="49.981893000" lon="4.337914000">
        <ele>308.720</ele>
        <time>2008-06-01T15:09:44Z</time>
      </trkpt>
      <trkpt lat="49.981919000" lon="4.337889000">
        <ele>308.720</ele>
        <time>2008-06-01T15:10:09Z</time>
      </trkpt>
      <trkpt lat="49.981833000" lon="4.337939000">
        <ele>308.720</ele>
        <time>2008-06-01T15:10:14Z</time>
      </trkpt>
      <trkpt lat="49.981904000" lon="4.337983000">
        <ele>309.200</ele>
        <time>2008-06-01T15:10:35Z</time>
      </trkpt>
      <trkpt lat="49.981896000" lon="4.338236000">
        <ele>309.200</ele>
        <time>2008-06-01T15:11:03Z</time>
      </trkpt>
      <trkpt lat="49.982056000" lon="4.338365000">
        <ele>309.200</ele>
        <time>2008-06-01T15:11:23Z</time>
      </trkpt>
      <trkpt lat="49.982131000" lon="4.338115000">
        <ele>309.200</ele>
        <time>2008-06-01T15:11:45Z</time>
      </trkpt>
      <trkpt lat="49.982142000" lon="4.338012000">
        <ele>309.680</ele>
        <time>2008-06-01T15:12:03Z</time>
      </trkpt>
      <trkpt lat="49.982081000" lon="4.337810000">
        <ele>309.680</ele>
        <time>2008-06-01T15:12:24Z</time>
      </trkpt>
      <trkpt lat="49.982058000" lon="4.337703000">
        <ele>310.640</ele>
        <time>2008-06-01T15:13:08Z</time>
      </trkpt>
      <trkpt lat="49.982126000" lon="4.337556000">
        <ele>311.120</ele>
        <time>2008-06-01T15:13:45Z</time>
      </trkpt>
      <trkpt lat="49.982133000" lon="4.337328000">
        <ele>311.120</ele>
        <time>2008-06-01T15:14:01Z</time>
      </trkpt>
      <trkpt lat="49.982127000" lon="4.337135000">
        <ele>311.120</ele>
        <time>2008-06-01T15:14:22Z</time>
      </trkpt>
      <trkpt lat="49.981991000" lon="4.336710000">
        <ele>311.120</ele>
        <time>2008-06-01T15:14:43Z</time>
      </trkpt>
      <trkpt lat="49.981952000" lon="4.336666000">
        <ele>311.600</ele>
        <time>2008-06-01T15:15:17Z</time>
      </trkpt>
      <trkpt lat="49.981973000" lon="4.336666000">
        <ele>313.050</ele>
        <time>2008-06-01T15:16:13Z</time>
      </trkpt>
      <trkpt lat="49.982012000" lon="4.336502000">
        <ele>313.050</ele>
        <time>2008-06-01T15:16:32Z</time>
      </trkpt>
      <trkpt lat="49.981995000" lon="4.336288000">
        <ele>312.570</ele>
        <time>2008-06-01T15:16:55Z</time>
      </trkpt>
      <trkpt lat="49.981975000" lon="4.336172000">
        <ele>313.050</ele>
        <time>2008-06-01T15:17:13Z</time>
      </trkpt>
      <trkpt lat="49.981922000" lon="4.335716000">
        <ele>313.530</ele>
        <time>2008-06-01T15:17:53Z</time>
      </trkpt>
      <trkpt lat="49.981931000" lon="4.335422000">
        <ele>313.530</ele>
        <time>2008-06-01T15:18:17Z</time>
      </trkpt>
      <trkpt lat="49.981867000" lon="4.335087000">
        <ele>314.010</ele>
        <time>2008-06-01T15:18:41Z</time>
      </trkpt>
      <trkpt lat="49.981737000" lon="4.335030000">
        <ele>313.530</ele>
        <time>2008-06-01T15:18:57Z</time>
      </trkpt>
      <trkpt lat="49.981676000" lon="4.335031000">
        <ele>314.010</ele>
        <time>2008-06-01T15:19:26Z</time>
      </trkpt>
      <trkpt lat="49.981664000" lon="4.334977000">
        <ele>314.010</ele>
        <time>2008-06-01T15:20:07Z</time>
      </trkpt>
      <trkpt lat="49.981611000" lon="4.334929000">
        <ele>314.010</ele>
        <time>2008-06-01T15:20:23Z</time>
      </trkpt>
      <trkpt lat="49.981610000" lon="4.335039000">
        <ele>314.010</ele>
        <time>2008-06-01T15:20:44Z</time>
      </trkpt>
      <trkpt lat="49.981684000" lon="4.335111000">
        <ele>315.450</ele>
        <time>2008-06-01T15:21:06Z</time>
      </trkpt>
      <trkpt lat="49.981696000" lon="4.335058000">
        <ele>314.970</ele>
        <time>2008-06-01T15:21:27Z</time>
      </trkpt>
      <trkpt lat="49.981780000" lon="4.335222000">
        <ele>316.890</ele>
        <time>2008-06-01T15:22:42Z</time>
      </trkpt>
      <trkpt lat="49.981777000" lon="4.335570000">
        <ele>317.370</ele>
        <time>2008-06-01T15:23:05Z</time>
      </trkpt>
      <trkpt lat="49.981765000" lon="4.335805000">
        <ele>317.850</ele>
        <time>2008-06-01T15:23:37Z</time>
      </trkpt>
      <trkpt lat="49.981865000" lon="4.336177000">
        <ele>318.330</ele>
        <time>2008-06-01T15:23:59Z</time>
      </trkpt>
      <trkpt lat="49.981904000" lon="4.336571000">
        <ele>318.810</ele>
        <time>2008-06-01T15:24:24Z</time>
      </trkpt>
      <trkpt lat="49.982039000" lon="4.336694000">
        <ele>319.300</ele>
        <time>2008-06-01T15:24:41Z</time>
      </trkpt>
      <trkpt lat="49.982069000" lon="4.336623000">
        <ele>319.780</ele>
        <time>2008-06-01T15:25:11Z</time>
      </trkpt>
      <trkpt lat="49.982111000" lon="4.336650000">
        <ele>320.260</ele>
        <time>2008-06-01T15:25:29Z</time>
      </trkpt>
      <trkpt lat="49.982219000" lon="4.336807000">
        <ele>320.260</ele>
        <time>2008-06-01T15:25:46Z</time>
      </trkpt>
      <trkpt lat="49.982172000" lon="4.336760000">
        <ele>320.260</ele>
        <time>2008-06-01T15:26:08Z</time>
      </trkpt>
      <trkpt lat="49.982146000" lon="4.336690000">
        <ele>320.260</ele>
        <time>2008-06-01T15:26:27Z</time>
      </trkpt>
      <trkpt lat="49.982094000" lon="4.336700000">
        <ele>320.740</ele>
        <time>2008-06-01T15:26:58Z</time>
      </trkpt>
      <trkpt lat="49.982044000" lon="4.336849000">
        <ele>321.700</ele>
        <time>2008-06-01T15:27:20Z</time>
      </trkpt>
      <trkpt lat="49.981958000" lon="4.337188000">
        <ele>322.180</ele>
        <time>2008-06-01T15:27:39Z</time>
      </trkpt>
      <trkpt lat="49.982081000" lon="4.337566000">
        <ele>322.180</ele>
        <time>2008-06-01T15:27:57Z</time>
      </trkpt>
      <trkpt lat="49.982110000" lon="4.337622000">
        <ele>322.180</ele>
        <time>2008-06-01T15:28:14Z</time>
      </trkpt>
      <trkpt lat="49.982202000" lon="4.337506000">
        <ele>322.180</ele>
        <time>2008-06-01T15:28:38Z</time>
      </trkpt>
      <trkpt lat="49.982177000" lon="4.337431000">
        <ele>322.180</ele>
        <time>2008-06-01T15:28:53Z</time>
      </trkpt>
      <trkpt lat="49.982134000" lon="4.337389000">
        <ele>322.180</ele>
        <time>2008-06-01T15:29:08Z</time>
      </trkpt>
      <trkpt lat="49.982016000" lon="4.337445000">
        <ele>322.660</ele>
        <time>2008-06-01T15:29:26Z</time>
      </trkpt>
      <trkpt lat="49.982068000" lon="4.337571000">
        <ele>322.660</ele>
        <time>2008-06-01T15:29:43Z</time>
      </trkpt>
      <trkpt lat="49.982170000" lon="4.337573000">
        <ele>322.660</ele>
        <time>2008-06-01T15:30:05Z</time>
      </trkpt>
      <trkpt lat="49.982177000" lon="4.337624000">
        <ele>322.660</ele>
        <time>2008-06-01T15:30:33Z</time>
      </trkpt>
      <trkpt lat="49.982273000" lon="4.337892000">
        <ele>323.140</ele>
        <time>2008-06-01T15:31:14Z</time>
      </trkpt>
      <trkpt lat="49.982243000" lon="4.337940000">
        <ele>323.140</ele>
        <time>2008-06-01T15:31:35Z</time>
      </trkpt>
      <trkpt lat="49.982303000" lon="4.337904000">
        <ele>323.140</ele>
        <time>2008-06-01T15:31:51Z</time>
      </trkpt>
      <trkpt lat="49.981989000" lon="4.337718000">
        <ele>323.140</ele>
        <time>2008-06-01T15:32:24Z</time>
      </trkpt>
      <trkpt lat="49.981997000" lon="4.337628000">
        <ele>322.660</ele>
        <time>2008-06-01T15:32:53Z</time>
      </trkpt>
      <trkpt lat="49.982004000" lon="4.337616000">
        <ele>322.660</ele>
        <time>2008-06-01T15:32:54Z</time>
      </trkpt>
      <trkpt lat="49.982439000" lon="4.337360000">
        <ele>322.660</ele>
        <time>2008-06-01T15:33:08Z</time>
      </trkpt>
      <trkpt lat="49.982482000" lon="4.337228000">
        <ele>322.660</ele>
        <time>2008-06-01T15:33:48Z</time>
      </trkpt>
      <trkpt lat="49.982624000" lon="4.337245000">
        <ele>323.140</ele>
        <time>2008-06-01T15:34:23Z</time>
      </trkpt>
      <trkpt lat="49.982661000" lon="4.337236000">
        <ele>322.660</ele>
        <time>2008-06-01T15:35:16Z</time>
      </trkpt>
      <trkpt lat="49.982779000" lon="4.337294000">
        <ele>323.140</ele>
        <time>2008-06-01T15:37:17Z</time>
      </trkpt>
      <trkpt lat="49.983135000" lon="4.337067000">
        <ele>321.700</ele>
        <time>2008-06-01T15:37:57Z</time>
      </trkpt>
      <trkpt lat="49.983205000" lon="4.336993000">
        <ele>322.180</ele>
        <time>2008-06-01T15:38:11Z</time>
      </trkpt>
      <trkpt lat="49.983253000" lon="4.336981000">
        <ele>322.660</ele>
        <time>2008-06-01T15:38:46Z</time>
      </trkpt>
    </trkseg>
  </trk>
</gpx>
