{"type":"FeatureCollection","features":[{"type":"Feature","properties":{"name":"…et la fin en intérieur, victoire ! 💪","type":"Workout","time":"2025-03-22T16:26:38Z","coordTimes":["2025-03-22T16:26:38Z","2025-03-22T16:27:12Z","2025-03-22T16:27:17Z","2025-03-22T16:27:18Z","2025-03-22T16:27:19Z","2025-03-22T16:27:20Z","2025-03-22T16:27:22Z","2025-03-22T16:27:24Z","2025-03-22T16:27:28Z","2025-03-22T16:27:29Z","2025-03-22T16:27:34Z","2025-03-22T16:27:35Z","2025-03-22T16:27:37Z","2025-03-22T16:27:38Z","2025-03-22T16:27:43Z","2025-03-22T16:27:46Z","2025-03-22T16:27:48Z","2025-03-22T16:27:50Z","2025-03-22T16:27:52Z","2025-03-22T16:27:53Z","2025-03-22T16:27:54Z","2025-03-22T16:27:56Z","2025-03-22T16:27:58Z","2025-03-22T16:28:01Z","2025-03-22T16:28:03Z","2025-03-22T16:28:12Z","2025-03-22T16:28:16Z","2025-03-22T16:28:18Z","2025-03-22T16:28:20Z","2025-03-22T16:28:21Z","2025-03-22T16:28:22Z","2025-03-22T16:28:23Z","2025-03-22T16:28:26Z","2025-03-22T16:28:27Z","2025-03-22T16:28:28Z","2025-03-22T16:28:29Z","2025-03-22T16:28:30Z","2025-03-22T16:28:31Z","2025-03-22T16:28:32Z","2025-03-22T16:28:33Z","2025-03-22T16:28:34Z","2025-03-22T16:28:36Z","2025-03-22T16:28:38Z","2025-03-22T16:28:39Z","2025-03-22T16:28:40Z","2025-03-22T16:28:41Z","2025-03-22T16:28:42Z","2025-03-22T16:28:43Z","2025-03-22T16:28:45Z","2025-03-22T16:28:46Z","2025-03-22T16:28:49Z","2025-03-22T16:28:50Z","2025-03-22T16:28:51Z","2025-03-22T16:28:53Z","2025-03-22T16:28:54Z","2025-03-22T16:28:55Z","2025-03-22T16:28:56Z","2025-03-22T16:28:57Z","2025-03-22T16:28:58Z","2025-03-22T16:29:00Z","2025-03-22T16:29:01Z","2025-03-22T16:29:06Z","2025-03-22T16:29:10Z","2025-03-22T16:29:11Z","2025-03-22T16:29:14Z","2025-03-22T16:29:18Z","2025-03-22T16:29:21Z","2025-03-22T16:29:25Z","2025-03-22T16:29:29Z","2025-03-22T16:29:30Z","2025-03-22T16:29:32Z","2025-03-22T16:29:37Z","2025-03-22T16:29:38Z","2025-03-22T16:29:39Z","2025-03-22T16:29:43Z","2025-03-22T16:29:45Z","2025-03-22T16:29:46Z","2025-03-22T16:29:47Z","2025-03-22T16:29:48Z","2025-03-22T16:29:49Z","2025-03-22T16:29:51Z","2025-03-22T16:29:52Z","2025-03-22T16:29:53Z","2025-03-22T16:29:55Z","2025-03-22T16:29:56Z","2025-03-22T16:29:59Z","2025-03-22T16:30:00Z","2025-03-22T16:30:01Z","2025-03-22T16:30:03Z","2025-03-22T16:30:06Z","2025-03-22T16:30:08Z","2025-03-22T16:30:09Z","2025-03-22T16:30:12Z","2025-03-22T16:30:13Z","2025-03-22T16:30:14Z","2025-03-22T16:30:15Z","2025-03-22T16:30:16Z","2025-03-22T16:30:18Z","2025-03-22T16:30:19Z","2025-03-22T16:30:22Z","2025-03-22T16:30:27Z","2025-03-22T16:30:30Z","2025-03-22T16:30:32Z","2025-03-22T16:30:34Z","2025-03-22T16:30:36Z","2025-03-22T16:30:41Z","2025-03-22T16:30:42Z","2025-03-22T16:30:45Z","2025-03-22T16:30:46Z","2025-03-22T16:30:47Z","2025-03-22T16:30:49Z","2025-03-22T16:30:50Z","2025-03-22T16:30:53Z","2025-03-22T16:30:54Z","2025-03-22T16:30:57Z","2025-03-22T16:31:00Z","2025-03-22T16:31:01Z","2025-03-22T16:31:02Z","2025-03-22T16:31:04Z","2025-03-22T16:31:05Z","2025-03-22T16:31:06Z","2025-03-22T16:31:08Z","2025-03-22T16:31:10Z","2025-03-22T16:31:11Z","2025-03-22T16:31:12Z","2025-03-22T16:31:14Z","2025-03-22T16:31:15Z","2025-03-22T16:31:16Z","2025-03-22T16:31:17Z","2025-03-22T16:31:19Z","2025-03-22T16:31:22Z","2025-03-22T16:31:23Z","2025-03-22T16:31:24Z","2025-03-22T16:31:26Z","2025-03-22T16:31:30Z","2025-03-22T16:31:31Z","2025-03-22T16:31:32Z","2025-03-22T16:31:35Z","2025-03-22T16:31:36Z","2025-03-22T16:31:43Z","2025-03-22T16:31:45Z","2025-03-22T16:31:46Z","2025-03-22T16:31:48Z","2025-03-22T16:31:49Z","2025-03-22T16:31:50Z","2025-03-22T16:31:52Z","2025-03-22T16:31:53Z","2025-03-22T16:31:55Z","2025-03-22T16:31:56Z","2025-03-22T16:31:57Z","2025-03-22T16:31:58Z","2025-03-22T16:32:00Z","2025-03-22T16:32:01Z","2025-03-22T16:32:03Z","2025-03-22T16:32:09Z","2025-03-22T16:32:11Z","2025-03-22T16:32:13Z","2025-03-22T16:32:17Z","2025-03-22T16:32:18Z","2025-03-22T16:32:19Z","2025-03-22T16:32:22Z","2025-03-22T16:32:23Z","2025-03-22T16:32:25Z","2025-03-22T16:32:26Z","2025-03-22T16:32:27Z","2025-03-22T16:32:29Z","2025-03-22T16:32:30Z","2025-03-22T16:32:31Z","2025-03-22T16:32:33Z","2025-03-22T16:32:34Z","2025-03-22T16:32:35Z","2025-03-22T16:32:36Z","2025-03-22T16:32:38Z","2025-03-22T16:32:41Z","2025-03-22T16:32:42Z","2025-03-22T16:32:44Z","2025-03-22T16:32:50Z","2025-03-22T16:32:51Z","2025-03-22T16:32:53Z","2025-03-22T16:32:56Z","2025-03-22T16:32:57Z","2025-03-22T16:33:02Z","2025-03-22T16:33:04Z","2025-03-22T16:33:07Z","2025-03-22T16:33:08Z","2025-03-22T16:33:09Z","2025-03-22T16:33:10Z","2025-03-22T16:33:13Z","2025-03-22T16:33:14Z","2025-03-22T16:33:15Z","2025-03-22T16:33:18Z","2025-03-22T16:33:21Z","2025-03-22T16:33:22Z","2025-03-22T16:33:26Z","2025-03-22T16:33:28Z","2025-03-22T16:33:30Z","2025-03-22T16:33:32Z","2025-03-22T16:33:34Z","2025-03-22T16:33:39Z","2025-03-22T16:33:41Z","2025-03-22T16:33:42Z","2025-03-22T16:33:47Z","2025-03-22T16:33:50Z","2025-03-22T16:33:59Z","2025-03-22T16:34:01Z","2025-03-22T16:34:02Z","2025-03-22T16:34:06Z","2025-03-22T16:34:08Z","2025-03-22T16:34:10Z","2025-03-22T16:34:12Z","2025-03-22T16:34:13Z","2025-03-22T16:34:15Z","2025-03-22T16:34:16Z","2025-03-22T16:34:19Z","2025-03-22T16:34:20Z","2025-03-22T16:34:21Z","2025-03-22T16:34:22Z","2025-03-22T16:34:23Z","2025-03-22T16:34:24Z","2025-03-22T16:34:26Z","2025-03-22T16:34:27Z","2025-03-22T16:34:31Z","2025-03-22T16:34:33Z","2025-03-22T16:34:34Z","2025-03-22T16:34:36Z","2025-03-22T16:34:37Z","2025-03-22T16:34:39Z","2025-03-22T16:34:42Z","2025-03-22T16:34:44Z","2025-03-22T16:34:46Z","2025-03-22T16:34:48Z","2025-03-22T16:34:50Z","2025-03-22T16:34:53Z","2025-03-22T16:34:55Z","2025-03-22T16:34:56Z","2025-03-22T16:34:57Z","2025-03-22T16:34:59Z","2025-03-22T16:35:03Z","2025-03-22T16:35:05Z","2025-03-22T16:35:08Z","2025-03-22T16:35:10Z","2025-03-22T16:35:12Z","2025-03-22T16:35:17Z","2025-03-22T16:35:19Z","2025-03-22T16:35:21Z","2025-03-22T16:35:22Z","2025-03-22T16:35:27Z","2025-03-22T16:35:28Z","2025-03-22T16:35:31Z","2025-03-22T16:35:32Z","2025-03-22T16:35:34Z","2025-03-22T16:35:35Z","2025-03-22T16:35:37Z","2025-03-22T16:35:39Z","2025-03-22T16:35:41Z","2025-03-22T16:35:43Z","2025-03-22T16:35:48Z","2025-03-22T16:35:49Z","2025-03-22T16:35:51Z","2025-03-22T16:35:53Z","2025-03-22T16:35:54Z","2025-03-22T16:36:02Z","2025-03-22T16:36:03Z","2025-03-22T16:36:10Z","2025-03-22T16:36:11Z","2025-03-22T16:36:12Z","2025-03-22T16:36:15Z","2025-03-22T16:36:17Z","2025-03-22T16:36:20Z","2025-03-22T16:36:21Z","2025-03-22T16:36:23Z","2025-03-22T16:36:24Z","2025-03-22T16:36:25Z","2025-03-22T16:36:30Z","2025-03-22T16:36:32Z","2025-03-22T16:36:33Z","2025-03-22T16:36:34Z","2025-03-22T16:36:35Z","2025-03-22T16:36:41Z","2025-03-22T16:36:42Z","2025-03-22T16:36:44Z","2025-03-22T16:36:45Z","2025-03-22T16:36:46Z","2025-03-22T16:36:47Z","2025-03-22T16:36:48Z","2025-03-22T16:36:49Z","2025-03-22T16:36:52Z","2025-03-22T16:36:55Z","2025-03-22T16:36:56Z","2025-03-22T16:36:57Z","2025-03-22T16:36:59Z","2025-03-22T16:37:01Z","2025-03-22T16:37:04Z","2025-03-22T16:37:06Z","2025-03-22T16:37:09Z","2025-03-22T16:37:10Z","2025-03-22T16:37:11Z","2025-03-22T16:37:12Z","2025-03-22T16:37:13Z","2025-03-22T16:37:15Z","2025-03-22T16:37:16Z","2025-03-22T16:37:17Z","2025-03-22T16:37:19Z","2025-03-22T16:37:22Z","2025-03-22T16:37:23Z","2025-03-22T16:37:24Z","2025-03-22T16:37:27Z","2025-03-22T16:37:28Z","2025-03-22T16:37:29Z","2025-03-22T16:37:30Z","2025-03-22T16:37:32Z","2025-03-22T16:37:36Z","2025-03-22T16:37:40Z","2025-03-22T16:37:44Z","2025-03-22T16:37:45Z","2025-03-22T16:37:46Z","2025-03-22T16:37:51Z","2025-03-22T16:37:52Z","2025-03-22T16:37:53Z","2025-03-22T16:37:57Z","2025-03-22T16:37:59Z","2025-03-22T16:38:06Z","2025-03-22T16:38:09Z","2025-03-22T16:38:10Z","2025-03-22T16:38:11Z","2025-03-22T16:38:12Z","2025-03-22T16:38:13Z","2025-03-22T16:38:14Z","2025-03-22T16:38:15Z","2025-03-22T16:38:16Z","2025-03-22T16:38:19Z","2025-03-22T16:38:21Z","2025-03-22T16:38:28Z","2025-03-22T16:38:33Z","2025-03-22T16:38:34Z","2025-03-22T16:38:36Z","2025-03-22T16:38:38Z","2025-03-22T16:38:39Z","2025-03-22T16:38:41Z","2025-03-22T16:38:42Z","2025-03-22T16:38:43Z","2025-03-22T16:38:45Z","2025-03-22T16:38:46Z","2025-03-22T16:38:48Z","2025-03-22T16:38:50Z","2025-03-22T16:38:53Z","2025-03-22T16:38:54Z","2025-03-22T16:39:00Z","2025-03-22T16:39:02Z","2025-03-22T16:39:03Z","2025-03-22T16:39:04Z","2025-03-22T16:39:05Z","2025-03-22T16:39:07Z","2025-03-22T16:39:09Z","2025-03-22T16:39:12Z","2025-03-22T16:39:13Z","2025-03-22T16:39:16Z","2025-03-22T16:39:17Z","2025-03-22T16:39:18Z","2025-03-22T16:39:23Z","2025-03-22T16:39:24Z","2025-03-22T16:39:27Z","2025-03-22T16:39:28Z","2025-03-22T16:39:30Z","2025-03-22T16:39:31Z","2025-03-22T16:39:35Z","2025-03-22T16:39:38Z","2025-03-22T16:39:42Z","2025-03-22T16:39:43Z","2025-03-22T16:39:46Z","2025-03-22T16:39:48Z","2025-03-22T16:39:49Z","2025-03-22T16:39:54Z","2025-03-22T16:39:55Z","2025-03-22T16:39:58Z","2025-03-22T16:40:02Z","2025-03-22T16:40:04Z","2025-03-22T16:40:07Z","2025-03-22T16:40:10Z","2025-03-22T16:40:12Z","2025-03-22T16:40:14Z","2025-03-22T16:40:16Z","2025-03-22T16:40:18Z","2025-03-22T16:40:22Z","2025-03-22T16:40:24Z","2025-03-22T16:40:25Z","2025-03-22T16:40:29Z","2025-03-22T16:40:30Z","2025-03-22T16:40:32Z","2025-03-22T16:40:33Z","2025-03-22T16:40:36Z","2025-03-22T16:40:39Z","2025-03-22T16:40:41Z","2025-03-22T16:40:43Z","2025-03-22T16:40:44Z","2025-03-22T16:40:46Z","2025-03-22T16:40:47Z","2025-03-22T16:40:59Z","2025-03-22T16:41:00Z","2025-03-22T16:41:02Z","2025-03-22T16:41:06Z","2025-03-22T16:41:07Z","2025-03-22T16:41:08Z","2025-03-22T16:41:09Z","2025-03-22T16:41:10Z","2025-03-22T16:41:11Z","2025-03-22T16:41:13Z","2025-03-22T16:41:15Z","2025-03-22T16:41:17Z","2025-03-22T16:41:18Z","2025-03-22T16:41:20Z","2025-03-22T16:41:22Z","2025-03-22T16:41:24Z","2025-03-22T16:41:26Z","2025-03-22T16:41:28Z","2025-03-22T16:41:30Z","2025-03-22T16:41:31Z","2025-03-22T16:41:33Z","2025-03-22T16:41:34Z","2025-03-22T16:41:35Z","2025-03-22T16:41:38Z","2025-03-22T16:41:41Z","2025-03-22T16:41:43Z","2025-03-22T16:41:50Z","2025-03-22T16:42:20Z","2025-03-22T16:42:29Z","2025-03-22T16:42:36Z","2025-03-22T16:42:41Z","2025-03-22T16:42:44Z","2025-03-22T16:42:49Z","2025-03-22T16:42:50Z","2025-03-22T16:42:51Z","2025-03-22T16:42:53Z","2025-03-22T16:42:59Z","2025-03-22T16:43:04Z","2025-03-22T16:43:06Z","2025-03-22T16:43:08Z","2025-03-22T16:43:09Z","2025-03-22T16:43:13Z","2025-03-22T16:43:19Z","2025-03-22T16:43:20Z","2025-03-22T16:43:21Z","2025-03-22T16:43:26Z","2025-03-22T16:43:27Z","2025-03-22T16:43:28Z","2025-03-22T16:43:29Z","2025-03-22T16:43:32Z","2025-03-22T16:43:33Z","2025-03-22T16:43:36Z","2025-03-22T16:43:37Z","2025-03-22T16:43:39Z","2025-03-22T16:43:42Z","2025-03-22T16:43:43Z","2025-03-22T16:43:44Z","2025-03-22T16:43:47Z","2025-03-22T16:43:49Z","2025-03-22T16:43:51Z","2025-03-22T16:43:52Z","2025-03-22T16:43:53Z","2025-03-22T16:43:56Z","2025-03-22T16:43:58Z","2025-03-22T16:44:01Z","2025-03-22T16:44:02Z","2025-03-22T16:44:03Z","2025-03-22T16:44:05Z","2025-03-22T16:44:06Z","2025-03-22T16:44:07Z","2025-03-22T16:44:08Z","2025-03-22T16:44:09Z","2025-03-22T16:44:10Z","2025-03-22T16:44:11Z","2025-03-22T16:44:12Z","2025-03-22T16:44:13Z","2025-03-22T16:44:15Z","2025-03-22T16:44:17Z","2025-03-22T16:44:20Z","2025-03-22T16:44:21Z","2025-03-22T16:44:24Z","2025-03-22T16:44:26Z","2025-03-22T16:44:28Z","2025-03-22T16:44:29Z","2025-03-22T16:44:31Z","2025-03-22T16:44:33Z","2025-03-22T16:44:36Z","2025-03-22T16:44:37Z","2025-03-22T16:44:39Z","2025-03-22T16:44:40Z","2025-03-22T16:44:42Z","2025-03-22T16:44:43Z","2025-03-22T16:44:44Z","2025-03-22T16:44:47Z","2025-03-22T16:44:48Z","2025-03-22T16:44:50Z","2025-03-22T16:44:51Z","2025-03-22T16:44:52Z","2025-03-22T16:44:53Z","2025-03-22T16:44:54Z","2025-03-22T16:44:56Z","2025-03-22T16:44:57Z","2025-03-22T16:45:00Z","2025-03-22T16:45:01Z","2025-03-22T16:45:08Z","2025-03-22T16:45:09Z","2025-03-22T16:45:12Z","2025-03-22T16:45:14Z","2025-03-22T16:45:15Z","2025-03-22T16:45:20Z","2025-03-22T16:45:25Z","2025-03-22T16:45:27Z","2025-03-22T16:45:29Z","2025-03-22T16:45:30Z","2025-03-22T16:45:31Z","2025-03-22T16:45:32Z","2025-03-22T16:45:33Z","2025-03-22T16:45:36Z","2025-03-22T16:45:38Z","2025-03-22T16:45:39Z","2025-03-22T16:45:41Z","2025-03-22T16:45:43Z","2025-03-22T16:45:49Z","2025-03-22T16:45:51Z","2025-03-22T16:45:53Z","2025-03-22T16:45:55Z","2025-03-22T16:45:56Z","2025-03-22T16:45:58Z","2025-03-22T16:45:59Z","2025-03-22T16:46:01Z","2025-03-22T16:46:03Z","2025-03-22T16:46:05Z","2025-03-22T16:46:07Z","2025-03-22T16:46:08Z","2025-03-22T16:46:12Z","2025-03-22T16:46:16Z","2025-03-22T16:46:19Z","2025-03-22T16:46:21Z","2025-03-22T16:46:22Z","2025-03-22T16:46:23Z","2025-03-22T16:46:29Z","2025-03-22T16:46:30Z","2025-03-22T16:46:31Z","2025-03-22T16:46:32Z","2025-03-22T16:46:34Z","2025-03-22T16:46:37Z","2025-03-22T16:46:40Z","2025-03-22T16:46:42Z","2025-03-22T16:46:43Z","2025-03-22T16:46:44Z","2025-03-22T16:46:47Z","2025-03-22T16:46:51Z","2025-03-22T16:46:53Z","2025-03-22T16:46:58Z","2025-03-22T16:47:00Z","2025-03-22T16:47:02Z","2025-03-22T16:47:03Z","2025-03-22T16:47:05Z","2025-03-22T16:47:06Z","2025-03-22T16:47:07Z","2025-03-22T16:47:08Z","2025-03-22T16:47:10Z","2025-03-22T16:47:17Z","2025-03-22T16:47:19Z","2025-03-22T16:47:22Z","2025-03-22T16:47:23Z","2025-03-22T16:47:24Z","2025-03-22T16:47:27Z","2025-03-22T16:47:29Z","2025-03-22T16:47:30Z","2025-03-22T16:47:31Z","2025-03-22T16:47:47Z","2025-03-22T16:47:48Z","2025-03-22T16:47:49Z","2025-03-22T16:47:51Z","2025-03-22T16:47:52Z","2025-03-22T16:48:00Z","2025-03-22T16:48:01Z","2025-03-22T16:48:04Z","2025-03-22T16:48:05Z","2025-03-22T16:48:06Z","2025-03-22T16:48:07Z","2025-03-22T16:48:08Z","2025-03-22T16:48:09Z","2025-03-22T16:48:12Z","2025-03-22T16:48:13Z","2025-03-22T16:48:21Z","2025-03-22T16:48:23Z","2025-03-22T16:48:27Z","2025-03-22T16:48:30Z","2025-03-22T16:48:32Z","2025-03-22T16:48:35Z","2025-03-22T16:48:37Z","2025-03-22T16:48:38Z","2025-03-22T16:48:39Z","2025-03-22T16:48:41Z","2025-03-22T16:48:42Z","2025-03-22T16:48:46Z","2025-03-22T16:48:48Z","2025-03-22T16:48:49Z","2025-03-22T16:48:51Z","2025-03-22T16:48:53Z","2025-03-22T16:48:54Z","2025-03-22T16:48:55Z","2025-03-22T16:48:57Z","2025-03-22T16:48:58Z","2025-03-22T16:49:00Z","2025-03-22T16:49:01Z","2025-03-22T16:49:03Z","2025-03-22T16:49:08Z","2025-03-22T16:49:10Z","2025-03-22T16:49:12Z","2025-03-22T16:49:13Z","2025-03-22T16:49:15Z","2025-03-22T16:49:16Z","2025-03-22T16:49:17Z","2025-03-22T16:49:21Z","2025-03-22T16:49:22Z","2025-03-22T16:49:23Z","2025-03-22T16:49:24Z","2025-03-22T16:49:26Z","2025-03-22T16:49:27Z","2025-03-22T16:49:28Z","2025-03-22T16:49:33Z","2025-03-22T16:49:35Z","2025-03-22T16:49:37Z","2025-03-22T16:49:38Z","2025-03-22T16:49:39Z","2025-03-22T16:49:44Z","2025-03-22T16:49:46Z","2025-03-22T16:49:49Z","2025-03-22T16:49:52Z","2025-03-22T16:49:54Z","2025-03-22T16:49:55Z","2025-03-22T16:49:57Z","2025-03-22T16:50:04Z","2025-03-22T16:50:06Z","2025-03-22T16:50:08Z","2025-03-22T16:50:10Z","2025-03-22T16:50:13Z","2025-03-22T16:50:14Z","2025-03-22T16:50:17Z","2025-03-22T16:50:20Z","2025-03-22T16:50:21Z","2025-03-22T16:50:24Z","2025-03-22T16:50:25Z","2025-03-22T16:50:26Z","2025-03-22T16:50:28Z","2025-03-22T16:50:34Z","2025-03-22T16:50:35Z","2025-03-22T16:50:36Z","2025-03-22T16:50:37Z","2025-03-22T16:50:38Z","2025-03-22T16:50:39Z","2025-03-22T16:50:40Z","2025-03-22T16:50:41Z","2025-03-22T16:50:42Z","2025-03-22T16:50:43Z","2025-03-22T16:50:48Z","2025-03-22T16:50:49Z","2025-03-22T16:50:50Z","2025-03-22T16:50:53Z","2025-03-22T16:50:54Z","2025-03-22T16:51:00Z","2025-03-22T16:51:02Z","2025-03-22T16:51:03Z","2025-03-22T16:51:06Z","2025-03-22T16:51:11Z","2025-03-22T16:51:14Z","2025-03-22T16:51:17Z","2025-03-22T16:51:18Z","2025-03-22T16:51:19Z","2025-03-22T16:51:20Z","2025-03-22T16:51:26Z","2025-03-22T16:51:31Z","2025-03-22T16:51:35Z","2025-03-22T16:51:39Z","2025-03-22T16:51:43Z","2025-03-22T16:51:45Z","2025-03-22T16:51:46Z","2025-03-22T16:51:54Z","2025-03-22T16:51:58Z","2025-03-22T16:52:00Z","2025-03-22T16:52:04Z","2025-03-22T16:52:08Z","2025-03-22T16:52:11Z","2025-03-22T16:52:14Z","2025-03-22T16:52:17Z","2025-03-22T16:52:22Z","2025-03-22T16:52:24Z","2025-03-22T16:52:28Z","2025-03-22T16:52:37Z","2025-03-22T16:52:46Z","2025-03-22T16:52:50Z","2025-03-22T16:52:55Z","2025-03-22T16:52:57Z","2025-03-22T16:52:58Z","2025-03-22T16:53:04Z","2025-03-22T16:53:09Z","2025-03-22T16:53:11Z","2025-03-22T16:53:13Z","2025-03-22T16:53:14Z","2025-03-22T16:53:16Z","2025-03-22T16:53:18Z","2025-03-22T16:53:19Z","2025-03-22T16:53:22Z","2025-03-22T16:53:24Z","2025-03-22T16:53:27Z","2025-03-22T16:53:29Z","2025-03-22T16:53:30Z","2025-03-22T16:53:33Z","2025-03-22T16:53:34Z","2025-03-22T16:53:35Z","2025-03-22T16:53:36Z","2025-03-22T16:53:39Z","2025-03-22T16:53:41Z","2025-03-22T16:53:42Z","2025-03-22T16:53:44Z","2025-03-22T16:53:45Z","2025-03-22T16:53:46Z","2025-03-22T16:53:49Z","2025-03-22T16:53:50Z","2025-03-22T16:53:51Z","2025-03-22T16:53:52Z","2025-03-22T16:53:54Z","2025-03-22T16:53:57Z","2025-03-22T16:53:59Z","2025-03-22T16:54:00Z","2025-03-22T16:54:02Z","2025-03-22T16:54:04Z","2025-03-22T16:54:05Z","2025-03-22T16:54:06Z","2025-03-22T16:54:08Z","2025-03-22T16:54:13Z","2025-03-22T16:54:15Z","2025-03-22T16:54:19Z","2025-03-22T16:54:21Z","2025-03-22T16:54:24Z","2025-03-22T16:54:28Z","2025-03-22T16:54:30Z","2025-03-22T16:54:31Z","2025-03-22T16:54:32Z","2025-03-22T16:54:34Z","2025-03-22T16:54:35Z","2025-03-22T16:54:37Z","2025-03-22T16:54:40Z","2025-03-22T16:54:41Z","2025-03-22T16:54:42Z","2025-03-22T16:54:43Z","2025-03-22T16:54:45Z","2025-03-22T16:54:46Z","2025-03-22T16:54:49Z","2025-03-22T16:54:51Z","2025-03-22T16:54:52Z","2025-03-22T16:54:55Z","2025-03-22T16:54:57Z","2025-03-22T16:54:58Z","2025-03-22T16:55:01Z","2025-03-22T16:55:05Z","2025-03-22T16:55:07Z","2025-03-22T16:55:09Z","2025-03-22T16:55:11Z","2025-03-22T16:55:16Z","2025-03-22T16:55:19Z","2025-03-22T16:55:26Z","2025-03-22T16:55:31Z","2025-03-22T16:55:32Z","2025-03-22T16:55:33Z","2025-03-22T16:55:35Z","2025-03-22T16:55:36Z","2025-03-22T16:55:37Z","2025-03-22T16:55:39Z","2025-03-22T16:55:42Z","2025-03-22T16:55:43Z","2025-03-22T16:55:45Z","2025-03-22T16:55:46Z","2025-03-22T16:55:51Z","2025-03-22T16:55:54Z","2025-03-22T16:55:56Z","2025-03-22T16:55:59Z","2025-03-22T16:56:00Z","2025-03-22T16:56:02Z","2025-03-22T16:56:03Z","2025-03-22T16:56:04Z","2025-03-22T16:56:05Z","2025-03-22T16:56:07Z","2025-03-22T16:56:10Z","2025-03-22T16:56:11Z","2025-03-22T16:56:12Z","2025-03-22T16:56:16Z","2025-03-22T16:56:17Z","2025-03-22T16:56:18Z","2025-03-22T16:56:19Z","2025-03-22T16:56:21Z","2025-03-22T16:56:22Z","2025-03-22T16:56:26Z","2025-03-22T16:56:27Z","2025-03-22T16:56:30Z","2025-03-22T16:56:31Z","2025-03-22T16:56:33Z","2025-03-22T16:56:34Z","2025-03-22T16:56:38Z","2025-03-22T16:56:43Z","2025-03-22T16:56:46Z","2025-03-22T16:56:49Z","2025-03-22T16:56:51Z","2025-03-22T16:56:53Z","2025-03-22T16:56:57Z","2025-03-22T16:57:01Z","2025-03-22T16:57:08Z","2025-03-22T16:57:13Z","2025-03-22T16:57:16Z","2025-03-22T16:57:20Z","2025-03-22T16:57:22Z","2025-03-22T16:57:23Z","2025-03-22T16:57:25Z","2025-03-22T16:57:27Z","2025-03-22T16:57:29Z","2025-03-22T16:57:30Z","2025-03-22T16:57:31Z","2025-03-22T16:57:32Z","2025-03-22T16:57:33Z","2025-03-22T16:57:34Z","2025-03-22T16:57:38Z","2025-03-22T16:57:39Z","2025-03-22T16:57:40Z","2025-03-22T16:57:44Z","2025-03-22T16:57:52Z","2025-03-22T16:57:53Z","2025-03-22T16:57:55Z","2025-03-22T16:57:56Z","2025-03-22T16:57:57Z","2025-03-22T16:57:58Z","2025-03-22T16:58:00Z","2025-03-22T16:58:04Z","2025-03-22T16:58:06Z","2025-03-22T16:58:07Z","2025-03-22T16:58:12Z","2025-03-22T16:58:15Z","2025-03-22T16:58:16Z","2025-03-22T16:58:18Z","2025-03-22T16:58:19Z","2025-03-22T16:58:20Z","2025-03-22T16:58:21Z","2025-03-22T16:58:25Z","2025-03-22T16:58:26Z","2025-03-22T16:58:32Z","2025-03-22T16:58:35Z","2025-03-22T16:58:36Z","2025-03-22T16:58:39Z","2025-03-22T16:58:40Z","2025-03-22T16:58:41Z","2025-03-22T16:58:42Z","2025-03-22T16:58:43Z","2025-03-22T16:58:45Z","2025-03-22T16:58:47Z","2025-03-22T16:58:48Z","2025-03-22T16:58:51Z","2025-03-22T16:58:52Z","2025-03-22T16:58:54Z","2025-03-22T16:58:56Z","2025-03-22T16:58:58Z","2025-03-22T16:59:00Z","2025-03-22T16:59:03Z","2025-03-22T16:59:08Z","2025-03-22T16:59:10Z","2025-03-22T16:59:12Z","2025-03-22T16:59:13Z","2025-03-22T16:59:14Z","2025-03-22T16:59:19Z","2025-03-22T16:59:20Z","2025-03-22T16:59:22Z","2025-03-22T16:59:23Z","2025-03-22T16:59:24Z","2025-03-22T16:59:25Z","2025-03-22T16:59:26Z","2025-03-22T16:59:27Z","2025-03-22T16:59:28Z","2025-03-22T16:59:29Z","2025-03-22T16:59:31Z","2025-03-22T16:59:33Z","2025-03-22T16:59:35Z","2025-03-22T16:59:37Z","2025-03-22T16:59:40Z","2025-03-22T16:59:42Z","2025-03-22T16:59:44Z","2025-03-22T16:59:45Z","2025-03-22T16:59:46Z","2025-03-22T16:59:49Z","2025-03-22T16:59:51Z","2025-03-22T16:59:52Z","2025-03-22T16:59:53Z","2025-03-22T16:59:55Z","2025-03-22T16:59:57Z","2025-03-22T16:59:59Z","2025-03-22T17:00:01Z","2025-03-22T17:00:04Z","2025-03-22T17:00:07Z","2025-03-22T17:00:11Z","2025-03-22T17:00:14Z","2025-03-22T17:00:16Z","2025-03-22T17:00:24Z","2025-03-22T17:00:25Z","2025-03-22T17:00:29Z","2025-03-22T17:00:34Z","2025-03-22T17:00:38Z","2025-03-22T17:00:40Z","2025-03-22T17:00:42Z","2025-03-22T17:00:43Z","2025-03-22T17:00:44Z","2025-03-22T17:00:46Z","2025-03-22T17:00:50Z","2025-03-22T17:00:55Z","2025-03-22T17:00:58Z","2025-03-22T17:00:59Z","2025-03-22T17:01:00Z","2025-03-22T17:01:03Z","2025-03-22T17:01:07Z","2025-03-22T17:01:10Z","2025-03-22T17:01:11Z","2025-03-22T17:01:13Z","2025-03-22T17:01:15Z","2025-03-22T17:01:16Z","2025-03-22T17:01:18Z","2025-03-22T17:01:19Z","2025-03-22T17:01:20Z","2025-03-22T17:01:23Z","2025-03-22T17:01:27Z","2025-03-22T17:01:29Z","2025-03-22T17:01:30Z","2025-03-22T17:01:31Z","2025-03-22T17:01:34Z","2025-03-22T17:01:38Z","2025-03-22T17:01:40Z","2025-03-22T17:01:43Z","2025-03-22T17:01:45Z","2025-03-22T17:01:47Z","2025-03-22T17:01:49Z","2025-03-22T17:01:50Z","2025-03-22T17:01:51Z","2025-03-22T17:01:53Z","2025-03-22T17:01:55Z","2025-03-22T17:01:56Z","2025-03-22T17:01:58Z","2025-03-22T17:01:59Z","2025-03-22T17:02:00Z","2025-03-22T17:02:01Z","2025-03-22T17:02:02Z","2025-03-22T17:02:03Z","2025-03-22T17:02:09Z","2025-03-22T17:02:10Z","2025-03-22T17:02:12Z","2025-03-22T17:02:14Z","2025-03-22T17:02:15Z","2025-03-22T17:02:17Z","2025-03-22T17:02:21Z","2025-03-22T17:02:22Z","2025-03-22T17:02:25Z","2025-03-22T17:02:27Z","2025-03-22T17:02:29Z","2025-03-22T17:02:31Z","2025-03-22T17:02:33Z","2025-03-22T17:02:36Z","2025-03-22T17:02:37Z","2025-03-22T17:02:40Z","2025-03-22T17:02:42Z","2025-03-22T17:02:43Z","2025-03-22T17:02:45Z","2025-03-22T17:02:49Z","2025-03-22T17:02:51Z","2025-03-22T17:02:52Z","2025-03-22T17:02:55Z","2025-03-22T17:02:57Z","2025-03-22T17:03:01Z","2025-03-22T17:03:21Z","2025-03-22T17:03:30Z","2025-03-22T17:03:46Z","2025-03-22T17:03:52Z","2025-03-22T17:03:54Z","2025-03-22T17:04:03Z","2025-03-22T17:04:05Z","2025-03-22T17:04:08Z","2025-03-22T17:04:09Z","2025-03-22T17:04:13Z","2025-03-22T17:04:15Z","2025-03-22T17:04:16Z","2025-03-22T17:04:21Z","2025-03-22T17:04:25Z","2025-03-22T17:04:30Z","2025-03-22T17:04:33Z","2025-03-22T17:04:34Z","2025-03-22T17:04:35Z","2025-03-22T17:04:38Z","2025-03-22T17:04:41Z","2025-03-22T17:04:46Z","2025-03-22T17:04:50Z","2025-03-22T17:04:53Z","2025-03-22T17:04:54Z","2025-03-22T17:04:56Z","2025-03-22T17:04:57Z","2025-03-22T17:04:58Z","2025-03-22T17:05:00Z","2025-03-22T17:05:07Z","2025-03-22T17:05:08Z","2025-03-22T17:05:13Z","2025-03-22T17:05:14Z"],"heartRates":[133,129,128,128,128,128,124,124,124,124,124,126,126,126,122,122,122,122,122,122,122,124,124,122,122,120,120,119,119,119,119,119,125,125,125,125,125,125,125,125,125,133,133,133,137,137,137,137,137,140,140,140,140,145,145,145,145,147,147,147,147,145,145,144,144,146,146,146,147,147,147,149,149,149,149,151,151,151,151,152,152,152,154,154,154,154,154,154,154,153,151,151,151,151,151,151,151,151,151,153,153,150,150,148,148,148,146,146,146,145,145,145,146,146,148,148,148,148,148,148,148,148,150,150,150,150,150,150,150,150,149,149,149,148,148,148,148,148,148,147,147,147,147,147,146,146,148,148,148,148,148,148,147,147,148,148,148,148,148,148,146,146,146,146,146,146,150,150,150,151,151,151,151,155,155,155,158,158,158,158,158,156,156,156,156,156,155,154,154,154,155,155,155,155,155,155,153,153,151,151,151,150,150,147,147,143,142,142,142,142,142,142,142,140,140,140,140,140,140,140,140,143,143,143,148,148,148,151,153,153,153,154,153,153,153,153,152,152,152,152,150,150,149,149,148,148,150,150,150,150,154,154,154,154,157,157,156,156,156,154,154,149,149,146,145,145,145,144,144,144,144,145,145,145,141,141,141,141,139,139,139,139,141,141,141,141,141,146,146,146,146,146,146,146,147,147,147,147,147,146,146,146,146,149,149,149,149,149,149,155,155,156,152,152,152,152,156,156,156,158,156,153,153,153,154,154,154,154,154,154,154,162,162,160,160,160,160,159,160,160,160,160,160,160,166,164,164,161,161,161,159,159,158,158,158,155,155,155,155,153,153,154,154,154,154,155,155,152,151,151,152,152,152,152,152,151,151,151,149,149,147,147,147,147,146,146,146,145,145,145,147,147,146,146,146,146,146,141,141,141,144,144,144,144,144,145,145,145,145,145,154,154,157,157,157,159,159,159,159,159,159,156,156,154,146,137,138,138,138,138,138,138,138,138,141,141,141,141,150,150,157,157,156,156,156,156,155,155,155,155,155,155,155,155,159,159,159,159,159,160,160,157,157,157,157,157,157,157,157,157,157,157,157,157,157,168,168,170,170,170,170,170,169,169,168,168,168,168,168,168,166,166,166,166,166,166,167,167,167,167,167,169,168,168,164,164,163,161,162,162,162,162,162,162,167,167,167,167,167,172,170,170,170,170,168,168,168,168,168,168,168,170,170,167,167,165,165,165,166,166,166,166,163,163,163,163,163,161,160,160,160,157,158,158,158,158,158,158,158,161,160,160,160,160,159,159,159,159,157,157,157,157,157,163,163,161,161,161,161,161,163,164,164,166,166,164,163,162,162,159,159,159,158,158,158,158,158,160,160,160,160,160,160,160,160,159,159,157,157,157,157,158,158,158,158,158,159,159,159,159,162,162,162,162,163,162,162,161,159,159,159,159,158,158,158,160,160,160,162,161,161,160,160,160,159,158,158,158,158,158,158,158,158,158,158,159,159,159,159,159,158,158,158,156,154,153,153,150,150,150,149,145,145,144,144,140,140,139,139,139,140,140,136,136,136,134,134,137,136,133,133,132,133,133,138,136,136,136,136,136,136,136,138,138,139,140,140,142,142,142,142,145,147,147,147,147,147,142,142,142,140,140,141,141,141,148,148,148,148,153,157,157,157,157,156,156,156,156,156,154,154,154,157,157,157,157,157,157,157,157,157,156,156,156,156,156,156,156,160,160,160,158,157,157,157,157,157,157,157,159,159,159,159,158,158,157,157,157,157,155,155,155,154,154,155,155,155,155,155,161,161,163,163,165,165,165,165,166,166,166,163,162,162,161,161,158,155,155,154,154,150,150,150,148,148,148,150,150,150,150,150,150,155,155,152,152,152,153,153,153,153,153,156,156,154,154,154,155,155,155,155,160,160,160,159,159,159,159,159,159,159,159,160,160,160,160,163,163,164,164,164,161,160,160,160,160,159,159,159,159,159,163,163,163,163,165,167,167,167,167,168,168,165,165,165,164,164,164,162,162,160,160,160,160,160,160,159,159,152,152,149,148,148,149,149,149,149,149,151,151,149,149,149,148,148,150,150,150,150,151,151,151,151,151,154,154,156,156,156,157,157,157,157,157,156,156,156,156,156,156,153,153,153,153,153,153,159,159,159,159,158,158,159,159,159,161,161,161,161,166,166,169,169,169,169,169,168,168,164,164,161,151,145,137,133,133,136,136,135,135,137,137,137,138,137,137,138,138,138,138,141,140,140,140,137,136,136,136,136,135,135,135,135]},"geometry":{"type":"LineString","coordinates":[[2.563362,48.53369,38.9],[2.563498,48.533687,38.9],[2.563469,48.533711,38.9],[2.563471,48.5337,38.9],[2.563468,48.533713,38.9],[2.563456,48.533713,38.9],[2.56346,48.5337,38.9],[2.563449,48.533704,38.9],[2.563416,48.533693,39],[2.563419,48.533686,38.9],[2.563446,48.533714,38.9],[2.563461,48.533709,38.9],[2.563464,48.533695,38.9],[2.563475,48.5337,38.9],[2.563443,48.533698,38.9],[2.563415,48.533663,38.9],[2.563366,48.53365,38.8],[2.563348,48.533627,38.6],[2.56333,48.533619,38.6],[2.563324,48.533623,38.6],[2.563318,48.533614,38.6],[2.56331,48.533622,38.6],[2.563319,48.533633,38.8],[2.56333,48.533624,38.6],[2.563334,48.533629,38.6],[2.563321,48.533573,38.5],[2.563279,48.533545,38.4],[2.563286,48.53355,38.4],[2.563265,48.533571,38.4],[2.56325,48.533574,38.5],[2.563266,48.533574,38.5],[2.563265,48.533589,38.5],[2.563306,48.533595,38.5],[2.563295,48.533603,38.6],[2.563297,48.533589,38.5],[2.563316,48.533592,38.5],[2.56328,48.533598,38.5],[2.563262,48.533586,38.5],[2.563298,48.533597,38.5],[2.563297,48.53361,38.6],[2.563319,48.533623,38.6],[2.563324,48.533585,38.5],[2.563272,48.533568,38.4],[2.563284,48.533573,38.5],[2.563278,48.533581,38.5],[2.563237,48.533582,38.5],[2.563245,48.533563,38.3],[2.56324,48.533579,38.5],[2.56325,48.533554,38.4],[2.563277,48.53357,38.4],[2.563316,48.533561,38.3],[2.563302,48.533585,38.5],[2.563304,48.533559,38.3],[2.563293,48.533566,38.3],[2.563297,48.533572,38.3],[2.563308,48.533559,38.3],[2.563306,48.533573,38.5],[2.563312,48.533562,38.3],[2.563318,48.53357,38.3],[2.563307,48.533572,38.3],[2.563306,48.53356,38.3],[2.563251,48.533586,38.5],[2.563278,48.533656,38.8],[2.563289,48.533656,38.8],[2.563314,48.533694,39.1],[2.563366,48.533699,39],[2.563325,48.533653,38.8],[2.563285,48.533583,38.5],[2.563307,48.533568,38.3],[2.563312,48.533551,38.3],[2.563292,48.533559,38.3],[2.5633,48.53358,38.5],[2.563311,48.533571,38.3],[2.563309,48.533582,38.5],[2.563332,48.533552,38.3],[2.563306,48.53358,38.5],[2.563292,48.533583,38.5],[2.563282,48.533575,38.5],[2.563292,48.53358,38.5],[2.563278,48.533568,38.4],[2.563306,48.533558,38.3],[2.563346,48.533584,38.5],[2.563339,48.533572,38.3],[2.563321,48.533588,38.5],[2.563338,48.533567,38.3],[2.563312,48.533597,38.5],[2.563317,48.53359,38.5],[2.563335,48.533595,38.5],[2.563339,48.533575,38.5],[2.563285,48.533581,38.5],[2.563306,48.533587,38.5],[2.563301,48.533574,38.5],[2.563312,48.533563,38.3],[2.563308,48.533579,38.5],[2.563323,48.53359,38.5],[2.563297,48.533584,38.5],[2.563311,48.53358,38.5],[2.563272,48.533605,38.7],[2.563246,48.533609,38.7],[2.563218,48.533633,38.8],[2.563286,48.533663,39],[2.563293,48.533601,38.6],[2.563278,48.533575,38.5],[2.563283,48.533548,38.4],[2.563319,48.533535,38.2],[2.56325,48.533532,38.2],[2.563243,48.533542,38.2],[2.56326,48.533569,38.4],[2.563252,48.533574,38.5],[2.563264,48.533535,38.2],[2.563274,48.533563,38.4],[2.563261,48.533566,38.4],[2.563272,48.533607,38.7],[2.563278,48.533595,38.5],[2.563264,48.533607,38.7],[2.563256,48.533598,38.5],[2.563277,48.533598,38.5],[2.563251,48.533613,38.7],[2.563273,48.533611,38.7],[2.563274,48.533627,38.7],[2.563289,48.533637,38.8],[2.563289,48.533598,38.5],[2.563274,48.533609,38.7],[2.563287,48.5336,38.5],[2.563305,48.533607,38.6],[2.563377,48.533599,38.4],[2.563383,48.533584,38.4],[2.563354,48.533573,38.5],[2.563348,48.533563,38.3],[2.563325,48.533559,38.3],[2.563273,48.53357,38.4],[2.563303,48.53355,38.3],[2.563314,48.533562,38.3],[2.563305,48.533537,38.2],[2.563282,48.533564,38.4],[2.563291,48.533566,38.3],[2.563273,48.533568,38.4],[2.563299,48.533622,38.6],[2.563311,48.533628,38.6],[2.563327,48.533607,38.6],[2.563304,48.53357,38.3],[2.563297,48.533575,38.5],[2.563313,48.533562,38.3],[2.563294,48.533561,38.3],[2.563301,48.533552,38.3],[2.563296,48.533568,38.3],[2.563303,48.533564,38.3],[2.563284,48.533568,38.4],[2.563303,48.533565,38.3],[2.563289,48.533577,38.5],[2.563295,48.533556,38.3],[2.563268,48.533551,38.4],[2.563266,48.533562,38.4],[2.563242,48.533551,38.3],[2.563276,48.533581,38.5],[2.563302,48.533586,38.5],[2.563312,48.533565,38.3],[2.563349,48.533622,38.6],[2.563339,48.533643,38.8],[2.563344,48.533661,38.9],[2.563346,48.533638,38.8],[2.56334,48.533643,38.8],[2.563351,48.533649,38.8],[2.563341,48.533656,38.8],[2.563353,48.533652,38.8],[2.563333,48.533666,38.9],[2.56333,48.533648,38.8],[2.563348,48.533658,38.9],[2.563369,48.533655,38.8],[2.563365,48.533663,38.9],[2.563385,48.533653,38.7],[2.56337,48.533661,38.9],[2.563392,48.533663,38.9],[2.56341,48.533653,38.7],[2.563398,48.533664,38.9],[2.563399,48.533649,38.7],[2.563374,48.533659,38.9],[2.563385,48.533668,38.9],[2.563355,48.533697,39],[2.56337,48.533677,38.9],[2.563378,48.533682,38.9],[2.563345,48.533683,38.9],[2.563347,48.53369,39],[2.563319,48.533694,39.1],[2.563323,48.533701,39.1],[2.563309,48.533708,39.1],[2.563326,48.533701,39.1],[2.563324,48.53371,39.1],[2.563346,48.533713,39],[2.563344,48.533722,39.1],[2.56336,48.533676,38.9],[2.563381,48.533651,38.7],[2.563358,48.533633,38.8],[2.563361,48.533589,38.5],[2.563339,48.533566,38.3],[2.56334,48.533548,38.3],[2.563315,48.533545,38.3],[2.56332,48.53354,38.2],[2.56336,48.533565,38.3],[2.56334,48.533565,38.3],[2.563342,48.533554,38.3],[2.563371,48.53358,38.5],[2.563366,48.533601,38.6],[2.563337,48.533623,38.6],[2.563326,48.533608,38.6],[2.563333,48.533601,38.6],[2.56329,48.533548,38.4],[2.563269,48.533574,38.5],[2.563241,48.533584,38.5],[2.563259,48.53355,38.4],[2.563241,48.533547,38.3],[2.563261,48.533568,38.4],[2.563285,48.533572,38.4],[2.563325,48.533548,38.3],[2.563333,48.533556,38.3],[2.563286,48.53357,38.4],[2.563263,48.533504,38.1],[2.563298,48.533419,37.9],[2.56335,48.533331,37.8],[2.563307,48.533534,38.2],[2.563287,48.533539,38.2],[2.563288,48.533532,38.2],[2.563275,48.533556,38.4],[2.563261,48.533547,38.4],[2.563277,48.533527,38.2],[2.563314,48.533542,38.2],[2.563269,48.533559,38.4],[2.563308,48.533633,38.8],[2.563264,48.533633,38.8],[2.563221,48.533616,38.7],[2.563186,48.533613,38.7],[2.563208,48.533599,38.5],[2.563191,48.53362,38.7],[2.56323,48.533604,38.7],[2.563227,48.533624,38.7],[2.563221,48.533621,38.7],[2.563237,48.533607,38.7],[2.563256,48.533562,38.4],[2.563235,48.533535,38.2],[2.563205,48.533555,38.3],[2.563205,48.533579,38.5],[2.56323,48.533582,38.5],[2.563261,48.533558,38.4],[2.563238,48.53359,38.5],[2.563316,48.533492,38.1],[2.563242,48.533525,38.2],[2.563217,48.533554,38.3],[2.563216,48.533542,38.2],[2.563227,48.533552,38.3],[2.563209,48.533564,38.3],[2.563209,48.533546,38.3],[2.563232,48.533554,38.3],[2.563203,48.533554,38.3],[2.563242,48.533573,38.5],[2.563297,48.533571,38.3],[2.563363,48.533596,38.5],[2.563467,48.533609,38.5],[2.563477,48.533604,38.5],[2.563504,48.53362,38.5],[2.563522,48.533653,38.6],[2.563517,48.533662,38.7],[2.563466,48.533666,38.8],[2.563476,48.53367,38.8],[2.563462,48.533641,38.7],[2.56347,48.533642,38.6],[2.563455,48.533647,38.7],[2.563441,48.533681,38.8],[2.56342,48.533672,38.8],[2.563442,48.533671,38.8],[2.563433,48.533679,38.8],[2.563402,48.533669,38.9],[2.563386,48.533653,38.7],[2.563382,48.533627,38.6],[2.56332,48.53359,38.5],[2.563295,48.533587,38.5],[2.563303,48.533584,38.5],[2.563308,48.533593,38.5],[2.563317,48.533581,38.5],[2.563355,48.533567,38.3],[2.563347,48.53357,38.3],[2.563372,48.533538,38.2],[2.56343,48.533503,38],[2.563491,48.533493,38],[2.56351,48.533514,38],[2.563379,48.533587,38.4],[2.563373,48.533617,38.6],[2.563353,48.533555,38.3],[2.563334,48.533542,38.2],[2.563335,48.533568,38.3],[2.563301,48.533589,38.5],[2.563221,48.533567,38.3],[2.56322,48.533581,38.5],[2.563177,48.533547,38.3],[2.563186,48.533569,38.3],[2.563214,48.533587,38.5],[2.563225,48.533585,38.5],[2.563218,48.533567,38.3],[2.563237,48.533568,38.3],[2.563227,48.533569,38.3],[2.563338,48.533548,38.3],[2.563471,48.53355,38.2],[2.563257,48.533536,38.2],[2.563274,48.533534,38.2],[2.563242,48.533535,38.2],[2.563228,48.533547,38.3],[2.56324,48.533537,38.2],[2.563197,48.533549,38.3],[2.563186,48.53354,38.2],[2.563193,48.533534,38.2],[2.563183,48.533518,38.2],[2.563203,48.533519,38.2],[2.563305,48.533564,38.3],[2.563353,48.533561,38.3],[2.563281,48.53356,38.4],[2.563289,48.533551,38.4],[2.563303,48.533558,38.3],[2.56326,48.533629,38.7],[2.563263,48.533656,38.8],[2.563249,48.533676,39],[2.563188,48.533622,38.7],[2.563176,48.533588,38.5],[2.563215,48.533535,38.2],[2.563222,48.533589,38.5],[2.563265,48.533636,38.8],[2.563364,48.533702,39],[2.563444,48.53377,39.1],[2.563348,48.533621,38.6],[2.563366,48.533612,38.6],[2.563363,48.533597,38.5],[2.563328,48.533582,38.5],[2.563286,48.533536,38.2],[2.563241,48.533531,38.2],[2.563282,48.533543,38.2],[2.563338,48.533545,38.3],[2.563351,48.53356,38.3],[2.563309,48.533551,38.3],[2.563414,48.533622,38.6],[2.563528,48.533666,38.7],[2.563272,48.533561,38.4],[2.563312,48.533563,38.3],[2.563321,48.53355,38.3],[2.563307,48.533534,38.2],[2.563282,48.533528,38.2],[2.563246,48.533544,38.2],[2.563226,48.533537,38.2],[2.563272,48.533558,38.4],[2.563301,48.533558,38.3],[2.563376,48.533647,38.8],[2.563371,48.533624,38.6],[2.563345,48.533601,38.6],[2.563315,48.533598,38.5],[2.563316,48.533578,38.5],[2.563284,48.533561,38.4],[2.563271,48.533536,38.2],[2.563303,48.533528,38.2],[2.563312,48.533533,38.2],[2.563308,48.533556,38.3],[2.563321,48.533557,38.3],[2.563297,48.533565,38.3],[2.563292,48.533586,38.5],[2.563285,48.533579,38.5],[2.563269,48.533618,38.7],[2.563259,48.533615,38.7],[2.563235,48.533634,38.8],[2.563211,48.533625,38.7],[2.563245,48.53359,38.5],[2.563282,48.533578,38.5],[2.563302,48.53359,38.5],[2.563279,48.5336,38.5],[2.563289,48.533591,38.5],[2.563295,48.533606,38.6],[2.563284,48.533611,38.7],[2.563288,48.533579,38.5],[2.563309,48.533574,38.5],[2.563317,48.53356,38.3],[2.563342,48.533574,38.5],[2.563363,48.533558,38.3],[2.56337,48.533579,38.5],[2.56333,48.533596,38.5],[2.563329,48.533608,38.6],[2.563347,48.533589,38.5],[2.56332,48.533592,38.5],[2.563336,48.533569,38.3],[2.563359,48.533578,38.5],[2.563355,48.533582,38.5],[2.563362,48.533578,38.5],[2.563363,48.533594,38.5],[2.563355,48.533584,38.5],[2.563362,48.533598,38.5],[2.563364,48.533591,38.5],[2.563351,48.533587,38.5],[2.563352,48.533592,38.5],[2.563365,48.533582,38.5],[2.563291,48.533582,38.5],[2.563268,48.533576,38.5],[2.56327,48.533588,38.5],[2.563276,48.533579,38.5],[2.563297,48.533614,38.6],[2.563283,48.53362,38.7],[2.563288,48.533632,38.8],[2.563274,48.533648,38.8],[2.563266,48.533636,38.8],[2.563296,48.5336,38.5],[2.563307,48.533618,38.6],[2.563319,48.533604,38.6],[2.563317,48.533587,38.5],[2.563292,48.533599,38.5],[2.563315,48.533602,38.6],[2.563265,48.533614,38.7],[2.563255,48.533624,38.7],[2.563287,48.533601,38.7],[2.563253,48.533589,38.5],[2.563292,48.53359,38.5],[2.563305,48.533618,38.6],[2.563286,48.533649,38.8],[2.563267,48.533661,39],[2.563253,48.533656,38.8],[2.563225,48.533692,39.1],[2.563207,48.5337,39.1],[2.563203,48.533696,39.2],[2.56318,48.533706,39.2],[2.563224,48.533702,39.1],[2.563229,48.533691,39.1],[2.563311,48.533676,38.9],[2.563278,48.53369,39.1],[2.563268,48.533705,39.1],[2.563153,48.533735,39.4],[2.56317,48.533797,39.5],[2.563164,48.533833,39.5],[2.563198,48.533717,39.3],[2.563184,48.533692,39.2],[2.563156,48.533722,39.4],[2.563177,48.533774,39.5],[2.563146,48.533803,39.6],[2.563149,48.533823,39.6],[2.563166,48.533815,39.5],[2.563171,48.533796,39.5],[2.563159,48.533787,39.6],[2.563169,48.533771,39.4],[2.563153,48.533716,39.4],[2.563166,48.533711,39.2],[2.563211,48.533715,39.3],[2.563327,48.533812,39.3],[2.563318,48.533819,39.3],[2.563323,48.533839,39.3],[2.563307,48.533824,39.3],[2.563218,48.533814,39.4],[2.563221,48.533804,39.4],[2.563201,48.533817,39.5],[2.5632,48.533805,39.5],[2.563279,48.533831,39.4],[2.563153,48.533815,39.6],[2.563092,48.533815,39.7],[2.563162,48.533788,39.5],[2.563168,48.533772,39.5],[2.563158,48.533759,39.5],[2.563138,48.533757,39.5],[2.563142,48.533761,39.5],[2.563153,48.53375,39.5],[2.563155,48.533775,39.6],[2.563146,48.533782,39.6],[2.563154,48.533801,39.6],[2.563156,48.533794,39.6],[2.563157,48.533799,39.6],[2.563228,48.533809,39.4],[2.563199,48.533771,39.4],[2.56317,48.533804,39.5],[2.563201,48.533811,39.5],[2.563194,48.533807,39.5],[2.563167,48.533827,39.5],[2.563243,48.533734,39.3],[2.563213,48.533696,39.1],[2.563162,48.533699,39.2],[2.563182,48.533724,39.3],[2.563241,48.533757,39.3],[2.563265,48.53379,39.3],[2.563259,48.533795,39.3],[2.563288,48.533826,39.4],[2.56326,48.533828,39.4],[2.563235,48.533807,39.4],[2.563207,48.533802,39.4],[2.563181,48.533778,39.5],[2.563199,48.53378,39.5],[2.563185,48.533783,39.5],[2.563194,48.533789,39.5],[2.563175,48.533778,39.5],[2.563177,48.533795,39.5],[2.563251,48.533868,39.3],[2.563211,48.533807,39.4],[2.563211,48.533816,39.4],[2.563227,48.533792,39.4],[2.56321,48.533774,39.4],[2.563249,48.533747,39.3],[2.563238,48.533756,39.3],[2.563202,48.53375,39.4],[2.563187,48.533758,39.4],[2.563199,48.533739,39.3],[2.563169,48.533728,39.3],[2.563159,48.533709,39.2],[2.563171,48.533665,39],[2.563185,48.533652,38.9],[2.563177,48.533709,39.2],[2.563199,48.533723,39.3],[2.563205,48.53375,39.3],[2.563226,48.533775,39.4],[2.56321,48.533782,39.4],[2.563198,48.533765,39.4],[2.563181,48.5338,39.5],[2.563211,48.533772,39.4],[2.563191,48.533872,39.5],[2.563268,48.533794,39.3],[2.563284,48.533766,39.3],[2.563231,48.533738,39.3],[2.563171,48.53375,39.4],[2.563228,48.533781,39.4],[2.563256,48.53378,39.3],[2.563286,48.533794,39.3],[2.563332,48.533791,39.3],[2.563342,48.533782,39.2],[2.563268,48.533761,39.3],[2.563247,48.533772,39.4],[2.563256,48.533794,39.3],[2.56323,48.533786,39.4],[2.563206,48.533801,39.4],[2.563207,48.533864,39.4],[2.563199,48.533804,39.5],[2.563171,48.533816,39.5],[2.563155,48.53379,39.6],[2.563167,48.533747,39.4],[2.563189,48.533738,39.3],[2.563187,48.533749,39.4],[2.563227,48.533787,39.4],[2.563201,48.533808,39.5],[2.563172,48.533797,39.5],[2.563094,48.533831,39.7],[2.563186,48.533811,39.5],[2.563176,48.5338,39.5],[2.563203,48.533687,39.2],[2.563196,48.533705,39.2],[2.563212,48.533701,39.1],[2.563236,48.533737,39.3],[2.563298,48.533767,39.2],[2.563278,48.533788,39.3],[2.56317,48.533796,39.5],[2.5632,48.533794,39.5],[2.563187,48.533785,39.5],[2.563225,48.533771,39.3],[2.563187,48.533723,39.3],[2.563188,48.53365,38.9],[2.563191,48.533687,39.2],[2.563241,48.533764,39.3],[2.563236,48.533787,39.4],[2.563224,48.533783,39.4],[2.563225,48.53379,39.4],[2.563212,48.53378,39.4],[2.563212,48.533799,39.4],[2.563242,48.533831,39.4],[2.563213,48.533805,39.4],[2.56323,48.533829,39.4],[2.56322,48.533828,39.4],[2.563235,48.533798,39.4],[2.563233,48.533823,39.4],[2.563249,48.533837,39.4],[2.563275,48.533839,39.4],[2.563303,48.533858,39.3],[2.563284,48.533864,39.3],[2.563272,48.533836,39.4],[2.563257,48.533834,39.4],[2.563204,48.533879,39.5],[2.563194,48.533789,39.5],[2.563209,48.5338,39.4],[2.5632,48.533779,39.5],[2.563208,48.533767,39.3],[2.563195,48.533808,39.5],[2.563221,48.533797,39.4],[2.563203,48.533825,39.5],[2.563221,48.533835,39.4],[2.563204,48.533816,39.5],[2.563208,48.533827,39.4],[2.563231,48.533827,39.4],[2.563218,48.533821,39.4],[2.563189,48.533825,39.5],[2.5632,48.533827,39.5],[2.563227,48.533801,39.4],[2.563181,48.533779,39.5],[2.563164,48.533745,39.4],[2.563176,48.533711,39.2],[2.563192,48.533745,39.4],[2.563224,48.533775,39.4],[2.563245,48.533778,39.4],[2.563236,48.533796,39.4],[2.563222,48.533799,39.4],[2.563212,48.533817,39.4],[2.563204,48.533811,39.5],[2.563173,48.533924,39.4],[2.563218,48.533807,39.4],[2.563206,48.533806,39.4],[2.563216,48.533796,39.4],[2.563277,48.53382,39.4],[2.563308,48.533822,39.3],[2.56332,48.533811,39.3],[2.563355,48.533803,39.2],[2.563374,48.533818,39.2],[2.56339,48.533814,39.2],[2.563342,48.533809,39.2],[2.563303,48.533821,39.3],[2.563212,48.533827,39.4],[2.563236,48.533817,39.4],[2.56322,48.533811,39.4],[2.563224,48.533803,39.4],[2.563253,48.53388,39.3],[2.563205,48.53382,39.4],[2.563214,48.53382,39.4],[2.563212,48.53383,39.4],[2.563248,48.533832,39.4],[2.563268,48.533812,39.4],[2.563237,48.533787,39.4],[2.563255,48.533755,39.3],[2.563218,48.533738,39.3],[2.563253,48.533733,39.2],[2.563209,48.533759,39.3],[2.56321,48.533806,39.4],[2.563196,48.533824,39.5],[2.563161,48.533837,39.6],[2.563144,48.533854,39.6],[2.56325,48.533825,39.4],[2.563222,48.533803,39.4],[2.563185,48.533793,39.5],[2.563174,48.533804,39.5],[2.563164,48.533795,39.5],[2.563145,48.533809,39.6],[2.56316,48.533793,39.6],[2.563174,48.533826,39.5],[2.563211,48.5338,39.4],[2.563288,48.533799,39.3],[2.563243,48.533788,39.4],[2.563224,48.533811,39.4],[2.563226,48.533801,39.4],[2.563164,48.533797,39.5],[2.563222,48.53379,39.4],[2.563229,48.533779,39.4],[2.5632,48.533769,39.4],[2.56325,48.533774,39.3],[2.563274,48.533765,39.3],[2.563253,48.533782,39.3],[2.563204,48.533783,39.5],[2.563229,48.533799,39.4],[2.563268,48.533799,39.3],[2.563191,48.533802,39.5],[2.563116,48.533816,39.7],[2.563064,48.533804,39.8],[2.562961,48.533795,39.9],[2.563188,48.533758,39.4],[2.563168,48.533742,39.3],[2.563163,48.533708,39.2],[2.563275,48.533771,39.3],[2.563282,48.533796,39.3],[2.563243,48.533813,39.4],[2.563212,48.533817,39.4],[2.563243,48.533825,39.4],[2.563217,48.533771,39.3],[2.563215,48.533793,39.4],[2.563218,48.533776,39.4],[2.56318,48.533758,39.4],[2.56317,48.533723,39.3],[2.563151,48.533703,39.2],[2.563117,48.533701,39.3],[2.563134,48.5337,39.2],[2.56313,48.533692,39.2],[2.563139,48.533693,39.2],[2.563134,48.533699,39.2],[2.563161,48.53369,39.2],[2.563205,48.533699,39.1],[2.563289,48.533687,39.1],[2.563306,48.533639,38.8],[2.563304,48.533653,38.8],[2.563311,48.53365,38.8],[2.563277,48.533651,38.8],[2.563292,48.533665,38.9],[2.563281,48.533663,39],[2.563297,48.533649,38.8],[2.563284,48.533638,38.8],[2.563273,48.533641,38.8],[2.563286,48.533653,38.8],[2.563307,48.533657,38.8],[2.563294,48.533654,38.8],[2.563312,48.533662,38.9],[2.563287,48.533648,38.8],[2.563306,48.533665,38.9],[2.563293,48.533662,38.9],[2.563272,48.53367,39],[2.563256,48.533648,38.8],[2.563253,48.533663,39],[2.563267,48.533671,39],[2.563313,48.533755,39.2],[2.56332,48.533814,39.3],[2.563304,48.533839,39.3],[2.563277,48.533826,39.4],[2.563242,48.533828,39.4],[2.563232,48.533818,39.4],[2.563221,48.533826,39.4],[2.563211,48.533812,39.4],[2.563177,48.533801,39.5],[2.56317,48.533788,39.5],[2.563196,48.533767,39.4],[2.563231,48.533775,39.4],[2.563211,48.533765,39.3],[2.563228,48.533744,39.3],[2.563213,48.53374,39.3],[2.5632,48.533751,39.4],[2.563212,48.533757,39.3],[2.56324,48.533808,39.4],[2.563238,48.533803,39.4],[2.56323,48.53381,39.4],[2.563244,48.53383,39.4],[2.563244,48.53382,39.4],[2.563258,48.533821,39.4],[2.563275,48.533807,39.4],[2.563292,48.53382,39.3],[2.563295,48.533814,39.3],[2.56331,48.53382,39.3],[2.563292,48.533801,39.3],[2.563251,48.533791,39.3],[2.563236,48.533797,39.4],[2.563238,48.53381,39.4],[2.563221,48.533803,39.4],[2.563258,48.5338,39.4],[2.563239,48.533776,39.4],[2.563255,48.533764,39.3],[2.563211,48.533748,39.3],[2.563178,48.533711,39.2],[2.563187,48.53369,39.2],[2.563238,48.533733,39.3],[2.563253,48.533757,39.3],[2.563283,48.533774,39.3],[2.563238,48.533792,39.4],[2.563213,48.533789,39.4],[2.56321,48.5338,39.4],[2.563231,48.533836,39.4],[2.56318,48.533993,39.4],[2.563218,48.533812,39.4],[2.563235,48.533834,39.4],[2.563203,48.533837,39.5],[2.563196,48.533844,39.5],[2.563187,48.533841,39.5],[2.563208,48.533834,39.4],[2.563184,48.533806,39.5],[2.563198,48.533794,39.5],[2.563247,48.533786,39.4],[2.56323,48.533794,39.4],[2.563208,48.533789,39.4],[2.563183,48.533761,39.4],[2.563197,48.533748,39.4],[2.563167,48.533756,39.4],[2.563211,48.53377,39.3],[2.563172,48.533753,39.4],[2.563161,48.533763,39.5],[2.563171,48.53378,39.5],[2.563155,48.533777,39.6],[2.563143,48.533757,39.5],[2.563145,48.533777,39.6],[2.563144,48.533737,39.4],[2.563167,48.533733,39.3],[2.56318,48.533747,39.4],[2.563189,48.533735,39.3],[2.563223,48.533746,39.3],[2.563217,48.533736,39.3],[2.563188,48.533735,39.3],[2.563181,48.533754,39.4],[2.563194,48.53379,39.5],[2.563209,48.533797,39.4],[2.563247,48.533798,39.4],[2.563241,48.533806,39.4],[2.563241,48.533782,39.4],[2.563211,48.533776,39.4],[2.563198,48.533789,39.5],[2.563203,48.533801,39.5],[2.563189,48.533798,39.5],[2.563189,48.533808,39.5],[2.563182,48.533802,39.5],[2.563189,48.533797,39.5],[2.563204,48.533804,39.5],[2.563191,48.533796,39.5],[2.563191,48.533781,39.5],[2.563173,48.533777,39.5],[2.563162,48.533796,39.5],[2.563223,48.533728,39.3],[2.563212,48.533734,39.3],[2.563224,48.533735,39.3],[2.563204,48.533748,39.4],[2.563222,48.533725,39.3],[2.563261,48.533725,39.2],[2.563254,48.533807,39.4],[2.563241,48.533818,39.4],[2.563196,48.533819,39.5],[2.563229,48.533817,39.4],[2.563298,48.533829,39.3],[2.563293,48.533806,39.3],[2.563234,48.533763,39.3],[2.563189,48.533689,39.2],[2.563187,48.533659,39],[2.563213,48.533639,38.8],[2.563209,48.53366,39],[2.563198,48.533658,39],[2.563226,48.533663,39],[2.563216,48.533667,39],[2.563211,48.533641,38.8],[2.563161,48.533596,38.5],[2.563158,48.533573,38.5],[2.563182,48.53354,38.2],[2.563206,48.533564,38.3],[2.563223,48.533559,38.3],[2.563231,48.533539,38.2],[2.563272,48.533563,38.4],[2.563255,48.533526,38.2],[2.563313,48.533567,38.3],[2.563305,48.533566,38.3],[2.56331,48.53356,38.3],[2.563311,48.533578,38.5],[2.563283,48.533593,38.5],[2.563251,48.533581,38.5],[2.563247,48.533559,38.3],[2.56326,48.533544,38.2],[2.563224,48.533527,38.2],[2.563265,48.533609,38.7],[2.563238,48.533603,38.7],[2.563267,48.533613,38.7],[2.563269,48.533604,38.7],[2.56328,48.533618,38.7],[2.563298,48.533614,38.6],[2.563301,48.533584,38.5],[2.563338,48.533574,38.5],[2.56334,48.533583,38.5],[2.563347,48.533579,38.5],[2.563347,48.533606,38.6],[2.563434,48.53355,38.3],[2.563444,48.533584,38.4],[2.563411,48.533582,38.4],[2.56342,48.533612,38.5],[2.563397,48.533627,38.6],[2.563384,48.533627,38.6],[2.563407,48.533647,38.7],[2.563409,48.533627,38.6],[2.563372,48.533571,38.3],[2.563328,48.533573,38.5],[2.563338,48.533573,38.5],[2.563318,48.533576,38.5],[2.56332,48.533571,38.3],[2.563297,48.53359,38.5],[2.563299,48.533573,38.5],[2.563278,48.533564,38.4],[2.563259,48.533585,38.5],[2.563301,48.533604,38.6],[2.563285,48.533608,38.7],[2.563229,48.533574,38.5],[2.563232,48.533552,38.3],[2.563221,48.533531,38.2],[2.56324,48.53353,38.2],[2.563232,48.533561,38.3],[2.563241,48.533554,38.3],[2.563279,48.533563,38.4],[2.563294,48.533553,38.3],[2.563306,48.533564,38.3],[2.563316,48.533543,38.2],[2.56332,48.533549,38.3],[2.563324,48.533545,38.3],[2.563312,48.533587,38.5],[2.563299,48.533581,38.5],[2.56328,48.533598,38.5],[2.563314,48.53361,38.6],[2.563326,48.533561,38.3],[2.563315,48.533575,38.5],[2.56333,48.533581,38.5],[2.563295,48.533594,38.5],[2.563287,48.533584,38.5],[2.563276,48.533593,38.5],[2.563244,48.533596,38.5],[2.563225,48.533563,38.3],[2.563201,48.533557,38.3],[2.563236,48.533558,38.3],[2.563234,48.533523,38.2],[2.563252,48.533523,38.2],[2.563275,48.533535,38.2],[2.563265,48.533541,38.2],[2.563279,48.533545,38.4],[2.563255,48.533584,38.5],[2.563264,48.533595,38.5],[2.563271,48.533593,38.5],[2.563276,48.533603,38.7],[2.56326,48.533607,38.7],[2.563261,48.53362,38.7],[2.563288,48.533623,38.7],[2.563277,48.533602,38.7],[2.563285,48.533533,38.2],[2.5633,48.533509,38.1],[2.563315,48.533549,38.3],[2.563352,48.533576,38.5],[2.56339,48.533589,38.4],[2.563445,48.533636,38.7],[2.563436,48.533648,38.7],[2.563403,48.53364,38.7],[2.563371,48.533649,38.8],[2.563361,48.533661,38.9],[2.563353,48.533658,38.9],[2.563348,48.53367,38.9],[2.563359,48.533681,38.9],[2.56334,48.533682,38.9],[2.563336,48.533709,39],[2.563262,48.533749,39.3],[2.563206,48.533796,39.4],[2.56317,48.533788,39.5],[2.563174,48.533777,39.5],[2.56316,48.533775,39.6],[2.563153,48.533806,39.6],[2.563142,48.533784,39.6],[2.563153,48.533772,39.6],[2.563148,48.533779,39.6],[2.563161,48.533769,39.5],[2.563158,48.533757,39.5],[2.563152,48.533764,39.5],[2.563153,48.533743,39.4],[2.563156,48.533748,39.5],[2.563182,48.533742,39.3],[2.563169,48.533759,39.4],[2.563146,48.533708,39.2],[2.563149,48.533687,39.2],[2.56316,48.533681,39.1],[2.563167,48.533689,39.2],[2.56318,48.533674,39],[2.563225,48.533701,39.1],[2.56323,48.533712,39.1],[2.563207,48.533702,39.1],[2.563231,48.533729,39.3],[2.563252,48.533739,39.2],[2.563269,48.533771,39.3],[2.563264,48.533782,39.3],[2.563242,48.533777,39.4],[2.563241,48.533791,39.4],[2.563203,48.533786,39.5],[2.563204,48.533781,39.5],[2.563215,48.533893,39.4],[2.563282,48.533949,39.3],[2.563251,48.533824,39.4],[2.563278,48.533836,39.4],[2.563278,48.533849,39.4],[2.56325,48.533844,39.4],[2.563184,48.533814,39.5],[2.563144,48.533829,39.6],[2.563168,48.533813,39.5],[2.563156,48.533839,39.6],[2.563163,48.533844,39.5],[2.563138,48.53383,39.6],[2.563222,48.533801,39.4],[2.563221,48.533789,39.4],[2.563274,48.533793,39.3],[2.563234,48.533788,39.4],[2.56321,48.533772,39.4],[2.563194,48.533789,39.5],[2.563175,48.533781,39.5],[2.56319,48.533752,39.4],[2.563179,48.533738,39.3],[2.563198,48.533691,39.2],[2.563178,48.533667,39],[2.563186,48.533669,39],[2.563177,48.533673,39],[2.563209,48.533682,39],[2.563212,48.533664,39],[2.563241,48.53366,39],[2.563312,48.53369,39.1],[2.563331,48.533676,38.9],[2.56329,48.533636,38.8],[2.563215,48.533647,38.8],[2.563244,48.533641,38.8],[2.563161,48.533651,38.9],[2.56318,48.533644,38.9],[2.56317,48.533652,38.9],[2.563188,48.533655,38.9],[2.563178,48.533656,38.9],[2.563215,48.533656,38.8],[2.563217,48.533649,38.8],[2.563238,48.533678,39],[2.563247,48.533673,39],[2.563233,48.533671,39],[2.563232,48.533698,39.1],[2.563248,48.533707,39.1],[2.563259,48.533697,39.1],[2.563253,48.533704,39.1],[2.563261,48.533703,39.1],[2.563246,48.533703,39.1],[2.563251,48.533694,39.1],[2.563239,48.533691,39.1],[2.563253,48.533681,39],[2.563267,48.533692,39.1],[2.563293,48.533672,38.9],[2.563299,48.533678,38.9],[2.563314,48.533658,38.9],[2.563339,48.533661,38.9],[2.563348,48.53367,38.9],[2.563338,48.533689,39],[2.563348,48.533712,39],[2.563366,48.533716,39.1],[2.563327,48.533703,39.1],[2.563338,48.533697,39]]}}]}