{"type":"FeatureCollection","features":[{"type":"Feature","properties":{"name":"gps4cam trip started at: 2019-02-27T03:11:32Z","time":"2019-02-27T14:41:34Z","coordTimes":["2019-02-27T14:41:34Z","2019-02-27T14:46:34Z","2019-02-27T14:51:34Z","2019-02-27T14:56:35Z","2019-02-27T15:01:36Z","2019-02-27T15:06:36Z"],"type":"randonnée","month":"2019-02-01"},"geometry":{"type":"LineString","coordinates":[[36.108200498,-0.404866538],[36.108243817,-0.402843196],[36.108251731,-0.400952144],[36.108338991,-0.401622418],[36.108234298,-0.403247423],[36.107871853,-0.404739983]]}}]}