<?xml version="1.0" encoding="UTF-8"?>
<gpx version="1.1" creator="GPSBabel - https://www.gpsbabel.org" xmlns="http://www.topografix.com/GPX/1/1" xmlns:xsi="http://www.w3.org/2001/XMLSchema-instance" xmlns:gpxtpx="http://www.garmin.com/xmlschemas/TrackPointExtension/v1" xmlns:gpxx="http://www.garmin.com/xmlschemas/GpxExtensions/v3" xmlns:gpxpx="http://www.garmin.com/xmlschemas/PowerExtension/v1" xmlns:gpx_style="http://www.topografix.com/GPX/gpx_style/0/2">
  <metadata>
    <name>gps4cam trip started at 2018-08-11 12-16 decoded at 2018-08-15 09-35-37</name>
    <link href="http://gps4cam.com">
      <text>gps4cam</text>
    </link>
    <time>2025-09-11T12:33:13.936Z</time>
    <bounds minlat="41.693740696" minlon="44.786274797" maxlat="41.694996252" maxlon="44.787126806"/>
  </metadata>
  <trk>
    <name>gps4cam trip started at: 2018-08-11T10:16:14Z</name>
    <trkseg>
      <trkpt lat="41.693970329" lon="44.786591573">
        <time>2018-08-11T12:36:13Z</time>
      </trkpt>
      <trkpt lat="41.694463517" lon="44.786914925">
        <time>2018-08-11T12:41:13Z</time>
      </trkpt>
      <trkpt lat="41.694651369" lon="44.786623065">
        <time>2018-08-11T12:51:14Z</time>
      </trkpt>
      <trkpt lat="41.694615583" lon="44.786875243">
        <time>2018-08-11T12:56:13Z</time>
      </trkpt>
      <trkpt lat="41.694648964" lon="44.786628673">
        <time>2018-08-11T13:01:14Z</time>
      </trkpt>
      <trkpt lat="41.694624854" lon="44.786651154">
        <time>2018-08-11T13:06:14Z</time>
      </trkpt>
      <trkpt lat="41.694651369" lon="44.786623065">
        <time>2018-08-11T13:11:25Z</time>
      </trkpt>
      <trkpt lat="41.694931742" lon="44.786767832">
        <time>2018-08-11T13:16:23Z</time>
      </trkpt>
      <trkpt lat="41.694641787" lon="44.786667906">
        <time>2018-08-11T13:21:13Z</time>
      </trkpt>
      <trkpt lat="41.694653794" lon="44.786628659">
        <time>2018-08-11T13:26:14Z</time>
      </trkpt>
      <trkpt lat="41.694803125" lon="44.786404134">
        <time>2018-08-11T13:31:23Z</time>
      </trkpt>
      <trkpt lat="41.694767164" lon="44.786555487">
        <time>2018-08-11T13:36:26Z</time>
      </trkpt>
      <trkpt lat="41.694832355" lon="44.786549683">
        <time>2018-08-11T13:41:14Z</time>
      </trkpt>
      <trkpt lat="41.694788908" lon="44.786561021">
        <time>2018-08-11T13:46:14Z</time>
      </trkpt>
      <trkpt lat="41.694738128" lon="44.786521968">
        <time>2018-08-11T13:51:14Z</time>
      </trkpt>
      <trkpt lat="41.694670727" lon="44.786645410">
        <time>2018-08-11T13:56:14Z</time>
      </trkpt>
      <trkpt lat="41.694740630" lon="44.786572374">
        <time>2018-08-11T14:01:15Z</time>
      </trkpt>
      <trkpt lat="41.694697105" lon="44.786538900">
        <time>2018-08-11T14:06:15Z</time>
      </trkpt>
      <trkpt lat="41.694680250" lon="44.786566960">
        <time>2018-08-11T14:11:26Z</time>
      </trkpt>
      <trkpt lat="41.694794087" lon="44.786762658">
        <time>2018-08-11T14:16:15Z</time>
      </trkpt>
      <trkpt lat="41.694704961" lon="44.786891770">
        <time>2018-08-11T14:21:16Z</time>
      </trkpt>
      <trkpt lat="41.694812589" lon="44.786292075">
        <time>2018-08-11T14:26:15Z</time>
      </trkpt>
      <trkpt lat="41.694834741" lon="44.786532871">
        <time>2018-08-11T14:31:14Z</time>
      </trkpt>
      <trkpt lat="41.694810165" lon="44.786286481">
        <time>2018-08-11T14:41:29Z</time>
      </trkpt>
      <trkpt lat="41.694810301" lon="44.786364902">
        <time>2018-08-11T14:46:14Z</time>
      </trkpt>
      <trkpt lat="41.694938452" lon="44.786459728">
        <time>2018-08-11T14:51:13Z</time>
      </trkpt>
      <trkpt lat="41.694829891" lon="44.786521683">
        <time>2018-08-11T14:56:36Z</time>
      </trkpt>
      <trkpt lat="41.694945512" lon="44.786353278">
        <time>2018-08-11T15:01:14Z</time>
      </trkpt>
      <trkpt lat="41.694967449" lon="44.786470841">
        <time>2018-08-11T15:06:41Z</time>
      </trkpt>
      <trkpt lat="41.694950322" lon="44.786342060">
        <time>2018-08-11T15:11:15Z</time>
      </trkpt>
      <trkpt lat="41.694947936" lon="44.786358872">
        <time>2018-08-11T15:16:14Z</time>
      </trkpt>
      <trkpt lat="41.694952727" lon="44.786336451">
        <time>2018-08-11T15:21:14Z</time>
      </trkpt>
      <trkpt lat="41.694928773" lon="44.786448556">
        <time>2018-08-11T15:26:14Z</time>
      </trkpt>
      <trkpt lat="41.694947956" lon="44.786370075">
        <time>2018-08-11T15:31:14Z</time>
      </trkpt>
      <trkpt lat="41.694926349" lon="44.786442962">
        <time>2018-08-11T15:36:15Z</time>
      </trkpt>
      <trkpt lat="41.694945492" lon="44.786342075">
        <time>2018-08-11T15:41:13Z</time>
      </trkpt>
      <trkpt lat="41.694892716" lon="44.786543893">
        <time>2018-08-11T15:56:22Z</time>
      </trkpt>
      <trkpt lat="41.694940682" lon="44.786353293">
        <time>2018-08-11T16:01:15Z</time>
      </trkpt>
      <trkpt lat="41.694947936" lon="44.786358872">
        <time>2018-08-11T16:06:15Z</time>
      </trkpt>
      <trkpt lat="41.694940663" lon="44.786342090">
        <time>2018-08-11T16:11:14Z</time>
      </trkpt>
      <trkpt lat="41.694933525" lon="44.786403729">
        <time>2018-08-11T16:16:15Z</time>
      </trkpt>
      <trkpt lat="41.694931023" lon="44.786353323">
        <time>2018-08-11T16:21:14Z</time>
      </trkpt>
      <trkpt lat="41.694945512" lon="44.786353278">
        <time>2018-08-11T16:26:14Z</time>
      </trkpt>
      <trkpt lat="41.694902200" lon="44.786443037">
        <time>2018-08-11T16:31:14Z</time>
      </trkpt>
      <trkpt lat="41.694952727" lon="44.786336451">
        <time>2018-08-11T16:36:14Z</time>
      </trkpt>
      <trkpt lat="41.694950341" lon="44.786353263">
        <time>2018-08-11T16:41:14Z</time>
      </trkpt>
      <trkpt lat="41.694943087" lon="44.786347684">
        <time>2018-08-11T16:46:14Z</time>
      </trkpt>
      <trkpt lat="41.694926426" lon="44.786487773">
        <time>2018-08-11T16:51:15Z</time>
      </trkpt>
      <trkpt lat="41.694940702" lon="44.786364496">
        <time>2018-08-11T16:56:14Z</time>
      </trkpt>
      <trkpt lat="41.694996252" lon="44.786369924">
        <time>2018-08-11T17:01:15Z</time>
      </trkpt>
      <trkpt lat="41.694906972" lon="44.786409413">
        <time>2018-08-11T17:11:15Z</time>
      </trkpt>
      <trkpt lat="41.694940721" lon="44.786375699">
        <time>2018-08-11T17:16:14Z</time>
      </trkpt>
      <trkpt lat="41.694938258" lon="44.786347699">
        <time>2018-08-11T17:21:31Z</time>
      </trkpt>
      <trkpt lat="41.694892735" lon="44.786555096">
        <time>2018-08-11T17:26:13Z</time>
      </trkpt>
      <trkpt lat="41.694929065" lon="44.786616600">
        <time>2018-08-11T17:31:13Z</time>
      </trkpt>
      <trkpt lat="41.694933467" lon="44.786370120">
        <time>2018-08-11T17:36:33Z</time>
      </trkpt>
      <trkpt lat="41.694940663" lon="44.786342090">
        <time>2018-08-11T17:41:14Z</time>
      </trkpt>
      <trkpt lat="41.694955152" lon="44.786342045">
        <time>2018-08-11T17:46:14Z</time>
      </trkpt>
      <trkpt lat="41.694955132" lon="44.786330842">
        <time>2018-08-11T17:56:15Z</time>
      </trkpt>
      <trkpt lat="41.694938296" lon="44.786370105">
        <time>2018-08-11T18:06:15Z</time>
      </trkpt>
      <trkpt lat="41.694936241" lon="44.786577367">
        <time>2018-08-11T18:11:14Z</time>
      </trkpt>
      <trkpt lat="41.694943087" lon="44.786347684">
        <time>2018-08-11T18:16:15Z</time>
      </trkpt>
      <trkpt lat="41.694947917" lon="44.786347669">
        <time>2018-08-11T18:21:15Z</time>
      </trkpt>
      <trkpt lat="41.694940702" lon="44.786364496">
        <time>2018-08-11T18:31:15Z</time>
      </trkpt>
      <trkpt lat="41.694952727" lon="44.786336451">
        <time>2018-08-11T18:36:15Z</time>
      </trkpt>
      <trkpt lat="41.694921480" lon="44.786420571">
        <time>2018-08-11T18:41:14Z</time>
      </trkpt>
      <trkpt lat="41.694940702" lon="44.786364496">
        <time>2018-08-11T18:46:15Z</time>
      </trkpt>
      <trkpt lat="41.694940760" lon="44.786398105">
        <time>2018-08-11T18:51:15Z</time>
      </trkpt>
      <trkpt lat="41.694950283" lon="44.786319654">
        <time>2018-08-11T19:01:15Z</time>
      </trkpt>
      <trkpt lat="41.694777812" lon="44.787126806">
        <time>2018-08-11T19:11:22Z</time>
      </trkpt>
      <trkpt lat="41.694740824" lon="44.786684403">
        <time>2018-08-11T19:16:14Z</time>
      </trkpt>
      <trkpt lat="41.694753044" lon="44.786768387">
        <time>2018-08-11T19:21:13Z</time>
      </trkpt>
      <trkpt lat="41.694702381" lon="44.786796552">
        <time>2018-08-11T19:26:14Z</time>
      </trkpt>
      <trkpt lat="41.694918939" lon="44.786347759">
        <time>2018-08-11T19:31:14Z</time>
      </trkpt>
      <trkpt lat="41.694952669" lon="44.786302842">
        <time>2018-08-11T19:36:14Z</time>
      </trkpt>
      <trkpt lat="41.694779694" lon="44.786818718">
        <time>2018-08-11T19:46:15Z</time>
      </trkpt>
      <trkpt lat="41.694770539" lon="44.787110024">
        <time>2018-08-11T19:51:16Z</time>
      </trkpt>
      <trkpt lat="41.694805432" lon="44.786342511">
        <time>2018-08-11T19:56:27Z</time>
      </trkpt>
      <trkpt lat="41.694986670" lon="44.786414766">
        <time>2018-08-11T20:01:13Z</time>
      </trkpt>
      <trkpt lat="41.694964694" lon="44.786274797">
        <time>2018-08-11T20:06:14Z</time>
      </trkpt>
      <trkpt lat="41.694957517" lon="44.786314030">
        <time>2018-08-11T20:16:14Z</time>
      </trkpt>
      <trkpt lat="41.694940623" lon="44.786319684">
        <time>2018-08-11T20:21:14Z</time>
      </trkpt>
      <trkpt lat="41.694955132" lon="44.786330842">
        <time>2018-08-11T20:26:14Z</time>
      </trkpt>
      <trkpt lat="41.694962328" lon="44.786302812">
        <time>2018-08-11T20:31:15Z</time>
      </trkpt>
      <trkpt lat="41.694955093" lon="44.786308436">
        <time>2018-08-11T20:36:14Z</time>
      </trkpt>
      <trkpt lat="41.694933544" lon="44.786414931">
        <time>2018-08-11T20:46:15Z</time>
      </trkpt>
      <trkpt lat="41.694926290" lon="44.786409353">
        <time>2018-08-11T20:51:15Z</time>
      </trkpt>
      <trkpt lat="41.694952688" lon="44.786314045">
        <time>2018-08-11T21:01:14Z</time>
      </trkpt>
      <trkpt lat="41.694743093" lon="44.786600373">
        <time>2018-08-11T21:06:14Z</time>
      </trkpt>
      <trkpt lat="41.693987125" lon="44.786529905">
        <time>2018-08-11T21:11:13Z</time>
      </trkpt>
      <trkpt lat="41.693740696" lon="44.786463454">
        <time>2018-08-11T21:16:14Z</time>
      </trkpt>
      <trkpt lat="41.693774542" lon="44.786485754">
        <time>2018-08-11T21:21:14Z</time>
      </trkpt>
      <trkpt lat="41.694789140" lon="44.786695456">
        <time>2018-08-11T21:26:13Z</time>
      </trkpt>
    </trkseg>
  </trk>
</gpx>
