{"type":"FeatureCollection","features":[{"type":"Feature","properties":{"name":"Petite squadratinade de saison","type":"gravel","time":"2025-01-25T15:08:54Z","coordTimes":["2025-01-25T15:08:54Z","2025-01-25T15:08:55Z","2025-01-25T15:08:56Z","2025-01-25T15:08:57Z","2025-01-25T15:08:59Z","2025-01-25T15:09:02Z","2025-01-25T15:09:05Z","2025-01-25T15:09:38Z","2025-01-25T15:09:39Z","2025-01-25T15:09:44Z","2025-01-25T15:09:52Z","2025-01-25T15:09:55Z","2025-01-25T15:09:58Z","2025-01-25T15:10:02Z","2025-01-25T15:10:03Z","2025-01-25T15:10:04Z","2025-01-25T15:10:06Z","2025-01-25T15:10:08Z","2025-01-25T15:10:16Z","2025-01-25T15:10:17Z","2025-01-25T15:10:18Z","2025-01-25T15:10:19Z","2025-01-25T15:10:21Z","2025-01-25T15:10:24Z","2025-01-25T15:10:36Z","2025-01-25T15:10:40Z","2025-01-25T15:10:46Z","2025-01-25T15:10:47Z","2025-01-25T15:10:49Z","2025-01-25T15:10:50Z","2025-01-25T15:10:53Z","2025-01-25T15:10:55Z","2025-01-25T15:11:16Z","2025-01-25T15:11:19Z","2025-01-25T15:11:20Z","2025-01-25T15:11:29Z","2025-01-25T15:11:34Z","2025-01-25T15:11:36Z","2025-01-25T15:11:38Z","2025-01-25T15:11:40Z","2025-01-25T15:11:49Z","2025-01-25T15:11:51Z","2025-01-25T15:11:57Z","2025-01-25T15:12:15Z","2025-01-25T15:12:17Z","2025-01-25T15:12:19Z","2025-01-25T15:12:21Z","2025-01-25T15:12:25Z","2025-01-25T15:12:40Z","2025-01-25T15:12:41Z","2025-01-25T15:12:42Z","2025-01-25T15:12:43Z","2025-01-25T15:12:44Z","2025-01-25T15:12:46Z","2025-01-25T15:12:47Z","2025-01-25T15:12:52Z","2025-01-25T15:13:15Z","2025-01-25T15:13:18Z","2025-01-25T15:13:21Z","2025-01-25T15:13:23Z","2025-01-25T15:13:25Z","2025-01-25T15:13:26Z","2025-01-25T15:13:36Z","2025-01-25T15:13:39Z","2025-01-25T15:13:44Z","2025-01-25T15:13:46Z","2025-01-25T15:14:17Z","2025-01-25T15:14:19Z","2025-01-25T15:14:20Z","2025-01-25T15:14:21Z","2025-01-25T15:14:23Z","2025-01-25T15:14:30Z","2025-01-25T15:14:37Z","2025-01-25T15:14:38Z","2025-01-25T15:14:39Z","2025-01-25T15:14:40Z","2025-01-25T15:14:41Z","2025-01-25T15:14:45Z","2025-01-25T15:14:46Z","2025-01-25T15:14:48Z","2025-01-25T15:14:49Z","2025-01-25T15:14:51Z","2025-01-25T15:14:55Z","2025-01-25T15:14:57Z","2025-01-25T15:14:58Z","2025-01-25T15:15:06Z","2025-01-25T15:15:07Z","2025-01-25T15:15:08Z","2025-01-25T15:15:09Z","2025-01-25T15:15:11Z","2025-01-25T15:15:12Z","2025-01-25T15:15:15Z","2025-01-25T15:15:19Z","2025-01-25T15:15:20Z","2025-01-25T15:15:29Z","2025-01-25T15:15:31Z","2025-01-25T15:15:34Z","2025-01-25T15:15:43Z","2025-01-25T15:15:45Z","2025-01-25T15:15:51Z","2025-01-25T15:15:54Z","2025-01-25T15:15:55Z","2025-01-25T15:15:56Z","2025-01-25T15:15:57Z","2025-01-25T15:16:00Z","2025-01-25T15:16:04Z","2025-01-25T15:16:06Z","2025-01-25T15:16:12Z","2025-01-25T15:16:30Z","2025-01-25T15:16:31Z","2025-01-25T15:16:32Z","2025-01-25T15:16:34Z","2025-01-25T15:16:38Z","2025-01-25T15:16:41Z","2025-01-25T15:16:44Z","2025-01-25T15:16:48Z","2025-01-25T15:17:19Z","2025-01-25T15:17:23Z","2025-01-25T15:17:27Z","2025-01-25T15:17:56Z","2025-01-25T15:17:58Z","2025-01-25T15:18:05Z","2025-01-25T15:18:06Z","2025-01-25T15:18:17Z","2025-01-25T15:18:19Z","2025-01-25T15:18:20Z","2025-01-25T15:18:23Z","2025-01-25T15:18:29Z","2025-01-25T15:18:30Z","2025-01-25T15:18:43Z","2025-01-25T15:18:46Z","2025-01-25T15:18:47Z","2025-01-25T15:18:48Z","2025-01-25T15:18:51Z","2025-01-25T15:19:01Z","2025-01-25T15:19:05Z","2025-01-25T15:19:08Z","2025-01-25T15:19:12Z","2025-01-25T15:19:21Z","2025-01-25T15:19:30Z","2025-01-25T15:19:34Z","2025-01-25T15:19:37Z","2025-01-25T15:19:38Z","2025-01-25T15:19:40Z","2025-01-25T15:20:01Z","2025-01-25T15:20:02Z","2025-01-25T15:20:03Z","2025-01-25T15:20:04Z","2025-01-25T15:20:05Z","2025-01-25T15:20:06Z","2025-01-25T15:20:09Z","2025-01-25T15:20:10Z","2025-01-25T15:20:16Z","2025-01-25T15:20:21Z","2025-01-25T15:20:22Z","2025-01-25T15:20:23Z","2025-01-25T15:20:24Z","2025-01-25T15:20:26Z","2025-01-25T15:20:30Z","2025-01-25T15:20:31Z","2025-01-25T15:20:45Z","2025-01-25T15:21:08Z","2025-01-25T15:21:09Z","2025-01-25T15:21:10Z","2025-01-25T15:21:12Z","2025-01-25T15:21:20Z","2025-01-25T15:21:26Z","2025-01-25T15:21:27Z","2025-01-25T15:21:28Z","2025-01-25T15:21:29Z","2025-01-25T15:21:32Z","2025-01-25T15:21:34Z","2025-01-25T15:21:40Z","2025-01-25T15:21:41Z","2025-01-25T15:21:44Z","2025-01-25T15:21:56Z","2025-01-25T15:21:58Z","2025-01-25T15:22:03Z","2025-01-25T15:22:15Z","2025-01-25T15:22:16Z","2025-01-25T15:22:17Z","2025-01-25T15:22:18Z","2025-01-25T15:22:19Z","2025-01-25T15:22:23Z","2025-01-25T15:22:31Z","2025-01-25T15:22:35Z","2025-01-25T15:22:47Z","2025-01-25T15:22:50Z","2025-01-25T15:22:54Z","2025-01-25T15:22:55Z","2025-01-25T15:22:56Z","2025-01-25T15:23:01Z","2025-01-25T15:23:19Z","2025-01-25T15:23:21Z","2025-01-25T15:23:23Z","2025-01-25T15:23:31Z","2025-01-25T15:23:33Z","2025-01-25T15:23:38Z","2025-01-25T15:23:40Z","2025-01-25T15:23:45Z","2025-01-25T15:23:53Z","2025-01-25T15:24:08Z","2025-01-25T15:24:15Z","2025-01-25T15:24:17Z","2025-01-25T15:24:20Z","2025-01-25T15:24:26Z","2025-01-25T15:24:28Z","2025-01-25T15:24:37Z","2025-01-25T15:24:41Z","2025-01-25T15:24:45Z","2025-01-25T15:24:51Z","2025-01-25T15:25:03Z","2025-01-25T15:25:04Z","2025-01-25T15:25:05Z","2025-01-25T15:25:06Z","2025-01-25T15:25:23Z","2025-01-25T15:25:29Z","2025-01-25T15:25:30Z","2025-01-25T15:25:33Z","2025-01-25T15:25:34Z","2025-01-25T15:25:37Z","2025-01-25T15:25:40Z","2025-01-25T15:25:42Z","2025-01-25T15:25:45Z","2025-01-25T15:25:47Z","2025-01-25T15:25:52Z","2025-01-25T15:25:59Z","2025-01-25T15:26:02Z","2025-01-25T15:26:07Z","2025-01-25T15:26:09Z","2025-01-25T15:26:17Z","2025-01-25T15:27:28Z","2025-01-25T15:27:30Z","2025-01-25T15:27:36Z","2025-01-25T15:27:49Z","2025-01-25T15:28:00Z","2025-01-25T15:28:02Z","2025-01-25T15:28:04Z","2025-01-25T15:28:10Z","2025-01-25T15:28:14Z","2025-01-25T15:28:18Z","2025-01-25T15:28:25Z","2025-01-25T15:28:26Z","2025-01-25T15:28:27Z","2025-01-25T15:28:28Z","2025-01-25T15:28:33Z","2025-01-25T15:28:34Z","2025-01-25T15:28:35Z","2025-01-25T15:28:38Z","2025-01-25T15:28:39Z","2025-01-25T15:28:42Z","2025-01-25T15:28:43Z","2025-01-25T15:28:45Z","2025-01-25T15:28:46Z","2025-01-25T15:28:47Z","2025-01-25T15:28:49Z","2025-01-25T15:28:53Z","2025-01-25T15:28:56Z","2025-01-25T15:28:57Z","2025-01-25T15:28:58Z","2025-01-25T15:28:59Z","2025-01-25T15:29:06Z","2025-01-25T15:29:09Z","2025-01-25T15:29:14Z","2025-01-25T15:29:15Z","2025-01-25T15:29:16Z","2025-01-25T15:29:17Z","2025-01-25T15:29:24Z","2025-01-25T15:29:34Z","2025-01-25T15:29:38Z","2025-01-25T15:29:47Z","2025-01-25T15:29:48Z","2025-01-25T15:29:51Z","2025-01-25T15:29:54Z","2025-01-25T15:30:01Z","2025-01-25T15:30:06Z","2025-01-25T15:30:16Z","2025-01-25T15:30:20Z","2025-01-25T15:30:21Z","2025-01-25T15:30:25Z","2025-01-25T15:30:28Z","2025-01-25T15:30:31Z","2025-01-25T15:30:32Z","2025-01-25T15:30:34Z","2025-01-25T15:30:37Z","2025-01-25T15:30:39Z","2025-01-25T15:30:40Z","2025-01-25T15:30:45Z","2025-01-25T15:30:50Z","2025-01-25T15:30:52Z","2025-01-25T15:30:53Z","2025-01-25T15:30:54Z","2025-01-25T15:30:55Z","2025-01-25T15:30:56Z","2025-01-25T15:31:03Z","2025-01-25T15:31:06Z","2025-01-25T15:31:12Z","2025-01-25T15:31:22Z","2025-01-25T15:31:24Z","2025-01-25T15:31:28Z","2025-01-25T15:31:29Z","2025-01-25T15:31:30Z","2025-01-25T15:31:31Z","2025-01-25T15:31:33Z","2025-01-25T15:31:52Z","2025-01-25T15:31:53Z","2025-01-25T15:31:58Z","2025-01-25T15:32:00Z","2025-01-25T15:32:04Z","2025-01-25T15:32:09Z","2025-01-25T15:32:10Z","2025-01-25T15:32:11Z","2025-01-25T15:32:12Z","2025-01-25T15:32:14Z","2025-01-25T15:32:15Z","2025-01-25T15:32:17Z","2025-01-25T15:32:18Z","2025-01-25T15:32:20Z","2025-01-25T15:32:37Z","2025-01-25T15:32:43Z","2025-01-25T15:32:46Z","2025-01-25T15:32:49Z","2025-01-25T15:33:02Z","2025-01-25T15:33:08Z","2025-01-25T15:33:12Z","2025-01-25T15:33:17Z","2025-01-25T15:33:24Z","2025-01-25T15:33:27Z","2025-01-25T15:33:28Z","2025-01-25T15:33:31Z","2025-01-25T15:33:45Z","2025-01-25T15:33:57Z","2025-01-25T15:34:08Z","2025-01-25T15:34:11Z","2025-01-25T15:34:16Z","2025-01-25T15:34:17Z","2025-01-25T15:34:18Z","2025-01-25T15:34:19Z","2025-01-25T15:34:22Z","2025-01-25T15:34:23Z","2025-01-25T15:34:24Z","2025-01-25T15:34:25Z","2025-01-25T15:34:26Z","2025-01-25T15:34:27Z","2025-01-25T15:34:28Z","2025-01-25T15:34:29Z","2025-01-25T15:34:30Z","2025-01-25T15:35:02Z","2025-01-25T15:35:03Z","2025-01-25T15:35:07Z","2025-01-25T15:35:09Z","2025-01-25T15:35:14Z","2025-01-25T15:35:18Z","2025-01-25T15:35:21Z","2025-01-25T15:35:25Z","2025-01-25T15:35:27Z","2025-01-25T15:35:29Z","2025-01-25T15:35:37Z","2025-01-25T15:35:41Z","2025-01-25T15:35:45Z","2025-01-25T15:35:51Z","2025-01-25T15:35:53Z","2025-01-25T15:35:57Z","2025-01-25T15:36:42Z","2025-01-25T15:36:43Z","2025-01-25T15:36:47Z","2025-01-25T15:36:53Z","2025-01-25T15:36:55Z","2025-01-25T15:37:02Z","2025-01-25T15:37:04Z","2025-01-25T15:37:05Z","2025-01-25T15:37:06Z","2025-01-25T15:37:08Z","2025-01-25T15:37:10Z","2025-01-25T15:37:11Z","2025-01-25T15:37:14Z","2025-01-25T15:37:15Z","2025-01-25T15:37:17Z","2025-01-25T15:37:18Z","2025-01-25T15:37:24Z","2025-01-25T15:37:26Z","2025-01-25T15:37:28Z","2025-01-25T15:37:30Z","2025-01-25T15:37:36Z","2025-01-25T15:37:37Z","2025-01-25T15:37:40Z","2025-01-25T15:37:41Z","2025-01-25T15:37:42Z","2025-01-25T15:37:43Z","2025-01-25T15:37:44Z","2025-01-25T15:37:45Z","2025-01-25T15:37:46Z","2025-01-25T15:37:48Z","2025-01-25T15:37:50Z","2025-01-25T15:37:57Z","2025-01-25T15:38:07Z","2025-01-25T15:38:09Z","2025-01-25T15:38:12Z","2025-01-25T15:38:16Z","2025-01-25T15:38:18Z","2025-01-25T15:38:19Z","2025-01-25T15:38:22Z","2025-01-25T15:38:23Z","2025-01-25T15:38:29Z","2025-01-25T15:38:32Z","2025-01-25T15:38:34Z","2025-01-25T15:38:46Z","2025-01-25T15:38:54Z","2025-01-25T15:39:13Z","2025-01-25T15:39:16Z","2025-01-25T15:39:17Z","2025-01-25T15:39:18Z","2025-01-25T15:39:19Z","2025-01-25T15:39:21Z","2025-01-25T15:39:22Z","2025-01-25T15:39:26Z","2025-01-25T15:39:29Z","2025-01-25T15:39:30Z","2025-01-25T15:39:39Z","2025-01-25T15:39:44Z","2025-01-25T15:39:45Z","2025-01-25T15:39:46Z","2025-01-25T15:39:49Z","2025-01-25T15:39:51Z","2025-01-25T15:39:52Z","2025-01-25T15:39:53Z","2025-01-25T15:40:07Z","2025-01-25T15:40:09Z","2025-01-25T15:40:18Z","2025-01-25T15:40:21Z","2025-01-25T15:40:24Z","2025-01-25T15:41:03Z","2025-01-25T15:41:13Z","2025-01-25T15:41:15Z","2025-01-25T15:41:21Z","2025-01-25T15:41:26Z","2025-01-25T15:41:27Z","2025-01-25T15:41:29Z","2025-01-25T15:41:30Z","2025-01-25T15:41:31Z","2025-01-25T15:41:34Z","2025-01-25T15:41:35Z","2025-01-25T15:41:38Z","2025-01-25T15:41:40Z","2025-01-25T15:41:42Z","2025-01-25T15:41:44Z","2025-01-25T15:41:45Z","2025-01-25T15:41:48Z","2025-01-25T15:41:51Z","2025-01-25T15:41:53Z","2025-01-25T15:41:55Z","2025-01-25T15:41:57Z","2025-01-25T15:41:58Z","2025-01-25T15:41:59Z","2025-01-25T15:42:00Z","2025-01-25T15:42:02Z","2025-01-25T15:42:06Z","2025-01-25T15:42:07Z","2025-01-25T15:42:10Z","2025-01-25T15:42:15Z","2025-01-25T15:42:17Z","2025-01-25T15:42:19Z","2025-01-25T15:42:25Z","2025-01-25T15:42:29Z","2025-01-25T15:42:30Z","2025-01-25T15:42:32Z","2025-01-25T15:42:33Z","2025-01-25T15:42:35Z","2025-01-25T15:42:38Z","2025-01-25T15:42:39Z","2025-01-25T15:42:43Z","2025-01-25T15:42:45Z","2025-01-25T15:42:48Z","2025-01-25T15:42:50Z","2025-01-25T15:42:58Z","2025-01-25T15:43:02Z","2025-01-25T15:43:06Z","2025-01-25T15:43:09Z","2025-01-25T15:43:12Z","2025-01-25T15:43:13Z","2025-01-25T15:43:21Z","2025-01-25T15:43:26Z","2025-01-25T15:43:58Z","2025-01-25T15:44:04Z","2025-01-25T15:44:09Z","2025-01-25T15:44:14Z","2025-01-25T15:44:21Z","2025-01-25T15:44:28Z","2025-01-25T15:45:48Z","2025-01-25T15:45:51Z","2025-01-25T15:45:55Z","2025-01-25T15:45:57Z","2025-01-25T15:45:58Z","2025-01-25T15:46:05Z","2025-01-25T15:46:10Z","2025-01-25T15:46:12Z","2025-01-25T15:46:15Z","2025-01-25T15:46:25Z","2025-01-25T15:46:26Z","2025-01-25T15:46:28Z","2025-01-25T15:46:31Z","2025-01-25T15:46:35Z","2025-01-25T15:46:40Z","2025-01-25T15:46:42Z","2025-01-25T15:46:50Z","2025-01-25T15:46:51Z","2025-01-25T15:46:52Z","2025-01-25T15:46:55Z","2025-01-25T15:46:56Z","2025-01-25T15:46:58Z","2025-01-25T15:47:01Z","2025-01-25T15:47:04Z","2025-01-25T15:47:06Z","2025-01-25T15:47:11Z","2025-01-25T15:47:12Z","2025-01-25T15:47:18Z","2025-01-25T15:47:25Z","2025-01-25T15:47:28Z","2025-01-25T15:47:31Z","2025-01-25T15:47:34Z","2025-01-25T15:47:35Z","2025-01-25T15:47:37Z","2025-01-25T15:47:38Z","2025-01-25T15:47:39Z","2025-01-25T15:47:42Z","2025-01-25T15:47:48Z","2025-01-25T15:47:50Z","2025-01-25T15:48:51Z","2025-01-25T15:49:04Z","2025-01-25T15:49:13Z","2025-01-25T15:49:16Z","2025-01-25T15:49:17Z","2025-01-25T15:49:20Z","2025-01-25T15:49:23Z","2025-01-25T15:49:24Z","2025-01-25T15:49:25Z","2025-01-25T15:49:26Z","2025-01-25T15:49:28Z","2025-01-25T15:49:31Z","2025-01-25T15:49:34Z","2025-01-25T15:49:35Z","2025-01-25T15:49:36Z","2025-01-25T15:49:43Z","2025-01-25T15:49:44Z","2025-01-25T15:49:46Z","2025-01-25T15:50:00Z","2025-01-25T15:50:06Z","2025-01-25T15:50:10Z","2025-01-25T15:50:11Z","2025-01-25T15:50:12Z","2025-01-25T15:50:14Z","2025-01-25T15:50:16Z","2025-01-25T15:50:18Z","2025-01-25T15:50:19Z","2025-01-25T15:50:20Z","2025-01-25T15:50:22Z","2025-01-25T15:50:25Z","2025-01-25T15:50:30Z","2025-01-25T15:50:32Z","2025-01-25T15:50:33Z","2025-01-25T15:50:34Z","2025-01-25T15:50:38Z","2025-01-25T15:50:39Z","2025-01-25T15:50:44Z","2025-01-25T15:50:49Z","2025-01-25T15:50:52Z","2025-01-25T15:50:55Z","2025-01-25T15:51:02Z","2025-01-25T15:51:26Z","2025-01-25T15:51:37Z","2025-01-25T15:51:40Z","2025-01-25T15:51:43Z","2025-01-25T15:51:44Z","2025-01-25T15:51:45Z","2025-01-25T15:51:52Z","2025-01-25T15:51:54Z","2025-01-25T15:51:56Z","2025-01-25T15:51:58Z","2025-01-25T15:52:02Z","2025-01-25T15:52:03Z","2025-01-25T15:52:13Z","2025-01-25T15:52:18Z","2025-01-25T15:52:21Z","2025-01-25T15:52:29Z","2025-01-25T15:52:31Z","2025-01-25T15:52:32Z","2025-01-25T15:52:34Z","2025-01-25T15:52:35Z","2025-01-25T15:52:37Z","2025-01-25T15:52:38Z","2025-01-25T15:52:40Z","2025-01-25T15:52:43Z","2025-01-25T15:52:45Z","2025-01-25T15:52:46Z","2025-01-25T15:52:48Z","2025-01-25T15:52:54Z","2025-01-25T15:52:56Z","2025-01-25T15:53:01Z","2025-01-25T15:53:04Z","2025-01-25T15:53:08Z","2025-01-25T15:53:10Z","2025-01-25T15:53:13Z","2025-01-25T15:53:15Z","2025-01-25T15:53:20Z","2025-01-25T15:53:21Z","2025-01-25T15:53:26Z","2025-01-25T15:53:30Z","2025-01-25T15:53:31Z","2025-01-25T15:53:34Z","2025-01-25T15:53:38Z","2025-01-25T15:53:42Z","2025-01-25T15:53:43Z","2025-01-25T15:53:51Z","2025-01-25T15:57:33Z","2025-01-25T15:57:37Z","2025-01-25T15:57:43Z","2025-01-25T16:00:23Z","2025-01-25T16:00:27Z","2025-01-25T16:00:37Z","2025-01-25T16:00:38Z","2025-01-25T16:00:42Z","2025-01-25T16:00:51Z","2025-01-25T16:00:53Z","2025-01-25T16:00:57Z","2025-01-25T16:01:01Z","2025-01-25T16:01:03Z","2025-01-25T16:01:06Z","2025-01-25T16:01:09Z","2025-01-25T16:01:14Z","2025-01-25T16:01:17Z","2025-01-25T16:01:18Z","2025-01-25T16:01:19Z","2025-01-25T16:01:20Z","2025-01-25T16:01:25Z","2025-01-25T16:01:26Z","2025-01-25T16:01:27Z","2025-01-25T16:01:28Z","2025-01-25T16:01:30Z","2025-01-25T16:01:32Z","2025-01-25T16:01:34Z","2025-01-25T16:01:35Z","2025-01-25T16:01:36Z","2025-01-25T16:01:47Z","2025-01-25T16:01:49Z","2025-01-25T16:01:52Z","2025-01-25T16:01:54Z","2025-01-25T16:01:56Z","2025-01-25T16:02:03Z","2025-01-25T16:02:06Z","2025-01-25T16:02:09Z","2025-01-25T16:02:12Z","2025-01-25T16:02:36Z","2025-01-25T16:02:38Z","2025-01-25T16:02:42Z","2025-01-25T16:02:45Z","2025-01-25T16:02:48Z","2025-01-25T16:02:54Z","2025-01-25T16:02:56Z","2025-01-25T16:02:58Z","2025-01-25T16:03:00Z","2025-01-25T16:03:05Z","2025-01-25T16:03:06Z","2025-01-25T16:03:10Z","2025-01-25T16:03:13Z","2025-01-25T16:03:15Z","2025-01-25T16:03:17Z","2025-01-25T16:03:20Z","2025-01-25T16:03:22Z","2025-01-25T16:03:31Z","2025-01-25T16:03:34Z","2025-01-25T16:03:39Z","2025-01-25T16:03:41Z","2025-01-25T16:03:45Z","2025-01-25T16:03:46Z","2025-01-25T16:03:47Z","2025-01-25T16:03:48Z","2025-01-25T16:03:49Z","2025-01-25T16:03:57Z","2025-01-25T16:04:01Z","2025-01-25T16:04:02Z","2025-01-25T16:04:03Z","2025-01-25T16:04:04Z","2025-01-25T16:04:05Z","2025-01-25T16:04:06Z","2025-01-25T16:04:12Z","2025-01-25T16:04:13Z","2025-01-25T16:04:15Z","2025-01-25T16:04:18Z","2025-01-25T16:04:21Z","2025-01-25T16:04:24Z","2025-01-25T16:04:26Z","2025-01-25T16:04:27Z","2025-01-25T16:04:30Z","2025-01-25T16:04:34Z","2025-01-25T16:04:40Z","2025-01-25T16:04:44Z","2025-01-25T16:04:52Z","2025-01-25T16:04:55Z","2025-01-25T16:05:02Z","2025-01-25T16:05:04Z","2025-01-25T16:05:08Z","2025-01-25T16:05:11Z","2025-01-25T16:05:19Z","2025-01-25T16:05:24Z","2025-01-25T16:05:26Z","2025-01-25T16:05:28Z","2025-01-25T16:05:30Z","2025-01-25T16:05:34Z","2025-01-25T16:05:36Z","2025-01-25T16:05:39Z","2025-01-25T16:05:43Z","2025-01-25T16:05:45Z","2025-01-25T16:05:48Z","2025-01-25T16:05:51Z","2025-01-25T16:05:54Z","2025-01-25T16:05:57Z","2025-01-25T16:05:58Z","2025-01-25T16:06:12Z","2025-01-25T16:06:16Z","2025-01-25T16:06:17Z","2025-01-25T16:06:21Z","2025-01-25T16:06:25Z","2025-01-25T16:06:31Z","2025-01-25T16:06:32Z","2025-01-25T16:06:36Z","2025-01-25T16:06:38Z","2025-01-25T16:06:44Z","2025-01-25T16:06:48Z","2025-01-25T16:06:53Z","2025-01-25T16:06:58Z","2025-01-25T16:07:03Z","2025-01-25T16:07:05Z","2025-01-25T16:07:23Z","2025-01-25T16:07:52Z","2025-01-25T16:07:58Z","2025-01-25T16:07:59Z","2025-01-25T16:08:01Z","2025-01-25T16:08:03Z","2025-01-25T16:08:08Z","2025-01-25T16:08:10Z","2025-01-25T16:08:13Z","2025-01-25T16:08:15Z","2025-01-25T16:08:19Z","2025-01-25T16:08:22Z","2025-01-25T16:08:26Z","2025-01-25T16:08:28Z","2025-01-25T16:08:31Z","2025-01-25T16:08:38Z","2025-01-25T16:08:41Z","2025-01-25T16:08:43Z","2025-01-25T16:08:49Z","2025-01-25T16:08:52Z","2025-01-25T16:09:27Z","2025-01-25T16:09:30Z","2025-01-25T16:09:36Z","2025-01-25T16:09:43Z","2025-01-25T16:10:19Z","2025-01-25T16:10:22Z","2025-01-25T16:10:24Z","2025-01-25T16:10:27Z","2025-01-25T16:10:31Z","2025-01-25T16:10:39Z","2025-01-25T16:10:42Z","2025-01-25T16:10:48Z","2025-01-25T16:11:00Z","2025-01-25T16:11:07Z","2025-01-25T16:11:10Z","2025-01-25T16:11:23Z","2025-01-25T16:11:33Z","2025-01-25T16:11:34Z","2025-01-25T16:11:35Z","2025-01-25T16:11:39Z","2025-01-25T16:11:41Z","2025-01-25T16:11:47Z","2025-01-25T16:11:52Z","2025-01-25T16:11:55Z","2025-01-25T16:11:57Z","2025-01-25T16:11:59Z","2025-01-25T16:12:02Z","2025-01-25T16:12:03Z","2025-01-25T16:12:06Z","2025-01-25T16:12:11Z","2025-01-25T16:12:13Z","2025-01-25T16:12:14Z","2025-01-25T16:12:16Z","2025-01-25T16:12:27Z","2025-01-25T16:12:33Z","2025-01-25T16:12:36Z","2025-01-25T16:12:37Z","2025-01-25T16:12:38Z","2025-01-25T16:12:39Z","2025-01-25T16:12:42Z","2025-01-25T16:12:49Z","2025-01-25T16:12:53Z","2025-01-25T16:12:58Z","2025-01-25T16:13:00Z","2025-01-25T16:13:02Z","2025-01-25T16:13:04Z","2025-01-25T16:13:08Z","2025-01-25T16:13:12Z","2025-01-25T16:13:15Z","2025-01-25T16:13:17Z","2025-01-25T16:13:18Z","2025-01-25T16:13:20Z","2025-01-25T16:13:24Z","2025-01-25T16:13:26Z","2025-01-25T16:13:30Z","2025-01-25T16:13:32Z","2025-01-25T16:13:37Z","2025-01-25T16:13:39Z","2025-01-25T16:13:40Z","2025-01-25T16:13:42Z","2025-01-25T16:13:46Z","2025-01-25T16:13:49Z","2025-01-25T16:13:51Z","2025-01-25T16:13:55Z","2025-01-25T16:13:57Z","2025-01-25T16:13:59Z","2025-01-25T16:14:00Z","2025-01-25T16:14:02Z","2025-01-25T16:14:05Z","2025-01-25T16:14:09Z","2025-01-25T16:14:16Z","2025-01-25T16:14:17Z","2025-01-25T16:14:20Z","2025-01-25T16:14:22Z","2025-01-25T16:14:25Z","2025-01-25T16:14:28Z","2025-01-25T16:14:31Z","2025-01-25T16:14:33Z","2025-01-25T16:14:34Z","2025-01-25T16:14:40Z","2025-01-25T16:14:45Z","2025-01-25T16:14:50Z","2025-01-25T16:14:53Z","2025-01-25T16:14:55Z","2025-01-25T16:14:59Z","2025-01-25T16:15:02Z","2025-01-25T16:15:04Z","2025-01-25T16:15:08Z","2025-01-25T16:15:14Z","2025-01-25T16:15:16Z","2025-01-25T16:15:17Z","2025-01-25T16:15:34Z","2025-01-25T16:15:37Z","2025-01-25T16:15:38Z","2025-01-25T16:15:40Z","2025-01-25T16:15:41Z","2025-01-25T16:15:43Z","2025-01-25T16:15:50Z","2025-01-25T16:15:57Z","2025-01-25T16:15:58Z","2025-01-25T16:16:00Z","2025-01-25T16:16:10Z","2025-01-25T16:16:21Z","2025-01-25T16:16:29Z","2025-01-25T16:16:38Z","2025-01-25T16:16:46Z","2025-01-25T16:16:48Z","2025-01-25T16:16:52Z","2025-01-25T16:16:55Z","2025-01-25T16:16:57Z","2025-01-25T16:17:03Z","2025-01-25T16:17:08Z","2025-01-25T16:17:17Z","2025-01-25T16:17:20Z","2025-01-25T16:17:25Z","2025-01-25T16:17:27Z","2025-01-25T16:17:40Z","2025-01-25T16:18:01Z","2025-01-25T16:18:05Z","2025-01-25T16:18:14Z","2025-01-25T16:18:15Z","2025-01-25T16:18:16Z","2025-01-25T16:18:18Z","2025-01-25T16:18:19Z","2025-01-25T16:18:20Z","2025-01-25T16:18:24Z","2025-01-25T16:18:26Z","2025-01-25T16:18:27Z","2025-01-25T16:18:30Z","2025-01-25T16:18:34Z","2025-01-25T16:18:38Z","2025-01-25T16:18:39Z","2025-01-25T16:18:43Z","2025-01-25T16:18:44Z","2025-01-25T16:18:45Z","2025-01-25T16:18:49Z","2025-01-25T16:18:51Z","2025-01-25T16:18:52Z","2025-01-25T16:18:59Z","2025-01-25T16:19:01Z","2025-01-25T16:19:03Z","2025-01-25T16:19:04Z","2025-01-25T16:19:06Z","2025-01-25T16:19:10Z","2025-01-25T16:19:16Z","2025-01-25T16:19:18Z","2025-01-25T16:19:23Z","2025-01-25T16:19:26Z","2025-01-25T16:19:29Z","2025-01-25T16:19:30Z","2025-01-25T16:19:31Z","2025-01-25T16:19:32Z","2025-01-25T16:19:35Z","2025-01-25T16:19:39Z","2025-01-25T16:19:46Z","2025-01-25T16:19:48Z","2025-01-25T16:19:51Z","2025-01-25T16:19:58Z","2025-01-25T16:20:00Z","2025-01-25T16:20:04Z","2025-01-25T16:20:07Z","2025-01-25T16:22:42Z","2025-01-25T16:22:49Z","2025-01-25T16:22:55Z","2025-01-25T16:22:59Z","2025-01-25T16:23:01Z","2025-01-25T16:23:03Z","2025-01-25T16:23:05Z","2025-01-25T16:23:12Z","2025-01-25T16:23:13Z","2025-01-25T16:23:14Z","2025-01-25T16:23:16Z","2025-01-25T16:23:20Z","2025-01-25T16:23:22Z","2025-01-25T16:23:23Z","2025-01-25T16:23:27Z","2025-01-25T16:23:34Z","2025-01-25T16:23:43Z","2025-01-25T16:23:46Z","2025-01-25T16:23:47Z","2025-01-25T16:23:48Z","2025-01-25T16:23:50Z","2025-01-25T16:23:53Z","2025-01-25T16:23:55Z","2025-01-25T16:23:57Z","2025-01-25T16:24:02Z","2025-01-25T16:24:05Z","2025-01-25T16:24:11Z","2025-01-25T16:24:17Z","2025-01-25T16:24:19Z","2025-01-25T16:24:26Z","2025-01-25T16:24:29Z","2025-01-25T16:24:31Z","2025-01-25T16:24:36Z","2025-01-25T16:24:59Z","2025-01-25T16:25:05Z","2025-01-25T16:25:07Z","2025-01-25T16:25:09Z","2025-01-25T16:25:13Z","2025-01-25T16:25:28Z","2025-01-25T16:25:31Z","2025-01-25T16:25:32Z","2025-01-25T16:25:36Z","2025-01-25T16:25:39Z","2025-01-25T16:25:43Z","2025-01-25T16:25:44Z","2025-01-25T16:25:45Z","2025-01-25T16:25:47Z","2025-01-25T16:25:49Z","2025-01-25T16:26:00Z","2025-01-25T16:26:14Z","2025-01-25T16:26:19Z","2025-01-25T16:26:27Z","2025-01-25T16:26:30Z","2025-01-25T16:26:46Z","2025-01-25T16:26:51Z","2025-01-25T16:26:53Z","2025-01-25T16:27:02Z","2025-01-25T16:27:03Z","2025-01-25T16:27:10Z","2025-01-25T16:27:21Z","2025-01-25T16:27:25Z","2025-01-25T16:27:27Z","2025-01-25T16:27:37Z","2025-01-25T16:27:39Z","2025-01-25T16:28:04Z","2025-01-25T16:28:09Z","2025-01-25T16:28:10Z","2025-01-25T16:28:11Z"],"heartRates":[112,110,110,110,110,109,109,114,114,113,118,118,119,118,118,118,118,119,118,118,118,118,114,114,122,127,127,127,127,127,127,127,120,120,120,119,119,119,113,113,111,111,111,104,104,104,104,103,115,115,119,119,118,118,118,119,135,137,137,137,137,137,129,129,128,126,124,105,105,105,105,115,122,122,122,120,120,120,122,122,122,122,124,124,124,128,129,129,129,129,129,130,130,131,131,131,136,141,143,143,148,148,148,149,149,150,150,150,152,152,152,152,150,150,149,148,151,149,147,128,128,134,134,141,141,141,142,145,145,152,152,152,152,154,156,156,158,158,158,154,153,153,153,153,146,146,146,146,142,142,142,142,140,140,140,140,140,137,137,136,135,130,130,130,130,132,132,139,139,139,139,139,140,140,137,141,141,142,140,137,137,137,137,136,138,142,148,149,149,149,154,156,159,159,159,157,157,157,157,158,158,161,163,163,164,165,165,166,166,167,168,166,166,166,166,165,163,163,161,161,160,160,159,158,158,157,155,154,154,154,148,129,129,131,132,127,127,127,129,130,130,132,132,132,132,131,132,132,132,132,134,134,134,134,134,134,139,139,141,141,141,140,140,133,133,133,133,132,130,128,128,128,124,124,131,131,136,138,138,138,135,135,135,135,139,139,141,142,141,141,141,141,139,139,136,136,140,142,142,147,147,148,148,148,144,144,143,143,139,139,139,135,135,135,135,133,133,135,143,144,145,145,150,152,153,154,156,156,156,157,160,159,159,159,159,159,159,159,159,159,159,159,159,159,159,159,159,142,142,141,141,141,141,138,137,137,137,138,138,137,134,134,132,132,122,122,131,131,131,129,129,129,129,129,129,124,124,124,124,122,122,118,118,120,120,120,118,118,118,118,118,118,117,119,124,127,127,128,129,129,129,134,134,140,143,143,149,146,148,147,147,147,147,147,147,147,147,147,145,144,143,143,142,142,142,142,137,137,138,141,141,131,133,132,132,132,132,132,132,132,131,131,131,131,131,131,132,132,132,132,132,131,131,131,133,133,133,137,137,139,139,139,141,141,141,141,141,142,142,142,142,145,145,145,147,145,145,145,143,143,143,142,142,139,137,137,140,141,141,137,136,136,136,135,135,135,136,136,136,136,136,138,141,141,143,143,143,143,143,144,143,143,143,145,145,145,144,144,143,143,143,141,141,141,141,141,141,134,133,130,132,132,137,137,137,137,142,142,141,141,141,141,142,142,142,141,139,139,139,137,136,136,136,136,136,135,134,135,135,135,135,135,135,135,133,133,131,131,131,131,131,133,133,133,132,132,129,129,130,130,129,128,129,129,128,128,128,128,126,126,126,126,126,126,126,127,127,127,127,127,127,127,127,127,130,130,130,131,131,131,131,131,129,129,115,115,115,122,122,124,124,124,124,124,124,124,125,125,127,127,127,127,127,128,128,128,128,128,128,130,130,130,129,129,128,128,127,126,126,126,126,126,126,125,127,127,127,127,127,127,128,128,125,124,124,124,122,122,122,122,124,125,125,128,128,128,128,132,132,132,132,132,132,132,132,132,132,132,132,132,132,132,132,133,135,134,134,130,132,132,133,133,125,125,125,124,124,124,124,128,127,127,126,126,128,128,128,137,137,137,137,136,136,138,138,138,138,138,139,139,134,134,134,134,134,134,134,134,135,135,135,136,136,136,137,137,137,136,136,136,136,137,142,142,143,146,137,138,138,144,144,143,143,140,132,135,135,135,135,135,135,135,135,137,137,137,137,137,138,138,138,138,138,139,139,140,140,140,140,140,137,137,136,132,132,132,130,130,130,130,134,134,134,134,134,134,131,131,131,134,134,134,135,135,135,135,139,139,141,141,144,144,146,146,152,153,153,156,157,157,157,158,158,157,157,156,156,154,154,153,151,150,150,145,145,145,146,146,146,146,147,147,147,146,146,146,145,145,145,143,140,140,132,132,130,129,129,129,125,124,124,128,128,127,127,127,127,122,122,122,122,119,117,117,115,115,115,114,116,116,116,116,119,119,119,122,121,121,119,120,120,124,124,124,124,128,130,135,135,136,137,137,139,141,114,119,120,121,121,121,119,119,116,116,116,116,116,116,125,127,130,130,130,132,132,132,134,137,142,142,147,147,149,149,149,147,136,137,137,138,139,148,148,149,151,151,154,154,154,154,161,162,159,156,154,154,150,149,149,150,150,150,151,151,151,151,151,150,152,151,151],"month":"2025-01-01"},"geometry":{"type":"LineString","coordinates":[[2.449595,48.700162,79.6],[2.449543,48.700162,79.5],[2.449499,48.700171,79.4],[2.449481,48.700187,79.4],[2.449458,48.700239,79.4],[2.449445,48.700345,79.3],[2.449446,48.700462,79.3],[2.449314,48.701766,78.8],[2.449297,48.701805,78.8],[2.449271,48.70203,78.6],[2.44925,48.702399,78.3],[2.449226,48.702518,78.2],[2.449242,48.702639,78.3],[2.449344,48.70275,78.5],[2.449325,48.702775,78.4],[2.449269,48.702785,78.2],[2.449127,48.702788,77.8],[2.44898,48.70278,77.3],[2.448392,48.702775,76],[2.448344,48.702795,75.9],[2.448316,48.702834,75.8],[2.44831,48.702884,75.8],[2.448344,48.702983,75.7],[2.448359,48.70314,75.7],[2.448373,48.703774,76],[2.44839,48.703983,76],[2.448386,48.704224,76],[2.448377,48.704242,76],[2.448283,48.704273,75.8],[2.448213,48.704282,75.6],[2.447989,48.704253,74.8],[2.447821,48.704242,74.1],[2.446127,48.70421,66.6],[2.445981,48.7042,65.8],[2.44589,48.704203,65.2],[2.444928,48.704178,60.2],[2.444652,48.704164,59],[2.444515,48.704141,58.5],[2.444362,48.704101,57.8],[2.444203,48.704049,57.2],[2.443348,48.703802,53.8],[2.443131,48.703733,52.6],[2.442407,48.703532,48.9],[2.440286,48.703175,41.8],[2.440119,48.703169,41.5],[2.439951,48.703146,41.3],[2.43979,48.703102,41.1],[2.43943,48.703129,40.9],[2.438019,48.703161,41.1],[2.437941,48.703184,41.1],[2.437877,48.703217,41.1],[2.437802,48.703241,41],[2.437723,48.703238,41.1],[2.437583,48.703175,41.3],[2.437505,48.703159,41.4],[2.437068,48.703186,41.6],[2.435126,48.703241,42.1],[2.434902,48.703253,42],[2.434689,48.703255,42],[2.434593,48.703263,42],[2.434522,48.703287,42],[2.434476,48.703315,41.9],[2.434129,48.703679,41.2],[2.434035,48.703789,40.9],[2.433947,48.703865,40.7],[2.43395,48.703858,40.7],[2.433895,48.703896,40.5],[2.433852,48.703948,40.4],[2.433809,48.703965,40.4],[2.433759,48.703973,40.3],[2.433643,48.703966,40.3],[2.433124,48.703812,40.1],[2.432681,48.703713,40.1],[2.432621,48.703693,40.1],[2.432583,48.703654,40.1],[2.432574,48.703604,40.3],[2.432598,48.703556,40.3],[2.432807,48.703401,40.5],[2.432843,48.70336,40.5],[2.432837,48.703295,40.6],[2.432819,48.703274,40.6],[2.432631,48.703308,40.6],[2.432411,48.703323,40.6],[2.432284,48.703306,40.6],[2.432209,48.703304,40.7],[2.431729,48.70334,41],[2.43169,48.703329,41],[2.431668,48.703306,41.1],[2.431676,48.703269,41],[2.431738,48.703184,40.9],[2.4318,48.703136,40.9],[2.431901,48.703017,40.9],[2.43202,48.702836,41],[2.432063,48.702793,41.1],[2.432369,48.702368,41.5],[2.432453,48.702274,41.7],[2.432552,48.702123,42.1],[2.432891,48.701714,44],[2.432956,48.701617,44.3],[2.433162,48.701361,44.9],[2.433262,48.701265,45.3],[2.43331,48.701249,45.4],[2.433393,48.701259,45.3],[2.433458,48.70128,45.1],[2.433627,48.701365,44.8],[2.433876,48.701468,44.3],[2.433997,48.701532,44],[2.434408,48.701693,43.3],[2.435518,48.702174,43.6],[2.435582,48.702176,43.7],[2.435638,48.70215,43.7],[2.43569,48.702059,43.7],[2.435837,48.701908,43.8],[2.435978,48.701801,43.9],[2.436097,48.701676,44],[2.43624,48.701496,44.2],[2.437347,48.700364,46.2],[2.437346,48.700369,46.2],[2.437361,48.70037,46.2],[2.437504,48.700218,46.8],[2.437524,48.700142,46.9],[2.437412,48.699856,46.9],[2.437387,48.699813,47],[2.437197,48.699321,47.9],[2.437147,48.699234,48.2],[2.437111,48.699195,48.3],[2.437028,48.699065,48.6],[2.436888,48.698799,49.1],[2.436879,48.698749,49.2],[2.43658,48.698133,50.6],[2.436541,48.697987,50.9],[2.436507,48.697944,51],[2.436448,48.697912,51.1],[2.43623,48.697866,51.3],[2.435541,48.697661,52],[2.435256,48.697584,52.2],[2.435052,48.69752,52.3],[2.434776,48.697446,52.6],[2.434271,48.697284,53.1],[2.43371,48.697132,53.3],[2.43351,48.697063,53.4],[2.433389,48.697036,53.5],[2.433321,48.697037,53.5],[2.433188,48.697065,53.5],[2.431723,48.697289,52.9],[2.431665,48.697309,52.9],[2.431626,48.69735,53],[2.431604,48.6974,53],[2.431571,48.697439,52.9],[2.431517,48.697468,52.8],[2.431312,48.6975,52.6],[2.431254,48.69753,52.5],[2.431074,48.697807,51.8],[2.430932,48.698005,51.4],[2.430929,48.698039,51.3],[2.430944,48.698077,51.3],[2.430997,48.698104,51],[2.431114,48.69812,50.8],[2.431315,48.698183,50.4],[2.431372,48.698208,50.3],[2.432417,48.69852,48.3],[2.434199,48.699038,48],[2.434268,48.699047,48.1],[2.434342,48.699028,48.2],[2.434458,48.698953,48.3],[2.434925,48.698687,49.4],[2.435245,48.698515,50.2],[2.435296,48.698501,50.3],[2.435357,48.698496,50.4],[2.435419,48.698504,50.4],[2.435529,48.698545,50.5],[2.435512,48.698541,50.5],[2.435609,48.698566,50.5],[2.435644,48.698588,50.5],[2.435755,48.698689,50.3],[2.43632,48.69915,49.1],[2.436439,48.699227,48.9],[2.436694,48.699448,48.5],[2.437243,48.699899,47.6],[2.437295,48.699912,47.3],[2.437345,48.6999,47.2],[2.437381,48.699868,47.1],[2.437388,48.699821,46.9],[2.437291,48.699634,47.2],[2.437138,48.69924,48.2],[2.437013,48.699051,48.6],[2.436712,48.698418,50],[2.436627,48.698261,50.4],[2.436532,48.698044,50.8],[2.436527,48.697995,50.9],[2.436507,48.697944,51],[2.436363,48.697691,51.4],[2.435978,48.696901,53.6],[2.435928,48.696838,54],[2.435947,48.69676,54.4],[2.435949,48.696566,55.4],[2.435969,48.696489,55.5],[2.435976,48.696302,55.9],[2.435988,48.696232,56.1],[2.436043,48.696058,56.7],[2.436194,48.695799,57.8],[2.436444,48.69532,60.5],[2.436578,48.695125,61.5],[2.436584,48.695086,61.7],[2.436646,48.695009,62.1],[2.43675,48.694829,63],[2.436762,48.694771,63.3],[2.43689,48.694517,64.9],[2.436959,48.694415,65.6],[2.437008,48.694313,66.2],[2.437107,48.694172,66.9],[2.4374,48.693918,68.4],[2.437413,48.693892,68.6],[2.437411,48.693862,68.7],[2.437395,48.693839,68.8],[2.437027,48.693552,69.3],[2.436918,48.693434,69.3],[2.436883,48.693418,69.4],[2.436823,48.693364,69.4],[2.43681,48.693339,69.4],[2.436745,48.693279,69.4],[2.436669,48.693241,69.4],[2.436637,48.693205,69.4],[2.436543,48.693157,69.5],[2.436507,48.693105,69.5],[2.436361,48.693015,69.7],[2.436137,48.692925,69.9],[2.436012,48.692897,69.9],[2.435943,48.692816,69.9],[2.435925,48.692812,69.9],[2.435912,48.692834,69.9],[2.435834,48.692868,69.9],[2.435754,48.692858,69.9],[2.435475,48.692778,69.8],[2.434828,48.692549,69.4],[2.434415,48.692361,69.3],[2.434343,48.692309,69.3],[2.434246,48.692259,69.3],[2.433998,48.692055,70.4],[2.43386,48.691916,71.9],[2.433741,48.691773,73.1],[2.433491,48.691511,74.2],[2.433427,48.691482,74.4],[2.433382,48.691445,74.7],[2.433359,48.691398,74.9],[2.433348,48.691167,76],[2.433358,48.691126,76.2],[2.43335,48.691089,76.4],[2.433367,48.690989,76.9],[2.433389,48.690976,76.8],[2.43346,48.690963,76.9],[2.433518,48.690964,76.9],[2.433612,48.690979,76.9],[2.433626,48.690968,76.9],[2.433676,48.690972,76.9],[2.433759,48.690994,76.9],[2.433977,48.690996,76.8],[2.434083,48.69103,76.7],[2.434112,48.691046,76.6],[2.434122,48.691075,76.6],[2.43411,48.691107,76.6],[2.433932,48.69138,75.2],[2.433876,48.691509,74.5],[2.433725,48.691725,73.4],[2.433717,48.691766,73.2],[2.433727,48.691811,72.9],[2.433791,48.691855,72.5],[2.433969,48.692015,70.9],[2.434063,48.692114,70.1],[2.434055,48.692112,70],[2.434133,48.692178,69.5],[2.434172,48.692196,69.3],[2.434274,48.692269,69.3],[2.434408,48.692347,69.3],[2.434772,48.692527,69.4],[2.43506,48.692636,69.5],[2.435593,48.692804,69.9],[2.435801,48.692861,69.9],[2.435865,48.692866,69.9],[2.436085,48.692935,69.9],[2.436245,48.693004,69.8],[2.436416,48.693066,69.7],[2.436461,48.693093,69.6],[2.436544,48.693186,69.5],[2.436717,48.693278,69.4],[2.4368,48.693355,69.4],[2.436852,48.693385,69.4],[2.43709,48.69358,69.2],[2.437316,48.693749,68.9],[2.437413,48.6938,68.8],[2.43746,48.69381,68.7],[2.437496,48.693805,68.7],[2.437536,48.693784,68.8],[2.437571,48.693752,68.9],[2.437779,48.693498,69.6],[2.43786,48.693382,70],[2.437971,48.693133,70.6],[2.438135,48.692717,71.8],[2.438178,48.692645,72],[2.43824,48.692501,72.4],[2.438266,48.692469,72.4],[2.438324,48.692467,72.3],[2.438383,48.692479,72.2],[2.438472,48.692528,71.9],[2.439533,48.692965,69.4],[2.439588,48.692994,69.3],[2.439914,48.693117,68.5],[2.440044,48.693175,68.2],[2.440296,48.693269,67.7],[2.440589,48.693393,67],[2.440639,48.693397,66.9],[2.440683,48.693373,66.8],[2.440697,48.693329,66.9],[2.440632,48.693245,67.1],[2.440621,48.693205,67.2],[2.440567,48.693129,67.4],[2.440555,48.693089,67.5],[2.440501,48.693004,67.7],[2.440148,48.69233,70],[2.44005,48.692101,70.7],[2.439984,48.691986,71.1],[2.4399,48.691873,71.5],[2.43963,48.691373,72.9],[2.439527,48.691135,73.7],[2.439442,48.690983,74.2],[2.439319,48.690801,74.7],[2.43917,48.690521,75.7],[2.439089,48.690403,76],[2.439053,48.690368,76.2],[2.438912,48.690272,76.4],[2.438165,48.689927,77.3],[2.437524,48.689606,77.8],[2.43691,48.68931,78.5],[2.436752,48.689225,78.7],[2.436467,48.689107,78.5],[2.436421,48.689081,78.5],[2.436411,48.689044,78.6],[2.436435,48.689004,78.8],[2.436578,48.68893,78.9],[2.436606,48.688906,78.9],[2.436601,48.688873,78.9],[2.436554,48.688855,78.9],[2.436502,48.688875,78.9],[2.436476,48.688907,78.9],[2.436439,48.688929,78.9],[2.436385,48.688933,78.8],[2.436322,48.688916,78.8],[2.435359,48.688419,79.3],[2.435324,48.688395,79.3],[2.435215,48.688283,79.4],[2.435153,48.688237,79.4],[2.434928,48.688128,79.5],[2.434721,48.688071,79.6],[2.434587,48.688018,79.6],[2.434417,48.687937,79.7],[2.434328,48.687907,79.7],[2.434261,48.687862,79.8],[2.433933,48.687732,79.8],[2.43376,48.687641,79.8],[2.433611,48.687582,79.9],[2.433507,48.687515,80.2],[2.433519,48.687522,80.3],[2.433503,48.687519,80.3],[2.433424,48.687559,80.5],[2.433402,48.687582,80.4],[2.433252,48.68767,79.8],[2.433058,48.687921,78.4],[2.432975,48.687999,78],[2.432564,48.688265,76.8],[2.432434,48.688333,76.5],[2.432391,48.688371,76.3],[2.432381,48.68842,76.1],[2.432412,48.68852,75.7],[2.432424,48.688616,75.4],[2.432417,48.688663,75.3],[2.432359,48.688779,74.9],[2.432321,48.688789,74.8],[2.432336,48.688857,74.5],[2.432366,48.688905,74.2],[2.432333,48.689119,73.3],[2.43235,48.689192,73.1],[2.432353,48.689265,73.1],[2.432339,48.689338,73],[2.432368,48.689582,72.9],[2.432391,48.689622,72.9],[2.432481,48.689722,72.9],[2.432487,48.689752,72.9],[2.432462,48.689775,72.9],[2.432408,48.689771,72.9],[2.432367,48.689744,72.8],[2.432349,48.689704,72.9],[2.432349,48.689659,72.9],[2.43237,48.689572,72.9],[2.432356,48.689487,73],[2.432346,48.689175,73.2],[2.432382,48.688784,74.9],[2.432399,48.688726,75.1],[2.432385,48.6886,75.5],[2.432383,48.68842,76.1],[2.432412,48.688328,76.5],[2.432448,48.688289,76.6],[2.432609,48.688203,77],[2.432656,48.688167,77.1],[2.432949,48.687994,78],[2.433049,48.687904,78.4],[2.433077,48.68785,78.6],[2.433232,48.687649,79.7],[2.43325,48.687647,79.8],[2.433346,48.687576,80.2],[2.43345,48.687537,80.5],[2.433499,48.687534,80.4],[2.433543,48.687541,80.4],[2.433572,48.687559,80.4],[2.433618,48.68761,80.4],[2.433657,48.687633,80.3],[2.43384,48.687695,80.2],[2.433958,48.68777,80.1],[2.434009,48.687781,80.1],[2.434416,48.687973,79.8],[2.434716,48.688096,79.7],[2.434784,48.688107,79.7],[2.434845,48.688106,79.6],[2.434975,48.688161,79.6],[2.435056,48.688162,79.5],[2.435091,48.688142,79.5],[2.435116,48.688106,79.7],[2.435619,48.687647,81],[2.435678,48.687582,81.2],[2.435972,48.687343,81.8],[2.436,48.687309,81.9],[2.436,48.687318,81.9],[2.436113,48.687249,82],[2.436405,48.68699,82.3],[2.436452,48.686934,82.4],[2.436637,48.686787,82.6],[2.436761,48.686653,82.7],[2.436794,48.686632,82.8],[2.436888,48.68662,82.8],[2.436926,48.686627,82.8],[2.436957,48.686622,82.8],[2.437073,48.686574,82.8],[2.437089,48.686551,82.8],[2.437102,48.686444,82.8],[2.437153,48.686387,82.8],[2.43719,48.686325,82.8],[2.437249,48.686278,82.9],[2.437265,48.68625,82.9],[2.4372,48.686147,82.9],[2.437147,48.686096,83],[2.43717,48.686048,83],[2.437212,48.686014,83],[2.437279,48.685987,83.1],[2.43729,48.685956,83.1],[2.437278,48.685926,83.1],[2.437284,48.68591,83.1],[2.437362,48.685864,83.1],[2.43748,48.685759,83.2],[2.437518,48.685739,83.2],[2.43758,48.685654,83.2],[2.437724,48.685525,83.3],[2.437769,48.685469,83.4],[2.437833,48.685421,83.5],[2.437993,48.685257,83.6],[2.438083,48.685142,83.7],[2.438091,48.685112,83.8],[2.438141,48.6851,83.8],[2.438186,48.685069,83.8],[2.438221,48.684998,83.9],[2.438291,48.684929,83.9],[2.438311,48.684897,84],[2.438459,48.68481,84],[2.438493,48.684757,84.1],[2.438569,48.684685,84.1],[2.438605,48.684634,84.1],[2.43882,48.684458,84.1],[2.438902,48.684366,84.2],[2.438962,48.684273,84.2],[2.439062,48.684216,84.2],[2.439119,48.68414,84.2],[2.439124,48.684119,84.3],[2.439217,48.684023,84.3],[2.439255,48.684019,84.3],[2.439241,48.683997,84.3],[2.439284,48.683945,84.4],[2.439271,48.683899,84.4],[2.439242,48.683853,84.4],[2.439248,48.683856,84.4],[2.439248,48.683792,84.5],[2.439039,48.683747,84.6],[2.439071,48.683773,84.6],[2.439086,48.6838,84.6],[2.439117,48.683793,84.6],[2.439118,48.683782,84.7],[2.439224,48.683743,84.7],[2.439254,48.683765,84.7],[2.439249,48.683781,84.7],[2.439213,48.683808,84.8],[2.439247,48.683871,84.8],[2.439241,48.683886,84.8],[2.439262,48.683901,84.9],[2.439307,48.683908,84.9],[2.439371,48.683877,84.9],[2.439452,48.683798,85],[2.439513,48.68376,85.1],[2.43969,48.683594,85.2],[2.43972,48.683583,85.2],[2.439748,48.68356,85.2],[2.439787,48.683492,85.3],[2.439779,48.683468,85.3],[2.439809,48.68342,85.3],[2.439903,48.683379,85.3],[2.439978,48.683315,85.4],[2.440009,48.683261,85.5],[2.440113,48.68316,85.6],[2.440143,48.683142,85.6],[2.440249,48.683031,85.7],[2.440426,48.682883,85.8],[2.440505,48.682832,85.8],[2.440551,48.682762,85.8],[2.440637,48.682725,85.8],[2.440661,48.682701,85.8],[2.440661,48.682658,85.8],[2.440691,48.682641,85.8],[2.440709,48.682617,85.9],[2.440709,48.682577,85.9],[2.440726,48.682574,85.9],[2.440726,48.682562,85.9],[2.440832,48.682497,86],[2.440878,48.682456,86],[2.44091,48.682382,86],[2.440957,48.682371,86.1],[2.440973,48.682359,86.1],[2.440988,48.682314,86.1],[2.441012,48.682311,86.1],[2.441013,48.682303,86.1],[2.441035,48.682302,86.1],[2.441039,48.682281,86.1],[2.441025,48.682242,86.1],[2.440985,48.682185,86],[2.440897,48.682191,86],[2.440884,48.682199,86],[2.44086,48.682196,86],[2.440629,48.68208,85.9],[2.440614,48.682058,85.9],[2.440555,48.682041,86],[2.44006,48.681822,86],[2.439812,48.681737,86.1],[2.439662,48.681665,86.1],[2.439653,48.681631,86.1],[2.439621,48.681598,86.1],[2.43952,48.681591,86.1],[2.439443,48.681542,86.1],[2.439349,48.681509,86.2],[2.439294,48.681508,86.2],[2.439257,48.681487,86.2],[2.439189,48.681427,86.3],[2.439065,48.681387,86.4],[2.438879,48.681294,86.5],[2.438818,48.681242,86.6],[2.438768,48.681224,86.6],[2.438724,48.681225,86.6],[2.438585,48.681154,86.6],[2.438545,48.681144,86.6],[2.438347,48.681059,86.6],[2.438245,48.681004,86.6],[2.43827,48.681011,86.6],[2.438251,48.681009,86.6],[2.438281,48.680996,86.6],[2.438276,48.681034,86.6],[2.438583,48.681183,86.6],[2.438665,48.68123,86.6],[2.438814,48.681269,86.6],[2.438861,48.681289,86.6],[2.438895,48.681319,86.5],[2.43921,48.681472,86.2],[2.439289,48.681526,86.2],[2.439405,48.681557,86.2],[2.439505,48.681598,86.1],[2.439688,48.681694,86.1],[2.439723,48.681723,86.1],[2.440135,48.681881,86],[2.440349,48.681988,86],[2.440492,48.682042,86],[2.440811,48.682195,86],[2.440878,48.682219,86],[2.440911,48.682223,86],[2.440968,48.682198,86],[2.440987,48.682201,86],[2.441044,48.682236,86.1],[2.441083,48.682238,86.1],[2.44116,48.68219,86.1],[2.441227,48.68213,86.1],[2.441274,48.682105,86.1],[2.441307,48.682065,86.1],[2.441329,48.682007,86.1],[2.441458,48.681854,86.2],[2.441525,48.681817,86.2],[2.441654,48.681684,86.4],[2.441741,48.681617,86.4],[2.441809,48.681509,86.4],[2.441885,48.681459,86.5],[2.441969,48.681382,86.5],[2.442029,48.681342,86.5],[2.442156,48.681198,86.6],[2.442195,48.681183,86.6],[2.442304,48.681051,86.7],[2.442423,48.680953,86.8],[2.442443,48.680923,86.8],[2.442526,48.680856,86.8],[2.442617,48.680759,86.9],[2.442679,48.680676,87],[2.442675,48.680663,87],[2.442715,48.680652,87],[2.442666,48.680624,87],[2.442642,48.680633,87],[2.442674,48.680626,87],[2.442714,48.680678,87],[2.442604,48.680752,87],[2.442265,48.681041,86.7],[2.442248,48.681078,86.7],[2.442118,48.681198,86.6],[2.441857,48.681406,86.5],[2.44181,48.681456,86.5],[2.441698,48.681502,86.5],[2.441662,48.681576,86.4],[2.441606,48.681625,86.4],[2.441532,48.681718,86.4],[2.441444,48.681795,86.3],[2.441313,48.681945,86.2],[2.441269,48.682044,86.1],[2.441243,48.682074,86.1],[2.441197,48.682097,86.1],[2.44115,48.682109,86.1],[2.441023,48.682232,86.1],[2.441015,48.682256,86.1],[2.441024,48.682282,86.1],[2.441058,48.682301,86.1],[2.441139,48.682319,86.1],[2.441196,48.682349,86.1],[2.441263,48.682366,86.1],[2.441291,48.682381,86.1],[2.441308,48.682412,86.1],[2.44174,48.682593,86.1],[2.441815,48.682613,86],[2.441903,48.682675,86],[2.441993,48.682702,85.9],[2.442072,48.682746,85.8],[2.442284,48.682825,85.8],[2.442272,48.682837,85.8],[2.44229,48.68284,85.8],[2.442284,48.682853,85.7],[2.442339,48.682834,85.7],[2.442362,48.682839,85.7],[2.442384,48.682893,85.6],[2.442462,48.682942,85.5],[2.442519,48.68299,85.4],[2.442616,48.683018,85.3],[2.442672,48.683045,85.2],[2.442723,48.683082,85.1],[2.442795,48.683101,85.1],[2.442969,48.683168,85],[2.442999,48.683191,84.9],[2.443162,48.683262,84.8],[2.443286,48.683328,84.8],[2.443383,48.683362,84.7],[2.443467,48.683406,84.7],[2.443602,48.683458,84.7],[2.443671,48.683498,84.8],[2.444089,48.683655,84.6],[2.444218,48.683716,84.5],[2.444384,48.683811,84.5],[2.444439,48.683818,84.4],[2.444586,48.683889,84.4],[2.4446,48.68391,84.4],[2.444633,48.683928,84.4],[2.444665,48.68393,84.3],[2.444714,48.683947,84.3],[2.445015,48.684103,84.1],[2.445193,48.684183,84],[2.445243,48.684198,84],[2.445261,48.684227,83.9],[2.445308,48.684252,83.9],[2.445364,48.684268,83.8],[2.445412,48.684295,83.7],[2.445711,48.684418,83.4],[2.445756,48.684445,83.4],[2.445861,48.684473,83.3],[2.445997,48.68454,83.2],[2.44615,48.684603,83.1],[2.446306,48.684655,83],[2.446382,48.684717,82.9],[2.446429,48.684743,82.9],[2.446593,48.684789,82.7],[2.446791,48.684899,82.4],[2.447106,48.685051,81.9],[2.447344,48.68515,81.6],[2.447601,48.685233,81.3],[2.447667,48.685297,81.1],[2.448022,48.685451,80.3],[2.44813,48.685489,80.1],[2.448318,48.685573,79.7],[2.448462,48.685652,79.3],[2.448846,48.685826,78.4],[2.449023,48.685935,77.9],[2.449049,48.685978,77.8],[2.449084,48.686,77.6],[2.449106,48.686042,77.5],[2.449183,48.686108,77.1],[2.449241,48.686134,76.9],[2.449325,48.686192,76.6],[2.449452,48.68622,76.2],[2.449472,48.686258,76],[2.449439,48.686316,75.9],[2.449445,48.686362,75.8],[2.449437,48.68636,75.8],[2.449443,48.686387,75.8],[2.449426,48.686405,75.8],[2.449448,48.686532,75.6],[2.449422,48.686586,75.6],[2.449431,48.686592,75.6],[2.449427,48.68664,75.5],[2.449372,48.686686,75.5],[2.449349,48.686755,75.4],[2.449333,48.686758,75.4],[2.4493,48.686787,75.3],[2.4493,48.686812,75.3],[2.449229,48.686842,75.2],[2.44925,48.686838,75.2],[2.449264,48.686849,75.2],[2.449263,48.686921,74.8],[2.449242,48.686961,74.7],[2.449256,48.686961,74.7],[2.4494,48.68702,74.1],[2.449805,48.687121,72.8],[2.449912,48.687131,72.5],[2.44992,48.687138,72.4],[2.449935,48.687131,72.5],[2.449942,48.687141,72.4],[2.450014,48.687161,72.3],[2.450051,48.687153,72.3],[2.450043,48.687163,72.3],[2.450053,48.687189,72.1],[2.450112,48.687209,72],[2.450134,48.687203,72],[2.450135,48.687249,71.8],[2.450113,48.68726,71.6],[2.450129,48.687273,71.6],[2.450126,48.687323,71.2],[2.450104,48.687359,71],[2.450115,48.687365,70.8],[2.450086,48.687398,70.6],[2.450105,48.687404,70.6],[2.449879,48.687292,71.4],[2.449877,48.68725,71.5],[2.449842,48.687192,72.1],[2.449855,48.687176,72.1],[2.449667,48.687132,72.8],[2.44958,48.687086,73.2],[2.449581,48.687061,73.3],[2.449559,48.687035,73.5],[2.44952,48.687016,73.6],[2.449466,48.68695,73.9],[2.449398,48.686926,74],[2.449383,48.686911,74],[2.44943,48.686908,74.1],[2.449464,48.686882,74],[2.449515,48.686874,74],[2.449614,48.686805,74.1],[2.449651,48.686709,74.4],[2.449682,48.686704,74.4],[2.449677,48.686688,74.4],[2.449726,48.686671,74.4],[2.44972,48.686658,74.4],[2.449769,48.686604,74.6],[2.449801,48.68655,74.6],[2.449836,48.686514,74.6],[2.449827,48.686502,74.6],[2.449833,48.686484,74.6],[2.449803,48.686449,74.6],[2.449809,48.686437,74.6],[2.449861,48.686431,74.4],[2.449857,48.686451,74.3],[2.449897,48.686473,74.2],[2.449901,48.686491,74.1],[2.449921,48.686509,74],[2.450255,48.686694,72.7],[2.450446,48.686842,71.9],[2.450553,48.686905,71.6],[2.45059,48.68694,71.5],[2.450633,48.686963,71.4],[2.450676,48.686975,71.3],[2.450805,48.68706,71.1],[2.451047,48.687268,70.5],[2.451115,48.687422,70.2],[2.45124,48.687587,70],[2.451244,48.687652,69.9],[2.451261,48.687685,69.9],[2.451311,48.687733,69.8],[2.451384,48.687884,69.6],[2.451491,48.688028,69.3],[2.451532,48.68817,69],[2.45159,48.688243,68.8],[2.451617,48.688297,68.7],[2.451687,48.688378,68.6],[2.451867,48.688502,68.6],[2.4519,48.688536,68.6],[2.452004,48.688541,68.6],[2.45209,48.688555,68.6],[2.452285,48.688608,68.8],[2.452331,48.688635,68.8],[2.452371,48.688633,68.9],[2.452469,48.688658,69],[2.452664,48.688728,69.3],[2.452816,48.688743,69.7],[2.452881,48.688771,69.9],[2.453022,48.688813,70.3],[2.453108,48.688828,70.6],[2.453183,48.68883,70.8],[2.453214,48.688847,70.9],[2.453297,48.688869,71.2],[2.45346,48.688877,71.7],[2.45362,48.688933,72.3],[2.453862,48.688989,73.1],[2.453896,48.68899,73.1],[2.454017,48.689032,73.5],[2.454092,48.689038,73.7],[2.454188,48.689059,74],[2.454246,48.689085,74.2],[2.454216,48.689118,74.3],[2.45417,48.689143,74.2],[2.454161,48.689156,74.2],[2.454029,48.689233,74.2],[2.453938,48.689316,74.2],[2.453849,48.689381,74.3],[2.453788,48.689409,74.4],[2.453759,48.689458,74.5],[2.453687,48.68954,74.6],[2.453617,48.689589,74.8],[2.453577,48.689632,74.9],[2.453479,48.689709,75.1],[2.453376,48.689816,75.5],[2.45336,48.689862,75.6],[2.453371,48.689884,75.7],[2.453961,48.690129,76.6],[2.454055,48.690189,76.8],[2.454079,48.690217,76.9],[2.454094,48.690285,77],[2.454089,48.690322,77],[2.454037,48.690393,77.1],[2.45378,48.690608,77.2],[2.453534,48.690842,77.2],[2.453487,48.690873,77.2],[2.45338,48.690923,77.3],[2.452787,48.691109,77.4],[2.452136,48.691332,77.5],[2.451658,48.691522,77.5],[2.451151,48.691736,77.5],[2.450689,48.691956,77.2],[2.450568,48.692002,77.1],[2.450353,48.692107,76.9],[2.450209,48.692156,76.6],[2.450119,48.692172,76.6],[2.449903,48.692281,76.3],[2.449654,48.69238,75.5],[2.449304,48.692539,74.1],[2.449193,48.692616,73.6],[2.449007,48.69271,72.9],[2.448977,48.692759,72.7],[2.448899,48.692784,72.4],[2.448865,48.692777,72.3],[2.448747,48.692825,72],[2.448333,48.693031,71.4],[2.448289,48.693042,71.3],[2.448234,48.69303,71.3],[2.448175,48.69296,70.4],[2.448133,48.692926,69.8],[2.44807,48.692907,69.2],[2.447765,48.692894,67.9],[2.447593,48.692867,67.1],[2.4475,48.692843,66.7],[2.447291,48.692753,65.7],[2.447078,48.692676,64.9],[2.446888,48.692662,64.2],[2.446849,48.692669,64],[2.446747,48.692739,63.5],[2.446703,48.692743,63.3],[2.446645,48.692736,63],[2.446501,48.692691,62.4],[2.44645,48.692655,62.2],[2.446438,48.692626,62],[2.446464,48.692359,61.4],[2.44645,48.692278,61.3],[2.446463,48.6922,61.2],[2.446458,48.692164,61.1],[2.446476,48.692091,60.8],[2.446474,48.691934,60.5],[2.446492,48.691695,60.3],[2.446484,48.691626,60.2],[2.446492,48.691493,60.2],[2.446474,48.691371,60.1],[2.446475,48.691249,60.1],[2.446493,48.69121,60.2],[2.446524,48.691181,60.3],[2.446574,48.69116,60.4],[2.446745,48.691127,60.6],[2.446921,48.691073,60.8],[2.447184,48.690957,61.2],[2.447251,48.690918,61.4],[2.447348,48.690879,61.6],[2.447529,48.690757,62.4],[2.447559,48.690715,62.5],[2.447641,48.690651,62.8],[2.447735,48.690638,62.9],[2.447659,48.690641,63],[2.447568,48.690697,62.8],[2.447412,48.690827,62.3],[2.447257,48.690928,61.6],[2.447161,48.690973,61.3],[2.447056,48.691011,61.1],[2.446955,48.691061,60.9],[2.446514,48.691203,60.3],[2.446483,48.691226,60.3],[2.446458,48.691263,60.2],[2.446454,48.69134,60.1],[2.446495,48.691518,60.2],[2.446494,48.691609,60.2],[2.446483,48.691641,60.2],[2.446484,48.691831,60.4],[2.44646,48.692169,61.1],[2.446461,48.692569,61.8],[2.446447,48.69268,62.2],[2.44647,48.692708,62.3],[2.446515,48.692722,62.5],[2.446624,48.692728,62.9],[2.446787,48.692777,63.3],[2.446904,48.692787,63.5],[2.446996,48.692826,63.7],[2.447172,48.692974,64.1],[2.447303,48.693055,64.4],[2.447606,48.69315,65.1],[2.447878,48.693249,65.9],[2.447955,48.693269,66.2],[2.448139,48.693294,66.6],[2.448164,48.69331,66.6],[2.448158,48.693307,66.6],[2.448172,48.693306,66.7],[2.448164,48.693337,66.7],[2.448258,48.693488,67],[2.448324,48.693551,67.2],[2.448407,48.693609,67.5],[2.44859,48.693717,68.1],[2.449293,48.694074,71.6],[2.449386,48.694136,72.3],[2.449418,48.694175,72.6],[2.449596,48.694296,73.8],[2.449724,48.694365,74.2],[2.449894,48.694442,74.7],[2.449922,48.694464,74.9],[2.449919,48.694491,75],[2.449853,48.694536,75.2],[2.449815,48.694586,75.5],[2.449759,48.694847,76.2],[2.449619,48.695308,76.3],[2.449578,48.695481,76.3],[2.449484,48.695788,76.2],[2.44948,48.695913,76.3],[2.449681,48.696567,77.3],[2.449716,48.696775,77.6],[2.449716,48.696861,77.7],[2.449669,48.697247,77.9],[2.449674,48.69729,77.9],[2.44964,48.697604,78.1],[2.44963,48.698095,78.4],[2.449611,48.698274,78.4],[2.44959,48.698369,78.5],[2.449575,48.698791,78.9],[2.449561,48.698875,79],[2.4495,48.699933,79.4],[2.449479,48.700126,79.4],[2.449503,48.700157,79.5],[2.449559,48.700175,79.6]]}}]}