<?xml version="1.0" encoding="UTF-8"?>
<gpx version="1.1" creator="GPSBabel - https://www.gpsbabel.org" xmlns="http://www.topografix.com/GPX/1/1" xmlns:xsi="http://www.w3.org/2001/XMLSchema-instance" xmlns:gpxtpx="http://www.garmin.com/xmlschemas/TrackPointExtension/v1" xmlns:gpxx="http://www.garmin.com/xmlschemas/GpxExtensions/v3" xmlns:gpxpx="http://www.garmin.com/xmlschemas/PowerExtension/v1" xmlns:gpx_style="http://www.topografix.com/GPX/gpx_style/0/2">
  <metadata>
    <name>gps4cam trip started at 2015-05-24 14-16 decoded at 2015-05-25 19-43-03</name>
    <link href="http://gps4cam.com">
      <text>gps4cam</text>
    </link>
    <time>2025-09-03T22:07:31.227Z</time>
    <bounds minlat="40.752701021" minlon="-73.994868619" maxlat="40.764984640" maxlon="-73.973548564"/>
  </metadata>
  <trk>
    <name>gps4cam trip started at: 2015-05-24T12:16:26Z</name>
    <trkseg>
      <trkpt lat="40.752701021" lon="-73.976598626">
        <time>2015-05-24T19:01:26Z</time>
      </trkpt>
      <trkpt lat="40.752771462" lon="-73.979193912">
        <time>2015-05-24T19:06:56Z</time>
      </trkpt>
      <trkpt lat="40.753136155" lon="-73.980772861">
        <time>2015-05-24T19:11:31Z</time>
      </trkpt>
      <trkpt lat="40.753355758" lon="-73.981207173">
        <time>2015-05-24T19:16:31Z</time>
      </trkpt>
      <trkpt lat="40.753457563" lon="-73.980801600">
        <time>2015-05-24T19:21:31Z</time>
      </trkpt>
      <trkpt lat="40.754356749" lon="-73.981809358">
        <time>2015-05-24T19:26:30Z</time>
      </trkpt>
      <trkpt lat="40.754539886" lon="-73.984041296">
        <time>2015-05-24T19:31:26Z</time>
      </trkpt>
      <trkpt lat="40.754935847" lon="-73.984093669">
        <time>2015-05-24T19:36:26Z</time>
      </trkpt>
      <trkpt lat="40.764984640" lon="-73.976995964">
        <time>2015-05-24T19:41:34Z</time>
      </trkpt>
      <trkpt lat="40.763532607" lon="-73.973548564">
        <time>2015-05-24T19:46:36Z</time>
      </trkpt>
      <trkpt lat="40.762951350" lon="-73.973772429">
        <time>2015-05-24T19:51:26Z</time>
      </trkpt>
      <trkpt lat="40.763000768" lon="-73.973918992">
        <time>2015-05-24T19:56:26Z</time>
      </trkpt>
      <trkpt lat="40.763382632" lon="-73.973893881">
        <time>2015-05-24T20:01:35Z</time>
      </trkpt>
      <trkpt lat="40.758606842" lon="-73.976299465">
        <time>2015-05-24T20:06:26Z</time>
      </trkpt>
      <trkpt lat="40.764512978" lon="-73.980995228">
        <time>2015-05-24T20:11:26Z</time>
      </trkpt>
      <trkpt lat="40.759746358" lon="-73.984587634">
        <time>2015-05-24T20:16:26Z</time>
      </trkpt>
      <trkpt lat="40.759862781" lon="-73.984489285">
        <time>2015-05-24T20:21:55Z</time>
      </trkpt>
      <trkpt lat="40.760343883" lon="-73.984744661">
        <time>2015-05-24T20:26:26Z</time>
      </trkpt>
      <trkpt lat="40.760196604" lon="-73.983912467">
        <time>2015-05-24T20:31:33Z</time>
      </trkpt>
      <trkpt lat="40.760210475" lon="-73.983996273">
        <time>2015-05-24T20:36:26Z</time>
      </trkpt>
      <trkpt lat="40.759376490" lon="-73.985238876">
        <time>2015-05-24T20:41:31Z</time>
      </trkpt>
      <trkpt lat="40.759673463" lon="-73.984027973">
        <time>2015-05-24T20:46:26Z</time>
      </trkpt>
      <trkpt lat="40.759704048" lon="-73.984112778">
        <time>2015-05-24T20:51:33Z</time>
      </trkpt>
      <trkpt lat="40.759673682" lon="-73.984021604">
        <time>2015-05-24T20:56:39Z</time>
      </trkpt>
      <trkpt lat="40.759664026" lon="-73.984668873">
        <time>2015-05-24T21:01:52Z</time>
      </trkpt>
      <trkpt lat="40.758760421" lon="-73.985256261">
        <time>2015-05-24T21:06:40Z</time>
      </trkpt>
      <trkpt lat="40.757714354" lon="-73.985480883">
        <time>2015-05-24T21:11:33Z</time>
      </trkpt>
      <trkpt lat="40.757704115" lon="-73.985413254">
        <time>2015-05-24T21:16:26Z</time>
      </trkpt>
      <trkpt lat="40.757710285" lon="-73.985477449">
        <time>2015-05-24T21:21:26Z</time>
      </trkpt>
      <trkpt lat="40.757757801" lon="-73.985556882">
        <time>2015-05-24T21:26:26Z</time>
      </trkpt>
      <trkpt lat="40.758942687" lon="-73.985069290">
        <time>2015-05-24T21:31:32Z</time>
      </trkpt>
      <trkpt lat="40.761298609" lon="-73.985229411">
        <time>2015-05-24T21:36:26Z</time>
      </trkpt>
      <trkpt lat="40.758959054" lon="-73.984958485">
        <time>2015-05-24T21:46:26Z</time>
      </trkpt>
      <trkpt lat="40.758958836" lon="-73.984964855">
        <time>2015-05-24T21:51:26Z</time>
      </trkpt>
      <trkpt lat="40.758998518" lon="-73.984906593">
        <time>2015-05-24T21:56:33Z</time>
      </trkpt>
      <trkpt lat="40.759667621" lon="-73.985051942">
        <time>2015-05-24T22:01:38Z</time>
      </trkpt>
      <trkpt lat="40.760316856" lon="-73.984800380">
        <time>2015-05-24T22:06:26Z</time>
      </trkpt>
      <trkpt lat="40.759704546" lon="-73.984952024">
        <time>2015-05-24T22:11:26Z</time>
      </trkpt>
      <trkpt lat="40.759448810" lon="-73.984473973">
        <time>2015-05-24T22:16:26Z</time>
      </trkpt>
      <trkpt lat="40.760742317" lon="-73.986188559">
        <time>2015-05-24T22:21:43Z</time>
      </trkpt>
      <trkpt lat="40.762179219" lon="-73.990062928">
        <time>2015-05-24T22:26:32Z</time>
      </trkpt>
      <trkpt lat="40.764096692" lon="-73.994199435">
        <time>2015-05-24T22:31:39Z</time>
      </trkpt>
      <trkpt lat="40.764207749" lon="-73.994378464">
        <time>2015-05-24T22:36:35Z</time>
      </trkpt>
      <trkpt lat="40.764158819" lon="-73.994461693">
        <time>2015-05-24T22:41:26Z</time>
      </trkpt>
      <trkpt lat="40.764171025" lon="-73.994472003">
        <time>2015-05-24T22:46:26Z</time>
      </trkpt>
      <trkpt lat="40.764169704" lon="-73.994267660">
        <time>2015-05-24T22:51:33Z</time>
      </trkpt>
      <trkpt lat="40.764174651" lon="-73.994245616">
        <time>2015-05-24T22:56:31Z</time>
      </trkpt>
      <trkpt lat="40.763875798" lon="-73.994655311">
        <time>2015-05-24T23:01:43Z</time>
      </trkpt>
      <trkpt lat="40.764132320" lon="-73.994380309">
        <time>2015-05-24T23:06:26Z</time>
      </trkpt>
      <trkpt lat="40.764166737" lon="-73.994474936">
        <time>2015-05-24T23:11:26Z</time>
      </trkpt>
      <trkpt lat="40.764171025" lon="-73.994472003">
        <time>2015-05-24T23:16:26Z</time>
      </trkpt>
      <trkpt lat="40.764291317" lon="-73.994868619">
        <time>2015-05-24T23:21:26Z</time>
      </trkpt>
      <trkpt lat="40.759782026" lon="-73.991590963">
        <time>2015-05-24T23:26:26Z</time>
      </trkpt>
      <trkpt lat="40.757050127" lon="-73.989703720">
        <time>2015-05-24T23:31:26Z</time>
      </trkpt>
    </trkseg>
  </trk>
</gpx>
