{"type":"FeatureCollection","features":[{"type":"Feature","properties":{"name":"gps4cam trip started at: 2019-02-25T05:23:46Z","time":"2019-02-25T15:58:51Z","coordTimes":["2019-02-25T15:58:51Z","2019-02-25T16:03:50Z","2019-02-25T16:08:47Z","2019-02-25T16:13:46Z","2019-02-25T16:18:46Z","2019-02-25T16:23:50Z","2019-02-25T16:28:49Z","2019-02-25T16:33:49Z","2019-02-25T16:39:05Z","2019-02-25T16:43:47Z","2019-02-25T16:48:46Z","2019-02-25T16:53:46Z","2019-02-25T16:59:03Z","2019-02-25T17:04:06Z","2019-02-25T17:33:55Z","2019-02-25T17:38:47Z","2019-02-25T17:45:27Z"],"type":"marche","month":"2019-02-01"},"geometry":{"type":"LineString","coordinates":[[35.390420611,-1.592725701],[35.389973611,-1.592751067],[35.390216246,-1.592499226],[35.389930088,-1.592719449],[35.390252718,-1.592719811],[35.390109086,-1.592533743],[35.390313113,-1.592835193],[35.390307661,-1.59272908],[35.390247672,-1.592703144],[35.390268194,-1.592694836],[35.390149365,-1.592746879],[35.390149117,-1.592742056],[35.390194464,-1.592727637],[35.39015797,-1.592751273],[35.390206876,-1.592724582],[35.39015797,-1.592751273],[35.39015342,-1.592744253]]}}]}