<?xml version="1.0" encoding="UTF-8"?>
<gpx version="1.1" creator="GPSBabel - https://www.gpsbabel.org" xmlns="http://www.topografix.com/GPX/1/1" xmlns:xsi="http://www.w3.org/2001/XMLSchema-instance" xmlns:gpxtpx="http://www.garmin.com/xmlschemas/TrackPointExtension/v1" xmlns:gpxx="http://www.garmin.com/xmlschemas/GpxExtensions/v3" xmlns:gpxpx="http://www.garmin.com/xmlschemas/PowerExtension/v1" xmlns:gpx_style="http://www.topografix.com/GPX/gpx_style/0/2">
  <metadata>
    <name>gps4cam trip started at 2018-08-26 11-27 decoded at 2018-08-26 18-55-55</name>
    <link href="http://gps4cam.com">
      <text>gps4cam</text>
    </link>
    <time>2025-09-15T10:25:43.894Z</time>
    <bounds minlat="53.479551555" minlon="6.157833823" maxlat="53.496611051" maxlon="6.220409784"/>
  </metadata>
  <trk>
    <name>gps4cam trip started at: 2018-08-26T09:27:21Z</name>
    <trkseg>
      <trkpt lat="53.486477157" lon="6.220409784">
        <time>2018-08-26T15:22:40Z</time>
      </trkpt>
      <trkpt lat="53.486543996" lon="6.220214728">
        <time>2018-08-26T15:25:47Z</time>
      </trkpt>
      <trkpt lat="53.486557761" lon="6.219955637">
        <time>2018-08-26T15:33:26Z</time>
      </trkpt>
      <trkpt lat="53.486587739" lon="6.219721864">
        <time>2018-08-26T15:33:30Z</time>
      </trkpt>
      <trkpt lat="53.486580518" lon="6.219465599">
        <time>2018-08-26T15:33:34Z</time>
      </trkpt>
      <trkpt lat="53.486548216" lon="6.219207860">
        <time>2018-08-26T15:33:39Z</time>
      </trkpt>
      <trkpt lat="53.486528539" lon="6.218946802">
        <time>2018-08-26T15:33:45Z</time>
      </trkpt>
      <trkpt lat="53.486529170" lon="6.218715365">
        <time>2018-08-26T15:33:50Z</time>
      </trkpt>
      <trkpt lat="53.486371589" lon="6.218243156">
        <time>2018-08-26T15:34:00Z</time>
      </trkpt>
      <trkpt lat="53.486279245" lon="6.218054988">
        <time>2018-08-26T15:34:05Z</time>
      </trkpt>
      <trkpt lat="53.486246772" lon="6.217805363">
        <time>2018-08-26T15:34:10Z</time>
      </trkpt>
      <trkpt lat="53.486278387" lon="6.217291483">
        <time>2018-08-26T15:34:18Z</time>
      </trkpt>
      <trkpt lat="53.486271668" lon="6.217010885">
        <time>2018-08-26T15:34:22Z</time>
      </trkpt>
      <trkpt lat="53.486247553" lon="6.216761752">
        <time>2018-08-26T15:34:26Z</time>
      </trkpt>
      <trkpt lat="53.486252613" lon="6.216518394">
        <time>2018-08-26T15:34:30Z</time>
      </trkpt>
      <trkpt lat="53.486241459" lon="6.216249719">
        <time>2018-08-26T15:34:34Z</time>
      </trkpt>
      <trkpt lat="53.486204550" lon="6.216012018">
        <time>2018-08-26T15:34:38Z</time>
      </trkpt>
      <trkpt lat="53.486184360" lon="6.215775299">
        <time>2018-08-26T15:34:42Z</time>
      </trkpt>
      <trkpt lat="53.486214330" lon="6.215541526">
        <time>2018-08-26T15:34:45Z</time>
      </trkpt>
      <trkpt lat="53.486231676" lon="6.215311072">
        <time>2018-08-26T15:34:49Z</time>
      </trkpt>
      <trkpt lat="53.486194427" lon="6.215089596">
        <time>2018-08-26T15:34:53Z</time>
      </trkpt>
      <trkpt lat="53.486188040" lon="6.214792775">
        <time>2018-08-26T15:34:57Z</time>
      </trkpt>
      <trkpt lat="53.486218683" lon="6.214526553">
        <time>2018-08-26T15:35:01Z</time>
      </trkpt>
      <trkpt lat="53.486229184" lon="6.214222601">
        <time>2018-08-26T15:35:05Z</time>
      </trkpt>
      <trkpt lat="53.486264259" lon="6.213944456">
        <time>2018-08-26T15:35:09Z</time>
      </trkpt>
      <trkpt lat="53.486352747" lon="6.213714115">
        <time>2018-08-26T15:35:13Z</time>
      </trkpt>
      <trkpt lat="53.486612481" lon="6.213298893">
        <time>2018-08-26T15:35:21Z</time>
      </trkpt>
      <trkpt lat="53.486725543" lon="6.213094355">
        <time>2018-08-26T15:35:25Z</time>
      </trkpt>
      <trkpt lat="53.486804827" lon="6.212904079">
        <time>2018-08-26T15:35:28Z</time>
      </trkpt>
      <trkpt lat="53.486930681" lon="6.212688107">
        <time>2018-08-26T15:35:32Z</time>
      </trkpt>
      <trkpt lat="53.487056029" lon="6.212496469">
        <time>2018-08-26T15:35:36Z</time>
      </trkpt>
      <trkpt lat="53.487161235" lon="6.212267101">
        <time>2018-08-26T15:35:40Z</time>
      </trkpt>
      <trkpt lat="53.487213025" lon="6.211989928">
        <time>2018-08-26T15:35:44Z</time>
      </trkpt>
      <trkpt lat="53.487206125" lon="6.211717436">
        <time>2018-08-26T15:35:48Z</time>
      </trkpt>
      <trkpt lat="53.487178239" lon="6.211447776">
        <time>2018-08-26T15:35:52Z</time>
      </trkpt>
      <trkpt lat="53.487227558" lon="6.210886187">
        <time>2018-08-26T15:36:00Z</time>
      </trkpt>
      <trkpt lat="53.487266384" lon="6.210628558">
        <time>2018-08-26T15:36:04Z</time>
      </trkpt>
      <trkpt lat="53.487331915" lon="6.210092284">
        <time>2018-08-26T15:36:12Z</time>
      </trkpt>
      <trkpt lat="53.487354019" lon="6.209833674">
        <time>2018-08-26T15:36:16Z</time>
      </trkpt>
      <trkpt lat="53.487351042" lon="6.209573595">
        <time>2018-08-26T15:36:20Z</time>
      </trkpt>
      <trkpt lat="53.487334935" lon="6.209341174">
        <time>2018-08-26T15:36:24Z</time>
      </trkpt>
      <trkpt lat="53.487470044" lon="6.209284110">
        <time>2018-08-26T15:36:29Z</time>
      </trkpt>
      <trkpt lat="53.487614917" lon="6.209361633">
        <time>2018-08-26T15:36:35Z</time>
      </trkpt>
      <trkpt lat="53.487742338" lon="6.209271630">
        <time>2018-08-26T15:37:53Z</time>
      </trkpt>
      <trkpt lat="53.487863416" lon="6.209083790">
        <time>2018-08-26T15:38:01Z</time>
      </trkpt>
      <trkpt lat="53.488159937" lon="6.208508235">
        <time>2018-08-26T15:38:15Z</time>
      </trkpt>
      <trkpt lat="53.488351090" lon="6.208170171">
        <time>2018-08-26T15:38:25Z</time>
      </trkpt>
      <trkpt lat="53.488438726" lon="6.207980367">
        <time>2018-08-26T15:38:30Z</time>
      </trkpt>
      <trkpt lat="53.488683672" lon="6.207267761">
        <time>2018-08-26T15:38:45Z</time>
      </trkpt>
      <trkpt lat="53.488814556" lon="6.206808388">
        <time>2018-08-26T15:38:52Z</time>
      </trkpt>
      <trkpt lat="53.488895174" lon="6.206553190">
        <time>2018-08-26T15:38:55Z</time>
      </trkpt>
      <trkpt lat="53.489031998" lon="6.206008876">
        <time>2018-08-26T15:39:01Z</time>
      </trkpt>
      <trkpt lat="53.489070981" lon="6.205743118">
        <time>2018-08-26T15:39:04Z</time>
      </trkpt>
      <trkpt lat="53.489090424" lon="6.205208181">
        <time>2018-08-26T15:39:10Z</time>
      </trkpt>
      <trkpt lat="53.489087100" lon="6.204964316">
        <time>2018-08-26T15:39:13Z</time>
      </trkpt>
      <trkpt lat="53.489097072" lon="6.204684679">
        <time>2018-08-26T15:39:17Z</time>
      </trkpt>
      <trkpt lat="53.489180501" lon="6.203686445">
        <time>2018-08-26T15:39:30Z</time>
      </trkpt>
      <trkpt lat="53.489210951" lon="6.203428309">
        <time>2018-08-26T15:39:34Z</time>
      </trkpt>
      <trkpt lat="53.489228776" lon="6.203173496">
        <time>2018-08-26T15:39:41Z</time>
      </trkpt>
      <trkpt lat="53.489230313" lon="6.202694367">
        <time>2018-08-26T15:39:53Z</time>
      </trkpt>
      <trkpt lat="53.489276978" lon="6.202461544">
        <time>2018-08-26T15:39:56Z</time>
      </trkpt>
      <trkpt lat="53.489361012" lon="6.202243087">
        <time>2018-08-26T15:39:59Z</time>
      </trkpt>
      <trkpt lat="53.489482080" lon="6.202055219">
        <time>2018-08-26T15:40:02Z</time>
      </trkpt>
      <trkpt lat="53.489606573" lon="6.201904102">
        <time>2018-08-26T15:40:05Z</time>
      </trkpt>
      <trkpt lat="53.489928619" lon="6.201711721">
        <time>2018-08-26T15:40:11Z</time>
      </trkpt>
      <trkpt lat="53.490082624" lon="6.201550139">
        <time>2018-08-26T15:40:14Z</time>
      </trkpt>
      <trkpt lat="53.490224842" lon="6.201351317">
        <time>2018-08-26T15:40:17Z</time>
      </trkpt>
      <trkpt lat="53.490351345" lon="6.201102840">
        <time>2018-08-26T15:40:20Z</time>
      </trkpt>
      <trkpt lat="53.490452766" lon="6.200852899">
        <time>2018-08-26T15:40:23Z</time>
      </trkpt>
      <trkpt lat="53.490557614" lon="6.200639707">
        <time>2018-08-26T15:40:26Z</time>
      </trkpt>
      <trkpt lat="53.490900827" lon="6.200030229">
        <time>2018-08-26T15:40:34Z</time>
      </trkpt>
      <trkpt lat="53.491086107" lon="6.199569921">
        <time>2018-08-26T15:40:40Z</time>
      </trkpt>
      <trkpt lat="53.491153415" lon="6.199350473">
        <time>2018-08-26T15:40:43Z</time>
      </trkpt>
      <trkpt lat="53.491440611" lon="6.198615867">
        <time>2018-08-26T15:40:52Z</time>
      </trkpt>
      <trkpt lat="53.491563011" lon="6.198363074">
        <time>2018-08-26T15:40:55Z</time>
      </trkpt>
      <trkpt lat="53.491714923" lon="6.198099816">
        <time>2018-08-26T15:40:58Z</time>
      </trkpt>
      <trkpt lat="53.491884638" lon="6.197987867">
        <time>2018-08-26T15:41:01Z</time>
      </trkpt>
      <trkpt lat="53.492057613" lon="6.197920781">
        <time>2018-08-26T15:41:04Z</time>
      </trkpt>
      <trkpt lat="53.492218298" lon="6.197840795">
        <time>2018-08-26T15:41:07Z</time>
      </trkpt>
      <trkpt lat="53.492527800" lon="6.197444562">
        <time>2018-08-26T15:41:13Z</time>
      </trkpt>
      <trkpt lat="53.492652788" lon="6.197269078">
        <time>2018-08-26T15:41:16Z</time>
      </trkpt>
      <trkpt lat="53.492762561" lon="6.197019599">
        <time>2018-08-26T15:41:19Z</time>
      </trkpt>
      <trkpt lat="53.492944400" lon="6.196522503">
        <time>2018-08-26T15:41:25Z</time>
      </trkpt>
      <trkpt lat="53.493078583" lon="6.196306935">
        <time>2018-08-26T15:41:28Z</time>
      </trkpt>
      <trkpt lat="53.493230405" lon="6.196250793">
        <time>2018-08-26T15:41:31Z</time>
      </trkpt>
      <trkpt lat="53.493527528" lon="6.196048772">
        <time>2018-08-26T15:41:39Z</time>
      </trkpt>
      <trkpt lat="53.493675421" lon="6.195980214">
        <time>2018-08-26T15:41:42Z</time>
      </trkpt>
      <trkpt lat="53.493950304" lon="6.195638799">
        <time>2018-08-26T15:41:48Z</time>
      </trkpt>
      <trkpt lat="53.494055475" lon="6.195409348">
        <time>2018-08-26T15:41:51Z</time>
      </trkpt>
      <trkpt lat="53.494130800" lon="6.195206590">
        <time>2018-08-26T15:41:53Z</time>
      </trkpt>
      <trkpt lat="53.494213983" lon="6.195028658">
        <time>2018-08-26T15:41:55Z</time>
      </trkpt>
      <trkpt lat="53.494302599" lon="6.194790117">
        <time>2018-08-26T15:41:58Z</time>
      </trkpt>
      <trkpt lat="53.494394977" lon="6.194572103">
        <time>2018-08-26T15:42:01Z</time>
      </trkpt>
      <trkpt lat="53.494508004" lon="6.194367474">
        <time>2018-08-26T15:42:04Z</time>
      </trkpt>
      <trkpt lat="53.494596619" lon="6.194128930">
        <time>2018-08-26T15:42:07Z</time>
      </trkpt>
      <trkpt lat="53.494618685" lon="6.193870267">
        <time>2018-08-26T15:42:10Z</time>
      </trkpt>
      <trkpt lat="53.494795745" lon="6.193401288">
        <time>2018-08-26T15:42:16Z</time>
      </trkpt>
      <trkpt lat="53.494867136" lon="6.193186109">
        <time>2018-08-26T15:42:19Z</time>
      </trkpt>
      <trkpt lat="53.495030735" lon="6.192761021">
        <time>2018-08-26T15:42:25Z</time>
      </trkpt>
      <trkpt lat="53.495142757" lon="6.192605067">
        <time>2018-08-26T15:42:28Z</time>
      </trkpt>
      <trkpt lat="53.495275430" lon="6.192462497">
        <time>2018-08-26T15:42:31Z</time>
      </trkpt>
      <trkpt lat="53.495478990" lon="6.192129084">
        <time>2018-08-26T15:42:37Z</time>
      </trkpt>
      <trkpt lat="53.495555310" lon="6.191877629">
        <time>2018-08-26T15:42:40Z</time>
      </trkpt>
      <trkpt lat="53.495691728" lon="6.191349405">
        <time>2018-08-26T15:42:47Z</time>
      </trkpt>
      <trkpt lat="53.495763116" lon="6.191134218">
        <time>2018-08-26T15:42:50Z</time>
      </trkpt>
      <trkpt lat="53.495952454" lon="6.190678114">
        <time>2018-08-26T15:42:56Z</time>
      </trkpt>
      <trkpt lat="53.496096727" lon="6.190174708">
        <time>2018-08-26T15:43:02Z</time>
      </trkpt>
      <trkpt lat="53.496132575" lon="6.189855908">
        <time>2018-08-26T15:43:05Z</time>
      </trkpt>
      <trkpt lat="53.496009173" lon="6.189751257">
        <time>2018-08-26T15:43:13Z</time>
      </trkpt>
      <trkpt lat="53.496112997" lon="6.189586691">
        <time>2018-08-26T15:43:51Z</time>
      </trkpt>
      <trkpt lat="53.496143080" lon="6.189344730">
        <time>2018-08-26T15:43:58Z</time>
      </trkpt>
      <trkpt lat="53.496194314" lon="6.189091810">
        <time>2018-08-26T15:44:03Z</time>
      </trkpt>
      <trkpt lat="53.496261767" lon="6.188864203">
        <time>2018-08-26T15:44:07Z</time>
      </trkpt>
      <trkpt lat="53.496349370" lon="6.188674321">
        <time>2018-08-26T15:44:10Z</time>
      </trkpt>
      <trkpt lat="53.496467387" lon="6.188226246">
        <time>2018-08-26T15:44:17Z</time>
      </trkpt>
      <trkpt lat="53.496509757" lon="6.187997181">
        <time>2018-08-26T15:44:20Z</time>
      </trkpt>
      <trkpt lat="53.496577042" lon="6.187777684">
        <time>2018-08-26T15:44:23Z</time>
      </trkpt>
      <trkpt lat="53.496611051" lon="6.187548132">
        <time>2018-08-26T15:44:26Z</time>
      </trkpt>
      <trkpt lat="53.496553431" lon="6.187297016">
        <time>2018-08-26T15:44:30Z</time>
      </trkpt>
      <trkpt lat="53.496452509" lon="6.187116502">
        <time>2018-08-26T15:44:34Z</time>
      </trkpt>
      <trkpt lat="53.496220988" lon="6.186774063">
        <time>2018-08-26T15:44:42Z</time>
      </trkpt>
      <trkpt lat="53.496141882" lon="6.186550136">
        <time>2018-08-26T15:44:46Z</time>
      </trkpt>
      <trkpt lat="53.496105410" lon="6.186288065">
        <time>2018-08-26T15:44:50Z</time>
      </trkpt>
      <trkpt lat="53.496085825" lon="6.186018851">
        <time>2018-08-26T15:44:54Z</time>
      </trkpt>
      <trkpt lat="53.496010649" lon="6.185807340">
        <time>2018-08-26T15:44:58Z</time>
      </trkpt>
      <trkpt lat="53.495844775" lon="6.185732732">
        <time>2018-08-26T15:45:02Z</time>
      </trkpt>
      <trkpt lat="53.495494310" lon="6.185679914">
        <time>2018-08-26T15:45:10Z</time>
      </trkpt>
      <trkpt lat="53.495049284" lon="6.185544441">
        <time>2018-08-26T15:45:19Z</time>
      </trkpt>
      <trkpt lat="53.494912422" lon="6.185483702">
        <time>2018-08-26T15:45:22Z</time>
      </trkpt>
      <trkpt lat="53.494249862" lon="6.185343738">
        <time>2018-08-26T15:45:37Z</time>
      </trkpt>
      <trkpt lat="53.494075296" lon="6.185284875">
        <time>2018-08-26T15:45:41Z</time>
      </trkpt>
      <trkpt lat="53.493925311" lon="6.185251808">
        <time>2018-08-26T15:45:44Z</time>
      </trkpt>
      <trkpt lat="53.493784518" lon="6.185178658">
        <time>2018-08-26T15:45:47Z</time>
      </trkpt>
      <trkpt lat="53.493493408" lon="6.185088668">
        <time>2018-08-26T15:45:53Z</time>
      </trkpt>
      <trkpt lat="53.493211657" lon="6.184950483">
        <time>2018-08-26T15:45:59Z</time>
      </trkpt>
      <trkpt lat="53.493078725" lon="6.184902159">
        <time>2018-08-26T15:46:02Z</time>
      </trkpt>
      <trkpt lat="53.492643391" lon="6.184702270">
        <time>2018-08-26T15:46:13Z</time>
      </trkpt>
      <trkpt lat="53.492192170" lon="6.184460848">
        <time>2018-08-26T15:46:28Z</time>
      </trkpt>
      <trkpt lat="53.491901059" lon="6.184370862">
        <time>2018-08-26T15:46:39Z</time>
      </trkpt>
      <trkpt lat="53.491606351" lon="6.184252239">
        <time>2018-08-26T15:46:51Z</time>
      </trkpt>
      <trkpt lat="53.491482778" lon="6.184155723">
        <time>2018-08-26T15:46:56Z</time>
      </trkpt>
      <trkpt lat="53.491333792" lon="6.184073980">
        <time>2018-08-26T15:47:02Z</time>
      </trkpt>
      <trkpt lat="53.491049443" lon="6.183858488">
        <time>2018-08-26T15:47:14Z</time>
      </trkpt>
      <trkpt lat="53.490908817" lon="6.183777231">
        <time>2018-08-26T15:47:20Z</time>
      </trkpt>
      <trkpt lat="53.490661838" lon="6.183576092">
        <time>2018-08-26T15:47:30Z</time>
      </trkpt>
      <trkpt lat="53.490075918" lon="6.183168489">
        <time>2018-08-26T15:47:47Z</time>
      </trkpt>
      <trkpt lat="53.489952844" lon="6.183047640">
        <time>2018-08-26T15:47:51Z</time>
      </trkpt>
      <trkpt lat="53.489808620" lon="6.182937749">
        <time>2018-08-26T15:47:56Z</time>
      </trkpt>
      <trkpt lat="53.489665063" lon="6.182795408">
        <time>2018-08-26T15:48:01Z</time>
      </trkpt>
      <trkpt lat="53.489563306" lon="6.182655491">
        <time>2018-08-26T15:48:05Z</time>
      </trkpt>
      <trkpt lat="53.489305367" lon="6.182376565">
        <time>2018-08-26T15:48:14Z</time>
      </trkpt>
      <trkpt lat="53.488934379" lon="6.181896156">
        <time>2018-08-26T15:48:25Z</time>
      </trkpt>
      <trkpt lat="53.488819665" lon="6.181775798">
        <time>2018-08-26T15:48:28Z</time>
      </trkpt>
      <trkpt lat="53.488243994" lon="6.181072364">
        <time>2018-08-26T15:48:44Z</time>
      </trkpt>
      <trkpt lat="53.488008036" lon="6.180741933">
        <time>2018-08-26T15:48:53Z</time>
      </trkpt>
      <trkpt lat="53.487911040" lon="6.180573873">
        <time>2018-08-26T15:48:57Z</time>
      </trkpt>
      <trkpt lat="53.487818640" lon="6.180385776">
        <time>2018-08-26T15:49:01Z</time>
      </trkpt>
      <trkpt lat="53.487722808" lon="6.180160931">
        <time>2018-08-26T15:49:05Z</time>
      </trkpt>
      <trkpt lat="53.487588606" lon="6.179970413">
        <time>2018-08-26T15:49:09Z</time>
      </trkpt>
      <trkpt lat="53.487191970" lon="6.179720028">
        <time>2018-08-26T15:49:18Z</time>
      </trkpt>
      <trkpt lat="53.486761061" lon="6.179508269">
        <time>2018-08-26T15:49:27Z</time>
      </trkpt>
      <trkpt lat="53.486608143" lon="6.179414134">
        <time>2018-08-26T15:49:30Z</time>
      </trkpt>
      <trkpt lat="53.486458489" lon="6.179364859">
        <time>2018-08-26T15:49:33Z</time>
      </trkpt>
      <trkpt lat="53.486322291" lon="6.179271693">
        <time>2018-08-26T15:49:36Z</time>
      </trkpt>
      <trkpt lat="53.485895646" lon="6.179056126">
        <time>2018-08-26T15:49:45Z</time>
      </trkpt>
      <trkpt lat="53.485737632" lon="6.179006367">
        <time>2018-08-26T15:49:48Z</time>
      </trkpt>
      <trkpt lat="53.485174062" lon="6.178937184">
        <time>2018-08-26T15:49:57Z</time>
      </trkpt>
      <trkpt lat="53.485009850" lon="6.178781487">
        <time>2018-08-26T15:50:00Z</time>
      </trkpt>
      <trkpt lat="53.484922877" lon="6.178532807">
        <time>2018-08-26T15:50:03Z</time>
      </trkpt>
      <trkpt lat="53.484791062" lon="6.178021646">
        <time>2018-08-26T15:50:09Z</time>
      </trkpt>
      <trkpt lat="53.484694729" lon="6.177821155">
        <time>2018-08-26T15:50:12Z</time>
      </trkpt>
      <trkpt lat="53.484576249" lon="6.177680294">
        <time>2018-08-26T15:50:15Z</time>
      </trkpt>
      <trkpt lat="53.484415468" lon="6.177561348">
        <time>2018-08-26T15:50:19Z</time>
      </trkpt>
      <trkpt lat="53.484266479" lon="6.177479631">
        <time>2018-08-26T15:50:23Z</time>
      </trkpt>
      <trkpt lat="53.483824714" lon="6.177389089">
        <time>2018-08-26T15:50:40Z</time>
      </trkpt>
      <trkpt lat="53.483671296" lon="6.177319299">
        <time>2018-08-26T15:50:46Z</time>
      </trkpt>
      <trkpt lat="53.483531166" lon="6.177213733">
        <time>2018-08-26T15:50:51Z</time>
      </trkpt>
      <trkpt lat="53.483417614" lon="6.177036615">
        <time>2018-08-26T15:50:55Z</time>
      </trkpt>
      <trkpt lat="53.483300463" lon="6.176830867">
        <time>2018-08-26T15:50:59Z</time>
      </trkpt>
      <trkpt lat="53.483208559" lon="6.176618459">
        <time>2018-08-26T15:51:02Z</time>
      </trkpt>
      <trkpt lat="53.483142566" lon="6.176366946">
        <time>2018-08-26T15:51:05Z</time>
      </trkpt>
      <trkpt lat="53.483106582" lon="6.176080626">
        <time>2018-08-26T15:51:08Z</time>
      </trkpt>
      <trkpt lat="53.483090418" lon="6.175848239">
        <time>2018-08-26T15:51:10Z</time>
      </trkpt>
      <trkpt lat="53.483029351" lon="6.175560468">
        <time>2018-08-26T15:51:13Z</time>
      </trkpt>
      <trkpt lat="53.482947633" lon="6.175259322">
        <time>2018-08-26T15:51:16Z</time>
      </trkpt>
      <trkpt lat="53.482844266" lon="6.174993469">
        <time>2018-08-26T15:51:19Z</time>
      </trkpt>
      <trkpt lat="53.482628007" lon="6.174518063">
        <time>2018-08-26T15:51:25Z</time>
      </trkpt>
      <trkpt lat="53.482486823" lon="6.174055124">
        <time>2018-08-26T15:51:31Z</time>
      </trkpt>
      <trkpt lat="53.482226266" lon="6.173085850">
        <time>2018-08-26T15:51:45Z</time>
      </trkpt>
      <trkpt lat="53.482055227" lon="6.172036490">
        <time>2018-08-26T15:52:01Z</time>
      </trkpt>
      <trkpt lat="53.481942715" lon="6.171603644">
        <time>2018-08-26T15:52:09Z</time>
      </trkpt>
      <trkpt lat="53.481947693" lon="6.171360306">
        <time>2018-08-26T15:52:13Z</time>
      </trkpt>
      <trkpt lat="53.481927590" lon="6.171115519">
        <time>2018-08-26T15:52:17Z</time>
      </trkpt>
      <trkpt lat="53.481898960" lon="6.170878361">
        <time>2018-08-26T15:52:21Z</time>
      </trkpt>
      <trkpt lat="53.481853775" lon="6.170632126">
        <time>2018-08-26T15:52:25Z</time>
      </trkpt>
      <trkpt lat="53.481820881" lon="6.170398783">
        <time>2018-08-26T15:52:29Z</time>
      </trkpt>
      <trkpt lat="53.481784436" lon="6.169929731">
        <time>2018-08-26T15:52:37Z</time>
      </trkpt>
      <trkpt lat="53.481759735" lon="6.169704983">
        <time>2018-08-26T15:52:41Z</time>
      </trkpt>
      <trkpt lat="53.481631917" lon="6.168792136">
        <time>2018-08-26T15:52:57Z</time>
      </trkpt>
      <trkpt lat="53.481590494" lon="6.168566424">
        <time>2018-08-26T15:53:01Z</time>
      </trkpt>
      <trkpt lat="53.481557596" lon="6.168333083">
        <time>2018-08-26T15:53:05Z</time>
      </trkpt>
      <trkpt lat="53.481470605" lon="6.168084441">
        <time>2018-08-26T15:53:09Z</time>
      </trkpt>
      <trkpt lat="53.481331417" lon="6.168137315">
        <time>2018-08-26T15:53:11Z</time>
      </trkpt>
      <trkpt lat="53.481158124" lon="6.168220704">
        <time>2018-08-26T15:53:14Z</time>
      </trkpt>
      <trkpt lat="53.481005484" lon="6.168317465">
        <time>2018-08-26T15:53:17Z</time>
      </trkpt>
      <trkpt lat="53.480853553" lon="6.168174707">
        <time>2018-08-26T15:53:21Z</time>
      </trkpt>
      <trkpt lat="53.480793015" lon="6.167655554">
        <time>2018-08-26T15:53:28Z</time>
      </trkpt>
      <trkpt lat="53.480722954" lon="6.167192697">
        <time>2018-08-26T15:53:36Z</time>
      </trkpt>
      <trkpt lat="53.480656614" lon="6.166957434">
        <time>2018-08-26T15:53:41Z</time>
      </trkpt>
      <trkpt lat="53.480524837" lon="6.166852386">
        <time>2018-08-26T15:53:46Z</time>
      </trkpt>
      <trkpt lat="53.480423398" lon="6.166696305">
        <time>2018-08-26T15:53:50Z</time>
      </trkpt>
      <trkpt lat="53.480314592" lon="6.166491076">
        <time>2018-08-26T15:53:54Z</time>
      </trkpt>
      <trkpt lat="53.480230536" lon="6.166303517">
        <time>2018-08-26T15:53:57Z</time>
      </trkpt>
      <trkpt lat="53.480173051" lon="6.166044407">
        <time>2018-08-26T15:53:59Z</time>
      </trkpt>
      <trkpt lat="53.480139984" lon="6.165819186">
        <time>2018-08-26T15:54:01Z</time>
      </trkpt>
      <trkpt lat="53.480115775" lon="6.165570116">
        <time>2018-08-26T15:54:03Z</time>
      </trkpt>
      <trkpt lat="53.480054688" lon="6.165282377">
        <time>2018-08-26T15:54:06Z</time>
      </trkpt>
      <trkpt lat="53.480032133" lon="6.164952198">
        <time>2018-08-26T15:54:09Z</time>
      </trkpt>
      <trkpt lat="53.480007425" lon="6.164727461">
        <time>2018-08-26T15:54:11Z</time>
      </trkpt>
      <trkpt lat="53.479963222" lon="6.164432577">
        <time>2018-08-26T15:54:14Z</time>
      </trkpt>
      <trkpt lat="53.479952461" lon="6.164139621">
        <time>2018-08-26T15:54:17Z</time>
      </trkpt>
      <trkpt lat="53.479907264" lon="6.163893403">
        <time>2018-08-26T15:54:20Z</time>
      </trkpt>
      <trkpt lat="53.479837357" lon="6.163422451">
        <time>2018-08-26T15:54:26Z</time>
      </trkpt>
      <trkpt lat="53.479813142" lon="6.163173383">
        <time>2018-08-26T15:54:29Z</time>
      </trkpt>
      <trkpt lat="53.479676184" lon="6.162706692">
        <time>2018-08-26T15:54:41Z</time>
      </trkpt>
      <trkpt lat="53.479689838" lon="6.162447626">
        <time>2018-08-26T15:55:25Z</time>
      </trkpt>
      <trkpt lat="53.479618400" lon="6.162256743">
        <time>2018-08-26T16:22:35Z</time>
      </trkpt>
      <trkpt lat="53.479551555" lon="6.162045825">
        <time>2018-08-26T16:22:48Z</time>
      </trkpt>
      <trkpt lat="53.479631263" lon="6.161831164">
        <time>2018-08-26T16:22:55Z</time>
      </trkpt>
      <trkpt lat="53.479898500" lon="6.161655720">
        <time>2018-08-26T16:23:05Z</time>
      </trkpt>
      <trkpt lat="53.480312621" lon="6.161460306">
        <time>2018-08-26T16:23:22Z</time>
      </trkpt>
      <trkpt lat="53.480588383" lon="6.161277226">
        <time>2018-08-26T16:23:35Z</time>
      </trkpt>
      <trkpt lat="53.480985486" lon="6.160889989">
        <time>2018-08-26T16:23:53Z</time>
      </trkpt>
      <trkpt lat="53.481112710" lon="6.160807983">
        <time>2018-08-26T16:23:56Z</time>
      </trkpt>
      <trkpt lat="53.481534066" lon="6.160462734">
        <time>2018-08-26T16:24:07Z</time>
      </trkpt>
      <trkpt lat="53.482233163" lon="6.159837042">
        <time>2018-08-26T16:24:22Z</time>
      </trkpt>
      <trkpt lat="53.482361872" lon="6.159682027">
        <time>2018-08-26T16:24:25Z</time>
      </trkpt>
      <trkpt lat="53.482522700" lon="6.159593825">
        <time>2018-08-26T16:24:28Z</time>
      </trkpt>
      <trkpt lat="53.482663867" lon="6.159443584">
        <time>2018-08-26T16:24:31Z</time>
      </trkpt>
      <trkpt lat="53.482801596" lon="6.159256601">
        <time>2018-08-26T16:24:34Z</time>
      </trkpt>
      <trkpt lat="53.482967348" lon="6.159132134">
        <time>2018-08-26T16:24:38Z</time>
      </trkpt>
      <trkpt lat="53.483095560" lon="6.159001448">
        <time>2018-08-26T16:24:41Z</time>
      </trkpt>
      <trkpt lat="53.483260321" lon="6.158925649">
        <time>2018-08-26T16:24:44Z</time>
      </trkpt>
      <trkpt lat="53.483545263" lon="6.158702456">
        <time>2018-08-26T16:24:50Z</time>
      </trkpt>
      <trkpt lat="53.483682825" lon="6.158523576">
        <time>2018-08-26T16:24:54Z</time>
      </trkpt>
      <trkpt lat="53.483819067" lon="6.158409589">
        <time>2018-08-26T16:24:57Z</time>
      </trkpt>
      <trkpt lat="53.483939578" lon="6.158245970">
        <time>2018-08-26T16:25:00Z</time>
      </trkpt>
      <trkpt lat="53.484018618" lon="6.158063725">
        <time>2018-08-26T16:25:04Z</time>
      </trkpt>
      <trkpt lat="53.484149936" lon="6.157985998">
        <time>2018-08-26T16:25:07Z</time>
      </trkpt>
      <trkpt lat="53.484257658" lon="6.157833823">
        <time>2018-08-26T16:25:10Z</time>
      </trkpt>
    </trkseg>
  </trk>
</gpx>
