{"type":"FeatureCollection","features":[{"type":"Feature","properties":{"name":"gps4cam trip started at: 2019-02-25T05:23:46Z","time":"2019-02-25T11:00:16Z","coordTimes":["2019-02-25T11:00:16Z","2019-02-25T11:03:52Z","2019-02-25T11:09:02Z","2019-02-25T11:14:04Z","2019-02-25T11:18:46Z","2019-02-25T11:23:53Z","2019-02-25T11:28:46Z","2019-02-25T11:33:46Z","2019-02-25T11:43:46Z","2019-02-25T11:48:46Z","2019-02-25T11:51:02Z","2019-02-25T11:53:46Z","2019-02-25T11:58:46Z","2019-02-25T12:13:03Z","2019-02-25T12:28:46Z","2019-02-25T12:33:46Z","2019-02-25T12:38:46Z","2019-02-25T12:48:46Z","2019-02-25T12:53:46Z","2019-02-25T13:03:46Z","2019-02-25T13:08:46Z","2019-02-25T13:13:46Z"],"type":"marche","month":"2019-02-01"},"geometry":{"type":"LineString","coordinates":[[35.390450935,-1.592603366],[35.390260021,-1.592801772],[35.390268468,-1.592721544],[35.389628163,-1.591920199],[35.389661029,-1.591744414],[35.390112269,-1.592453906],[35.390118216,-1.592569666],[35.390268471,-1.592721541],[35.390068657,-1.592502087],[35.390064602,-1.592504713],[35.390259618,-1.592712323],[35.390255068,-1.592705303],[35.390268471,-1.592721541],[35.390064603,-1.592504713],[35.390215353,-1.592666235],[35.390073208,-1.592509107],[35.390264169,-1.592719343],[35.390064603,-1.592504713],[35.390264169,-1.592719343],[35.390068658,-1.592502086],[35.390064604,-1.592504713],[35.390259619,-1.592712322]]}}]}