{"type":"FeatureCollection","features":[{"type":"Feature","properties":{"name":"Objectif übersquadratinho++","type":"gravel","time":"2025-04-03T10:37:18Z","coordTimes":["2025-04-03T10:37:18Z","2025-04-03T10:37:19Z","2025-04-03T10:37:23Z","2025-04-03T10:37:27Z","2025-04-03T10:37:35Z","2025-04-03T10:37:38Z","2025-04-03T10:37:42Z","2025-04-03T10:37:59Z","2025-04-03T10:38:02Z","2025-04-03T10:38:10Z","2025-04-03T10:38:12Z","2025-04-03T10:38:13Z","2025-04-03T10:38:15Z","2025-04-03T10:38:20Z","2025-04-03T10:38:21Z","2025-04-03T10:38:24Z","2025-04-03T10:38:27Z","2025-04-03T10:38:36Z","2025-04-03T10:38:41Z","2025-04-03T10:38:45Z","2025-04-03T10:39:28Z","2025-04-03T10:39:30Z","2025-04-03T10:39:33Z","2025-04-03T10:39:34Z","2025-04-03T10:39:35Z","2025-04-03T10:39:38Z","2025-04-03T10:39:41Z","2025-04-03T10:39:43Z","2025-04-03T10:39:51Z","2025-04-03T10:39:55Z","2025-04-03T10:39:58Z","2025-04-03T10:40:01Z","2025-04-03T10:40:02Z","2025-04-03T10:40:04Z","2025-04-03T10:40:18Z","2025-04-03T10:40:21Z","2025-04-03T10:40:24Z","2025-04-03T10:40:33Z","2025-04-03T10:40:37Z","2025-04-03T10:40:43Z","2025-04-03T10:40:45Z","2025-04-03T10:40:47Z","2025-04-03T10:40:52Z","2025-04-03T10:40:57Z","2025-04-03T10:40:59Z","2025-04-03T10:41:06Z","2025-04-03T10:41:08Z","2025-04-03T10:41:13Z","2025-04-03T10:41:15Z","2025-04-03T10:41:18Z","2025-04-03T10:41:20Z","2025-04-03T10:41:21Z","2025-04-03T10:41:22Z","2025-04-03T10:41:23Z","2025-04-03T10:41:25Z","2025-04-03T10:41:27Z","2025-04-03T10:41:28Z","2025-04-03T10:41:32Z","2025-04-03T10:41:35Z","2025-04-03T10:41:37Z","2025-04-03T10:41:39Z","2025-04-03T10:41:42Z","2025-04-03T10:41:45Z","2025-04-03T10:41:48Z","2025-04-03T10:41:51Z","2025-04-03T10:41:54Z","2025-04-03T10:41:56Z","2025-04-03T10:41:59Z","2025-04-03T10:42:01Z","2025-04-03T10:42:03Z","2025-04-03T10:42:05Z","2025-04-03T10:42:06Z","2025-04-03T10:42:08Z","2025-04-03T10:42:09Z","2025-04-03T10:42:10Z","2025-04-03T10:42:11Z","2025-04-03T10:42:13Z","2025-04-03T10:42:18Z","2025-04-03T10:42:19Z","2025-04-03T10:42:21Z","2025-04-03T10:42:22Z","2025-04-03T10:42:24Z","2025-04-03T10:42:27Z","2025-04-03T10:42:29Z","2025-04-03T10:42:32Z","2025-04-03T10:42:33Z","2025-04-03T10:42:36Z","2025-04-03T10:42:37Z","2025-04-03T10:42:39Z","2025-04-03T10:42:41Z","2025-04-03T10:42:42Z","2025-04-03T10:42:43Z","2025-04-03T10:42:44Z","2025-04-03T10:42:45Z","2025-04-03T10:42:48Z","2025-04-03T10:42:50Z","2025-04-03T10:42:52Z","2025-04-03T10:42:55Z","2025-04-03T10:42:56Z","2025-04-03T10:42:58Z","2025-04-03T10:43:00Z","2025-04-03T10:43:02Z","2025-04-03T10:43:03Z","2025-04-03T10:43:05Z","2025-04-03T10:43:06Z","2025-04-03T10:43:09Z","2025-04-03T10:43:10Z","2025-04-03T10:43:11Z","2025-04-03T10:43:13Z","2025-04-03T10:43:14Z","2025-04-03T10:43:16Z","2025-04-03T10:43:18Z","2025-04-03T10:43:21Z","2025-04-03T10:43:23Z","2025-04-03T10:43:26Z","2025-04-03T10:43:28Z","2025-04-03T10:43:30Z","2025-04-03T10:43:31Z","2025-04-03T10:43:32Z","2025-04-03T10:43:34Z","2025-04-03T10:43:38Z","2025-04-03T10:43:40Z","2025-04-03T10:43:42Z","2025-04-03T10:43:43Z","2025-04-03T10:43:45Z","2025-04-03T10:43:46Z","2025-04-03T10:43:47Z","2025-04-03T10:43:48Z","2025-04-03T10:43:51Z","2025-04-03T10:43:55Z","2025-04-03T10:43:56Z","2025-04-03T10:43:57Z","2025-04-03T10:43:59Z","2025-04-03T10:44:02Z","2025-04-03T10:44:04Z","2025-04-03T10:44:05Z","2025-04-03T10:44:06Z","2025-04-03T10:44:08Z","2025-04-03T10:44:10Z","2025-04-03T10:44:14Z","2025-04-03T10:44:22Z","2025-04-03T10:44:32Z","2025-04-03T10:44:35Z","2025-04-03T10:44:40Z","2025-04-03T10:44:48Z","2025-04-03T10:44:52Z","2025-04-03T10:44:54Z","2025-04-03T10:44:56Z","2025-04-03T10:44:59Z","2025-04-03T10:45:05Z","2025-04-03T10:45:07Z","2025-04-03T10:45:08Z","2025-04-03T10:45:10Z","2025-04-03T10:45:12Z","2025-04-03T10:45:15Z","2025-04-03T10:45:18Z","2025-04-03T10:45:22Z","2025-04-03T10:45:23Z","2025-04-03T10:45:29Z","2025-04-03T10:45:33Z","2025-04-03T10:45:51Z","2025-04-03T10:45:53Z","2025-04-03T10:45:55Z","2025-04-03T10:46:02Z","2025-04-03T10:46:04Z","2025-04-03T10:46:09Z","2025-04-03T10:46:11Z","2025-04-03T10:46:12Z","2025-04-03T10:46:13Z","2025-04-03T10:46:16Z","2025-04-03T10:46:19Z","2025-04-03T10:46:21Z","2025-04-03T10:46:22Z","2025-04-03T10:46:23Z","2025-04-03T10:46:25Z","2025-04-03T10:46:34Z","2025-04-03T10:46:38Z","2025-04-03T10:46:41Z","2025-04-03T10:46:51Z","2025-04-03T10:46:59Z","2025-04-03T10:47:07Z","2025-04-03T10:47:15Z","2025-04-03T10:47:22Z","2025-04-03T10:47:24Z","2025-04-03T10:47:31Z","2025-04-03T10:47:33Z","2025-04-03T10:47:39Z","2025-04-03T10:47:41Z","2025-04-03T10:47:43Z","2025-04-03T10:47:45Z","2025-04-03T10:47:48Z","2025-04-03T10:48:08Z","2025-04-03T10:48:17Z","2025-04-03T10:48:30Z","2025-04-03T10:48:37Z","2025-04-03T10:48:41Z","2025-04-03T10:48:44Z","2025-04-03T10:48:48Z","2025-04-03T10:48:49Z","2025-04-03T10:48:55Z","2025-04-03T10:49:00Z","2025-04-03T10:49:03Z","2025-04-03T10:49:04Z","2025-04-03T10:49:05Z","2025-04-03T10:49:08Z","2025-04-03T10:49:12Z","2025-04-03T10:49:16Z","2025-04-03T10:49:19Z","2025-04-03T10:49:20Z","2025-04-03T10:49:22Z","2025-04-03T10:49:47Z","2025-04-03T10:49:54Z","2025-04-03T10:49:59Z","2025-04-03T10:50:01Z","2025-04-03T10:50:04Z","2025-04-03T10:50:08Z","2025-04-03T10:50:12Z","2025-04-03T10:50:38Z","2025-04-03T10:50:42Z","2025-04-03T10:50:47Z","2025-04-03T10:50:50Z","2025-04-03T10:50:51Z","2025-04-03T10:50:55Z","2025-04-03T10:50:57Z","2025-04-03T10:50:59Z","2025-04-03T10:51:02Z","2025-04-03T10:51:06Z","2025-04-03T10:51:08Z","2025-04-03T10:51:17Z","2025-04-03T10:51:20Z","2025-04-03T10:51:33Z","2025-04-03T10:51:35Z","2025-04-03T10:51:57Z","2025-04-03T10:52:01Z","2025-04-03T10:52:02Z","2025-04-03T10:52:04Z","2025-04-03T10:52:05Z","2025-04-03T10:52:06Z","2025-04-03T10:52:07Z","2025-04-03T10:52:08Z","2025-04-03T10:52:09Z","2025-04-03T10:52:10Z","2025-04-03T10:52:11Z","2025-04-03T10:52:12Z","2025-04-03T10:52:13Z","2025-04-03T10:52:17Z","2025-04-03T10:52:22Z","2025-04-03T10:52:28Z","2025-04-03T10:52:30Z","2025-04-03T10:52:38Z","2025-04-03T10:52:41Z","2025-04-03T10:52:43Z","2025-04-03T10:52:48Z","2025-04-03T10:52:55Z","2025-04-03T10:52:57Z","2025-04-03T10:53:07Z","2025-04-03T10:53:08Z","2025-04-03T10:53:11Z","2025-04-03T10:53:15Z","2025-04-03T10:53:16Z","2025-04-03T10:53:19Z","2025-04-03T10:53:22Z","2025-04-03T10:53:23Z","2025-04-03T10:53:28Z","2025-04-03T10:53:31Z","2025-04-03T10:53:38Z","2025-04-03T10:53:39Z","2025-04-03T10:53:46Z","2025-04-03T10:53:51Z","2025-04-03T10:53:53Z","2025-04-03T10:53:58Z","2025-04-03T10:53:59Z","2025-04-03T10:54:01Z","2025-04-03T10:54:02Z","2025-04-03T10:54:04Z","2025-04-03T10:54:08Z","2025-04-03T10:54:10Z","2025-04-03T10:54:17Z","2025-04-03T10:54:20Z","2025-04-03T10:54:21Z","2025-04-03T10:54:22Z","2025-04-03T10:54:23Z","2025-04-03T10:54:26Z","2025-04-03T10:54:29Z","2025-04-03T10:54:32Z","2025-04-03T10:54:36Z","2025-04-03T10:54:58Z","2025-04-03T10:55:02Z","2025-04-03T10:55:15Z","2025-04-03T10:55:20Z","2025-04-03T10:55:35Z","2025-04-03T10:55:36Z","2025-04-03T10:55:39Z","2025-04-03T10:55:41Z","2025-04-03T10:55:45Z","2025-04-03T10:55:48Z","2025-04-03T10:55:53Z","2025-04-03T10:55:57Z","2025-04-03T10:55:58Z","2025-04-03T10:55:59Z","2025-04-03T10:56:07Z","2025-04-03T10:56:08Z","2025-04-03T10:56:11Z","2025-04-03T10:56:12Z","2025-04-03T10:56:13Z","2025-04-03T10:56:15Z","2025-04-03T10:56:17Z","2025-04-03T10:56:18Z","2025-04-03T10:56:20Z","2025-04-03T10:56:26Z","2025-04-03T10:56:29Z","2025-04-03T10:56:33Z","2025-04-03T10:56:34Z","2025-04-03T10:56:35Z","2025-04-03T10:56:38Z","2025-04-03T10:56:40Z","2025-04-03T10:56:43Z","2025-04-03T10:56:47Z","2025-04-03T10:56:49Z","2025-04-03T10:56:50Z","2025-04-03T10:56:51Z","2025-04-03T10:56:54Z","2025-04-03T10:57:01Z","2025-04-03T10:57:02Z","2025-04-03T10:57:06Z","2025-04-03T10:57:09Z","2025-04-03T10:57:10Z","2025-04-03T10:57:12Z","2025-04-03T10:57:17Z","2025-04-03T10:57:18Z","2025-04-03T10:57:26Z","2025-04-03T10:57:28Z","2025-04-03T10:57:32Z","2025-04-03T10:57:34Z","2025-04-03T10:57:37Z","2025-04-03T10:57:45Z","2025-04-03T10:57:50Z","2025-04-03T10:57:55Z","2025-04-03T10:58:00Z","2025-04-03T10:58:06Z","2025-04-03T10:58:08Z","2025-04-03T10:58:10Z","2025-04-03T10:58:13Z","2025-04-03T10:58:14Z","2025-04-03T10:58:16Z","2025-04-03T10:58:18Z","2025-04-03T10:58:20Z","2025-04-03T10:58:22Z","2025-04-03T10:58:25Z","2025-04-03T10:58:26Z","2025-04-03T10:58:28Z","2025-04-03T10:58:34Z","2025-04-03T10:58:36Z","2025-04-03T10:58:41Z","2025-04-03T10:58:53Z","2025-04-03T10:58:55Z","2025-04-03T10:58:58Z","2025-04-03T10:59:03Z","2025-04-03T10:59:13Z","2025-04-03T10:59:15Z","2025-04-03T10:59:16Z","2025-04-03T10:59:17Z","2025-04-03T10:59:18Z","2025-04-03T10:59:22Z","2025-04-03T10:59:26Z","2025-04-03T10:59:31Z","2025-04-03T10:59:33Z","2025-04-03T10:59:34Z","2025-04-03T10:59:44Z","2025-04-03T10:59:46Z","2025-04-03T10:59:48Z","2025-04-03T10:59:52Z","2025-04-03T10:59:59Z","2025-04-03T11:00:08Z","2025-04-03T11:00:09Z","2025-04-03T11:00:16Z","2025-04-03T11:00:29Z","2025-04-03T11:00:30Z","2025-04-03T11:00:31Z","2025-04-03T11:00:33Z","2025-04-03T11:00:36Z","2025-04-03T11:00:38Z","2025-04-03T11:00:40Z","2025-04-03T11:00:43Z","2025-04-03T11:00:47Z","2025-04-03T11:00:48Z","2025-04-03T11:01:04Z","2025-04-03T11:01:06Z","2025-04-03T11:01:07Z","2025-04-03T11:01:09Z","2025-04-03T11:01:10Z","2025-04-03T11:01:11Z","2025-04-03T11:01:13Z","2025-04-03T11:01:15Z","2025-04-03T11:01:17Z","2025-04-03T11:01:21Z","2025-04-03T11:01:22Z","2025-04-03T11:01:23Z","2025-04-03T11:01:24Z","2025-04-03T11:01:26Z","2025-04-03T11:01:28Z","2025-04-03T11:01:30Z","2025-04-03T11:01:32Z","2025-04-03T11:01:35Z","2025-04-03T11:01:36Z","2025-04-03T11:01:38Z","2025-04-03T11:01:41Z","2025-04-03T11:01:42Z","2025-04-03T11:01:44Z","2025-04-03T11:01:46Z","2025-04-03T11:01:49Z","2025-04-03T11:01:50Z","2025-04-03T11:01:51Z","2025-04-03T11:01:53Z","2025-04-03T11:01:55Z","2025-04-03T11:01:59Z","2025-04-03T11:02:01Z","2025-04-03T11:02:05Z","2025-04-03T11:02:08Z","2025-04-03T11:02:11Z","2025-04-03T11:02:15Z","2025-04-03T11:02:22Z","2025-04-03T11:02:25Z","2025-04-03T11:02:26Z","2025-04-03T11:02:28Z","2025-04-03T11:02:32Z","2025-04-03T11:02:33Z","2025-04-03T11:02:37Z","2025-04-03T11:02:39Z","2025-04-03T11:03:00Z","2025-04-03T11:03:05Z","2025-04-03T11:03:10Z","2025-04-03T11:03:19Z","2025-04-03T11:03:24Z","2025-04-03T11:03:31Z","2025-04-03T11:03:36Z","2025-04-03T11:03:41Z","2025-04-03T11:03:45Z","2025-04-03T11:03:47Z","2025-04-03T11:03:55Z","2025-04-03T11:03:59Z","2025-04-03T11:04:01Z","2025-04-03T11:04:05Z","2025-04-03T11:04:08Z","2025-04-03T11:04:17Z","2025-04-03T11:04:18Z","2025-04-03T11:04:20Z","2025-04-03T11:04:26Z","2025-04-03T11:04:29Z","2025-04-03T11:04:30Z","2025-04-03T11:04:33Z","2025-04-03T11:04:37Z","2025-04-03T11:04:38Z","2025-04-03T11:04:39Z","2025-04-03T11:04:43Z","2025-04-03T11:04:47Z","2025-04-03T11:04:53Z","2025-04-03T11:04:54Z","2025-04-03T11:05:00Z","2025-04-03T11:05:02Z","2025-04-03T11:05:07Z","2025-04-03T11:05:11Z","2025-04-03T11:05:24Z","2025-04-03T11:05:27Z","2025-04-03T11:05:29Z","2025-04-03T11:05:31Z","2025-04-03T11:05:33Z","2025-04-03T11:05:34Z","2025-04-03T11:05:42Z","2025-04-03T11:05:43Z","2025-04-03T11:05:48Z","2025-04-03T11:05:49Z","2025-04-03T11:05:51Z","2025-04-03T11:05:53Z","2025-04-03T11:05:55Z","2025-04-03T11:05:56Z","2025-04-03T11:05:59Z","2025-04-03T11:06:01Z","2025-04-03T11:06:05Z","2025-04-03T11:06:07Z","2025-04-03T11:06:09Z","2025-04-03T11:06:15Z","2025-04-03T11:06:18Z","2025-04-03T11:06:20Z","2025-04-03T11:06:21Z","2025-04-03T11:06:22Z","2025-04-03T11:06:25Z","2025-04-03T11:06:27Z","2025-04-03T11:06:29Z","2025-04-03T11:06:32Z","2025-04-03T11:06:35Z","2025-04-03T11:06:36Z","2025-04-03T11:06:38Z","2025-04-03T11:06:40Z","2025-04-03T11:06:42Z","2025-04-03T11:06:43Z","2025-04-03T11:06:47Z","2025-04-03T11:06:49Z","2025-04-03T11:06:51Z","2025-04-03T11:07:47Z","2025-04-03T11:07:49Z","2025-04-03T11:07:52Z","2025-04-03T11:07:54Z","2025-04-03T11:07:58Z","2025-04-03T11:07:59Z","2025-04-03T11:08:00Z","2025-04-03T11:08:02Z","2025-04-03T11:08:03Z","2025-04-03T11:08:04Z","2025-04-03T11:08:07Z","2025-04-03T11:08:09Z","2025-04-03T11:08:10Z","2025-04-03T11:08:15Z","2025-04-03T11:08:20Z","2025-04-03T11:08:22Z","2025-04-03T11:08:25Z","2025-04-03T11:08:26Z","2025-04-03T11:08:28Z","2025-04-03T11:08:29Z","2025-04-03T11:08:32Z","2025-04-03T11:08:34Z","2025-04-03T11:08:35Z","2025-04-03T11:08:39Z","2025-04-03T11:08:42Z","2025-04-03T11:08:43Z","2025-04-03T11:08:45Z","2025-04-03T11:08:47Z","2025-04-03T11:08:48Z","2025-04-03T11:08:50Z","2025-04-03T11:08:52Z","2025-04-03T11:08:56Z","2025-04-03T11:09:00Z","2025-04-03T11:09:01Z","2025-04-03T11:09:02Z","2025-04-03T11:09:04Z","2025-04-03T11:09:06Z","2025-04-03T11:09:09Z","2025-04-03T11:09:14Z","2025-04-03T11:09:21Z","2025-04-03T11:09:28Z","2025-04-03T11:09:30Z","2025-04-03T11:09:34Z","2025-04-03T11:09:36Z","2025-04-03T11:09:38Z","2025-04-03T11:09:40Z","2025-04-03T11:09:42Z","2025-04-03T11:09:45Z","2025-04-03T11:09:47Z","2025-04-03T11:09:48Z","2025-04-03T11:09:51Z","2025-04-03T11:09:52Z","2025-04-03T11:09:55Z","2025-04-03T11:09:58Z","2025-04-03T11:10:00Z","2025-04-03T11:10:02Z","2025-04-03T11:10:06Z","2025-04-03T11:10:09Z","2025-04-03T11:10:10Z","2025-04-03T11:10:13Z","2025-04-03T11:10:37Z","2025-04-03T11:10:42Z","2025-04-03T11:10:49Z","2025-04-03T11:10:51Z","2025-04-03T11:10:53Z","2025-04-03T11:10:54Z","2025-04-03T11:10:56Z","2025-04-03T11:10:59Z","2025-04-03T11:11:02Z","2025-04-03T11:11:04Z","2025-04-03T11:11:09Z","2025-04-03T11:11:10Z","2025-04-03T11:11:11Z","2025-04-03T11:11:12Z","2025-04-03T11:11:14Z","2025-04-03T11:11:15Z","2025-04-03T11:11:16Z","2025-04-03T11:11:17Z","2025-04-03T11:11:18Z","2025-04-03T11:11:19Z","2025-04-03T11:11:20Z","2025-04-03T11:11:22Z","2025-04-03T11:11:24Z","2025-04-03T11:11:26Z","2025-04-03T11:11:28Z","2025-04-03T11:11:30Z","2025-04-03T11:11:31Z","2025-04-03T11:11:32Z","2025-04-03T11:11:33Z","2025-04-03T11:11:34Z","2025-04-03T11:11:35Z","2025-04-03T11:11:37Z","2025-04-03T11:11:38Z","2025-04-03T11:11:40Z","2025-04-03T11:11:42Z","2025-04-03T11:11:43Z","2025-04-03T11:11:44Z","2025-04-03T11:11:45Z","2025-04-03T11:11:47Z","2025-04-03T11:11:49Z","2025-04-03T11:11:53Z","2025-04-03T11:11:57Z","2025-04-03T11:11:58Z","2025-04-03T11:12:03Z","2025-04-03T11:12:10Z","2025-04-03T11:12:12Z","2025-04-03T11:12:17Z","2025-04-03T11:12:19Z","2025-04-03T11:12:23Z","2025-04-03T11:12:30Z","2025-04-03T11:12:39Z","2025-04-03T11:12:42Z","2025-04-03T11:12:44Z","2025-04-03T11:12:49Z","2025-04-03T11:12:50Z","2025-04-03T11:12:53Z","2025-04-03T11:12:58Z","2025-04-03T11:13:01Z","2025-04-03T11:13:07Z","2025-04-03T11:13:09Z","2025-04-03T11:13:10Z","2025-04-03T11:13:16Z","2025-04-03T11:13:17Z","2025-04-03T11:13:18Z","2025-04-03T11:13:21Z","2025-04-03T11:13:23Z","2025-04-03T11:13:24Z","2025-04-03T11:13:26Z","2025-04-03T11:13:28Z","2025-04-03T11:13:31Z","2025-04-03T11:13:35Z","2025-04-03T11:13:40Z","2025-04-03T11:13:45Z","2025-04-03T11:13:48Z","2025-04-03T11:13:55Z","2025-04-03T11:13:59Z","2025-04-03T11:14:01Z","2025-04-03T11:14:02Z","2025-04-03T11:14:04Z","2025-04-03T11:14:06Z","2025-04-03T11:14:09Z","2025-04-03T11:14:13Z","2025-04-03T11:14:15Z","2025-04-03T11:14:19Z","2025-04-03T11:14:22Z","2025-04-03T11:14:23Z","2025-04-03T11:14:27Z","2025-04-03T11:14:33Z","2025-04-03T11:14:44Z","2025-04-03T11:14:48Z","2025-04-03T11:14:50Z","2025-04-03T11:14:55Z","2025-04-03T11:14:59Z","2025-04-03T11:15:02Z","2025-04-03T11:15:05Z","2025-04-03T11:16:50Z","2025-04-03T11:17:01Z","2025-04-03T11:17:13Z","2025-04-03T11:17:18Z","2025-04-03T11:17:29Z","2025-04-03T11:17:31Z","2025-04-03T11:17:36Z","2025-04-03T11:18:00Z","2025-04-03T11:18:04Z","2025-04-03T11:18:07Z","2025-04-03T11:18:11Z","2025-04-03T11:18:20Z","2025-04-03T11:18:21Z","2025-04-03T11:18:24Z","2025-04-03T11:18:25Z","2025-04-03T11:18:27Z","2025-04-03T11:18:35Z","2025-04-03T11:18:36Z","2025-04-03T11:18:39Z","2025-04-03T11:18:41Z","2025-04-03T11:18:43Z","2025-04-03T11:18:45Z","2025-04-03T11:18:46Z","2025-04-03T11:18:48Z","2025-04-03T11:18:50Z","2025-04-03T11:18:52Z","2025-04-03T11:18:56Z","2025-04-03T11:18:58Z","2025-04-03T11:19:00Z","2025-04-03T11:19:02Z","2025-04-03T11:19:05Z","2025-04-03T11:19:09Z","2025-04-03T11:19:10Z","2025-04-03T11:19:11Z","2025-04-03T11:19:13Z","2025-04-03T11:19:14Z","2025-04-03T11:19:16Z","2025-04-03T11:19:18Z","2025-04-03T11:19:19Z","2025-04-03T11:19:21Z","2025-04-03T11:19:23Z","2025-04-03T11:19:24Z","2025-04-03T11:19:25Z","2025-04-03T11:19:27Z","2025-04-03T11:19:28Z","2025-04-03T11:19:31Z","2025-04-03T11:19:36Z","2025-04-03T11:19:37Z","2025-04-03T11:19:43Z","2025-04-03T11:19:47Z","2025-04-03T11:19:55Z","2025-04-03T11:19:57Z","2025-04-03T11:20:02Z","2025-04-03T11:20:03Z","2025-04-03T11:20:05Z","2025-04-03T11:20:07Z","2025-04-03T11:20:09Z","2025-04-03T11:20:10Z","2025-04-03T11:20:16Z","2025-04-03T11:20:27Z","2025-04-03T11:20:29Z","2025-04-03T11:20:30Z","2025-04-03T11:20:31Z","2025-04-03T11:20:33Z","2025-04-03T11:20:34Z","2025-04-03T11:20:35Z","2025-04-03T11:20:36Z","2025-04-03T11:20:38Z","2025-04-03T11:20:44Z","2025-04-03T11:20:48Z","2025-04-03T11:20:49Z","2025-04-03T11:20:50Z","2025-04-03T11:20:54Z","2025-04-03T11:20:56Z","2025-04-03T11:20:58Z","2025-04-03T11:20:59Z","2025-04-03T11:21:02Z","2025-04-03T11:21:03Z","2025-04-03T11:21:04Z","2025-04-03T11:21:07Z","2025-04-03T11:21:10Z","2025-04-03T11:21:11Z","2025-04-03T11:21:14Z","2025-04-03T11:21:16Z","2025-04-03T11:21:19Z","2025-04-03T11:21:21Z","2025-04-03T11:21:23Z","2025-04-03T11:21:31Z","2025-04-03T11:21:35Z","2025-04-03T11:21:39Z","2025-04-03T11:21:40Z","2025-04-03T11:21:41Z","2025-04-03T11:21:42Z","2025-04-03T11:21:43Z","2025-04-03T11:21:45Z","2025-04-03T11:21:47Z","2025-04-03T11:21:51Z","2025-04-03T11:21:54Z","2025-04-03T11:21:57Z","2025-04-03T11:22:00Z","2025-04-03T11:22:07Z","2025-04-03T11:22:12Z","2025-04-03T11:22:15Z","2025-04-03T11:22:23Z","2025-04-03T11:22:31Z","2025-04-03T11:22:53Z","2025-04-03T11:22:57Z","2025-04-03T11:23:06Z","2025-04-03T11:23:10Z","2025-04-03T11:23:16Z","2025-04-03T11:23:21Z","2025-04-03T11:23:32Z","2025-04-03T11:23:39Z","2025-04-03T11:23:41Z","2025-04-03T11:23:43Z","2025-04-03T11:23:44Z","2025-04-03T11:23:47Z","2025-04-03T11:23:48Z","2025-04-03T11:23:57Z","2025-04-03T11:23:59Z","2025-04-03T11:24:03Z","2025-04-03T11:24:07Z","2025-04-03T11:24:13Z","2025-04-03T11:24:15Z","2025-04-03T11:24:17Z","2025-04-03T11:24:21Z","2025-04-03T11:24:23Z","2025-04-03T11:24:26Z","2025-04-03T11:24:32Z","2025-04-03T11:24:34Z","2025-04-03T11:24:35Z","2025-04-03T11:24:38Z","2025-04-03T11:24:45Z","2025-04-03T11:24:49Z","2025-04-03T11:25:00Z","2025-04-03T11:25:01Z","2025-04-03T11:25:02Z","2025-04-03T11:25:10Z","2025-04-03T11:25:15Z","2025-04-03T11:25:18Z","2025-04-03T11:25:20Z","2025-04-03T11:25:25Z","2025-04-03T11:25:26Z","2025-04-03T11:25:28Z","2025-04-03T11:25:30Z","2025-04-03T11:25:33Z","2025-04-03T11:25:34Z","2025-04-03T11:25:40Z","2025-04-03T11:25:41Z","2025-04-03T11:25:44Z","2025-04-03T11:25:47Z","2025-04-03T11:25:48Z","2025-04-03T11:25:49Z","2025-04-03T11:25:50Z","2025-04-03T11:25:53Z","2025-04-03T11:25:54Z","2025-04-03T11:25:56Z","2025-04-03T11:26:06Z","2025-04-03T11:26:09Z","2025-04-03T11:26:17Z","2025-04-03T11:26:21Z","2025-04-03T11:26:24Z","2025-04-03T11:26:26Z","2025-04-03T11:26:27Z","2025-04-03T11:26:30Z","2025-04-03T11:26:32Z","2025-04-03T11:26:39Z","2025-04-03T11:26:41Z","2025-04-03T11:26:45Z","2025-04-03T11:26:47Z","2025-04-03T11:26:49Z","2025-04-03T11:26:50Z","2025-04-03T11:26:51Z","2025-04-03T11:26:55Z","2025-04-03T11:27:03Z","2025-04-03T11:27:07Z","2025-04-03T11:27:13Z","2025-04-03T11:27:14Z","2025-04-03T11:27:16Z","2025-04-03T11:27:21Z","2025-04-03T11:27:25Z","2025-04-03T11:27:39Z","2025-04-03T11:27:44Z","2025-04-03T11:27:48Z","2025-04-03T11:27:52Z","2025-04-03T11:27:59Z","2025-04-03T11:28:00Z","2025-04-03T11:28:01Z","2025-04-03T11:28:02Z","2025-04-03T11:28:04Z","2025-04-03T11:28:06Z","2025-04-03T11:28:07Z","2025-04-03T11:28:14Z","2025-04-03T11:28:15Z","2025-04-03T11:28:25Z","2025-04-03T11:28:28Z","2025-04-03T11:28:31Z","2025-04-03T11:28:34Z","2025-04-03T11:28:37Z","2025-04-03T11:28:41Z","2025-04-03T11:28:42Z","2025-04-03T11:28:43Z","2025-04-03T11:28:44Z","2025-04-03T11:28:46Z","2025-04-03T11:28:48Z","2025-04-03T11:28:50Z","2025-04-03T11:28:52Z","2025-04-03T11:28:56Z","2025-04-03T11:28:59Z","2025-04-03T11:29:00Z","2025-04-03T11:29:01Z","2025-04-03T11:29:03Z","2025-04-03T11:29:08Z","2025-04-03T11:29:10Z","2025-04-03T11:32:11Z","2025-04-03T11:32:13Z","2025-04-03T11:32:18Z","2025-04-03T11:32:20Z","2025-04-03T11:32:23Z","2025-04-03T11:32:28Z","2025-04-03T11:32:30Z","2025-04-03T11:33:11Z","2025-04-03T11:33:12Z","2025-04-03T11:33:13Z","2025-04-03T11:33:18Z","2025-04-03T11:33:21Z","2025-04-03T11:34:02Z","2025-04-03T11:34:04Z","2025-04-03T11:34:10Z","2025-04-03T11:36:36Z","2025-04-03T11:36:54Z","2025-04-03T11:36:56Z","2025-04-03T11:37:03Z","2025-04-03T11:37:06Z","2025-04-03T11:37:09Z","2025-04-03T11:37:10Z","2025-04-03T11:37:11Z","2025-04-03T11:37:14Z","2025-04-03T11:37:16Z","2025-04-03T11:37:18Z","2025-04-03T11:37:20Z","2025-04-03T11:37:21Z","2025-04-03T11:37:27Z","2025-04-03T11:37:30Z","2025-04-03T11:37:37Z","2025-04-03T11:37:43Z","2025-04-03T11:37:47Z","2025-04-03T11:37:51Z","2025-04-03T11:37:53Z","2025-04-03T11:37:54Z","2025-04-03T11:38:00Z","2025-04-03T11:38:02Z","2025-04-03T11:38:06Z","2025-04-03T11:38:08Z","2025-04-03T11:38:11Z","2025-04-03T11:38:13Z","2025-04-03T11:38:23Z","2025-04-03T11:38:25Z","2025-04-03T11:38:29Z","2025-04-03T11:38:31Z","2025-04-03T11:38:38Z","2025-04-03T11:38:40Z","2025-04-03T11:38:49Z","2025-04-03T11:38:52Z","2025-04-03T11:38:54Z","2025-04-03T11:38:55Z","2025-04-03T11:38:56Z","2025-04-03T11:38:58Z","2025-04-03T11:39:00Z","2025-04-03T11:39:02Z","2025-04-03T11:39:04Z","2025-04-03T11:39:08Z","2025-04-03T11:39:12Z","2025-04-03T11:39:18Z","2025-04-03T11:39:20Z","2025-04-03T11:39:21Z","2025-04-03T11:39:29Z","2025-04-03T11:39:31Z","2025-04-03T11:39:52Z","2025-04-03T11:39:53Z","2025-04-03T11:39:58Z","2025-04-03T11:40:26Z","2025-04-03T11:40:33Z","2025-04-03T11:40:40Z","2025-04-03T11:44:49Z","2025-04-03T11:44:52Z","2025-04-03T11:44:54Z","2025-04-03T11:44:57Z","2025-04-03T11:44:58Z","2025-04-03T11:45:05Z","2025-04-03T11:45:11Z","2025-04-03T11:45:15Z","2025-04-03T11:45:18Z","2025-04-03T11:45:20Z","2025-04-03T11:45:23Z","2025-04-03T11:45:28Z","2025-04-03T11:45:32Z","2025-04-03T11:45:33Z","2025-04-03T11:45:36Z","2025-04-03T11:45:37Z","2025-04-03T11:45:48Z","2025-04-03T11:45:49Z","2025-04-03T11:45:51Z","2025-04-03T11:45:53Z","2025-04-03T11:45:54Z","2025-04-03T11:45:57Z","2025-04-03T11:45:58Z","2025-04-03T11:46:00Z","2025-04-03T11:46:01Z","2025-04-03T11:46:05Z","2025-04-03T11:46:07Z","2025-04-03T11:46:10Z","2025-04-03T11:46:12Z","2025-04-03T11:46:16Z","2025-04-03T11:46:18Z","2025-04-03T11:46:20Z","2025-04-03T11:46:21Z","2025-04-03T11:46:25Z","2025-04-03T11:46:30Z","2025-04-03T11:46:33Z","2025-04-03T11:46:35Z","2025-04-03T11:46:36Z","2025-04-03T11:46:39Z","2025-04-03T11:46:43Z","2025-04-03T11:46:47Z","2025-04-03T11:46:49Z","2025-04-03T11:46:51Z","2025-04-03T11:47:00Z","2025-04-03T11:47:02Z","2025-04-03T11:47:06Z","2025-04-03T11:47:09Z","2025-04-03T11:47:12Z","2025-04-03T11:47:14Z","2025-04-03T11:47:17Z","2025-04-03T11:47:19Z","2025-04-03T11:47:22Z","2025-04-03T11:47:24Z","2025-04-03T11:47:30Z","2025-04-03T11:47:33Z","2025-04-03T11:47:35Z","2025-04-03T11:47:38Z","2025-04-03T11:47:47Z","2025-04-03T11:47:50Z","2025-04-03T11:47:52Z","2025-04-03T11:47:53Z","2025-04-03T11:47:58Z","2025-04-03T11:48:01Z","2025-04-03T11:48:03Z","2025-04-03T11:48:05Z","2025-04-03T11:48:08Z","2025-04-03T11:48:09Z","2025-04-03T11:48:13Z","2025-04-03T11:48:14Z","2025-04-03T11:48:19Z","2025-04-03T11:48:25Z","2025-04-03T11:48:27Z","2025-04-03T11:48:35Z","2025-04-03T11:48:51Z","2025-04-03T11:48:52Z","2025-04-03T11:48:55Z","2025-04-03T11:48:56Z","2025-04-03T11:49:00Z","2025-04-03T11:49:02Z","2025-04-03T11:49:05Z","2025-04-03T11:49:06Z","2025-04-03T11:49:09Z","2025-04-03T11:49:13Z","2025-04-03T11:49:17Z","2025-04-03T11:49:19Z","2025-04-03T11:49:43Z","2025-04-03T11:49:46Z","2025-04-03T11:49:49Z","2025-04-03T11:49:57Z","2025-04-03T11:50:01Z","2025-04-03T11:50:03Z","2025-04-03T11:50:04Z","2025-04-03T11:50:07Z","2025-04-03T11:50:10Z","2025-04-03T11:50:20Z","2025-04-03T11:50:24Z","2025-04-03T11:50:31Z","2025-04-03T11:50:38Z","2025-04-03T11:50:44Z","2025-04-03T11:50:45Z","2025-04-03T11:50:46Z","2025-04-03T11:50:48Z","2025-04-03T11:50:49Z","2025-04-03T11:50:50Z","2025-04-03T11:50:53Z","2025-04-03T11:50:54Z","2025-04-03T11:50:57Z","2025-04-03T11:50:59Z","2025-04-03T11:51:01Z","2025-04-03T11:51:02Z","2025-04-03T11:51:03Z","2025-04-03T11:51:04Z","2025-04-03T11:51:06Z","2025-04-03T11:51:08Z","2025-04-03T11:51:10Z","2025-04-03T11:51:12Z","2025-04-03T11:51:15Z","2025-04-03T11:51:16Z","2025-04-03T11:51:17Z","2025-04-03T11:51:18Z","2025-04-03T11:51:19Z","2025-04-03T11:51:21Z","2025-04-03T11:51:25Z","2025-04-03T11:51:26Z","2025-04-03T11:51:27Z","2025-04-03T11:51:29Z","2025-04-03T11:51:30Z","2025-04-03T11:51:31Z","2025-04-03T11:51:33Z","2025-04-03T11:51:34Z","2025-04-03T11:51:35Z","2025-04-03T11:51:36Z","2025-04-03T11:51:37Z","2025-04-03T11:51:38Z","2025-04-03T11:51:39Z","2025-04-03T11:51:40Z","2025-04-03T11:51:43Z","2025-04-03T11:51:44Z","2025-04-03T11:51:46Z","2025-04-03T11:51:47Z","2025-04-03T11:51:48Z","2025-04-03T11:51:51Z","2025-04-03T11:51:55Z","2025-04-03T11:51:56Z","2025-04-03T11:51:58Z","2025-04-03T11:51:59Z","2025-04-03T11:52:01Z","2025-04-03T11:52:03Z","2025-04-03T11:52:08Z","2025-04-03T11:52:13Z","2025-04-03T11:52:14Z","2025-04-03T11:52:22Z","2025-04-03T11:52:24Z","2025-04-03T11:52:30Z","2025-04-03T11:52:34Z","2025-04-03T11:52:36Z","2025-04-03T11:52:37Z","2025-04-03T11:52:39Z","2025-04-03T11:52:40Z","2025-04-03T11:52:41Z","2025-04-03T11:52:42Z","2025-04-03T11:52:46Z","2025-04-03T11:52:49Z","2025-04-03T11:52:53Z","2025-04-03T11:52:55Z","2025-04-03T11:52:56Z","2025-04-03T11:52:57Z","2025-04-03T11:53:00Z","2025-04-03T11:53:05Z","2025-04-03T11:53:07Z","2025-04-03T11:53:10Z","2025-04-03T11:53:13Z","2025-04-03T11:53:16Z","2025-04-03T11:53:21Z","2025-04-03T11:53:22Z","2025-04-03T11:53:24Z","2025-04-03T11:53:25Z","2025-04-03T11:53:26Z","2025-04-03T11:53:28Z","2025-04-03T11:53:37Z","2025-04-03T11:53:40Z","2025-04-03T11:53:41Z","2025-04-03T11:53:43Z","2025-04-03T11:53:48Z","2025-04-03T11:53:50Z","2025-04-03T11:53:57Z","2025-04-03T11:54:01Z","2025-04-03T11:54:05Z","2025-04-03T11:54:07Z","2025-04-03T11:54:12Z","2025-04-03T11:54:14Z","2025-04-03T11:54:20Z","2025-04-03T11:54:21Z","2025-04-03T11:54:23Z","2025-04-03T11:54:27Z","2025-04-03T11:54:29Z","2025-04-03T11:54:47Z","2025-04-03T11:54:50Z","2025-04-03T11:54:52Z","2025-04-03T11:54:58Z","2025-04-03T11:55:00Z","2025-04-03T11:55:04Z","2025-04-03T11:55:06Z","2025-04-03T11:55:08Z","2025-04-03T11:55:11Z","2025-04-03T11:55:12Z","2025-04-03T11:55:14Z","2025-04-03T11:55:15Z","2025-04-03T11:55:17Z","2025-04-03T11:55:23Z","2025-04-03T11:55:29Z","2025-04-03T11:55:31Z","2025-04-03T11:55:32Z","2025-04-03T11:55:35Z","2025-04-03T11:55:36Z","2025-04-03T11:55:41Z","2025-04-03T11:55:47Z","2025-04-03T11:55:53Z","2025-04-03T11:55:55Z","2025-04-03T11:55:57Z","2025-04-03T11:56:01Z","2025-04-03T11:56:02Z","2025-04-03T11:56:04Z","2025-04-03T11:56:18Z","2025-04-03T11:56:25Z","2025-04-03T11:56:28Z","2025-04-03T11:56:46Z","2025-04-03T11:56:55Z","2025-04-03T11:56:58Z"],"heartRates":[103,103,103,101,103,103,104,107,107,107,107,107,107,107,107,107,107,107,107,119,116,103,103,103,103,110,110,110,103,100,100,102,102,102,117,117,117,117,117,117,117,117,117,117,127,122,122,122,120,120,119,119,119,119,119,119,119,116,117,117,117,119,120,120,127,127,127,127,128,128,128,128,131,131,131,131,131,134,134,135,135,135,134,134,132,132,132,132,132,132,132,132,135,135,135,135,135,136,135,135,135,135,135,134,134,136,131,131,131,131,129,129,129,127,127,129,129,129,129,134,134,136,136,136,136,136,134,134,134,131,131,131,131,131,131,131,131,131,131,132,133,133,130,131,133,133,137,137,138,138,138,138,137,137,138,139,140,140,139,139,143,143,139,136,136,134,134,134,134,136,136,136,136,136,138,135,135,132,128,128,126,129,130,130,128,128,127,127,124,124,122,122,115,115,113,108,108,108,108,109,112,113,113,113,113,114,114,113,113,113,117,116,115,115,115,114,114,114,121,121,122,122,122,122,122,120,120,120,117,116,120,120,122,121,122,122,122,122,124,124,124,124,124,124,124,125,126,128,128,129,129,128,129,129,129,129,129,129,133,133,133,133,136,136,142,141,140,138,138,138,139,139,141,141,141,142,142,142,141,140,140,140,140,139,139,139,142,143,145,144,139,135,135,136,136,136,136,137,137,137,139,139,139,139,139,139,139,139,139,139,142,143,143,144,144,144,143,143,143,143,143,142,142,142,141,142,142,142,141,141,137,137,138,138,139,139,139,143,143,143,143,144,144,144,144,144,143,143,143,143,143,145,145,146,146,146,146,146,146,146,146,146,146,146,146,144,144,144,144,144,143,144,145,146,146,147,148,148,148,148,147,147,147,147,148,148,148,148,148,146,146,146,146,146,145,145,145,145,145,145,145,145,144,145,145,145,145,145,145,145,146,146,146,147,147,147,147,148,148,148,145,145,145,145,145,145,145,148,149,145,145,146,147,146,147,144,144,145,146,147,146,146,145,145,144,144,144,146,146,145,145,145,145,144,144,144,144,144,145,145,145,146,146,146,146,146,146,145,146,146,146,146,146,145,145,145,145,146,146,146,146,145,145,141,141,141,141,141,140,140,139,139,139,139,136,136,136,134,134,127,127,129,129,129,129,128,128,128,128,128,127,127,129,129,130,130,130,131,131,132,132,132,135,135,135,137,137,137,137,137,136,137,137,137,137,137,136,136,135,135,135,134,134,133,133,132,132,132,132,131,130,130,130,130,132,132,132,132,131,131,133,134,134,131,131,131,129,128,128,128,129,129,129,129,129,130,130,130,130,128,128,128,128,128,127,127,127,127,127,127,127,127,127,127,127,127,127,127,127,127,130,130,130,134,134,135,135,135,132,135,135,139,141,141,141,141,141,142,142,141,141,141,136,136,136,136,136,134,134,136,136,138,138,140,139,139,139,139,140,140,140,139,139,139,139,139,141,141,142,142,141,141,141,142,142,129,129,129,129,128,128,128,136,136,135,134,134,134,134,134,137,137,139,139,139,141,141,141,142,142,142,142,142,142,141,140,140,140,139,139,138,138,138,138,138,138,138,138,138,138,138,138,138,137,136,136,134,134,133,131,131,131,131,131,131,131,131,131,130,130,130,130,130,130,130,130,131,131,131,131,132,132,132,134,134,134,135,135,135,135,137,137,137,134,134,133,133,133,132,132,135,135,137,137,142,142,143,143,143,143,143,132,133,133,134,136,140,140,142,142,143,143,145,145,145,147,147,147,147,146,146,146,145,145,145,145,143,142,141,141,141,136,137,137,138,137,137,137,136,136,136,136,136,136,137,137,137,139,139,139,139,139,140,141,141,141,141,141,142,142,144,144,144,144,145,145,145,144,143,145,145,145,145,147,147,146,146,146,146,146,146,146,146,145,145,145,144,144,143,144,145,145,145,145,145,145,145,144,144,144,144,144,144,144,144,144,144,144,144,140,139,139,136,136,136,143,143,143,144,146,141,141,140,140,142,142,142,142,142,143,143,143,143,143,147,147,148,148,147,148,148,148,147,147,147,147,146,146,146,146,146,146,147,147,146,146,145,145,145,146,146,146,146,146,142,142,143,144,144,144,140,139,139,142,141,141,139,138,138,131,131,131,131,130,130,130,130,130,131,134,137,137,137,139,138,138,138,138,138,138,138,137,137,138,138,138,139,139,140,140,140,140,142,142,143,143,143,143,145,145,145,148,148,148,148,148,148,148,147,147,147,147,147,147,146,146,146,146,146,146,145,145,145,145,145,145,145,145,146,146,148,145,144,144,144,146,146,147,147,146,146,145,146,143,143,143,144,144,144,144,144,144,145,145,145,142,140,140,141,141,141,141,141,143,143,142,142,142,142,142,142,142,142,142,142,142,142,142,142,143,143,143,143,146,146,146,146,146,146,148,148,148,148,148,148,148,148,148,148,148,149,149,149,149,149,149,149,149,150,150,150,147,147,147,147,147,147,147,147,147,147,148,148,148,148,149,149,150,150,150,150,147,147,147,147,143,143,142,142,142,144,143,143,144,144,146,146,146,146,145,145,145,145,145,143,143,143,143,140,142,142,142,142,142,142,142,139,136,135,135,135,135,135,137,137,137,137,137,137,137,140,143,145,145,148,149,147],"month":"2025-04-01"},"geometry":{"type":"LineString","coordinates":[[2.453554,48.70034,83.7],[2.453591,48.700322,83.7],[2.453547,48.70014,83.8],[2.453542,48.699958,83.9],[2.453462,48.699546,84],[2.453446,48.699387,84.1],[2.4534,48.699184,84.1],[2.453247,48.698189,83.7],[2.453203,48.697993,83.6],[2.453047,48.697471,83.7],[2.453028,48.697345,83.7],[2.453035,48.697281,83.7],[2.453082,48.69716,83.6],[2.453273,48.696879,83.4],[2.453299,48.696821,83.3],[2.453425,48.696654,83.1],[2.453515,48.696489,83],[2.453836,48.695988,83],[2.453941,48.6958,83],[2.453941,48.695813,83],[2.453991,48.695733,83],[2.454064,48.695694,83.1],[2.454194,48.69567,83.2],[2.454219,48.69565,83.2],[2.454219,48.695624,83.2],[2.454134,48.695581,83.1],[2.454148,48.695505,83.1],[2.454216,48.695444,83],[2.454423,48.695163,82.9],[2.4545,48.695036,82.8],[2.454567,48.694981,82.8],[2.454632,48.694881,83],[2.454644,48.694835,83.1],[2.454712,48.694755,83.2],[2.455201,48.694074,83.8],[2.455299,48.693919,84],[2.455433,48.693778,84.1],[2.455802,48.693314,84.3],[2.455911,48.693092,84.4],[2.456116,48.692798,84.5],[2.45615,48.692684,84.6],[2.456224,48.692585,84.7],[2.456382,48.692312,84.9],[2.456538,48.692067,85],[2.456587,48.691964,85],[2.456822,48.691635,85.1],[2.456868,48.69155,85.1],[2.457037,48.691303,85],[2.457089,48.691199,85],[2.457185,48.691062,85],[2.457234,48.690969,85],[2.457275,48.690936,85],[2.457339,48.690936,85],[2.457406,48.690953,85],[2.457526,48.691009,85],[2.457669,48.691044,85.1],[2.45775,48.691053,85.1],[2.458027,48.691127,85.3],[2.458217,48.691192,85.5],[2.458354,48.691228,85.5],[2.45849,48.691278,85.5],[2.458701,48.691311,85.6],[2.458925,48.691388,85.6],[2.459148,48.691453,85.8],[2.459374,48.6915,85.9],[2.459583,48.691558,86],[2.459727,48.691608,86.1],[2.459949,48.691666,86.2],[2.460076,48.691713,86.3],[2.460212,48.691725,86.4],[2.460348,48.691762,86.5],[2.460408,48.69179,86.5],[2.460554,48.691825,86.5],[2.460628,48.691825,86.5],[2.460701,48.691812,86.6],[2.46077,48.691775,86.7],[2.460883,48.691697,86.7],[2.461056,48.691477,86.7],[2.46111,48.691452,86.7],[2.461264,48.691423,86.7],[2.46133,48.691403,86.7],[2.46148,48.691384,86.7],[2.461697,48.691314,86.7],[2.46185,48.691286,86.8],[2.462076,48.691269,86.9],[2.462148,48.691254,86.9],[2.462392,48.69123,87],[2.46246,48.691215,87],[2.462581,48.691203,87],[2.462728,48.691211,87],[2.462792,48.69123,87],[2.462864,48.691264,87],[2.462929,48.69128,87],[2.462994,48.691276,87],[2.463221,48.691291,87],[2.463368,48.691325,87],[2.463552,48.691332,87],[2.463787,48.691321,87],[2.463859,48.691324,87],[2.464015,48.691351,87],[2.464165,48.691349,87],[2.464308,48.691338,87],[2.464382,48.691318,87],[2.464504,48.691258,87],[2.464558,48.691218,87],[2.464754,48.691158,87],[2.46481,48.691132,87],[2.464882,48.691113,87],[2.465033,48.691103,87.1],[2.4651,48.691091,87.1],[2.465208,48.691047,87.1],[2.465355,48.691028,87.1],[2.465517,48.691026,87],[2.465647,48.691002,87],[2.465823,48.690983,87.1],[2.465911,48.691001,87.1],[2.465992,48.690981,87.1],[2.466027,48.690961,87.1],[2.466065,48.690924,87.1],[2.466165,48.69087,87.2],[2.466422,48.690826,87.3],[2.466538,48.690821,87.3],[2.466659,48.690799,87.3],[2.466722,48.69078,87.3],[2.466807,48.69072,87.3],[2.466872,48.6907,87.3],[2.466941,48.690695,87.3],[2.467,48.690672,87.2],[2.46712,48.690559,87.2],[2.467301,48.690445,87],[2.467361,48.690438,87],[2.467417,48.690415,87],[2.467498,48.690338,86.9],[2.467669,48.69027,86.8],[2.467781,48.690251,86.8],[2.467811,48.690221,86.8],[2.4678,48.690167,86.7],[2.467736,48.690066,86.7],[2.467712,48.689951,86.7],[2.467622,48.689736,86.7],[2.467475,48.689263,87.2],[2.467268,48.688695,87.4],[2.467193,48.68852,87.4],[2.467092,48.688228,87.5],[2.466909,48.687777,87.6],[2.466847,48.687565,87.8],[2.466788,48.687464,87.8],[2.466753,48.687355,87.9],[2.466734,48.687186,88.1],[2.46661,48.686882,88.5],[2.466547,48.686805,88.6],[2.466525,48.686748,88.6],[2.466504,48.686639,88.6],[2.46645,48.686542,88.6],[2.466436,48.686366,88.6],[2.466384,48.6862,88.4],[2.466334,48.685978,88.3],[2.466308,48.685917,88.3],[2.466203,48.685546,88],[2.466154,48.685291,87.9],[2.465863,48.68426,87.9],[2.465853,48.68417,87.9],[2.465817,48.684086,87.9],[2.465744,48.683753,87.9],[2.465719,48.683678,87.8],[2.465724,48.683611,87.8],[2.465759,48.683599,87.7],[2.465779,48.6836,87.7],[2.465786,48.68361,87.7],[2.46583,48.683611,87.7],[2.465872,48.68363,87.7],[2.465895,48.683631,87.7],[2.465891,48.683625,87.7],[2.465907,48.683617,87.7],[2.465945,48.683616,87.7],[2.466067,48.683558,87.6],[2.466079,48.68358,87.6],[2.466093,48.683581,87.6],[2.466091,48.683575,87.6],[2.466159,48.683523,87.6],[2.466258,48.683512,87.6],[2.46636,48.683513,87.6],[2.466459,48.683523,87.6],[2.466456,48.683528,87.6],[2.466536,48.683546,87.6],[2.466529,48.683551,87.6],[2.466618,48.683566,87.6],[2.466633,48.683562,87.6],[2.466619,48.683569,87.6],[2.466635,48.683584,87.6],[2.466629,48.683579,87.6],[2.466638,48.683597,87.6],[2.4667,48.683588,87.6],[2.466776,48.683566,87.6],[2.466849,48.683556,87.6],[2.466843,48.683529,87.6],[2.466806,48.683507,87.6],[2.466737,48.683506,87.6],[2.466726,48.683513,87.6],[2.466632,48.683522,87.6],[2.466532,48.683504,87.6],[2.466487,48.683472,87.6],[2.466469,48.683476,87.6],[2.466461,48.683489,87.6],[2.466402,48.6835,87.6],[2.466344,48.683484,87.6],[2.466282,48.683496,87.6],[2.466297,48.683488,87.6],[2.466306,48.683491,87.6],[2.46629,48.683502,87.6],[2.466126,48.683487,87.6],[2.466015,48.683515,87.6],[2.465922,48.683507,87.6],[2.465884,48.683518,87.6],[2.465839,48.683545,87.7],[2.465779,48.68355,87.7],[2.465737,48.683568,87.7],[2.465631,48.683566,87.7],[2.465599,48.683532,87.7],[2.465596,48.683424,87.8],[2.465578,48.68333,87.8],[2.465559,48.683292,87.8],[2.465531,48.683138,87.9],[2.465504,48.683061,87.9],[2.465502,48.682976,87.9],[2.465475,48.682847,87.9],[2.465404,48.682663,87.9],[2.465389,48.682568,87.8],[2.465272,48.682147,87.8],[2.465238,48.681989,87.7],[2.465037,48.681267,87.4],[2.465013,48.681151,87.4],[2.464663,48.679867,86.9],[2.464612,48.679631,86.9],[2.464589,48.679577,86.9],[2.464567,48.679466,87],[2.464595,48.679418,87],[2.46466,48.679395,87.1],[2.46473,48.679394,87.1],[2.464786,48.679378,87.1],[2.464804,48.679331,87.2],[2.464804,48.679285,87.2],[2.464762,48.679232,87.2],[2.464746,48.679186,87.2],[2.464766,48.679138,87.3],[2.464963,48.678981,87.3],[2.465164,48.678756,87.3],[2.465438,48.678514,87.4],[2.465513,48.678429,87.5],[2.465835,48.678144,87.6],[2.465963,48.678017,87.6],[2.466061,48.677936,87.5],[2.466289,48.677706,87.5],[2.466644,48.677386,87.4],[2.466739,48.677285,87.3],[2.467255,48.676795,87],[2.467305,48.676758,87],[2.467425,48.676633,87],[2.467556,48.676552,87],[2.467569,48.676552,87],[2.46757,48.676534,87],[2.467595,48.676519,87],[2.467599,48.676524,87],[2.467649,48.676472,87],[2.467721,48.676443,87.1],[2.467923,48.676235,87.1],[2.467951,48.676195,87.1],[2.468221,48.675921,87],[2.46844,48.675725,86.9],[2.46852,48.675637,86.9],[2.468739,48.675437,86.7],[2.468797,48.675399,86.7],[2.468877,48.675315,86.7],[2.468906,48.67526,86.7],[2.468986,48.675196,86.7],[2.469162,48.675017,86.6],[2.469255,48.674948,86.6],[2.46951,48.674688,86.7],[2.469601,48.674562,86.8],[2.469587,48.674519,86.8],[2.469543,48.674482,86.8],[2.469485,48.674452,86.8],[2.469269,48.674405,86.9],[2.469066,48.674344,86.9],[2.468846,48.674292,86.9],[2.468565,48.674197,86.8],[2.466808,48.673722,86.3],[2.4665,48.67363,86.3],[2.465502,48.673363,86],[2.465084,48.67324,85.8],[2.463817,48.672897,85.6],[2.463742,48.67287,85.6],[2.4635,48.672815,85.6],[2.463346,48.672767,85.6],[2.463027,48.672691,85.5],[2.462791,48.672611,85.5],[2.46241,48.672537,85.3],[2.462129,48.672454,85.3],[2.462054,48.672448,85.4],[2.461976,48.67243,85.4],[2.461387,48.672243,85.7],[2.46133,48.672215,85.8],[2.461117,48.672146,85.9],[2.461033,48.672146,86],[2.460955,48.67213,86],[2.46082,48.67208,86.1],[2.46067,48.672045,86.2],[2.460604,48.672014,86.2],[2.460441,48.671969,86.4],[2.459956,48.671856,86.6],[2.45972,48.671775,86.7],[2.459439,48.671693,86.9],[2.459408,48.671698,86.9],[2.459405,48.671704,86.9],[2.459472,48.671705,86.9],[2.459498,48.67174,86.9],[2.45949,48.671818,86.9],[2.459516,48.67195,86.9],[2.459516,48.672027,86.9],[2.459495,48.672063,86.9],[2.459443,48.672087,86.9],[2.459306,48.67213,86.9],[2.45901,48.672262,87],[2.458982,48.672281,87],[2.458855,48.672327,87],[2.458755,48.672381,87.1],[2.458719,48.672389,87.1],[2.458652,48.672433,87.1],[2.458445,48.672529,87.1],[2.458402,48.672542,87.1],[2.457976,48.672756,87.1],[2.457848,48.672806,87.1],[2.457613,48.672929,87.3],[2.457501,48.672976,87.4],[2.457404,48.673029,87.5],[2.457038,48.673183,87.6],[2.456771,48.67332,87.8],[2.456456,48.673456,87.8],[2.456168,48.673597,87.8],[2.45578,48.673771,87.7],[2.455638,48.673826,87.7],[2.455512,48.673889,87.7],[2.455303,48.673974,87.6],[2.455262,48.67401,87.6],[2.455177,48.674051,87.6],[2.455096,48.674068,87.5],[2.455028,48.674111,87.5],[2.454943,48.674128,87.5],[2.454837,48.674199,87.5],[2.454784,48.674222,87.5],[2.454666,48.674251,87.5],[2.454356,48.674406,87.6],[2.45426,48.674471,87.6],[2.453965,48.674593,87.6],[2.453294,48.674913,87.8],[2.453182,48.674975,87.8],[2.452989,48.675052,87.8],[2.452707,48.675193,87.9],[2.452054,48.675477,87.9],[2.451934,48.675522,88],[2.451886,48.67552,88],[2.451868,48.675489,88],[2.451873,48.67546,88],[2.452022,48.675349,88],[2.45216,48.67519,88],[2.452375,48.674979,88],[2.452451,48.674891,88],[2.452495,48.674856,88],[2.452897,48.674439,88.1],[2.452996,48.67438,88.1],[2.453096,48.674301,88.1],[2.453244,48.674133,88.1],[2.45356,48.673837,88],[2.453913,48.673464,88],[2.453967,48.67342,88],[2.454246,48.673107,88.1],[2.454789,48.672554,88.2],[2.454848,48.672522,88.3],[2.454895,48.672478,88.3],[2.454952,48.672401,88.3],[2.455085,48.672301,88.4],[2.455138,48.672225,88.4],[2.455224,48.672156,88.4],[2.455332,48.67202,88.3],[2.455517,48.671857,88.3],[2.45555,48.67181,88.2],[2.4562,48.67111,88.3],[2.456281,48.671038,88.3],[2.456311,48.670998,88.3],[2.456325,48.670912,88.3],[2.456302,48.670883,88.3],[2.456257,48.670857,88.2],[2.456135,48.670807,88.2],[2.456023,48.670782,88.1],[2.455908,48.670732,88.2],[2.455646,48.670666,88.2],[2.455594,48.670636,88.3],[2.455573,48.670597,88.3],[2.455511,48.670572,88.3],[2.455393,48.670571,88.3],[2.455312,48.670551,88.3],[2.455228,48.670556,88.3],[2.455133,48.670513,88.3],[2.45495,48.670475,88.3],[2.454893,48.670452,88.3],[2.454778,48.670426,88.4],[2.454717,48.670385,88.4],[2.454669,48.670391,88.4],[2.454611,48.670362,88.4],[2.45452,48.670347,88.4],[2.454443,48.670312,88.4],[2.454418,48.670309,88.4],[2.454389,48.670321,88.4],[2.454303,48.67031,88.4],[2.454213,48.670281,88.4],[2.453996,48.670237,88.4],[2.453916,48.670196,88.4],[2.45377,48.670161,88.4],[2.453709,48.670116,88.5],[2.453638,48.670097,88.5],[2.453608,48.670039,88.5],[2.45354,48.670004,88.5],[2.453473,48.669986,88.5],[2.453446,48.669988,88.6],[2.453392,48.669977,88.6],[2.453333,48.669978,88.6],[2.45333,48.669973,88.6],[2.453321,48.669987,88.6],[2.453317,48.669978,88.6],[2.45314,48.66993,88.6],[2.453052,48.669868,88.6],[2.45301,48.669821,88.6],[2.45302,48.669825,88.6],[2.452935,48.669784,88.6],[2.452822,48.669761,88.7],[2.452774,48.669769,88.7],[2.452717,48.669754,88.7],[2.452599,48.669749,88.7],[2.452523,48.669767,88.7],[2.452265,48.669763,88.8],[2.452071,48.6697,88.8],[2.451976,48.669652,88.8],[2.451761,48.669623,88.9],[2.45159,48.669583,88.9],[2.451038,48.669424,88.9],[2.450985,48.669415,88.9],[2.450834,48.669368,88.9],[2.450413,48.669277,89.1],[2.450213,48.669209,89.3],[2.450147,48.669199,89.4],[2.449983,48.669124,89.6],[2.449691,48.669103,89.7],[2.449617,48.669132,89.7],[2.449555,48.669167,89.8],[2.44936,48.669316,89.8],[2.449189,48.669496,89.8],[2.4489,48.669772,89.7],[2.448843,48.669811,89.7],[2.448554,48.670104,89.6],[2.448444,48.670199,89.6],[2.448211,48.670447,89.7],[2.448002,48.670636,89.6],[2.447358,48.671289,89.2],[2.44719,48.671434,89.1],[2.447087,48.671538,88.9],[2.446965,48.671634,88.8],[2.446851,48.671739,88.7],[2.4468,48.671798,88.7],[2.446364,48.672195,88.5],[2.446317,48.672271,88.5],[2.44606,48.672526,88.3],[2.445996,48.672578,88.2],[2.445901,48.672691,88.1],[2.445779,48.672799,87.9],[2.445639,48.672893,87.9],[2.445579,48.672944,87.8],[2.445442,48.673111,87.9],[2.445327,48.673204,87.9],[2.445117,48.673405,87.9],[2.445043,48.673511,87.9],[2.44495,48.673609,87.9],[2.444673,48.673851,88],[2.444588,48.673993,88.1],[2.444461,48.674064,88.1],[2.444391,48.674093,88.1],[2.444338,48.674129,88.1],[2.44424,48.674267,88.1],[2.444147,48.674346,88],[2.444104,48.674439,88],[2.443987,48.674534,88],[2.443924,48.674605,88],[2.443906,48.674604,88],[2.443914,48.674566,88],[2.44394,48.674567,88],[2.443906,48.674577,88],[2.443919,48.674566,88],[2.443945,48.674584,88],[2.443939,48.674589,88],[2.443955,48.67459,88],[2.444085,48.674492,88],[2.44414,48.674428,88],[2.444208,48.674323,88.1],[2.444283,48.67426,88.1],[2.444401,48.674138,88.1],[2.444412,48.674112,88.1],[2.444367,48.674087,88.1],[2.444251,48.674107,88],[2.4442,48.674125,88],[2.444164,48.674154,88],[2.444011,48.674189,87.9],[2.44388,48.674238,87.9],[2.443812,48.674252,87.9],[2.443557,48.674427,87.9],[2.44327,48.674582,87.9],[2.44317,48.674662,87.9],[2.442971,48.674739,88],[2.442906,48.674754,88],[2.442772,48.674753,88],[2.442669,48.674785,88],[2.442452,48.674834,88.1],[2.442311,48.674884,88.2],[2.442237,48.674899,88.2],[2.441932,48.67492,88.3],[2.441698,48.674902,88.3],[2.441622,48.674904,88.3],[2.441489,48.674876,88.3],[2.441335,48.674856,88.4],[2.441262,48.674874,88.4],[2.441134,48.674944,88.3],[2.441068,48.675035,88.3],[2.440878,48.675197,88.3],[2.44071,48.675372,88.3],[2.440646,48.6754,88.3],[2.440573,48.675417,88.4],[2.440429,48.675435,88.4],[2.4403,48.675479,88.5],[2.440125,48.675556,88.6],[2.439893,48.675746,88.6],[2.439514,48.67599,88.6],[2.439251,48.676282,88.6],[2.439182,48.67637,88.5],[2.439075,48.676562,88.4],[2.439034,48.676661,88.3],[2.438952,48.676745,88.3],[2.438887,48.676833,88.3],[2.43885,48.676932,88.3],[2.438855,48.67707,88.3],[2.438873,48.677161,88.2],[2.438861,48.677206,88.2],[2.438785,48.677349,88.3],[2.438751,48.677382,88.3],[2.438569,48.677454,88.3],[2.438433,48.677551,88.4],[2.438327,48.677592,88.4],[2.438259,48.67767,88.3],[2.438124,48.677751,88.2],[2.438097,48.67778,88.2],[2.438103,48.677776,88.2],[2.438092,48.677764,88.2],[2.438029,48.677788,88.1],[2.437945,48.677927,88],[2.437922,48.678201,87.7],[2.437875,48.67829,87.6],[2.437801,48.678369,87.4],[2.437749,48.678407,87.4],[2.437663,48.678493,87.3],[2.43757,48.678632,87.1],[2.437399,48.678706,87.1],[2.437307,48.678783,87],[2.437149,48.678995,87],[2.437135,48.679046,87],[2.437095,48.67908,87],[2.43704,48.679108,87],[2.436907,48.679088,86.9],[2.436917,48.679205,86.9],[2.436875,48.679241,86.9],[2.436817,48.679273,86.8],[2.436754,48.679293,86.8],[2.436698,48.679326,86.8],[2.436655,48.679366,86.8],[2.436592,48.679454,86.8],[2.436505,48.679521,86.8],[2.436411,48.679576,86.8],[2.436369,48.679666,86.8],[2.43632,48.679734,86.8],[2.436271,48.679767,86.8],[2.436205,48.679777,86.8],[2.436145,48.679797,86.8],[2.436117,48.679828,86.8],[2.436153,48.67991,86.8],[2.436095,48.680038,86.7],[2.436078,48.680013,86.6],[2.436013,48.680063,86.5],[2.435973,48.680114,86.5],[2.435957,48.680097,86.5],[2.43596,48.680075,86.5],[2.435981,48.680058,86.4],[2.436054,48.680035,86.4],[2.436148,48.680035,86.4],[2.436308,48.680146,86.3],[2.436518,48.680247,86.3],[2.436575,48.680262,86.3],[2.436841,48.680388,86.3],[2.43723,48.68055,86.4],[2.437317,48.680603,86.5],[2.437587,48.680723,86.5],[2.437689,48.680756,86.5],[2.43787,48.680866,86.6],[2.438243,48.681021,86.6],[2.438682,48.681235,86.6],[2.438848,48.681291,86.6],[2.43894,48.681345,86.5],[2.439237,48.681477,86.2],[2.439299,48.681522,86.2],[2.439515,48.681593,86.1],[2.439831,48.681766,86.1],[2.440028,48.681839,86],[2.440402,48.682001,86],[2.440523,48.682046,85.9],[2.440579,48.682078,85.9],[2.440883,48.682213,86],[2.440916,48.682235,86],[2.44093,48.682266,86.1],[2.441001,48.682305,86.1],[2.440967,48.682349,86.1],[2.440934,48.682373,86.1],[2.440903,48.682426,86],[2.440809,48.682468,86],[2.440702,48.68253,85.9],[2.440652,48.682646,85.9],[2.440477,48.682778,85.8],[2.440316,48.682956,85.8],[2.440184,48.683063,85.7],[2.439921,48.683333,85.5],[2.439751,48.683447,85.3],[2.439726,48.683536,85.3],[2.439693,48.683578,85.3],[2.439584,48.683632,85.2],[2.439528,48.683715,85.2],[2.439443,48.68381,85.1],[2.439318,48.683914,85],[2.439277,48.683934,85],[2.439257,48.6839,85],[2.439275,48.683885,84.9],[2.439275,48.683891,84.9],[2.439231,48.683878,84.9],[2.439199,48.683848,84.9],[2.43909,48.683807,84.8],[2.439086,48.683791,84.8],[2.439093,48.683792,84.8],[2.439059,48.683782,84.8],[2.439019,48.683757,84.7],[2.439015,48.683745,84.7],[2.439033,48.683745,84.7],[2.438735,48.683655,84.6],[2.438789,48.683701,84.5],[2.438933,48.683724,84.4],[2.438987,48.683762,84.4],[2.439083,48.683811,84.4],[2.439073,48.683809,84.4],[2.439126,48.68382,84.3],[2.439236,48.683914,84.3],[2.439279,48.683932,84.3],[2.439272,48.683949,84.3],[2.439216,48.683977,84.2],[2.439001,48.684196,84.2],[2.438958,48.684222,84.2],[2.438861,48.684304,84.1],[2.438834,48.68435,84.1],[2.438769,48.684422,84.1],[2.4385,48.684667,84],[2.438465,48.68472,84],[2.438351,48.684834,83.9],[2.438256,48.684895,83.8],[2.438215,48.684975,83.8],[2.438143,48.685046,83.7],[2.438124,48.685094,83.7],[2.438061,48.685177,83.6],[2.437951,48.685236,83.6],[2.437874,48.685327,83.4],[2.437692,48.6855,83.3],[2.437612,48.685591,83.2],[2.437516,48.685673,83.2],[2.437446,48.685769,83.1],[2.437299,48.68589,83.1],[2.437177,48.686059,83],[2.437124,48.686093,82.9],[2.437106,48.686132,82.9],[2.437192,48.68618,82.9],[2.437202,48.68621,82.8],[2.437179,48.686291,82.8],[2.4371,48.686368,82.8],[2.437072,48.686414,82.8],[2.437063,48.686495,82.8],[2.437018,48.686575,82.8],[2.436967,48.686606,82.8],[2.436901,48.686622,82.8],[2.436814,48.686619,82.7],[2.43677,48.686631,82.7],[2.436631,48.686726,82.6],[2.436449,48.686916,82.4],[2.436399,48.686951,82.3],[2.436122,48.687211,82],[2.435935,48.687365,81.7],[2.435572,48.687691,80.8],[2.435472,48.687767,80.6],[2.435229,48.687981,79.9],[2.435166,48.688013,79.8],[2.435024,48.688049,79.6],[2.434875,48.688056,79.5],[2.434749,48.688081,79.5],[2.434673,48.688077,79.5],[2.434287,48.687891,79.7],[2.433614,48.687591,79.9],[2.433532,48.687534,80.1],[2.433484,48.687534,80.1],[2.433437,48.687568,80.1],[2.433411,48.687645,80.4],[2.433378,48.687661,80.5],[2.433317,48.687651,80.5],[2.433258,48.687622,80.5],[2.433186,48.68754,80.4],[2.432803,48.687369,80.1],[2.432562,48.68723,80],[2.432486,48.687199,79.9],[2.432407,48.68718,79.9],[2.432105,48.687059,79.7],[2.431977,48.686985,79.8],[2.431926,48.686876,79.9],[2.431919,48.686817,79.9],[2.431929,48.686658,80.1],[2.431923,48.686607,80.1],[2.431903,48.686556,80.2],[2.431804,48.686419,80.3],[2.431664,48.686292,80.3],[2.431624,48.686245,80.3],[2.431469,48.686128,80.4],[2.431349,48.686052,80.4],[2.431138,48.685963,80.4],[2.431013,48.685897,80.4],[2.43089,48.68582,80.3],[2.430318,48.685565,79.9],[2.429999,48.685454,79.7],[2.429718,48.685345,79.6],[2.429668,48.685309,79.5],[2.42967,48.685259,79.5],[2.429693,48.685211,79.6],[2.42974,48.685167,79.7],[2.429857,48.685095,80],[2.429955,48.685017,80.2],[2.430188,48.684871,80.7],[2.430335,48.684747,81],[2.430504,48.684646,81.3],[2.430656,48.684533,81.5],[2.431023,48.684301,82.1],[2.431257,48.684115,82.5],[2.431413,48.684014,82.7],[2.431649,48.683844,82.9],[2.431645,48.683859,83],[2.431671,48.683828,83],[2.431782,48.68376,83.1],[2.432101,48.683524,83.3],[2.432294,48.683397,83.4],[2.432579,48.683182,83.6],[2.432783,48.682961,83.8],[2.433279,48.682457,84.6],[2.433611,48.682134,84.7],[2.433693,48.682039,84.7],[2.433794,48.681949,84.8],[2.433825,48.681902,84.8],[2.433985,48.681766,84.8],[2.434032,48.681716,84.8],[2.434469,48.681342,85.1],[2.434525,48.681267,85.1],[2.43476,48.681099,85.1],[2.434958,48.680926,85.1],[2.435275,48.680703,85.3],[2.435368,48.68062,85.4],[2.435421,48.68053,85.5],[2.435551,48.680422,85.7],[2.435649,48.680388,85.8],[2.435759,48.68028,85.9],[2.436009,48.680109,86.3],[2.436063,48.680059,86.4],[2.436103,48.68004,86.5],[2.436207,48.679946,86.6],[2.436268,48.679867,86.7],[2.436271,48.679872,86.7],[2.436308,48.679832,86.7],[2.436328,48.679844,86.7],[2.436357,48.679844,86.7],[2.436591,48.679799,86.7],[2.43685,48.679735,86.8],[2.437017,48.679682,86.8],[2.437118,48.679637,86.8],[2.437399,48.679547,87],[2.437459,48.679537,87],[2.437576,48.6795,87.1],[2.437677,48.679457,87.2],[2.437842,48.679409,87.3],[2.437933,48.679404,87.4],[2.438285,48.679298,87.4],[2.438355,48.679286,87.4],[2.43855,48.679234,87.4],[2.438715,48.679145,87.4],[2.438776,48.679127,87.5],[2.438845,48.67912,87.5],[2.438918,48.679103,87.5],[2.43906,48.679031,87.5],[2.439117,48.679014,87.5],[2.439193,48.678971,87.5],[2.439748,48.678798,87.6],[2.439931,48.678729,87.6],[2.440429,48.67858,87.7],[2.440706,48.678515,87.7],[2.440864,48.678435,87.7],[2.440991,48.678388,87.7],[2.441051,48.678357,87.7],[2.44123,48.67829,87.8],[2.441363,48.678253,87.8],[2.441765,48.678082,87.9],[2.441863,48.678019,88],[2.442078,48.677935,88],[2.442147,48.677857,88.1],[2.44223,48.677796,88.1],[2.442283,48.67778,88.1],[2.442348,48.677783,88],[2.442613,48.677855,87.9],[2.443151,48.678111,87.6],[2.443446,48.678237,87.6],[2.443886,48.67845,87.4],[2.443949,48.678488,87.4],[2.444107,48.678552,87.4],[2.444486,48.678726,87.3],[2.444762,48.678868,87.3],[2.445804,48.679343,86.8],[2.446166,48.679528,86.8],[2.446465,48.679669,86.6],[2.446771,48.679802,86.4],[2.447251,48.680036,85.9],[2.447329,48.680054,85.9],[2.447412,48.680042,85.8],[2.44748,48.680002,85.8],[2.447575,48.679911,85.8],[2.447692,48.679842,85.8],[2.447744,48.679798,85.7],[2.448063,48.67946,85.7],[2.448116,48.679416,85.7],[2.448598,48.678932,85.9],[2.448733,48.678773,86],[2.448891,48.678624,86],[2.449032,48.678471,86],[2.449175,48.678336,86],[2.449228,48.678242,86],[2.449216,48.678232,86],[2.449218,48.678217,86],[2.449231,48.678216,86],[2.449256,48.678232,86],[2.449222,48.678267,86],[2.449171,48.678287,86],[2.44914,48.678315,86],[2.44908,48.678347,86],[2.449108,48.678378,85.9],[2.449136,48.678381,85.9],[2.449145,48.67839,85.9],[2.449131,48.678402,85.9],[2.449171,48.678435,85.9],[2.449203,48.678447,85.9],[2.449959,48.678395,86],[2.449983,48.678403,86],[2.450039,48.678355,86],[2.450059,48.678354,86],[2.450038,48.678337,86],[2.450052,48.678321,86],[2.450046,48.67831,86],[2.44976,48.678311,86.1],[2.449718,48.678325,86.1],[2.449684,48.678325,86.2],[2.449633,48.678309,86.2],[2.449656,48.67832,86.2],[2.449373,48.678312,86.3],[2.449349,48.678324,86.3],[2.449366,48.678336,86.3],[2.449224,48.678284,86.3],[2.449762,48.67771,86.7],[2.44981,48.677644,86.8],[2.450067,48.677391,87],[2.450163,48.677281,87.1],[2.450275,48.677173,87.2],[2.450321,48.677162,87.2],[2.450339,48.677131,87.2],[2.450448,48.677019,87.3],[2.450497,48.676943,87.4],[2.450586,48.676872,87.5],[2.450646,48.6768,87.5],[2.450685,48.676774,87.5],[2.450883,48.676589,87.5],[2.450956,48.676479,87.5],[2.451224,48.676232,87.6],[2.451434,48.675999,87.7],[2.451581,48.675851,87.8],[2.451698,48.675706,87.9],[2.451764,48.675652,88],[2.45181,48.675646,88],[2.452141,48.675742,88.1],[2.452269,48.675771,88.1],[2.452531,48.67585,88.1],[2.452665,48.675905,88.1],[2.452901,48.675961,88.1],[2.45305,48.676013,88.1],[2.453835,48.67625,87.7],[2.453997,48.676291,87.6],[2.454327,48.676399,87.3],[2.454496,48.676439,87.2],[2.455064,48.676609,86.9],[2.455223,48.676665,86.8],[2.45601,48.676877,86.6],[2.456232,48.676952,86.5],[2.456343,48.676999,86.5],[2.456392,48.677004,86.4],[2.45643,48.676971,86.4],[2.456466,48.676918,86.4],[2.456474,48.676882,86.4],[2.456466,48.676837,86.3],[2.456507,48.676808,86.3],[2.456569,48.676719,86.2],[2.45662,48.676691,86.1],[2.45664,48.676659,86.1],[2.456595,48.676655,86],[2.456582,48.676661,86],[2.456538,48.676655,86],[2.45653,48.67666,86],[2.45649,48.676586,85.9],[2.456478,48.676586,85.8],[2.456459,48.676605,85.8],[2.456176,48.676557,85.6],[2.456153,48.676575,85.6],[2.456171,48.676619,85.6],[2.456112,48.676599,85.5],[2.456043,48.676641,85.5],[2.456009,48.676642,85.4],[2.455964,48.676661,85.4],[2.455959,48.676674,85.4],[2.455998,48.676762,85.3],[2.455988,48.676826,85.2],[2.455965,48.676845,85.2],[2.455974,48.676873,85.2],[2.45601,48.676882,85.2],[2.456161,48.676951,85],[2.456408,48.677002,84.9],[2.456628,48.677068,84.7],[2.456675,48.67709,84.7],[2.456863,48.677142,84.5],[2.456925,48.677167,84.4],[2.457741,48.677408,83.8],[2.45781,48.677441,83.8],[2.457925,48.67752,83.7],[2.458066,48.677585,83.7],[2.458152,48.677601,83.7],[2.458414,48.677607,83.7],[2.458507,48.67762,83.7],[2.458666,48.677662,83.7],[2.458738,48.677694,83.7],[2.459035,48.677784,83.8],[2.459192,48.677819,83.9],[2.459405,48.677878,84.1],[2.459521,48.677924,84.3],[2.459805,48.677996,84.6],[2.459929,48.678043,84.7],[2.460076,48.678083,84.9],[2.460139,48.678086,85],[2.460386,48.678176,85.2],[2.460697,48.678261,85.4],[2.460872,48.678293,85.5],[2.460994,48.678341,85.5],[2.461057,48.678349,85.6],[2.461214,48.678414,85.7],[2.461445,48.678481,85.8],[2.461682,48.678561,86],[2.461835,48.678588,86],[2.461965,48.67863,86.1],[2.462494,48.678827,86.3],[2.462621,48.678866,86.3],[2.462876,48.678921,86.3],[2.46304,48.678975,86.4],[2.463223,48.679004,86.5],[2.463326,48.679032,86.5],[2.463513,48.67911,86.6],[2.463638,48.679139,86.7],[2.46379,48.679204,86.7],[2.463915,48.679246,86.7],[2.464265,48.679343,86.9],[2.464414,48.679443,87],[2.464487,48.679514,87],[2.46454,48.679641,86.9],[2.464643,48.680064,87.1],[2.464708,48.68019,87.1],[2.464691,48.680301,87.2],[2.464713,48.680352,87.2],[2.46478,48.680604,87.4],[2.464844,48.680761,87.4],[2.464866,48.680867,87.4],[2.464912,48.680976,87.5],[2.464958,48.681133,87.6],[2.464988,48.681179,87.6],[2.465025,48.681408,87.7],[2.465025,48.68147,87.7],[2.465134,48.68176,87.8],[2.465239,48.682082,87.9],[2.465262,48.682206,87.9],[2.465401,48.682672,87.7],[2.46564,48.68359,87.6],[2.465636,48.683642,87.6],[2.465671,48.6838,87.6],[2.465664,48.683854,87.6],[2.465714,48.684071,87.7],[2.46575,48.684163,87.8],[2.465758,48.684324,87.9],[2.465772,48.684375,87.9],[2.465894,48.684537,87.9],[2.465969,48.684753,88],[2.466031,48.684973,87.9],[2.466051,48.68509,87.9],[2.466404,48.686414,88.6],[2.466431,48.686583,88.6],[2.46651,48.686745,88.6],[2.466683,48.687189,88.1],[2.466732,48.687418,87.8],[2.46681,48.687518,87.8],[2.466838,48.68757,87.8],[2.466888,48.687735,87.7],[2.466953,48.687898,87.6],[2.467147,48.688471,87.4],[2.467212,48.688697,87.4],[2.467365,48.6891,87.4],[2.467504,48.689518,86.9],[2.467676,48.689906,86.7],[2.467717,48.68996,86.7],[2.467716,48.690027,86.7],[2.467776,48.690142,86.7],[2.467777,48.690183,86.8],[2.467742,48.690216,86.8],[2.467556,48.690259,86.9],[2.467485,48.690285,86.9],[2.467335,48.690412,87],[2.467199,48.690472,87.1],[2.467045,48.690506,87.2],[2.46696,48.690515,87.3],[2.466884,48.690514,87.3],[2.466808,48.690498,87.3],[2.466671,48.69045,87.4],[2.466503,48.690445,87.4],[2.46635,48.690419,87.3],[2.466202,48.690362,87.3],[2.466016,48.690262,87.3],[2.465931,48.690248,87.3],[2.465847,48.690266,87.3],[2.465772,48.690304,87.2],[2.465697,48.690311,87.2],[2.465531,48.690303,87.1],[2.465185,48.690259,87],[2.465102,48.690237,87],[2.465012,48.690226,87],[2.464816,48.690249,87.1],[2.464734,48.690279,87.1],[2.464655,48.690298,87.1],[2.464468,48.6903,87.1],[2.464376,48.690312,87.1],[2.464315,48.690333,87.1],[2.464246,48.690341,87.1],[2.464176,48.690337,87.1],[2.464085,48.690351,87.1],[2.464011,48.690373,87.1],[2.463936,48.690384,87.1],[2.463718,48.690358,87.1],[2.46365,48.690335,87.1],[2.463455,48.690328,87],[2.463385,48.690336,86.9],[2.463293,48.690361,86.9],[2.463015,48.690358,86.8],[2.462695,48.690442,86.8],[2.46261,48.690455,86.8],[2.462458,48.690441,86.9],[2.462374,48.690446,86.9],[2.462196,48.690478,86.9],[2.462044,48.690525,86.9],[2.461676,48.690592,86.6],[2.461293,48.690625,86.5],[2.461251,48.690646,86.5],[2.461058,48.691,86.7],[2.460997,48.691088,86.7],[2.46085,48.691375,86.8],[2.460737,48.691558,86.7],[2.460706,48.69165,86.7],[2.460703,48.691696,86.7],[2.460674,48.691786,86.6],[2.460621,48.691816,86.6],[2.460553,48.691819,86.5],[2.460472,48.691805,86.5],[2.460193,48.691712,86.4],[2.459948,48.69167,86.2],[2.459696,48.691569,86.1],[2.459536,48.691535,86],[2.459475,48.691506,86],[2.45941,48.691487,86],[2.459162,48.691445,85.8],[2.458766,48.69132,85.6],[2.458598,48.691278,85.5],[2.458343,48.691231,85.5],[2.458133,48.691158,85.4],[2.457907,48.691096,85.3],[2.457528,48.691009,85],[2.457451,48.690998,85],[2.457318,48.690945,85],[2.457244,48.690948,85],[2.457189,48.690988,85],[2.457151,48.691096,85],[2.456876,48.691519,85.1],[2.456769,48.691658,85.1],[2.456744,48.691706,85.1],[2.456671,48.691802,85],[2.456511,48.692049,85],[2.456469,48.692155,84.9],[2.456244,48.692513,84.8],[2.456103,48.692713,84.5],[2.456017,48.69293,84.5],[2.455952,48.693023,84.4],[2.45581,48.69327,84.3],[2.455742,48.69337,84.2],[2.455513,48.693657,84.2],[2.455464,48.693701,84.2],[2.4554,48.6938,84.1],[2.45523,48.693989,83.9],[2.455177,48.69409,83.8],[2.45458,48.6949,83],[2.454543,48.694979,82.8],[2.454512,48.695005,82.8],[2.454362,48.695208,82.9],[2.454325,48.695275,82.9],[2.454233,48.695397,83],[2.454184,48.695445,83],[2.454152,48.69551,83.1],[2.45408,48.695571,83.1],[2.454104,48.695602,83.1],[2.454197,48.695624,83.2],[2.454213,48.695639,83.2],[2.454196,48.695668,83.2],[2.454183,48.695665,83.2],[2.454124,48.695719,83.1],[2.454019,48.695752,83],[2.45397,48.695782,83],[2.453903,48.695906,83],[2.45387,48.695943,83],[2.45374,48.696172,83],[2.453539,48.696469,83],[2.453351,48.696776,83.3],[2.453298,48.696887,83.4],[2.453217,48.696989,83.5],[2.45308,48.697216,83.7],[2.453059,48.697278,83.7],[2.453054,48.697399,83.7],[2.453271,48.698179,83.7],[2.453336,48.69854,83.8],[2.45335,48.698697,83.9],[2.453517,48.699665,84],[2.453581,48.70013,83.8],[2.453623,48.700277,83.7]]}}]}