{"type":"FeatureCollection","features":[{"type":"Feature","properties":{"name":"Déambulation dans la Fête de l’Huma","type":"marche","time":"2025-09-13T13:13:15Z","coordTimes":["2025-09-13T13:13:15Z","2025-09-13T13:13:29Z","2025-09-13T13:13:36Z","2025-09-13T13:13:39Z","2025-09-13T13:13:48Z","2025-09-13T13:13:53Z","2025-09-13T13:13:55Z","2025-09-13T13:13:57Z","2025-09-13T13:14:06Z","2025-09-13T13:14:10Z","2025-09-13T13:14:11Z","2025-09-13T13:14:13Z","2025-09-13T13:14:18Z","2025-09-13T13:14:19Z","2025-09-13T13:14:21Z","2025-09-13T13:14:25Z","2025-09-13T13:14:27Z","2025-09-13T13:14:29Z","2025-09-13T13:14:34Z","2025-09-13T13:14:36Z","2025-09-13T13:14:38Z","2025-09-13T13:14:45Z","2025-09-13T13:14:47Z","2025-09-13T13:14:51Z","2025-09-13T13:14:55Z","2025-09-13T13:14:56Z","2025-09-13T13:15:02Z","2025-09-13T13:15:03Z","2025-09-13T13:15:05Z","2025-09-13T13:15:06Z","2025-09-13T13:15:28Z","2025-09-13T13:15:31Z","2025-09-13T13:15:48Z","2025-09-13T13:15:50Z","2025-09-13T13:15:54Z","2025-09-13T13:16:03Z","2025-09-13T13:16:05Z","2025-09-13T13:16:11Z","2025-09-13T13:16:16Z","2025-09-13T13:16:22Z","2025-09-13T13:16:29Z","2025-09-13T13:16:35Z","2025-09-13T13:16:39Z","2025-09-13T13:16:47Z","2025-09-13T13:16:49Z","2025-09-13T13:16:51Z","2025-09-13T13:16:53Z","2025-09-13T13:16:55Z","2025-09-13T13:16:58Z","2025-09-13T13:17:02Z","2025-09-13T13:17:14Z","2025-09-13T13:17:31Z","2025-09-13T13:17:40Z","2025-09-13T13:17:43Z","2025-09-13T13:17:50Z","2025-09-13T13:17:56Z","2025-09-13T13:18:03Z","2025-09-13T13:18:16Z","2025-09-13T13:18:18Z","2025-09-13T13:18:21Z","2025-09-13T13:18:25Z","2025-09-13T13:18:29Z","2025-09-13T13:18:32Z","2025-09-13T13:18:34Z","2025-09-13T13:18:43Z","2025-09-13T13:18:48Z","2025-09-13T13:18:50Z","2025-09-13T13:18:54Z","2025-09-13T13:18:56Z","2025-09-13T13:18:57Z","2025-09-13T13:19:04Z","2025-09-13T13:19:06Z","2025-09-13T13:19:10Z","2025-09-13T13:19:12Z","2025-09-13T13:19:29Z","2025-09-13T13:19:36Z","2025-09-13T13:19:49Z","2025-09-13T13:19:52Z","2025-09-13T13:19:53Z","2025-09-13T13:19:54Z","2025-09-13T13:19:58Z","2025-09-13T13:20:07Z","2025-09-13T13:20:10Z","2025-09-13T13:20:17Z","2025-09-13T13:20:21Z","2025-09-13T13:20:25Z","2025-09-13T13:20:35Z","2025-09-13T13:20:39Z","2025-09-13T13:20:43Z","2025-09-13T13:20:46Z","2025-09-13T13:20:52Z","2025-09-13T13:21:34Z","2025-09-13T13:21:36Z","2025-09-13T13:21:39Z","2025-09-13T13:21:44Z","2025-09-13T13:21:48Z","2025-09-13T13:21:54Z","2025-09-13T13:21:56Z","2025-09-13T13:22:00Z","2025-09-13T13:22:03Z","2025-09-13T13:22:08Z","2025-09-13T13:22:13Z","2025-09-13T13:22:16Z","2025-09-13T13:22:22Z","2025-09-13T13:22:25Z","2025-09-13T13:22:29Z","2025-09-13T13:22:33Z","2025-09-13T13:22:36Z","2025-09-13T13:22:38Z","2025-09-13T13:22:40Z","2025-09-13T13:22:47Z","2025-09-13T13:22:58Z","2025-09-13T13:23:05Z","2025-09-13T13:23:13Z","2025-09-13T13:23:28Z","2025-09-13T13:23:32Z","2025-09-13T13:23:43Z","2025-09-13T13:23:46Z","2025-09-13T13:23:53Z","2025-09-13T13:23:57Z","2025-09-13T13:24:04Z","2025-09-13T13:24:08Z","2025-09-13T13:24:17Z","2025-09-13T13:24:22Z","2025-09-13T13:33:32Z","2025-09-13T14:14:13Z","2025-09-13T14:33:42Z","2025-09-13T14:33:45Z","2025-09-13T14:33:48Z","2025-09-13T14:33:51Z","2025-09-13T14:34:17Z","2025-09-13T14:34:18Z","2025-09-13T14:34:26Z","2025-09-13T14:34:35Z","2025-09-13T14:34:36Z","2025-09-13T14:34:38Z","2025-09-13T14:34:42Z","2025-09-13T14:34:47Z","2025-09-13T14:34:52Z","2025-09-13T14:34:55Z","2025-09-13T14:34:57Z","2025-09-13T14:36:42Z","2025-09-13T14:36:51Z","2025-09-13T14:36:55Z","2025-09-13T14:36:57Z","2025-09-13T14:36:58Z","2025-09-13T14:37:01Z","2025-09-13T14:37:03Z","2025-09-13T14:37:06Z","2025-09-13T14:37:10Z","2025-09-13T14:37:12Z","2025-09-13T14:37:14Z","2025-09-13T14:37:21Z","2025-09-13T14:37:26Z","2025-09-13T14:42:24Z","2025-09-13T14:42:36Z","2025-09-13T14:43:34Z","2025-09-13T14:47:54Z","2025-09-13T14:48:29Z","2025-09-13T14:49:47Z","2025-09-13T14:49:55Z","2025-09-13T14:49:56Z","2025-09-13T14:50:06Z","2025-09-13T14:50:07Z","2025-09-13T14:50:20Z","2025-09-13T14:50:24Z","2025-09-13T14:50:26Z","2025-09-13T14:50:27Z","2025-09-13T14:50:31Z","2025-09-13T14:50:38Z","2025-09-13T14:50:43Z","2025-09-13T14:50:47Z","2025-09-13T14:50:49Z","2025-09-13T14:50:56Z","2025-09-13T14:50:57Z","2025-09-13T14:51:07Z","2025-09-13T14:51:08Z","2025-09-13T14:51:24Z","2025-09-13T14:51:33Z","2025-09-13T14:51:49Z","2025-09-13T14:51:55Z","2025-09-13T14:52:20Z","2025-09-13T14:52:22Z","2025-09-13T14:52:24Z","2025-09-13T14:52:30Z","2025-09-13T14:52:58Z","2025-09-13T14:53:15Z","2025-09-13T14:53:57Z","2025-09-13T14:54:05Z","2025-09-13T14:54:07Z","2025-09-13T14:54:08Z","2025-09-13T14:54:23Z","2025-09-13T14:54:24Z","2025-09-13T14:54:40Z","2025-09-13T14:54:42Z","2025-09-13T14:54:58Z","2025-09-13T14:55:09Z","2025-09-13T14:55:12Z","2025-09-13T14:55:30Z","2025-09-13T14:55:33Z","2025-09-13T14:55:44Z","2025-09-13T14:55:52Z","2025-09-13T14:57:00Z","2025-09-13T14:57:10Z","2025-09-13T14:57:33Z","2025-09-13T14:57:39Z","2025-09-13T14:57:58Z","2025-09-13T14:58:24Z","2025-09-13T14:58:45Z","2025-09-13T14:59:10Z","2025-09-13T14:59:12Z","2025-09-13T14:59:13Z","2025-09-13T14:59:15Z","2025-09-13T14:59:17Z","2025-09-13T14:59:18Z","2025-09-13T14:59:23Z","2025-09-13T14:59:27Z","2025-09-13T15:00:04Z","2025-09-13T15:00:08Z","2025-09-13T15:00:30Z","2025-09-13T15:01:03Z","2025-09-13T15:02:20Z","2025-09-13T15:02:22Z","2025-09-13T15:02:26Z","2025-09-13T15:02:34Z","2025-09-13T15:02:40Z","2025-09-13T15:02:42Z","2025-09-13T15:02:43Z","2025-09-13T15:02:45Z","2025-09-13T15:02:51Z","2025-09-13T15:03:00Z","2025-09-13T15:03:01Z","2025-09-13T15:03:08Z","2025-09-13T15:03:34Z","2025-09-13T15:03:51Z","2025-09-13T15:04:07Z","2025-09-13T15:04:08Z","2025-09-13T15:04:35Z","2025-09-13T15:04:38Z","2025-09-13T15:04:56Z","2025-09-13T15:04:57Z","2025-09-13T15:05:03Z","2025-09-13T15:05:08Z","2025-09-13T15:05:28Z","2025-09-13T15:05:57Z","2025-09-13T15:06:00Z","2025-09-13T15:06:17Z","2025-09-13T15:06:18Z","2025-09-13T15:06:19Z","2025-09-13T15:06:32Z","2025-09-13T15:06:33Z","2025-09-13T15:06:56Z","2025-09-13T15:06:58Z","2025-09-13T15:06:59Z","2025-09-13T15:07:03Z","2025-09-13T15:07:05Z","2025-09-13T15:07:10Z","2025-09-13T15:07:12Z","2025-09-13T15:07:16Z","2025-09-13T15:07:20Z","2025-09-13T15:07:36Z","2025-09-13T15:07:40Z","2025-09-13T15:07:43Z","2025-09-13T15:08:03Z","2025-09-13T15:08:14Z","2025-09-13T15:08:20Z","2025-09-13T15:08:29Z","2025-09-13T15:08:31Z","2025-09-13T15:08:43Z","2025-09-13T15:08:50Z","2025-09-13T15:08:54Z","2025-09-13T15:09:01Z","2025-09-13T15:09:22Z","2025-09-13T15:09:39Z","2025-09-13T15:09:42Z","2025-09-13T15:10:07Z","2025-09-13T15:10:11Z","2025-09-13T15:10:15Z","2025-09-13T15:10:24Z","2025-09-13T15:10:27Z","2025-09-13T15:10:35Z","2025-09-13T15:10:36Z","2025-09-13T15:10:37Z","2025-09-13T15:10:49Z","2025-09-13T15:10:58Z","2025-09-13T15:11:13Z","2025-09-13T15:11:37Z","2025-09-13T15:12:45Z","2025-09-13T15:13:04Z","2025-09-13T15:13:39Z","2025-09-13T15:13:49Z","2025-09-13T15:13:51Z","2025-09-13T15:14:27Z","2025-09-13T15:14:35Z","2025-09-13T15:15:19Z","2025-09-13T15:16:12Z","2025-09-13T15:16:13Z","2025-09-13T15:16:14Z","2025-09-13T15:16:15Z","2025-09-13T15:16:21Z","2025-09-13T15:16:35Z","2025-09-13T15:16:39Z","2025-09-13T15:16:41Z","2025-09-13T15:16:42Z","2025-09-13T15:16:49Z","2025-09-13T15:17:17Z","2025-09-13T15:17:21Z","2025-09-13T15:17:24Z","2025-09-13T15:17:25Z","2025-09-13T15:17:30Z","2025-09-13T15:17:35Z","2025-09-13T15:17:37Z","2025-09-13T15:17:41Z","2025-09-13T15:17:47Z","2025-09-13T15:17:58Z","2025-09-13T15:18:01Z","2025-09-13T15:18:15Z","2025-09-13T15:18:19Z","2025-09-13T15:18:20Z","2025-09-13T15:18:26Z","2025-09-13T15:18:29Z","2025-09-13T15:18:35Z","2025-09-13T15:18:46Z","2025-09-13T15:18:54Z","2025-09-13T15:18:58Z","2025-09-13T15:19:20Z","2025-09-13T15:19:43Z","2025-09-13T15:20:18Z","2025-09-13T15:21:00Z","2025-09-13T15:21:17Z","2025-09-13T15:21:37Z","2025-09-13T15:21:50Z","2025-09-13T15:21:54Z","2025-09-13T15:21:57Z","2025-09-13T15:22:01Z","2025-09-13T15:22:04Z","2025-09-13T15:22:17Z","2025-09-13T15:22:19Z","2025-09-13T15:22:29Z","2025-09-13T15:22:35Z","2025-09-13T15:22:55Z","2025-09-13T15:23:06Z","2025-09-13T15:23:22Z","2025-09-13T15:23:30Z","2025-09-13T15:23:34Z","2025-09-13T15:23:40Z","2025-09-13T15:23:45Z","2025-09-13T15:24:04Z","2025-09-13T15:24:05Z","2025-09-13T15:24:06Z","2025-09-13T15:24:15Z","2025-09-13T15:24:16Z","2025-09-13T15:24:28Z","2025-09-13T15:24:32Z","2025-09-13T15:24:36Z","2025-09-13T15:24:53Z","2025-09-13T15:25:04Z","2025-09-13T15:25:11Z","2025-09-13T15:25:14Z","2025-09-13T15:25:54Z","2025-09-13T15:25:57Z","2025-09-13T15:26:00Z","2025-09-13T15:26:12Z","2025-09-13T15:26:15Z","2025-09-13T15:26:21Z","2025-09-13T15:26:24Z","2025-09-13T15:26:32Z","2025-09-13T15:26:34Z","2025-09-13T15:26:36Z","2025-09-13T15:26:51Z","2025-09-13T15:27:09Z","2025-09-13T15:27:14Z","2025-09-13T15:27:17Z","2025-09-13T15:27:24Z","2025-09-13T15:27:45Z","2025-09-13T15:27:56Z","2025-09-13T15:27:58Z","2025-09-13T15:28:11Z","2025-09-13T15:28:30Z","2025-09-13T15:28:35Z","2025-09-13T15:28:38Z","2025-09-13T15:29:05Z","2025-09-13T15:29:10Z","2025-09-13T15:29:13Z","2025-09-13T15:29:26Z","2025-09-13T15:29:34Z","2025-09-13T15:29:50Z","2025-09-13T15:29:53Z","2025-09-13T15:30:03Z","2025-09-13T15:30:08Z","2025-09-13T15:30:10Z","2025-09-13T15:30:11Z","2025-09-13T15:30:24Z","2025-09-13T15:30:26Z","2025-09-13T15:31:14Z","2025-09-13T15:31:43Z","2025-09-13T15:31:51Z","2025-09-13T15:31:59Z","2025-09-13T15:32:04Z","2025-09-13T15:32:09Z","2025-09-13T15:32:31Z","2025-09-13T15:32:34Z","2025-09-13T15:32:45Z","2025-09-13T15:32:47Z","2025-09-13T15:32:50Z","2025-09-13T15:32:57Z","2025-09-13T15:33:00Z","2025-09-13T15:33:08Z","2025-09-13T15:33:16Z","2025-09-13T15:33:18Z","2025-09-13T15:33:34Z","2025-09-13T15:33:42Z","2025-09-13T15:33:46Z","2025-09-13T15:33:52Z","2025-09-13T15:33:55Z","2025-09-13T15:34:01Z","2025-09-13T15:34:02Z","2025-09-13T15:34:04Z","2025-09-13T15:34:07Z","2025-09-13T15:34:16Z","2025-09-13T15:34:17Z","2025-09-13T15:34:21Z","2025-09-13T15:34:26Z","2025-09-13T15:34:34Z","2025-09-13T15:34:37Z","2025-09-13T15:34:44Z","2025-09-13T15:34:52Z","2025-09-13T15:35:16Z","2025-09-13T15:35:21Z","2025-09-13T15:35:31Z","2025-09-13T15:35:37Z","2025-09-13T15:35:38Z","2025-09-13T15:35:44Z","2025-09-13T15:35:51Z","2025-09-13T15:35:54Z","2025-09-13T15:35:58Z","2025-09-13T15:36:00Z","2025-09-13T15:36:08Z","2025-09-13T15:36:11Z","2025-09-13T15:36:19Z","2025-09-13T15:36:34Z","2025-09-13T15:36:40Z","2025-09-13T15:36:43Z","2025-09-13T15:37:31Z","2025-09-13T15:37:42Z","2025-09-13T15:37:55Z","2025-09-13T15:37:58Z","2025-09-13T15:38:06Z","2025-09-13T15:38:10Z","2025-09-13T15:38:20Z","2025-09-13T15:38:35Z","2025-09-13T15:38:39Z","2025-09-13T15:38:41Z","2025-09-13T15:38:42Z","2025-09-13T15:38:44Z","2025-09-13T15:38:49Z","2025-09-13T15:39:10Z","2025-09-13T15:39:14Z","2025-09-13T15:39:20Z","2025-09-13T15:39:24Z","2025-09-13T15:39:30Z","2025-09-13T15:39:41Z","2025-09-13T15:39:48Z","2025-09-13T15:39:56Z","2025-09-13T15:39:57Z","2025-09-13T15:40:02Z","2025-09-13T15:40:12Z","2025-09-13T15:40:17Z","2025-09-13T15:40:18Z","2025-09-13T15:40:24Z","2025-09-13T15:40:27Z","2025-09-13T15:40:43Z","2025-09-13T15:40:56Z","2025-09-13T15:41:06Z","2025-09-13T15:41:15Z","2025-09-13T15:41:25Z","2025-09-13T15:41:28Z","2025-09-13T15:41:32Z","2025-09-13T15:41:33Z","2025-09-13T15:41:41Z","2025-09-13T15:41:54Z","2025-09-13T15:41:59Z","2025-09-13T15:42:05Z","2025-09-13T15:42:10Z","2025-09-13T15:42:16Z","2025-09-13T15:42:21Z","2025-09-13T15:42:23Z","2025-09-13T15:42:25Z","2025-09-13T15:42:39Z","2025-09-13T15:42:42Z","2025-09-13T15:42:56Z","2025-09-13T15:43:02Z","2025-09-13T15:43:07Z","2025-09-13T15:43:11Z","2025-09-13T15:43:13Z","2025-09-13T15:43:17Z","2025-09-13T15:43:19Z","2025-09-13T15:43:22Z","2025-09-13T15:43:28Z","2025-09-13T15:43:31Z","2025-09-13T15:43:36Z","2025-09-13T15:43:39Z","2025-09-13T15:43:42Z","2025-09-13T15:43:45Z","2025-09-13T15:43:49Z","2025-09-13T15:44:01Z","2025-09-13T15:44:02Z","2025-09-13T15:44:32Z","2025-09-13T15:44:35Z","2025-09-13T15:44:36Z","2025-09-13T15:44:38Z","2025-09-13T15:44:42Z","2025-09-13T15:45:07Z","2025-09-13T15:45:14Z","2025-09-13T15:45:30Z","2025-09-13T15:46:43Z","2025-09-13T15:46:52Z","2025-09-13T15:46:55Z","2025-09-13T15:46:56Z","2025-09-13T15:46:59Z","2025-09-13T15:47:01Z","2025-09-13T15:47:05Z","2025-09-13T15:47:12Z","2025-09-13T15:47:15Z","2025-09-13T15:47:16Z","2025-09-13T15:47:22Z","2025-09-13T15:47:27Z","2025-09-13T15:47:28Z","2025-09-13T15:47:38Z","2025-09-13T15:47:42Z","2025-09-13T15:47:48Z","2025-09-13T15:47:49Z","2025-09-13T15:48:01Z","2025-09-13T15:48:07Z","2025-09-13T15:48:11Z","2025-09-13T15:48:16Z","2025-09-13T15:48:23Z","2025-09-13T15:48:29Z","2025-09-13T15:48:35Z","2025-09-13T15:48:38Z","2025-09-13T15:48:48Z","2025-09-13T15:48:52Z","2025-09-13T15:48:54Z","2025-09-13T15:48:59Z","2025-09-13T15:49:01Z","2025-09-13T15:49:10Z","2025-09-13T15:49:15Z","2025-09-13T15:49:19Z","2025-09-13T15:49:25Z","2025-09-13T15:49:33Z","2025-09-13T15:49:35Z","2025-09-13T15:49:38Z","2025-09-13T15:49:39Z","2025-09-13T15:49:45Z","2025-09-13T15:49:47Z","2025-09-13T15:49:53Z","2025-09-13T15:49:56Z","2025-09-13T15:49:58Z","2025-09-13T15:50:10Z","2025-09-13T15:50:13Z","2025-09-13T15:50:15Z","2025-09-13T15:50:20Z","2025-09-13T15:50:34Z","2025-09-13T15:50:40Z","2025-09-13T15:50:49Z","2025-09-13T15:50:52Z","2025-09-13T15:50:55Z","2025-09-13T15:50:57Z","2025-09-13T15:51:35Z","2025-09-13T15:51:36Z","2025-09-13T15:51:39Z","2025-09-13T15:51:41Z","2025-09-13T15:51:44Z","2025-09-13T15:52:41Z","2025-09-13T15:52:45Z","2025-09-13T15:52:47Z","2025-09-13T15:52:49Z","2025-09-13T15:52:54Z","2025-09-13T15:52:59Z","2025-09-13T15:53:01Z","2025-09-13T15:53:09Z","2025-09-13T15:53:11Z","2025-09-13T15:58:30Z","2025-09-13T15:58:37Z","2025-09-13T15:58:44Z","2025-09-13T15:58:46Z","2025-09-13T15:58:48Z","2025-09-13T15:58:56Z","2025-09-13T15:59:02Z","2025-09-13T15:59:05Z","2025-09-13T15:59:12Z","2025-09-13T15:59:25Z","2025-09-13T15:59:29Z","2025-09-13T15:59:36Z","2025-09-13T15:59:39Z","2025-09-13T15:59:47Z","2025-09-13T15:59:52Z","2025-09-13T16:00:02Z","2025-09-13T16:00:21Z","2025-09-13T16:00:28Z","2025-09-13T16:00:30Z","2025-09-13T16:00:33Z","2025-09-13T16:00:35Z","2025-09-13T16:00:41Z","2025-09-13T16:00:45Z","2025-09-13T16:00:49Z","2025-09-13T16:00:54Z","2025-09-13T16:00:56Z","2025-09-13T16:01:07Z","2025-09-13T16:01:12Z","2025-09-13T16:01:14Z","2025-09-13T16:01:17Z","2025-09-13T16:01:31Z","2025-09-13T16:01:36Z","2025-09-13T16:01:42Z","2025-09-13T16:01:57Z","2025-09-13T16:02:00Z","2025-09-13T16:02:03Z","2025-09-13T16:02:07Z","2025-09-13T16:02:15Z","2025-09-13T16:02:17Z","2025-09-13T16:02:34Z","2025-09-13T16:02:38Z","2025-09-13T16:02:41Z","2025-09-13T16:02:56Z","2025-09-13T16:02:59Z","2025-09-13T16:03:12Z","2025-09-13T16:03:23Z","2025-09-13T16:03:28Z","2025-09-13T16:03:39Z","2025-09-13T16:03:50Z","2025-09-13T16:03:55Z","2025-09-13T16:03:58Z","2025-09-13T16:04:01Z","2025-09-13T16:04:09Z","2025-09-13T16:04:13Z","2025-09-13T16:04:23Z","2025-09-13T16:04:28Z","2025-09-13T16:04:34Z","2025-09-13T16:04:44Z","2025-09-13T16:04:45Z","2025-09-13T16:04:50Z","2025-09-13T16:04:54Z","2025-09-13T16:05:00Z","2025-09-13T16:05:09Z","2025-09-13T16:05:11Z","2025-09-13T16:05:13Z","2025-09-13T16:05:14Z","2025-09-13T16:05:18Z","2025-09-13T16:05:21Z","2025-09-13T16:05:26Z","2025-09-13T16:05:29Z","2025-09-13T16:06:13Z","2025-09-13T16:06:14Z","2025-09-13T16:06:21Z","2025-09-13T16:06:30Z","2025-09-13T16:07:20Z","2025-09-13T16:07:23Z","2025-09-13T16:07:26Z","2025-09-13T16:07:30Z","2025-09-13T16:07:33Z","2025-09-13T16:07:40Z","2025-09-13T16:07:48Z","2025-09-13T16:07:50Z","2025-09-13T16:07:54Z","2025-09-13T16:07:58Z","2025-09-13T16:08:02Z","2025-09-13T16:08:07Z","2025-09-13T16:08:11Z","2025-09-13T16:08:15Z","2025-09-13T16:08:17Z","2025-09-13T16:08:27Z","2025-09-13T16:08:30Z","2025-09-13T16:08:32Z","2025-09-13T16:08:36Z","2025-09-13T16:08:39Z","2025-09-13T16:09:00Z","2025-09-13T16:09:06Z","2025-09-13T16:09:11Z","2025-09-13T16:09:13Z","2025-09-13T16:09:18Z","2025-09-13T16:09:21Z","2025-09-13T16:09:27Z","2025-09-13T16:09:33Z","2025-09-13T16:09:40Z","2025-09-13T16:09:41Z","2025-09-13T16:09:57Z","2025-09-13T16:10:03Z","2025-09-13T16:10:07Z","2025-09-13T16:10:14Z","2025-09-13T16:10:17Z","2025-09-13T16:10:23Z","2025-09-13T16:10:34Z","2025-09-13T16:10:57Z","2025-09-13T16:11:01Z","2025-09-13T16:11:10Z","2025-09-13T16:11:14Z","2025-09-13T16:11:31Z","2025-09-13T16:11:38Z","2025-09-13T16:11:43Z","2025-09-13T16:11:46Z","2025-09-13T16:11:57Z","2025-09-13T16:12:09Z","2025-09-13T16:12:14Z","2025-09-13T16:12:19Z","2025-09-13T16:12:22Z","2025-09-13T16:12:30Z","2025-09-13T16:12:33Z","2025-09-13T16:12:36Z","2025-09-13T16:12:45Z","2025-09-13T16:12:55Z","2025-09-13T16:13:00Z","2025-09-13T16:13:04Z","2025-09-13T16:13:07Z","2025-09-13T16:13:12Z","2025-09-13T16:13:21Z","2025-09-13T16:13:32Z","2025-09-13T16:13:49Z","2025-09-13T16:13:56Z","2025-09-13T16:13:57Z","2025-09-13T16:13:59Z","2025-09-13T16:14:01Z","2025-09-13T16:14:02Z","2025-09-13T16:14:04Z","2025-09-13T16:14:07Z","2025-09-13T16:14:12Z","2025-09-13T16:14:14Z","2025-09-13T16:14:16Z","2025-09-13T16:14:18Z","2025-09-13T16:14:21Z","2025-09-13T16:14:28Z","2025-09-13T16:14:31Z","2025-09-13T16:14:38Z","2025-09-13T16:15:02Z","2025-09-13T16:15:06Z","2025-09-13T16:15:11Z","2025-09-13T16:15:16Z","2025-09-13T16:15:23Z","2025-09-13T16:15:28Z","2025-09-13T16:15:30Z","2025-09-13T16:16:34Z","2025-09-13T16:16:37Z","2025-09-13T16:17:05Z","2025-09-13T16:17:08Z","2025-09-13T16:17:18Z","2025-09-13T16:17:23Z","2025-09-13T16:17:30Z","2025-09-13T16:17:36Z","2025-09-13T16:17:41Z","2025-09-13T16:17:50Z","2025-09-13T16:17:53Z","2025-09-13T16:17:56Z","2025-09-13T16:18:03Z","2025-09-13T16:18:16Z","2025-09-13T16:18:17Z","2025-09-13T16:18:19Z","2025-09-13T16:18:21Z","2025-09-13T16:18:25Z","2025-09-13T16:18:32Z","2025-09-13T16:18:36Z","2025-09-13T16:18:42Z","2025-09-13T16:18:49Z","2025-09-13T16:18:54Z","2025-09-13T16:18:56Z","2025-09-13T16:18:59Z","2025-09-13T16:19:07Z","2025-09-13T16:19:13Z","2025-09-13T16:19:23Z","2025-09-13T16:19:26Z","2025-09-13T16:19:29Z","2025-09-13T16:20:16Z","2025-09-13T16:20:23Z","2025-09-13T16:20:31Z","2025-09-13T16:20:34Z","2025-09-13T16:20:40Z","2025-09-13T16:20:59Z","2025-09-13T16:21:04Z","2025-09-13T16:21:08Z","2025-09-13T16:21:24Z","2025-09-13T16:21:43Z","2025-09-13T16:21:45Z","2025-09-13T16:22:14Z","2025-09-13T16:22:18Z","2025-09-13T16:22:22Z","2025-09-13T16:22:25Z","2025-09-13T16:22:29Z","2025-09-13T16:22:32Z","2025-09-13T16:22:43Z","2025-09-13T16:22:45Z","2025-09-13T16:22:48Z","2025-09-13T16:22:51Z","2025-09-13T16:22:53Z","2025-09-13T16:22:59Z","2025-09-13T16:23:03Z","2025-09-13T16:23:06Z","2025-09-13T16:23:12Z","2025-09-13T16:23:14Z","2025-09-13T16:24:04Z","2025-09-13T16:24:11Z","2025-09-13T16:24:19Z","2025-09-13T16:24:21Z","2025-09-13T16:24:22Z","2025-09-13T16:24:23Z","2025-09-13T16:24:27Z","2025-09-13T16:24:29Z","2025-09-13T16:24:34Z","2025-09-13T16:24:36Z","2025-09-13T16:24:39Z","2025-09-13T16:24:47Z","2025-09-13T16:24:55Z","2025-09-13T16:24:59Z","2025-09-13T16:25:06Z","2025-09-13T16:25:07Z","2025-09-13T16:25:13Z","2025-09-13T16:25:17Z","2025-09-13T16:25:23Z","2025-09-13T16:25:29Z","2025-09-13T16:25:36Z","2025-09-13T16:25:38Z","2025-09-13T16:25:44Z","2025-09-13T16:25:48Z","2025-09-13T16:25:51Z","2025-09-13T16:25:56Z","2025-09-13T16:26:03Z","2025-09-13T16:26:05Z","2025-09-13T16:26:14Z","2025-09-13T16:26:21Z","2025-09-13T16:26:28Z","2025-09-13T16:26:30Z","2025-09-13T16:26:49Z","2025-09-13T16:26:56Z","2025-09-13T16:27:00Z","2025-09-13T16:27:01Z","2025-09-13T16:27:12Z","2025-09-13T16:27:18Z","2025-09-13T16:27:20Z","2025-09-13T16:29:00Z","2025-09-13T16:29:01Z","2025-09-13T16:29:04Z","2025-09-13T16:29:08Z","2025-09-13T16:29:11Z","2025-09-13T16:29:14Z","2025-09-13T16:37:16Z","2025-09-13T16:37:32Z","2025-09-13T16:37:35Z","2025-09-13T16:37:38Z","2025-09-13T16:37:40Z","2025-09-13T16:37:44Z","2025-09-13T16:37:47Z","2025-09-13T16:37:52Z","2025-09-13T16:37:57Z","2025-09-13T16:37:58Z","2025-09-13T16:38:05Z","2025-09-13T16:38:10Z","2025-09-13T16:53:42Z","2025-09-13T16:53:55Z","2025-09-13T16:54:01Z","2025-09-13T16:54:04Z","2025-09-13T16:54:07Z","2025-09-13T16:54:10Z","2025-09-13T16:54:14Z","2025-09-13T16:54:18Z","2025-09-13T16:54:20Z","2025-09-13T16:54:22Z","2025-09-13T16:54:46Z","2025-09-13T16:54:58Z","2025-09-13T16:55:16Z","2025-09-13T16:55:19Z","2025-09-13T16:55:34Z","2025-09-13T16:55:45Z","2025-09-13T16:55:55Z","2025-09-13T16:56:15Z","2025-09-13T16:56:18Z","2025-09-13T16:56:19Z","2025-09-13T16:56:22Z","2025-09-13T16:56:23Z","2025-09-13T16:56:29Z","2025-09-13T16:56:37Z","2025-09-13T16:56:50Z","2025-09-13T16:56:56Z","2025-09-13T16:57:08Z","2025-09-13T16:57:20Z","2025-09-13T16:57:21Z","2025-09-13T16:57:22Z","2025-09-13T16:57:24Z","2025-09-13T16:57:27Z","2025-09-13T16:57:31Z","2025-09-13T16:57:34Z","2025-09-13T16:57:35Z","2025-09-13T16:57:38Z","2025-09-13T16:57:45Z","2025-09-13T16:57:51Z","2025-09-13T16:57:58Z","2025-09-13T16:58:08Z","2025-09-13T16:58:09Z","2025-09-13T16:58:18Z","2025-09-13T16:58:20Z","2025-09-13T16:58:21Z","2025-09-13T16:58:25Z","2025-09-13T16:58:26Z","2025-09-13T16:58:30Z","2025-09-13T16:58:33Z","2025-09-13T16:58:35Z","2025-09-13T16:58:38Z","2025-09-13T16:58:41Z","2025-09-13T16:58:43Z","2025-09-13T16:58:45Z","2025-09-13T16:58:47Z","2025-09-13T16:58:50Z","2025-09-13T16:58:52Z","2025-09-13T16:58:56Z","2025-09-13T16:58:59Z","2025-09-13T16:59:02Z","2025-09-13T16:59:03Z","2025-09-13T16:59:05Z","2025-09-13T16:59:07Z","2025-09-13T16:59:08Z","2025-09-13T16:59:12Z","2025-09-13T16:59:15Z","2025-09-13T16:59:17Z","2025-09-13T16:59:21Z","2025-09-13T16:59:22Z","2025-09-13T16:59:23Z","2025-09-13T16:59:24Z","2025-09-13T16:59:27Z","2025-09-13T16:59:29Z","2025-09-13T16:59:32Z","2025-09-13T16:59:33Z","2025-09-13T16:59:40Z","2025-09-13T16:59:42Z","2025-09-13T16:59:46Z","2025-09-13T16:59:49Z","2025-09-13T16:59:56Z","2025-09-13T16:59:58Z","2025-09-13T17:00:09Z","2025-09-13T17:00:15Z","2025-09-13T17:00:17Z","2025-09-13T17:00:20Z","2025-09-13T17:00:31Z","2025-09-13T17:00:33Z","2025-09-13T17:00:38Z","2025-09-13T17:00:39Z","2025-09-13T17:00:53Z","2025-09-13T17:00:56Z","2025-09-13T17:00:58Z","2025-09-13T17:01:02Z","2025-09-13T17:01:04Z","2025-09-13T17:01:06Z","2025-09-13T17:01:10Z","2025-09-13T17:01:23Z","2025-09-13T17:01:29Z","2025-09-13T17:01:54Z","2025-09-13T17:01:57Z","2025-09-13T17:01:58Z","2025-09-13T17:02:01Z","2025-09-13T17:02:02Z","2025-09-13T17:02:04Z","2025-09-13T17:02:07Z","2025-09-13T17:02:10Z","2025-09-13T17:02:15Z","2025-09-13T17:02:18Z","2025-09-13T17:02:20Z","2025-09-13T17:02:25Z","2025-09-13T17:02:28Z","2025-09-13T17:02:30Z","2025-09-13T17:02:33Z","2025-09-13T17:02:40Z","2025-09-13T17:02:42Z","2025-09-13T17:02:44Z","2025-09-13T17:02:48Z","2025-09-13T17:02:52Z","2025-09-13T17:02:55Z","2025-09-13T17:03:00Z","2025-09-13T17:03:02Z","2025-09-13T17:03:08Z","2025-09-13T17:03:22Z","2025-09-13T17:03:23Z","2025-09-13T17:03:29Z","2025-09-13T17:03:32Z","2025-09-13T17:03:35Z","2025-09-13T17:03:43Z","2025-09-13T17:03:47Z","2025-09-13T17:03:50Z","2025-09-13T17:04:01Z","2025-09-13T17:04:10Z","2025-09-13T17:04:13Z","2025-09-13T17:04:53Z","2025-09-13T17:04:56Z","2025-09-13T17:04:58Z","2025-09-13T17:05:01Z","2025-09-13T17:05:03Z","2025-09-13T17:05:17Z","2025-09-13T17:05:49Z","2025-09-13T17:05:52Z","2025-09-13T17:06:03Z","2025-09-13T17:06:10Z","2025-09-13T17:06:12Z","2025-09-13T17:06:18Z","2025-09-13T17:06:20Z","2025-09-13T17:06:25Z","2025-09-13T17:06:30Z","2025-09-13T17:06:32Z","2025-09-13T17:06:37Z","2025-09-13T17:06:41Z","2025-09-13T17:06:50Z","2025-09-13T17:06:52Z","2025-09-13T17:06:58Z","2025-09-13T17:07:01Z","2025-09-13T17:07:04Z","2025-09-13T17:07:16Z","2025-09-13T17:07:18Z","2025-09-13T17:07:22Z","2025-09-13T17:07:25Z","2025-09-13T17:07:32Z","2025-09-13T17:07:36Z","2025-09-13T17:07:41Z","2025-09-13T17:07:44Z","2025-09-13T17:07:50Z","2025-09-13T17:07:53Z","2025-09-13T17:07:54Z","2025-09-13T17:07:58Z","2025-09-13T17:08:04Z","2025-09-13T17:08:07Z","2025-09-13T17:08:11Z","2025-09-13T17:08:15Z","2025-09-13T17:08:18Z","2025-09-13T17:08:22Z","2025-09-13T17:08:24Z","2025-09-13T17:08:31Z","2025-09-13T17:08:33Z","2025-09-13T17:08:35Z","2025-09-13T17:08:40Z","2025-09-13T17:08:41Z","2025-09-13T17:08:44Z","2025-09-13T17:08:45Z","2025-09-13T17:08:48Z","2025-09-13T17:09:04Z","2025-09-13T17:09:06Z","2025-09-13T17:09:10Z","2025-09-13T17:09:16Z","2025-09-13T17:09:23Z","2025-09-13T17:09:25Z","2025-09-13T17:09:36Z","2025-09-13T17:09:50Z","2025-09-13T17:09:55Z","2025-09-13T17:09:59Z","2025-09-13T17:10:02Z","2025-09-13T17:10:07Z","2025-09-13T17:10:12Z","2025-09-13T17:10:19Z","2025-09-13T17:10:28Z","2025-09-13T17:10:30Z","2025-09-13T17:10:34Z","2025-09-13T17:10:36Z","2025-09-13T17:10:43Z","2025-09-13T17:10:49Z","2025-09-13T17:10:53Z","2025-09-13T17:11:07Z","2025-09-13T17:11:10Z","2025-09-13T17:11:12Z","2025-09-13T17:11:15Z","2025-09-13T17:11:23Z","2025-09-13T17:11:27Z","2025-09-13T17:11:57Z","2025-09-13T17:12:03Z","2025-09-13T17:12:07Z","2025-09-13T17:12:08Z","2025-09-13T17:12:10Z","2025-09-13T17:12:12Z","2025-09-13T17:12:15Z","2025-09-13T17:12:19Z","2025-09-13T17:12:22Z","2025-09-13T17:12:23Z","2025-09-13T17:12:24Z","2025-09-13T17:12:27Z","2025-09-13T17:12:30Z","2025-09-13T17:12:34Z","2025-09-13T17:12:45Z","2025-09-13T17:13:02Z","2025-09-13T17:13:05Z","2025-09-13T17:13:06Z","2025-09-13T17:13:07Z","2025-09-13T17:13:20Z","2025-09-13T17:13:24Z","2025-09-13T17:13:27Z","2025-09-13T17:13:39Z","2025-09-13T17:13:47Z","2025-09-13T17:13:52Z","2025-09-13T17:13:53Z","2025-09-13T17:14:00Z","2025-09-13T17:14:02Z","2025-09-13T17:14:06Z","2025-09-13T17:14:17Z","2025-09-13T17:14:20Z","2025-09-13T17:14:26Z","2025-09-13T17:14:28Z","2025-09-13T17:14:39Z","2025-09-13T17:14:42Z","2025-09-13T17:14:50Z","2025-09-13T17:14:54Z","2025-09-13T17:14:57Z","2025-09-13T17:15:13Z","2025-09-13T17:15:21Z","2025-09-13T17:15:29Z","2025-09-13T17:15:31Z","2025-09-13T17:15:35Z","2025-09-13T17:15:47Z","2025-09-13T17:15:55Z","2025-09-13T17:15:56Z","2025-09-13T17:16:01Z","2025-09-13T17:16:04Z","2025-09-13T17:16:07Z","2025-09-13T17:16:16Z","2025-09-13T17:16:19Z","2025-09-13T17:16:22Z","2025-09-13T17:16:31Z","2025-09-13T17:16:37Z","2025-09-13T17:16:41Z","2025-09-13T17:16:43Z","2025-09-13T17:16:46Z","2025-09-13T17:16:53Z","2025-09-13T17:16:57Z","2025-09-13T17:16:58Z","2025-09-13T17:17:02Z","2025-09-13T17:17:04Z","2025-09-13T17:17:07Z","2025-09-13T17:17:14Z","2025-09-13T17:17:17Z","2025-09-13T17:17:23Z","2025-09-13T17:17:24Z","2025-09-13T17:17:27Z","2025-09-13T17:17:29Z","2025-09-13T17:17:31Z","2025-09-13T17:17:32Z","2025-09-13T17:17:36Z","2025-09-13T17:17:37Z","2025-09-13T17:17:51Z","2025-09-13T17:17:54Z","2025-09-13T17:17:59Z","2025-09-13T17:18:07Z","2025-09-13T17:19:42Z","2025-09-13T17:20:44Z","2025-09-13T17:20:46Z","2025-09-13T17:20:48Z","2025-09-13T17:20:51Z","2025-09-13T17:20:52Z","2025-09-13T17:20:54Z","2025-09-13T17:20:59Z","2025-09-13T17:21:05Z","2025-09-13T17:21:07Z","2025-09-13T17:21:14Z","2025-09-13T17:21:16Z","2025-09-13T17:21:18Z","2025-09-13T17:21:20Z","2025-09-13T17:21:24Z","2025-09-13T17:21:25Z","2025-09-13T17:21:27Z","2025-09-13T17:21:31Z","2025-09-13T17:21:33Z","2025-09-13T17:21:40Z","2025-09-13T17:21:47Z","2025-09-13T17:21:48Z","2025-09-13T17:21:56Z","2025-09-13T17:21:58Z","2025-09-13T17:21:59Z","2025-09-13T17:22:05Z","2025-09-13T17:22:15Z","2025-09-13T17:22:20Z","2025-09-13T17:22:25Z","2025-09-13T17:22:28Z","2025-09-13T17:22:32Z","2025-09-13T17:22:35Z","2025-09-13T17:22:44Z","2025-09-13T17:22:47Z","2025-09-13T17:22:48Z","2025-09-13T17:22:53Z","2025-09-13T17:22:57Z","2025-09-13T17:23:01Z","2025-09-13T17:23:07Z","2025-09-13T17:23:13Z","2025-09-13T17:23:14Z","2025-09-13T17:23:16Z","2025-09-13T17:23:20Z","2025-09-13T17:23:23Z","2025-09-13T17:23:28Z","2025-09-13T17:23:30Z","2025-09-13T17:23:36Z","2025-09-13T17:23:38Z","2025-09-13T17:23:41Z","2025-09-13T17:23:46Z","2025-09-13T17:23:51Z","2025-09-13T17:24:00Z","2025-09-13T17:24:25Z","2025-09-13T17:24:32Z","2025-09-13T17:24:38Z","2025-09-13T17:24:40Z","2025-09-13T17:24:49Z","2025-09-13T17:25:19Z","2025-09-13T17:25:23Z","2025-09-13T17:25:30Z","2025-09-13T17:25:38Z","2025-09-13T17:25:41Z","2025-09-13T17:25:45Z","2025-09-13T17:26:05Z","2025-09-13T17:26:13Z","2025-09-13T17:26:19Z","2025-09-13T17:26:23Z","2025-09-13T17:26:25Z","2025-09-13T17:26:27Z","2025-09-13T17:27:05Z","2025-09-13T17:27:34Z","2025-09-13T17:27:39Z","2025-09-13T17:27:49Z","2025-09-13T17:28:07Z","2025-09-13T17:28:13Z","2025-09-13T17:28:24Z","2025-09-13T17:28:37Z","2025-09-13T17:28:39Z","2025-09-13T17:29:40Z","2025-09-13T17:30:34Z","2025-09-13T17:30:37Z","2025-09-13T17:31:01Z","2025-09-13T17:31:34Z","2025-09-13T17:31:54Z","2025-09-13T17:32:07Z","2025-09-13T17:32:17Z","2025-09-13T17:32:22Z","2025-09-13T17:32:39Z","2025-09-13T17:32:58Z","2025-09-13T17:33:07Z","2025-09-13T17:33:11Z","2025-09-13T17:33:18Z","2025-09-13T17:33:19Z","2025-09-13T17:33:23Z","2025-09-13T17:34:21Z","2025-09-13T17:34:36Z","2025-09-13T17:34:40Z","2025-09-13T17:40:18Z","2025-09-13T17:40:21Z","2025-09-13T17:40:25Z","2025-09-13T17:40:26Z","2025-09-13T17:40:29Z","2025-09-13T17:40:30Z","2025-09-13T17:40:40Z","2025-09-13T17:40:42Z","2025-09-13T17:40:43Z","2025-09-13T17:40:44Z","2025-09-13T17:40:47Z","2025-09-13T17:40:50Z","2025-09-13T17:40:53Z","2025-09-13T17:40:55Z","2025-09-13T17:40:56Z","2025-09-13T17:42:22Z","2025-09-13T17:51:49Z","2025-09-13T17:56:44Z","2025-09-13T18:02:46Z","2025-09-13T18:44:55Z","2025-09-13T18:45:18Z","2025-09-13T18:45:41Z","2025-09-13T18:46:18Z","2025-09-13T18:46:20Z","2025-09-13T18:46:41Z","2025-09-13T18:47:08Z","2025-09-13T18:48:07Z","2025-09-13T18:48:57Z","2025-09-13T18:49:06Z","2025-09-13T18:49:14Z","2025-09-13T18:49:16Z","2025-09-13T18:49:24Z","2025-09-13T18:49:39Z","2025-09-13T18:49:42Z","2025-09-13T18:49:46Z","2025-09-13T18:49:55Z","2025-09-13T18:50:06Z","2025-09-13T18:50:08Z","2025-09-13T18:50:22Z","2025-09-13T18:50:25Z","2025-09-13T18:50:28Z","2025-09-13T18:50:29Z","2025-09-13T18:50:35Z","2025-09-13T18:50:48Z","2025-09-13T18:50:53Z","2025-09-13T18:51:00Z","2025-09-13T18:51:02Z","2025-09-13T18:51:07Z","2025-09-13T18:51:15Z","2025-09-13T18:51:17Z","2025-09-13T18:51:27Z","2025-09-13T18:51:30Z","2025-09-13T18:51:34Z","2025-09-13T18:51:45Z","2025-09-13T18:51:46Z","2025-09-13T18:51:47Z","2025-09-13T18:51:50Z","2025-09-13T18:51:57Z","2025-09-13T18:51:59Z","2025-09-13T18:52:01Z","2025-09-13T18:52:05Z","2025-09-13T18:52:08Z","2025-09-13T18:52:10Z","2025-09-13T18:52:13Z","2025-09-13T18:52:16Z","2025-09-13T18:52:18Z","2025-09-13T18:52:21Z","2025-09-13T18:52:24Z","2025-09-13T18:52:29Z","2025-09-13T18:52:34Z","2025-09-13T18:52:47Z","2025-09-13T18:53:00Z","2025-09-13T18:53:06Z","2025-09-13T18:53:09Z","2025-09-13T18:53:11Z","2025-09-13T18:53:13Z","2025-09-13T18:53:55Z","2025-09-13T18:53:56Z","2025-09-13T18:53:59Z","2025-09-13T18:54:24Z","2025-09-13T18:54:31Z","2025-09-13T18:54:36Z","2025-09-13T18:54:38Z","2025-09-13T18:54:47Z","2025-09-13T18:54:50Z","2025-09-13T18:54:56Z","2025-09-13T18:55:03Z","2025-09-13T18:55:04Z","2025-09-13T18:55:11Z","2025-09-13T18:55:18Z","2025-09-13T18:55:24Z","2025-09-13T18:55:26Z","2025-09-13T18:55:27Z","2025-09-13T18:55:37Z","2025-09-13T18:55:42Z","2025-09-13T18:55:50Z","2025-09-13T18:55:56Z","2025-09-13T18:55:57Z","2025-09-13T18:55:59Z","2025-09-13T18:56:02Z","2025-09-13T18:56:04Z","2025-09-13T18:56:06Z","2025-09-13T18:56:10Z","2025-09-13T18:56:13Z","2025-09-13T18:56:19Z","2025-09-13T18:56:25Z","2025-09-13T18:56:26Z","2025-09-13T18:56:34Z","2025-09-13T18:56:42Z","2025-09-13T18:56:45Z","2025-09-13T18:56:48Z","2025-09-13T18:56:51Z","2025-09-13T18:56:56Z","2025-09-13T18:57:02Z","2025-09-13T18:57:06Z","2025-09-13T18:57:08Z","2025-09-13T18:57:12Z","2025-09-13T18:57:18Z","2025-09-13T18:57:28Z","2025-09-13T18:57:33Z","2025-09-13T18:57:42Z","2025-09-13T18:57:46Z","2025-09-13T18:57:49Z","2025-09-13T18:57:58Z","2025-09-13T18:58:01Z","2025-09-13T18:58:07Z","2025-09-13T18:58:10Z","2025-09-13T18:58:33Z","2025-09-13T18:58:39Z","2025-09-13T18:58:40Z","2025-09-13T18:58:46Z","2025-09-13T18:58:47Z","2025-09-13T18:58:54Z","2025-09-13T18:58:59Z","2025-09-13T18:59:02Z","2025-09-13T18:59:06Z","2025-09-13T18:59:11Z","2025-09-13T18:59:18Z","2025-09-13T18:59:21Z","2025-09-13T18:59:24Z","2025-09-13T18:59:26Z","2025-09-13T18:59:28Z","2025-09-13T18:59:34Z","2025-09-13T18:59:43Z","2025-09-13T18:59:46Z","2025-09-13T18:59:49Z","2025-09-13T18:59:56Z","2025-09-13T19:00:14Z","2025-09-13T19:00:20Z","2025-09-13T19:00:32Z","2025-09-13T19:00:43Z","2025-09-13T19:00:50Z","2025-09-13T19:00:56Z","2025-09-13T19:00:59Z","2025-09-13T19:01:03Z","2025-09-13T19:01:20Z","2025-09-13T19:01:25Z","2025-09-13T19:01:28Z","2025-09-13T19:01:31Z","2025-09-13T19:01:36Z","2025-09-13T19:01:38Z","2025-09-13T19:01:42Z","2025-09-13T19:01:43Z","2025-09-13T19:01:46Z","2025-09-13T19:01:51Z","2025-09-13T19:01:57Z","2025-09-13T19:02:08Z","2025-09-13T19:02:18Z","2025-09-13T19:02:21Z","2025-09-13T19:02:28Z","2025-09-13T19:02:32Z","2025-09-13T19:02:39Z","2025-09-13T19:02:43Z","2025-09-13T19:02:44Z","2025-09-13T19:09:14Z","2025-09-13T19:09:17Z","2025-09-13T19:10:55Z","2025-09-13T19:12:16Z","2025-09-13T19:12:23Z","2025-09-13T19:12:29Z","2025-09-13T19:12:47Z","2025-09-13T19:12:53Z","2025-09-13T19:13:39Z","2025-09-13T19:14:02Z","2025-09-13T19:14:04Z","2025-09-13T19:14:27Z","2025-09-13T19:14:30Z","2025-09-13T19:14:32Z","2025-09-13T19:14:33Z","2025-09-13T19:14:40Z","2025-09-13T19:15:05Z","2025-09-13T19:15:20Z","2025-09-13T19:15:24Z","2025-09-13T19:15:45Z","2025-09-13T19:16:53Z","2025-09-13T19:16:56Z","2025-09-13T19:17:08Z","2025-09-13T19:17:20Z","2025-09-13T19:17:30Z","2025-09-13T19:18:07Z","2025-09-13T19:18:08Z","2025-09-13T19:19:12Z","2025-09-13T19:19:13Z","2025-09-13T19:19:14Z","2025-09-13T19:19:16Z","2025-09-13T19:19:18Z","2025-09-13T19:19:20Z","2025-09-13T19:19:24Z","2025-09-13T19:19:30Z","2025-09-13T19:19:39Z","2025-09-13T19:19:40Z","2025-09-13T19:19:55Z","2025-09-13T19:19:59Z","2025-09-13T19:20:05Z","2025-09-13T19:20:12Z","2025-09-13T19:20:13Z","2025-09-13T19:20:18Z","2025-09-13T19:20:37Z","2025-09-13T19:20:47Z","2025-09-13T19:20:58Z","2025-09-13T19:21:00Z","2025-09-13T19:21:18Z","2025-09-13T19:21:37Z","2025-09-13T19:22:53Z","2025-09-13T19:22:55Z","2025-09-13T19:23:17Z","2025-09-13T19:23:28Z","2025-09-13T19:23:31Z","2025-09-13T19:23:41Z","2025-09-13T19:23:44Z","2025-09-13T19:23:47Z","2025-09-13T19:23:49Z","2025-09-13T19:23:58Z","2025-09-13T19:24:00Z","2025-09-13T19:24:08Z","2025-09-13T19:24:26Z","2025-09-13T19:24:46Z","2025-09-13T19:24:55Z","2025-09-13T19:24:56Z","2025-09-13T19:24:59Z","2025-09-13T19:25:00Z","2025-09-13T19:26:01Z","2025-09-13T19:26:04Z","2025-09-13T19:26:06Z","2025-09-13T19:26:07Z","2025-09-13T19:26:13Z","2025-09-13T19:26:15Z","2025-09-13T19:26:29Z","2025-09-13T19:27:22Z","2025-09-13T19:27:25Z","2025-09-13T19:27:26Z","2025-09-13T19:27:42Z","2025-09-13T19:27:45Z","2025-09-13T19:27:46Z","2025-09-13T19:28:00Z","2025-09-13T19:28:08Z","2025-09-13T19:28:09Z","2025-09-13T19:28:14Z","2025-09-13T19:28:17Z","2025-09-13T19:28:18Z","2025-09-13T19:28:21Z","2025-09-13T19:28:24Z","2025-09-13T19:28:39Z","2025-09-13T19:28:43Z","2025-09-13T19:28:51Z","2025-09-13T19:30:10Z","2025-09-13T19:30:25Z","2025-09-13T19:30:34Z","2025-09-13T19:31:18Z","2025-09-13T19:31:19Z","2025-09-13T19:31:20Z","2025-09-13T19:31:21Z","2025-09-13T19:31:23Z","2025-09-13T19:31:42Z","2025-09-13T19:31:48Z","2025-09-13T19:32:01Z","2025-09-13T19:32:13Z","2025-09-13T19:32:15Z","2025-09-13T19:32:27Z","2025-09-13T19:32:34Z","2025-09-13T19:32:58Z","2025-09-13T19:33:01Z","2025-09-13T19:33:07Z","2025-09-13T19:33:11Z","2025-09-13T19:33:17Z","2025-09-13T19:33:27Z","2025-09-13T19:33:35Z","2025-09-13T19:34:01Z","2025-09-13T19:34:04Z","2025-09-13T19:34:17Z","2025-09-13T19:34:37Z","2025-09-13T19:34:40Z","2025-09-13T19:34:48Z","2025-09-13T19:34:53Z","2025-09-13T19:34:55Z","2025-09-13T19:34:58Z","2025-09-13T19:35:17Z","2025-09-13T19:35:32Z","2025-09-13T19:35:33Z","2025-09-13T19:35:35Z","2025-09-13T19:35:36Z","2025-09-13T19:35:38Z","2025-09-13T19:35:39Z","2025-09-13T19:35:48Z","2025-09-13T19:35:49Z","2025-09-13T19:35:56Z","2025-09-13T19:36:17Z","2025-09-13T19:36:33Z","2025-09-13T19:36:37Z","2025-09-13T19:36:42Z","2025-09-13T19:36:51Z","2025-09-13T19:36:52Z","2025-09-13T19:36:54Z","2025-09-13T19:36:56Z","2025-09-13T19:37:06Z","2025-09-13T19:37:12Z","2025-09-13T19:37:20Z","2025-09-13T19:37:23Z","2025-09-13T19:37:36Z","2025-09-13T19:37:44Z","2025-09-13T19:37:46Z","2025-09-13T19:38:01Z","2025-09-13T19:38:25Z","2025-09-13T19:38:27Z","2025-09-13T19:38:42Z","2025-09-13T19:38:53Z","2025-09-13T19:40:08Z","2025-09-13T19:40:21Z","2025-09-13T19:40:24Z","2025-09-13T19:40:26Z","2025-09-13T19:40:32Z","2025-09-13T19:40:37Z","2025-09-13T19:40:39Z","2025-09-13T19:41:20Z","2025-09-13T19:41:29Z","2025-09-13T19:42:18Z","2025-09-13T19:43:03Z","2025-09-13T19:43:11Z","2025-09-13T19:43:19Z","2025-09-13T19:43:25Z","2025-09-13T19:43:40Z","2025-09-13T19:44:08Z","2025-09-13T19:44:11Z","2025-09-13T19:44:19Z","2025-09-13T19:44:37Z","2025-09-13T19:44:47Z","2025-09-13T19:45:06Z","2025-09-13T19:45:32Z","2025-09-13T19:45:35Z","2025-09-13T19:46:08Z","2025-09-13T19:46:26Z","2025-09-13T19:46:31Z","2025-09-13T19:47:01Z","2025-09-13T19:47:02Z","2025-09-13T19:47:03Z","2025-09-13T19:47:04Z","2025-09-13T19:47:06Z","2025-09-13T19:47:07Z","2025-09-13T19:47:10Z","2025-09-13T19:47:13Z","2025-09-13T19:47:16Z","2025-09-13T19:47:18Z","2025-09-13T19:47:23Z","2025-09-13T19:47:35Z","2025-09-13T19:47:39Z","2025-09-13T19:47:56Z","2025-09-13T19:48:24Z","2025-09-13T19:48:34Z","2025-09-13T19:48:36Z","2025-09-13T19:48:45Z","2025-09-13T19:48:48Z","2025-09-13T19:48:51Z","2025-09-13T19:49:03Z","2025-09-13T19:49:04Z","2025-09-13T19:49:08Z","2025-09-13T19:49:10Z","2025-09-13T19:49:11Z","2025-09-13T19:49:14Z","2025-09-13T19:49:17Z","2025-09-13T19:49:31Z","2025-09-13T19:49:35Z","2025-09-13T19:50:04Z","2025-09-13T19:50:05Z","2025-09-13T19:50:06Z","2025-09-13T19:50:07Z","2025-09-13T19:50:10Z","2025-09-13T19:50:12Z","2025-09-13T19:50:15Z","2025-09-13T19:50:21Z","2025-09-13T19:50:29Z","2025-09-13T19:51:29Z","2025-09-13T19:51:50Z","2025-09-13T19:51:54Z","2025-09-13T19:51:58Z","2025-09-13T19:52:20Z"],"heartRates":[98,100,100,100,100,101,103,103,104,106,106,106,106,110,109,111,111,111,110,110,110,107,107,104,106,106,104,104,104,104,88,88,92,94,94,92,92,92,94,93,93,92,92,91,91,91,91,91,91,92,90,90,87,88,90,91,91,93,93,93,92,92,92,92,91,89,89,89,90,90,91,91,93,93,94,92,94,93,93,93,93,95,95,92,92,93,93,93,93,93,93,90,90,90,89,89,90,90,91,91,91,91,93,92,92,92,93,92,92,92,89,90,92,90,92,93,94,94,92,92,91,91,91,90,67,71,100,100,100,100,93,93,99,104,104,104,107,107,107,108,108,89,99,99,99,99,96,96,95,95,95,96,98,98,82,85,80,80,76,73,77,81,85,85,96,96,91,91,87,87,79,80,82,82,82,78,78,91,86,85,84,83,83,83,82,79,78,79,83,83,83,81,81,79,79,83,80,81,74,73,73,73,75,75,77,77,79,71,74,68,70,70,70,75,75,75,79,71,71,75,74,77,78,78,83,81,81,81,81,75,74,74,74,75,85,80,80,79,76,76,76,77,77,74,76,80,76,76,76,79,79,72,72,72,72,72,75,76,76,82,83,84,84,83,84,86,86,86,86,86,88,84,76,74,74,80,76,76,79,79,78,75,75,79,77,68,66,73,70,70,75,75,70,68,75,73,73,73,70,70,75,72,72,72,85,86,85,87,87,84,89,89,92,92,86,86,89,86,86,83,82,83,82,89,89,80,81,76,79,81,75,77,75,75,78,78,83,83,87,88,83,83,74,74,78,78,78,77,77,77,79,79,71,72,72,75,77,79,79,81,81,78,78,80,80,80,82,82,82,84,83,81,81,82,82,82,82,88,84,84,84,80,80,83,82,82,82,82,82,82,82,82,86,86,84,85,85,85,84,84,83,84,83,83,82,83,83,84,85,85,87,89,89,88,88,89,89,89,89,88,88,88,88,89,89,87,85,85,85,84,85,84,84,84,84,84,84,85,86,86,84,84,85,85,86,86,88,87,87,87,85,84,84,84,84,84,83,83,85,85,84,85,85,86,86,88,89,86,86,86,86,84,84,84,87,90,82,82,82,84,87,85,85,86,88,88,88,89,89,89,92,90,89,89,89,89,89,92,93,93,95,97,97,96,96,97,97,92,91,91,91,90,85,89,89,78,86,88,88,88,88,90,90,91,91,92,92,92,95,95,93,93,93,94,94,91,91,91,91,91,95,95,95,96,96,94,93,93,93,93,93,93,93,93,93,92,93,93,93,93,93,93,93,92,94,94,96,96,90,90,93,93,93,99,104,102,101,100,101,101,102,102,85,85,86,85,85,86,86,89,90,92,91,91,91,93,92,90,86,85,85,86,86,86,86,87,87,86,87,87,87,87,86,86,86,89,89,89,88,88,88,89,89,88,88,88,88,88,87,87,86,87,87,87,88,88,87,87,87,88,88,88,89,89,90,90,89,89,89,89,89,89,82,82,84,86,84,84,84,84,84,84,84,84,84,85,85,85,85,85,85,83,83,82,82,82,86,87,86,86,85,85,85,87,89,89,89,91,91,92,92,89,91,88,89,89,88,89,88,89,89,91,90,89,90,90,89,90,90,91,88,88,88,88,88,87,87,88,88,88,88,87,87,87,87,87,87,87,85,85,92,92,92,87,90,90,89,89,89,90,83,83,84,85,85,84,84,84,86,86,86,86,86,84,84,84,84,86,86,86,85,85,85,84,85,85,85,86,86,87,83,83,83,83,85,87,87,87,87,86,86,88,88,92,91,91,91,88,86,86,91,91,91,91,91,91,90,75,83,83,83,83,83,86,86,88,90,90,89,89,89,85,85,86,88,87,87,89,88,88,86,86,86,86,86,83,82,83,83,85,79,79,79,81,78,78,82,82,89,92,92,96,86,91,91,91,96,97,97,95,96,96,92,92,80,82,79,82,82,85,86,85,85,85,76,79,75,75,76,72,73,75,75,75,76,76,77,71,74,73,73,73,74,74,74,75,75,78,78,78,74,73,75,76,76,75,76,76,76,76,78,78,78,77,77,78,78,78,77,77,78,78,77,77,77,77,77,77,77,77,77,76,76,76,76,78,78,78,81,82,82,82,86,88,88,88,88,88,85,85,85,85,85,81,81,81,81,81,82,82,81,80,79,79,79,82,82,82,82,84,84,84,85,84,84,84,84,84,84,84,84,83,83,83,83,83,83,84,84,84,84,86,86,85,86,86,80,79,80,80,79,80,79,79,81,81,81,83,83,84,85,85,87,87,87,86,86,86,86,85,85,85,86,87,87,87,87,87,87,87,87,88,88,87,87,88,87,87,88,88,89,89,88,88,88,88,87,87,88,86,83,83,83,82,81,82,82,83,84,84,84,84,85,85,85,85,84,87,87,87,87,88,87,82,85,88,88,88,89,89,89,89,89,89,89,89,89,88,96,96,96,95,95,94,94,98,98,99,99,99,99,99,96,96,92,90,89,87,87,86,87,85,85,85,84,84,83,83,83,83,84,84,86,85,85,84,85,85,85,85,83,83,83,83,83,80,81,81,80,80,80,80,83,83,83,84,85,85,85,84,68,77,77,80,80,80,81,82,95,96,95,95,95,95,95,95,95,95,95,99,98,98,96,96,96,95,90,89,87,87,86,86,85,85,85,83,82,82,83,84,84,84,83,83,86,87,86,86,85,84,82,83,79,85,85,85,84,81,81,80,80,80,80,74,74,70,70,70,70,68,75,75,76,72,72,76,70,70,75,67,70,75,71,77,73,67,71,75,70,70,70,72,72,72,67,70,76,75,75,76,76,82,82,86,86,86,86,86,86,87,87,87,68,72,73,70,73,75,72,78,76,71,78,76,75,79,82,85,85,80,80,80,86,88,88,89,89,89,89,87,86,87,89,89,92,97,97,96,100,100,96,96,96,97,100,100,100,105,105,103,103,103,103,104,104,100,99,95,93,92,92,92,92,87,87,94,91,97,97,97,96,95,95,96,96,96,98,98,98,98,97,95,94,94,94,94,94,94,93,93,93,96,96,96,93,93,93,93,93,96,96,98,98,98,93,91,91,93,93,92,92,91,91,90,89,90,90,90,89,88,88,89,89,89,92,92,92,92,92,91,91,93,93,93,93,95,96,96,95,96,96,96,103,103,103,103,103,103,108,108,108,107,107,110,105,105,104,103,102,102,102,94,98,87,91,91,92,94,95,95,76,74,66,66,66,66,71,73,70,69,66,69,71,75,71,71,68,68,73,74,74,74,74,74,76,75,75,75,74,74,75,74,74,73,75,76,74,74,71,79,75,75,77,75,74,72,73,73,73,75,76,76,75,72,73,73,73,73,71,71,73,73,78,78,78,74,74,74,78,73,73,74,78,78,81,80,80,80,80,78,76,77,71,77,78,75,75,75,75,75,74,74,72,74,77,80,79,73,76,76,82,81,77,77,77,77,80,70,70,72,80,76,76,76,77,77,73,73,73,73,76,76,78,80,80,80,82,81,83,83,81,83,79,80,80,75,80,80,85,75,75,76,75,77,75,76,78,78,82,82,82,83,81,78,85,83,84,80,76,76,79,77,79,79,78,81,77,80,76,76,76,76,76,76,76,81,82,82,82,83,81,81,82,77,78,78,77,78,78,75,75,74,74,74,74,74,73,73,78,78,82,82,82,82,82,83,81,79,83,82,82,81],"month":"2025-09-01"},"geometry":{"type":"LineString","coordinates":[[2.346693,48.609372,81.8],[2.346087,48.609118,81.3],[2.346,48.609096,81.3],[2.345965,48.609079,81.3],[2.34597,48.609051,81.3],[2.346015,48.609065,81.3],[2.34604,48.609041,81.2],[2.346049,48.609018,81.2],[2.346031,48.609017,81.2],[2.345967,48.609039,81.2],[2.345958,48.609031,81.2],[2.345977,48.609005,81.2],[2.34605,48.608968,81.2],[2.34605,48.60896,81.2],[2.346003,48.608965,81.2],[2.345954,48.609,81.2],[2.345917,48.609003,81.2],[2.345925,48.608983,81.2],[2.346002,48.608937,81.2],[2.346,48.608921,81.2],[2.345943,48.608923,81.2],[2.345857,48.608974,81.2],[2.345839,48.608955,81.2],[2.345871,48.608932,81.2],[2.345891,48.608932,81.2],[2.345889,48.608918,81.2],[2.345799,48.608845,81.2],[2.345792,48.608828,81.2],[2.3458,48.608822,81.3],[2.345796,48.608829,81.2],[2.345678,48.608744,81.3],[2.345609,48.608733,81.3],[2.34554,48.608669,81.4],[2.345534,48.60865,81.4],[2.345503,48.608624,81.5],[2.3454,48.608615,81.5],[2.345385,48.608598,81.5],[2.345289,48.608558,81.5],[2.345219,48.608551,81.6],[2.345182,48.608509,81.6],[2.345119,48.608496,81.6],[2.345056,48.608465,81.7],[2.345027,48.608466,81.7],[2.344976,48.608432,81.7],[2.344951,48.60843,81.7],[2.344937,48.608437,81.8],[2.344913,48.608431,81.8],[2.344897,48.608417,81.8],[2.34486,48.608405,81.8],[2.344834,48.608407,81.8],[2.344784,48.608358,81.9],[2.34467,48.608353,81.9],[2.344602,48.608321,81.9],[2.344591,48.608307,81.9],[2.34452,48.608286,81.9],[2.344454,48.608295,81.9],[2.344386,48.608279,81.9],[2.344271,48.608225,81.9],[2.344275,48.608216,81.9],[2.344256,48.608205,81.9],[2.344214,48.608198,81.8],[2.344163,48.6082,81.8],[2.344141,48.608182,81.8],[2.344115,48.608182,81.7],[2.344056,48.608154,81.7],[2.344009,48.60815,81.6],[2.344008,48.608143,81.6],[2.343968,48.608127,81.6],[2.343936,48.60813,81.5],[2.34393,48.608138,81.5],[2.343831,48.608123,81.4],[2.343818,48.608135,81.4],[2.343776,48.608116,81.3],[2.343739,48.608124,81.3],[2.343546,48.608128,81.1],[2.343436,48.608111,81.1],[2.343329,48.608035,81.2],[2.343305,48.608028,81.2],[2.343312,48.60803,81.2],[2.343316,48.608021,81.1],[2.343292,48.607985,81.2],[2.343159,48.607939,81.2],[2.343119,48.607912,81.2],[2.343089,48.607845,81.2],[2.343056,48.607812,81.2],[2.343042,48.607776,81.2],[2.342971,48.607691,81.2],[2.342957,48.607651,81.2],[2.34291,48.607638,81.2],[2.342865,48.607635,81.2],[2.342819,48.607608,81.2],[2.342592,48.60739,81.2],[2.34259,48.607373,81.2],[2.342566,48.607353,81.3],[2.342498,48.607331,81.3],[2.342471,48.607294,81.3],[2.342426,48.607256,81.3],[2.342424,48.607236,81.3],[2.342399,48.607199,81.4],[2.342404,48.607172,81.4],[2.342386,48.607129,81.4],[2.342345,48.6071,81.4],[2.342334,48.607082,81.4],[2.342263,48.607067,81.4],[2.342247,48.607038,81.4],[2.342212,48.607025,81.5],[2.342193,48.607006,81.5],[2.342196,48.606981,81.5],[2.342175,48.606972,81.5],[2.342167,48.606958,81.5],[2.342085,48.606916,81.4],[2.341989,48.606848,81.4],[2.341957,48.606789,81.4],[2.341872,48.60674,81.3],[2.341736,48.606607,81.3],[2.341696,48.606583,81.3],[2.34162,48.606501,81.3],[2.341619,48.606477,81.3],[2.341573,48.606429,81.3],[2.341525,48.606406,81.4],[2.341462,48.606423,81.4],[2.34145,48.606439,81.5],[2.341401,48.606454,81.6],[2.341377,48.606471,81.6],[2.341402,48.606467,81.6],[2.341386,48.606464,81.6],[2.341506,48.606445,81.4],[2.34154,48.60646,81.4],[2.341583,48.606464,81.3],[2.341596,48.606472,81.3],[2.341494,48.606405,81.4],[2.341489,48.606392,81.4],[2.341381,48.606304,81.6],[2.341313,48.606194,81.8],[2.341298,48.606191,81.8],[2.341259,48.606209,81.8],[2.341204,48.606199,81.9],[2.341104,48.606194,82.1],[2.341034,48.606226,82.1],[2.341012,48.606225,82.1],[2.341012,48.606212,82.2],[2.341047,48.606244,82.1],[2.341109,48.6062,82.1],[2.341186,48.606239,82],[2.341233,48.606232,81.9],[2.341251,48.606221,81.8],[2.34129,48.606229,81.8],[2.34131,48.606255,81.7],[2.341356,48.606274,81.7],[2.341379,48.606313,81.6],[2.34138,48.606345,81.6],[2.341402,48.60637,81.6],[2.341522,48.606441,81.4],[2.341535,48.606473,81.4],[2.34153,48.606487,81.4],[2.341529,48.606478,81.4],[2.341547,48.606483,81.4],[2.341549,48.606511,81.4],[2.341564,48.606504,81.4],[2.341572,48.606465,81.3],[2.341559,48.606434,81.3],[2.341542,48.606429,81.4],[2.341419,48.606469,81.5],[2.341412,48.606478,81.6],[2.341383,48.606474,81.6],[2.34138,48.606481,81.6],[2.341388,48.606481,81.6],[2.341379,48.606484,81.6],[2.341389,48.606492,81.6],[2.341391,48.606485,81.6],[2.34137,48.606493,81.6],[2.34135,48.606473,81.6],[2.341358,48.606461,81.6],[2.341342,48.606434,81.6],[2.341345,48.606452,81.6],[2.341378,48.606479,81.6],[2.341375,48.606474,81.6],[2.341423,48.606493,81.5],[2.341394,48.606487,81.6],[2.341424,48.606463,81.5],[2.341414,48.60647,81.6],[2.341398,48.606465,81.6],[2.341408,48.606471,81.6],[2.341399,48.606468,81.6],[2.341416,48.606468,81.6],[2.341406,48.606465,81.6],[2.341418,48.606469,81.6],[2.341406,48.606461,81.6],[2.341411,48.606465,81.6],[2.341366,48.606467,81.6],[2.34138,48.606457,81.6],[2.341378,48.606424,81.6],[2.34139,48.606436,81.6],[2.341387,48.606467,81.6],[2.341365,48.60647,81.6],[2.341401,48.606465,81.6],[2.341347,48.606492,81.6],[2.341341,48.606486,81.6],[2.341402,48.606473,81.6],[2.3414,48.60648,81.6],[2.341416,48.606475,81.6],[2.341394,48.606459,81.6],[2.341436,48.606466,81.5],[2.341405,48.60648,81.6],[2.341411,48.606471,81.6],[2.341398,48.606473,81.6],[2.34141,48.606464,81.6],[2.341405,48.606484,81.6],[2.341393,48.606471,81.6],[2.341375,48.606485,81.6],[2.341368,48.606476,81.6],[2.341377,48.606469,81.6],[2.34138,48.606478,81.6],[2.341382,48.606472,81.6],[2.341373,48.606475,81.6],[2.34138,48.606472,81.6],[2.341379,48.60648,81.6],[2.341379,48.606474,81.6],[2.341396,48.606477,81.6],[2.341384,48.606481,81.6],[2.341396,48.606482,81.6],[2.341384,48.60648,81.6],[2.341392,48.606478,81.6],[2.341377,48.60648,81.6],[2.341397,48.606472,81.6],[2.341394,48.606482,81.6],[2.341387,48.60648,81.6],[2.341387,48.606489,81.6],[2.341385,48.606481,81.6],[2.341384,48.606492,81.6],[2.34139,48.606484,81.6],[2.341398,48.606487,81.6],[2.341389,48.606477,81.6],[2.341406,48.606466,81.6],[2.341399,48.606489,81.6],[2.341383,48.606484,81.6],[2.341389,48.606488,81.6],[2.341392,48.606476,81.6],[2.341383,48.606473,81.6],[2.341377,48.60649,81.6],[2.341375,48.606485,81.6],[2.341368,48.606491,81.6],[2.341375,48.606495,81.6],[2.341381,48.606475,81.6],[2.341388,48.606483,81.6],[2.341379,48.606475,81.6],[2.341423,48.606477,81.5],[2.341389,48.606468,81.6],[2.341397,48.606471,81.6],[2.341406,48.60646,81.6],[2.341365,48.606484,81.6],[2.341325,48.606473,81.7],[2.341352,48.606475,81.6],[2.341369,48.606468,81.6],[2.341394,48.606481,81.6],[2.341396,48.606476,81.6],[2.341401,48.606482,81.6],[2.341401,48.606477,81.6],[2.341381,48.606482,81.6],[2.341393,48.606485,81.6],[2.341384,48.606478,81.6],[2.341371,48.606482,81.6],[2.341366,48.606477,81.6],[2.341384,48.606489,81.6],[2.341379,48.606481,81.6],[2.341371,48.606486,81.6],[2.341378,48.606495,81.6],[2.341385,48.606492,81.6],[2.34139,48.606502,81.6],[2.341387,48.606497,81.6],[2.34138,48.606506,81.6],[2.341387,48.606497,81.6],[2.341379,48.606502,81.6],[2.341375,48.606496,81.6],[2.341378,48.606504,81.6],[2.341365,48.606485,81.6],[2.341364,48.606494,81.6],[2.341368,48.606485,81.6],[2.341375,48.606502,81.6],[2.341378,48.606493,81.6],[2.341379,48.6065,81.6],[2.341389,48.606496,81.6],[2.341381,48.6065,81.6],[2.341375,48.606475,81.6],[2.341378,48.606487,81.6],[2.341371,48.606477,81.6],[2.341387,48.606464,81.6],[2.341375,48.606494,81.6],[2.341389,48.606472,81.6],[2.341384,48.606486,81.6],[2.341398,48.606466,81.6],[2.341405,48.606469,81.6],[2.341394,48.606481,81.6],[2.341379,48.60648,81.6],[2.341387,48.606483,81.6],[2.341368,48.60649,81.6],[2.341375,48.606493,81.6],[2.341373,48.606484,81.6],[2.34138,48.606486,81.6],[2.341376,48.606479,81.6],[2.341389,48.606485,81.6],[2.341381,48.60649,81.6],[2.341381,48.60648,81.6],[2.341388,48.606481,81.6],[2.341384,48.606467,81.6],[2.341383,48.606487,81.6],[2.341376,48.606477,81.6],[2.341387,48.606484,81.6],[2.34138,48.606487,81.6],[2.341387,48.606479,81.6],[2.341373,48.606487,81.6],[2.34138,48.606481,81.6],[2.341383,48.606489,81.6],[2.341371,48.606482,81.6],[2.341361,48.606485,81.6],[2.341366,48.606474,81.6],[2.341386,48.606494,81.6],[2.341388,48.606489,81.6],[2.341392,48.606493,81.6],[2.34139,48.606486,81.6],[2.341396,48.60649,81.6],[2.341391,48.606475,81.6],[2.341379,48.606487,81.6],[2.341372,48.606476,81.6],[2.341379,48.606486,81.6],[2.34137,48.606479,81.6],[2.341368,48.60649,81.6],[2.341374,48.606484,81.6],[2.341381,48.606495,81.6],[2.341383,48.606488,81.6],[2.341374,48.606492,81.6],[2.34138,48.6065,81.6],[2.341385,48.606495,81.6],[2.341384,48.606503,81.6],[2.341412,48.606506,81.6],[2.341433,48.606496,81.5],[2.341458,48.606464,81.5],[2.341475,48.60646,81.4],[2.341496,48.60644,81.4],[2.341489,48.606418,81.4],[2.341504,48.606424,81.4],[2.341503,48.606418,81.4],[2.341493,48.606428,81.4],[2.34148,48.606425,81.4],[2.341489,48.606422,81.4],[2.341487,48.606434,81.4],[2.341486,48.606426,81.4],[2.341467,48.606442,81.4],[2.341464,48.606457,81.4],[2.341474,48.606456,81.4],[2.341477,48.606438,81.4],[2.341474,48.606444,81.4],[2.341493,48.606431,81.4],[2.341488,48.606422,81.4],[2.341499,48.606425,81.4],[2.341495,48.60644,81.4],[2.341491,48.606434,81.4],[2.34148,48.606441,81.4],[2.341491,48.606438,81.4],[2.341491,48.606429,81.4],[2.341481,48.60643,81.4],[2.341488,48.606439,81.4],[2.341494,48.606419,81.4],[2.341492,48.606426,81.3],[2.341506,48.606428,81.3],[2.341499,48.606422,81.2],[2.341507,48.606421,81.1],[2.341499,48.606431,81.1],[2.341493,48.606422,81.1],[2.3415,48.606423,80.9],[2.341489,48.606437,80.7],[2.341476,48.606437,80.7],[2.341489,48.606435,80.6],[2.341487,48.606441,80.6],[2.341488,48.606429,80.3],[2.341477,48.60643,80.3],[2.341483,48.606425,80.3],[2.341473,48.606422,80.3],[2.341481,48.60642,80.3],[2.341479,48.606426,80.3],[2.341491,48.606421,80.3],[2.34148,48.606374,80.3],[2.341461,48.606364,80.4],[2.341471,48.606363,80.3],[2.341418,48.606314,80.5],[2.341409,48.606285,80.5],[2.34134,48.606216,80.6],[2.341339,48.606203,80.6],[2.341303,48.606169,80.7],[2.341293,48.60614,80.7],[2.341276,48.606134,80.8],[2.341266,48.606138,80.8],[2.341229,48.606095,80.9],[2.341225,48.6061,80.9],[2.341203,48.605894,81.1],[2.341156,48.605809,81.2],[2.341093,48.605772,81.2],[2.34106,48.605732,81.3],[2.341069,48.605701,81.3],[2.341025,48.605675,81.3],[2.340909,48.605652,81.3],[2.340896,48.60564,81.2],[2.340837,48.605619,81.2],[2.340845,48.60562,81.2],[2.340829,48.605616,81.2],[2.340806,48.605591,81.1],[2.340803,48.605569,81.1],[2.340752,48.605515,81],[2.340678,48.605477,80.7],[2.340674,48.605461,80.7],[2.340578,48.605374,80.4],[2.340513,48.605341,80.2],[2.340499,48.605311,80.2],[2.340464,48.605285,80.1],[2.340436,48.60528,80.1],[2.3404,48.605236,80],[2.340404,48.60523,80],[2.340379,48.605216,79.9],[2.340375,48.605199,79.9],[2.340331,48.60516,79.9],[2.340339,48.605152,79.9],[2.340321,48.605133,79.9],[2.340274,48.605117,79.8],[2.340237,48.605068,79.8],[2.340219,48.605058,79.8],[2.340196,48.605025,79.7],[2.340148,48.604985,79.7],[2.3401,48.604884,79.6],[2.34007,48.604877,79.5],[2.340054,48.604834,79.5],[2.34003,48.60482,79.5],[2.340025,48.604825,79.5],[2.339977,48.604806,79.4],[2.339921,48.604768,79.3],[2.339916,48.604745,79.2],[2.339886,48.604723,79.2],[2.339862,48.604728,79.1],[2.339807,48.604684,79],[2.339805,48.60467,79],[2.339759,48.604633,78.9],[2.339713,48.604551,78.8],[2.339677,48.604518,78.7],[2.339673,48.604504,78.7],[2.339479,48.604365,78.3],[2.339452,48.604303,78.3],[2.339368,48.604219,78.1],[2.339366,48.604198,78.1],[2.339326,48.604173,78.1],[2.339299,48.604169,78],[2.339288,48.604151,78],[2.339167,48.604079,77.9],[2.339155,48.604045,77.9],[2.339119,48.604046,77.9],[2.339109,48.604038,77.9],[2.339121,48.604034,77.9],[2.339119,48.604,77.9],[2.339031,48.603921,77.8],[2.339001,48.60391,77.8],[2.338973,48.603886,77.8],[2.338946,48.603878,77.8],[2.338889,48.603878,77.8],[2.338808,48.603832,77.7],[2.338732,48.603814,77.7],[2.338658,48.603763,77.8],[2.338645,48.603765,77.8],[2.338609,48.60373,77.8],[2.338595,48.603693,77.9],[2.338561,48.603666,77.9],[2.338551,48.603666,77.9],[2.338533,48.60364,78],[2.338508,48.603638,78],[2.338409,48.603565,78.3],[2.338343,48.603498,78.5],[2.338267,48.60345,78.7],[2.338249,48.60348,78.6],[2.338235,48.603477,78.7],[2.338243,48.603479,78.6],[2.33821,48.603461,78.7],[2.338209,48.603449,78.8],[2.33817,48.603414,78.9],[2.338131,48.603331,79],[2.338067,48.603316,79.2],[2.33805,48.603266,79.2],[2.33799,48.603251,79.3],[2.337966,48.603209,79.4],[2.337928,48.603187,79.4],[2.337898,48.603189,79.5],[2.3379,48.603181,79.4],[2.337772,48.603093,79.6],[2.337762,48.603095,79.6],[2.337716,48.603044,79.6],[2.337729,48.603012,79.6],[2.3377,48.602992,79.6],[2.337641,48.602975,79.6],[2.337629,48.602958,79.6],[2.337586,48.602951,79.7],[2.337576,48.602961,79.7],[2.337548,48.602949,79.7],[2.337459,48.60294,79.8],[2.337439,48.602953,79.8],[2.337368,48.602944,79.9],[2.33733,48.602955,79.9],[2.337289,48.602947,80],[2.337248,48.602952,80],[2.337217,48.602937,80],[2.337182,48.602887,80],[2.337184,48.602899,80],[2.337299,48.602981,80],[2.337331,48.602978,80],[2.337331,48.602972,79.9],[2.337339,48.602983,80],[2.337373,48.602974,79.9],[2.337483,48.602913,79.7],[2.33751,48.602881,79.7],[2.337614,48.602852,79.5],[2.337692,48.602821,79.4],[2.337729,48.60279,79.4],[2.33776,48.602783,79.4],[2.337766,48.602772,79.4],[2.337756,48.60276,79.4],[2.337765,48.602743,79.3],[2.337803,48.602729,79.3],[2.337875,48.602727,79.3],[2.337879,48.602712,79.3],[2.337874,48.602717,79.3],[2.337919,48.602702,79.3],[2.337935,48.602671,79.3],[2.337928,48.602675,79.3],[2.337983,48.602644,79.3],[2.337996,48.602613,79.3],[2.338031,48.602587,79.3],[2.338031,48.602575,79.3],[2.338101,48.602516,79.4],[2.338133,48.602508,79.4],[2.338158,48.60249,79.4],[2.338171,48.602467,79.5],[2.33822,48.602459,79.5],[2.33823,48.60244,79.5],[2.338287,48.602404,79.5],[2.33832,48.602371,79.5],[2.338427,48.602334,79.6],[2.338469,48.602339,79.5],[2.338497,48.602332,79.5],[2.338558,48.60234,79.5],[2.338581,48.602334,79.5],[2.338671,48.602375,79.5],[2.338721,48.602379,79.4],[2.338764,48.602356,79.4],[2.338815,48.602363,79.3],[2.338914,48.602355,79.3],[2.338932,48.602366,79.2],[2.338948,48.60236,79.2],[2.33896,48.602365,79.2],[2.339042,48.602346,79.1],[2.339067,48.602348,79.1],[2.339104,48.602376,79.1],[2.339138,48.60239,79.1],[2.339138,48.602384,79.1],[2.339266,48.602404,79],[2.339303,48.602397,79],[2.339332,48.602401,79],[2.339365,48.602385,79],[2.339427,48.60239,79],[2.339449,48.602382,79],[2.339517,48.602323,78.9],[2.339511,48.602303,78.9],[2.339531,48.602276,78.9],[2.339555,48.602266,78.8],[2.33963,48.602272,78.9],[2.339638,48.602278,78.9],[2.339681,48.602275,79],[2.339687,48.602247,78.9],[2.339699,48.602246,78.9],[2.339673,48.602268,78.9],[2.339649,48.602247,78.9],[2.339657,48.602253,78.9],[2.339641,48.602239,78.8],[2.339583,48.602223,78.8],[2.339517,48.60227,78.9],[2.339483,48.602282,78.9],[2.339426,48.602351,79],[2.339406,48.60236,79],[2.339414,48.602461,79.1],[2.339463,48.60248,79.1],[2.339467,48.602516,79.2],[2.33947,48.602511,79.2],[2.339476,48.602524,79.2],[2.339562,48.602552,79.3],[2.3396,48.602581,79.3],[2.339632,48.602584,79.4],[2.339679,48.602634,79.4],[2.339785,48.602702,79.6],[2.339786,48.602737,79.6],[2.339834,48.602762,79.7],[2.339889,48.602765,79.7],[2.339963,48.602821,79.8],[2.339994,48.602835,79.8],[2.340062,48.602893,79.8],[2.340145,48.602928,79.8],[2.340177,48.602958,79.8],[2.340195,48.60296,79.8],[2.34021,48.602975,79.8],[2.340208,48.602993,79.8],[2.340246,48.603034,79.8],[2.34025,48.60306,79.8],[2.340291,48.603066,79.8],[2.340333,48.603097,79.8],[2.340341,48.603094,79.8],[2.340406,48.603148,79.8],[2.340453,48.603158,79.8],[2.340444,48.603153,79.8],[2.340473,48.603164,79.8],[2.34054,48.603249,79.8],[2.340596,48.603267,79.8],[2.340622,48.603302,79.8],[2.340729,48.603387,79.9],[2.340752,48.603392,79.9],[2.340771,48.603408,79.9],[2.3408,48.603414,79.9],[2.340847,48.603449,79.9],[2.340848,48.603461,79.9],[2.340958,48.603543,79.9],[2.341004,48.603561,79.9],[2.34103,48.603584,79.9],[2.341146,48.603648,80],[2.341158,48.603667,79.9],[2.341253,48.603732,80],[2.341309,48.603784,80],[2.341344,48.603799,80],[2.341391,48.603849,80],[2.34146,48.603898,80],[2.341512,48.603913,80],[2.341532,48.603929,80],[2.341554,48.603932,80],[2.341608,48.603979,80],[2.341617,48.603999,80],[2.341689,48.604041,80],[2.341721,48.604071,80],[2.341765,48.604093,80],[2.341842,48.604158,80],[2.341845,48.604169,80],[2.341898,48.604183,80],[2.34191,48.604207,80],[2.341952,48.604223,80.1],[2.341985,48.604256,80.1],[2.341987,48.604269,80.1],[2.342009,48.604281,80.1],[2.342017,48.604273,80.1],[2.342048,48.604293,80.1],[2.342028,48.604319,80.1],[2.342042,48.604331,80.1],[2.342027,48.604339,80.1],[2.34218,48.604406,80.3],[2.34217,48.604408,80.3],[2.342218,48.604465,80.3],[2.342234,48.60451,80.4],[2.342306,48.604581,80.5],[2.342298,48.604594,80.5],[2.342267,48.604609,80.4],[2.342253,48.604632,80.4],[2.342258,48.604651,80.4],[2.342225,48.604687,80.3],[2.342237,48.60473,80.4],[2.342256,48.60475,80.4],[2.342258,48.604773,80.4],[2.342276,48.604774,80.4],[2.342324,48.604802,80.5],[2.34235,48.604835,80.4],[2.342349,48.604851,80.4],[2.342317,48.604864,80.4],[2.342305,48.604878,80.4],[2.342348,48.604941,80.4],[2.342346,48.604958,80.4],[2.34236,48.604963,80.4],[2.342384,48.604993,80.4],[2.342401,48.604999,80.4],[2.342475,48.605083,80.4],[2.342471,48.6051,80.4],[2.342525,48.605123,80.4],[2.342548,48.605117,80.5],[2.342596,48.605125,80.5],[2.342639,48.60515,80.5],[2.342707,48.605165,80.5],[2.342748,48.605185,80.5],[2.342837,48.605191,80.6],[2.342857,48.6052,80.6],[2.343029,48.605211,80.7],[2.343094,48.605233,80.7],[2.343127,48.605233,80.7],[2.343212,48.60526,80.7],[2.34323,48.605276,80.8],[2.343286,48.605284,80.7],[2.343359,48.605344,80.8],[2.343501,48.605438,80.8],[2.343511,48.605468,80.7],[2.34355,48.605457,80.8],[2.343568,48.605488,80.9],[2.343738,48.60554,81.1],[2.343788,48.605588,81.2],[2.343849,48.605607,81.2],[2.343866,48.605632,81.3],[2.343948,48.605704,81.3],[2.344002,48.605789,81.3],[2.344044,48.605826,81.4],[2.344062,48.605855,81.4],[2.344084,48.605859,81.4],[2.344097,48.605912,81.4],[2.344122,48.605927,81.5],[2.344127,48.605915,81.5],[2.344098,48.605958,81.4],[2.344091,48.606024,81.4],[2.344071,48.606054,81.4],[2.344084,48.606091,81.4],[2.34408,48.606113,81.5],[2.344096,48.606156,81.5],[2.344139,48.606216,81.5],[2.344176,48.606312,81.6],[2.344154,48.606436,81.5],[2.344157,48.606482,81.5],[2.344171,48.606492,81.6],[2.344201,48.606496,81.6],[2.344195,48.606511,81.5],[2.344207,48.606521,81.5],[2.344207,48.606536,81.5],[2.344185,48.606553,81.5],[2.344175,48.60654,81.5],[2.344154,48.606536,81.5],[2.344138,48.606555,81.5],[2.344155,48.606573,81.5],[2.344161,48.606605,81.5],[2.344127,48.606645,81.4],[2.344124,48.606669,81.4],[2.344173,48.606715,81.4],[2.344198,48.606833,81.3],[2.344214,48.606843,81.3],[2.34421,48.606879,81.3],[2.344224,48.606919,81.2],[2.344198,48.606973,81.1],[2.344166,48.607003,81.1],[2.344174,48.607013,81.1],[2.344199,48.607285,80.8],[2.344221,48.607298,80.8],[2.344221,48.607407,80.8],[2.34423,48.607421,80.8],[2.34423,48.607474,80.7],[2.34426,48.607502,80.8],[2.344268,48.607554,80.7],[2.344233,48.607571,80.7],[2.344242,48.607601,80.7],[2.344206,48.607661,80.7],[2.344188,48.607666,80.7],[2.344169,48.607661,80.7],[2.344181,48.607656,80.7],[2.34412,48.607684,80.6],[2.344118,48.607692,80.6],[2.344097,48.607693,80.6],[2.344093,48.60771,80.6],[2.344058,48.607724,80.6],[2.344027,48.607769,80.5],[2.344004,48.607764,80.5],[2.344009,48.607804,80.5],[2.343955,48.607832,80.5],[2.343963,48.607866,80.5],[2.343951,48.607876,80.5],[2.343955,48.607884,80.5],[2.343905,48.607933,80.3],[2.343894,48.607975,80.3],[2.343842,48.608031,80.3],[2.34384,48.60805,80.3],[2.343856,48.60805,80.3],[2.343957,48.60815,80.5],[2.344029,48.608165,80.5],[2.34411,48.608198,80.6],[2.344148,48.608206,80.6],[2.344178,48.608229,80.7],[2.344348,48.608253,80.8],[2.344363,48.608246,80.8],[2.3444,48.60825,80.8],[2.344487,48.608324,80.8],[2.344683,48.608387,80.7],[2.344698,48.608399,80.7],[2.344909,48.608435,80.6],[2.344955,48.608431,80.6],[2.344995,48.608443,80.6],[2.34502,48.608433,80.6],[2.345059,48.608438,80.6],[2.345095,48.608433,80.6],[2.345204,48.60837,80.6],[2.345223,48.60837,80.6],[2.345243,48.608357,80.7],[2.345278,48.608351,80.7],[2.345298,48.608336,80.7],[2.345348,48.608334,80.7],[2.345335,48.608332,80.7],[2.345345,48.608334,80.7],[2.345406,48.608291,80.7],[2.345407,48.608303,80.7],[2.345497,48.608325,80.7],[2.345535,48.608348,80.6],[2.345521,48.608353,80.6],[2.345522,48.608334,80.7],[2.345508,48.608335,80.7],[2.345515,48.608347,80.6],[2.345463,48.608371,80.6],[2.345458,48.608384,80.6],[2.345394,48.608397,80.6],[2.345377,48.608409,80.6],[2.34534,48.608415,80.6],[2.345268,48.608463,80.5],[2.345196,48.60849,80.5],[2.345207,48.608491,80.5],[2.345126,48.608527,80.5],[2.34513,48.608535,80.5],[2.345068,48.608563,80.5],[2.345073,48.608596,80.4],[2.345053,48.608635,80.4],[2.344999,48.608653,80.4],[2.344956,48.608689,80.4],[2.34495,48.608684,80.4],[2.344908,48.608692,80.4],[2.344897,48.608715,80.4],[2.344905,48.608727,80.4],[2.344876,48.608758,80.4],[2.344824,48.608769,80.4],[2.344819,48.608781,80.4],[2.344763,48.608811,80.5],[2.344796,48.608842,80.4],[2.344843,48.608855,80.4],[2.344853,48.608867,80.3],[2.344893,48.608866,80.3],[2.344878,48.608867,80.3],[2.344896,48.608879,80.3],[2.344886,48.608874,80.3],[2.344923,48.608857,80.3],[2.344872,48.608887,80.3],[2.34488,48.608891,80.3],[2.344823,48.608969,80.4],[2.344829,48.608958,80.4],[2.34478,48.608937,80.4],[2.344751,48.608891,80.5],[2.344777,48.608888,80.4],[2.344765,48.6089,80.5],[2.344876,48.608889,80.3],[2.344785,48.608944,80.4],[2.344756,48.608934,80.5],[2.344729,48.60891,80.5],[2.344728,48.608896,80.5],[2.344772,48.608887,80.4],[2.344769,48.608895,80.4],[2.344757,48.608891,80.5],[2.344766,48.608885,80.4],[2.344766,48.608892,80.4],[2.344751,48.608888,80.5],[2.344757,48.608895,80.5],[2.344644,48.608908,80.5],[2.344628,48.608936,80.6],[2.344574,48.60895,80.6],[2.344564,48.608959,80.6],[2.344528,48.608963,80.6],[2.344496,48.608957,80.7],[2.344475,48.608943,80.7],[2.344435,48.608948,80.7],[2.344428,48.608938,80.7],[2.344419,48.608945,80.7],[2.344298,48.608938,80.7],[2.344254,48.608924,80.7],[2.344272,48.60891,80.7],[2.344293,48.608907,80.7],[2.344297,48.608895,80.7],[2.344307,48.608896,80.7],[2.344298,48.608881,80.7],[2.344318,48.608852,80.7],[2.344296,48.608842,80.7],[2.344306,48.608839,80.7],[2.344311,48.608846,80.7],[2.344307,48.608841,80.7],[2.344319,48.608846,80.7],[2.344327,48.608838,80.7],[2.344313,48.608828,80.7],[2.344321,48.608819,80.7],[2.344311,48.608823,80.7],[2.344331,48.608812,80.7],[2.344329,48.608823,80.7],[2.344318,48.608815,80.7],[2.344324,48.608819,80.7],[2.344325,48.608811,80.7],[2.344335,48.608825,80.7],[2.344348,48.608803,80.7],[2.34434,48.608798,80.7],[2.344341,48.608803,80.7],[2.344326,48.608794,80.7],[2.344335,48.608793,80.7],[2.344322,48.60879,80.7],[2.344336,48.608774,80.7],[2.344348,48.608778,80.7],[2.344309,48.608767,80.7],[2.344314,48.608741,80.7],[2.344323,48.608737,80.7],[2.344312,48.60873,80.7],[2.344326,48.608729,80.7],[2.344317,48.608726,80.7],[2.344311,48.608743,80.7],[2.344304,48.608742,80.7],[2.34433,48.608756,80.7],[2.344329,48.608745,80.7],[2.34431,48.608758,80.7],[2.344314,48.608746,80.7],[2.344333,48.608739,80.7],[2.34432,48.608761,80.7],[2.3443,48.608739,80.7],[2.344301,48.608713,80.7],[2.344287,48.608722,80.7],[2.344295,48.608717,80.7],[2.344303,48.608729,80.7],[2.344309,48.608721,80.7],[2.344288,48.608711,80.7],[2.344303,48.608695,80.7],[2.344311,48.60872,80.7],[2.344287,48.608705,80.7],[2.344292,48.608686,80.7],[2.34428,48.608673,80.7],[2.344283,48.608695,80.7],[2.344299,48.608708,80.7],[2.344294,48.608714,80.7],[2.344311,48.608689,80.7],[2.344309,48.608699,80.7],[2.344309,48.608669,80.7],[2.344307,48.608676,80.7],[2.344349,48.608651,80.7],[2.344335,48.608653,80.7],[2.344353,48.608617,80.7],[2.344339,48.608586,80.7],[2.344356,48.608535,80.7],[2.344351,48.608521,80.7],[2.344372,48.608471,80.7],[2.344336,48.608446,80.7],[2.344329,48.608428,80.7],[2.344338,48.608416,80.8],[2.344398,48.608412,80.8],[2.344405,48.608397,80.8],[2.344387,48.608371,80.8],[2.344389,48.608378,80.8],[2.344404,48.608371,80.8],[2.344396,48.608374,80.8],[2.3444,48.608367,80.8],[2.344384,48.60836,80.8],[2.344381,48.608349,80.8],[2.344396,48.608342,80.8],[2.344383,48.608316,80.8],[2.344321,48.608264,80.8],[2.344288,48.608259,80.7],[2.344205,48.608212,80.7],[2.344166,48.608215,80.7],[2.344154,48.608225,80.6],[2.344118,48.608219,80.6],[2.344108,48.608211,80.6],[2.344088,48.60821,80.6],[2.344076,48.608217,80.6],[2.344071,48.608201,80.6],[2.344012,48.608191,80.5],[2.343994,48.608176,80.5],[2.344,48.608166,80.5],[2.343962,48.608141,80.5],[2.343933,48.608133,80.4],[2.343913,48.608117,80.4],[2.343906,48.608086,80.3],[2.343868,48.608053,80.3],[2.343883,48.608042,80.3],[2.34388,48.608023,80.3],[2.34391,48.607994,80.4],[2.343909,48.607962,80.4],[2.343922,48.607944,80.4],[2.34397,48.607919,80.5],[2.34398,48.607894,80.5],[2.344024,48.607854,80.5],[2.34417,48.607782,80.7],[2.344163,48.607781,80.6],[2.344198,48.607742,80.7],[2.344189,48.607725,80.7],[2.34421,48.607707,80.7],[2.344231,48.607646,80.7],[2.344213,48.607612,80.7],[2.344224,48.607584,80.7],[2.34423,48.60748,80.7],[2.344218,48.607414,80.8],[2.344237,48.607395,80.8],[2.344281,48.607278,80.9],[2.344273,48.607259,80.9],[2.34428,48.607244,80.9],[2.344266,48.607226,80.9],[2.344273,48.607208,80.9],[2.344255,48.60713,81],[2.344168,48.607048,81],[2.344151,48.607047,81],[2.34417,48.606985,81.1],[2.344148,48.606963,81.1],[2.344164,48.606945,81.1],[2.344181,48.60689,81.2],[2.344169,48.606881,81.2],[2.344166,48.606847,81.3],[2.344113,48.606806,81.3],[2.344123,48.606782,81.3],[2.3441,48.606746,81.3],[2.344121,48.606719,81.4],[2.34408,48.606659,81.4],[2.344087,48.606648,81.4],[2.34406,48.606612,81.4],[2.344065,48.606585,81.4],[2.344051,48.606564,81.4],[2.344042,48.606482,81.5],[2.344027,48.606473,81.4],[2.34403,48.606436,81.4],[2.344015,48.606407,81.4],[2.344021,48.606345,81.4],[2.344064,48.60632,81.5],[2.344025,48.60628,81.4],[2.344016,48.606255,81.4],[2.344053,48.606203,81.4],[2.344056,48.606178,81.4],[2.344046,48.606175,81.4],[2.344061,48.606143,81.4],[2.344033,48.606087,81.3],[2.344046,48.606047,81.4],[2.344022,48.60602,81.3],[2.344016,48.605983,81.3],[2.343998,48.605968,81.3],[2.344005,48.605925,81.3],[2.343993,48.605905,81.2],[2.343988,48.605841,81.2],[2.343968,48.605834,81.2],[2.343965,48.605812,81.2],[2.343923,48.605782,81.2],[2.343909,48.60578,81.2],[2.343913,48.605754,81.2],[2.343923,48.605749,81.2],[2.343923,48.605721,81.3],[2.343848,48.605636,81.2],[2.343854,48.605627,81.2],[2.343851,48.605633,81.2],[2.343828,48.60561,81.2],[2.343815,48.605578,81.2],[2.343801,48.605571,81.2],[2.343772,48.605505,81.2],[2.343687,48.605459,81.1],[2.343631,48.605466,81],[2.3436,48.605449,80.9],[2.343592,48.605429,81],[2.343539,48.605388,81],[2.343474,48.605368,80.9],[2.343449,48.605322,81],[2.343382,48.605275,81],[2.343365,48.605277,80.9],[2.343345,48.605258,80.9],[2.343344,48.605235,80.9],[2.343311,48.605186,81.1],[2.343251,48.605157,81],[2.343228,48.605124,81],[2.343044,48.605083,80.9],[2.343004,48.605067,80.9],[2.342993,48.605049,80.9],[2.342949,48.605037,80.9],[2.342845,48.605025,80.8],[2.342797,48.605042,80.8],[2.342619,48.605042,80.6],[2.342543,48.60502,80.6],[2.342492,48.605015,80.5],[2.342481,48.605023,80.5],[2.342452,48.605022,80.5],[2.342465,48.605018,80.5],[2.342437,48.605002,80.5],[2.342389,48.604991,80.4],[2.342364,48.604972,80.4],[2.342372,48.604968,80.4],[2.342361,48.604963,80.4],[2.342363,48.604942,80.4],[2.34235,48.604925,80.4],[2.342323,48.604912,80.4],[2.342312,48.604838,80.4],[2.342219,48.60477,80.3],[2.342207,48.604751,80.3],[2.342189,48.604749,80.3],[2.342195,48.604741,80.3],[2.342144,48.604675,80.2],[2.34214,48.604645,80.2],[2.342115,48.604638,80.2],[2.342098,48.604559,80.2],[2.342064,48.604505,80.2],[2.342064,48.604471,80.2],[2.342046,48.604467,80.1],[2.342017,48.604435,80.1],[2.342008,48.604442,80.1],[2.342006,48.604408,80.1],[2.34195,48.604356,80.1],[2.341922,48.60435,80],[2.341907,48.604327,80],[2.341914,48.604316,80],[2.341852,48.604274,80],[2.341843,48.604254,80],[2.341774,48.604232,80],[2.341744,48.604201,79.9],[2.341725,48.604195,79.9],[2.341651,48.604128,79.9],[2.341599,48.604103,79.9],[2.341555,48.604063,79.9],[2.341558,48.604068,79.9],[2.341528,48.604055,79.9],[2.341496,48.60402,79.9],[2.341451,48.604002,79.9],[2.341458,48.603999,79.9],[2.341441,48.603985,79.9],[2.341413,48.603979,79.9],[2.341401,48.603962,79.9],[2.341321,48.603952,79.9],[2.34133,48.603945,79.9],[2.341311,48.603923,79.9],[2.34126,48.603925,79.9],[2.341283,48.603937,79.9],[2.341268,48.603935,79.9],[2.341278,48.603943,79.9],[2.341318,48.603942,79.9],[2.3413,48.603929,79.9],[2.34126,48.60393,79.9],[2.34126,48.603936,79.9],[2.341234,48.603934,79.9],[2.341226,48.603926,79.9],[2.341217,48.603945,79.9],[2.341188,48.603933,79.9],[2.341215,48.603929,79.9],[2.34119,48.603921,79.9],[2.341188,48.603928,79.9],[2.341168,48.603924,79.9],[2.341156,48.60393,79.9],[2.341162,48.60394,79.9],[2.341147,48.603948,79.9],[2.341118,48.603947,79.9],[2.341104,48.60396,79.9],[2.341083,48.604027,79.9],[2.341105,48.604041,79.9],[2.341122,48.60407,80],[2.341185,48.604108,80],[2.34125,48.604089,80],[2.341256,48.60408,79.9],[2.341253,48.604095,80],[2.341267,48.604095,80],[2.341252,48.604098,80],[2.341262,48.60409,80],[2.341234,48.604086,80],[2.341293,48.604059,79.9],[2.341257,48.604011,79.9],[2.341251,48.603988,79.9],[2.341206,48.603952,79.9],[2.341213,48.603954,79.9],[2.341217,48.60394,79.9],[2.341206,48.603944,79.9],[2.34124,48.603943,79.9],[2.341246,48.603949,79.9],[2.341245,48.603939,79.9],[2.341285,48.603925,79.9],[2.341273,48.60391,79.9],[2.341278,48.603857,79.9],[2.3413,48.603833,80],[2.341301,48.603838,80],[2.341328,48.603817,80],[2.341293,48.603805,80],[2.341299,48.603799,80],[2.341283,48.603769,80],[2.341282,48.603708,80],[2.341262,48.603676,80],[2.34123,48.603654,80],[2.341185,48.603642,80],[2.341162,48.603624,80],[2.341138,48.603624,80],[2.341064,48.603585,79.9],[2.341039,48.603616,79.9],[2.341045,48.603627,79.9],[2.34099,48.603636,79.9],[2.340969,48.603613,79.9],[2.340915,48.603634,79.9],[2.340873,48.60364,79.9],[2.340862,48.603629,79.9],[2.340847,48.603628,79.9],[2.340828,48.603609,79.9],[2.340772,48.603617,79.8],[2.340738,48.60361,79.8],[2.340701,48.603575,79.8],[2.340686,48.603575,79.8],[2.340688,48.603549,79.8],[2.340679,48.603539,79.8],[2.340686,48.603525,79.8],[2.340665,48.603502,79.8],[2.340681,48.603469,79.8],[2.34067,48.603416,79.8],[2.340588,48.603333,79.8],[2.340506,48.603307,79.8],[2.340473,48.60327,79.8],[2.340456,48.603264,79.8],[2.340416,48.603214,79.8],[2.340263,48.603153,79.8],[2.340241,48.603132,79.8],[2.340204,48.603115,79.8],[2.340191,48.603088,79.8],[2.340193,48.603093,79.8],[2.340199,48.603075,79.8],[2.340207,48.603081,79.8],[2.340189,48.603078,79.8],[2.340205,48.603072,79.8],[2.340191,48.603072,79.8],[2.340183,48.603059,79.8],[2.340176,48.603064,79.8],[2.34018,48.603057,79.8],[2.34016,48.603057,79.8],[2.34016,48.603064,79.8],[2.340152,48.603058,79.8],[2.340152,48.603065,79.8],[2.340157,48.603056,79.8],[2.340142,48.603064,79.8],[2.340152,48.603065,79.8],[2.34014,48.603067,79.8],[2.340135,48.603054,79.8],[2.340155,48.60306,79.8],[2.340141,48.60306,79.8],[2.340149,48.603063,79.8],[2.340111,48.603063,79.8],[2.340122,48.603069,79.8],[2.340114,48.603061,79.8],[2.340121,48.603055,79.8],[2.340112,48.603053,79.8],[2.340127,48.603067,79.8],[2.340109,48.603071,79.8],[2.340124,48.603069,79.8],[2.340122,48.603064,79.8],[2.340117,48.603075,79.8],[2.340113,48.603066,79.8],[2.340116,48.603073,79.8],[2.340083,48.603086,79.8],[2.340101,48.603092,79.8],[2.340083,48.603085,79.8],[2.340011,48.603173,79.2],[2.339999,48.603169,79.2],[2.339966,48.603192,79.2],[2.339977,48.603185,79.2],[2.33996,48.603171,79.2],[2.339965,48.603164,79.2],[2.339976,48.603171,79.2],[2.339965,48.603173,79.2],[2.339981,48.603175,79.2],[2.33998,48.603182,79.2],[2.339974,48.603179,79.2],[2.339965,48.603189,79.2],[2.339962,48.60318,79.2],[2.339968,48.603187,79.2],[2.339961,48.603181,79.2],[2.339987,48.603189,79.2],[2.339989,48.603175,79.2],[2.339974,48.603177,79.2],[2.339984,48.603161,79.2],[2.33995,48.603128,79.2],[2.339993,48.603154,79.2],[2.339976,48.603158,79.2],[2.339995,48.603154,79.2],[2.339987,48.603156,79.2],[2.339984,48.603149,79.2],[2.339978,48.603155,79.2],[2.340014,48.603143,79.2],[2.33999,48.603159,79.2],[2.33999,48.603154,79.2],[2.340003,48.60316,79.2],[2.340009,48.603154,79.2],[2.339989,48.603165,79.2],[2.339994,48.603153,79.2],[2.339999,48.603157,79.2],[2.339974,48.603156,79.2],[2.339983,48.603175,79.2],[2.339983,48.603164,79.2],[2.339983,48.603169,79.2],[2.34,48.603157,79.2],[2.33999,48.603171,79.2],[2.339994,48.603161,79.2],[2.34001,48.603166,79.2],[2.34,48.603155,79.2],[2.339991,48.603176,79.2],[2.339996,48.603171,79.2],[2.339982,48.603177,79.2],[2.339992,48.603181,79.2],[2.340004,48.603172,79.2],[2.339992,48.603184,79.2],[2.340001,48.60318,79.2],[2.339985,48.603174,79.2],[2.339969,48.603183,79.2],[2.339978,48.603186,79.2],[2.340003,48.603171,79.2],[2.340005,48.603179,79.2],[2.340015,48.603176,79.2],[2.340014,48.60316,79.2],[2.339989,48.603152,79.2],[2.33999,48.603166,79.2],[2.340002,48.603163,79.2],[2.339963,48.603157,79.2],[2.339989,48.603146,79.2],[2.340003,48.603152,79.2],[2.340019,48.603134,79.2],[2.340031,48.603152,79.2],[2.340023,48.603154,79.2],[2.34005,48.603151,79.2],[2.340078,48.603158,79.2],[2.340106,48.603131,79.3],[2.340127,48.603138,79.3],[2.340112,48.603133,79.3],[2.340123,48.603152,79.3],[2.340123,48.603141,79.3],[2.340138,48.603147,79.3],[2.340132,48.60314,79.3],[2.340129,48.603147,79.3],[2.340281,48.603212,79.3],[2.340288,48.603207,79.3],[2.340329,48.603217,79.3],[2.340471,48.603225,79.3],[2.340498,48.603291,79.3],[2.340533,48.603327,79.3],[2.34056,48.603333,79.3],[2.340632,48.603415,79.3],[2.34066,48.603429,79.3],[2.340704,48.603476,79.3],[2.340786,48.603497,79.3],[2.340793,48.603508,79.3],[2.340853,48.603528,79.3],[2.340929,48.603571,79.3],[2.341001,48.60359,79.3],[2.34103,48.603606,79.3],[2.341043,48.603605,79.4],[2.341181,48.603659,79.4],[2.341204,48.603704,79.4],[2.341262,48.60376,79.4],[2.341315,48.603788,79.4],[2.341306,48.603794,79.4],[2.341312,48.603819,79.4],[2.341333,48.603845,79.4],[2.341349,48.60385,79.4],[2.34137,48.603844,79.4],[2.341402,48.603892,79.4],[2.341425,48.603908,79.4],[2.341453,48.603966,79.4],[2.341519,48.604001,79.4],[2.341524,48.603997,79.4],[2.341587,48.604024,79.4],[2.341644,48.604064,79.4],[2.341648,48.604097,79.4],[2.341672,48.60411,79.4],[2.341692,48.604137,79.4],[2.341763,48.60416,79.4],[2.341798,48.604213,79.4],[2.34184,48.604234,79.4],[2.341879,48.604237,79.4],[2.341888,48.604252,79.4],[2.341913,48.604262,79.5],[2.341994,48.604349,79.5],[2.342014,48.604388,79.5],[2.342062,48.604421,79.6],[2.342073,48.604447,79.6],[2.342092,48.604461,79.6],[2.342119,48.604531,79.7],[2.3421,48.604547,79.6],[2.342149,48.604592,79.7],[2.342139,48.604613,79.7],[2.34215,48.604719,79.7],[2.342166,48.604772,79.7],[2.342175,48.604774,79.7],[2.342187,48.604812,79.7],[2.342196,48.604815,79.7],[2.34221,48.604887,79.7],[2.342207,48.604932,79.7],[2.342228,48.604939,79.7],[2.342219,48.604982,79.7],[2.342227,48.605026,79.7],[2.342214,48.605069,79.6],[2.342228,48.605091,79.6],[2.342214,48.605111,79.6],[2.342191,48.605119,79.6],[2.342175,48.605141,79.6],[2.342128,48.605172,79.5],[2.342119,48.605281,79.5],[2.342127,48.605303,79.5],[2.342115,48.605336,79.4],[2.34208,48.605378,79.4],[2.341936,48.605494,79.4],[2.341867,48.605519,79.4],[2.34176,48.605629,79.5],[2.341629,48.605695,79.7],[2.341559,48.605754,79.8],[2.341483,48.605778,80],[2.341465,48.60581,80],[2.341416,48.605846,80.1],[2.341299,48.605959,80.3],[2.341249,48.605973,80.3],[2.341258,48.606017,80.3],[2.341271,48.606027,80.3],[2.341262,48.606068,80.3],[2.341272,48.606076,80.3],[2.341289,48.606074,80.3],[2.341296,48.606086,80.2],[2.341314,48.606081,80.2],[2.341343,48.606118,80.1],[2.341362,48.606178,80],[2.341439,48.606242,79.8],[2.341468,48.606344,79.8],[2.341458,48.606375,79.8],[2.341468,48.6064,79.7],[2.341477,48.606401,79.7],[2.341488,48.606442,79.8],[2.341468,48.606444,79.8],[2.34146,48.606453,79.8],[2.341179,48.606539,80.2],[2.341169,48.606558,80.2],[2.341203,48.606602,80.2],[2.34118,48.606574,80.2],[2.341176,48.606548,80.2],[2.341251,48.606517,80],[2.341383,48.606507,79.9],[2.341398,48.606492,79.9],[2.341413,48.606491,79.9],[2.341403,48.606498,79.9],[2.341405,48.60649,79.9],[2.341384,48.606505,79.9],[2.341394,48.606508,79.9],[2.341389,48.606501,79.9],[2.341394,48.606506,79.9],[2.341405,48.606501,79.9],[2.341422,48.60651,79.8],[2.34141,48.606521,79.9],[2.341421,48.606526,79.8],[2.341414,48.606509,79.9],[2.34139,48.60651,79.9],[2.341397,48.606506,79.9],[2.341386,48.606513,79.9],[2.341393,48.606507,79.9],[2.341409,48.606512,79.9],[2.341436,48.606504,79.8],[2.341439,48.606532,79.8],[2.341427,48.60651,79.8],[2.341411,48.606503,79.9],[2.34142,48.606502,79.8],[2.341441,48.606524,79.8],[2.341434,48.606508,79.8],[2.341455,48.606495,79.8],[2.341442,48.606499,79.8],[2.341448,48.60649,79.8],[2.341437,48.606488,79.8],[2.341436,48.606494,79.8],[2.341438,48.60648,79.8],[2.341443,48.606487,79.8],[2.341437,48.606483,79.8],[2.341429,48.606489,79.8],[2.341433,48.60648,79.8],[2.341433,48.606491,79.8],[2.341435,48.606474,79.8],[2.341448,48.606473,79.8],[2.341438,48.606479,79.8],[2.341434,48.606474,79.8],[2.341432,48.606485,79.8],[2.341409,48.606482,79.9],[2.341416,48.606507,79.9],[2.341415,48.606502,79.9],[2.341424,48.606505,79.8],[2.341397,48.606495,79.9],[2.3414,48.606489,79.9],[2.341417,48.606492,79.9],[2.341411,48.606497,79.9],[2.34142,48.606494,79.8],[2.34142,48.606501,79.8],[2.341429,48.606485,79.8],[2.341417,48.606481,79.9],[2.341405,48.606488,79.9],[2.341419,48.606503,79.8],[2.341416,48.606495,79.9],[2.34142,48.606499,79.8],[2.341413,48.60649,79.9],[2.341418,48.606497,79.9],[2.341416,48.606489,79.9],[2.341417,48.606494,79.9],[2.341408,48.606489,79.9],[2.341415,48.60649,79.9],[2.34141,48.606485,79.9],[2.341406,48.606491,79.9],[2.341401,48.606486,79.9],[2.341416,48.606476,79.9],[2.341387,48.606501,79.9],[2.341366,48.606504,79.9],[2.341367,48.606509,79.9],[2.341413,48.606512,79.9],[2.341406,48.606503,79.9],[2.341413,48.6065,79.9],[2.341401,48.606476,79.9],[2.34141,48.606488,79.9],[2.341422,48.606478,79.8],[2.341408,48.606499,79.9],[2.341407,48.606488,79.9],[2.34141,48.606493,79.9],[2.341404,48.60649,79.9],[2.341402,48.606497,79.9],[2.341378,48.6065,79.9],[2.341373,48.606495,79.9],[2.341396,48.606501,79.9],[2.341347,48.606484,79.9],[2.341378,48.60648,79.9],[2.341372,48.606487,79.9],[2.341382,48.6065,79.9],[2.341507,48.606519,79.7],[2.34152,48.606514,79.7],[2.341506,48.606507,79.7],[2.341442,48.606505,79.8],[2.341392,48.606492,79.9],[2.341402,48.6065,79.9],[2.341428,48.606502,79.8],[2.341414,48.606498,79.9],[2.341425,48.606503,79.8],[2.341412,48.606502,79.9],[2.341416,48.606498,79.9],[2.341417,48.60651,79.9],[2.341417,48.606504,79.9],[2.341423,48.606508,79.8],[2.34141,48.606508,79.9],[2.341403,48.606499,79.9],[2.341404,48.606506,79.9],[2.341389,48.606505,79.9],[2.341393,48.606489,79.9],[2.341404,48.606489,79.9],[2.341401,48.606499,79.9],[2.341417,48.606505,79.9],[2.341412,48.606509,79.9],[2.341442,48.606488,79.8],[2.341422,48.606488,79.8],[2.341438,48.60651,79.8],[2.341445,48.606495,79.8],[2.341418,48.606522,79.9],[2.341406,48.606517,79.9],[2.341414,48.60652,79.9],[2.341424,48.606511,79.8],[2.341432,48.606517,79.8],[2.341432,48.606509,79.8],[2.341441,48.606512,79.8],[2.341416,48.606486,79.9],[2.341425,48.606482,79.8],[2.341418,48.606479,79.9],[2.341416,48.606498,79.9],[2.341398,48.606491,79.9],[2.341409,48.606499,79.9],[2.341413,48.606489,79.9],[2.341442,48.606515,79.8],[2.341439,48.606521,79.8],[2.341445,48.606518,79.8],[2.341419,48.6065,79.8],[2.341461,48.606501,79.8],[2.341442,48.606486,79.8],[2.341405,48.606488,79.9],[2.341413,48.606488,79.9],[2.341403,48.606478,79.9],[2.341412,48.60649,79.9],[2.341404,48.606491,79.9],[2.341434,48.606517,79.8],[2.341432,48.606493,79.8],[2.341433,48.606499,79.8],[2.341428,48.606492,79.8],[2.341431,48.6065,79.8],[2.341394,48.606475,79.9],[2.341343,48.606486,79.9],[2.341392,48.60648,79.9],[2.341385,48.606491,79.9],[2.341371,48.60649,79.9],[2.341392,48.606489,79.9],[2.341394,48.606496,79.9],[2.341427,48.606478,79.8],[2.341422,48.606492,79.8],[2.341403,48.606502,79.9],[2.341429,48.606497,79.8],[2.34142,48.606504,79.8],[2.341413,48.606499,79.9],[2.341406,48.606509,79.9],[2.341421,48.606509,79.8],[2.341392,48.606503,79.9],[2.341405,48.606507,79.9],[2.341398,48.606506,79.9],[2.341411,48.60651,79.9],[2.341412,48.606504,79.9],[2.341408,48.606518,79.9],[2.341396,48.606508,79.9],[2.341404,48.606507,79.9],[2.341393,48.606476,79.9],[2.341407,48.606493,79.9],[2.341398,48.606488,79.9],[2.341414,48.606521,79.9],[2.341401,48.606491,79.9],[2.341379,48.606495,79.9],[2.341385,48.606511,79.9],[2.341405,48.606506,79.9],[2.341397,48.6065,79.9],[2.341412,48.606486,79.9],[2.341412,48.606495,79.9],[2.341431,48.606506,79.8],[2.341424,48.606498,79.8],[2.341409,48.606498,79.9],[2.341441,48.60651,79.8],[2.341435,48.606515,79.8],[2.341401,48.606504,79.9],[2.341386,48.606488,79.9],[2.341419,48.606494,79.8],[2.341419,48.6065,79.8],[2.341451,48.606486,79.8],[2.341418,48.606477,79.9],[2.341448,48.606486,79.8],[2.341428,48.606483,79.8],[2.341441,48.606482,79.8],[2.341406,48.606479,79.9],[2.341465,48.606491,79.8],[2.341452,48.606485,79.8],[2.341472,48.606496,79.8],[2.34144,48.606488,79.8],[2.341422,48.606501,79.8],[2.341429,48.606497,79.8],[2.341474,48.60657,79.8],[2.341463,48.606583,79.8],[2.341482,48.606581,79.8],[2.34146,48.606566,79.8],[2.341452,48.606548,79.8],[2.341468,48.60655,79.8],[2.341461,48.606538,79.8],[2.341443,48.606538,79.8],[2.341427,48.606522,79.8],[2.341432,48.606494,79.8],[2.341445,48.606503,79.8],[2.341437,48.606502,79.8],[2.341444,48.606502,79.8],[2.341434,48.606499,79.8]]}}]}