{"type":"FeatureCollection","features":[{"type":"Feature","properties":{"name":"unnamed","time":"2011-05-08T09:59:36Z","coordTimes":["2011-05-08T09:59:36Z","2011-05-08T10:00:18Z","2011-05-08T10:00:39Z","2011-05-08T10:02:51Z","2011-05-08T10:03:14Z","2011-05-08T10:04:23Z","2011-05-08T10:05:21Z","2011-05-08T10:05:46Z","2011-05-08T10:07:14Z","2011-05-08T10:07:37Z","2011-05-08T10:08:56Z","2011-05-08T10:09:16Z","2011-05-08T10:09:36Z","2011-05-08T10:09:55Z","2011-05-08T10:10:24Z","2011-05-08T10:10:54Z","2011-05-08T10:13:28Z","2011-05-08T10:13:52Z","2011-05-08T10:15:20Z","2011-05-08T10:15:39Z","2011-05-08T10:16:15Z","2011-05-08T10:21:05Z","2011-05-08T10:24:24Z","2011-05-08T10:28:10Z","2011-05-08T10:28:38Z","2011-05-08T10:28:56Z","2011-05-08T10:29:57Z","2011-05-08T10:30:20Z","2011-05-08T10:30:39Z","2011-05-08T10:30:48Z","2011-05-08T10:31:08Z","2011-05-08T10:31:27Z","2011-05-08T10:31:45Z","2011-05-08T10:32:24Z","2011-05-08T10:32:43Z","2011-05-08T10:32:48Z","2011-05-08T10:32:51Z","2011-05-08T10:33:01Z","2011-05-08T10:33:06Z","2011-05-08T10:33:28Z","2011-05-08T10:33:45Z","2011-05-08T10:34:02Z","2011-05-08T10:34:30Z","2011-05-08T10:34:44Z","2011-05-08T10:35:03Z","2011-05-08T10:35:21Z","2011-05-08T10:35:36Z","2011-05-08T10:35:50Z","2011-05-08T10:35:58Z","2011-05-08T10:36:15Z","2011-05-08T10:36:28Z","2011-05-08T10:37:08Z","2011-05-08T10:37:28Z","2011-05-08T10:37:56Z","2011-05-08T10:38:06Z","2011-05-08T10:38:20Z","2011-05-08T10:38:42Z","2011-05-08T10:39:40Z","2011-05-08T10:40:06Z","2011-05-08T10:40:28Z","2011-05-08T10:40:50Z","2011-05-08T10:41:11Z","2011-05-08T10:41:53Z","2011-05-08T10:41:57Z","2011-05-08T10:42:13Z","2011-05-08T10:42:26Z","2011-05-08T10:42:32Z","2011-05-08T10:43:01Z","2011-05-08T10:43:18Z","2011-05-08T10:43:42Z","2011-05-08T10:44:04Z","2011-05-08T10:44:13Z","2011-05-08T10:44:48Z","2011-05-08T10:45:07Z","2011-05-08T10:46:40Z","2011-05-08T10:47:11Z","2011-05-08T10:47:29Z","2011-05-08T10:47:56Z","2011-05-08T10:48:10Z","2011-05-08T10:48:27Z","2011-05-08T10:48:43Z","2011-05-08T10:49:04Z","2011-05-08T10:49:19Z","2011-05-08T10:49:44Z","2011-05-08T10:50:00Z","2011-05-08T10:50:02Z","2011-05-08T10:50:31Z","2011-05-08T10:50:42Z","2011-05-08T10:50:44Z","2011-05-08T10:51:03Z","2011-05-08T10:51:18Z","2011-05-08T10:51:32Z","2011-05-08T10:52:07Z","2011-05-08T10:52:22Z","2011-05-08T10:52:41Z","2011-05-08T10:52:55Z","2011-05-08T10:53:04Z","2011-05-08T10:53:25Z","2011-05-08T10:53:46Z","2011-05-08T10:54:01Z","2011-05-08T10:54:13Z","2011-05-08T10:54:32Z","2011-05-08T10:54:50Z","2011-05-08T10:55:14Z","2011-05-08T10:55:37Z","2011-05-08T10:56:04Z","2011-05-08T10:56:31Z","2011-05-08T10:57:05Z","2011-05-08T10:57:23Z","2011-05-08T10:57:57Z","2011-05-08T10:58:20Z","2011-05-08T10:58:45Z","2011-05-08T10:59:24Z","2011-05-08T10:59:49Z","2011-05-08T10:59:59Z","2011-05-08T11:00:33Z","2011-05-08T11:00:51Z","2011-05-08T11:01:09Z","2011-05-08T11:01:32Z","2011-05-08T11:01:52Z","2011-05-08T11:02:07Z","2011-05-08T11:02:31Z","2011-05-08T11:03:08Z","2011-05-08T11:04:45Z","2011-05-08T11:05:08Z","2011-05-08T11:05:50Z","2011-05-08T11:07:46Z","2011-05-08T11:08:05Z","2011-05-08T11:08:12Z","2011-05-08T11:08:29Z"],"type":"randonnée","month":"2011-05-01"},"geometry":{"type":"LineString","coordinates":[[-8.698291,30.38227,461.09],[-8.698449,30.382272,461.09],[-8.69858,30.382288,460.61],[-8.698905,30.382178,461.09],[-8.699029,30.382232,461.57],[-8.698972,30.382176,461.57],[-8.699135,30.382122,462.05],[-8.698997,30.382296,461.57],[-8.698872,30.382246,462.05],[-8.69888,30.382172,462.05],[-8.699135,30.382087,462.53],[-8.698988,30.382121,462.05],[-8.699037,30.382126,462.05],[-8.699131,30.38216,462.53],[-8.699024,30.382021,462.53],[-8.699163,30.382072,462.53],[-8.699018,30.382162,462.53],[-8.699056,30.382168,462.05],[-8.69906,30.382191,462.53],[-8.69905,30.38227,462.05],[-8.699077,30.382205,462.53],[-8.699062,30.382228,463.01],[-8.699,30.382256,464.93],[-8.698963,30.382241,466.86],[-8.698797,30.382255,467.34],[-8.6987,30.382329,468.3],[-8.698623,30.38237,467.82],[-8.698737,30.382514,467.34],[-8.698862,30.382555,466.86],[-8.698964,30.382574,466.38],[-8.699051,30.382767,466.38],[-8.699116,30.382885,465.42],[-8.699069,30.382953,465.9],[-8.699056,30.382917,466.38],[-8.699122,30.383015,464.93],[-8.699156,30.383032,464.45],[-8.699189,30.383068,464.45],[-8.699242,30.383209,464.45],[-8.699274,30.383257,464.45],[-8.699309,30.383354,464.93],[-8.699277,30.383489,464.45],[-8.699298,30.383606,463.49],[-8.699394,30.383887,463.97],[-8.699468,30.384062,463.97],[-8.699428,30.384306,463.97],[-8.699438,30.384544,463.49],[-8.699402,30.384746,463.01],[-8.699416,30.384954,463.01],[-8.699393,30.385023,462.53],[-8.699389,30.385243,462.53],[-8.699338,30.38531,462.05],[-8.699267,30.385359,463.01],[-8.699278,30.385424,463.01],[-8.699229,30.385514,462.53],[-8.699219,30.385585,462.53],[-8.699259,30.385707,462.53],[-8.699202,30.385898,462.05],[-8.699386,30.386178,461.09],[-8.699468,30.3865,460.13],[-8.699493,30.386694,460.13],[-8.699505,30.386898,459.65],[-8.699548,30.387147,459.65],[-8.69944,30.387642,458.69],[-8.699462,30.387667,458.21],[-8.699407,30.387856,458.21],[-8.699397,30.388,457.72],[-8.699427,30.388066,457.24],[-8.699459,30.388378,456.76],[-8.699506,30.388537,456.76],[-8.699549,30.388731,456.28],[-8.699676,30.388792,456.28],[-8.699788,30.38876,455.8],[-8.700137,30.388729,456.28],[-8.700108,30.388679,456.28],[-8.700164,30.388544,456.76],[-8.700284,30.388486,457.24],[-8.700241,30.388416,457.72],[-8.700277,30.388253,458.21],[-8.7003,30.388074,458.21],[-8.70031,30.38792,458.21],[-8.700339,30.387882,458.69],[-8.700187,30.387856,459.17],[-8.700188,30.387685,459.17],[-8.700234,30.387424,459.17],[-8.700403,30.387284,459.65],[-8.700427,30.387279,460.61],[-8.700512,30.386977,460.61],[-8.700494,30.386884,460.13],[-8.700547,30.386852,461.57],[-8.700631,30.3867,461.57],[-8.70066,30.386608,462.05],[-8.70066,30.386507,462.05],[-8.700605,30.386278,462.53],[-8.70057,30.386051,463.01],[-8.700566,30.385919,463.01],[-8.700579,30.3858,463.49],[-8.700605,30.385698,463.49],[-8.700526,30.385576,463.97],[-8.700568,30.385478,464.93],[-8.700489,30.385369,464.45],[-8.700495,30.385267,464.93],[-8.700425,30.385136,465.42],[-8.700354,30.384962,465.9],[-8.700305,30.384724,466.38],[-8.700238,30.384614,466.86],[-8.700152,30.384427,467.34],[-8.700117,30.384299,467.34],[-8.699973,30.384257,467.34],[-8.699817,30.384312,467.34],[-8.699527,30.384235,467.34],[-8.699338,30.384105,467.82],[-8.699353,30.38398,468.3],[-8.699334,30.383881,468.3],[-8.699327,30.383766,468.3],[-8.69926,30.383711,468.3],[-8.699211,30.383443,468.78],[-8.699145,30.383304,469.26],[-8.699036,30.383147,469.26],[-8.699037,30.382942,469.74],[-8.699002,30.38277,470.7],[-8.698917,30.382618,471.18],[-8.698685,30.382521,472.14],[-8.698622,30.382463,471.66],[-8.698627,30.382391,472.63],[-8.698642,30.382332,473.59],[-8.698634,30.382395,473.11],[-8.698594,30.382312,473.59],[-8.698456,30.38228,474.07],[-8.698383,30.382286,474.07],[-8.698232,30.382233,476.47]]}},{"type":"Feature","properties":{"name":"000","cmt":"000","desc":"000","time":"2011-05-01T14:38:15Z","sym":"Flag, Blue"},"geometry":{"type":"Point","coordinates":[-9.371013,29.825755]}},{"type":"Feature","properties":{"name":"Clever Age","cmt":"Clever Age","desc":"Clever Age","time":"2008-05-27T10:00:03Z","sym":"Department Store"},"geometry":{"type":"Point","coordinates":[2.329309,48.869904,60.69]}},{"type":"Feature","properties":{"name":"DEAUVILLE","cmt":"DEAUVILLE","desc":"DEAUVILLE","time":"2008-08-23T14:46:54Z","sym":"Car"},"geometry":{"type":"Point","coordinates":[0.075849,49.358182,79.67]}},{"type":"Feature","properties":{"name":"WPT004","cmt":"WPT004","desc":"WPT004","time":"2009-07-25T13:05:32Z","sym":"Beach"},"geometry":{"type":"Point","coordinates":[2.452307,48.658663,-15.5]}},{"type":"Feature","properties":{"name":"Garmin","cmt":"Garmin","desc":"Garmin","time":"2008-04-03T07:38:10Z","sym":"Flag, Blue"},"geometry":{"type":"Point","coordinates":[-94.799018,38.85555,325.05]}},{"type":"Feature","properties":{"name":"Garmin Europe","cmt":"Garmin Europe","desc":"Garmin Europe","time":"2008-04-03T07:38:10Z","sym":"Flag, Blue"},"geometry":{"type":"Point","coordinates":[-1.4639,50.982884,35.93]}},{"type":"Feature","properties":{"name":"Garmin Taiwan","cmt":"Garmin Taiwan","desc":"Garmin Taiwan","time":"2008-04-03T07:38:10Z","sym":"Flag, Blue"},"geometry":{"type":"Point","coordinates":[121.640268,25.061784,38.1]}}]}