{"type":"FeatureCollection","features":[{"type":"Feature","properties":{"name":"Costa Rica - Découverte des crocodiles et oiseaux du Rio Grande de Tárcoles","type":"bateau","time":"2026-08-21T21:32:59Z","coordTimes":["2026-08-21T21:32:59Z","2026-08-21T21:33:00Z","2026-08-21T21:33:04Z","2026-08-21T21:33:05Z","2026-08-21T21:33:19Z","2026-08-21T21:33:26Z","2026-08-21T21:33:33Z","2026-08-21T21:33:45Z","2026-08-21T21:33:55Z","2026-08-21T21:34:13Z","2026-08-21T21:34:37Z","2026-08-21T21:34:39Z","2026-08-21T21:34:47Z","2026-08-21T21:34:48Z","2026-08-21T21:34:49Z","2026-08-21T21:35:04Z","2026-08-21T21:35:47Z","2026-08-21T21:36:04Z","2026-08-21T21:36:08Z","2026-08-21T21:36:26Z","2026-08-21T21:36:44Z","2026-08-21T21:36:54Z","2026-08-21T21:37:00Z","2026-08-21T21:37:14Z","2026-08-21T21:37:26Z","2026-08-21T21:37:36Z","2026-08-21T21:37:56Z","2026-08-21T21:38:24Z","2026-08-21T21:38:34Z","2026-08-21T21:38:49Z","2026-08-21T21:39:00Z","2026-08-21T21:39:23Z","2026-08-21T21:39:28Z","2026-08-21T21:39:43Z","2026-08-21T21:39:49Z","2026-08-21T21:40:11Z","2026-08-21T21:40:12Z","2026-08-21T21:40:19Z","2026-08-21T21:40:22Z","2026-08-21T21:40:27Z","2026-08-21T21:40:32Z","2026-08-21T21:40:33Z","2026-08-21T21:41:23Z","2026-08-21T21:41:37Z","2026-08-21T21:41:38Z","2026-08-21T21:41:53Z","2026-08-21T21:41:58Z","2026-08-21T21:42:01Z","2026-08-21T21:42:05Z","2026-08-21T21:42:06Z","2026-08-21T21:43:11Z","2026-08-21T21:43:31Z","2026-08-21T21:43:47Z","2026-08-21T21:44:07Z","2026-08-21T21:44:13Z","2026-08-21T21:44:24Z","2026-08-21T21:44:31Z","2026-08-21T21:44:48Z","2026-08-21T21:44:50Z","2026-08-21T21:44:57Z","2026-08-21T21:45:00Z","2026-08-21T21:45:03Z","2026-08-21T21:45:06Z","2026-08-21T21:45:09Z","2026-08-21T21:45:13Z","2026-08-21T21:45:22Z","2026-08-21T21:46:02Z","2026-08-21T21:46:18Z","2026-08-21T21:46:41Z","2026-08-21T21:46:49Z","2026-08-21T21:47:35Z","2026-08-21T21:47:42Z","2026-08-21T21:47:55Z","2026-08-21T21:48:11Z","2026-08-21T21:53:56Z","2026-08-21T21:54:04Z","2026-08-21T21:54:13Z","2026-08-21T21:54:20Z","2026-08-21T21:54:32Z","2026-08-21T21:54:36Z","2026-08-21T21:54:40Z","2026-08-21T21:54:49Z","2026-08-21T21:54:58Z","2026-08-21T21:55:22Z","2026-08-21T21:56:20Z","2026-08-21T21:56:30Z","2026-08-21T21:56:39Z","2026-08-21T21:56:52Z","2026-08-21T21:57:08Z","2026-08-21T21:57:09Z","2026-08-21T21:57:27Z","2026-08-21T21:57:29Z","2026-08-21T21:57:32Z","2026-08-21T21:57:40Z","2026-08-21T21:57:56Z","2026-08-21T21:57:57Z","2026-08-21T21:57:59Z","2026-08-21T21:59:03Z","2026-08-21T21:59:10Z","2026-08-21T21:59:23Z","2026-08-21T21:59:39Z","2026-08-21T22:00:11Z","2026-08-21T22:00:22Z","2026-08-21T22:00:26Z","2026-08-21T22:02:04Z","2026-08-21T22:02:29Z","2026-08-21T22:02:33Z","2026-08-21T22:02:38Z","2026-08-21T22:02:42Z","2026-08-21T22:02:46Z","2026-08-21T22:02:50Z","2026-08-21T22:03:07Z","2026-08-21T22:03:19Z","2026-08-21T22:03:34Z","2026-08-21T22:03:48Z","2026-08-21T22:03:57Z","2026-08-21T22:04:05Z","2026-08-21T22:04:10Z","2026-08-21T22:05:49Z","2026-08-21T22:06:20Z","2026-08-21T22:06:45Z","2026-08-21T22:06:59Z","2026-08-21T22:07:10Z","2026-08-21T22:07:20Z","2026-08-21T22:07:25Z","2026-08-21T22:07:32Z","2026-08-21T22:07:38Z","2026-08-21T22:07:57Z","2026-08-21T22:08:01Z","2026-08-21T22:08:07Z","2026-08-21T22:12:37Z","2026-08-21T22:13:34Z","2026-08-21T22:13:55Z","2026-08-21T22:14:09Z","2026-08-21T22:14:37Z","2026-08-21T22:14:51Z","2026-08-21T22:15:05Z","2026-08-21T22:15:06Z","2026-08-21T22:15:07Z","2026-08-21T22:15:15Z","2026-08-21T22:15:19Z","2026-08-21T22:15:24Z","2026-08-21T22:15:30Z","2026-08-21T22:15:42Z","2026-08-21T22:15:57Z","2026-08-21T22:16:00Z","2026-08-21T22:16:06Z","2026-08-21T22:16:10Z","2026-08-21T22:16:22Z","2026-08-21T22:16:25Z","2026-08-21T22:16:30Z","2026-08-21T22:16:33Z","2026-08-21T22:16:43Z","2026-08-21T22:17:03Z","2026-08-21T22:17:07Z","2026-08-21T22:17:14Z","2026-08-21T22:17:31Z","2026-08-21T22:17:58Z","2026-08-21T22:18:07Z","2026-08-21T22:18:18Z","2026-08-21T22:18:23Z","2026-08-21T22:18:26Z","2026-08-21T22:18:29Z","2026-08-21T22:18:30Z","2026-08-21T22:18:33Z","2026-08-21T22:18:44Z","2026-08-21T22:18:51Z","2026-08-21T22:18:52Z","2026-08-21T22:18:55Z","2026-08-21T22:18:56Z","2026-08-21T22:18:57Z","2026-08-21T22:18:59Z","2026-08-21T22:19:03Z","2026-08-21T22:19:07Z","2026-08-21T22:19:08Z","2026-08-21T22:19:14Z","2026-08-21T22:19:21Z","2026-08-21T22:19:32Z","2026-08-21T22:19:54Z","2026-08-21T22:20:08Z","2026-08-21T22:20:10Z","2026-08-21T22:20:13Z","2026-08-21T22:20:16Z","2026-08-21T22:20:25Z","2026-08-21T22:20:32Z","2026-08-21T22:20:48Z","2026-08-21T22:20:51Z","2026-08-21T22:21:13Z","2026-08-21T22:21:33Z","2026-08-21T22:21:39Z","2026-08-21T22:21:46Z","2026-08-21T22:21:49Z","2026-08-21T22:22:32Z","2026-08-21T22:23:06Z","2026-08-21T22:23:17Z","2026-08-21T22:24:04Z","2026-08-21T22:24:39Z","2026-08-21T22:24:55Z","2026-08-21T22:25:11Z","2026-08-21T22:25:59Z","2026-08-21T22:26:05Z","2026-08-21T22:26:10Z","2026-08-21T22:26:15Z","2026-08-21T22:27:28Z","2026-08-21T22:27:33Z","2026-08-21T22:27:37Z","2026-08-21T22:28:07Z","2026-08-21T22:28:39Z","2026-08-21T22:28:50Z","2026-08-21T22:29:00Z","2026-08-21T22:29:11Z","2026-08-21T22:29:14Z","2026-08-21T22:29:24Z","2026-08-21T22:29:30Z","2026-08-21T22:29:36Z","2026-08-21T22:29:51Z","2026-08-21T22:29:59Z","2026-08-21T22:30:07Z","2026-08-21T22:30:15Z","2026-08-21T22:30:26Z","2026-08-21T22:30:33Z","2026-08-21T22:30:44Z","2026-08-21T22:30:50Z","2026-08-21T22:31:05Z","2026-08-21T22:31:17Z","2026-08-21T22:31:26Z","2026-08-21T22:31:32Z","2026-08-21T22:31:34Z","2026-08-21T22:31:35Z","2026-08-21T22:31:39Z","2026-08-21T22:31:44Z","2026-08-21T22:31:52Z","2026-08-21T22:32:00Z","2026-08-21T22:32:18Z","2026-08-21T22:32:36Z","2026-08-21T22:32:38Z","2026-08-21T22:32:44Z","2026-08-21T22:32:47Z","2026-08-21T22:32:53Z","2026-08-21T22:32:56Z","2026-08-21T22:33:04Z","2026-08-21T22:33:07Z","2026-08-21T22:33:12Z","2026-08-21T22:33:16Z","2026-08-21T22:33:29Z","2026-08-21T22:33:33Z","2026-08-21T22:33:37Z","2026-08-21T22:33:38Z","2026-08-21T22:33:43Z","2026-08-21T22:33:44Z","2026-08-21T22:33:47Z","2026-08-21T22:33:52Z","2026-08-21T22:34:01Z","2026-08-21T22:34:08Z","2026-08-21T22:34:14Z","2026-08-21T22:34:21Z","2026-08-21T22:34:39Z","2026-08-21T22:34:47Z","2026-08-21T22:34:48Z","2026-08-21T22:34:50Z","2026-08-21T22:35:03Z","2026-08-21T22:35:05Z","2026-08-21T22:35:11Z","2026-08-21T22:35:25Z","2026-08-21T22:35:33Z","2026-08-21T22:35:42Z","2026-08-21T22:35:49Z","2026-08-21T22:35:52Z","2026-08-21T22:35:57Z","2026-08-21T22:36:00Z","2026-08-21T22:36:06Z","2026-08-21T22:36:11Z","2026-08-21T22:36:16Z","2026-08-21T22:36:21Z","2026-08-21T22:36:25Z","2026-08-21T22:36:32Z","2026-08-21T22:36:35Z","2026-08-21T22:36:36Z","2026-08-21T22:36:42Z","2026-08-21T22:36:55Z","2026-08-21T22:37:03Z","2026-08-21T22:37:08Z","2026-08-21T22:37:14Z","2026-08-21T22:37:23Z","2026-08-21T22:37:29Z","2026-08-21T22:37:40Z","2026-08-21T22:37:52Z","2026-08-21T22:37:54Z","2026-08-21T22:38:06Z","2026-08-21T22:38:14Z","2026-08-21T22:38:16Z","2026-08-21T22:38:17Z","2026-08-21T22:38:29Z","2026-08-21T22:38:30Z","2026-08-21T22:38:45Z","2026-08-21T22:38:47Z","2026-08-21T22:38:48Z","2026-08-21T22:39:01Z","2026-08-21T22:39:03Z","2026-08-21T22:39:04Z","2026-08-21T22:39:13Z","2026-08-21T22:39:21Z","2026-08-21T22:39:34Z","2026-08-21T22:39:38Z","2026-08-21T22:39:45Z","2026-08-21T22:39:50Z","2026-08-21T22:39:57Z","2026-08-21T22:40:04Z","2026-08-21T22:40:13Z","2026-08-21T22:40:26Z","2026-08-21T22:40:32Z","2026-08-21T22:40:47Z","2026-08-21T22:40:58Z","2026-08-21T22:41:00Z","2026-08-21T22:41:20Z","2026-08-21T22:41:30Z","2026-08-21T22:41:38Z","2026-08-21T22:41:42Z","2026-08-21T22:41:52Z","2026-08-21T22:41:54Z","2026-08-21T22:41:58Z","2026-08-21T22:42:02Z","2026-08-21T22:42:10Z","2026-08-21T22:42:35Z","2026-08-21T22:42:41Z","2026-08-21T22:42:45Z","2026-08-21T22:42:50Z","2026-08-21T22:42:53Z","2026-08-21T22:42:59Z","2026-08-21T22:43:07Z","2026-08-21T22:43:13Z","2026-08-21T22:43:18Z","2026-08-21T22:43:25Z","2026-08-21T22:45:19Z","2026-08-21T22:45:35Z","2026-08-21T22:45:39Z","2026-08-21T22:45:40Z","2026-08-21T22:45:47Z","2026-08-21T22:45:58Z","2026-08-21T22:46:00Z","2026-08-21T22:46:21Z","2026-08-21T22:46:34Z","2026-08-21T22:46:38Z","2026-08-21T22:47:02Z","2026-08-21T22:47:15Z","2026-08-21T22:47:36Z","2026-08-21T22:47:42Z","2026-08-21T22:47:55Z","2026-08-21T22:47:59Z","2026-08-21T22:48:00Z","2026-08-21T22:48:06Z","2026-08-21T22:48:19Z","2026-08-21T22:48:37Z","2026-08-21T22:48:48Z","2026-08-21T22:49:01Z","2026-08-21T22:49:08Z","2026-08-21T22:49:15Z","2026-08-21T22:49:27Z","2026-08-21T22:49:34Z","2026-08-21T22:49:42Z","2026-08-21T22:49:45Z","2026-08-21T22:49:59Z","2026-08-21T22:50:00Z","2026-08-21T22:50:03Z","2026-08-21T22:50:18Z","2026-08-21T22:50:20Z","2026-08-21T22:50:21Z","2026-08-21T22:50:29Z","2026-08-21T22:50:34Z","2026-08-21T22:50:42Z","2026-08-21T22:50:43Z","2026-08-21T22:50:56Z","2026-08-21T22:51:06Z","2026-08-21T22:51:12Z","2026-08-21T22:51:18Z","2026-08-21T22:51:24Z","2026-08-21T22:51:33Z","2026-08-21T22:51:40Z","2026-08-21T22:51:50Z","2026-08-21T22:51:55Z","2026-08-21T22:52:08Z","2026-08-21T22:52:12Z","2026-08-21T22:52:28Z","2026-08-21T22:53:02Z","2026-08-21T22:53:06Z","2026-08-21T22:53:09Z","2026-08-21T22:53:12Z","2026-08-21T22:53:14Z","2026-08-21T22:53:22Z","2026-08-21T22:53:24Z","2026-08-21T22:53:26Z","2026-08-21T22:53:30Z","2026-08-21T22:53:32Z","2026-08-21T22:53:37Z","2026-08-21T22:53:38Z","2026-08-21T22:54:16Z","2026-08-21T22:54:23Z","2026-08-21T22:54:26Z","2026-08-21T22:54:28Z","2026-08-21T22:54:45Z","2026-08-21T22:54:47Z","2026-08-21T22:54:55Z","2026-08-21T22:55:00Z","2026-08-21T22:55:02Z","2026-08-21T22:55:03Z","2026-08-21T22:55:10Z","2026-08-21T22:55:24Z","2026-08-21T22:55:25Z","2026-08-21T22:56:07Z","2026-08-21T22:57:22Z","2026-08-21T22:57:26Z","2026-08-21T22:57:29Z","2026-08-21T22:58:04Z","2026-08-21T22:58:27Z","2026-08-21T22:58:41Z","2026-08-21T22:59:16Z","2026-08-21T22:59:24Z","2026-08-21T22:59:29Z","2026-08-21T22:59:36Z","2026-08-21T22:59:49Z","2026-08-21T22:59:56Z","2026-08-21T23:00:03Z","2026-08-21T23:00:10Z","2026-08-21T23:00:27Z","2026-08-21T23:00:33Z","2026-08-21T23:00:40Z","2026-08-21T23:00:47Z","2026-08-21T23:00:51Z","2026-08-21T23:00:56Z","2026-08-21T23:01:04Z","2026-08-21T23:01:08Z","2026-08-21T23:01:13Z","2026-08-21T23:01:17Z","2026-08-21T23:01:22Z","2026-08-21T23:01:24Z","2026-08-21T23:01:29Z","2026-08-21T23:01:33Z","2026-08-21T23:01:38Z","2026-08-21T23:01:45Z","2026-08-21T23:01:54Z","2026-08-21T23:02:03Z","2026-08-21T23:02:08Z","2026-08-21T23:02:16Z","2026-08-21T23:02:18Z","2026-08-21T23:02:27Z","2026-08-21T23:02:30Z","2026-08-21T23:02:41Z","2026-08-21T23:02:45Z","2026-08-21T23:03:07Z","2026-08-21T23:03:16Z","2026-08-21T23:03:37Z","2026-08-21T23:03:42Z","2026-08-21T23:03:46Z","2026-08-21T23:03:50Z","2026-08-21T23:03:57Z","2026-08-21T23:04:01Z","2026-08-21T23:04:07Z","2026-08-21T23:04:13Z","2026-08-21T23:04:21Z","2026-08-21T23:04:26Z","2026-08-21T23:04:41Z","2026-08-21T23:04:51Z","2026-08-21T23:04:52Z","2026-08-21T23:05:08Z","2026-08-21T23:05:24Z","2026-08-21T23:05:43Z","2026-08-21T23:05:53Z","2026-08-21T23:05:54Z","2026-08-21T23:05:59Z","2026-08-21T23:06:06Z","2026-08-21T23:06:21Z","2026-08-21T23:06:26Z","2026-08-21T23:06:37Z","2026-08-21T23:06:42Z","2026-08-21T23:06:49Z","2026-08-21T23:07:01Z","2026-08-21T23:07:13Z","2026-08-21T23:07:26Z","2026-08-21T23:07:43Z","2026-08-21T23:07:54Z","2026-08-21T23:08:03Z","2026-08-21T23:08:10Z","2026-08-21T23:08:12Z","2026-08-21T23:08:15Z","2026-08-21T23:08:16Z"],"heartRates":[105,105,101,101,97,95,94,93,92,86,91,91,90,90,90,93,87,92,92,85,85,89,86,88,86,85,87,85,84,89,89,81,85,86,86,89,89,88,88,88,88,88,81,82,82,82,82,82,82,82,84,85,87,86,86,85,86,80,80,76,78,78,78,84,86,92,81,82,84,80,81,81,83,80,80,81,84,85,85,85,88,86,87,81,76,77,83,82,84,84,80,78,77,77,80,80,80,85,85,83,80,75,76,72,77,77,79,82,81,80,80,81,80,80,78,78,78,78,81,80,79,85,80,74,80,80,83,77,81,81,77,78,79,85,82,81,72,72,72,82,85,85,84,82,81,81,78,82,84,76,80,80,80,79,81,76,84,79,79,88,85,85,84,85,85,85,85,85,84,84,84,84,83,83,81,82,85,87,77,79,77,77,77,77,80,77,77,82,82,85,83,83,76,82,85,80,76,78,82,77,80,80,82,77,76,75,79,74,77,76,76,76,78,77,77,78,81,82,83,82,80,77,78,77,77,77,76,76,76,78,78,81,74,76,86,86,85,85,83,83,80,80,80,80,79,82,82,82,82,82,83,83,83,77,75,75,77,80,80,80,89,89,83,74,73,73,73,73,74,74,74,79,81,80,80,77,77,77,86,79,77,77,75,74,73,76,80,80,80,79,80,80,82,82,85,84,84,80,80,79,77,77,75,74,74,76,78,76,76,78,81,77,76,76,75,83,82,81,81,81,81,79,78,78,78,78,80,80,82,82,82,79,80,79,80,80,80,82,80,80,77,74,74,79,78,76,76,81,79,81,82,79,81,81,79,79,79,76,77,75,75,79,79,80,79,79,80,82,82,82,82,80,80,81,81,77,78,80,81,83,83,85,84,76,78,78,83,83,97,100,100,99,99,101,99,84,79,80,80,78,78,81,78,78,78,79,74,76,79,80,82,82,78,79,83,78,77,77,77,79,80,80,82,80,77,76,76,76,78,81,81,81,80,82,82,77,77,77,77,77,76,77,78,78,74,75,78,78,80,80,79,78,78,80,79,76,76,76,76,75,75,77,77,74,75,75,78,78,79,80,81,78,80,75,75,77,79,80,88,96,94,93,92,92,92],"month":"2026-08-01"},"geometry":{"type":"LineString","coordinates":[[-84.625393,9.778273,14.4],[-84.625386,9.778273,14.4],[-84.625387,9.778286,14.4],[-84.625375,9.778293,14.4],[-84.625382,9.778325,14.1],[-84.625373,9.778329,14.1],[-84.625379,9.778331,14.1],[-84.625368,9.778342,13.9],[-84.625369,9.778332,14.1],[-84.625376,9.778336,14.1],[-84.625375,9.77836,13.9],[-84.62538,9.778355,13.9],[-84.625382,9.778371,13.9],[-84.625384,9.778363,13.9],[-84.62538,9.778372,13.9],[-84.625323,9.778402,13.8],[-84.624874,9.778498,16.7],[-84.624658,9.778564,19],[-84.624616,9.778586,19],[-84.624402,9.77866,19],[-84.624221,9.778734,18],[-84.624171,9.77874,17.6],[-84.624183,9.778728,17.6],[-84.624317,9.778703,18.7],[-84.624287,9.778838,18.6],[-84.624291,9.778891,19.3],[-84.624299,9.778899,19.4],[-84.624318,9.778897,19.4],[-84.624312,9.778887,19],[-84.624319,9.77889,19.4],[-84.624319,9.778883,19],[-84.624298,9.778877,19],[-84.624314,9.778888,19],[-84.624331,9.778857,19],[-84.624318,9.778847,19],[-84.624105,9.778867,18],[-84.624093,9.778875,18],[-84.623998,9.77889,18.3],[-84.623957,9.778909,17.8],[-84.623893,9.77892,16.5],[-84.623822,9.778919,15.2],[-84.623806,9.778928,15.2],[-84.623287,9.779064,13.3],[-84.623093,9.779136,13.1],[-84.62308,9.779133,13.1],[-84.622871,9.779199,12.8],[-84.6228,9.779208,12.3],[-84.622758,9.779226,11.9],[-84.622713,9.779235,11.8],[-84.622704,9.779228,11.6],[-84.622291,9.779354,14.2],[-84.622067,9.779307,15],[-84.621881,9.779308,17.9],[-84.621547,9.779375,17.3],[-84.621433,9.779418,16.6],[-84.621236,9.779456,12.9],[-84.621131,9.779464,11.4],[-84.620977,9.779512,10.9],[-84.620979,9.779506,10.9],[-84.620984,9.779513,10.9],[-84.62098,9.779524,11.3],[-84.62098,9.779515,10.9],[-84.62097,9.779518,10.9],[-84.620983,9.779521,10.9],[-84.620975,9.779519,10.9],[-84.620979,9.779527,11.3],[-84.620977,9.779509,10.9],[-84.620971,9.779513,10.9],[-84.620977,9.779524,11.3],[-84.620973,9.779529,11.3],[-84.620939,9.779486,10.9],[-84.620922,9.77949,10.9],[-84.620892,9.779459,10.9],[-84.620857,9.77947,11.4],[-84.620282,9.779324,17.1],[-84.620163,9.779358,16.5],[-84.620035,9.77943,15],[-84.619959,9.779511,13],[-84.619859,9.77966,11.3],[-84.619852,9.779702,11.3],[-84.619857,9.77975,11.6],[-84.619887,9.779874,12.3],[-84.61992,9.779969,13.5],[-84.620004,9.780147,15],[-84.620315,9.780737,16.8],[-84.620356,9.780794,17.5],[-84.620362,9.780821,17.5],[-84.620373,9.780823,17.5],[-84.620419,9.781005,19],[-84.620449,9.78103,19.3],[-84.620462,9.78123,19.4],[-84.620471,9.781256,19.4],[-84.620469,9.781298,18.9],[-84.62044,9.781394,17.4],[-84.620373,9.78156,15.9],[-84.620375,9.781555,15.9],[-84.620362,9.781586,15.9],[-84.620455,9.781944,12],[-84.620498,9.782021,12],[-84.620552,9.782176,12.6],[-84.620576,9.782321,13],[-84.620642,9.782503,12.8],[-84.620685,9.782598,12.3],[-84.620712,9.78264,11.8],[-84.620773,9.783131,11.1],[-84.620741,9.78351,11.5],[-84.620719,9.783583,11.1],[-84.620675,9.783629,11.2],[-84.620615,9.783658,11.2],[-84.620578,9.78371,11.1],[-84.620533,9.783738,11.1],[-84.620391,9.783854,12.4],[-84.620337,9.783915,12.8],[-84.62029,9.783985,13.3],[-84.620239,9.7841,14],[-84.620173,9.784214,13.3],[-84.62008,9.784326,12.7],[-84.620011,9.78439,12.2],[-84.619338,9.784695,13.1],[-84.619014,9.784823,14],[-84.618647,9.784867,13.7],[-84.618549,9.784858,13.9],[-84.618512,9.78484,13.9],[-84.61842,9.784879,14.3],[-84.618373,9.784911,14.6],[-84.618304,9.784941,15],[-84.618233,9.784958,14.6],[-84.61801,9.78505,14.2],[-84.617979,9.785057,14],[-84.617931,9.785055,14.1],[-84.617867,9.78514,14.1],[-84.617373,9.785528,14.3],[-84.617078,9.785684,12.7],[-84.616862,9.785785,11.6],[-84.616442,9.786045,10.1],[-84.616262,9.786189,10.5],[-84.616171,9.786289,11.6],[-84.616168,9.78628,11.6],[-84.616156,9.786282,11.6],[-84.6161,9.786361,12],[-84.616065,9.786389,12.2],[-84.616024,9.786449,12.4],[-84.615954,9.786524,13],[-84.61591,9.786606,13],[-84.615951,9.786505,13],[-84.615979,9.786475,12.7],[-84.615995,9.786439,12.7],[-84.615985,9.786427,12.7],[-84.61595,9.78643,12.9],[-84.615945,9.786419,12.9],[-84.615937,9.786424,12.9],[-84.615938,9.786419,12.9],[-84.615929,9.786451,12.9],[-84.615827,9.786596,13.1],[-84.6158,9.786621,13.1],[-84.61577,9.786667,13],[-84.615728,9.786687,13.2],[-84.615715,9.786712,13.2],[-84.615721,9.786709,13.2],[-84.615724,9.786687,13.2],[-84.615711,9.786685,13.5],[-84.615727,9.786694,13.2],[-84.615711,9.786683,13.5],[-84.615712,9.786688,13.5],[-84.615709,9.786679,13.5],[-84.615723,9.786688,13.2],[-84.615719,9.786699,13.2],[-84.615725,9.786704,13.2],[-84.615716,9.786722,13.2],[-84.615709,9.786723,13.5],[-84.615712,9.78674,13.5],[-84.615699,9.786765,13.5],[-84.615685,9.786825,13.4],[-84.615659,9.786881,13.4],[-84.615649,9.786886,13.3],[-84.61561,9.786969,12.9],[-84.615582,9.787082,12.5],[-84.615524,9.787234,12.5],[-84.615362,9.787512,11.5],[-84.615231,9.78768,12],[-84.615212,9.787714,11.8],[-84.615175,9.787739,11.8],[-84.615155,9.787744,11.8],[-84.615071,9.787827,11.8],[-84.615005,9.787876,11.8],[-84.614945,9.787902,11.8],[-84.614962,9.787907,11.8],[-84.614963,9.787901,11.8],[-84.614951,9.787899,11.8],[-84.614966,9.787905,11.8],[-84.614969,9.787898,11.8],[-84.614958,9.787903,11.8],[-84.614969,9.787915,11.8],[-84.614957,9.787905,11.8],[-84.61496,9.787893,11.9],[-84.614957,9.787916,11.8],[-84.614954,9.787884,11.9],[-84.614964,9.787888,11.9],[-84.614964,9.787902,11.8],[-84.614974,9.78791,11.8],[-84.614961,9.787901,11.8],[-84.614964,9.787894,11.9],[-84.614948,9.787894,11.9],[-84.614968,9.787904,11.8],[-84.614981,9.787898,11.8],[-84.614978,9.787911,11.8],[-84.614949,9.78793,11.8],[-84.614971,9.787917,11.8],[-84.615025,9.787863,11.8],[-84.615134,9.78778,11.8],[-84.615267,9.787654,11.8],[-84.615321,9.787614,11.7],[-84.615444,9.787558,11],[-84.615487,9.787476,11],[-84.615533,9.787349,11.9],[-84.615649,9.786973,12.9],[-84.615748,9.786777,13.2],[-84.615874,9.786593,13.1],[-84.616018,9.786421,12.4],[-84.616236,9.7862,10.5],[-84.616386,9.786072,9.9],[-84.616633,9.78589,10.1],[-84.616776,9.785797,11],[-84.617156,9.785599,13.2],[-84.617445,9.785425,14.9],[-84.61764,9.785262,15],[-84.617782,9.785166,14.1],[-84.617842,9.785143,14.1],[-84.617861,9.785124,14.1],[-84.617952,9.785074,14],[-84.618066,9.785024,14.3],[-84.618263,9.784954,14.8],[-84.618482,9.784898,14.1],[-84.618991,9.78479,13.9],[-84.619519,9.784695,11.6],[-84.619574,9.784676,11.6],[-84.619744,9.78464,10.7],[-84.619826,9.784615,11],[-84.619985,9.78455,11.8],[-84.620059,9.784509,12],[-84.620243,9.784372,12.6],[-84.620305,9.784312,13.4],[-84.620399,9.784204,13.9],[-84.620467,9.78411,13.6],[-84.620659,9.783812,11.8],[-84.62073,9.78369,11.5],[-84.62078,9.783587,11.5],[-84.620796,9.783568,11.5],[-84.620849,9.78343,12],[-84.620849,9.783404,12],[-84.620875,9.783323,12],[-84.620886,9.783173,11.5],[-84.620881,9.782898,11],[-84.62086,9.782679,11.4],[-84.620821,9.782495,12.2],[-84.620763,9.782277,12.3],[-84.620598,9.781735,12.9],[-84.620547,9.781545,15.4],[-84.620535,9.781534,15.4],[-84.620511,9.781473,16.2],[-84.620425,9.781146,19.6],[-84.620403,9.781101,19.4],[-84.620363,9.780954,18.3],[-84.620243,9.780642,16.1],[-84.620141,9.780436,15.6],[-84.620004,9.780188,15],[-84.619913,9.779981,13.4],[-84.619882,9.779889,12.3],[-84.619842,9.779727,11.3],[-84.619836,9.779635,11.5],[-84.619852,9.779476,12.4],[-84.61991,9.779393,13.4],[-84.619986,9.779331,15.1],[-84.620085,9.779287,16.2],[-84.620179,9.779263,17.5],[-84.620353,9.779237,17.1],[-84.620434,9.779243,16.2],[-84.62046,9.779231,16.2],[-84.620623,9.779258,13.8],[-84.620931,9.779338,9.9],[-84.621079,9.779366,9.7],[-84.621184,9.779375,11.2],[-84.621314,9.779365,13.8],[-84.621526,9.779325,17.2],[-84.621679,9.779306,18.5],[-84.621971,9.779292,17],[-84.62232,9.779256,12.1],[-84.62238,9.779244,11.7],[-84.622727,9.779213,11.7],[-84.622945,9.779166,13.4],[-84.622996,9.779145,13.7],[-84.623027,9.77914,13.1],[-84.623348,9.779031,13.2],[-84.623379,9.779026,13.2],[-84.623772,9.778866,13.7],[-84.623814,9.778857,14.2],[-84.623846,9.778841,14.2],[-84.624192,9.778727,17.6],[-84.62425,9.778691,17.8],[-84.624278,9.77869,18.3],[-84.624535,9.778622,19],[-84.624764,9.778582,18.3],[-84.625136,9.778543,14.3],[-84.625255,9.778539,13.6],[-84.62545,9.77855,13.4],[-84.625592,9.778573,14.2],[-84.625774,9.77863,14.7],[-84.625949,9.778721,14.8],[-84.626156,9.778873,15],[-84.626433,9.779106,13.4],[-84.626571,9.779208,12.8],[-84.626939,9.779418,13.8],[-84.627238,9.779542,17.3],[-84.627295,9.779574,16.9],[-84.627883,9.779794,12.5],[-84.628156,9.779879,14],[-84.628355,9.779956,14.6],[-84.628453,9.779985,14.8],[-84.628689,9.780083,13.2],[-84.628735,9.780096,13.4],[-84.628825,9.780136,13.8],[-84.628923,9.780168,14.5],[-84.629103,9.780242,17.6],[-84.629657,9.780494,22],[-84.629796,9.780577,21.9],[-84.629882,9.780649,21.7],[-84.629985,9.780752,21.6],[-84.63004,9.780825,21.5],[-84.630133,9.780979,21.3],[-84.630225,9.78119,20.2],[-84.630271,9.781343,19.2],[-84.630317,9.781456,18.3],[-84.630389,9.781556,16.8],[-84.630689,9.781814,13.1],[-84.630748,9.782078,11.1],[-84.630773,9.78213,11.8],[-84.630772,9.782147,12.5],[-84.630812,9.782255,14.9],[-84.630869,9.782455,18.7],[-84.630874,9.782494,18.9],[-84.631011,9.782911,17.4],[-84.631074,9.783209,14.5],[-84.631083,9.783308,15.7],[-84.6311,9.783874,18.4],[-84.631127,9.784104,22.1],[-84.631206,9.784436,21.2],[-84.631248,9.784554,20.7],[-84.631379,9.78481,16.7],[-84.631433,9.784884,14.9],[-84.631452,9.784893,14.9],[-84.631553,9.785006,12.2],[-84.631831,9.785231,12.9],[-84.63219,9.785463,12.1],[-84.632382,9.78557,11.9],[-84.632658,9.785686,11.6],[-84.632818,9.785741,11.3],[-84.632985,9.78578,11.2],[-84.633269,9.785818,10.8],[-84.633444,9.785815,10.5],[-84.633636,9.785833,10.3],[-84.633709,9.785847,10.2],[-84.634041,9.785883,10],[-84.634064,9.785893,10],[-84.634136,9.785889,10],[-84.634489,9.785911,10],[-84.634526,9.785899,9.9],[-84.634554,9.785905,9.9],[-84.634733,9.785889,9.9],[-84.63484,9.78586,9.8],[-84.635007,9.7858,9],[-84.635029,9.785798,9],[-84.635294,9.78568,9.6],[-84.635499,9.78561,9.5],[-84.635613,9.785562,9.4],[-84.635703,9.785496,9.4],[-84.635758,9.785421,9.2],[-84.635788,9.785281,8.7],[-84.635764,9.785194,8.4],[-84.635703,9.785095,7.9],[-84.635665,9.78505,7.8],[-84.635574,9.784975,7.6],[-84.635556,9.784967,7.6],[-84.635571,9.784958,7.6],[-84.635552,9.784928,7.5],[-84.635547,9.784932,7.5],[-84.635553,9.784942,7.6],[-84.635535,9.784941,7.6],[-84.635541,9.784939,7.6],[-84.635535,9.784907,7.5],[-84.635542,9.784897,7.5],[-84.635532,9.784908,7.5],[-84.635548,9.784905,7.5],[-84.635572,9.784915,7.5],[-84.635565,9.784928,7.5],[-84.635568,9.784923,7.5],[-84.635574,9.784951,7.6],[-84.635575,9.784945,7.6],[-84.635567,9.784951,7.6],[-84.635571,9.784946,7.6],[-84.635578,9.784959,7.6],[-84.635572,9.784965,7.6],[-84.635572,9.784959,7.6],[-84.635571,9.784965,7.6],[-84.635571,9.784958,7.6],[-84.63557,9.784966,7.6],[-84.635575,9.78496,7.6],[-84.635565,9.784957,7.6],[-84.635562,9.784963,7.6],[-84.635571,9.784963,7.6],[-84.635571,9.784946,7.6],[-84.635566,9.784947,7.6],[-84.635572,9.784945,7.6],[-84.63556,9.784957,7.6],[-84.635571,9.784936,7.6],[-84.63555,9.784928,7.5],[-84.63579,9.785072,8],[-84.635877,9.785103,8],[-84.635902,9.785129,8.2],[-84.635898,9.785208,8.5],[-84.635824,9.785353,8.9],[-84.635747,9.785443,9.1],[-84.635643,9.785523,9.3],[-84.63551,9.785582,9.5],[-84.635098,9.785712,9.6],[-84.634905,9.785762,9.6],[-84.634632,9.785815,9.7],[-84.634292,9.785859,9.8],[-84.63408,9.785872,10],[-84.633813,9.785874,10.2],[-84.633399,9.785829,10.6],[-84.633199,9.7858,10.9],[-84.632943,9.785752,11.2],[-84.632738,9.785702,11.4],[-84.632486,9.785615,11.7],[-84.632391,9.785567,11.9],[-84.632161,9.78543,12.3],[-84.631983,9.785308,12.7],[-84.631797,9.785151,13.1],[-84.631651,9.785015,12.2],[-84.63151,9.784867,15.4],[-84.631371,9.7847,19.2],[-84.631316,9.784606,20.2],[-84.631266,9.784453,21.7],[-84.631261,9.784408,22.2],[-84.631211,9.784209,23],[-84.631206,9.784136,22.5],[-84.631148,9.783869,18.7],[-84.631134,9.783764,18.7],[-84.630967,9.783041,13.7],[-84.630844,9.782649,18.8],[-84.63053,9.781794,14.1],[-84.630449,9.781598,16.3],[-84.630372,9.781445,18.3],[-84.630285,9.781302,19.4],[-84.630123,9.78106,20.3],[-84.630018,9.780935,20.5],[-84.629844,9.780758,20.8],[-84.629645,9.780589,22],[-84.629354,9.780385,21.3],[-84.629188,9.780283,18.6],[-84.6287,9.780048,13.8],[-84.62836,9.779916,14.9],[-84.628325,9.779896,15.1],[-84.627792,9.779708,13],[-84.627273,9.77954,17.7],[-84.626782,9.779347,12.3],[-84.626551,9.779237,12.3],[-84.626529,9.779218,12.8],[-84.626412,9.779153,13.1],[-84.626282,9.779056,14],[-84.62596,9.778856,14.4],[-84.625862,9.778779,14.3],[-84.625694,9.77861,14.3],[-84.625623,9.778549,14.3],[-84.62553,9.778485,13.9],[-84.625422,9.778394,13.8],[-84.625374,9.778341,13.9],[-84.625373,9.77832,14.1],[-84.625397,9.778283,14.4],[-84.625385,9.778291,14.4],[-84.625389,9.778288,14.4],[-84.625362,9.778288,14.4],[-84.625348,9.778266,14.4],[-84.625312,9.778264,14.5],[-84.625307,9.778256,14.5]]}}]}