<?xml version="1.0" encoding="UTF-8"?>
<gpx version="1.1" creator="GPSBabel - https://www.gpsbabel.org" xmlns="http://www.topografix.com/GPX/1/1" xmlns:xsi="http://www.w3.org/2001/XMLSchema-instance" xmlns:gpxtpx="http://www.garmin.com/xmlschemas/TrackPointExtension/v1" xmlns:gpxx="http://www.garmin.com/xmlschemas/GpxExtensions/v3" xmlns:gpxpx="http://www.garmin.com/xmlschemas/PowerExtension/v1" xmlns:gpx_style="http://www.topografix.com/GPX/gpx_style/0/2">
  <metadata>
    <name>gps4cam trip started at 2018-02-27 15-02 decoded at 2018-02-28 00-19-43</name>
    <link href="http://gps4cam.com">
      <text>gps4cam</text>
    </link>
    <time>2025-09-10T14:19:32.131Z</time>
    <bounds minlat="19.079855376" minlon="-69.465677923" maxlat="19.080609861" maxlon="-69.464546189"/>
  </metadata>
  <trk>
    <name>gps4cam trip started at: 2018-02-27T14:02:51Z</name>
    <trkseg>
      <trkpt lat="19.080609861" lon="-69.464546189">
        <time>2018-02-27T16:07:40Z</time>
      </trkpt>
      <trkpt lat="19.080461146" lon="-69.464564517">
        <time>2018-02-27T16:07:51Z</time>
      </trkpt>
      <trkpt lat="19.080320433" lon="-69.464566481">
        <time>2018-02-27T16:08:25Z</time>
      </trkpt>
      <trkpt lat="19.080329026" lon="-69.464717203">
        <time>2018-02-27T16:09:26Z</time>
      </trkpt>
      <trkpt lat="19.080228831" lon="-69.464817947">
        <time>2018-02-27T16:09:40Z</time>
      </trkpt>
      <trkpt lat="19.080248529" lon="-69.464961982">
        <time>2018-02-27T16:10:28Z</time>
      </trkpt>
      <trkpt lat="19.080331678" lon="-69.465069738">
        <time>2018-02-27T16:11:16Z</time>
      </trkpt>
      <trkpt lat="19.080440144" lon="-69.465173799">
        <time>2018-02-27T16:11:31Z</time>
      </trkpt>
      <trkpt lat="19.080326861" lon="-69.465082261">
        <time>2018-02-27T16:16:48Z</time>
      </trkpt>
      <trkpt lat="19.079855376" lon="-69.465677923">
        <time>2018-02-27T16:27:01Z</time>
      </trkpt>
      <trkpt lat="19.080325204" lon="-69.465627927">
        <time>2018-02-27T16:27:15Z</time>
      </trkpt>
      <trkpt lat="19.080273983" lon="-69.465468230">
        <time>2018-02-27T16:27:40Z</time>
      </trkpt>
      <trkpt lat="19.080593437" lon="-69.465183511">
        <time>2018-02-27T16:32:56Z</time>
      </trkpt>
      <trkpt lat="19.080481787" lon="-69.465083291">
        <time>2018-02-27T16:33:20Z</time>
      </trkpt>
      <trkpt lat="19.080390717" lon="-69.464978379">
        <time>2018-02-27T16:33:32Z</time>
      </trkpt>
      <trkpt lat="19.080254821" lon="-69.464967818">
        <time>2018-02-27T16:46:06Z</time>
      </trkpt>
      <trkpt lat="19.080417477" lon="-69.464731311">
        <time>2018-02-27T16:53:24Z</time>
      </trkpt>
      <trkpt lat="19.080431017" lon="-69.464580736">
        <time>2018-02-27T16:55:48Z</time>
      </trkpt>
      <trkpt lat="19.080584308" lon="-69.464590446">
        <time>2018-02-27T16:56:09Z</time>
      </trkpt>
    </trkseg>
  </trk>
</gpx>
