{"type":"FeatureCollection","features":[{"type":"Feature","properties":{"name":"gps4cam trip started at: 2018-02-27T14:02:51Z","time":"2018-02-27T16:07:40Z","coordTimes":["2018-02-27T16:07:40Z","2018-02-27T16:07:51Z","2018-02-27T16:08:25Z","2018-02-27T16:09:26Z","2018-02-27T16:09:40Z","2018-02-27T16:10:28Z","2018-02-27T16:11:16Z","2018-02-27T16:11:31Z","2018-02-27T16:16:48Z","2018-02-27T16:27:01Z","2018-02-27T16:27:15Z","2018-02-27T16:27:40Z","2018-02-27T16:32:56Z","2018-02-27T16:33:20Z","2018-02-27T16:33:32Z","2018-02-27T16:46:06Z","2018-02-27T16:53:24Z","2018-02-27T16:55:48Z","2018-02-27T16:56:09Z"],"type":"randonnée","month":"2018-02-01"},"geometry":{"type":"LineString","coordinates":[[-69.464546189,19.080609861],[-69.464564517,19.080461146],[-69.464566481,19.080320433],[-69.464717203,19.080329026],[-69.464817947,19.080228831],[-69.464961982,19.080248529],[-69.465069738,19.080331678],[-69.465173799,19.080440144],[-69.465082261,19.080326861],[-69.465677923,19.079855376],[-69.465627927,19.080325204],[-69.46546823,19.080273983],[-69.465183511,19.080593437],[-69.465083291,19.080481787],[-69.464978379,19.080390717],[-69.464967818,19.080254821],[-69.464731311,19.080417477],[-69.464580736,19.080431017],[-69.464590446,19.080584308]]}}]}