{"type":"FeatureCollection","features":[{"type":"Feature","properties":{"name":"Un p’tit tour sur les hauteurs de Crosne","type":"gravel","time":"2025-09-18T17:02:30Z","coordTimes":["2025-09-18T17:02:30Z","2025-09-18T17:02:45Z","2025-09-18T17:02:48Z","2025-09-18T17:02:53Z","2025-09-18T17:02:56Z","2025-09-18T17:03:00Z","2025-09-18T17:03:02Z","2025-09-18T17:03:06Z","2025-09-18T17:03:19Z","2025-09-18T17:03:22Z","2025-09-18T17:03:23Z","2025-09-18T17:03:24Z","2025-09-18T17:03:26Z","2025-09-18T17:03:31Z","2025-09-18T17:03:32Z","2025-09-18T17:03:33Z","2025-09-18T17:03:37Z","2025-09-18T17:03:41Z","2025-09-18T17:03:42Z","2025-09-18T17:03:43Z","2025-09-18T17:03:48Z","2025-09-18T17:03:52Z","2025-09-18T17:03:59Z","2025-09-18T17:04:02Z","2025-09-18T17:04:13Z","2025-09-18T17:04:14Z","2025-09-18T17:04:22Z","2025-09-18T17:04:23Z","2025-09-18T17:04:24Z","2025-09-18T17:04:25Z","2025-09-18T17:04:27Z","2025-09-18T17:04:28Z","2025-09-18T17:04:29Z","2025-09-18T17:04:31Z","2025-09-18T17:04:32Z","2025-09-18T17:04:33Z","2025-09-18T17:04:34Z","2025-09-18T17:04:35Z","2025-09-18T17:04:36Z","2025-09-18T17:04:37Z","2025-09-18T17:04:39Z","2025-09-18T17:04:40Z","2025-09-18T17:04:45Z","2025-09-18T17:04:49Z","2025-09-18T17:04:51Z","2025-09-18T17:04:52Z","2025-09-18T17:04:54Z","2025-09-18T17:04:57Z","2025-09-18T17:04:59Z","2025-09-18T17:05:05Z","2025-09-18T17:05:06Z","2025-09-18T17:05:10Z","2025-09-18T17:05:11Z","2025-09-18T17:05:15Z","2025-09-18T17:05:19Z","2025-09-18T17:05:20Z","2025-09-18T17:05:21Z","2025-09-18T17:05:28Z","2025-09-18T17:05:29Z","2025-09-18T17:05:30Z","2025-09-18T17:05:32Z","2025-09-18T17:05:33Z","2025-09-18T17:05:34Z","2025-09-18T17:05:36Z","2025-09-18T17:05:39Z","2025-09-18T17:05:40Z","2025-09-18T17:05:41Z","2025-09-18T17:05:43Z","2025-09-18T17:05:49Z","2025-09-18T17:05:53Z","2025-09-18T17:05:56Z","2025-09-18T17:05:58Z","2025-09-18T17:05:59Z","2025-09-18T17:06:00Z","2025-09-18T17:06:12Z","2025-09-18T17:06:13Z","2025-09-18T17:06:14Z","2025-09-18T17:06:15Z","2025-09-18T17:06:17Z","2025-09-18T17:06:26Z","2025-09-18T17:06:28Z","2025-09-18T17:06:32Z","2025-09-18T17:06:38Z","2025-09-18T17:06:41Z","2025-09-18T17:06:43Z","2025-09-18T17:06:46Z","2025-09-18T17:06:48Z","2025-09-18T17:06:53Z","2025-09-18T17:06:54Z","2025-09-18T17:06:55Z","2025-09-18T17:06:56Z","2025-09-18T17:07:01Z","2025-09-18T17:07:04Z","2025-09-18T17:07:05Z","2025-09-18T17:07:06Z","2025-09-18T17:07:07Z","2025-09-18T17:07:09Z","2025-09-18T17:07:17Z","2025-09-18T17:07:20Z","2025-09-18T17:07:39Z","2025-09-18T17:07:44Z","2025-09-18T17:07:45Z","2025-09-18T17:07:46Z","2025-09-18T17:07:50Z","2025-09-18T17:07:55Z","2025-09-18T17:07:57Z","2025-09-18T17:07:58Z","2025-09-18T17:07:59Z","2025-09-18T17:08:00Z","2025-09-18T17:08:01Z","2025-09-18T17:08:18Z","2025-09-18T17:08:21Z","2025-09-18T17:08:22Z","2025-09-18T17:08:25Z","2025-09-18T17:08:27Z","2025-09-18T17:08:34Z","2025-09-18T17:08:35Z","2025-09-18T17:08:36Z","2025-09-18T17:08:37Z","2025-09-18T17:08:39Z","2025-09-18T17:08:40Z","2025-09-18T17:08:41Z","2025-09-18T17:08:42Z","2025-09-18T17:08:43Z","2025-09-18T17:08:45Z","2025-09-18T17:08:46Z","2025-09-18T17:08:49Z","2025-09-18T17:08:50Z","2025-09-18T17:08:51Z","2025-09-18T17:08:53Z","2025-09-18T17:08:56Z","2025-09-18T17:08:59Z","2025-09-18T17:09:01Z","2025-09-18T17:09:03Z","2025-09-18T17:09:06Z","2025-09-18T17:09:07Z","2025-09-18T17:09:08Z","2025-09-18T17:09:10Z","2025-09-18T17:09:11Z","2025-09-18T17:09:13Z","2025-09-18T17:09:17Z","2025-09-18T17:09:21Z","2025-09-18T17:09:26Z","2025-09-18T17:09:29Z","2025-09-18T17:09:32Z","2025-09-18T17:09:33Z","2025-09-18T17:09:34Z","2025-09-18T17:09:37Z","2025-09-18T17:09:43Z","2025-09-18T17:09:47Z","2025-09-18T17:09:48Z","2025-09-18T17:09:52Z","2025-09-18T17:09:58Z","2025-09-18T17:09:59Z","2025-09-18T17:10:01Z","2025-09-18T17:10:05Z","2025-09-18T17:10:08Z","2025-09-18T17:10:12Z","2025-09-18T17:10:15Z","2025-09-18T17:10:21Z","2025-09-18T17:10:24Z","2025-09-18T17:10:27Z","2025-09-18T17:10:31Z","2025-09-18T17:10:32Z","2025-09-18T17:10:34Z","2025-09-18T17:10:35Z","2025-09-18T17:10:36Z","2025-09-18T17:10:42Z","2025-09-18T17:10:44Z","2025-09-18T17:10:45Z","2025-09-18T17:10:47Z","2025-09-18T17:10:54Z","2025-09-18T17:10:55Z","2025-09-18T17:10:57Z","2025-09-18T17:11:01Z","2025-09-18T17:11:07Z","2025-09-18T17:11:09Z","2025-09-18T17:11:10Z","2025-09-18T17:11:50Z","2025-09-18T17:11:52Z","2025-09-18T17:12:07Z","2025-09-18T17:12:11Z","2025-09-18T17:12:14Z","2025-09-18T17:12:15Z","2025-09-18T17:12:16Z","2025-09-18T17:12:17Z","2025-09-18T17:12:18Z","2025-09-18T17:12:20Z","2025-09-18T17:12:22Z","2025-09-18T17:12:23Z","2025-09-18T17:12:32Z","2025-09-18T17:12:33Z","2025-09-18T17:12:35Z","2025-09-18T17:12:38Z","2025-09-18T17:12:40Z","2025-09-18T17:12:41Z","2025-09-18T17:12:43Z","2025-09-18T17:12:48Z","2025-09-18T17:12:49Z","2025-09-18T17:12:52Z","2025-09-18T17:12:55Z","2025-09-18T17:12:58Z","2025-09-18T17:12:59Z","2025-09-18T17:13:00Z","2025-09-18T17:13:01Z","2025-09-18T17:13:04Z","2025-09-18T17:13:05Z","2025-09-18T17:13:06Z","2025-09-18T17:13:07Z","2025-09-18T17:13:10Z","2025-09-18T17:13:11Z","2025-09-18T17:13:13Z","2025-09-18T17:13:15Z","2025-09-18T17:13:18Z","2025-09-18T17:13:23Z","2025-09-18T17:13:26Z","2025-09-18T17:13:30Z","2025-09-18T17:13:31Z","2025-09-18T17:13:32Z","2025-09-18T17:13:34Z","2025-09-18T17:13:38Z","2025-09-18T17:13:40Z","2025-09-18T17:13:42Z","2025-09-18T17:13:45Z","2025-09-18T17:13:54Z","2025-09-18T17:14:00Z","2025-09-18T17:14:02Z","2025-09-18T17:14:11Z","2025-09-18T17:14:12Z","2025-09-18T17:14:14Z","2025-09-18T17:14:17Z","2025-09-18T17:14:20Z","2025-09-18T17:14:22Z","2025-09-18T17:14:23Z","2025-09-18T17:14:28Z","2025-09-18T17:14:30Z","2025-09-18T17:14:33Z","2025-09-18T17:14:37Z","2025-09-18T17:14:40Z","2025-09-18T17:14:41Z","2025-09-18T17:14:42Z","2025-09-18T17:14:43Z","2025-09-18T17:14:46Z","2025-09-18T17:14:47Z","2025-09-18T17:14:48Z","2025-09-18T17:14:49Z","2025-09-18T17:14:50Z","2025-09-18T17:14:52Z","2025-09-18T17:14:55Z","2025-09-18T17:15:06Z","2025-09-18T17:15:09Z","2025-09-18T17:16:01Z","2025-09-18T17:16:08Z","2025-09-18T17:16:11Z","2025-09-18T17:16:12Z","2025-09-18T17:16:14Z","2025-09-18T17:16:18Z","2025-09-18T17:16:20Z","2025-09-18T17:16:25Z","2025-09-18T17:16:30Z","2025-09-18T17:16:39Z","2025-09-18T17:16:43Z","2025-09-18T17:16:44Z","2025-09-18T17:16:54Z","2025-09-18T17:16:58Z","2025-09-18T17:17:02Z","2025-09-18T17:17:04Z","2025-09-18T17:17:05Z","2025-09-18T17:17:08Z","2025-09-18T17:17:13Z","2025-09-18T17:17:15Z","2025-09-18T17:17:18Z","2025-09-18T17:17:20Z","2025-09-18T17:17:25Z","2025-09-18T17:17:26Z","2025-09-18T17:17:30Z","2025-09-18T17:17:31Z","2025-09-18T17:17:32Z","2025-09-18T17:17:36Z","2025-09-18T17:17:39Z","2025-09-18T17:17:48Z","2025-09-18T17:17:51Z","2025-09-18T17:17:55Z","2025-09-18T17:17:58Z","2025-09-18T17:17:59Z","2025-09-18T17:18:08Z","2025-09-18T17:18:10Z","2025-09-18T17:18:11Z","2025-09-18T17:18:18Z","2025-09-18T17:18:22Z","2025-09-18T17:18:23Z","2025-09-18T17:18:33Z","2025-09-18T17:18:38Z","2025-09-18T17:18:40Z","2025-09-18T17:18:43Z","2025-09-18T17:18:45Z","2025-09-18T17:18:53Z","2025-09-18T17:19:01Z","2025-09-18T17:19:02Z","2025-09-18T17:19:03Z","2025-09-18T17:19:04Z","2025-09-18T17:19:07Z","2025-09-18T17:19:14Z","2025-09-18T17:19:24Z","2025-09-18T17:19:26Z","2025-09-18T17:19:27Z","2025-09-18T17:19:29Z","2025-09-18T17:19:35Z","2025-09-18T17:19:38Z","2025-09-18T17:19:48Z","2025-09-18T17:19:50Z","2025-09-18T17:19:54Z","2025-09-18T17:19:58Z","2025-09-18T17:20:00Z","2025-09-18T17:20:12Z","2025-09-18T17:20:17Z","2025-09-18T17:20:18Z","2025-09-18T17:20:19Z","2025-09-18T17:20:20Z","2025-09-18T17:20:23Z","2025-09-18T17:20:36Z","2025-09-18T17:20:37Z","2025-09-18T17:20:41Z","2025-09-18T17:20:43Z","2025-09-18T17:20:44Z","2025-09-18T17:20:46Z","2025-09-18T17:21:10Z","2025-09-18T17:21:13Z","2025-09-18T17:21:18Z","2025-09-18T17:21:19Z","2025-09-18T17:21:20Z","2025-09-18T17:21:22Z","2025-09-18T17:21:24Z","2025-09-18T17:21:30Z","2025-09-18T17:21:32Z","2025-09-18T17:21:34Z","2025-09-18T17:21:36Z","2025-09-18T17:21:39Z","2025-09-18T17:21:56Z","2025-09-18T17:21:59Z","2025-09-18T17:22:05Z","2025-09-18T17:22:07Z","2025-09-18T17:22:09Z","2025-09-18T17:22:11Z","2025-09-18T17:22:12Z","2025-09-18T17:22:13Z","2025-09-18T17:22:15Z","2025-09-18T17:22:18Z","2025-09-18T17:22:21Z","2025-09-18T17:22:25Z","2025-09-18T17:22:29Z","2025-09-18T17:22:31Z","2025-09-18T17:22:33Z","2025-09-18T17:22:36Z","2025-09-18T17:22:38Z","2025-09-18T17:22:41Z","2025-09-18T17:22:42Z","2025-09-18T17:22:43Z","2025-09-18T17:22:44Z","2025-09-18T17:22:45Z","2025-09-18T17:22:47Z","2025-09-18T17:22:50Z","2025-09-18T17:22:52Z","2025-09-18T17:22:54Z","2025-09-18T17:23:00Z","2025-09-18T17:23:04Z","2025-09-18T17:23:06Z","2025-09-18T17:23:08Z","2025-09-18T17:23:13Z","2025-09-18T17:23:14Z","2025-09-18T17:23:17Z","2025-09-18T17:23:19Z","2025-09-18T17:23:22Z","2025-09-18T17:23:23Z","2025-09-18T17:23:24Z","2025-09-18T17:23:25Z","2025-09-18T17:23:26Z","2025-09-18T17:23:27Z","2025-09-18T17:23:28Z","2025-09-18T17:23:29Z","2025-09-18T17:23:30Z","2025-09-18T17:23:31Z","2025-09-18T17:23:34Z","2025-09-18T17:23:47Z","2025-09-18T17:23:54Z","2025-09-18T17:23:56Z","2025-09-18T17:24:01Z","2025-09-18T17:24:03Z","2025-09-18T17:24:04Z","2025-09-18T17:24:05Z","2025-09-18T17:24:06Z","2025-09-18T17:24:09Z","2025-09-18T17:24:15Z","2025-09-18T17:24:22Z","2025-09-18T17:24:26Z","2025-09-18T17:24:32Z","2025-09-18T17:24:38Z","2025-09-18T17:24:46Z","2025-09-18T17:25:01Z","2025-09-18T17:25:02Z","2025-09-18T17:25:03Z","2025-09-18T17:25:07Z","2025-09-18T17:25:22Z","2025-09-18T17:25:23Z","2025-09-18T17:25:39Z","2025-09-18T17:25:40Z","2025-09-18T17:26:10Z","2025-09-18T17:26:24Z","2025-09-18T17:26:30Z","2025-09-18T17:26:32Z","2025-09-18T17:26:48Z","2025-09-18T17:26:50Z","2025-09-18T17:26:51Z","2025-09-18T17:26:52Z","2025-09-18T17:26:53Z","2025-09-18T17:26:55Z","2025-09-18T17:26:56Z","2025-09-18T17:26:57Z","2025-09-18T17:27:00Z","2025-09-18T17:27:07Z","2025-09-18T17:27:08Z","2025-09-18T17:27:11Z","2025-09-18T17:27:18Z","2025-09-18T17:27:20Z","2025-09-18T17:27:23Z","2025-09-18T17:27:25Z","2025-09-18T17:27:26Z","2025-09-18T17:27:27Z","2025-09-18T17:27:33Z","2025-09-18T17:27:35Z","2025-09-18T17:27:37Z","2025-09-18T17:27:39Z","2025-09-18T17:27:40Z","2025-09-18T17:27:44Z","2025-09-18T17:27:50Z","2025-09-18T17:27:53Z","2025-09-18T17:27:55Z","2025-09-18T17:27:57Z","2025-09-18T17:28:05Z","2025-09-18T17:28:06Z","2025-09-18T17:28:07Z","2025-09-18T17:28:09Z","2025-09-18T17:28:15Z","2025-09-18T17:28:18Z","2025-09-18T17:28:22Z","2025-09-18T17:28:25Z","2025-09-18T17:28:26Z","2025-09-18T17:28:27Z","2025-09-18T17:28:29Z","2025-09-18T17:28:33Z","2025-09-18T17:28:34Z","2025-09-18T17:28:36Z","2025-09-18T17:28:39Z","2025-09-18T17:28:41Z","2025-09-18T17:28:43Z","2025-09-18T17:28:45Z","2025-09-18T17:28:49Z","2025-09-18T17:28:52Z","2025-09-18T17:28:57Z","2025-09-18T17:28:59Z","2025-09-18T17:29:01Z","2025-09-18T17:29:02Z","2025-09-18T17:29:06Z","2025-09-18T17:29:10Z","2025-09-18T17:29:14Z","2025-09-18T17:29:18Z","2025-09-18T17:29:24Z","2025-09-18T17:29:30Z","2025-09-18T17:29:32Z","2025-09-18T17:29:35Z","2025-09-18T17:29:36Z","2025-09-18T17:29:46Z","2025-09-18T17:29:48Z","2025-09-18T17:29:50Z","2025-09-18T17:29:57Z","2025-09-18T17:30:11Z","2025-09-18T17:30:17Z","2025-09-18T17:30:22Z","2025-09-18T17:30:42Z","2025-09-18T17:30:44Z","2025-09-18T17:30:45Z","2025-09-18T17:30:48Z","2025-09-18T17:30:51Z","2025-09-18T17:31:00Z","2025-09-18T17:31:01Z","2025-09-18T17:31:03Z","2025-09-18T17:31:13Z","2025-09-18T17:31:16Z","2025-09-18T17:31:18Z","2025-09-18T17:31:21Z","2025-09-18T17:31:24Z","2025-09-18T17:31:25Z","2025-09-18T17:31:27Z","2025-09-18T17:31:28Z","2025-09-18T17:31:31Z","2025-09-18T17:31:35Z","2025-09-18T17:31:39Z","2025-09-18T17:31:42Z","2025-09-18T17:31:46Z","2025-09-18T17:31:50Z","2025-09-18T17:31:56Z","2025-09-18T17:31:57Z","2025-09-18T17:32:01Z","2025-09-18T17:32:05Z","2025-09-18T17:32:09Z","2025-09-18T17:32:12Z","2025-09-18T17:32:13Z","2025-09-18T17:32:15Z","2025-09-18T17:32:24Z","2025-09-18T17:32:28Z","2025-09-18T17:32:31Z","2025-09-18T17:32:33Z","2025-09-18T17:32:35Z","2025-09-18T17:32:40Z","2025-09-18T17:32:43Z","2025-09-18T17:32:52Z","2025-09-18T17:32:54Z","2025-09-18T17:32:56Z","2025-09-18T17:32:58Z","2025-09-18T17:33:01Z","2025-09-18T17:33:03Z","2025-09-18T17:33:05Z","2025-09-18T17:33:06Z","2025-09-18T17:33:08Z","2025-09-18T17:33:11Z","2025-09-18T17:33:12Z","2025-09-18T17:33:16Z","2025-09-18T17:33:18Z","2025-09-18T17:33:19Z","2025-09-18T17:33:20Z","2025-09-18T17:33:22Z","2025-09-18T17:33:23Z","2025-09-18T17:33:24Z","2025-09-18T17:33:25Z","2025-09-18T17:33:27Z","2025-09-18T17:33:30Z","2025-09-18T17:33:31Z","2025-09-18T17:33:37Z","2025-09-18T17:33:39Z","2025-09-18T17:33:43Z","2025-09-18T17:33:44Z","2025-09-18T17:33:45Z","2025-09-18T17:33:47Z","2025-09-18T17:33:50Z","2025-09-18T17:33:57Z","2025-09-18T17:34:04Z","2025-09-18T17:34:05Z","2025-09-18T17:34:06Z","2025-09-18T17:34:07Z","2025-09-18T17:34:09Z","2025-09-18T17:34:13Z","2025-09-18T17:34:15Z","2025-09-18T17:34:19Z","2025-09-18T17:34:21Z","2025-09-18T17:34:26Z","2025-09-18T17:34:28Z","2025-09-18T17:34:29Z","2025-09-18T17:34:31Z","2025-09-18T17:34:36Z","2025-09-18T17:34:39Z","2025-09-18T17:34:42Z","2025-09-18T17:34:43Z","2025-09-18T17:34:52Z","2025-09-18T17:35:26Z","2025-09-18T17:35:38Z","2025-09-18T17:35:40Z","2025-09-18T17:35:41Z","2025-09-18T17:35:42Z","2025-09-18T17:35:43Z","2025-09-18T17:35:44Z","2025-09-18T17:35:45Z","2025-09-18T17:35:46Z","2025-09-18T17:35:47Z","2025-09-18T17:35:48Z","2025-09-18T17:35:59Z","2025-09-18T17:36:00Z","2025-09-18T17:36:06Z","2025-09-18T17:36:13Z","2025-09-18T17:36:14Z","2025-09-18T17:36:15Z","2025-09-18T17:36:18Z","2025-09-18T17:36:21Z","2025-09-18T17:36:25Z","2025-09-18T17:36:32Z","2025-09-18T17:36:34Z","2025-09-18T17:36:36Z","2025-09-18T17:36:37Z","2025-09-18T17:36:39Z","2025-09-18T17:36:40Z","2025-09-18T17:36:43Z","2025-09-18T17:36:44Z","2025-09-18T17:36:48Z","2025-09-18T17:36:50Z","2025-09-18T17:36:53Z","2025-09-18T17:36:54Z","2025-09-18T17:36:55Z","2025-09-18T17:36:56Z","2025-09-18T17:36:57Z","2025-09-18T17:36:58Z","2025-09-18T17:36:59Z","2025-09-18T17:37:00Z","2025-09-18T17:37:03Z","2025-09-18T17:37:04Z","2025-09-18T17:37:05Z","2025-09-18T17:37:06Z","2025-09-18T17:37:07Z","2025-09-18T17:37:09Z","2025-09-18T17:37:10Z","2025-09-18T17:37:13Z","2025-09-18T17:37:17Z","2025-09-18T17:37:19Z","2025-09-18T17:37:20Z","2025-09-18T17:37:21Z","2025-09-18T17:37:24Z","2025-09-18T17:37:25Z","2025-09-18T17:37:30Z","2025-09-18T17:37:47Z","2025-09-18T17:37:52Z","2025-09-18T17:37:58Z","2025-09-18T17:38:01Z","2025-09-18T17:38:05Z","2025-09-18T17:38:06Z","2025-09-18T17:38:09Z","2025-09-18T17:38:12Z","2025-09-18T17:38:18Z","2025-09-18T17:38:20Z","2025-09-18T17:38:22Z","2025-09-18T17:38:23Z","2025-09-18T17:38:24Z","2025-09-18T17:38:26Z","2025-09-18T17:38:29Z","2025-09-18T17:38:31Z","2025-09-18T17:38:34Z","2025-09-18T17:38:35Z","2025-09-18T17:38:37Z","2025-09-18T17:38:39Z","2025-09-18T17:38:40Z","2025-09-18T17:38:41Z","2025-09-18T17:38:44Z","2025-09-18T17:39:09Z","2025-09-18T17:39:10Z","2025-09-18T17:39:11Z","2025-09-18T17:39:12Z","2025-09-18T17:39:27Z","2025-09-18T17:39:31Z","2025-09-18T17:39:42Z","2025-09-18T17:39:46Z","2025-09-18T17:39:50Z","2025-09-18T17:39:53Z","2025-09-18T17:39:57Z","2025-09-18T17:40:00Z","2025-09-18T17:40:08Z","2025-09-18T17:40:13Z","2025-09-18T17:40:17Z","2025-09-18T17:40:19Z","2025-09-18T17:40:23Z","2025-09-18T17:40:25Z","2025-09-18T17:40:31Z","2025-09-18T17:41:20Z","2025-09-18T17:41:26Z","2025-09-18T17:41:52Z","2025-09-18T17:41:55Z","2025-09-18T17:41:58Z","2025-09-18T17:42:00Z","2025-09-18T17:42:03Z","2025-09-18T17:42:05Z","2025-09-18T17:42:06Z","2025-09-18T17:42:07Z","2025-09-18T17:42:08Z","2025-09-18T17:42:10Z","2025-09-18T17:42:11Z","2025-09-18T17:42:12Z","2025-09-18T17:42:16Z","2025-09-18T17:42:18Z","2025-09-18T17:42:21Z","2025-09-18T17:42:22Z","2025-09-18T17:42:24Z","2025-09-18T17:42:25Z","2025-09-18T17:42:27Z","2025-09-18T17:42:31Z","2025-09-18T17:42:34Z","2025-09-18T17:42:38Z","2025-09-18T17:42:45Z","2025-09-18T17:42:47Z","2025-09-18T17:42:48Z","2025-09-18T17:42:50Z","2025-09-18T17:42:52Z","2025-09-18T17:42:56Z","2025-09-18T17:42:58Z","2025-09-18T17:43:03Z","2025-09-18T17:43:05Z","2025-09-18T17:43:10Z","2025-09-18T17:43:11Z","2025-09-18T17:43:13Z","2025-09-18T17:43:15Z","2025-09-18T17:43:17Z","2025-09-18T17:43:18Z","2025-09-18T17:43:21Z","2025-09-18T17:43:22Z","2025-09-18T17:43:23Z","2025-09-18T17:43:31Z","2025-09-18T17:43:32Z","2025-09-18T17:43:33Z","2025-09-18T17:43:34Z","2025-09-18T17:43:35Z","2025-09-18T17:43:47Z","2025-09-18T17:43:50Z","2025-09-18T17:43:51Z","2025-09-18T17:43:52Z","2025-09-18T17:43:53Z","2025-09-18T17:43:57Z","2025-09-18T17:43:59Z","2025-09-18T17:44:04Z","2025-09-18T17:44:08Z","2025-09-18T17:44:12Z","2025-09-18T17:44:16Z","2025-09-18T17:44:17Z","2025-09-18T17:44:21Z","2025-09-18T17:44:36Z","2025-09-18T17:44:38Z","2025-09-18T17:44:42Z","2025-09-18T17:44:43Z","2025-09-18T17:44:45Z","2025-09-18T17:44:47Z","2025-09-18T17:45:01Z","2025-09-18T17:45:02Z","2025-09-18T17:45:05Z","2025-09-18T17:45:07Z","2025-09-18T17:45:11Z","2025-09-18T17:45:13Z","2025-09-18T17:45:23Z","2025-09-18T17:45:38Z","2025-09-18T17:45:41Z","2025-09-18T17:45:43Z","2025-09-18T17:45:45Z","2025-09-18T17:45:46Z","2025-09-18T17:45:47Z","2025-09-18T17:45:48Z","2025-09-18T17:45:49Z","2025-09-18T17:45:51Z","2025-09-18T17:46:01Z","2025-09-18T17:46:03Z","2025-09-18T17:46:04Z","2025-09-18T17:46:05Z","2025-09-18T17:46:06Z","2025-09-18T17:46:08Z","2025-09-18T17:46:09Z","2025-09-18T17:46:10Z","2025-09-18T17:46:14Z","2025-09-18T17:46:37Z","2025-09-18T17:46:38Z","2025-09-18T17:46:40Z","2025-09-18T17:46:41Z","2025-09-18T17:46:42Z","2025-09-18T17:46:45Z","2025-09-18T17:46:47Z","2025-09-18T17:46:51Z","2025-09-18T17:46:53Z","2025-09-18T17:47:38Z","2025-09-18T17:47:40Z","2025-09-18T17:47:43Z","2025-09-18T17:47:49Z","2025-09-18T17:47:52Z","2025-09-18T17:47:55Z","2025-09-18T17:47:59Z","2025-09-18T17:48:01Z","2025-09-18T17:48:02Z","2025-09-18T17:48:09Z","2025-09-18T17:48:14Z","2025-09-18T17:48:15Z","2025-09-18T17:48:16Z","2025-09-18T17:48:18Z","2025-09-18T17:48:19Z","2025-09-18T17:48:20Z","2025-09-18T17:48:21Z","2025-09-18T17:49:01Z","2025-09-18T17:49:03Z","2025-09-18T17:49:05Z","2025-09-18T17:49:09Z","2025-09-18T17:49:12Z","2025-09-18T17:49:13Z","2025-09-18T17:49:15Z","2025-09-18T17:49:16Z","2025-09-18T17:49:45Z","2025-09-18T17:49:47Z","2025-09-18T17:49:49Z","2025-09-18T17:49:50Z","2025-09-18T17:49:51Z","2025-09-18T17:49:56Z","2025-09-18T17:50:04Z","2025-09-18T17:50:14Z","2025-09-18T17:50:29Z","2025-09-18T17:50:33Z","2025-09-18T17:50:34Z","2025-09-18T17:50:37Z","2025-09-18T17:50:54Z","2025-09-18T17:50:57Z","2025-09-18T17:51:12Z","2025-09-18T17:51:15Z","2025-09-18T17:51:17Z","2025-09-18T17:51:24Z","2025-09-18T17:51:25Z","2025-09-18T17:51:29Z","2025-09-18T17:51:30Z","2025-09-18T17:51:31Z","2025-09-18T17:51:33Z","2025-09-18T17:51:34Z","2025-09-18T17:51:35Z","2025-09-18T17:51:37Z","2025-09-18T17:51:41Z","2025-09-18T17:51:42Z","2025-09-18T17:51:44Z","2025-09-18T17:51:45Z","2025-09-18T17:51:46Z","2025-09-18T17:51:47Z","2025-09-18T17:51:49Z","2025-09-18T17:51:50Z","2025-09-18T17:51:51Z","2025-09-18T17:51:53Z","2025-09-18T17:52:00Z","2025-09-18T17:52:03Z","2025-09-18T17:52:05Z","2025-09-18T17:52:11Z","2025-09-18T17:52:12Z","2025-09-18T17:52:14Z","2025-09-18T17:52:15Z","2025-09-18T17:52:16Z","2025-09-18T17:52:17Z","2025-09-18T17:52:19Z","2025-09-18T17:52:20Z","2025-09-18T17:52:21Z","2025-09-18T17:52:23Z"],"heartRates":[113,115,114,113,112,112,112,112,107,107,107,107,107,102,102,101,101,104,104,104,103,103,110,110,109,109,110,110,111,111,111,111,111,111,111,113,113,113,113,113,113,113,112,109,108,108,108,108,106,107,112,112,112,115,115,115,115,113,113,113,113,113,113,113,109,109,109,108,110,110,110,114,114,114,111,111,111,111,111,116,116,118,118,120,120,118,118,122,123,123,123,123,128,128,128,128,129,128,128,134,134,134,134,132,131,131,129,129,129,129,120,118,118,118,118,113,113,113,113,110,110,111,111,111,112,112,112,112,112,109,109,110,110,110,110,111,111,111,109,109,109,110,115,120,120,120,120,120,123,123,123,123,126,126,126,126,126,128,128,127,128,128,130,130,130,130,130,128,128,128,128,127,127,127,124,124,120,120,120,120,111,110,110,110,110,107,107,108,108,108,111,114,114,114,114,109,109,108,111,111,111,121,121,121,121,122,122,122,120,120,120,120,121,121,121,121,117,116,116,116,115,115,115,113,116,116,115,114,114,113,113,113,113,119,119,119,114,113,113,113,113,113,113,113,106,106,106,106,105,103,103,103,105,104,104,104,104,102,102,104,104,102,102,115,118,118,118,118,120,122,122,124,124,124,124,123,123,123,121,121,122,122,122,118,118,124,125,125,123,123,122,122,122,122,123,123,124,126,126,126,128,128,132,143,143,148,148,154,155,157,159,159,162,162,161,159,159,159,159,159,153,152,152,148,148,148,157,157,160,164,164,164,164,164,164,164,164,164,158,158,157,157,155,153,153,153,153,149,147,147,145,145,143,143,143,143,143,139,139,139,139,139,141,141,144,144,144,145,146,146,148,148,148,148,148,148,150,150,150,150,150,150,150,151,152,152,152,149,149,149,149,147,148,153,153,160,162,163,166,166,166,164,160,160,155,155,148,147,147,144,142,142,142,142,140,139,139,139,139,136,136,136,132,131,131,131,131,131,130,130,129,129,129,128,129,129,126,126,128,128,128,128,129,127,126,126,126,126,126,122,122,121,121,120,120,120,117,117,119,119,119,119,118,118,120,122,124,124,124,125,125,127,127,127,129,127,127,126,126,126,126,120,120,116,116,112,111,111,111,111,108,108,108,108,109,111,111,111,121,122,122,122,141,141,144,144,145,145,144,143,142,142,142,133,133,128,127,127,127,123,123,123,123,125,126,126,126,122,122,122,122,118,118,118,118,117,117,117,114,113,113,113,112,112,112,112,112,112,112,112,111,111,111,111,111,111,111,111,110,110,108,108,110,110,116,117,117,117,117,117,117,117,117,117,121,121,121,120,120,120,117,116,116,110,110,110,110,110,111,111,111,113,113,113,113,110,110,110,110,110,110,108,109,109,109,109,109,109,117,120,119,119,119,119,119,116,126,133,133,134,134,134,129,134,136,136,136,134,133,133,133,129,127,127,127,127,127,127,129,119,119,119,119,115,115,115,115,115,116,114,114,110,109,109,109,114,114,113,112,110,108,107,107,107,117,117,117,117,118,118,118,118,115,115,115,115,114,114,114,111,111,109,112,112,112,116,116,122,122,125,125,131,131,128,128,128,129,129,129,128,128,128,128,128,128,127,126,126,126,126,126,126,127,127,126,126,126,122,121,121,118,118,118,118,129,128,128,126,126,126,129,138,138,144,144,144,144,144,144,142,154,155,155,155,155,155,157,157,157,170,170,170,173,173,173,173,174,174,149,149,147,149,149,149,151,150,150,151,151,151,151,151,151,151,151,160,160,160,160,163,163,163,163,158,154,154,154,154,152,151,149,144,142,142,142,137,137,136,135,135,134,134,133,133,133,132,132,130,130,129,129,129,129,129,129,137,139,139,139,141,141,141,142,143,143,142,142,142,141,141,141,141],"month":"2025-09-01"},"geometry":{"type":"LineString","coordinates":[[2.450867,48.704387,80.1],[2.4497,48.704354,78],[2.449433,48.704338,77.5],[2.448956,48.704333,76.7],[2.448671,48.704319,76.2],[2.448368,48.704321,75.7],[2.44821,48.704311,75.4],[2.44785,48.704258,74],[2.446399,48.704228,67.4],[2.446182,48.704216,66.3],[2.446132,48.704219,66.1],[2.446097,48.704235,65.9],[2.445995,48.70422,65.4],[2.445594,48.704206,63.4],[2.445507,48.704209,62.9],[2.445393,48.704201,62.4],[2.444965,48.704198,60.3],[2.444689,48.704187,59.1],[2.444634,48.70421,59],[2.444607,48.704255,59],[2.444569,48.704476,59.1],[2.444566,48.704643,59],[2.444598,48.704981,58.8],[2.444643,48.705132,58.7],[2.444734,48.705727,59],[2.444766,48.705779,59.1],[2.445096,48.706135,59.6],[2.445123,48.706178,59.4],[2.445128,48.706231,59.2],[2.445099,48.706284,58.9],[2.445001,48.706401,58.4],[2.444969,48.706469,58.2],[2.445002,48.706542,58.1],[2.445146,48.706653,58],[2.445187,48.706709,57.8],[2.445201,48.706769,57.6],[2.445158,48.70683,57.3],[2.44506,48.706872,57],[2.444956,48.706891,56.6],[2.444874,48.706921,56.2],[2.444786,48.707025,55.3],[2.44471,48.707072,54.8],[2.444224,48.707308,52.1],[2.4439,48.707502,50],[2.443808,48.707548,49.3],[2.443791,48.70757,49.1],[2.44382,48.707628,48.8],[2.443956,48.707703,48.4],[2.444044,48.707772,48.2],[2.444349,48.707971,47.7],[2.444418,48.707993,47.6],[2.444593,48.708133,47.3],[2.44463,48.708172,47.2],[2.444825,48.708307,46.6],[2.445011,48.708459,46.6],[2.445019,48.708504,46.5],[2.444963,48.708552,46.3],[2.444495,48.708842,45.1],[2.444469,48.70888,44.9],[2.444458,48.708927,44.7],[2.444467,48.709012,44.3],[2.444415,48.709044,43.7],[2.444326,48.709072,43],[2.444152,48.709154,41.6],[2.443936,48.70924,40.4],[2.443917,48.70928,40.3],[2.443933,48.709337,40.4],[2.44401,48.709436,40.5],[2.444193,48.709723,40.8],[2.444377,48.70989,40.9],[2.444498,48.710023,40.9],[2.444598,48.710082,41],[2.444632,48.710114,41.1],[2.444618,48.710156,40.8],[2.443768,48.710547,37.1],[2.443773,48.710586,37],[2.443837,48.710623,37],[2.443906,48.710649,37],[2.444053,48.710688,37.2],[2.444661,48.710909,37.9],[2.444791,48.710947,38],[2.44504,48.711046,38.5],[2.445408,48.71117,38.9],[2.445557,48.711185,39],[2.445639,48.711224,39.1],[2.445793,48.711278,39.3],[2.445892,48.711331,39.5],[2.446165,48.711443,39.9],[2.446224,48.711456,40],[2.446288,48.711458,40],[2.446356,48.71147,40.1],[2.4466,48.711565,40.5],[2.44674,48.71161,40.6],[2.446774,48.711632,40.7],[2.446796,48.71167,40.7],[2.446843,48.711698,40.8],[2.446974,48.711727,40.9],[2.447474,48.711905,41.4],[2.447667,48.711957,41.8],[2.448979,48.712412,42.1],[2.449271,48.712533,42.3],[2.449312,48.712542,42.4],[2.449362,48.712523,42.5],[2.449392,48.712429,42.7],[2.449483,48.712363,42.8],[2.449565,48.712351,42.9],[2.4496,48.712356,42.9],[2.449629,48.712376,42.9],[2.449641,48.71241,42.8],[2.449624,48.712455,42.7],[2.449059,48.71314,41.1],[2.449002,48.713238,40.9],[2.449038,48.713277,40.8],[2.449238,48.713341,39.8],[2.449385,48.713379,39.2],[2.449979,48.7136,36.9],[2.450058,48.713639,36.6],[2.450136,48.71369,36.4],[2.450205,48.713751,36.1],[2.450385,48.713844,35.6],[2.450456,48.713912,35.4],[2.450505,48.713995,35.3],[2.450583,48.714061,35.2],[2.450664,48.714112,35.1],[2.450691,48.714232,35.1],[2.45073,48.714282,35.1],[2.450893,48.714373,35.2],[2.450909,48.714396,35.3],[2.450888,48.714426,35.3],[2.450787,48.714465,35.3],[2.450754,48.714578,35.2],[2.45076,48.714699,35],[2.450778,48.714788,34.9],[2.450836,48.714871,34.8],[2.451027,48.714957,34.4],[2.451068,48.714997,34.2],[2.451078,48.715029,34.1],[2.451047,48.715096,34],[2.451091,48.715131,33.9],[2.451215,48.715153,33.9],[2.451457,48.715148,34.1],[2.451707,48.715173,34.2],[2.4521,48.715194,34],[2.45231,48.71516,34],[2.452532,48.715162,34],[2.452613,48.715155,34.1],[2.452691,48.715136,34.1],[2.452929,48.7151,34.1],[2.453393,48.71498,34.3],[2.453682,48.714928,34.3],[2.453755,48.714906,34.3],[2.45407,48.714839,34.4],[2.454533,48.714703,34.4],[2.454603,48.714673,34.4],[2.45472,48.714591,34.5],[2.454872,48.71441,34.5],[2.455001,48.714287,34.4],[2.455242,48.714158,34.4],[2.455456,48.714061,34.5],[2.45583,48.713861,34.5],[2.456011,48.713747,34.6],[2.456195,48.713615,34.7],[2.456381,48.713454,34.8],[2.456411,48.713397,34.8],[2.456408,48.713312,34.9],[2.456449,48.713294,34.9],[2.456485,48.713294,35],[2.456763,48.713391,35.1],[2.456844,48.713445,35],[2.456879,48.713483,35],[2.456925,48.713568,34.9],[2.457149,48.713845,34.7],[2.457169,48.713856,34.7],[2.457213,48.713854,34.7],[2.45726,48.713802,34.7],[2.457305,48.713802,34.7],[2.457297,48.7138,34.7],[2.457299,48.713806,34.7],[2.457262,48.713832,34.6],[2.457244,48.713883,34.6],[2.457644,48.714412,34.3],[2.457774,48.714551,34.2],[2.457879,48.714627,34.2],[2.457864,48.714664,34.2],[2.457795,48.714665,34.2],[2.457758,48.714639,34.2],[2.457748,48.714606,34.2],[2.457755,48.714541,34.2],[2.457693,48.714476,34.2],[2.457683,48.714444,34.2],[2.457397,48.714092,34.4],[2.457365,48.714064,34.4],[2.457331,48.714005,34.5],[2.457254,48.713933,34.5],[2.457228,48.713889,34.6],[2.457246,48.713876,34.6],[2.457291,48.713895,34.6],[2.45736,48.714095,34.4],[2.457395,48.714139,34.4],[2.457533,48.714271,34.3],[2.457651,48.714404,34.2],[2.457752,48.714546,34.2],[2.457773,48.714594,34.2],[2.457764,48.714646,34.2],[2.457728,48.71469,34.2],[2.457554,48.714762,34.4],[2.457515,48.714793,34.5],[2.457507,48.71484,34.6],[2.457541,48.714884,34.7],[2.457667,48.714944,34.8],[2.457685,48.714964,34.8],[2.457747,48.714998,34.9],[2.457826,48.715001,34.9],[2.457978,48.714966,34.8],[2.458208,48.714875,34.8],[2.458338,48.714811,34.9],[2.458527,48.714759,35.1],[2.458551,48.714733,35.1],[2.458582,48.714718,35.2],[2.458619,48.714722,35.3],[2.458663,48.714679,35.4],[2.4587,48.714669,35.5],[2.458753,48.714678,35.6],[2.458831,48.714733,35.8],[2.459167,48.714937,36.3],[2.459382,48.715081,36.7],[2.459424,48.715098,36.8],[2.459406,48.715099,36.8],[2.459414,48.715102,36.8],[2.459468,48.71508,36.7],[2.45954,48.715015,36.7],[2.459623,48.714921,36.6],[2.459621,48.714851,36.6],[2.459601,48.71482,36.4],[2.45943,48.714704,36.1],[2.45943,48.714686,36.1],[2.459381,48.714618,36.1],[2.459296,48.714532,36.2],[2.459257,48.714471,36.3],[2.459293,48.714456,36.3],[2.459297,48.714434,36.3],[2.459264,48.714416,36.3],[2.459209,48.714362,36.4],[2.459174,48.714384,36.4],[2.459162,48.714375,36.4],[2.459131,48.714391,36.4],[2.45913,48.714368,36.5],[2.459169,48.714335,36.4],[2.459238,48.714332,36.3],[2.459334,48.714303,36.1],[2.459328,48.7143,36.1],[2.459715,48.714214,35.9],[2.459952,48.714275,35.8],[2.4601,48.714336,35.8],[2.460126,48.714368,35.8],[2.460143,48.714427,35.9],[2.460143,48.71453,35.9],[2.460157,48.714585,36.2],[2.460227,48.714653,36.6],[2.460214,48.714647,36.6],[2.46023,48.714673,36.6],[2.460241,48.714791,36.7],[2.460271,48.714828,36.7],[2.460685,48.715138,37.5],[2.460814,48.715257,37.9],[2.460975,48.715367,38.3],[2.461065,48.715414,38.5],[2.461072,48.715452,38.5],[2.460987,48.715558,38.6],[2.460817,48.715725,38.7],[2.460759,48.715798,38.7],[2.460625,48.715914,38.6],[2.460557,48.715999,38.6],[2.460371,48.716191,38.6],[2.460324,48.716225,38.6],[2.460178,48.716385,38.7],[2.460131,48.716423,38.6],[2.460098,48.716464,38.4],[2.45992,48.716622,37.7],[2.459765,48.716735,37.1],[2.459204,48.717052,36.2],[2.459034,48.717124,35.9],[2.459118,48.71728,36.2],[2.459327,48.717404,36.7],[2.459404,48.717441,36.8],[2.45986,48.717776,38.9],[2.45987,48.717807,39.1],[2.459849,48.717836,39],[2.459481,48.718051,38.7],[2.459288,48.718179,38.5],[2.45923,48.718209,38.3],[2.458681,48.718568,36.9],[2.458378,48.71875,36.9],[2.458252,48.718816,37.1],[2.458089,48.718923,37.6],[2.45797,48.718987,37.8],[2.457539,48.719275,38.8],[2.457123,48.719535,40],[2.457087,48.719575,40.2],[2.457094,48.719628,40.5],[2.457134,48.71967,40.7],[2.457273,48.719771,41.5],[2.457518,48.72001,43.5],[2.457788,48.720331,45.5],[2.45784,48.720372,45.8],[2.457854,48.720416,46.2],[2.457913,48.720502,47.2],[2.458079,48.720686,49.4],[2.458148,48.720777,50.5],[2.458364,48.72102,53.3],[2.458363,48.721073,53.8],[2.458336,48.721164,54.6],[2.458206,48.721208,55.4],[2.458149,48.72124,55.8],[2.457758,48.721385,58.2],[2.457641,48.721443,59],[2.457631,48.721435,58.9],[2.457635,48.721417,58.8],[2.457656,48.721404,58.7],[2.45776,48.721391,58.1],[2.458207,48.721233,55.7],[2.458232,48.72121,55.5],[2.458357,48.721168,54.8],[2.458446,48.721159,54.3],[2.458498,48.721165,54.1],[2.458568,48.721211,55.1],[2.45902,48.721736,63.6],[2.459078,48.721793,64.8],[2.459136,48.721901,66.7],[2.459161,48.721916,67.1],[2.45919,48.721921,67.1],[2.459252,48.721908,67],[2.459306,48.721886,67],[2.459519,48.721829,66.9],[2.45956,48.721797,66.8],[2.459653,48.721781,66.8],[2.459735,48.721755,66.8],[2.459876,48.721737,66.7],[2.460756,48.721495,66],[2.460878,48.72142,65.5],[2.461219,48.72124,64.1],[2.461332,48.721199,63.9],[2.461469,48.721129,63.8],[2.461593,48.721081,63.8],[2.461654,48.721049,63.7],[2.461694,48.721007,63.7],[2.461744,48.720915,63.7],[2.46177,48.720765,63.6],[2.461895,48.72063,63.5],[2.462098,48.720466,63.5],[2.462277,48.720291,63.5],[2.462397,48.720224,63.5],[2.462521,48.720178,63.6],[2.462671,48.720094,63.6],[2.462681,48.720037,63.5],[2.462618,48.719913,63.2],[2.462616,48.719864,63.1],[2.462638,48.719808,62.9],[2.462684,48.71975,62.9],[2.462759,48.719711,63],[2.462919,48.719653,63.1],[2.463118,48.719554,63.3],[2.463241,48.719475,63.4],[2.46334,48.71939,63.4],[2.463703,48.719178,64.5],[2.463943,48.719054,65.4],[2.464057,48.718986,65.9],[2.464174,48.718929,66.4],[2.464432,48.718783,67.6],[2.46447,48.718729,67.8],[2.464618,48.718659,68.2],[2.464728,48.718621,68.4],[2.46486,48.718539,68.7],[2.464896,48.718503,68.8],[2.46491,48.718466,68.2],[2.464888,48.718425,67.6],[2.464851,48.718394,67.3],[2.464856,48.718346,67.6],[2.464894,48.718312,67.9],[2.464957,48.718296,68.1],[2.465048,48.718258,68.4],[2.465129,48.718245,68.6],[2.465304,48.718172,68.9],[2.466115,48.717877,68.3],[2.466537,48.717672,67.6],[2.466656,48.717604,67.2],[2.466921,48.717423,67.4],[2.467012,48.717393,67.5],[2.467062,48.717397,67.6],[2.46711,48.717428,68.1],[2.467143,48.717474,68.4],[2.467187,48.717601,69.3],[2.467304,48.717853,71.3],[2.467397,48.718157,73.6],[2.467416,48.718331,74.8],[2.467483,48.718575,76.6],[2.467562,48.71879,78.3],[2.467682,48.719023,80],[2.467864,48.719449,81.6],[2.4679,48.71947,81.7],[2.467958,48.719465,81.7],[2.468152,48.719423,81.9],[2.468972,48.719282,82.2],[2.469031,48.719283,82.2],[2.469995,48.719196,82.7],[2.470052,48.719196,82.7],[2.471929,48.719034,84.6],[2.472866,48.718964,85.5],[2.473254,48.718928,85.8],[2.473381,48.718923,85.8],[2.474402,48.718834,86.2],[2.474523,48.718815,86.3],[2.474581,48.718796,86.3],[2.474616,48.718765,86.3],[2.47463,48.718726,86.3],[2.474636,48.71865,86.4],[2.474678,48.71862,86.4],[2.474738,48.7186,86.4],[2.474914,48.718568,86.5],[2.47534,48.718469,87.3],[2.475361,48.718438,87.2],[2.475368,48.718345,86.9],[2.475275,48.718043,86.1],[2.475234,48.717944,85.8],[2.475146,48.71779,85.4],[2.47504,48.717704,85.2],[2.474976,48.717666,85],[2.474904,48.717636,84.9],[2.474411,48.717502,84.4],[2.474244,48.717469,84.3],[2.474071,48.717449,84.2],[2.473899,48.717439,84.1],[2.473815,48.717444,84],[2.473488,48.7175,83.9],[2.473084,48.717618,83.7],[2.47296,48.717662,83.6],[2.472825,48.717664,83.6],[2.472691,48.717719,83.5],[2.472131,48.717883,83.3],[2.472099,48.717874,83.3],[2.472103,48.717854,83.1],[2.472071,48.71779,82.6],[2.47199,48.717515,80.7],[2.471938,48.717376,80],[2.471889,48.717203,79.2],[2.471845,48.71712,78.8],[2.471805,48.717107,78.7],[2.471755,48.717106,78.6],[2.471667,48.717121,78.3],[2.47153,48.717114,78],[2.471501,48.717099,77.8],[2.471447,48.717042,77.5],[2.47138,48.716945,76.8],[2.471353,48.716878,76.3],[2.471305,48.716835,76],[2.471262,48.71677,75.5],[2.471103,48.716614,74.3],[2.471035,48.716508,73.6],[2.470934,48.7164,72.9],[2.47091,48.716362,72.8],[2.470862,48.716352,72.6],[2.470862,48.716345,72.6],[2.470878,48.716347,72.6],[2.470895,48.716302,72.7],[2.471008,48.716274,72.8],[2.471203,48.716268,72.9],[2.471507,48.716283,73.2],[2.471779,48.716254,73.3],[2.471804,48.716236,73.2],[2.471784,48.716181,72.8],[2.471794,48.716163,72.6],[2.471754,48.716096,72.1],[2.471764,48.716082,71.9],[2.471753,48.716066,71.8],[2.471742,48.71607,71.6],[2.471716,48.715915,70.3],[2.471691,48.715847,69.6],[2.471698,48.715846,69.6],[2.471684,48.715764,68.8],[2.471666,48.715725,68.4],[2.471671,48.71571,68.2],[2.471704,48.715683,67.8],[2.47166,48.715597,66.6],[2.471594,48.715307,63.8],[2.471618,48.715276,63.2],[2.471731,48.715274,63.2],[2.47205,48.715344,62.8],[2.472167,48.715348,62.6],[2.472251,48.715334,62.5],[2.472285,48.715361,62.4],[2.472351,48.715366,62.3],[2.472368,48.715357,62.3],[2.472389,48.715357,62.3],[2.47238,48.715355,62.3],[2.472391,48.715348,62.2],[2.472361,48.715344,62.2],[2.472289,48.715354,62.1],[2.472242,48.715341,62],[2.472138,48.715343,61.9],[2.47202,48.715333,61.9],[2.471715,48.715267,63.1],[2.471655,48.715264,63.2],[2.471497,48.715231,63.2],[2.471317,48.715212,63.3],[2.471138,48.71522,63.3],[2.471006,48.715235,63.4],[2.47095,48.715229,63.4],[2.470847,48.715236,63.3],[2.47037,48.715302,62.8],[2.470148,48.71534,62.5],[2.469976,48.715356,62.3],[2.469858,48.715379,62.1],[2.469736,48.715392,62],[2.46946,48.715444,61.7],[2.469312,48.71548,61.8],[2.468908,48.715632,62.1],[2.468847,48.715669,62.1],[2.468818,48.715663,62.1],[2.468829,48.715656,62.1],[2.468814,48.715654,62.1],[2.468826,48.715653,62.1],[2.468751,48.715635,61.7],[2.468721,48.715616,61.5],[2.468704,48.71555,61.1],[2.468655,48.715448,60.4],[2.468621,48.71542,60.2],[2.468529,48.715275,59.2],[2.468475,48.71521,58.8],[2.468431,48.715183,58.5],[2.468372,48.715166,58.1],[2.468238,48.715154,57.3],[2.468165,48.715164,56.8],[2.468101,48.715152,56.4],[2.468059,48.715103,55.8],[2.46802,48.715005,54.6],[2.467996,48.714887,53.3],[2.467973,48.714849,52.8],[2.467882,48.714571,49.8],[2.46786,48.714472,49],[2.467801,48.714319,47.9],[2.467773,48.714287,47.7],[2.467709,48.714262,47.3],[2.467557,48.714253,47.2],[2.467353,48.714282,47],[2.466827,48.714326,46.3],[2.466274,48.714394,45.4],[2.466204,48.714393,45.3],[2.46614,48.71436,45.2],[2.466119,48.714309,45.1],[2.466119,48.714197,44.9],[2.466068,48.713993,44.4],[2.466056,48.713889,44.2],[2.465999,48.713679,43.5],[2.465992,48.713565,43.1],[2.465894,48.713251,41.6],[2.465886,48.713115,40.9],[2.465869,48.713043,40.5],[2.465802,48.71291,39.8],[2.465758,48.71269,38.7],[2.465785,48.712669,38.6],[2.465767,48.712668,38.6],[2.465778,48.712656,38.5],[2.465782,48.712671,38.5],[2.465735,48.712622,38.3],[2.465107,48.712722,38],[2.464981,48.712765,37.8],[2.464928,48.712802,37.8],[2.464853,48.712836,37.8],[2.464781,48.71282,37.8],[2.464727,48.712783,37.8],[2.464724,48.712731,37.8],[2.464702,48.712704,37.8],[2.464786,48.712644,37.7],[2.464809,48.7126,37.6],[2.464676,48.711944,36.3],[2.464691,48.711872,36.2],[2.464608,48.711466,35.7],[2.46458,48.711079,35.7],[2.464538,48.711036,35.8],[2.464523,48.710994,35.8],[2.464518,48.710894,35.8],[2.464502,48.710863,35.8],[2.464501,48.710871,35.8],[2.464509,48.710796,35.7],[2.464497,48.710765,35.7],[2.464507,48.710738,35.7],[2.464532,48.71072,35.7],[2.464632,48.710711,35.7],[2.464556,48.71063,35.7],[2.464561,48.710552,35.7],[2.464593,48.710528,35.6],[2.464783,48.710492,35],[2.4649,48.710457,34.7],[2.465023,48.710438,34.6],[2.465048,48.710423,34.6],[2.465056,48.710397,34.6],[2.465031,48.710374,34.6],[2.464995,48.710358,34.6],[2.464953,48.710355,34.6],[2.464918,48.710368,34.6],[2.464889,48.71039,34.7],[2.464864,48.710491,34.9],[2.464837,48.710519,35.1],[2.464786,48.710535,35.2],[2.46472,48.710536,35.4],[2.464662,48.710554,35.5],[2.464612,48.710612,35.7],[2.464612,48.710652,35.7],[2.464639,48.710759,35.7],[2.464646,48.710904,35.7],[2.464638,48.710978,35.8],[2.464675,48.711008,35.8],[2.464733,48.711021,35.7],[2.464908,48.710993,35.5],[2.464969,48.71099,35.5],[2.465352,48.71102,35],[2.466791,48.711103,34.9],[2.467203,48.711158,35.9],[2.467611,48.711194,36.9],[2.467822,48.711238,36.9],[2.468081,48.711335,37.1],[2.46814,48.711365,37.1],[2.468271,48.711478,37.2],[2.46838,48.711602,37.1],[2.468528,48.711865,36.8],[2.468606,48.71194,36.7],[2.468694,48.711985,36.5],[2.468737,48.711995,36.5],[2.468774,48.711995,36.5],[2.468833,48.711982,36.5],[2.468916,48.711948,36.5],[2.469004,48.711924,36.4],[2.469123,48.71191,36.4],[2.469152,48.711919,36.4],[2.469198,48.711956,36.4],[2.469235,48.71194,36.4],[2.46924,48.711916,36.3],[2.469225,48.711892,36.1],[2.46916,48.711839,35.8],[2.469655,48.711272,34.7],[2.469653,48.711253,34.7],[2.469624,48.711242,34.7],[2.469594,48.711246,34.7],[2.469228,48.711159,34.3],[2.469128,48.711146,34.3],[2.468895,48.711085,34.2],[2.46885,48.711046,33.8],[2.468706,48.710992,32.6],[2.468596,48.710967,32.5],[2.46849,48.710916,32.4],[2.468397,48.710899,32.4],[2.468212,48.710892,32.4],[2.46812,48.710923,32.4],[2.468042,48.710917,32.4],[2.468015,48.710906,32.4],[2.467982,48.710863,32.4],[2.467991,48.710871,32.4],[2.467984,48.71087,32.4],[2.468049,48.710897,32.4],[2.46808,48.710893,32.4],[2.468059,48.710917,32.4],[2.467985,48.710894,32.4],[2.467903,48.710854,32.4],[2.467847,48.710846,32.4],[2.467775,48.710818,32.4],[2.467747,48.71079,32.4],[2.467756,48.710774,32.4],[2.467782,48.710764,32.4],[2.467816,48.710763,32.4],[2.467859,48.710792,32.4],[2.467873,48.710817,32.4],[2.467921,48.710841,32.4],[2.468094,48.710886,32.4],[2.46819,48.710901,32.4],[2.468365,48.710899,32.4],[2.468416,48.710905,32.5],[2.468516,48.710936,32.5],[2.468572,48.710964,32.5],[2.468667,48.71098,32.6],[2.468833,48.711046,33.4],[2.468855,48.711085,34.2],[2.469039,48.711133,34.2],[2.469414,48.71121,34.4],[2.469518,48.711244,34.6],[2.469575,48.711252,34.6],[2.469631,48.711249,34.7],[2.469664,48.711299,34.7],[2.469541,48.711407,34.8],[2.469502,48.71147,34.9],[2.469348,48.711644,35],[2.469303,48.711711,35.2],[2.469182,48.711839,35.6],[2.46919,48.711858,35.7],[2.469233,48.71189,35.9],[2.469256,48.711922,36.1],[2.469213,48.711952,36.3],[2.469186,48.711955,36.4],[2.469111,48.711906,36.4],[2.469072,48.711895,36.4],[2.469028,48.711898,36.4],[2.46877,48.711989,36.5],[2.468727,48.71199,36.5],[2.468682,48.711979,36.5],[2.468643,48.711958,36.6],[2.468611,48.711928,36.7],[2.468321,48.711521,37.2],[2.468226,48.711425,37.2],[2.468183,48.711402,37.1],[2.468164,48.711374,37.1],[2.468124,48.711348,37.1],[2.467889,48.711256,37],[2.467758,48.71122,36.9],[2.467414,48.711187,36.6],[2.46711,48.711138,35.6],[2.466701,48.711098,34.8],[2.466304,48.711071,34.7],[2.466222,48.711079,34.7],[2.46589,48.71105,34.7],[2.464818,48.710992,35.6],[2.46474,48.711003,35.7],[2.464632,48.710975,35.8],[2.46459,48.710951,35.8],[2.464556,48.710852,35.7],[2.464563,48.710741,35.7],[2.464496,48.709986,36.1],[2.464481,48.709931,36.1],[2.464464,48.709766,36.1],[2.464415,48.709657,36.1],[2.464283,48.709445,36.1],[2.464242,48.709331,36.1],[2.463941,48.708763,36.3],[2.463378,48.708019,39.1],[2.463265,48.707889,39.8],[2.463175,48.707815,40.3],[2.463133,48.707734,41.2],[2.463102,48.707711,41.4],[2.463044,48.707698,41.9],[2.46299,48.707701,42],[2.46293,48.707723,42.1],[2.462829,48.707787,42.4],[2.462282,48.70798,43.6],[2.462169,48.708007,43.7],[2.462106,48.708012,43.8],[2.462043,48.708006,43.8],[2.46198,48.70799,43.9],[2.461858,48.70794,43.7],[2.461804,48.707909,44.2],[2.461764,48.707871,44.6],[2.461667,48.707732,46.3],[2.461225,48.707157,54.2],[2.4612,48.707144,54.4],[2.46114,48.707137,54.8],[2.461113,48.707127,55.1],[2.461099,48.707111,55.3],[2.461093,48.707064,55.6],[2.461096,48.707072,55.7],[2.461099,48.707056,55.9],[2.461097,48.707072,56],[2.461133,48.70704,56.3],[2.461123,48.706977,56.8],[2.461029,48.706907,57.5],[2.460888,48.706769,58.8],[2.460832,48.706696,59.4],[2.460759,48.706623,60.1],[2.460688,48.706527,60.8],[2.460639,48.706483,61.3],[2.46061,48.70647,61.4],[2.460558,48.70637,62.2],[2.460454,48.706247,63.3],[2.460426,48.706227,63.5],[2.460412,48.706199,63.7],[2.460369,48.706159,64.1],[2.460344,48.70615,64.3],[2.460323,48.706131,64.4],[2.460313,48.706096,64.7],[2.45955,48.70521,72.1],[2.459494,48.705178,72.5],[2.459461,48.705134,73],[2.459365,48.705051,73.9],[2.459305,48.704979,74.7],[2.459274,48.704964,74.9],[2.459195,48.704963,75.3],[2.459158,48.704975,75.3],[2.45808,48.705561,75.9],[2.45799,48.705601,75.9],[2.457877,48.705625,75.9],[2.457818,48.70562,75.9],[2.457765,48.705596,76],[2.457624,48.705418,76.3],[2.457348,48.705157,76.9],[2.456987,48.704837,77.8],[2.456487,48.704358,79.1],[2.456391,48.704277,79.4],[2.456375,48.704284,79.4],[2.456386,48.704288,79.4],[2.45632,48.704293,79.4],[2.456216,48.704341,79.4],[2.455492,48.704745,79.3],[2.455302,48.704836,79.1],[2.455178,48.70491,79],[2.454688,48.705158,78.6],[2.454611,48.70519,78.5],[2.454301,48.705284,78.1],[2.454207,48.705297,78.1],[2.454135,48.705316,78.1],[2.454008,48.705369,78],[2.45398,48.705371,78],[2.453942,48.705357,78],[2.453905,48.705332,78.1],[2.453798,48.705125,78.5],[2.453752,48.70508,78.5],[2.453537,48.705018,78.6],[2.453414,48.704995,78.8],[2.453372,48.704979,78.9],[2.453468,48.704913,78.9],[2.453486,48.704813,79.2],[2.453447,48.704765,79.5],[2.453387,48.704726,79.6],[2.453253,48.704676,79.7],[2.452832,48.704495,80],[2.452639,48.704434,80.1],[2.452495,48.704407,80.1],[2.452022,48.704384,80],[2.451941,48.704401,80],[2.451818,48.704473,80],[2.451743,48.70446,80],[2.451681,48.704417,79.9],[2.451668,48.70436,79.9],[2.451691,48.704262,79.9],[2.451663,48.704219,80],[2.451649,48.704174,80.1],[2.451642,48.704084,80.2]]}}]}