<?xml version="1.0" encoding="UTF-8"?>
<gpx version="1.1" creator="GPSBabel - https://www.gpsbabel.org" xmlns="http://www.topografix.com/GPX/1/1" xmlns:xsi="http://www.w3.org/2001/XMLSchema-instance" xmlns:gpxtpx="http://www.garmin.com/xmlschemas/TrackPointExtension/v1" xmlns:gpxx="http://www.garmin.com/xmlschemas/GpxExtensions/v3" xmlns:gpxpx="http://www.garmin.com/xmlschemas/PowerExtension/v1" xmlns:gpx_style="http://www.topografix.com/GPX/gpx_style/0/2">
  <metadata>
    <name>gps4cam trip started at 2019-03-06 11-39 decoded at 2019-03-14 23-43-50</name>
    <link href="http://gps4cam.com">
      <text>gps4cam</text>
    </link>
    <time>2025-09-17T13:22:58.594Z</time>
    <bounds minlat="8.983041758" minlon="38.797117529" maxlat="8.983564811" maxlon="38.798545808"/>
  </metadata>
  <trk>
    <name>gps4cam trip started at: 2019-03-06T10:39:56Z</name>
    <trkseg>
      <trkpt lat="8.983164875" lon="38.797117529">
        <time>2019-03-06T17:34:57Z</time>
      </trkpt>
      <trkpt lat="8.983084325" lon="38.797273526">
        <time>2019-03-06T17:39:57Z</time>
      </trkpt>
      <trkpt lat="8.983068392" lon="38.797414065">
        <time>2019-03-06T17:44:57Z</time>
      </trkpt>
      <trkpt lat="8.983041758" lon="38.797529629">
        <time>2019-03-06T17:49:57Z</time>
      </trkpt>
      <trkpt lat="8.983102466" lon="38.797594865">
        <time>2019-03-06T17:54:56Z</time>
      </trkpt>
      <trkpt lat="8.983481838" lon="38.798176360">
        <time>2019-03-06T17:59:57Z</time>
      </trkpt>
      <trkpt lat="8.983360342" lon="38.797927220">
        <time>2019-03-06T18:04:57Z</time>
      </trkpt>
      <trkpt lat="8.983442104" lon="38.798033945">
        <time>2019-03-06T18:09:56Z</time>
      </trkpt>
      <trkpt lat="8.983500654" lon="38.798222183">
        <time>2019-03-06T18:14:57Z</time>
      </trkpt>
      <trkpt lat="8.983525618" lon="38.798182979">
        <time>2019-03-06T18:19:57Z</time>
      </trkpt>
      <trkpt lat="8.983508553" lon="38.798179465">
        <time>2019-03-06T18:24:57Z</time>
      </trkpt>
      <trkpt lat="8.983507017" lon="38.798200721">
        <time>2019-03-06T18:29:57Z</time>
      </trkpt>
      <trkpt lat="8.983523245" lon="38.798242415">
        <time>2019-03-06T18:34:56Z</time>
      </trkpt>
      <trkpt lat="8.983490088" lon="38.798142104">
        <time>2019-03-06T18:39:57Z</time>
      </trkpt>
      <trkpt lat="8.983525267" lon="38.798174517">
        <time>2019-03-06T18:44:57Z</time>
      </trkpt>
      <trkpt lat="8.983519606" lon="38.798212902">
        <time>2019-03-06T18:49:57Z</time>
      </trkpt>
      <trkpt lat="8.983512543" lon="38.798217440">
        <time>2019-03-06T18:54:57Z</time>
      </trkpt>
      <trkpt lat="8.983508904" lon="38.798187926">
        <time>2019-03-06T18:59:57Z</time>
      </trkpt>
      <trkpt lat="8.983500304" lon="38.798213721">
        <time>2019-03-06T19:04:57Z</time>
      </trkpt>
      <trkpt lat="8.983521493" lon="38.798200107">
        <time>2019-03-06T19:09:57Z</time>
      </trkpt>
      <trkpt lat="8.983513729" lon="38.798187722">
        <time>2019-03-06T19:14:57Z</time>
      </trkpt>
      <trkpt lat="8.983492190" lon="38.798192874">
        <time>2019-03-06T19:19:57Z</time>
      </trkpt>
      <trkpt lat="8.983492891" lon="38.798209798">
        <time>2019-03-06T19:24:57Z</time>
      </trkpt>
      <trkpt lat="8.983497015" lon="38.798192669">
        <time>2019-03-06T19:29:57Z</time>
      </trkpt>
      <trkpt lat="8.983525132" lon="38.798229621">
        <time>2019-03-06T19:39:57Z</time>
      </trkpt>
      <trkpt lat="8.983518284" lon="38.798297724">
        <time>2019-03-06T19:44:57Z</time>
      </trkpt>
      <trkpt lat="8.983505830" lon="38.798230440">
        <time>2019-03-06T19:49:57Z</time>
      </trkpt>
      <trkpt lat="8.983524081" lon="38.798204236">
        <time>2019-03-06T19:54:57Z</time>
      </trkpt>
      <trkpt lat="8.983509119" lon="38.798251492">
        <time>2019-03-06T19:59:57Z</time>
      </trkpt>
      <trkpt lat="8.983480087" lon="38.798134052">
        <time>2019-03-06T20:04:57Z</time>
      </trkpt>
      <trkpt lat="8.983480302" lon="38.798197617">
        <time>2019-03-06T20:09:57Z</time>
      </trkpt>
      <trkpt lat="8.983496179" lon="38.798230849">
        <time>2019-03-06T20:14:57Z</time>
      </trkpt>
      <trkpt lat="8.983507853" lon="38.798162541">
        <time>2019-03-06T20:19:57Z</time>
      </trkpt>
      <trkpt lat="8.983499253" lon="38.798188336">
        <time>2019-03-06T20:24:57Z</time>
      </trkpt>
      <trkpt lat="8.983505480" lon="38.798221978">
        <time>2019-03-06T20:29:57Z</time>
      </trkpt>
      <trkpt lat="8.983524431" lon="38.798212697">
        <time>2019-03-06T20:34:57Z</time>
      </trkpt>
      <trkpt lat="8.983564811" lon="38.798545808">
        <time>2019-03-06T20:39:57Z</time>
      </trkpt>
    </trkseg>
  </trk>
</gpx>
