{"type":"FeatureCollection","features":[{"type":"Feature","properties":{"name":"gps4cam trip started at: 2019-03-06T10:39:56Z","time":"2019-03-06T17:34:57Z","coordTimes":["2019-03-06T17:34:57Z","2019-03-06T17:39:57Z","2019-03-06T17:44:57Z","2019-03-06T17:49:57Z","2019-03-06T17:54:56Z","2019-03-06T17:59:57Z","2019-03-06T18:04:57Z","2019-03-06T18:09:56Z","2019-03-06T18:14:57Z","2019-03-06T18:19:57Z","2019-03-06T18:24:57Z","2019-03-06T18:29:57Z","2019-03-06T18:34:56Z","2019-03-06T18:39:57Z","2019-03-06T18:44:57Z","2019-03-06T18:49:57Z","2019-03-06T18:54:57Z","2019-03-06T18:59:57Z","2019-03-06T19:04:57Z","2019-03-06T19:09:57Z","2019-03-06T19:14:57Z","2019-03-06T19:19:57Z","2019-03-06T19:24:57Z","2019-03-06T19:29:57Z","2019-03-06T19:39:57Z","2019-03-06T19:44:57Z","2019-03-06T19:49:57Z","2019-03-06T19:54:57Z","2019-03-06T19:59:57Z","2019-03-06T20:04:57Z","2019-03-06T20:09:57Z","2019-03-06T20:14:57Z","2019-03-06T20:19:57Z","2019-03-06T20:24:57Z","2019-03-06T20:29:57Z","2019-03-06T20:34:57Z","2019-03-06T20:39:57Z"],"type":"marche","month":"2019-03-01"},"geometry":{"type":"LineString","coordinates":[[38.797117529,8.983164875],[38.797273526,8.983084325],[38.797414065,8.983068392],[38.797529629,8.983041758],[38.797594865,8.983102466],[38.79817636,8.983481838],[38.79792722,8.983360342],[38.798033945,8.983442104],[38.798222183,8.983500654],[38.798182979,8.983525618],[38.798179465,8.983508553],[38.798200721,8.983507017],[38.798242415,8.983523245],[38.798142104,8.983490088],[38.798174517,8.983525267],[38.798212902,8.983519606],[38.79821744,8.983512543],[38.798187926,8.983508904],[38.798213721,8.983500304],[38.798200107,8.983521493],[38.798187722,8.983513729],[38.798192874,8.98349219],[38.798209798,8.983492891],[38.798192669,8.983497015],[38.798229621,8.983525132],[38.798297724,8.983518284],[38.79823044,8.98350583],[38.798204236,8.983524081],[38.798251492,8.983509119],[38.798134052,8.983480087],[38.798197617,8.983480302],[38.798230849,8.983496179],[38.798162541,8.983507853],[38.798188336,8.983499253],[38.798221978,8.98350548],[38.798212697,8.983524431],[38.798545808,8.983564811]]}}]}