{"type":"FeatureCollection","features":[{"type":"Feature","properties":{"name":"pour une glace","time":"2022-05-29T11:57:40Z","coordTimes":["2022-05-29T11:57:40Z","2022-05-29T11:57:42.999Z","2022-05-29T11:57:45.999Z","2022-05-29T11:57:48.999Z","2022-05-29T11:57:51.999Z","2022-05-29T11:57:54.999Z","2022-05-29T11:57:57.999Z","2022-05-29T11:58:03.999Z","2022-05-29T11:58:09.999Z","2022-05-29T11:58:16Z","2022-05-29T11:58:25Z","2022-05-29T11:58:28Z","2022-05-29T11:58:31Z","2022-05-29T11:58:34Z","2022-05-29T11:58:46Z","2022-05-29T11:59:01Z","2022-05-29T11:59:07Z","2022-05-29T11:59:10Z","2022-05-29T11:59:13Z","2022-05-29T11:59:19Z","2022-05-29T11:59:22Z","2022-05-29T11:59:50.999Z","2022-05-29T11:59:53.999Z","2022-05-29T11:59:59.999Z","2022-05-29T12:00:02.999Z","2022-05-29T12:00:14.999Z","2022-05-29T12:00:21Z","2022-05-29T12:00:30Z","2022-05-29T12:00:33Z","2022-05-29T12:00:38Z","2022-05-29T12:00:57Z","2022-05-29T12:01:03Z","2022-05-29T12:01:07Z","2022-05-29T12:01:11Z","2022-05-29T12:01:23Z","2022-05-29T12:01:26Z","2022-05-29T12:01:29Z","2022-05-29T12:01:35Z","2022-05-29T12:01:38Z","2022-05-29T12:01:48.999Z","2022-05-29T12:01:54.999Z","2022-05-29T12:02:37Z","2022-05-29T12:02:44Z","2022-05-29T12:02:48Z","2022-05-29T12:02:51Z","2022-05-29T12:02:54Z","2022-05-29T12:02:57Z","2022-05-29T12:03:00Z","2022-05-29T12:03:03Z","2022-05-29T12:03:06Z","2022-05-29T12:03:10Z","2022-05-29T12:03:14Z","2022-05-29T12:03:26Z","2022-05-29T12:03:30Z","2022-05-29T12:03:33Z","2022-05-29T12:03:37Z","2022-05-29T12:03:40Z","2022-05-29T12:03:43Z","2022-05-29T12:03:50Z","2022-05-29T12:03:58.999Z","2022-05-29T12:04:04.999Z","2022-05-29T12:04:08.999Z","2022-05-29T12:04:14.999Z","2022-05-29T12:04:22.999Z","2022-05-29T12:04:33Z","2022-05-29T12:04:36Z","2022-05-29T12:04:48Z","2022-05-29T12:04:52Z","2022-05-29T12:04:55Z","2022-05-29T12:04:59Z","2022-05-29T12:05:03Z","2022-05-29T12:05:05Z","2022-05-29T12:05:11Z","2022-05-29T12:05:15Z","2022-05-29T12:05:18Z","2022-05-29T12:05:26Z","2022-05-29T12:05:30Z","2022-05-29T12:05:34Z","2022-05-29T12:05:38Z","2022-05-29T12:05:51.999Z","2022-05-29T12:05:55.999Z","2022-05-29T12:06:01.999Z","2022-05-29T12:06:09.999Z","2022-05-29T12:06:13.999Z","2022-05-29T12:07:00Z","2022-05-29T12:07:07Z","2022-05-29T12:07:13Z","2022-05-29T12:07:22Z","2022-05-29T12:07:29Z","2022-05-29T12:07:35Z","2022-05-29T12:07:39.999Z","2022-05-29T12:07:44.999Z","2022-05-29T12:07:48.999Z","2022-05-29T12:08:12.999Z","2022-05-29T12:08:16.999Z","2022-05-29T12:08:28.999Z","2022-05-29T12:08:45Z","2022-05-29T12:09:12Z","2022-05-29T12:09:15Z","2022-05-29T12:09:19Z","2022-05-29T12:10:36.999Z","2022-05-29T12:10:39.999Z","2022-05-29T12:10:46.999Z","2022-05-29T12:10:52Z","2022-05-29T12:11:02Z","2022-05-29T12:11:13Z","2022-05-29T12:11:25Z","2022-05-29T12:11:33Z","2022-05-29T12:11:37Z","2022-05-29T12:11:46Z","2022-05-29T12:11:50Z","2022-05-29T12:11:53Z","2022-05-29T12:11:59Z","2022-05-29T12:12:02Z","2022-05-29T12:12:05Z","2022-05-29T12:12:11Z","2022-05-29T12:12:14Z","2022-05-29T12:12:19.999Z","2022-05-29T12:12:22.999Z","2022-05-29T12:12:25.999Z","2022-05-29T12:12:31.999Z","2022-05-29T12:12:34.999Z","2022-05-29T12:12:40.999Z","2022-05-29T12:12:43.999Z","2022-05-29T12:12:48.999Z","2022-05-29T13:01:28.999Z","2022-05-29T13:01:40.999Z","2022-05-29T13:01:48.999Z","2022-05-29T13:01:51.999Z","2022-05-29T13:01:57.999Z","2022-05-29T13:02:05.999Z","2022-05-29T13:02:10.999Z","2022-05-29T13:02:14.999Z","2022-05-29T13:02:18.999Z","2022-05-29T13:02:21.999Z","2022-05-29T13:02:25.999Z","2022-05-29T13:02:29.999Z","2022-05-29T13:02:35.999Z","2022-05-29T13:02:38.998Z","2022-05-29T13:02:42Z","2022-05-29T13:02:45Z","2022-05-29T13:02:48Z","2022-05-29T13:02:52Z","2022-05-29T13:02:55Z","2022-05-29T13:02:58Z","2022-05-29T13:03:02Z","2022-05-29T13:03:06Z","2022-05-29T13:03:09Z","2022-05-29T13:03:19Z","2022-05-29T13:03:27Z","2022-05-29T13:03:35.999Z","2022-05-29T13:03:45.999Z","2022-05-29T13:03:53.999Z","2022-05-29T13:03:56.999Z","2022-05-29T13:03:59.999Z","2022-05-29T13:04:02.999Z","2022-05-29T13:04:06.999Z","2022-05-29T13:04:25.999Z","2022-05-29T13:04:31.999Z","2022-05-29T13:04:37.999Z","2022-05-29T13:04:53Z","2022-05-29T13:05:02Z","2022-05-29T13:05:11Z","2022-05-29T13:05:17Z","2022-05-29T13:05:20Z","2022-05-29T13:05:23Z","2022-05-29T13:05:26Z","2022-05-29T13:05:30Z","2022-05-29T13:05:38.999Z","2022-05-29T13:05:44.999Z","2022-05-29T13:05:50.999Z","2022-05-29T13:05:53.999Z","2022-05-29T13:05:59.999Z","2022-05-29T13:06:06.999Z","2022-05-29T13:06:10.999Z","2022-05-29T13:06:13.999Z","2022-05-29T13:06:16.999Z","2022-05-29T13:06:19.999Z","2022-05-29T13:06:25.999Z","2022-05-29T13:06:28.999Z","2022-05-29T13:06:32.999Z","2022-05-29T13:06:35.999Z","2022-05-29T13:06:38.999Z","2022-05-29T13:06:44.999Z","2022-05-29T13:06:48.997Z","2022-05-29T13:06:52.997Z","2022-05-29T13:07:00Z","2022-05-29T13:07:04Z","2022-05-29T13:07:08Z","2022-05-29T13:07:16Z","2022-05-29T13:07:27Z","2022-05-29T13:07:31Z","2022-05-29T13:07:37Z","2022-05-29T13:07:51.999Z","2022-05-29T13:07:56.999Z","2022-05-29T13:08:04.999Z","2022-05-29T13:08:16.999Z","2022-05-29T13:08:20.999Z","2022-05-29T13:08:23.999Z","2022-05-29T13:08:26.999Z","2022-05-29T13:08:38.999Z","2022-05-29T13:08:50.999Z","2022-05-29T13:08:54.999Z","2022-05-29T13:08:57.999Z","2022-05-29T13:09:01Z","2022-05-29T13:09:04Z","2022-05-29T13:09:07Z","2022-05-29T13:09:10Z","2022-05-29T13:09:13Z","2022-05-29T13:10:25.999Z","2022-05-29T13:10:29.999Z","2022-05-29T13:10:35.999Z","2022-05-29T13:10:38.999Z","2022-05-29T13:10:41.999Z","2022-05-29T13:10:44.999Z","2022-05-29T13:10:47.999Z","2022-05-29T13:10:50.999Z","2022-05-29T13:10:56.999Z","2022-05-29T13:11:03.998Z","2022-05-29T13:11:39Z","2022-05-29T13:11:42Z","2022-05-29T13:11:46Z","2022-05-29T13:11:48.999Z","2022-05-29T13:11:54.999Z","2022-05-29T13:12:00.999Z","2022-05-29T13:12:49.999Z","2022-05-29T13:12:52.999Z","2022-05-29T13:12:54.999Z","2022-05-29T13:12:56.999Z","2022-05-29T13:13:02.999Z","2022-05-29T13:13:05.999Z","2022-05-29T13:13:12Z","2022-05-29T13:13:15Z","2022-05-29T13:13:37Z","2022-05-29T13:13:45Z","2022-05-29T13:13:51Z","2022-05-29T13:13:54Z","2022-05-29T13:13:59.999Z","2022-05-29T13:14:02.999Z","2022-05-29T13:14:06.999Z","2022-05-29T13:14:12.999Z","2022-05-29T13:14:19.999Z","2022-05-29T13:14:24.999Z","2022-05-29T13:14:28.999Z","2022-05-29T13:14:31.999Z","2022-05-29T13:14:35.999Z","2022-05-29T13:14:43.999Z","2022-05-29T13:15:00.999Z","2022-05-29T13:15:06.999Z","2022-05-29T13:15:11.999Z","2022-05-29T13:15:27Z","2022-05-29T13:15:32Z","2022-05-29T13:15:35Z","2022-05-29T13:15:43Z","2022-05-29T13:15:47Z","2022-05-29T13:15:52Z","2022-05-29T13:15:57Z","2022-05-29T13:16:04.999Z","2022-05-29T13:16:09.999Z","2022-05-29T13:16:28.999Z","2022-05-29T13:16:45.999Z","2022-05-29T13:17:02.999Z","2022-05-29T13:17:09.999Z","2022-05-29T13:17:17.999Z","2022-05-29T13:17:22.999Z","2022-05-29T13:17:28Z","2022-05-29T13:17:38Z","2022-05-29T13:52:02Z","2022-05-29T13:52:11Z","2022-05-29T13:52:19Z","2022-05-29T13:52:27Z","2022-05-29T13:53:39Z","2022-05-29T13:53:43Z","2022-05-29T13:53:49Z","2022-05-29T13:53:52Z","2022-05-29T13:53:55Z","2022-05-29T13:54:01Z","2022-05-29T13:54:04Z","2022-05-29T13:54:07Z","2022-05-29T13:54:10Z","2022-05-29T13:54:16Z","2022-05-29T13:54:19Z","2022-05-29T13:54:23Z","2022-05-29T13:54:29Z","2022-05-29T13:54:32Z","2022-05-29T13:54:35Z","2022-05-29T13:54:38Z","2022-05-29T13:54:41.999Z","2022-05-29T13:55:23.999Z","2022-05-29T13:55:26.999Z","2022-05-29T13:55:28.999Z","2022-05-29T13:55:31.999Z","2022-05-29T13:55:34.999Z","2022-05-29T13:55:37.999Z","2022-05-29T13:55:40.999Z","2022-05-29T13:55:47Z","2022-05-29T13:55:57Z","2022-05-29T13:56:03Z","2022-05-29T13:56:12Z","2022-05-29T13:56:16Z","2022-05-29T13:56:32Z","2022-05-29T13:56:39Z","2022-05-29T13:56:41.999Z","2022-05-29T13:56:45.999Z","2022-05-29T13:56:48.999Z","2022-05-29T13:56:54.999Z","2022-05-29T13:57:03.999Z","2022-05-29T13:57:06.999Z","2022-05-29T13:57:14.999Z","2022-05-29T13:57:31.999Z","2022-05-29T13:57:34.999Z","2022-05-29T13:57:37.999Z","2022-05-29T13:57:41.999Z","2022-05-29T13:57:46.999Z","2022-05-29T13:57:50Z","2022-05-29T13:57:53Z","2022-05-29T13:57:56Z","2022-05-29T13:57:59Z","2022-05-29T13:58:02Z","2022-05-29T13:58:05Z","2022-05-29T13:58:08Z","2022-05-29T13:58:11Z","2022-05-29T13:58:14Z","2022-05-29T13:58:23Z","2022-05-29T13:58:44Z","2022-05-29T13:58:47Z","2022-05-29T13:58:50Z","2022-05-29T13:58:54Z","2022-05-29T13:58:57.999Z","2022-05-29T13:59:07.999Z","2022-05-29T13:59:17.999Z","2022-05-29T13:59:29.999Z","2022-05-29T13:59:37.999Z","2022-05-29T13:59:44.999Z","2022-05-29T13:59:56Z","2022-05-29T14:00:02Z","2022-05-29T14:00:04Z","2022-05-29T14:00:08Z","2022-05-29T14:00:09Z","2022-05-29T14:00:15Z","2022-05-29T14:00:17Z","2022-05-29T14:00:19Z","2022-05-29T14:00:21Z","2022-05-29T14:00:25Z","2022-05-29T14:00:50Z","2022-05-29T14:01:49.999Z","2022-05-29T14:02:12Z","2022-05-29T14:02:15Z","2022-05-29T14:02:20Z","2022-05-29T14:02:23Z","2022-05-29T14:02:25Z","2022-05-29T14:02:30Z","2022-05-29T14:02:36Z","2022-05-29T14:02:39Z","2022-05-29T14:02:45Z","2022-05-29T14:02:51Z","2022-05-29T14:02:54Z","2022-05-29T14:02:57Z","2022-05-29T14:03:00Z","2022-05-29T14:03:08.999Z","2022-05-29T14:03:11.999Z","2022-05-29T14:03:15.999Z","2022-05-29T14:03:21.999Z","2022-05-29T14:03:33.999Z","2022-05-29T14:03:41.999Z","2022-05-29T14:03:46.999Z","2022-05-29T14:03:52.999Z","2022-05-29T14:03:59.999Z","2022-05-29T14:04:11Z","2022-05-29T14:04:15Z","2022-05-29T14:04:20Z","2022-05-29T14:04:34Z","2022-05-29T14:04:37Z","2022-05-29T14:04:46Z","2022-05-29T14:04:50Z","2022-05-29T14:04:56Z","2022-05-29T14:05:09.999Z","2022-05-29T14:05:28.999Z","2022-05-29T14:05:46.999Z","2022-05-29T14:05:52.999Z","2022-05-29T14:05:55.999Z","2022-05-29T14:06:08.999Z","2022-05-29T14:06:15Z","2022-05-29T14:06:21Z","2022-05-29T14:06:35Z","2022-05-29T14:06:44Z","2022-05-29T14:06:50Z","2022-05-29T14:06:55Z","2022-05-29T14:07:06Z","2022-05-29T14:07:19.999Z","2022-05-29T14:07:23.999Z","2022-05-29T14:07:34.999Z","2022-05-29T14:07:43.999Z","2022-05-29T14:07:46.999Z","2022-05-29T14:07:52.999Z","2022-05-29T14:08:05.999Z","2022-05-29T14:08:11.999Z","2022-05-29T14:08:15.999Z","2022-05-29T14:08:21Z","2022-05-29T14:08:25Z","2022-05-29T14:08:31Z","2022-05-29T14:08:39Z","2022-05-29T14:08:47Z","2022-05-29T14:08:56Z","2022-05-29T14:09:00Z","2022-05-29T14:09:05Z","2022-05-29T14:09:09Z","2022-05-29T14:09:14Z","2022-05-29T14:09:19Z","2022-05-29T14:09:28.999Z","2022-05-29T14:09:33.999Z","2022-05-29T14:09:39.999Z","2022-05-29T14:09:45.999Z","2022-05-29T14:09:51.999Z","2022-05-29T14:09:56.999Z","2022-05-29T14:10:01.999Z","2022-05-29T14:10:06.999Z","2022-05-29T14:10:21.999Z","2022-05-29T14:10:27Z","2022-05-29T14:10:37Z","2022-05-29T14:10:42Z","2022-05-29T14:10:47Z","2022-05-29T14:10:53Z","2022-05-29T14:10:58Z","2022-05-29T14:11:07Z","2022-05-29T14:11:12Z","2022-05-29T14:11:21Z","2022-05-29T14:11:28.999Z","2022-05-29T14:13:00Z","2022-05-29T14:13:07Z","2022-05-29T14:13:21Z","2022-05-29T14:13:24Z","2022-05-29T14:13:30Z","2022-05-29T14:13:33Z","2022-05-29T14:13:41.999Z","2022-05-29T14:13:47.999Z","2022-05-29T14:13:53.999Z","2022-05-29T14:13:59.999Z","2022-05-29T14:14:02.999Z","2022-05-29T14:14:05.999Z","2022-05-29T14:14:09.999Z","2022-05-29T14:14:13.999Z","2022-05-29T14:14:19.999Z","2022-05-29T14:14:22.999Z","2022-05-29T14:14:29.999Z","2022-05-29T14:14:33.999Z","2022-05-29T14:14:37Z","2022-05-29T14:14:40Z","2022-05-29T14:14:43Z","2022-05-29T14:14:49Z","2022-05-29T14:14:54Z","2022-05-29T14:15:16Z","2022-05-29T14:15:41Z","2022-05-29T14:15:43.999Z","2022-05-29T14:15:47.999Z","2022-05-29T14:15:51.999Z","2022-05-29T14:15:55.999Z","2022-05-29T14:15:58.999Z","2022-05-29T14:16:01.999Z","2022-05-29T14:16:04.999Z","2022-05-29T14:16:07.999Z","2022-05-29T14:16:10.999Z","2022-05-29T14:16:13.999Z","2022-05-29T14:16:28.999Z","2022-05-29T14:16:34.999Z","2022-05-29T14:16:37.999Z","2022-05-29T14:16:44Z","2022-05-29T14:16:47Z","2022-05-29T14:16:50Z","2022-05-29T14:16:56Z","2022-05-29T14:16:59Z","2022-05-29T14:17:05Z","2022-05-29T14:17:11Z","2022-05-29T14:17:14Z","2022-05-29T14:17:23Z","2022-05-29T14:17:29Z","2022-05-29T14:17:35Z","2022-05-29T14:17:38Z","2022-05-29T14:17:55.999Z","2022-05-29T14:17:58.999Z","2022-05-29T14:18:01.999Z","2022-05-29T14:18:04.999Z","2022-05-29T14:18:11.999Z","2022-05-29T14:18:24.999Z"],"type":"vtt","month":"2022-05-01"},"geometry":{"type":"LineString","coordinates":[[2.418548,48.686328,58.271],[2.418377,48.6863,58.271],[2.418219,48.68632,58.271],[2.418043,48.686326,58.271],[2.417879,48.686341,58.271],[2.417724,48.686344,58.271],[2.417588,48.686365,58.271],[2.417247,48.686395,58.271],[2.416919,48.686414,58.127],[2.416585,48.686447,57.956],[2.416076,48.686485,57.697],[2.415935,48.68653,57.617],[2.415875,48.686611,57.548],[2.415798,48.686686,57.479],[2.415177,48.686761,57.159],[2.414391,48.686824,56.763],[2.414089,48.686857,56.615],[2.413934,48.686865,56.54],[2.413764,48.686887,56.455],[2.413424,48.686911,56.29],[2.413259,48.68693,56.208],[2.411829,48.68705,55.491],[2.41168,48.687069,55.396],[2.411347,48.687096,55.186],[2.411188,48.687116,55.084],[2.410527,48.68716,54.667],[2.410199,48.687204,54.456],[2.40969,48.687235,54.135],[2.40953,48.687258,54.032],[2.40938,48.687289,53.934],[2.409232,48.687307,53.855],[2.409101,48.687263,53.831],[2.409053,48.68716,53.806],[2.408993,48.687062,53.781],[2.408946,48.686638,53.68],[2.408915,48.686539,53.655],[2.408869,48.686444,53.632],[2.408819,48.68623,53.58],[2.408653,48.686197,53.553],[2.407956,48.686135,53.442],[2.407585,48.686114,52.844],[2.40711,48.686181,51.905],[2.406951,48.686191,51.596],[2.406825,48.686225,51.333],[2.406678,48.686232,51.048],[2.406547,48.686278,50.762],[2.406381,48.686298,50.435],[2.406224,48.686329,50.119],[2.40606,48.686378,49.771],[2.405879,48.686399,49.416],[2.405724,48.686432,49.101],[2.405573,48.686443,48.807],[2.405082,48.686516,47.825],[2.404927,48.686525,47.515],[2.404793,48.68656,47.229],[2.404631,48.686621,46.858],[2.404455,48.68665,46.497],[2.404313,48.686639,46.213],[2.404004,48.686646,45.598],[2.403539,48.686722,44.646],[2.403377,48.686733,44.322],[2.40325,48.68678,44.032],[2.403113,48.686811,43.744],[2.402985,48.68686,43.45],[2.402645,48.686847,42.773],[2.402499,48.686875,42.387],[2.402092,48.686998,41.23],[2.401949,48.68706,40.788],[2.401814,48.687107,40.393],[2.40165,48.687112,39.969],[2.401501,48.687072,39.553],[2.401368,48.687047,39.196],[2.401053,48.687019,38.374],[2.400883,48.687051,37.917],[2.400745,48.687058,37.559],[2.400421,48.687102,36.704],[2.400281,48.687108,36.342],[2.400122,48.687135,35.917],[2.39998,48.687181,35.646],[2.399532,48.687231,35.29],[2.399385,48.687258,35.171],[2.399225,48.68725,35.045],[2.398938,48.687263,34.82],[2.398804,48.687283,34.712],[2.398146,48.687354,34.19],[2.398038,48.687409,34.083],[2.397901,48.687441,33.97],[2.397784,48.687492,33.86],[2.397666,48.687563,33.735],[2.397519,48.68758,33.618],[2.397372,48.687621,33.576],[2.397202,48.687637,33.582],[2.397071,48.687667,33.587],[2.396178,48.687804,33.618],[2.396011,48.68784,33.624],[2.39553,48.687889,33.641],[2.394849,48.687997,33.665],[2.393565,48.688172,34.066],[2.393419,48.688184,34.112],[2.39327,48.688212,34.161],[2.393506,48.688265,34.239],[2.393651,48.688259,34.284],[2.39389,48.68815,34.375],[2.394033,48.68813,34.421],[2.394345,48.688069,34.513],[2.394647,48.688031,34.391],[2.395047,48.687944,34.223],[2.395367,48.687912,34.094],[2.395485,48.687983,34.03],[2.395488,48.6882,33.899],[2.395389,48.688278,33.837],[2.395274,48.688333,33.781],[2.395017,48.688438,33.66],[2.3949,48.688502,33.599],[2.394795,48.688573,33.539],[2.394636,48.688725,33.431],[2.394578,48.688816,33.411],[2.394512,48.689008,33.372],[2.394489,48.68911,33.352],[2.394446,48.689211,33.331],[2.394385,48.689408,33.291],[2.394306,48.689504,33.27],[2.394045,48.689622,33.228],[2.393905,48.689648,33.209],[2.393749,48.689691,33.187],[2.393777,48.689782,33.169],[2.393766,48.68988,33.15],[2.39366,48.689954,33.129],[2.393506,48.689985,33.108],[2.39325,48.690064,33.09],[2.392958,48.690141,33.202],[2.392806,48.690172,33.258],[2.39266,48.690213,33.315],[2.392495,48.690241,33.375],[2.392371,48.690191,33.427],[2.392269,48.690118,33.48],[2.392117,48.690054,33.545],[2.391892,48.689921,33.652],[2.391789,48.689841,33.709],[2.391707,48.689745,33.768],[2.391612,48.689657,33.826],[2.391451,48.689627,33.886],[2.39136,48.689537,33.944],[2.391313,48.689448,33.995],[2.391233,48.689361,34.052],[2.391186,48.689252,34.152],[2.391077,48.689171,34.247],[2.390974,48.689109,34.328],[2.390848,48.688932,34.5],[2.390773,48.688854,34.581],[2.39068,48.688675,34.747],[2.390618,48.688589,34.831],[2.390488,48.688556,34.912],[2.390339,48.68858,35.001],[2.390196,48.688559,35.086],[2.390057,48.688575,35.168],[2.389895,48.688609,35.267],[2.389072,48.688857,35.498],[2.388786,48.688933,35.359],[2.388501,48.689022,35.217],[2.387734,48.689232,34.843],[2.387239,48.689383,34.598],[2.386777,48.689513,34.39],[2.386444,48.689584,34.341],[2.386273,48.689591,34.316],[2.38609,48.689614,34.29],[2.385938,48.689613,34.269],[2.385797,48.689599,34.248],[2.38566,48.689614,34.229],[2.385528,48.689552,34.206],[2.385434,48.689471,34.184],[2.385426,48.689378,34.164],[2.385356,48.689191,34.123],[2.385156,48.689044,34.08],[2.385085,48.688959,34.059],[2.385045,48.688861,34.038],[2.384989,48.688772,34.017],[2.384952,48.688678,34.129],[2.384924,48.688455,34.453],[2.384882,48.688352,34.607],[2.384809,48.688252,34.767],[2.384658,48.688225,34.917],[2.384488,48.688277,35.096],[2.384214,48.688377,35.394],[2.384078,48.688459,35.57],[2.383945,48.688527,35.731],[2.383721,48.688677,36.035],[2.383594,48.688751,36.197],[2.383478,48.688837,36.364],[2.383221,48.688986,36.584],[2.382941,48.689221,36.411],[2.382848,48.689288,36.358],[2.382716,48.689335,36.301],[2.382568,48.689354,36.243],[2.382436,48.689402,36.186],[2.382171,48.689537,36.058],[2.381793,48.689764,35.863],[2.381674,48.689852,35.794],[2.381672,48.689946,35.74],[2.381746,48.690065,35.666],[2.38233,48.690576,35.386],[2.38288,48.691109,35.133],[2.383075,48.69128,35.05],[2.383151,48.691388,35.003],[2.383125,48.691491,34.962],[2.383003,48.691555,34.922],[2.382853,48.691586,34.882],[2.382723,48.691626,34.858],[2.382587,48.69165,34.841],[2.382076,48.691767,34.774],[2.38195,48.691702,34.754],[2.381895,48.691512,34.717],[2.381827,48.69141,34.697],[2.381816,48.691288,34.674],[2.38179,48.691159,34.649],[2.38179,48.69106,34.631],[2.38175,48.690967,34.612],[2.38172,48.690764,34.574],[2.381662,48.690575,34.538],[2.381614,48.690357,34.593],[2.381538,48.690281,34.622],[2.381353,48.690313,34.661],[2.381206,48.690361,34.695],[2.380905,48.690441,34.762],[2.380617,48.690547,34.831],[2.380397,48.690733,34.905],[2.380283,48.690807,34.938],[2.380148,48.690838,34.967],[2.380024,48.690876,34.995],[2.379714,48.69101,35.072],[2.379546,48.691063,35.1],[2.379207,48.691148,35.121],[2.379086,48.691204,35.13],[2.378873,48.69133,35.146],[2.378564,48.691442,35.167],[2.378328,48.691549,35.183],[2.378191,48.691601,35.193],[2.377936,48.691719,35.211],[2.377821,48.691803,35.221],[2.377639,48.691833,35.232],[2.377482,48.691803,35.241],[2.377336,48.691786,35.25],[2.377182,48.691732,35.293],[2.377052,48.691676,35.355],[2.376921,48.691642,35.412],[2.376792,48.691569,35.481],[2.376649,48.691399,35.6],[2.376577,48.691192,35.73],[2.376584,48.691088,35.794],[2.376518,48.690992,35.859],[2.376434,48.690688,36.048],[2.376387,48.690579,36.117],[2.376333,48.690488,36.177],[2.376253,48.690284,36.306],[2.376199,48.6902,36.355],[2.376318,48.690138,36.353],[2.376473,48.690108,36.35],[2.376751,48.69009,36.346],[2.376891,48.690051,36.344],[2.37704,48.690052,36.342],[2.377002,48.689958,36.339],[2.376401,48.689609,36.327],[2.3761,48.689511,36.322],[2.376077,48.689423,36.32],[2.376123,48.689323,36.318],[2.376208,48.689236,36.316],[2.376353,48.689052,36.292],[2.376186,48.689223,36.262],[2.37614,48.689308,36.249],[2.376071,48.689396,36.235],[2.375979,48.689469,36.221],[2.376084,48.689547,36.206],[2.376253,48.689587,36.189],[2.376558,48.689752,36.151],[2.37671,48.689825,36.133],[2.376827,48.689895,36.118],[2.377137,48.690036,36.082],[2.377284,48.69012,36.063],[2.377411,48.69022,36.023],[2.377544,48.690292,35.968],[2.377651,48.690494,35.864],[2.377741,48.690602,35.804],[2.377843,48.690785,35.71],[2.378042,48.690994,35.59],[2.378115,48.691099,35.534],[2.378169,48.691199,35.482],[2.378255,48.691306,35.424],[2.378335,48.691387,35.377],[2.378667,48.691431,35.268],[2.378821,48.691385,35.214],[2.378934,48.691327,35.181],[2.379115,48.691274,35.181],[2.379292,48.691235,35.181],[2.379425,48.69116,35.181],[2.37957,48.691107,35.181],[2.379706,48.691078,35.182],[2.380124,48.6909,35.182],[2.38039,48.690773,35.182],[2.380816,48.690614,35.183],[2.380934,48.690557,35.183],[2.381129,48.690408,35.183],[2.381386,48.690292,35.189],[2.381552,48.690294,35.193],[2.381681,48.69037,35.198],[2.381714,48.690458,35.201],[2.38173,48.690682,35.209],[2.381794,48.690977,35.22],[2.381828,48.69107,35.223],[2.381878,48.691284,35.231],[2.382026,48.691475,35.239],[2.382054,48.691569,35.242],[2.382107,48.691678,35.247],[2.382221,48.691744,35.265],[2.382353,48.691681,35.305],[2.382534,48.691665,35.35],[2.382695,48.69167,35.39],[2.382817,48.691626,35.424],[2.382976,48.691587,35.466],[2.383077,48.691506,35.505],[2.383087,48.691391,35.549],[2.383038,48.691276,35.593],[2.382952,48.691191,35.632],[2.382874,48.691084,35.676],[2.3826,48.69079,35.805],[2.381869,48.690103,35.86],[2.381793,48.689997,35.846],[2.381759,48.689888,35.833],[2.381825,48.689796,35.821],[2.381903,48.689719,35.81],[2.382139,48.689595,35.786],[2.38235,48.689453,35.763],[2.382534,48.689313,35.741],[2.382685,48.689334,35.729],[2.382815,48.68929,35.718],[2.383063,48.689166,35.498],[2.383282,48.689026,35.192],[2.383375,48.68895,35.043],[2.383596,48.688809,34.735],[2.383549,48.688695,34.555],[2.38397,48.688437,33.978],[2.384157,48.688358,33.755],[2.384307,48.68827,33.553],[2.384444,48.688201,33.38],[2.384834,48.688275,32.974],[2.38514,48.688919,33.952],[2.385283,48.688929,34.089],[2.385339,48.689045,34.266],[2.385416,48.689144,34.427],[2.385543,48.689345,34.742],[2.385639,48.68944,34.908],[2.385778,48.689485,35.055],[2.3861,48.689555,35.379],[2.386428,48.689551,35.449],[2.3866,48.689508,35.253],[2.386939,48.689392,34.845],[2.387265,48.689306,34.471],[2.387424,48.689256,34.283],[2.387603,48.689211,34.078],[2.387784,48.689152,33.863],[2.388316,48.689007,33.249],[2.388508,48.688964,33.032],[2.388759,48.688881,32.733],[2.389183,48.688768,32.818],[2.39009,48.688486,33.19],[2.390336,48.688376,33.3],[2.390496,48.688374,33.359],[2.390642,48.68834,33.416],[2.39079,48.688347,33.471],[2.390857,48.688445,33.532],[2.390981,48.688484,33.582],[2.391146,48.688513,33.646],[2.391772,48.688419,33.904],[2.39191,48.68839,33.963],[2.392337,48.688321,34.142],[2.392516,48.688306,34.215],[2.392807,48.688265,34.336],[2.393436,48.688202,34.595],[2.394412,48.688053,34.572],[2.395366,48.687928,34.174],[2.395691,48.687913,34.04],[2.39585,48.687871,33.97],[2.396494,48.687769,33.698],[2.396789,48.687703,33.707],[2.397077,48.687673,33.749],[2.397711,48.687591,33.842],[2.397997,48.687542,33.885],[2.398126,48.687481,33.908],[2.398257,48.687445,33.928],[2.39851,48.687348,33.97],[2.398967,48.687268,34.038],[2.399109,48.687267,34.059],[2.399414,48.687246,34.637],[2.399734,48.687207,35.327],[2.399871,48.687169,35.642],[2.400167,48.687143,36.275],[2.400789,48.687114,37.596],[2.401094,48.687048,38.277],[2.40125,48.687023,38.617],[2.401422,48.686983,39.003],[2.401567,48.687016,39.328],[2.401892,48.687028,40.062],[2.402192,48.686967,40.888],[2.402476,48.686883,41.707],[2.402767,48.686908,42.479],[2.402902,48.686891,42.841],[2.403049,48.68684,43.278],[2.403195,48.686818,43.672],[2.403333,48.686755,44.113],[2.403489,48.686722,44.544],[2.403764,48.686708,45.27],[2.403902,48.686684,45.646],[2.404059,48.68668,46.059],[2.404213,48.686689,46.466],[2.404363,48.686681,46.862],[2.404499,48.686658,47.118],[2.404636,48.68662,47.313],[2.404763,48.686559,47.519],[2.405214,48.686497,48.124],[2.40535,48.686494,48.302],[2.405655,48.686452,48.711],[2.405803,48.686422,48.914],[2.405961,48.686414,49.122],[2.406112,48.68639,49.326],[2.406241,48.686353,49.51],[2.40653,48.6863,49.904],[2.406672,48.686282,50.094],[2.406972,48.686267,50.488],[2.407106,48.686243,50.58],[2.407067,48.686386,50.578],[2.40709,48.686607,50.576],[2.407244,48.687018,50.573],[2.407267,48.687118,50.572],[2.407258,48.687316,50.57],[2.407268,48.687434,50.569],[2.407388,48.687729,50.566],[2.407441,48.687956,50.564],[2.407462,48.688197,50.765],[2.407533,48.688406,50.95],[2.407663,48.68845,51.034],[2.407797,48.688416,51.116],[2.407942,48.688396,51.201],[2.408118,48.688387,51.302],[2.408407,48.688354,51.47],[2.40857,48.688351,51.563],[2.408901,48.688314,51.755],[2.409053,48.688266,51.852],[2.409078,48.688158,51.946],[2.409055,48.688056,52.036],[2.409075,48.687966,52.114],[2.409231,48.687816,52.368],[2.409193,48.687728,52.499],[2.40937,48.68765,52.699],[2.409472,48.687537,52.886],[2.409407,48.687448,53.027],[2.409378,48.687341,53.181],[2.409508,48.687291,53.323],[2.409681,48.68725,53.496],[2.40985,48.687256,53.655],[2.410018,48.68725,53.813],[2.410178,48.68722,53.969],[2.410365,48.687223,54.145],[2.410529,48.687205,54.302],[2.410684,48.687178,54.452],[2.411429,48.687108,54.928],[2.411746,48.687088,55.082],[2.411899,48.687067,55.157],[2.412225,48.687042,55.316],[2.412384,48.687022,55.394],[2.41254,48.687024,55.469],[2.412879,48.687005,55.633],[2.413025,48.686985,55.705],[2.413333,48.686968,55.854],[2.413655,48.68693,55.998],[2.413832,48.686922,55.998],[2.414353,48.686875,55.998],[2.414687,48.686834,55.998],[2.415014,48.686815,55.998],[2.415175,48.686793,55.998],[2.415975,48.686717,55.998],[2.416132,48.686712,55.998],[2.416283,48.686697,55.998],[2.416444,48.686691,55.998],[2.416782,48.68665,55.998],[2.417365,48.686597,55.998]]}}]}