<?xml version="1.0" encoding="UTF-8"?>
<gpx version="1.1" creator="GPSBabel - https://www.gpsbabel.org" xmlns="http://www.topografix.com/GPX/1/1" xmlns:xsi="http://www.w3.org/2001/XMLSchema-instance" xmlns:gpxtpx="http://www.garmin.com/xmlschemas/TrackPointExtension/v1" xmlns:gpxx="http://www.garmin.com/xmlschemas/GpxExtensions/v3" xmlns:gpxpx="http://www.garmin.com/xmlschemas/PowerExtension/v1" xmlns:gpx_style="http://www.topografix.com/GPX/gpx_style/0/2">
  <metadata>
    <name>2008-09-14 22 01 21</name>
    <time>2025-09-08T13:47:48.914Z</time>
    <bounds minlat="46.766233000" minlon="-73.026433000" maxlat="46.767054000" maxlon="-73.025697000"/>
  </metadata>
  <trk>
    <name>unnamed</name>
    <trkseg>
      <trkpt lat="46.767054000" lon="-73.026429000">
        <ele>280.840</ele>
        <time>2008-09-02T18:48:48Z</time>
      </trkpt>
      <trkpt lat="46.766774000" lon="-73.026322000">
        <ele>281.800</ele>
        <time>2008-09-02T18:49:16Z</time>
      </trkpt>
      <trkpt lat="46.766680000" lon="-73.026146000">
        <ele>281.320</ele>
        <time>2008-09-02T18:49:36Z</time>
      </trkpt>
      <trkpt lat="46.766551000" lon="-73.026012000">
        <ele>281.320</ele>
        <time>2008-09-02T18:49:50Z</time>
      </trkpt>
      <trkpt lat="46.766358000" lon="-73.025781000">
        <ele>281.320</ele>
        <time>2008-09-02T18:50:12Z</time>
      </trkpt>
      <trkpt lat="46.766328000" lon="-73.025867000">
        <ele>283.250</ele>
        <time>2008-09-02T18:50:51Z</time>
      </trkpt>
      <trkpt lat="46.766233000" lon="-73.025704000">
        <ele>285.650</ele>
        <time>2008-09-02T18:51:49Z</time>
      </trkpt>
      <trkpt lat="46.766255000" lon="-73.025776000">
        <ele>287.090</ele>
        <time>2008-09-02T18:52:18Z</time>
      </trkpt>
      <trkpt lat="46.766412000" lon="-73.025697000">
        <ele>289.490</ele>
        <time>2008-09-02T18:53:17Z</time>
      </trkpt>
      <trkpt lat="46.766451000" lon="-73.025701000">
        <ele>290.940</ele>
        <time>2008-09-02T18:53:41Z</time>
      </trkpt>
      <trkpt lat="46.766511000" lon="-73.025795000">
        <ele>291.900</ele>
        <time>2008-09-02T18:54:05Z</time>
      </trkpt>
      <trkpt lat="46.766812000" lon="-73.026130000">
        <ele>294.780</ele>
        <time>2008-09-02T18:54:44Z</time>
      </trkpt>
      <trkpt lat="46.767029000" lon="-73.026342000">
        <ele>297.670</ele>
        <time>2008-09-02T18:55:26Z</time>
      </trkpt>
      <trkpt lat="46.767050000" lon="-73.026433000">
        <ele>299.110</ele>
        <time>2008-09-02T18:55:49Z</time>
      </trkpt>
      <trkpt lat="46.767015000" lon="-73.026339000">
        <ele>301.510</ele>
        <time>2008-09-02T18:57:04Z</time>
      </trkpt>
      <trkpt lat="46.767038000" lon="-73.026318000">
        <ele>302.470</ele>
        <time>2008-09-02T18:57:23Z</time>
      </trkpt>
    </trkseg>
  </trk>
</gpx>
