{"type":"FeatureCollection","features":[{"type":"Feature","properties":{"name":"Balade photographique avec Bruno","type":"marche","time":"2026-09-15T10:48:32Z","coordTimes":["2026-09-15T10:48:32Z","2026-09-15T10:48:36Z","2026-09-15T10:48:37Z","2026-09-15T10:48:38Z","2026-09-15T10:48:39Z","2026-09-15T10:48:40Z","2026-09-15T10:48:41Z","2026-09-15T10:48:42Z","2026-09-15T10:48:45Z","2026-09-15T10:48:48Z","2026-09-15T10:48:49Z","2026-09-15T10:48:51Z","2026-09-15T10:48:52Z","2026-09-15T10:48:55Z","2026-09-15T10:48:57Z","2026-09-15T10:49:00Z","2026-09-15T10:49:03Z","2026-09-15T10:49:05Z","2026-09-15T10:49:08Z","2026-09-15T10:49:13Z","2026-09-15T10:49:16Z","2026-09-15T10:49:18Z","2026-09-15T10:49:19Z","2026-09-15T10:49:20Z","2026-09-15T10:49:30Z","2026-09-15T10:49:31Z","2026-09-15T10:49:36Z","2026-09-15T10:49:40Z","2026-09-15T10:49:41Z","2026-09-15T10:49:42Z","2026-09-15T10:49:45Z","2026-09-15T10:49:46Z","2026-09-15T10:49:49Z","2026-09-15T10:49:51Z","2026-09-15T10:49:53Z","2026-09-15T10:49:55Z","2026-09-15T10:49:56Z","2026-09-15T10:49:57Z","2026-09-15T10:49:58Z","2026-09-15T10:50:00Z","2026-09-15T10:50:10Z","2026-09-15T10:50:12Z","2026-09-15T10:50:15Z","2026-09-15T10:50:17Z","2026-09-15T10:50:21Z","2026-09-15T10:50:27Z","2026-09-15T10:50:29Z","2026-09-15T10:50:33Z","2026-09-15T10:50:34Z","2026-09-15T10:50:39Z","2026-09-15T10:50:41Z","2026-09-15T10:50:43Z","2026-09-15T10:50:46Z","2026-09-15T10:50:47Z","2026-09-15T10:50:50Z","2026-09-15T10:50:51Z","2026-09-15T10:50:52Z","2026-09-15T10:50:56Z","2026-09-15T10:50:58Z","2026-09-15T10:51:00Z","2026-09-15T10:51:01Z","2026-09-15T10:51:03Z","2026-09-15T10:51:08Z","2026-09-15T10:51:10Z","2026-09-15T10:51:15Z","2026-09-15T10:51:16Z","2026-09-15T10:51:18Z","2026-09-15T10:51:21Z","2026-09-15T10:51:22Z","2026-09-15T10:51:25Z","2026-09-15T10:51:29Z","2026-09-15T10:51:30Z","2026-09-15T10:51:33Z","2026-09-15T10:51:36Z","2026-09-15T10:51:40Z","2026-09-15T10:51:42Z","2026-09-15T10:51:44Z","2026-09-15T10:51:46Z","2026-09-15T10:51:48Z","2026-09-15T10:51:49Z","2026-09-15T10:51:55Z","2026-09-15T10:51:58Z","2026-09-15T10:52:01Z","2026-09-15T10:52:02Z","2026-09-15T10:52:08Z","2026-09-15T10:52:12Z","2026-09-15T10:52:14Z","2026-09-15T10:52:17Z","2026-09-15T10:52:25Z","2026-09-15T10:52:29Z","2026-09-15T10:52:31Z","2026-09-15T10:52:38Z","2026-09-15T10:52:39Z","2026-09-15T10:52:41Z","2026-09-15T10:52:47Z","2026-09-15T10:52:48Z","2026-09-15T10:52:55Z","2026-09-15T10:53:00Z","2026-09-15T10:53:01Z","2026-09-15T10:53:03Z","2026-09-15T10:53:06Z","2026-09-15T10:53:15Z","2026-09-15T10:53:18Z","2026-09-15T10:53:21Z","2026-09-15T10:53:28Z","2026-09-15T10:53:32Z","2026-09-15T10:53:36Z","2026-09-15T10:53:38Z","2026-09-15T10:53:42Z","2026-09-15T10:53:45Z","2026-09-15T10:53:55Z","2026-09-15T10:53:57Z","2026-09-15T10:53:59Z","2026-09-15T10:54:06Z","2026-09-15T10:54:13Z","2026-09-15T10:54:14Z","2026-09-15T10:54:19Z","2026-09-15T10:54:21Z","2026-09-15T10:54:28Z","2026-09-15T10:54:31Z","2026-09-15T10:54:38Z","2026-09-15T10:54:42Z","2026-09-15T10:54:45Z","2026-09-15T10:54:46Z","2026-09-15T10:54:48Z","2026-09-15T10:54:52Z","2026-09-15T10:54:57Z","2026-09-15T10:54:58Z","2026-09-15T10:55:02Z","2026-09-15T10:55:06Z","2026-09-15T10:55:09Z","2026-09-15T10:55:11Z","2026-09-15T10:55:14Z","2026-09-15T10:55:18Z","2026-09-15T10:55:21Z","2026-09-15T10:55:23Z","2026-09-15T10:55:27Z","2026-09-15T10:55:32Z","2026-09-15T10:55:38Z","2026-09-15T10:55:40Z","2026-09-15T10:55:49Z","2026-09-15T10:55:57Z","2026-09-15T10:56:03Z","2026-09-15T10:56:08Z","2026-09-15T10:56:14Z","2026-09-15T10:56:23Z","2026-09-15T10:56:28Z","2026-09-15T10:56:30Z","2026-09-15T10:56:33Z","2026-09-15T10:56:38Z","2026-09-15T10:56:45Z","2026-09-15T10:56:48Z","2026-09-15T10:56:49Z","2026-09-15T10:56:55Z","2026-09-15T10:57:00Z","2026-09-15T10:57:07Z","2026-09-15T10:57:14Z","2026-09-15T10:57:20Z","2026-09-15T10:57:24Z","2026-09-15T10:57:30Z","2026-09-15T10:57:46Z","2026-09-15T10:57:52Z","2026-09-15T10:57:53Z","2026-09-15T10:58:14Z","2026-09-15T10:58:30Z","2026-09-15T10:58:37Z","2026-09-15T10:58:53Z","2026-09-15T10:59:05Z","2026-09-15T10:59:17Z","2026-09-15T10:59:36Z","2026-09-15T10:59:42Z","2026-09-15T10:59:53Z","2026-09-15T11:00:34Z","2026-09-15T11:00:44Z","2026-09-15T11:00:47Z","2026-09-15T11:00:56Z","2026-09-15T11:01:04Z","2026-09-15T11:01:15Z","2026-09-15T11:01:25Z","2026-09-15T11:01:33Z","2026-09-15T11:01:52Z","2026-09-15T11:01:55Z","2026-09-15T11:04:46Z","2026-09-15T11:04:47Z","2026-09-15T11:04:58Z","2026-09-15T11:05:00Z","2026-09-15T11:05:04Z","2026-09-15T11:05:11Z","2026-09-15T11:05:15Z","2026-09-15T11:05:16Z","2026-09-15T11:05:19Z","2026-09-15T11:05:21Z","2026-09-15T11:05:25Z","2026-09-15T11:05:26Z","2026-09-15T11:05:31Z","2026-09-15T11:05:32Z","2026-09-15T11:05:34Z","2026-09-15T11:05:39Z","2026-09-15T11:05:42Z","2026-09-15T11:05:49Z","2026-09-15T11:05:51Z","2026-09-15T11:05:53Z","2026-09-15T11:06:00Z","2026-09-15T11:06:02Z","2026-09-15T11:06:07Z","2026-09-15T11:06:09Z","2026-09-15T11:06:10Z","2026-09-15T11:06:12Z","2026-09-15T11:06:14Z","2026-09-15T11:06:18Z","2026-09-15T11:06:26Z","2026-09-15T11:06:30Z","2026-09-15T11:06:32Z","2026-09-15T11:06:34Z","2026-09-15T11:06:37Z","2026-09-15T11:06:43Z","2026-09-15T11:06:49Z","2026-09-15T11:07:00Z","2026-09-15T11:07:03Z","2026-09-15T11:07:06Z","2026-09-15T11:07:09Z","2026-09-15T11:07:18Z","2026-09-15T11:07:30Z","2026-09-15T11:07:39Z","2026-09-15T11:07:45Z","2026-09-15T11:07:46Z","2026-09-15T11:08:02Z","2026-09-15T11:08:03Z","2026-09-15T11:08:06Z","2026-09-15T11:08:13Z","2026-09-15T11:08:14Z","2026-09-15T11:08:16Z","2026-09-15T11:08:19Z","2026-09-15T11:08:25Z","2026-09-15T11:08:34Z","2026-09-15T11:08:43Z","2026-09-15T11:08:44Z","2026-09-15T11:08:55Z","2026-09-15T11:09:05Z","2026-09-15T11:10:05Z","2026-09-15T11:10:39Z","2026-09-15T11:10:41Z","2026-09-15T11:10:47Z","2026-09-15T11:10:51Z","2026-09-15T11:11:07Z","2026-09-15T11:11:10Z","2026-09-15T11:11:11Z","2026-09-15T11:11:20Z","2026-09-15T11:11:22Z","2026-09-15T11:11:29Z","2026-09-15T11:11:35Z","2026-09-15T11:11:39Z","2026-09-15T11:11:43Z","2026-09-15T11:11:55Z","2026-09-15T11:11:59Z","2026-09-15T11:12:00Z","2026-09-15T11:12:02Z","2026-09-15T11:12:04Z","2026-09-15T11:12:11Z","2026-09-15T11:12:13Z","2026-09-15T11:12:23Z","2026-09-15T11:12:26Z","2026-09-15T11:12:28Z","2026-09-15T11:12:30Z","2026-09-15T11:12:35Z","2026-09-15T11:12:41Z","2026-09-15T11:12:42Z","2026-09-15T11:12:46Z","2026-09-15T11:12:51Z","2026-09-15T11:12:58Z","2026-09-15T11:13:02Z","2026-09-15T11:13:16Z","2026-09-15T11:13:19Z","2026-09-15T11:13:21Z","2026-09-15T11:13:25Z","2026-09-15T11:13:26Z","2026-09-15T11:13:32Z","2026-09-15T11:13:35Z","2026-09-15T11:13:38Z","2026-09-15T11:13:41Z","2026-09-15T11:13:46Z","2026-09-15T11:13:49Z","2026-09-15T11:13:51Z","2026-09-15T11:13:55Z","2026-09-15T11:14:01Z","2026-09-15T11:14:04Z","2026-09-15T11:14:15Z","2026-09-15T11:14:22Z","2026-09-15T11:14:29Z","2026-09-15T11:14:41Z","2026-09-15T11:14:46Z","2026-09-15T11:14:51Z","2026-09-15T11:14:54Z","2026-09-15T11:14:55Z","2026-09-15T11:14:57Z","2026-09-15T11:15:00Z","2026-09-15T11:15:11Z","2026-09-15T11:15:13Z","2026-09-15T11:15:15Z","2026-09-15T11:15:22Z","2026-09-15T11:15:24Z","2026-09-15T11:15:27Z","2026-09-15T11:15:31Z","2026-09-15T11:15:34Z","2026-09-15T11:15:37Z","2026-09-15T11:15:38Z","2026-09-15T11:15:42Z","2026-09-15T11:15:43Z","2026-09-15T11:15:46Z","2026-09-15T11:15:47Z","2026-09-15T11:15:49Z","2026-09-15T11:15:52Z","2026-09-15T11:15:57Z","2026-09-15T11:16:01Z","2026-09-15T11:16:03Z","2026-09-15T11:16:07Z","2026-09-15T11:16:11Z","2026-09-15T11:16:14Z","2026-09-15T11:16:17Z","2026-09-15T11:16:21Z","2026-09-15T11:16:29Z","2026-09-15T11:16:37Z","2026-09-15T11:16:40Z","2026-09-15T11:16:42Z","2026-09-15T11:16:49Z","2026-09-15T11:16:52Z","2026-09-15T11:16:56Z","2026-09-15T11:16:59Z","2026-09-15T11:17:02Z","2026-09-15T11:17:06Z","2026-09-15T11:17:09Z","2026-09-15T11:17:12Z","2026-09-15T11:17:20Z","2026-09-15T11:17:23Z","2026-09-15T11:17:24Z","2026-09-15T11:17:59Z","2026-09-15T11:18:01Z","2026-09-15T11:18:02Z","2026-09-15T11:18:05Z","2026-09-15T11:18:08Z","2026-09-15T11:18:16Z","2026-09-15T11:18:17Z","2026-09-15T11:18:19Z","2026-09-15T11:18:21Z","2026-09-15T11:18:24Z","2026-09-15T11:18:26Z","2026-09-15T11:18:28Z","2026-09-15T11:18:34Z","2026-09-15T11:18:38Z","2026-09-15T11:18:46Z","2026-09-15T11:18:48Z","2026-09-15T11:18:51Z","2026-09-15T11:18:55Z","2026-09-15T11:18:56Z","2026-09-15T11:18:59Z","2026-09-15T11:19:03Z","2026-09-15T11:19:06Z","2026-09-15T11:19:10Z","2026-09-15T11:19:12Z","2026-09-15T11:19:18Z","2026-09-15T11:19:21Z","2026-09-15T11:19:29Z","2026-09-15T11:19:31Z","2026-09-15T11:19:33Z","2026-09-15T11:19:35Z","2026-09-15T11:19:37Z","2026-09-15T11:19:40Z","2026-09-15T11:19:44Z","2026-09-15T11:19:46Z","2026-09-15T11:19:50Z","2026-09-15T11:19:56Z","2026-09-15T11:20:05Z","2026-09-15T11:20:09Z","2026-09-15T11:20:11Z","2026-09-15T11:20:13Z","2026-09-15T11:20:14Z","2026-09-15T11:20:16Z","2026-09-15T11:20:18Z","2026-09-15T11:20:19Z","2026-09-15T11:20:21Z","2026-09-15T11:20:31Z","2026-09-15T11:20:33Z","2026-09-15T11:20:35Z","2026-09-15T11:20:41Z","2026-09-15T11:20:43Z","2026-09-15T11:20:45Z","2026-09-15T11:20:48Z","2026-09-15T11:20:50Z","2026-09-15T11:20:53Z","2026-09-15T11:20:56Z","2026-09-15T11:21:03Z","2026-09-15T11:21:08Z","2026-09-15T11:21:09Z","2026-09-15T11:21:11Z","2026-09-15T11:21:12Z","2026-09-15T11:21:15Z","2026-09-15T11:21:18Z","2026-09-15T11:21:19Z","2026-09-15T11:21:22Z","2026-09-15T11:21:27Z","2026-09-15T11:21:28Z","2026-09-15T11:21:30Z","2026-09-15T11:21:31Z","2026-09-15T11:21:33Z","2026-09-15T11:21:38Z","2026-09-15T11:21:40Z","2026-09-15T11:21:42Z","2026-09-15T11:21:54Z","2026-09-15T11:22:01Z","2026-09-15T11:22:04Z","2026-09-15T11:22:06Z","2026-09-15T11:22:08Z","2026-09-15T11:22:14Z","2026-09-15T11:22:16Z","2026-09-15T11:22:19Z","2026-09-15T11:22:26Z","2026-09-15T11:22:30Z","2026-09-15T11:22:32Z","2026-09-15T11:22:35Z","2026-09-15T11:22:37Z","2026-09-15T11:22:39Z","2026-09-15T11:22:41Z","2026-09-15T11:22:49Z","2026-09-15T11:22:50Z","2026-09-15T11:22:54Z","2026-09-15T11:22:55Z","2026-09-15T11:23:00Z","2026-09-15T11:23:01Z","2026-09-15T11:23:04Z","2026-09-15T11:23:07Z","2026-09-15T11:23:10Z","2026-09-15T11:23:16Z","2026-09-15T11:23:18Z","2026-09-15T11:23:25Z","2026-09-15T11:23:32Z","2026-09-15T11:23:34Z","2026-09-15T11:23:37Z","2026-09-15T11:23:39Z","2026-09-15T11:23:41Z","2026-09-15T11:23:42Z","2026-09-15T11:23:48Z","2026-09-15T11:23:50Z","2026-09-15T11:23:56Z","2026-09-15T11:23:58Z","2026-09-15T11:24:01Z","2026-09-15T11:24:03Z","2026-09-15T11:24:06Z","2026-09-15T11:24:14Z","2026-09-15T11:24:16Z","2026-09-15T11:24:25Z","2026-09-15T11:24:26Z","2026-09-15T11:24:29Z","2026-09-15T11:24:34Z","2026-09-15T11:24:39Z","2026-09-15T11:24:42Z","2026-09-15T11:24:45Z","2026-09-15T11:24:46Z","2026-09-15T11:24:53Z","2026-09-15T11:24:55Z","2026-09-15T11:24:59Z","2026-09-15T11:25:01Z","2026-09-15T11:25:02Z","2026-09-15T11:25:03Z","2026-09-15T11:25:04Z","2026-09-15T11:25:08Z","2026-09-15T11:25:09Z","2026-09-15T11:25:12Z","2026-09-15T11:25:16Z","2026-09-15T11:25:20Z","2026-09-15T11:25:25Z","2026-09-15T11:25:27Z","2026-09-15T11:25:31Z","2026-09-15T11:25:33Z","2026-09-15T11:25:35Z","2026-09-15T11:25:37Z","2026-09-15T11:25:39Z","2026-09-15T11:25:40Z","2026-09-15T11:25:44Z","2026-09-15T11:25:46Z","2026-09-15T11:25:47Z","2026-09-15T11:25:52Z","2026-09-15T11:25:53Z","2026-09-15T11:25:59Z","2026-09-15T11:26:01Z","2026-09-15T11:26:03Z","2026-09-15T11:26:04Z","2026-09-15T11:26:06Z","2026-09-15T11:26:10Z","2026-09-15T11:26:16Z","2026-09-15T11:26:17Z","2026-09-15T11:26:21Z","2026-09-15T11:26:27Z","2026-09-15T11:26:29Z","2026-09-15T11:26:34Z","2026-09-15T11:26:40Z","2026-09-15T11:26:43Z","2026-09-15T11:26:47Z","2026-09-15T11:26:48Z","2026-09-15T11:26:51Z","2026-09-15T11:26:53Z","2026-09-15T11:26:55Z","2026-09-15T11:27:03Z","2026-09-15T11:27:04Z","2026-09-15T11:27:06Z","2026-09-15T11:27:08Z","2026-09-15T11:27:10Z","2026-09-15T11:27:18Z","2026-09-15T11:27:22Z","2026-09-15T11:27:27Z","2026-09-15T11:27:32Z","2026-09-15T11:27:37Z","2026-09-15T11:27:39Z","2026-09-15T11:27:40Z","2026-09-15T11:27:44Z","2026-09-15T11:27:52Z","2026-09-15T11:27:56Z","2026-09-15T11:28:03Z","2026-09-15T11:28:14Z","2026-09-15T11:28:16Z","2026-09-15T11:28:21Z","2026-09-15T11:28:22Z","2026-09-15T11:28:23Z","2026-09-15T11:28:24Z","2026-09-15T11:28:36Z","2026-09-15T11:28:44Z","2026-09-15T11:28:50Z","2026-09-15T11:28:53Z","2026-09-15T11:29:01Z","2026-09-15T11:29:02Z","2026-09-15T11:29:04Z","2026-09-15T11:29:05Z","2026-09-15T11:29:06Z","2026-09-15T11:29:10Z","2026-09-15T11:29:11Z","2026-09-15T11:29:14Z","2026-09-15T11:29:17Z","2026-09-15T11:29:18Z","2026-09-15T11:29:20Z","2026-09-15T11:29:21Z","2026-09-15T11:29:28Z","2026-09-15T11:29:30Z","2026-09-15T11:29:31Z","2026-09-15T11:29:32Z","2026-09-15T11:29:34Z","2026-09-15T11:29:36Z","2026-09-15T11:29:37Z","2026-09-15T11:29:46Z","2026-09-15T11:29:47Z","2026-09-15T11:29:48Z","2026-09-15T11:29:52Z","2026-09-15T11:29:57Z","2026-09-15T11:29:59Z","2026-09-15T11:30:03Z","2026-09-15T11:30:04Z","2026-09-15T11:30:05Z","2026-09-15T11:30:11Z","2026-09-15T11:30:19Z","2026-09-15T11:30:20Z","2026-09-15T11:30:22Z","2026-09-15T11:30:27Z","2026-09-15T11:30:30Z","2026-09-15T11:30:39Z","2026-09-15T11:30:46Z","2026-09-15T11:30:49Z","2026-09-15T11:30:50Z","2026-09-15T11:30:52Z","2026-09-15T11:30:56Z","2026-09-15T11:30:58Z","2026-09-15T11:31:01Z","2026-09-15T11:31:02Z","2026-09-15T11:31:04Z","2026-09-15T11:31:05Z","2026-09-15T11:31:09Z","2026-09-15T11:31:10Z","2026-09-15T11:31:11Z","2026-09-15T11:31:13Z","2026-09-15T11:31:15Z","2026-09-15T11:31:20Z","2026-09-15T11:31:21Z","2026-09-15T11:31:23Z","2026-09-15T11:31:26Z","2026-09-15T11:31:27Z","2026-09-15T11:31:30Z","2026-09-15T11:31:37Z","2026-09-15T11:31:40Z","2026-09-15T11:31:42Z","2026-09-15T11:31:45Z","2026-09-15T11:31:46Z","2026-09-15T11:31:47Z","2026-09-15T11:31:50Z","2026-09-15T11:31:51Z","2026-09-15T11:31:54Z","2026-09-15T11:31:56Z","2026-09-15T11:31:57Z","2026-09-15T11:32:00Z","2026-09-15T11:32:02Z","2026-09-15T11:32:03Z","2026-09-15T11:32:06Z","2026-09-15T11:32:07Z","2026-09-15T11:32:10Z","2026-09-15T11:32:11Z","2026-09-15T11:32:15Z","2026-09-15T11:32:17Z","2026-09-15T11:32:18Z","2026-09-15T11:32:21Z","2026-09-15T11:32:24Z","2026-09-15T11:32:27Z","2026-09-15T11:32:29Z","2026-09-15T11:32:34Z","2026-09-15T11:32:38Z","2026-09-15T11:32:42Z","2026-09-15T11:32:46Z","2026-09-15T11:32:49Z","2026-09-15T11:32:53Z","2026-09-15T11:33:07Z","2026-09-15T11:33:11Z","2026-09-15T11:33:12Z","2026-09-15T11:33:16Z","2026-09-15T11:33:18Z","2026-09-15T11:33:22Z","2026-09-15T11:33:24Z","2026-09-15T11:33:25Z","2026-09-15T11:33:29Z","2026-09-15T11:33:32Z","2026-09-15T11:33:34Z","2026-09-15T11:33:39Z","2026-09-15T11:33:50Z","2026-09-15T11:33:53Z","2026-09-15T11:33:56Z","2026-09-15T11:33:58Z","2026-09-15T11:34:00Z","2026-09-15T11:34:11Z","2026-09-15T11:34:17Z","2026-09-15T11:34:22Z","2026-09-15T11:34:39Z","2026-09-15T11:34:47Z","2026-09-15T11:34:52Z","2026-09-15T11:35:20Z","2026-09-15T11:35:21Z","2026-09-15T11:35:31Z","2026-09-15T11:36:00Z","2026-09-15T11:36:05Z","2026-09-15T11:36:21Z","2026-09-15T11:36:22Z","2026-09-15T11:36:29Z","2026-09-15T11:36:37Z","2026-09-15T11:36:40Z","2026-09-15T11:36:50Z","2026-09-15T11:36:52Z","2026-09-15T11:36:55Z","2026-09-15T11:36:57Z","2026-09-15T11:37:00Z","2026-09-15T11:37:05Z","2026-09-15T11:37:16Z","2026-09-15T11:37:26Z","2026-09-15T11:37:29Z","2026-09-15T11:37:32Z","2026-09-15T11:37:45Z","2026-09-15T11:37:48Z","2026-09-15T11:37:49Z","2026-09-15T11:37:51Z","2026-09-15T11:37:52Z","2026-09-15T11:37:54Z","2026-09-15T11:37:58Z","2026-09-15T11:38:10Z","2026-09-15T11:38:12Z","2026-09-15T11:38:20Z","2026-09-15T11:38:23Z","2026-09-15T11:38:25Z","2026-09-15T11:38:37Z","2026-09-15T11:38:47Z","2026-09-15T11:38:49Z","2026-09-15T11:38:52Z","2026-09-15T11:38:55Z","2026-09-15T11:39:03Z","2026-09-15T11:39:07Z","2026-09-15T11:39:09Z","2026-09-15T11:39:12Z","2026-09-15T11:39:17Z","2026-09-15T11:39:19Z","2026-09-15T11:39:21Z","2026-09-15T11:39:23Z","2026-09-15T11:39:25Z","2026-09-15T11:39:28Z","2026-09-15T11:39:32Z","2026-09-15T11:39:35Z","2026-09-15T11:39:36Z","2026-09-15T11:39:47Z","2026-09-15T11:39:52Z","2026-09-15T11:39:54Z","2026-09-15T11:39:57Z","2026-09-15T11:39:59Z","2026-09-15T11:40:03Z","2026-09-15T11:40:04Z","2026-09-15T11:40:09Z","2026-09-15T11:40:10Z","2026-09-15T11:40:15Z","2026-09-15T11:40:19Z","2026-09-15T11:40:21Z","2026-09-15T11:40:24Z","2026-09-15T11:40:26Z","2026-09-15T11:40:29Z","2026-09-15T11:40:32Z","2026-09-15T11:40:33Z","2026-09-15T11:40:38Z","2026-09-15T11:40:43Z","2026-09-15T11:40:44Z","2026-09-15T11:40:47Z","2026-09-15T11:40:48Z","2026-09-15T11:40:50Z","2026-09-15T11:40:54Z","2026-09-15T11:41:00Z","2026-09-15T11:41:02Z","2026-09-15T11:41:04Z","2026-09-15T11:41:06Z","2026-09-15T11:41:07Z","2026-09-15T11:41:11Z","2026-09-15T11:41:13Z","2026-09-15T11:41:15Z","2026-09-15T11:41:16Z","2026-09-15T11:41:20Z","2026-09-15T11:41:21Z","2026-09-15T11:41:25Z","2026-09-15T11:41:29Z","2026-09-15T11:41:32Z","2026-09-15T11:41:35Z","2026-09-15T11:41:39Z","2026-09-15T11:41:41Z","2026-09-15T11:41:47Z","2026-09-15T11:41:51Z","2026-09-15T11:41:53Z","2026-09-15T11:41:56Z","2026-09-15T11:41:57Z","2026-09-15T11:42:01Z","2026-09-15T11:42:04Z","2026-09-15T11:42:05Z","2026-09-15T11:42:09Z","2026-09-15T11:42:12Z","2026-09-15T11:42:16Z","2026-09-15T11:42:18Z","2026-09-15T11:42:20Z","2026-09-15T11:42:21Z","2026-09-15T11:42:22Z","2026-09-15T11:42:27Z","2026-09-15T11:42:32Z","2026-09-15T11:42:35Z","2026-09-15T11:42:36Z","2026-09-15T11:42:38Z","2026-09-15T11:42:41Z","2026-09-15T11:42:43Z","2026-09-15T11:42:48Z","2026-09-15T11:42:54Z","2026-09-15T11:42:58Z","2026-09-15T11:43:00Z","2026-09-15T11:43:01Z","2026-09-15T11:43:04Z","2026-09-15T11:43:05Z","2026-09-15T11:43:07Z","2026-09-15T11:43:10Z","2026-09-15T11:43:11Z","2026-09-15T11:43:13Z","2026-09-15T11:43:15Z","2026-09-15T11:43:16Z","2026-09-15T11:43:19Z","2026-09-15T11:43:20Z","2026-09-15T11:43:23Z","2026-09-15T11:43:24Z","2026-09-15T11:43:28Z","2026-09-15T11:43:38Z","2026-09-15T11:43:46Z","2026-09-15T11:43:50Z","2026-09-15T11:43:53Z","2026-09-15T11:44:01Z","2026-09-15T11:44:05Z","2026-09-15T11:44:07Z","2026-09-15T11:44:10Z","2026-09-15T11:44:12Z","2026-09-15T11:44:13Z","2026-09-15T11:44:16Z","2026-09-15T11:44:18Z","2026-09-15T11:44:19Z","2026-09-15T11:44:26Z","2026-09-15T11:44:32Z","2026-09-15T11:44:49Z","2026-09-15T11:44:55Z","2026-09-15T11:45:03Z","2026-09-15T11:45:12Z","2026-09-15T11:45:15Z","2026-09-15T11:45:17Z","2026-09-15T11:45:27Z","2026-09-15T11:45:30Z","2026-09-15T11:45:32Z","2026-09-15T11:45:39Z","2026-09-15T11:45:43Z","2026-09-15T11:45:44Z","2026-09-15T11:45:49Z","2026-09-15T11:45:52Z","2026-09-15T11:45:57Z","2026-09-15T11:46:01Z","2026-09-15T11:46:07Z","2026-09-15T11:46:12Z","2026-09-15T11:46:17Z","2026-09-15T11:46:27Z","2026-09-15T11:46:28Z","2026-09-15T11:46:30Z","2026-09-15T11:46:33Z","2026-09-15T11:46:38Z","2026-09-15T11:46:45Z","2026-09-15T11:46:51Z","2026-09-15T11:46:53Z","2026-09-15T11:46:56Z","2026-09-15T11:46:58Z","2026-09-15T11:47:02Z","2026-09-15T11:47:04Z","2026-09-15T11:47:06Z","2026-09-15T11:47:13Z","2026-09-15T11:47:14Z","2026-09-15T11:47:25Z","2026-09-15T11:47:27Z","2026-09-15T11:47:28Z","2026-09-15T11:47:34Z","2026-09-15T11:47:47Z","2026-09-15T11:47:50Z","2026-09-15T11:47:54Z","2026-09-15T11:47:55Z","2026-09-15T11:47:56Z","2026-09-15T11:47:59Z","2026-09-15T11:48:04Z","2026-09-15T11:48:05Z","2026-09-15T11:48:07Z","2026-09-15T11:48:10Z","2026-09-15T11:48:12Z","2026-09-15T11:48:16Z","2026-09-15T11:48:18Z","2026-09-15T11:48:24Z","2026-09-15T11:48:26Z","2026-09-15T11:48:28Z","2026-09-15T11:48:32Z","2026-09-15T11:48:35Z","2026-09-15T11:48:41Z","2026-09-15T11:48:48Z","2026-09-15T11:48:54Z","2026-09-15T11:48:58Z","2026-09-15T11:49:00Z","2026-09-15T11:49:05Z","2026-09-15T11:49:08Z","2026-09-15T11:49:09Z","2026-09-15T11:49:10Z","2026-09-15T11:49:13Z","2026-09-15T11:49:16Z","2026-09-15T11:49:18Z","2026-09-15T11:49:22Z","2026-09-15T11:49:26Z","2026-09-15T11:49:27Z","2026-09-15T11:49:29Z","2026-09-15T11:49:30Z","2026-09-15T11:49:35Z","2026-09-15T11:49:38Z","2026-09-15T11:49:41Z","2026-09-15T11:49:43Z","2026-09-15T11:49:45Z","2026-09-15T11:49:46Z","2026-09-15T11:49:47Z","2026-09-15T11:49:52Z","2026-09-15T11:49:53Z","2026-09-15T11:49:56Z","2026-09-15T11:49:58Z","2026-09-15T11:50:02Z","2026-09-15T11:50:03Z","2026-09-15T11:50:05Z","2026-09-15T11:50:14Z","2026-09-15T11:50:15Z","2026-09-15T11:50:18Z","2026-09-15T11:50:19Z","2026-09-15T11:50:29Z","2026-09-15T11:50:30Z","2026-09-15T11:50:38Z","2026-09-15T11:50:41Z","2026-09-15T11:50:44Z","2026-09-15T11:50:48Z","2026-09-15T11:50:51Z","2026-09-15T11:50:55Z","2026-09-15T11:50:56Z","2026-09-15T11:50:57Z","2026-09-15T11:51:01Z","2026-09-15T11:51:02Z","2026-09-15T11:51:05Z","2026-09-15T11:51:07Z","2026-09-15T11:51:10Z","2026-09-15T11:51:13Z","2026-09-15T11:51:14Z","2026-09-15T11:51:16Z","2026-09-15T11:51:21Z","2026-09-15T11:51:34Z","2026-09-15T11:51:40Z","2026-09-15T11:51:52Z","2026-09-15T11:51:59Z","2026-09-15T11:52:06Z","2026-09-15T11:52:09Z","2026-09-15T11:52:27Z","2026-09-15T11:52:29Z","2026-09-15T11:52:32Z","2026-09-15T11:52:34Z","2026-09-15T11:52:36Z","2026-09-15T11:52:38Z","2026-09-15T11:52:41Z","2026-09-15T11:52:46Z","2026-09-15T11:52:50Z","2026-09-15T11:53:04Z","2026-09-15T11:53:10Z","2026-09-15T11:53:15Z","2026-09-15T11:53:18Z","2026-09-15T11:53:20Z","2026-09-15T11:53:21Z","2026-09-15T11:53:27Z","2026-09-15T11:53:29Z","2026-09-15T11:53:30Z","2026-09-15T11:53:31Z","2026-09-15T11:53:35Z","2026-09-15T11:53:46Z","2026-09-15T11:53:52Z","2026-09-15T11:53:56Z","2026-09-15T11:53:59Z","2026-09-15T11:54:07Z","2026-09-15T11:54:09Z","2026-09-15T11:54:15Z","2026-09-15T11:54:16Z","2026-09-15T11:54:28Z","2026-09-15T11:54:31Z","2026-09-15T11:54:33Z","2026-09-15T11:54:40Z","2026-09-15T11:54:43Z","2026-09-15T11:54:47Z","2026-09-15T11:54:54Z","2026-09-15T11:55:00Z","2026-09-15T11:55:07Z","2026-09-15T11:55:12Z","2026-09-15T11:55:14Z","2026-09-15T11:55:20Z","2026-09-15T11:55:23Z","2026-09-15T11:55:25Z","2026-09-15T11:55:26Z","2026-09-15T11:55:33Z","2026-09-15T11:55:38Z","2026-09-15T11:55:44Z","2026-09-15T11:55:46Z","2026-09-15T11:55:48Z","2026-09-15T11:55:51Z","2026-09-15T11:55:59Z","2026-09-15T11:56:01Z","2026-09-15T11:56:03Z","2026-09-15T11:56:08Z","2026-09-15T11:56:12Z","2026-09-15T11:56:15Z","2026-09-15T11:56:17Z","2026-09-15T11:56:18Z","2026-09-15T11:56:22Z","2026-09-15T11:56:23Z","2026-09-15T11:56:24Z","2026-09-15T11:56:28Z","2026-09-15T11:56:33Z","2026-09-15T11:56:37Z","2026-09-15T11:56:38Z","2026-09-15T11:56:42Z","2026-09-15T11:56:46Z","2026-09-15T11:56:49Z","2026-09-15T11:56:53Z","2026-09-15T11:56:57Z","2026-09-15T11:56:58Z","2026-09-15T11:57:03Z","2026-09-15T11:57:05Z","2026-09-15T11:57:07Z","2026-09-15T11:57:09Z","2026-09-15T11:57:19Z","2026-09-15T11:57:20Z","2026-09-15T11:57:31Z","2026-09-15T11:57:35Z","2026-09-15T11:57:41Z","2026-09-15T11:57:47Z","2026-09-15T11:57:49Z","2026-09-15T11:57:53Z","2026-09-15T11:57:57Z","2026-09-15T11:57:58Z","2026-09-15T11:58:02Z","2026-09-15T11:58:07Z","2026-09-15T11:58:09Z","2026-09-15T11:58:10Z","2026-09-15T11:58:14Z","2026-09-15T11:58:16Z","2026-09-15T11:58:17Z","2026-09-15T11:58:19Z","2026-09-15T11:58:25Z","2026-09-15T11:58:27Z","2026-09-15T11:58:33Z","2026-09-15T11:58:34Z","2026-09-15T11:58:37Z","2026-09-15T11:58:38Z","2026-09-15T11:58:46Z","2026-09-15T11:58:47Z","2026-09-15T11:58:48Z","2026-09-15T11:58:49Z","2026-09-15T11:58:50Z","2026-09-15T11:58:53Z","2026-09-15T11:58:56Z","2026-09-15T11:58:57Z","2026-09-15T11:59:01Z","2026-09-15T11:59:07Z","2026-09-15T11:59:09Z","2026-09-15T11:59:12Z","2026-09-15T11:59:18Z","2026-09-15T11:59:21Z","2026-09-15T11:59:22Z","2026-09-15T11:59:25Z","2026-09-15T11:59:27Z","2026-09-15T11:59:29Z","2026-09-15T11:59:33Z","2026-09-15T11:59:36Z","2026-09-15T11:59:40Z","2026-09-15T11:59:42Z","2026-09-15T11:59:45Z","2026-09-15T11:59:48Z","2026-09-15T11:59:52Z","2026-09-15T11:59:59Z","2026-09-15T12:00:01Z","2026-09-15T12:00:06Z","2026-09-15T12:00:08Z","2026-09-15T12:00:16Z","2026-09-15T12:00:19Z","2026-09-15T12:00:21Z","2026-09-15T12:00:23Z","2026-09-15T12:00:24Z","2026-09-15T12:00:29Z","2026-09-15T12:00:35Z","2026-09-15T12:00:43Z","2026-09-15T12:00:48Z","2026-09-15T12:00:51Z","2026-09-15T12:00:54Z","2026-09-15T12:00:58Z","2026-09-15T12:01:02Z","2026-09-15T12:01:04Z","2026-09-15T12:01:05Z","2026-09-15T12:01:06Z","2026-09-15T12:01:09Z","2026-09-15T12:01:10Z","2026-09-15T12:01:13Z","2026-09-15T12:01:18Z","2026-09-15T12:01:19Z","2026-09-15T12:01:29Z","2026-09-15T12:01:31Z","2026-09-15T12:02:06Z","2026-09-15T12:02:07Z","2026-09-15T12:02:18Z","2026-09-15T12:02:20Z","2026-09-15T12:02:22Z","2026-09-15T12:02:30Z","2026-09-15T12:02:32Z","2026-09-15T12:02:38Z","2026-09-15T12:02:39Z","2026-09-15T12:02:43Z","2026-09-15T12:02:50Z","2026-09-15T12:02:52Z","2026-09-15T12:02:56Z","2026-09-15T12:02:57Z","2026-09-15T12:03:01Z","2026-09-15T12:03:02Z","2026-09-15T12:03:08Z","2026-09-15T12:03:09Z","2026-09-15T12:03:13Z","2026-09-15T12:03:14Z","2026-09-15T12:03:16Z","2026-09-15T12:03:18Z","2026-09-15T12:03:21Z","2026-09-15T12:03:24Z","2026-09-15T12:03:26Z","2026-09-15T12:03:28Z","2026-09-15T12:03:31Z","2026-09-15T12:03:32Z","2026-09-15T12:03:34Z","2026-09-15T12:03:35Z","2026-09-15T12:03:37Z","2026-09-15T12:03:40Z","2026-09-15T12:03:41Z","2026-09-15T12:03:42Z","2026-09-15T12:03:44Z","2026-09-15T12:03:45Z","2026-09-15T12:03:46Z","2026-09-15T12:03:51Z","2026-09-15T12:03:55Z","2026-09-15T12:04:04Z","2026-09-15T12:04:06Z","2026-09-15T12:04:12Z","2026-09-15T12:04:13Z","2026-09-15T12:04:19Z","2026-09-15T12:04:22Z","2026-09-15T12:04:24Z","2026-09-15T12:04:26Z","2026-09-15T12:04:28Z","2026-09-15T12:04:31Z","2026-09-15T12:04:32Z","2026-09-15T12:04:35Z","2026-09-15T12:04:40Z","2026-09-15T12:04:41Z","2026-09-15T12:04:48Z","2026-09-15T12:04:53Z","2026-09-15T12:04:55Z","2026-09-15T12:04:57Z","2026-09-15T12:04:59Z","2026-09-15T12:05:03Z","2026-09-15T12:05:04Z","2026-09-15T12:05:07Z","2026-09-15T12:05:10Z","2026-09-15T12:05:11Z","2026-09-15T12:05:13Z","2026-09-15T12:05:15Z","2026-09-15T12:05:22Z","2026-09-15T12:05:23Z","2026-09-15T12:05:26Z","2026-09-15T12:05:33Z","2026-09-15T12:05:38Z","2026-09-15T12:05:42Z","2026-09-15T12:05:43Z","2026-09-15T12:05:45Z","2026-09-15T12:05:47Z","2026-09-15T12:05:49Z","2026-09-15T12:05:51Z","2026-09-15T12:05:54Z","2026-09-15T12:05:56Z","2026-09-15T12:06:00Z","2026-09-15T12:06:01Z","2026-09-15T12:06:02Z","2026-09-15T12:06:04Z","2026-09-15T12:06:09Z","2026-09-15T12:06:13Z","2026-09-15T12:06:17Z","2026-09-15T12:06:24Z","2026-09-15T12:06:27Z","2026-09-15T12:06:32Z","2026-09-15T12:06:40Z","2026-09-15T12:06:48Z","2026-09-15T12:06:49Z","2026-09-15T12:06:51Z","2026-09-15T12:06:53Z","2026-09-15T12:06:57Z","2026-09-15T12:06:58Z","2026-09-15T12:07:01Z","2026-09-15T12:07:08Z","2026-09-15T12:07:16Z","2026-09-15T12:07:17Z","2026-09-15T12:07:22Z","2026-09-15T12:07:24Z","2026-09-15T12:07:28Z","2026-09-15T12:07:29Z","2026-09-15T12:07:31Z","2026-09-15T12:07:33Z","2026-09-15T12:07:36Z"],"heartRates":[86,86,86,86,86,86,87,87,88,88,88,90,91,91,91,91,93,93,90,90,96,96,96,96,99,99,98,98,98,98,98,98,97,97,97,98,98,98,98,98,100,100,101,101,97,97,97,97,97,92,87,87,87,87,87,97,97,96,96,99,99,99,99,99,99,99,99,98,98,98,99,99,100,100,99,99,99,100,101,101,100,102,102,103,103,106,106,106,109,109,105,107,107,107,106,106,104,104,100,100,100,101,103,103,104,104,107,107,104,102,102,105,105,104,103,103,104,104,101,101,101,101,101,99,99,99,99,99,96,97,97,97,98,98,98,98,101,101,96,96,92,97,98,95,95,99,99,99,100,100,98,98,98,101,101,96,94,94,93,92,92,93,93,97,94,94,100,102,97,91,90,91,92,89,89,91,92,91,88,90,91,91,90,90,91,88,91,90,90,90,90,90,90,96,96,96,97,97,91,94,94,94,94,95,95,95,95,95,95,94,96,95,95,95,96,96,93,95,94,94,94,89,89,89,89,89,87,87,87,95,95,96,96,95,90,88,88,88,86,87,86,84,87,88,87,86,86,90,90,92,85,86,86,87,85,85,82,82,83,87,90,90,93,93,93,93,93,93,96,96,96,101,101,101,98,98,98,101,103,103,107,105,104,104,103,103,97,97,97,94,96,96,94,94,94,97,101,101,101,100,100,100,100,97,97,97,97,97,95,95,95,95,95,95,95,95,94,94,94,92,90,95,95,94,94,94,94,93,92,92,90,90,92,92,92,97,97,95,94,94,92,92,92,91,91,91,91,93,93,96,96,96,98,98,98,97,97,97,97,97,99,98,98,98,98,98,93,95,96,95,95,92,92,92,91,91,91,91,91,91,93,93,92,93,93,96,96,96,97,96,97,99,99,99,99,96,96,96,96,95,95,95,95,95,95,95,96,91,91,96,96,96,99,99,98,98,100,100,97,97,97,97,95,95,92,94,94,94,93,93,92,91,91,94,97,95,95,94,94,94,98,99,99,101,101,101,100,100,99,99,99,97,94,92,92,97,97,98,98,98,100,100,100,100,99,99,100,101,101,101,101,101,101,104,104,104,100,100,100,100,99,99,99,99,99,99,99,100,100,99,102,102,102,103,102,102,102,97,97,98,98,98,98,98,98,98,97,97,97,97,97,99,99,99,100,99,98,98,98,99,99,100,99,96,97,96,97,101,101,101,101,101,99,99,98,98,98,98,98,97,98,98,98,98,96,96,97,97,100,100,99,99,98,98,97,97,95,95,95,102,101,105,98,97,97,97,96,96,96,96,92,92,96,96,98,98,98,95,95,95,95,95,95,97,97,97,97,98,98,98,98,101,101,99,99,99,99,99,99,101,101,101,101,101,104,104,100,100,101,101,99,101,103,103,104,103,103,105,105,105,107,107,112,113,113,112,108,108,108,109,109,111,111,111,106,104,105,103,103,103,98,98,97,97,98,97,97,98,98,98,99,99,96,94,98,94,95,90,90,94,94,94,95,95,91,91,91,91,91,90,90,90,91,91,95,95,96,96,96,96,93,93,93,98,99,99,99,95,95,95,97,97,98,98,101,101,100,102,102,102,99,99,103,103,96,98,98,98,98,98,97,97,97,97,98,98,98,97,97,97,97,97,97,98,98,98,98,98,97,100,100,100,99,98,100,100,100,102,102,100,101,101,101,99,99,95,94,94,97,97,96,97,94,94,94,94,94,94,92,92,92,92,89,89,89,94,94,94,97,101,101,101,101,103,103,104,104,104,104,102,102,100,95,91,92,90,92,92,92,94,94,94,95,92,91,91,90,90,91,97,98,99,105,105,107,107,110,111,112,112,112,112,111,111,111,108,108,105,102,102,105,104,102,102,102,102,97,96,96,96,96,96,95,95,96,97,97,97,97,99,98,98,100,100,99,99,99,99,99,97,97,97,101,101,99,99,100,100,100,99,99,99,99,100,100,100,100,98,98,98,97,97,96,96,102,102,103,102,102,99,98,100,100,100,106,106,106,106,115,115,115,115,119,122,121,118,115,112,112,103,103,101,102,102,102,102,99,99,97,99,98,98,98,98,99,99,99,99,100,100,100,100,102,102,98,98,101,99,99,99,100,102,101,98,97,96,96,96,97,97,97,98,98,98,100,100,100,99,101,101,101,104,107,108,108,108,108,108,108,108,107,107,106,106,106,103,103,102,102,102,102,102,99,98,98,96,96,96,97,98,98,101,101,100,101,101,101,100,100,100,102,102,102,103,102,102,102,103,103,103,103,103,101,101,98,98,98,98,98,102,102,102,104,104,103,103,104,103,103,104,104,104,103,103,103,102,102,102,101,101,101,101,101,100,101,101,102,103,102,102,102,102,101,101,101,101,101,100,100,103,103,100,101,101,104,100,101,101,102,100,100,100,100,101,101,103,103,103,105,105,105,108,108,109,109,111,111,113,113,113,113,113,113,113,113,113,113,113,113,113,113,113,110,110,110,111,111,111,111,107,107,107,103,103,103,105,105,104,104,105,104,104,104,104,100,100,100,101,102,105,105,105,105,105,105,101,101,103,103,103,98,98,94,92,97,96,92,97,102,102,102,104,103,103,103,102,101,101,101,104,103,103,100,100,100],"month":"2026-09-01"},"geometry":{"type":"LineString","coordinates":[[2.320617,48.890079,48.9],[2.321158,48.889992,50.1],[2.321192,48.890004,50.2],[2.321248,48.889994,50.4],[2.321307,48.88996,50.6],[2.321313,48.889901,50.8],[2.321367,48.889897,51],[2.321447,48.889875,51.4],[2.321657,48.889841,52.4],[2.3219,48.889814,53.5],[2.321975,48.889786,53.7],[2.322034,48.889773,53.7],[2.32188,48.889743,53.7],[2.32202,48.889704,54],[2.322113,48.889667,54.2],[2.322197,48.889609,54.6],[2.320446,48.889563,50.8],[2.320448,48.889544,50.8],[2.320424,48.889519,50.7],[2.320454,48.889505,50.8],[2.320402,48.889511,50.7],[2.320326,48.889471,50.6],[2.320347,48.889449,50.7],[2.320296,48.889494,50.5],[2.320183,48.889388,50.8],[2.320155,48.889376,50.9],[2.320108,48.889326,50.9],[2.320109,48.889283,50.8],[2.320089,48.889269,50.8],[2.320083,48.88925,50.8],[2.32,48.889232,50.8],[2.319959,48.889234,50.7],[2.319903,48.889209,50.7],[2.319918,48.889189,50.7],[2.319911,48.889163,50.7],[2.319885,48.889134,50.7],[2.319843,48.889129,50.6],[2.319841,48.889121,50.6],[2.319881,48.889106,50.6],[2.319903,48.889076,50.6],[2.319858,48.888994,50.5],[2.319821,48.888971,50.5],[2.319717,48.888965,50.8],[2.319682,48.888951,50.3],[2.319625,48.888898,50.9],[2.319552,48.888851,50.9],[2.31956,48.888855,50.9],[2.319562,48.888834,50.9],[2.319565,48.888841,50.9],[2.319553,48.888844,50.9],[2.319561,48.888838,50.9],[2.319551,48.888836,50.9],[2.319522,48.888795,50.9],[2.319533,48.888786,51],[2.319489,48.888755,51],[2.319485,48.888744,51],[2.319494,48.888738,51],[2.319474,48.888684,51.1],[2.319433,48.888664,51.1],[2.319408,48.88864,51.2],[2.319382,48.888639,51.2],[2.319361,48.888612,51.2],[2.319356,48.888549,51.3],[2.319326,48.888539,51.3],[2.319269,48.888491,51.4],[2.319236,48.888483,51.5],[2.319223,48.888458,51.5],[2.319172,48.888433,51.5],[2.319147,48.88843,51.6],[2.319118,48.888414,51.6],[2.3191,48.888361,51.7],[2.31911,48.888354,51.7],[2.3191,48.888312,51.5],[2.319048,48.888293,51.3],[2.318958,48.888281,51.4],[2.318948,48.888268,51.5],[2.318904,48.888253,51.5],[2.318874,48.888253,51.6],[2.318846,48.888241,51.6],[2.318839,48.888226,51.6],[2.318741,48.888188,51.8],[2.31872,48.888156,51.8],[2.318664,48.888129,51.9],[2.318664,48.888115,51.9],[2.318587,48.888056,51.9],[2.318562,48.888008,51.9],[2.318523,48.887999,51.9],[2.318508,48.887968,51.9],[2.318408,48.887898,51.9],[2.318369,48.887857,51.9],[2.318374,48.887835,51.9],[2.318354,48.887757,51.9],[2.318336,48.887743,51.9],[2.318328,48.887715,52],[2.318251,48.887672,52],[2.318248,48.88766,52],[2.318159,48.887607,52.1],[2.318119,48.887548,52.1],[2.318098,48.887536,52.2],[2.318112,48.887505,52.2],[2.318107,48.887469,52.2],[2.318022,48.887387,52.3],[2.317975,48.887366,52.3],[2.31795,48.887334,52.4],[2.317828,48.88731,51.5],[2.317775,48.887336,51.8],[2.317719,48.887383,51.6],[2.31767,48.887394,51.5],[2.317625,48.887424,51.3],[2.317562,48.887449,51.1],[2.317434,48.88756,50.6],[2.317401,48.887575,50.5],[2.317374,48.887575,50.5],[2.317335,48.887635,50.2],[2.31723,48.887691,49.9],[2.317195,48.887702,49.8],[2.317138,48.887748,49.6],[2.317094,48.88775,49.5],[2.316999,48.887817,49.1],[2.316922,48.887836,48.9],[2.316794,48.887901,48.5],[2.316738,48.887914,48.7],[2.316689,48.887909,48.6],[2.316673,48.887914,48.6],[2.316642,48.887887,48.4],[2.316592,48.887876,48.2],[2.316565,48.887855,48.1],[2.316572,48.887856,48.1],[2.31654,48.887857,48.1],[2.316495,48.887886,48.1],[2.31648,48.887918,48.1],[2.316458,48.887924,48],[2.316446,48.887948,48],[2.316402,48.88799,47.9],[2.316366,48.887997,47.9],[2.316353,48.88801,47.8],[2.316289,48.888023,47.7],[2.316263,48.88802,47.7],[2.316186,48.888063,47.6],[2.316157,48.888068,47.5],[2.316028,48.888125,47.3],[2.315948,48.888134,47.1],[2.315845,48.888135,46.9],[2.315768,48.888116,46.8],[2.315682,48.88808,46.6],[2.315605,48.888006,46.5],[2.315598,48.887974,46.5],[2.315607,48.887953,46.5],[2.315599,48.887945,46.5],[2.315633,48.887883,46.6],[2.315634,48.887852,46.6],[2.31566,48.887832,46.6],[2.315662,48.887814,46.6],[2.315703,48.887787,46.6],[2.315743,48.887773,46.6],[2.315749,48.887793,46.6],[2.315759,48.887795,46.6],[2.315754,48.887787,46.6],[2.315761,48.887797,46.6],[2.315781,48.887797,46.6],[2.315762,48.88777,46.6],[2.315768,48.887781,46.6],[2.315767,48.887773,46.6],[2.315762,48.887786,46.6],[2.315779,48.887794,46.6],[2.315768,48.887795,46.6],[2.315765,48.887819,46.7],[2.315768,48.887804,46.7],[2.315783,48.887801,46.7],[2.315779,48.887786,46.7],[2.315768,48.88779,46.7],[2.315779,48.887786,46.7],[2.315798,48.887809,46.7],[2.315794,48.887801,46.7],[2.315779,48.8878,46.7],[2.31578,48.887805,46.7],[2.315786,48.887796,46.7],[2.315778,48.887802,46.7],[2.315776,48.887794,46.7],[2.315777,48.8878,46.7],[2.315812,48.887773,46.7],[2.315791,48.887795,46.7],[2.315761,48.887785,46.7],[2.315764,48.887771,46.7],[2.315767,48.887791,46.7],[2.31576,48.887786,46.7],[2.31577,48.887793,46.7],[2.31585,48.887774,46.7],[2.315886,48.887756,46.7],[2.315893,48.88776,46.7],[2.315942,48.887727,46.7],[2.315972,48.887747,46.7],[2.316029,48.887727,46.7],[2.316045,48.887734,46.7],[2.31611,48.887724,46.7],[2.316099,48.887721,46.7],[2.316114,48.88771,46.7],[2.316116,48.887693,46.7],[2.316102,48.887679,46.7],[2.316085,48.887687,46.7],[2.316098,48.887688,46.7],[2.316099,48.887697,46.7],[2.316099,48.887684,46.7],[2.316095,48.887689,46.7],[2.316084,48.887681,46.7],[2.316092,48.887672,46.7],[2.316085,48.887671,46.7],[2.316086,48.887679,46.7],[2.316085,48.887673,46.7],[2.316071,48.887683,46.7],[2.316068,48.887673,46.7],[2.31608,48.887675,46.7],[2.31608,48.887668,46.7],[2.316084,48.887676,46.7],[2.31609,48.887673,46.7],[2.316074,48.88767,46.7],[2.316067,48.887682,46.7],[2.316067,48.887664,46.7],[2.316066,48.88767,46.7],[2.316079,48.887658,46.7],[2.316071,48.887673,46.7],[2.316073,48.887668,46.7],[2.31607,48.887683,46.7],[2.316081,48.88768,46.7],[2.316088,48.887689,46.7],[2.316092,48.887685,46.7],[2.316074,48.887696,46.8],[2.316075,48.887691,46.8],[2.31607,48.887707,46.8],[2.316083,48.887688,46.8],[2.316079,48.887694,46.8],[2.316081,48.887688,46.8],[2.316071,48.887688,46.8],[2.316068,48.887697,46.8],[2.316081,48.887685,46.8],[2.316073,48.887698,46.8],[2.316073,48.887693,46.8],[2.316069,48.88771,46.8],[2.316084,48.887707,46.8],[2.316095,48.887689,46.9],[2.316093,48.887703,46.9],[2.316108,48.887695,46.9],[2.316096,48.887702,46.9],[2.316084,48.887699,46.9],[2.316098,48.887669,46.9],[2.316094,48.887675,46.9],[2.31609,48.887665,46.9],[2.316076,48.887673,47],[2.316084,48.88767,47],[2.316076,48.887682,47],[2.316089,48.887659,47],[2.316083,48.887676,47],[2.316074,48.887667,47],[2.316089,48.887659,47.1],[2.316087,48.887651,47.1],[2.316077,48.887661,47.1],[2.316085,48.887659,47.1],[2.316085,48.887665,47.1],[2.316103,48.887643,47.1],[2.316123,48.887642,47.1],[2.316201,48.887584,47.2],[2.316205,48.887572,47.2],[2.316227,48.887561,47.2],[2.316248,48.88757,47.2],[2.316321,48.887544,47.3],[2.316411,48.887488,47.4],[2.31642,48.887499,47.4],[2.31648,48.887472,47.6],[2.316526,48.88742,47.7],[2.316625,48.887366,48.1],[2.316669,48.887323,48.3],[2.316686,48.887177,49.1],[2.316711,48.88715,49.3],[2.31671,48.88713,49.4],[2.316749,48.887087,49.8],[2.316758,48.887092,49.8],[2.316807,48.887056,50.2],[2.316839,48.887019,50.5],[2.316888,48.886993,50.8],[2.316931,48.886984,51],[2.317016,48.886986,51.3],[2.317091,48.886969,51.6],[2.31712,48.886948,51.7],[2.317141,48.886966,51.9],[2.317136,48.886899,52.2],[2.317113,48.886855,52.4],[2.317167,48.886841,52.8],[2.317131,48.886806,53],[2.317122,48.886739,53.4],[2.317184,48.886621,53.5],[2.317238,48.886602,53.6],[2.317276,48.886567,53.7],[2.317323,48.88654,53.8],[2.317334,48.886525,53.8],[2.317363,48.886518,53.8],[2.317387,48.886482,53.9],[2.317533,48.886399,54.1],[2.317575,48.886392,54.1],[2.317607,48.886364,54.2],[2.317717,48.886322,54.3],[2.317769,48.886314,54.4],[2.317712,48.886291,54.3],[2.317685,48.886232,54.2],[2.317659,48.886214,54.2],[2.317668,48.886201,54.1],[2.317636,48.886197,54.1],[2.317568,48.88615,54],[2.317564,48.886136,54],[2.317522,48.88611,54],[2.317502,48.886111,54],[2.317477,48.886094,54],[2.317432,48.88608,54],[2.317379,48.886026,54],[2.317327,48.885993,54],[2.317295,48.885985,53.9],[2.317275,48.885949,53.9],[2.317259,48.885978,53.9],[2.317244,48.88594,53.9],[2.317222,48.885921,53.9],[2.317222,48.885941,53.9],[2.317212,48.885908,53.8],[2.31714,48.885836,53.7],[2.317099,48.885816,53.7],[2.317078,48.885791,53.7],[2.316996,48.885745,53.6],[2.316933,48.885736,53.6],[2.316928,48.885748,53.6],[2.316902,48.885732,53.5],[2.316909,48.885736,53.5],[2.316899,48.885733,53.5],[2.316881,48.885754,53.4],[2.316888,48.885757,53.4],[2.316879,48.885776,53.4],[2.316889,48.885759,53.5],[2.316895,48.885773,53.5],[2.316705,48.885658,53.6],[2.316688,48.885635,53.6],[2.316673,48.88563,53.6],[2.316647,48.885592,53.6],[2.316595,48.885584,53.6],[2.31649,48.885532,53.6],[2.316493,48.885512,53.6],[2.316459,48.885485,53.6],[2.316431,48.885484,53.6],[2.316397,48.885452,53.7],[2.316401,48.885428,53.7],[2.316377,48.885411,53.7],[2.316337,48.885343,53.9],[2.316288,48.885302,54.1],[2.316191,48.885241,54.1],[2.316162,48.885239,54.1],[2.316104,48.885218,54.1],[2.31602,48.88521,54],[2.316007,48.885202,54],[2.31599,48.885155,54],[2.315934,48.885113,54],[2.315889,48.885098,53.9],[2.315861,48.885047,53.9],[2.315834,48.88504,53.9],[2.315792,48.885009,53.9],[2.315751,48.885001,53.9],[2.315651,48.884962,53.8],[2.315643,48.884946,53.8],[2.315649,48.884932,53.8],[2.315611,48.88492,53.8],[2.315568,48.884933,53.8],[2.315514,48.884979,53.5],[2.315481,48.885026,53.4],[2.315449,48.885047,53.3],[2.31542,48.885088,53.1],[2.315327,48.885129,52.9],[2.315222,48.885213,52.6],[2.315165,48.885245,52.5],[2.315131,48.885252,52.4],[2.315101,48.885271,52.4],[2.3151,48.885283,52.3],[2.315074,48.885305,52.3],[2.315042,48.885318,52.3],[2.315017,48.885308,52.3],[2.314996,48.885329,52.2],[2.31486,48.885378,52],[2.314825,48.885379,52],[2.314814,48.885393,52],[2.314716,48.885405,51.9],[2.314706,48.885413,51.9],[2.314669,48.885419,51.9],[2.314654,48.885442,51.7],[2.314624,48.885455,51.7],[2.314603,48.885482,51.6],[2.314598,48.885514,51.4],[2.314499,48.885543,51.2],[2.314468,48.885564,51.1],[2.314433,48.885574,50.9],[2.314405,48.88561,50.8],[2.314385,48.885598,50.9],[2.31433,48.885603,50.8],[2.314291,48.885637,50.7],[2.314279,48.885637,50.7],[2.314256,48.885661,50.7],[2.314172,48.885697,50.6],[2.314181,48.885708,50.5],[2.314165,48.885729,50.5],[2.314167,48.885743,50.5],[2.314149,48.885755,50.4],[2.314106,48.885836,50.3],[2.314102,48.885941,50.1],[2.314121,48.885997,50],[2.314063,48.88611,49.8],[2.313997,48.88619,49.7],[2.313954,48.886205,49.6],[2.313919,48.886235,49.6],[2.313902,48.886234,49.6],[2.313822,48.886283,49.5],[2.313786,48.886283,49.5],[2.313712,48.886317,49.5],[2.313636,48.886378,49.3],[2.313585,48.886405,49.3],[2.313577,48.886428,49.2],[2.313534,48.886459,49.1],[2.313509,48.88649,49.1],[2.313478,48.886511,49],[2.313481,48.88655,48.9],[2.313391,48.886606,48.8],[2.31338,48.886606,48.8],[2.313345,48.886642,48.7],[2.313321,48.886652,48.7],[2.313224,48.886659,48.6],[2.313218,48.886672,48.6],[2.313169,48.88669,48.6],[2.31315,48.886685,48.6],[2.313156,48.886673,48.6],[2.313065,48.886642,48.6],[2.313031,48.886621,48.6],[2.312956,48.886549,48.7],[2.312855,48.886487,48.8],[2.312838,48.886466,48.8],[2.312801,48.886449,48.8],[2.312773,48.886417,48.8],[2.312717,48.886417,48.8],[2.312713,48.886407,48.9],[2.31262,48.886352,48.9],[2.312588,48.88635,48.9],[2.312524,48.886298,49],[2.31249,48.8863,49.1],[2.312461,48.886271,49.1],[2.312447,48.886269,49.1],[2.312417,48.88622,49.2],[2.312311,48.886148,49.3],[2.312279,48.886136,49.3],[2.312168,48.886062,49.4],[2.312144,48.886056,49.4],[2.312109,48.886031,49.5],[2.312,48.886007,49.6],[2.311952,48.885953,49.7],[2.311945,48.885912,49.8],[2.311911,48.885891,49.8],[2.311899,48.885873,49.8],[2.311827,48.885821,50],[2.311794,48.885808,50],[2.311755,48.885754,50.1],[2.311744,48.885718,50.1],[2.311728,48.885716,50.2],[2.311723,48.885707,50.2],[2.311695,48.885704,50.2],[2.311637,48.885669,50.3],[2.311614,48.88568,50.3],[2.311572,48.88567,50.3],[2.311524,48.885643,50.4],[2.311466,48.885633,50.5],[2.311386,48.885576,50.6],[2.311348,48.885574,50.6],[2.311295,48.885535,50.7],[2.311276,48.88551,50.7],[2.311245,48.885498,50.7],[2.311219,48.885464,50.8],[2.311229,48.885424,50.8],[2.311214,48.885404,50.9],[2.311207,48.885365,50.9],[2.311176,48.885325,50.9],[2.31117,48.885333,51],[2.31111,48.885286,51],[2.311104,48.885261,51],[2.311003,48.885217,51.1],[2.310985,48.885216,51.1],[2.310971,48.885189,51.1],[2.31095,48.885194,51.2],[2.310913,48.88519,51.2],[2.310853,48.885196,51.2],[2.310782,48.885232,51.1],[2.310766,48.88523,51.1],[2.310723,48.885266,51.1],[2.310636,48.885302,51],[2.310619,48.885326,51],[2.310552,48.885375,50.9],[2.310464,48.88542,50.8],[2.310428,48.885456,50.8],[2.310376,48.885486,50.7],[2.310374,48.885494,50.6],[2.310337,48.88551,50.6],[2.310328,48.885537,50.6],[2.310291,48.885553,50.6],[2.310197,48.885634,50.4],[2.310229,48.885654,50.4],[2.310206,48.88568,50.4],[2.310168,48.885694,50.3],[2.310167,48.885715,50.3],[2.310055,48.885758,50.2],[2.309999,48.885802,50.1],[2.309958,48.885848,50],[2.309881,48.885898,49.9],[2.309782,48.885926,49.8],[2.309769,48.885939,49.8],[2.309776,48.885941,49.8],[2.309712,48.885973,49.7],[2.309621,48.886074,49.7],[2.309557,48.886106,49.7],[2.309502,48.886163,49.7],[2.309468,48.886262,49.6],[2.309441,48.886277,49.6],[2.309376,48.886353,49.5],[2.309359,48.886357,49.5],[2.309367,48.886364,49.5],[2.309359,48.886367,49.5],[2.309418,48.886471,49.3],[2.309497,48.886554,49.3],[2.309528,48.886604,49.2],[2.309566,48.88663,49.2],[2.309649,48.886654,49.1],[2.30966,48.886647,49.1],[2.309657,48.886682,49.1],[2.309672,48.886708,49],[2.309685,48.886707,49],[2.309751,48.88674,48.9],[2.309733,48.886749,48.9],[2.309757,48.886793,48.8],[2.3098,48.886815,48.7],[2.309814,48.886803,48.7],[2.309837,48.886806,48.7],[2.30985,48.886821,48.7],[2.309939,48.886869,48.5],[2.309972,48.886872,48.5],[2.310003,48.886893,48.4],[2.310029,48.886894,48.4],[2.310055,48.88692,48.3],[2.310102,48.886933,48.3],[2.310126,48.886932,48.3],[2.310253,48.887023,48],[2.310266,48.887048,48],[2.310288,48.887063,48],[2.310291,48.887114,47.9],[2.310311,48.887149,47.8],[2.310345,48.887154,47.8],[2.310309,48.887135,47.7],[2.31031,48.887123,47.7],[2.310319,48.88713,47.7],[2.310317,48.887151,47.7],[2.310319,48.88714,47.6],[2.310304,48.887148,47.6],[2.310309,48.887143,47.6],[2.310337,48.88716,47.6],[2.310333,48.887139,47.5],[2.310321,48.887162,47.5],[2.310324,48.887154,47.5],[2.310303,48.887213,47.4],[2.310311,48.887187,47.4],[2.310305,48.887205,47.3],[2.310294,48.887175,47.3],[2.310302,48.887166,47.3],[2.310314,48.88719,47.3],[2.310333,48.887187,47.2],[2.310367,48.8872,47.2],[2.310393,48.887191,47.2],[2.310474,48.887216,47.1],[2.310481,48.887235,47.1],[2.310494,48.887238,47.1],[2.310513,48.887264,47],[2.310542,48.887269,47],[2.310637,48.887313,46.9],[2.310664,48.887305,46.9],[2.310696,48.887321,46.9],[2.310752,48.887333,46.8],[2.310762,48.887351,46.8],[2.310814,48.887367,46.8],[2.310927,48.887419,46.7],[2.310976,48.887459,46.7],[2.311002,48.887462,46.6],[2.311028,48.887512,46.6],[2.31105,48.887516,46.6],[2.31107,48.887536,46.6],[2.311114,48.887549,46.6],[2.311125,48.887565,46.6],[2.311177,48.887572,46.6],[2.311225,48.887563,46.6],[2.311253,48.887568,46.6],[2.311301,48.887597,46.6],[2.311304,48.887641,46.6],[2.311322,48.887653,46.6],[2.311332,48.887679,46.4],[2.311323,48.887689,46.4],[2.311323,48.88775,46.3],[2.311308,48.887749,46.3],[2.311304,48.887781,46.4],[2.311288,48.887775,46.4],[2.31128,48.887785,46.4],[2.311275,48.887775,46.5],[2.311293,48.887763,46.5],[2.3113,48.887771,46.5],[2.311288,48.887757,46.6],[2.311292,48.887813,46.8],[2.311319,48.887858,46.8],[2.311395,48.887876,46.8],[2.311422,48.887919,46.6],[2.311421,48.887943,46.6],[2.311448,48.887991,46.7],[2.31146,48.88813,47.4],[2.311535,48.88818,47.7],[2.311552,48.888176,47.8],[2.311616,48.888224,48.2],[2.31163,48.888247,48.4],[2.311632,48.888285,48.5],[2.311648,48.888301,48.6],[2.311677,48.888305,48.7],[2.311737,48.888289,48.9],[2.311761,48.888325,49.1],[2.311748,48.888337,49.2],[2.311791,48.888399,49.5],[2.311944,48.888495,49.8],[2.312008,48.888514,50],[2.312028,48.888549,50.2],[2.312048,48.888563,50.3],[2.312043,48.888585,50.4],[2.312185,48.888684,50.9],[2.312286,48.888722,51.2],[2.312366,48.888766,51.5],[2.312571,48.888923,52.2],[2.312648,48.889009,52.5],[2.312724,48.889041,52.6],[2.312724,48.889012,52.6],[2.312734,48.889003,52.6],[2.312735,48.889013,52.6],[2.312815,48.889072,52.7],[2.312865,48.889096,52.7],[2.313035,48.889234,52.6],[2.313039,48.88923,52.6],[2.313115,48.889292,52.4],[2.313228,48.889328,52.3],[2.31327,48.889366,52.2],[2.313399,48.889445,51.9],[2.313427,48.889479,51.8],[2.313476,48.889498,51.6],[2.313484,48.889512,51.6],[2.313469,48.88951,51.6],[2.313437,48.889535,51.4],[2.31339,48.889541,51.3],[2.313383,48.889528,51.3],[2.313411,48.889532,51.3],[2.313401,48.889515,51.3],[2.313421,48.889517,51.3],[2.313406,48.889521,51.3],[2.313416,48.889528,51.3],[2.313479,48.889535,51.3],[2.313476,48.88953,51.3],[2.313493,48.88953,51.3],[2.313495,48.889552,51.2],[2.313518,48.889533,51.2],[2.313517,48.889538,51.2],[2.313508,48.889519,51],[2.3135,48.889519,51],[2.31351,48.889514,51],[2.313498,48.889512,50.9],[2.313441,48.88957,51.1],[2.313429,48.889559,51.1],[2.313407,48.889571,51.2],[2.313366,48.889577,51.3],[2.313302,48.889633,51.4],[2.313256,48.889656,51.5],[2.313237,48.889654,51.5],[2.313232,48.889663,51.5],[2.313215,48.889664,51.5],[2.313217,48.889674,51.5],[2.313205,48.889655,51.5],[2.313192,48.889671,51.5],[2.313193,48.889691,51.6],[2.313205,48.889688,51.6],[2.313177,48.88967,51.6],[2.313161,48.889671,51.6],[2.313157,48.889659,51.6],[2.313148,48.889665,51.6],[2.313152,48.889657,51.6],[2.313163,48.889664,51.6],[2.313158,48.889645,51.7],[2.313124,48.88963,51.7],[2.31314,48.889645,51.7],[2.313119,48.889632,51.7],[2.313133,48.88965,51.7],[2.313127,48.889644,51.7],[2.313125,48.889655,51.7],[2.313119,48.889641,51.7],[2.313124,48.889646,51.8],[2.31312,48.889625,51.8],[2.313113,48.889633,51.8],[2.313087,48.889636,51.8],[2.313066,48.889664,51.8],[2.313056,48.889659,51.8],[2.31298,48.889757,51.8],[2.312884,48.889799,51.9],[2.312863,48.889817,51.9],[2.312832,48.88987,51.9],[2.312822,48.889865,51.9],[2.312807,48.889885,51.9],[2.312758,48.889898,51.8],[2.312711,48.889956,51.8],[2.312704,48.889954,51.8],[2.312699,48.889971,51.8],[2.312674,48.889977,51.8],[2.312667,48.889991,51.8],[2.312615,48.89003,51.8],[2.312596,48.890065,51.8],[2.31256,48.890096,51.8],[2.312538,48.890095,51.8],[2.31247,48.890118,51.8],[2.312468,48.89013,51.8],[2.312424,48.89016,51.8],[2.312386,48.890208,51.8],[2.31235,48.890195,51.8],[2.312329,48.890205,51.8],[2.312304,48.890178,51.8],[2.312298,48.890185,51.8],[2.312319,48.890289,51.8],[2.312357,48.890335,51.8],[2.312351,48.890355,51.8],[2.312339,48.890361,51.8],[2.312344,48.890368,51.8],[2.312328,48.890354,51.8],[2.312311,48.890367,51.8],[2.312314,48.890357,51.8],[2.312325,48.890368,51.8],[2.312321,48.890357,51.8],[2.312319,48.890363,51.8],[2.312319,48.890355,51.8],[2.312312,48.890364,51.8],[2.312313,48.890358,51.8],[2.312317,48.890364,51.8],[2.312328,48.890351,51.8],[2.312321,48.890355,51.8],[2.312314,48.890349,51.7],[2.312332,48.890356,51.7],[2.312342,48.890351,51.7],[2.31237,48.89036,51.7],[2.312358,48.890402,51.7],[2.312375,48.890406,51.7],[2.312352,48.890406,51.7],[2.312335,48.890394,51.7],[2.31232,48.890433,51.7],[2.312335,48.89044,51.7],[2.312372,48.890494,51.7],[2.31237,48.890505,51.7],[2.31239,48.890481,51.7],[2.31237,48.890489,51.7],[2.312368,48.890478,51.7],[2.312336,48.890488,51.7],[2.312309,48.890471,51.7],[2.312315,48.890438,51.7],[2.312295,48.890417,51.7],[2.312266,48.890415,51.7],[2.3122,48.890378,51.7],[2.312182,48.89038,51.7],[2.312119,48.890417,51.7],[2.312063,48.890575,51.4],[2.312123,48.890645,50.9],[2.31212,48.890681,50.7],[2.312142,48.890717,50.4],[2.312244,48.890768,50],[2.312269,48.890802,49.8],[2.312253,48.890798,49.7],[2.312256,48.890791,49.6],[2.312268,48.890801,49.4],[2.312292,48.890805,49.2],[2.312309,48.890837,48.8],[2.312346,48.890856,48.5],[2.312351,48.890845,48.4],[2.312307,48.890838,48.3],[2.312261,48.890861,48.2],[2.312294,48.890876,48],[2.312306,48.890848,48],[2.312323,48.890843,47.9],[2.312414,48.890877,47.2],[2.31245,48.89091,46.8],[2.312456,48.890929,46.5],[2.31255,48.890986,45.5],[2.312579,48.891027,44.7],[2.312597,48.891032,44.5],[2.312582,48.891067,43.8],[2.312584,48.891089,43.8],[2.312579,48.891084,43.8],[2.312513,48.8911,43.8],[2.312485,48.891123,43.8],[2.312442,48.891141,43.9],[2.312377,48.891149,44.1],[2.312285,48.89121,44.4],[2.312198,48.891228,44.6],[2.312112,48.891276,44.9],[2.311938,48.891349,45.4],[2.311918,48.891345,45.4],[2.311871,48.891354,45.5],[2.311813,48.891378,45.7],[2.311678,48.891364,45.9],[2.311572,48.891421,46.1],[2.31148,48.891458,46.1],[2.311466,48.891476,46.1],[2.311432,48.891489,46.1],[2.311411,48.891517,46.1],[2.31137,48.891542,46],[2.31136,48.89156,46],[2.311337,48.891568,46],[2.311297,48.891645,45.8],[2.31128,48.891659,45.8],[2.311216,48.891777,45.4],[2.311214,48.891816,45.2],[2.31122,48.891812,45.2],[2.311242,48.891871,44.4],[2.311339,48.891958,41.5],[2.311397,48.891981,40.4],[2.311434,48.892016,39.4],[2.31146,48.89201,39.4],[2.311481,48.892018,39.4],[2.311521,48.892054,39.4],[2.311602,48.892098,39.3],[2.311622,48.892101,39.3],[2.311637,48.892114,39.3],[2.311689,48.892129,39.3],[2.31171,48.892152,39.3],[2.311766,48.892188,39.2],[2.311789,48.892213,39.2],[2.311886,48.892226,39.1],[2.311919,48.892241,39],[2.311929,48.892273,39],[2.311994,48.89235,39],[2.312047,48.892364,38.9],[2.312121,48.89241,38.9],[2.312235,48.892452,38.9],[2.312322,48.892523,38.9],[2.312384,48.89256,38.9],[2.312417,48.892558,38.9],[2.312481,48.892603,38.9],[2.312476,48.892593,38.9],[2.312488,48.892598,38.9],[2.312513,48.892583,38.9],[2.312563,48.892625,38.9],[2.312591,48.892631,38.9],[2.312627,48.892608,38.9],[2.312677,48.8926,38.9],[2.31271,48.892559,38.9],[2.312701,48.892549,38.9],[2.312717,48.892526,38.8],[2.312726,48.892526,38.8],[2.312786,48.892473,38.8],[2.312788,48.892414,38.8],[2.31281,48.892381,38.8],[2.312814,48.892335,38.8],[2.312844,48.892308,38.8],[2.312839,48.892289,38.8],[2.312857,48.892283,38.9],[2.312922,48.892229,38.9],[2.312947,48.892224,38.9],[2.312962,48.892177,38.9],[2.312986,48.892161,38.9],[2.312998,48.892132,39],[2.312971,48.892138,39],[2.312926,48.892128,39],[2.312936,48.892134,39],[2.312968,48.892118,39],[2.312957,48.892116,39],[2.312962,48.892122,39],[2.313032,48.892084,39.1],[2.313029,48.892063,39.1],[2.313115,48.891969,39.6],[2.313154,48.891955,40],[2.313199,48.891953,40.7],[2.313214,48.89197,41.3],[2.313235,48.891959,41.7],[2.313298,48.891975,42.8],[2.313295,48.891986,43],[2.313304,48.891984,43.2],[2.31334,48.89203,44.5],[2.313342,48.892022,44.7],[2.313379,48.892022,45],[2.313358,48.892008,45.3],[2.313355,48.891992,45.4],[2.313336,48.891981,45.4],[2.313333,48.891986,45.4],[2.313309,48.891976,45.4],[2.313362,48.891944,45.4],[2.313462,48.891854,45.4],[2.313425,48.891797,45.3],[2.313406,48.891801,45.3],[2.313413,48.891805,45.2],[2.313389,48.891806,45.2],[2.313391,48.891819,45.1],[2.313407,48.891812,45],[2.313398,48.891821,45],[2.313404,48.891832,45],[2.313417,48.891831,44.9],[2.313425,48.891842,44.8],[2.313468,48.891835,44.6],[2.313488,48.891855,43.9],[2.31353,48.891873,43.3],[2.313542,48.891869,43.1],[2.313658,48.891928,41.1],[2.313688,48.891966,40.3],[2.313784,48.891971,40],[2.313804,48.891987,39.9],[2.313785,48.891962,39.8],[2.31379,48.891947,39.8],[2.313741,48.891896,39.7],[2.3137,48.891868,39.7],[2.313694,48.891853,39.7],[2.313683,48.891853,39.7],[2.313637,48.891794,39.6],[2.313474,48.891694,39.5],[2.313417,48.89163,39.4],[2.313432,48.891593,39.4],[2.313472,48.891585,39.5],[2.31349,48.891566,39.5],[2.313484,48.891562,39.5],[2.313476,48.891573,39.5],[2.313484,48.891577,39.5],[2.313471,48.891575,39.5],[2.31348,48.891588,39.5],[2.313475,48.891568,39.5],[2.313509,48.891503,39.5],[2.313538,48.891483,39.5],[2.31356,48.891441,39.5],[2.313616,48.891388,39.5],[2.313712,48.891382,39.5],[2.313804,48.891326,39.5],[2.313893,48.891303,39.4],[2.313908,48.891307,39.4],[2.313956,48.89137,39.4],[2.313992,48.891399,39.4],[2.314024,48.891408,39.4],[2.314034,48.891422,39.4],[2.31412,48.891475,39.4],[2.314206,48.891509,39.4],[2.314312,48.891458,39.5],[2.314354,48.891453,39.6],[2.314368,48.891419,39.6],[2.314397,48.891388,39.7],[2.31445,48.891274,39.9],[2.314476,48.891258,40],[2.314472,48.891231,40],[2.314509,48.891188,40.1],[2.314562,48.891165,40.2],[2.314584,48.891129,40.3],[2.31461,48.89112,40.3],[2.314617,48.891128,40.3],[2.314603,48.891173,40.2],[2.314609,48.891185,40.2],[2.314618,48.891184,40.2],[2.314676,48.891236,40],[2.314779,48.891245,39.9],[2.314858,48.891219,39.7],[2.314865,48.891204,39.7],[2.314936,48.891184,39.6],[2.315001,48.891155,39.4],[2.315041,48.89111,39.3],[2.315101,48.891067,39.3],[2.31513,48.891003,39.2],[2.315146,48.890999,39.2],[2.315189,48.890948,39.2],[2.315195,48.890915,39.2],[2.31523,48.890901,39.2],[2.315267,48.890914,39.2],[2.31538,48.891014,39.1],[2.315385,48.891029,39.1],[2.315523,48.891143,39.1],[2.31559,48.891152,39.1],[2.315686,48.89121,39.2],[2.315754,48.891283,39.2],[2.315767,48.891318,39.2],[2.315819,48.891359,39.2],[2.315882,48.891384,39.2],[2.315893,48.89138,39.2],[2.315917,48.891465,39.3],[2.31599,48.891531,39.4],[2.316021,48.891538,39.4],[2.316037,48.891528,39.5],[2.316123,48.891563,39.7],[2.316149,48.891592,39.8],[2.316151,48.89161,39.8],[2.31619,48.891631,39.9],[2.316321,48.891628,40.1],[2.316361,48.891635,40.1],[2.316442,48.891701,40.3],[2.316459,48.891704,40.3],[2.31649,48.891742,40.3],[2.316511,48.891738,40.4],[2.316578,48.891811,40.6],[2.316595,48.891816,40.6],[2.316597,48.891807,40.7],[2.316615,48.891814,40.7],[2.316629,48.891811,40.7],[2.31665,48.891776,40.8],[2.316707,48.891751,40.9],[2.316717,48.891733,40.9],[2.316772,48.891703,41],[2.316845,48.891646,41.1],[2.316891,48.891626,41.1],[2.316911,48.891592,41.2],[2.317017,48.891546,41.3],[2.317091,48.891536,41.3],[2.317104,48.891527,41.4],[2.317179,48.891525,41.4],[2.317229,48.891513,41.5],[2.317279,48.891516,41.5],[2.317349,48.891486,41.6],[2.31737,48.891439,41.6],[2.317418,48.891396,41.7],[2.317452,48.891382,41.7],[2.317451,48.89135,41.7],[2.31748,48.891299,41.8],[2.317523,48.891257,41.8],[2.317672,48.891214,42],[2.317707,48.891186,42.1],[2.317729,48.891145,42.1],[2.317724,48.89112,42],[2.317638,48.891017,42],[2.317598,48.890998,42],[2.317617,48.890979,42],[2.317597,48.890952,42],[2.317579,48.890947,42],[2.317528,48.890901,42],[2.317494,48.890828,41.9],[2.317366,48.890751,41.9],[2.317315,48.890681,41.9],[2.317275,48.890651,41.8],[2.317283,48.890637,41.8],[2.317233,48.89058,41.8],[2.317256,48.890512,41.7],[2.317227,48.890505,41.7],[2.317213,48.890489,41.7],[2.317188,48.890485,41.7],[2.317199,48.890442,41.7],[2.317187,48.890427,41.7],[2.317205,48.890389,41.6],[2.31721,48.890346,41.9],[2.317223,48.890344,42.1],[2.317228,48.890357,42.3],[2.317264,48.890352,42.4],[2.317255,48.890356,42.5],[2.317278,48.890355,42.6],[2.317303,48.890342,42.7],[2.317312,48.890319,42.7],[2.317303,48.890294,42.7],[2.317388,48.890236,43.4],[2.317418,48.890227,43.4],[2.31749,48.890158,43.6],[2.317505,48.890161,43.6],[2.317569,48.890127,43.7],[2.317639,48.890046,43.9],[2.317644,48.890022,44],[2.317691,48.889958,44.2],[2.317711,48.889959,44.2],[2.317793,48.889913,44.4],[2.317818,48.889911,44.4],[2.317879,48.889831,44.6],[2.317902,48.889821,44.7],[2.317993,48.889832,44.8],[2.318024,48.889822,44.9],[2.318045,48.889788,45],[2.318082,48.88978,45],[2.318125,48.88974,45.1],[2.318163,48.889723,45.2],[2.318201,48.889725,45.3],[2.318247,48.889708,45.4],[2.318349,48.889739,45.5],[2.318358,48.889732,45.5],[2.318394,48.88973,45.6],[2.318394,48.889711,45.6],[2.31843,48.889691,45.7],[2.318503,48.889688,45.8],[2.318502,48.889669,45.9],[2.318524,48.889642,45.9],[2.318537,48.889599,46.1],[2.318562,48.889594,46.1],[2.318567,48.88958,46.1],[2.318654,48.88956,46.4],[2.31872,48.889581,46.5],[2.318849,48.889681,46.7],[2.318888,48.889687,46.7],[2.318975,48.889742,46.8],[2.318998,48.889746,46.9],[2.319033,48.889822,47],[2.319077,48.889857,47],[2.319113,48.889871,47.1],[2.319112,48.889893,47.1],[2.319143,48.88991,47.1],[2.319175,48.889903,47.1],[2.319173,48.889896,47.1],[2.319249,48.889877,47.9],[2.319305,48.889848,47.9],[2.3193,48.889855,47.9],[2.31929,48.889836,48.1],[2.319291,48.889845,48.4],[2.319335,48.889866,48.6],[2.319329,48.889843,48.6],[2.319319,48.88984,48.6],[2.319419,48.889816,48.7],[2.319418,48.889808,48.7],[2.31946,48.889791,48.7],[2.319443,48.889773,48.8],[2.319438,48.889778,48.8],[2.319428,48.889772,48.8],[2.319434,48.889769,48.8],[2.31945,48.88978,48.8],[2.319451,48.889766,48.9],[2.319472,48.889764,48.9],[2.31946,48.889762,48.9],[2.319484,48.889729,49],[2.319473,48.889739,49],[2.319484,48.889749,49],[2.319472,48.889745,49],[2.319478,48.889748,49],[2.319472,48.889735,49],[2.319496,48.88974,49.1],[2.319512,48.889726,49.1],[2.319512,48.88971,49.1],[2.319545,48.889674,49.2],[2.319562,48.889676,49.2],[2.319561,48.889682,49.2],[2.319575,48.889676,49.2],[2.319578,48.889692,49.2],[2.319558,48.889687,49.1],[2.319531,48.889719,49],[2.319552,48.889735,49],[2.319518,48.889766,48.9],[2.319446,48.889789,48.8],[2.319411,48.889886,48.6],[2.319502,48.889973,48.5],[2.319503,48.889998,48.5],[2.319537,48.890003,48.5],[2.319578,48.890031,48.5],[2.319613,48.89007,48.4],[2.319636,48.890077,48.4],[2.319662,48.890116,48.4],[2.319783,48.8902,48.3],[2.319867,48.890299,48.3],[2.319891,48.890299,48.2],[2.319955,48.890344,48.2],[2.319993,48.890359,48.2],[2.320029,48.890406,48.1],[2.320054,48.890404,48.1],[2.320078,48.890426,48.1],[2.320083,48.890444,48.1],[2.320071,48.890415,48.1]]}}]}