{"type":"FeatureCollection","features":[{"type":"Feature","properties":{"name":"Défaite en double","type":"tennis","time":"2026-05-10T18:15:21Z","coordTimes":["2026-05-10T18:15:21Z","2026-05-10T18:15:39Z","2026-05-10T18:15:41Z","2026-05-10T18:15:44Z","2026-05-10T18:15:47Z","2026-05-10T18:15:55Z","2026-05-10T18:15:57Z","2026-05-10T18:15:58Z","2026-05-10T18:15:59Z","2026-05-10T18:16:01Z","2026-05-10T18:16:04Z","2026-05-10T18:16:06Z","2026-05-10T18:16:08Z","2026-05-10T18:16:10Z","2026-05-10T18:16:11Z","2026-05-10T18:16:12Z","2026-05-10T18:16:14Z","2026-05-10T18:16:16Z","2026-05-10T18:16:17Z","2026-05-10T18:16:19Z","2026-05-10T18:16:20Z","2026-05-10T18:16:21Z","2026-05-10T18:16:23Z","2026-05-10T18:16:25Z","2026-05-10T18:16:26Z","2026-05-10T18:16:27Z","2026-05-10T18:16:28Z","2026-05-10T18:16:29Z","2026-05-10T18:16:31Z","2026-05-10T18:16:32Z","2026-05-10T18:16:33Z","2026-05-10T18:16:34Z","2026-05-10T18:16:36Z","2026-05-10T18:16:37Z","2026-05-10T18:16:38Z","2026-05-10T18:16:39Z","2026-05-10T18:16:40Z","2026-05-10T18:16:41Z","2026-05-10T18:16:43Z","2026-05-10T18:16:45Z","2026-05-10T18:16:47Z","2026-05-10T18:16:49Z","2026-05-10T18:16:50Z","2026-05-10T18:16:51Z","2026-05-10T18:16:52Z","2026-05-10T18:16:53Z","2026-05-10T18:16:54Z","2026-05-10T18:16:55Z","2026-05-10T18:16:56Z","2026-05-10T18:16:58Z","2026-05-10T18:17:00Z","2026-05-10T18:17:03Z","2026-05-10T18:17:05Z","2026-05-10T18:17:06Z","2026-05-10T18:17:08Z","2026-05-10T18:17:09Z","2026-05-10T18:17:11Z","2026-05-10T18:17:12Z","2026-05-10T18:17:14Z","2026-05-10T18:17:16Z","2026-05-10T18:17:17Z","2026-05-10T18:17:18Z","2026-05-10T18:17:19Z","2026-05-10T18:17:20Z","2026-05-10T18:17:21Z","2026-05-10T18:17:22Z","2026-05-10T18:17:23Z","2026-05-10T18:17:24Z","2026-05-10T18:17:25Z","2026-05-10T18:17:27Z","2026-05-10T18:17:30Z","2026-05-10T18:17:32Z","2026-05-10T18:17:35Z","2026-05-10T18:17:37Z","2026-05-10T18:17:39Z","2026-05-10T18:17:41Z","2026-05-10T18:17:43Z","2026-05-10T18:17:48Z","2026-05-10T18:17:53Z","2026-05-10T18:17:54Z","2026-05-10T18:17:56Z","2026-05-10T18:17:58Z","2026-05-10T18:17:59Z","2026-05-10T18:18:00Z","2026-05-10T18:18:01Z","2026-05-10T18:18:03Z","2026-05-10T18:18:05Z","2026-05-10T18:18:06Z","2026-05-10T18:18:08Z","2026-05-10T18:18:10Z","2026-05-10T18:18:11Z","2026-05-10T18:18:12Z","2026-05-10T18:18:13Z","2026-05-10T18:18:16Z","2026-05-10T18:18:19Z","2026-05-10T18:18:21Z","2026-05-10T18:18:22Z","2026-05-10T18:18:24Z","2026-05-10T18:18:25Z","2026-05-10T18:18:27Z","2026-05-10T18:18:28Z","2026-05-10T18:18:30Z","2026-05-10T18:18:32Z","2026-05-10T18:18:33Z","2026-05-10T18:18:36Z","2026-05-10T18:18:37Z","2026-05-10T18:18:39Z","2026-05-10T18:18:41Z","2026-05-10T18:18:42Z","2026-05-10T18:18:43Z","2026-05-10T18:18:45Z","2026-05-10T18:18:46Z","2026-05-10T18:18:48Z","2026-05-10T18:18:50Z","2026-05-10T18:18:52Z","2026-05-10T18:18:56Z","2026-05-10T18:18:58Z","2026-05-10T18:18:59Z","2026-05-10T18:19:02Z","2026-05-10T18:19:04Z","2026-05-10T18:19:05Z","2026-05-10T18:19:06Z","2026-05-10T18:19:07Z","2026-05-10T18:19:08Z","2026-05-10T18:19:09Z","2026-05-10T18:19:10Z","2026-05-10T18:19:11Z","2026-05-10T18:19:13Z","2026-05-10T18:19:14Z","2026-05-10T18:19:16Z","2026-05-10T18:19:20Z","2026-05-10T18:19:21Z","2026-05-10T18:19:23Z","2026-05-10T18:19:26Z","2026-05-10T18:19:28Z","2026-05-10T18:19:30Z","2026-05-10T18:19:32Z","2026-05-10T18:19:33Z","2026-05-10T18:19:34Z","2026-05-10T18:19:36Z","2026-05-10T18:19:37Z","2026-05-10T18:19:39Z","2026-05-10T18:19:40Z","2026-05-10T18:19:42Z","2026-05-10T18:19:44Z","2026-05-10T18:19:46Z","2026-05-10T18:19:47Z","2026-05-10T18:19:49Z","2026-05-10T18:19:55Z","2026-05-10T18:19:58Z","2026-05-10T18:20:00Z","2026-05-10T18:20:04Z","2026-05-10T18:20:05Z","2026-05-10T18:20:06Z","2026-05-10T18:20:07Z","2026-05-10T18:20:08Z","2026-05-10T18:20:09Z","2026-05-10T18:20:10Z","2026-05-10T18:20:11Z","2026-05-10T18:20:14Z","2026-05-10T18:20:15Z","2026-05-10T18:20:16Z","2026-05-10T18:20:17Z","2026-05-10T18:20:18Z","2026-05-10T18:20:20Z","2026-05-10T18:20:21Z","2026-05-10T18:20:22Z","2026-05-10T18:20:24Z","2026-05-10T18:20:28Z","2026-05-10T18:20:29Z","2026-05-10T18:20:31Z","2026-05-10T18:20:33Z","2026-05-10T18:20:35Z","2026-05-10T18:20:36Z","2026-05-10T18:20:38Z","2026-05-10T18:20:39Z","2026-05-10T18:20:40Z","2026-05-10T18:20:41Z","2026-05-10T18:20:42Z","2026-05-10T18:20:43Z","2026-05-10T18:20:44Z","2026-05-10T18:20:46Z","2026-05-10T18:20:49Z","2026-05-10T18:20:51Z","2026-05-10T18:20:52Z","2026-05-10T18:20:55Z","2026-05-10T18:21:03Z","2026-05-10T18:21:04Z","2026-05-10T18:21:05Z","2026-05-10T18:21:08Z","2026-05-10T18:21:11Z","2026-05-10T18:21:12Z","2026-05-10T18:21:13Z","2026-05-10T18:21:16Z","2026-05-10T18:21:17Z","2026-05-10T18:21:18Z","2026-05-10T18:21:22Z","2026-05-10T18:21:23Z","2026-05-10T18:21:24Z","2026-05-10T18:21:26Z","2026-05-10T18:21:28Z","2026-05-10T18:21:31Z","2026-05-10T18:21:36Z","2026-05-10T18:21:38Z","2026-05-10T18:21:39Z","2026-05-10T18:21:41Z","2026-05-10T18:21:44Z","2026-05-10T18:21:47Z","2026-05-10T18:21:52Z","2026-05-10T18:21:53Z","2026-05-10T18:21:57Z","2026-05-10T18:22:00Z","2026-05-10T18:22:02Z","2026-05-10T18:22:05Z","2026-05-10T18:22:06Z","2026-05-10T18:22:08Z","2026-05-10T18:22:09Z","2026-05-10T18:22:10Z","2026-05-10T18:22:11Z","2026-05-10T18:22:13Z","2026-05-10T18:22:17Z","2026-05-10T18:22:19Z","2026-05-10T18:22:20Z","2026-05-10T18:22:23Z","2026-05-10T18:22:28Z","2026-05-10T18:22:33Z","2026-05-10T18:22:35Z","2026-05-10T18:22:36Z","2026-05-10T18:22:39Z","2026-05-10T18:22:41Z","2026-05-10T18:22:42Z","2026-05-10T18:22:45Z","2026-05-10T18:22:48Z","2026-05-10T18:22:49Z","2026-05-10T18:22:51Z","2026-05-10T18:22:53Z","2026-05-10T18:22:55Z","2026-05-10T18:22:58Z","2026-05-10T18:22:59Z","2026-05-10T18:23:02Z","2026-05-10T18:23:04Z","2026-05-10T18:23:05Z","2026-05-10T18:23:06Z","2026-05-10T18:23:11Z","2026-05-10T18:23:12Z","2026-05-10T18:23:14Z","2026-05-10T18:23:16Z","2026-05-10T18:23:19Z","2026-05-10T18:23:21Z","2026-05-10T18:23:26Z","2026-05-10T18:23:28Z","2026-05-10T18:23:29Z","2026-05-10T18:23:30Z","2026-05-10T18:23:32Z","2026-05-10T18:23:33Z","2026-05-10T18:23:35Z","2026-05-10T18:23:38Z","2026-05-10T18:23:40Z","2026-05-10T18:23:42Z","2026-05-10T18:23:44Z","2026-05-10T18:23:45Z","2026-05-10T18:23:46Z","2026-05-10T18:23:48Z","2026-05-10T18:23:49Z","2026-05-10T18:23:51Z","2026-05-10T18:23:54Z","2026-05-10T18:23:55Z","2026-05-10T18:23:56Z","2026-05-10T18:23:59Z","2026-05-10T18:24:01Z","2026-05-10T18:24:03Z","2026-05-10T18:24:06Z","2026-05-10T18:24:09Z","2026-05-10T18:24:10Z","2026-05-10T18:24:47Z","2026-05-10T18:24:51Z","2026-05-10T18:24:52Z","2026-05-10T18:24:54Z","2026-05-10T18:24:56Z","2026-05-10T18:24:58Z","2026-05-10T18:24:59Z","2026-05-10T18:25:00Z","2026-05-10T18:25:01Z","2026-05-10T18:25:02Z","2026-05-10T18:25:04Z","2026-05-10T18:25:05Z","2026-05-10T18:25:06Z","2026-05-10T18:25:07Z","2026-05-10T18:25:08Z","2026-05-10T18:25:09Z","2026-05-10T18:25:10Z","2026-05-10T18:25:12Z","2026-05-10T18:25:13Z","2026-05-10T18:25:14Z","2026-05-10T18:25:15Z","2026-05-10T18:25:16Z","2026-05-10T18:25:17Z","2026-05-10T18:25:19Z","2026-05-10T18:25:21Z","2026-05-10T18:25:22Z","2026-05-10T18:25:23Z","2026-05-10T18:25:25Z","2026-05-10T18:25:26Z","2026-05-10T18:25:27Z","2026-05-10T18:25:28Z","2026-05-10T18:25:30Z","2026-05-10T18:25:31Z","2026-05-10T18:25:32Z","2026-05-10T18:25:35Z","2026-05-10T18:25:36Z","2026-05-10T18:25:39Z","2026-05-10T18:25:40Z","2026-05-10T18:25:43Z","2026-05-10T18:25:44Z","2026-05-10T18:25:45Z","2026-05-10T18:25:49Z","2026-05-10T18:25:50Z","2026-05-10T18:25:51Z","2026-05-10T18:25:52Z","2026-05-10T18:25:54Z","2026-05-10T18:25:55Z","2026-05-10T18:25:56Z","2026-05-10T18:25:58Z","2026-05-10T18:25:59Z","2026-05-10T18:26:01Z","2026-05-10T18:26:02Z","2026-05-10T18:26:03Z","2026-05-10T18:26:04Z","2026-05-10T18:26:05Z","2026-05-10T18:26:07Z","2026-05-10T18:26:08Z","2026-05-10T18:26:09Z","2026-05-10T18:26:10Z","2026-05-10T18:26:12Z","2026-05-10T18:26:15Z","2026-05-10T18:26:17Z","2026-05-10T18:26:18Z","2026-05-10T18:26:19Z","2026-05-10T18:26:22Z","2026-05-10T18:26:23Z","2026-05-10T18:26:25Z","2026-05-10T18:26:27Z","2026-05-10T18:26:28Z","2026-05-10T18:26:29Z","2026-05-10T18:26:32Z","2026-05-10T18:26:33Z","2026-05-10T18:26:36Z","2026-05-10T18:26:41Z","2026-05-10T18:26:46Z","2026-05-10T18:26:51Z","2026-05-10T18:26:52Z","2026-05-10T18:26:57Z","2026-05-10T18:27:02Z","2026-05-10T18:27:03Z","2026-05-10T18:27:04Z","2026-05-10T18:27:07Z","2026-05-10T18:27:09Z","2026-05-10T18:27:16Z","2026-05-10T18:27:19Z","2026-05-10T18:27:20Z","2026-05-10T18:27:21Z","2026-05-10T18:27:22Z","2026-05-10T18:27:24Z","2026-05-10T18:27:25Z","2026-05-10T18:27:27Z","2026-05-10T18:27:28Z","2026-05-10T18:27:30Z","2026-05-10T18:27:31Z","2026-05-10T18:27:34Z","2026-05-10T18:27:40Z","2026-05-10T18:27:42Z","2026-05-10T18:27:44Z","2026-05-10T18:27:50Z","2026-05-10T18:27:54Z","2026-05-10T18:28:00Z","2026-05-10T18:28:01Z","2026-05-10T18:28:02Z","2026-05-10T18:28:03Z","2026-05-10T18:28:06Z","2026-05-10T18:28:08Z","2026-05-10T18:28:09Z","2026-05-10T18:28:11Z","2026-05-10T18:28:15Z","2026-05-10T18:28:16Z","2026-05-10T18:28:20Z","2026-05-10T18:28:23Z","2026-05-10T18:28:26Z","2026-05-10T18:28:28Z","2026-05-10T18:28:29Z","2026-05-10T18:28:30Z","2026-05-10T18:28:31Z","2026-05-10T18:28:34Z","2026-05-10T18:28:38Z","2026-05-10T18:28:39Z","2026-05-10T18:28:40Z","2026-05-10T18:28:44Z","2026-05-10T18:28:46Z","2026-05-10T18:28:54Z","2026-05-10T18:28:56Z","2026-05-10T18:28:59Z","2026-05-10T18:29:02Z","2026-05-10T18:29:03Z","2026-05-10T18:29:04Z","2026-05-10T18:29:13Z","2026-05-10T18:29:16Z","2026-05-10T18:29:17Z","2026-05-10T18:29:18Z","2026-05-10T18:29:20Z","2026-05-10T18:29:21Z","2026-05-10T18:29:23Z","2026-05-10T18:29:24Z","2026-05-10T18:29:28Z","2026-05-10T18:29:31Z","2026-05-10T18:29:32Z","2026-05-10T18:29:35Z","2026-05-10T18:29:36Z","2026-05-10T18:29:37Z","2026-05-10T18:29:39Z","2026-05-10T18:29:42Z","2026-05-10T18:29:44Z","2026-05-10T18:29:48Z","2026-05-10T18:29:50Z","2026-05-10T18:29:51Z","2026-05-10T18:29:52Z","2026-05-10T18:29:56Z","2026-05-10T18:30:04Z","2026-05-10T18:30:07Z","2026-05-10T18:30:08Z","2026-05-10T18:30:11Z","2026-05-10T18:30:13Z","2026-05-10T18:30:15Z","2026-05-10T18:30:17Z","2026-05-10T18:30:18Z","2026-05-10T18:30:22Z","2026-05-10T18:30:28Z","2026-05-10T18:30:30Z","2026-05-10T18:30:32Z","2026-05-10T18:30:33Z","2026-05-10T18:30:34Z","2026-05-10T18:30:37Z","2026-05-10T18:30:39Z","2026-05-10T18:30:40Z","2026-05-10T18:30:42Z","2026-05-10T18:30:44Z","2026-05-10T18:30:46Z","2026-05-10T18:30:49Z","2026-05-10T18:30:54Z","2026-05-10T18:30:55Z","2026-05-10T18:30:59Z","2026-05-10T18:31:01Z","2026-05-10T18:31:13Z","2026-05-10T18:31:16Z","2026-05-10T18:31:19Z","2026-05-10T18:31:20Z","2026-05-10T18:31:23Z","2026-05-10T18:31:30Z","2026-05-10T18:31:35Z","2026-05-10T18:31:36Z","2026-05-10T18:31:37Z","2026-05-10T18:31:39Z","2026-05-10T18:31:40Z","2026-05-10T18:31:41Z","2026-05-10T18:31:42Z","2026-05-10T18:31:43Z","2026-05-10T18:31:45Z","2026-05-10T18:31:46Z","2026-05-10T18:31:50Z","2026-05-10T18:31:54Z","2026-05-10T18:31:55Z","2026-05-10T18:31:58Z","2026-05-10T18:32:00Z","2026-05-10T18:32:02Z","2026-05-10T18:32:03Z","2026-05-10T18:32:04Z","2026-05-10T18:32:06Z","2026-05-10T18:32:10Z","2026-05-10T18:32:11Z","2026-05-10T18:32:12Z","2026-05-10T18:32:14Z","2026-05-10T18:32:18Z","2026-05-10T18:32:21Z","2026-05-10T18:32:31Z","2026-05-10T18:32:38Z","2026-05-10T18:32:42Z","2026-05-10T18:32:46Z","2026-05-10T18:32:47Z","2026-05-10T18:33:04Z","2026-05-10T18:33:11Z","2026-05-10T18:33:15Z","2026-05-10T18:33:25Z","2026-05-10T18:33:26Z","2026-05-10T18:33:30Z","2026-05-10T18:33:33Z","2026-05-10T18:33:34Z","2026-05-10T18:33:38Z","2026-05-10T18:33:39Z","2026-05-10T18:33:41Z","2026-05-10T18:33:44Z","2026-05-10T18:33:46Z","2026-05-10T18:33:50Z","2026-05-10T18:33:51Z","2026-05-10T18:33:58Z","2026-05-10T18:34:00Z","2026-05-10T18:34:03Z","2026-05-10T18:34:04Z","2026-05-10T18:34:05Z","2026-05-10T18:34:07Z","2026-05-10T18:34:08Z","2026-05-10T18:34:12Z","2026-05-10T18:34:17Z","2026-05-10T18:34:20Z","2026-05-10T18:34:21Z","2026-05-10T18:34:22Z","2026-05-10T18:34:24Z","2026-05-10T18:34:26Z","2026-05-10T18:34:27Z","2026-05-10T18:34:30Z","2026-05-10T18:34:32Z","2026-05-10T18:34:34Z","2026-05-10T18:34:38Z","2026-05-10T18:34:41Z","2026-05-10T18:34:42Z","2026-05-10T18:34:46Z","2026-05-10T18:34:47Z","2026-05-10T18:34:50Z","2026-05-10T18:34:52Z","2026-05-10T18:34:53Z","2026-05-10T18:34:54Z","2026-05-10T18:34:55Z","2026-05-10T18:34:56Z","2026-05-10T18:34:57Z","2026-05-10T18:34:58Z","2026-05-10T18:34:59Z","2026-05-10T18:35:00Z","2026-05-10T18:35:03Z","2026-05-10T18:35:07Z","2026-05-10T18:35:30Z","2026-05-10T18:35:34Z","2026-05-10T18:35:37Z","2026-05-10T18:35:39Z","2026-05-10T18:35:40Z","2026-05-10T18:35:41Z","2026-05-10T18:35:43Z","2026-05-10T18:35:44Z","2026-05-10T18:35:48Z","2026-05-10T18:35:49Z","2026-05-10T18:35:51Z","2026-05-10T18:35:54Z","2026-05-10T18:35:57Z","2026-05-10T18:35:59Z","2026-05-10T18:36:02Z","2026-05-10T18:36:06Z","2026-05-10T18:36:07Z","2026-05-10T18:36:09Z","2026-05-10T18:36:14Z","2026-05-10T18:36:15Z","2026-05-10T18:36:17Z","2026-05-10T18:36:19Z","2026-05-10T18:36:24Z","2026-05-10T18:36:25Z","2026-05-10T18:36:31Z","2026-05-10T18:36:32Z","2026-05-10T18:36:34Z","2026-05-10T18:36:36Z","2026-05-10T18:36:37Z","2026-05-10T18:36:42Z","2026-05-10T18:36:44Z","2026-05-10T18:36:45Z","2026-05-10T18:36:46Z","2026-05-10T18:36:47Z","2026-05-10T18:36:48Z","2026-05-10T18:36:51Z","2026-05-10T18:36:59Z","2026-05-10T18:37:04Z","2026-05-10T18:37:05Z","2026-05-10T18:37:08Z","2026-05-10T18:37:10Z","2026-05-10T18:37:14Z","2026-05-10T18:37:20Z","2026-05-10T18:37:21Z","2026-05-10T18:37:22Z","2026-05-10T18:37:24Z","2026-05-10T18:37:30Z","2026-05-10T18:37:31Z","2026-05-10T18:37:32Z","2026-05-10T18:37:33Z","2026-05-10T18:37:35Z","2026-05-10T18:37:38Z","2026-05-10T18:37:39Z","2026-05-10T18:37:41Z","2026-05-10T18:37:43Z","2026-05-10T18:37:46Z","2026-05-10T18:37:51Z","2026-05-10T18:37:52Z","2026-05-10T18:37:53Z","2026-05-10T18:37:56Z","2026-05-10T18:37:58Z","2026-05-10T18:37:59Z","2026-05-10T18:38:01Z","2026-05-10T18:38:07Z","2026-05-10T18:38:13Z","2026-05-10T18:38:17Z","2026-05-10T18:38:19Z","2026-05-10T18:38:21Z","2026-05-10T18:38:26Z","2026-05-10T18:38:27Z","2026-05-10T18:38:30Z","2026-05-10T18:38:32Z","2026-05-10T18:38:34Z","2026-05-10T18:38:38Z","2026-05-10T18:38:39Z","2026-05-10T18:38:40Z","2026-05-10T18:38:43Z","2026-05-10T18:38:45Z","2026-05-10T18:38:52Z","2026-05-10T18:38:55Z","2026-05-10T18:38:58Z","2026-05-10T18:39:00Z","2026-05-10T18:39:01Z","2026-05-10T18:39:02Z","2026-05-10T18:39:05Z","2026-05-10T18:39:06Z","2026-05-10T18:39:07Z","2026-05-10T18:39:09Z","2026-05-10T18:39:10Z","2026-05-10T18:39:12Z","2026-05-10T18:39:13Z","2026-05-10T18:39:14Z","2026-05-10T18:39:16Z","2026-05-10T18:39:17Z","2026-05-10T18:39:21Z","2026-05-10T18:39:22Z","2026-05-10T18:39:24Z","2026-05-10T18:39:26Z","2026-05-10T18:39:27Z","2026-05-10T18:39:30Z","2026-05-10T18:39:31Z","2026-05-10T18:39:40Z","2026-05-10T18:39:43Z","2026-05-10T18:39:45Z","2026-05-10T18:39:47Z","2026-05-10T18:39:50Z","2026-05-10T18:39:51Z","2026-05-10T18:39:52Z","2026-05-10T18:39:54Z","2026-05-10T18:39:55Z","2026-05-10T18:39:56Z","2026-05-10T18:39:58Z","2026-05-10T18:39:59Z","2026-05-10T18:40:05Z","2026-05-10T18:40:07Z","2026-05-10T18:40:11Z","2026-05-10T18:40:16Z","2026-05-10T18:40:23Z","2026-05-10T18:40:25Z","2026-05-10T18:40:27Z","2026-05-10T18:40:34Z","2026-05-10T18:40:37Z","2026-05-10T18:40:38Z","2026-05-10T18:40:40Z","2026-05-10T18:40:44Z","2026-05-10T18:40:47Z","2026-05-10T18:40:50Z","2026-05-10T18:40:53Z","2026-05-10T18:41:07Z","2026-05-10T18:41:08Z","2026-05-10T18:41:10Z","2026-05-10T18:41:11Z","2026-05-10T18:41:12Z","2026-05-10T18:41:16Z","2026-05-10T18:41:24Z","2026-05-10T18:41:32Z","2026-05-10T18:41:34Z","2026-05-10T18:41:39Z","2026-05-10T18:41:42Z","2026-05-10T18:41:45Z","2026-05-10T18:41:54Z","2026-05-10T18:41:55Z","2026-05-10T18:41:57Z","2026-05-10T18:41:59Z","2026-05-10T18:42:05Z","2026-05-10T18:42:07Z","2026-05-10T18:42:08Z","2026-05-10T18:42:10Z","2026-05-10T18:42:11Z","2026-05-10T18:42:13Z","2026-05-10T18:42:19Z","2026-05-10T18:42:24Z","2026-05-10T18:42:26Z","2026-05-10T18:42:36Z","2026-05-10T18:42:38Z","2026-05-10T18:42:40Z","2026-05-10T18:42:42Z","2026-05-10T18:42:44Z","2026-05-10T18:42:47Z","2026-05-10T18:42:49Z","2026-05-10T18:42:50Z","2026-05-10T18:42:54Z","2026-05-10T18:42:55Z","2026-05-10T18:42:58Z","2026-05-10T18:43:01Z","2026-05-10T18:43:02Z","2026-05-10T18:43:03Z","2026-05-10T18:43:05Z","2026-05-10T18:43:07Z","2026-05-10T18:43:09Z","2026-05-10T18:43:10Z","2026-05-10T18:43:12Z","2026-05-10T18:43:15Z","2026-05-10T18:43:26Z","2026-05-10T18:43:28Z","2026-05-10T18:43:31Z","2026-05-10T18:43:35Z","2026-05-10T18:43:37Z","2026-05-10T18:43:39Z","2026-05-10T18:43:43Z","2026-05-10T18:43:46Z","2026-05-10T18:43:48Z","2026-05-10T18:43:50Z","2026-05-10T18:43:51Z","2026-05-10T18:43:52Z","2026-05-10T18:43:55Z","2026-05-10T18:43:58Z","2026-05-10T18:44:01Z","2026-05-10T18:44:03Z","2026-05-10T18:44:10Z","2026-05-10T18:44:14Z","2026-05-10T18:44:15Z","2026-05-10T18:44:16Z","2026-05-10T18:44:18Z","2026-05-10T18:44:21Z","2026-05-10T18:44:24Z","2026-05-10T18:44:26Z","2026-05-10T18:44:28Z","2026-05-10T18:44:30Z","2026-05-10T18:44:33Z","2026-05-10T18:44:34Z","2026-05-10T18:44:40Z","2026-05-10T18:44:41Z","2026-05-10T18:44:42Z","2026-05-10T18:44:47Z","2026-05-10T18:44:49Z","2026-05-10T18:44:50Z","2026-05-10T18:44:52Z","2026-05-10T18:44:57Z","2026-05-10T18:45:06Z","2026-05-10T18:45:08Z","2026-05-10T18:45:10Z","2026-05-10T18:45:15Z","2026-05-10T18:45:18Z","2026-05-10T18:45:21Z","2026-05-10T18:45:23Z","2026-05-10T18:45:28Z","2026-05-10T18:45:33Z","2026-05-10T18:45:34Z","2026-05-10T18:45:36Z","2026-05-10T18:45:38Z","2026-05-10T18:45:43Z","2026-05-10T18:45:45Z","2026-05-10T18:45:47Z","2026-05-10T18:45:49Z","2026-05-10T18:45:50Z","2026-05-10T18:45:52Z","2026-05-10T18:45:55Z","2026-05-10T18:45:58Z","2026-05-10T18:45:59Z","2026-05-10T18:46:01Z","2026-05-10T18:46:06Z","2026-05-10T18:46:07Z","2026-05-10T18:46:09Z","2026-05-10T18:46:10Z","2026-05-10T18:46:11Z","2026-05-10T18:46:13Z","2026-05-10T18:46:17Z","2026-05-10T18:46:20Z","2026-05-10T18:46:23Z","2026-05-10T18:46:27Z","2026-05-10T18:46:36Z","2026-05-10T18:46:37Z","2026-05-10T18:46:38Z","2026-05-10T18:46:39Z","2026-05-10T18:46:41Z","2026-05-10T18:46:43Z","2026-05-10T18:46:45Z","2026-05-10T18:46:48Z","2026-05-10T18:46:50Z","2026-05-10T18:46:53Z","2026-05-10T18:46:57Z","2026-05-10T18:46:59Z","2026-05-10T18:47:01Z","2026-05-10T18:47:05Z","2026-05-10T18:47:07Z","2026-05-10T18:47:09Z","2026-05-10T18:47:11Z","2026-05-10T18:47:13Z","2026-05-10T18:47:19Z","2026-05-10T18:47:20Z","2026-05-10T18:47:21Z","2026-05-10T18:47:22Z","2026-05-10T18:47:23Z","2026-05-10T18:47:25Z","2026-05-10T18:47:29Z","2026-05-10T18:47:30Z","2026-05-10T18:47:32Z","2026-05-10T18:47:33Z","2026-05-10T18:47:35Z","2026-05-10T18:47:37Z","2026-05-10T18:47:39Z","2026-05-10T18:47:49Z","2026-05-10T18:47:50Z","2026-05-10T18:47:51Z","2026-05-10T18:47:52Z","2026-05-10T18:47:55Z","2026-05-10T18:47:57Z","2026-05-10T18:47:59Z","2026-05-10T18:48:03Z","2026-05-10T18:48:09Z","2026-05-10T18:48:15Z","2026-05-10T18:48:17Z","2026-05-10T18:48:18Z","2026-05-10T18:48:21Z","2026-05-10T18:48:25Z","2026-05-10T18:48:27Z","2026-05-10T18:48:28Z","2026-05-10T18:48:29Z","2026-05-10T18:48:32Z","2026-05-10T18:48:38Z","2026-05-10T18:48:39Z","2026-05-10T18:48:41Z","2026-05-10T18:48:42Z","2026-05-10T18:48:43Z","2026-05-10T18:48:45Z","2026-05-10T18:48:46Z","2026-05-10T18:48:51Z","2026-05-10T18:48:53Z","2026-05-10T18:48:55Z","2026-05-10T18:48:56Z","2026-05-10T18:49:06Z","2026-05-10T18:49:12Z","2026-05-10T18:49:15Z","2026-05-10T18:49:18Z","2026-05-10T18:49:21Z","2026-05-10T18:49:22Z","2026-05-10T18:49:26Z","2026-05-10T18:49:30Z","2026-05-10T18:49:36Z","2026-05-10T18:49:39Z","2026-05-10T18:49:41Z","2026-05-10T18:49:43Z","2026-05-10T18:49:48Z","2026-05-10T18:49:50Z","2026-05-10T18:49:53Z","2026-05-10T18:49:57Z","2026-05-10T18:49:59Z","2026-05-10T18:50:01Z","2026-05-10T18:50:03Z","2026-05-10T18:50:05Z","2026-05-10T18:50:08Z","2026-05-10T18:50:11Z","2026-05-10T18:50:12Z","2026-05-10T18:50:14Z","2026-05-10T18:50:15Z","2026-05-10T18:50:16Z","2026-05-10T18:50:17Z","2026-05-10T18:50:18Z","2026-05-10T18:50:19Z","2026-05-10T18:50:20Z","2026-05-10T18:50:21Z","2026-05-10T18:50:23Z","2026-05-10T18:50:27Z","2026-05-10T18:50:28Z","2026-05-10T18:50:31Z","2026-05-10T18:50:32Z","2026-05-10T18:50:35Z","2026-05-10T18:50:36Z","2026-05-10T18:50:38Z","2026-05-10T18:50:39Z","2026-05-10T18:50:42Z","2026-05-10T18:50:43Z","2026-05-10T18:50:45Z","2026-05-10T18:50:46Z","2026-05-10T18:50:48Z","2026-05-10T18:50:49Z","2026-05-10T18:50:52Z","2026-05-10T18:50:53Z","2026-05-10T18:50:54Z","2026-05-10T18:50:56Z","2026-05-10T18:51:01Z","2026-05-10T18:51:02Z","2026-05-10T18:51:03Z","2026-05-10T18:51:11Z","2026-05-10T18:51:13Z","2026-05-10T18:51:16Z","2026-05-10T18:51:17Z","2026-05-10T18:51:18Z","2026-05-10T18:51:20Z","2026-05-10T18:51:21Z","2026-05-10T18:51:23Z","2026-05-10T18:51:25Z","2026-05-10T18:51:27Z","2026-05-10T18:51:29Z","2026-05-10T18:51:35Z","2026-05-10T18:51:36Z","2026-05-10T18:51:37Z","2026-05-10T18:51:38Z","2026-05-10T18:51:40Z","2026-05-10T18:51:41Z","2026-05-10T18:51:42Z","2026-05-10T18:51:44Z","2026-05-10T18:51:46Z","2026-05-10T18:51:47Z","2026-05-10T18:51:49Z","2026-05-10T18:51:51Z","2026-05-10T18:51:52Z","2026-05-10T18:51:55Z","2026-05-10T18:51:57Z","2026-05-10T18:52:02Z","2026-05-10T18:52:03Z","2026-05-10T18:52:08Z","2026-05-10T18:52:11Z","2026-05-10T18:52:13Z","2026-05-10T18:52:17Z","2026-05-10T18:52:19Z","2026-05-10T18:52:21Z","2026-05-10T18:52:22Z","2026-05-10T18:52:23Z","2026-05-10T18:52:26Z","2026-05-10T18:52:27Z","2026-05-10T18:52:29Z","2026-05-10T18:52:31Z","2026-05-10T18:52:32Z","2026-05-10T18:52:33Z","2026-05-10T18:52:43Z","2026-05-10T18:52:47Z","2026-05-10T18:52:49Z","2026-05-10T18:52:51Z","2026-05-10T18:52:53Z","2026-05-10T18:53:02Z","2026-05-10T18:53:04Z","2026-05-10T18:53:05Z","2026-05-10T18:53:06Z","2026-05-10T18:53:13Z","2026-05-10T18:53:16Z","2026-05-10T18:53:17Z","2026-05-10T18:53:26Z","2026-05-10T18:53:29Z","2026-05-10T18:53:30Z","2026-05-10T18:53:36Z","2026-05-10T18:53:38Z","2026-05-10T18:53:39Z","2026-05-10T18:53:40Z","2026-05-10T18:53:43Z","2026-05-10T18:53:47Z","2026-05-10T18:53:48Z","2026-05-10T18:53:50Z","2026-05-10T18:53:51Z","2026-05-10T18:53:53Z","2026-05-10T18:53:54Z","2026-05-10T18:54:02Z","2026-05-10T18:54:05Z","2026-05-10T18:54:06Z","2026-05-10T18:54:07Z","2026-05-10T18:54:10Z","2026-05-10T18:54:12Z","2026-05-10T18:54:17Z","2026-05-10T18:54:19Z","2026-05-10T18:54:20Z","2026-05-10T18:54:24Z","2026-05-10T18:54:25Z","2026-05-10T18:54:26Z","2026-05-10T18:54:27Z","2026-05-10T18:54:29Z","2026-05-10T18:54:30Z","2026-05-10T18:54:34Z","2026-05-10T18:54:36Z","2026-05-10T18:54:40Z","2026-05-10T18:54:41Z","2026-05-10T18:54:47Z","2026-05-10T18:54:48Z","2026-05-10T18:54:49Z","2026-05-10T18:54:51Z","2026-05-10T18:54:54Z","2026-05-10T18:54:55Z","2026-05-10T18:54:56Z","2026-05-10T18:54:57Z","2026-05-10T18:54:58Z","2026-05-10T18:55:00Z","2026-05-10T18:55:01Z","2026-05-10T18:55:05Z","2026-05-10T18:55:09Z","2026-05-10T18:55:15Z","2026-05-10T18:55:20Z","2026-05-10T18:55:21Z","2026-05-10T18:55:22Z","2026-05-10T18:55:23Z","2026-05-10T18:55:24Z","2026-05-10T18:55:26Z","2026-05-10T18:55:27Z","2026-05-10T18:55:28Z","2026-05-10T18:55:30Z","2026-05-10T18:55:33Z","2026-05-10T18:55:34Z","2026-05-10T18:55:35Z","2026-05-10T18:55:38Z","2026-05-10T18:55:39Z","2026-05-10T18:55:42Z","2026-05-10T18:55:54Z","2026-05-10T18:55:56Z","2026-05-10T18:55:57Z","2026-05-10T18:55:58Z","2026-05-10T18:55:59Z","2026-05-10T18:56:04Z","2026-05-10T18:56:07Z","2026-05-10T18:56:09Z","2026-05-10T18:56:12Z","2026-05-10T18:56:13Z","2026-05-10T18:56:14Z","2026-05-10T18:56:17Z","2026-05-10T18:56:19Z","2026-05-10T18:56:27Z","2026-05-10T18:56:30Z","2026-05-10T18:56:44Z","2026-05-10T18:56:51Z","2026-05-10T18:57:02Z","2026-05-10T18:57:05Z","2026-05-10T18:57:08Z","2026-05-10T18:57:14Z","2026-05-10T18:57:17Z","2026-05-10T18:57:19Z","2026-05-10T18:57:20Z","2026-05-10T18:57:22Z","2026-05-10T18:57:25Z","2026-05-10T18:57:34Z","2026-05-10T18:57:35Z","2026-05-10T18:57:37Z","2026-05-10T18:57:40Z","2026-05-10T18:57:44Z","2026-05-10T18:57:48Z","2026-05-10T18:57:53Z","2026-05-10T18:57:57Z","2026-05-10T18:57:59Z","2026-05-10T18:58:01Z","2026-05-10T18:58:37Z","2026-05-10T18:58:41Z","2026-05-10T18:58:42Z","2026-05-10T18:58:46Z","2026-05-10T18:58:48Z","2026-05-10T18:58:51Z","2026-05-10T18:58:53Z","2026-05-10T18:58:56Z","2026-05-10T18:58:58Z","2026-05-10T18:58:59Z","2026-05-10T18:59:02Z","2026-05-10T18:59:07Z","2026-05-10T18:59:25Z","2026-05-10T18:59:26Z","2026-05-10T18:59:29Z","2026-05-10T18:59:32Z","2026-05-10T18:59:38Z","2026-05-10T18:59:39Z","2026-05-10T18:59:40Z","2026-05-10T18:59:41Z","2026-05-10T18:59:42Z","2026-05-10T18:59:46Z","2026-05-10T18:59:48Z","2026-05-10T18:59:57Z","2026-05-10T19:00:01Z","2026-05-10T19:00:02Z","2026-05-10T19:00:06Z","2026-05-10T19:00:08Z","2026-05-10T19:00:11Z","2026-05-10T19:00:14Z","2026-05-10T19:00:17Z","2026-05-10T19:00:21Z","2026-05-10T19:00:24Z","2026-05-10T19:00:25Z","2026-05-10T19:00:26Z","2026-05-10T19:00:28Z","2026-05-10T19:00:31Z","2026-05-10T19:00:41Z","2026-05-10T19:00:46Z","2026-05-10T19:00:48Z","2026-05-10T19:00:53Z","2026-05-10T19:00:54Z","2026-05-10T19:00:58Z","2026-05-10T19:01:00Z","2026-05-10T19:01:02Z","2026-05-10T19:01:04Z","2026-05-10T19:01:05Z","2026-05-10T19:01:08Z","2026-05-10T19:01:13Z","2026-05-10T19:01:17Z","2026-05-10T19:01:19Z","2026-05-10T19:01:20Z","2026-05-10T19:01:21Z","2026-05-10T19:01:24Z","2026-05-10T19:01:25Z","2026-05-10T19:01:26Z","2026-05-10T19:01:31Z","2026-05-10T19:01:33Z","2026-05-10T19:01:36Z","2026-05-10T19:01:39Z","2026-05-10T19:01:43Z","2026-05-10T19:01:50Z","2026-05-10T19:01:54Z","2026-05-10T19:01:59Z","2026-05-10T19:02:02Z","2026-05-10T19:02:06Z","2026-05-10T19:02:08Z","2026-05-10T19:02:10Z","2026-05-10T19:02:15Z","2026-05-10T19:02:21Z","2026-05-10T19:02:28Z","2026-05-10T19:02:32Z","2026-05-10T19:02:34Z","2026-05-10T19:02:37Z","2026-05-10T19:02:38Z","2026-05-10T19:02:41Z","2026-05-10T19:02:42Z","2026-05-10T19:02:43Z","2026-05-10T19:02:49Z","2026-05-10T19:02:50Z","2026-05-10T19:02:52Z","2026-05-10T19:02:53Z","2026-05-10T19:02:54Z","2026-05-10T19:02:57Z","2026-05-10T19:02:58Z","2026-05-10T19:02:59Z","2026-05-10T19:03:04Z","2026-05-10T19:03:06Z","2026-05-10T19:03:10Z","2026-05-10T19:03:12Z","2026-05-10T19:03:16Z","2026-05-10T19:03:19Z","2026-05-10T19:03:23Z","2026-05-10T19:03:24Z","2026-05-10T19:03:25Z","2026-05-10T19:03:33Z","2026-05-10T19:03:34Z","2026-05-10T19:03:36Z","2026-05-10T19:03:37Z","2026-05-10T19:03:40Z","2026-05-10T19:03:42Z","2026-05-10T19:03:43Z","2026-05-10T19:03:44Z","2026-05-10T19:03:46Z","2026-05-10T19:03:48Z","2026-05-10T19:03:52Z","2026-05-10T19:03:54Z","2026-05-10T19:03:56Z","2026-05-10T19:03:57Z","2026-05-10T19:03:59Z","2026-05-10T19:04:00Z","2026-05-10T19:04:03Z","2026-05-10T19:04:04Z","2026-05-10T19:04:08Z","2026-05-10T19:04:09Z","2026-05-10T19:04:11Z","2026-05-10T19:04:13Z","2026-05-10T19:04:15Z","2026-05-10T19:04:23Z","2026-05-10T19:04:24Z","2026-05-10T19:04:25Z","2026-05-10T19:04:26Z","2026-05-10T19:04:28Z","2026-05-10T19:04:32Z","2026-05-10T19:04:34Z","2026-05-10T19:04:36Z","2026-05-10T19:04:37Z","2026-05-10T19:04:42Z","2026-05-10T19:04:45Z","2026-05-10T19:04:46Z","2026-05-10T19:04:50Z","2026-05-10T19:04:53Z","2026-05-10T19:04:55Z","2026-05-10T19:04:56Z","2026-05-10T19:04:57Z","2026-05-10T19:04:58Z","2026-05-10T19:05:00Z","2026-05-10T19:05:06Z","2026-05-10T19:05:07Z","2026-05-10T19:05:08Z","2026-05-10T19:05:14Z","2026-05-10T19:05:17Z","2026-05-10T19:05:20Z","2026-05-10T19:05:27Z","2026-05-10T19:05:28Z","2026-05-10T19:05:30Z","2026-05-10T19:05:32Z","2026-05-10T19:05:34Z","2026-05-10T19:05:35Z","2026-05-10T19:05:40Z","2026-05-10T19:05:44Z","2026-05-10T19:05:46Z","2026-05-10T19:05:47Z","2026-05-10T19:05:48Z","2026-05-10T19:05:49Z","2026-05-10T19:05:51Z","2026-05-10T19:05:57Z","2026-05-10T19:06:00Z","2026-05-10T19:06:03Z","2026-05-10T19:06:07Z","2026-05-10T19:06:09Z","2026-05-10T19:06:10Z","2026-05-10T19:06:11Z","2026-05-10T19:06:13Z","2026-05-10T19:06:14Z","2026-05-10T19:06:15Z","2026-05-10T19:06:16Z","2026-05-10T19:06:17Z","2026-05-10T19:06:19Z","2026-05-10T19:06:26Z","2026-05-10T19:06:28Z","2026-05-10T19:06:30Z","2026-05-10T19:06:33Z","2026-05-10T19:06:34Z","2026-05-10T19:06:36Z","2026-05-10T19:06:37Z","2026-05-10T19:06:38Z","2026-05-10T19:06:40Z","2026-05-10T19:06:42Z","2026-05-10T19:06:44Z","2026-05-10T19:06:46Z","2026-05-10T19:06:47Z","2026-05-10T19:06:48Z","2026-05-10T19:06:49Z","2026-05-10T19:06:50Z","2026-05-10T19:06:53Z","2026-05-10T19:06:54Z","2026-05-10T19:07:08Z","2026-05-10T19:07:09Z","2026-05-10T19:07:12Z","2026-05-10T19:07:14Z","2026-05-10T19:07:17Z","2026-05-10T19:07:19Z","2026-05-10T19:07:20Z","2026-05-10T19:07:21Z","2026-05-10T19:07:23Z","2026-05-10T19:07:26Z","2026-05-10T19:07:27Z","2026-05-10T19:07:30Z","2026-05-10T19:07:32Z","2026-05-10T19:07:36Z","2026-05-10T19:07:39Z","2026-05-10T19:07:41Z","2026-05-10T19:07:42Z","2026-05-10T19:07:43Z","2026-05-10T19:07:44Z","2026-05-10T19:07:46Z","2026-05-10T19:07:47Z","2026-05-10T19:07:48Z","2026-05-10T19:07:50Z","2026-05-10T19:07:52Z","2026-05-10T19:07:53Z","2026-05-10T19:07:54Z","2026-05-10T19:07:55Z","2026-05-10T19:07:59Z","2026-05-10T19:08:04Z","2026-05-10T19:08:05Z","2026-05-10T19:08:10Z","2026-05-10T19:08:11Z","2026-05-10T19:08:12Z","2026-05-10T19:08:15Z","2026-05-10T19:08:18Z","2026-05-10T19:08:19Z","2026-05-10T19:08:20Z","2026-05-10T19:08:22Z","2026-05-10T19:08:23Z","2026-05-10T19:08:25Z","2026-05-10T19:08:26Z","2026-05-10T19:08:27Z","2026-05-10T19:08:28Z","2026-05-10T19:08:29Z","2026-05-10T19:08:30Z","2026-05-10T19:08:32Z","2026-05-10T19:08:33Z","2026-05-10T19:08:34Z","2026-05-10T19:08:35Z","2026-05-10T19:08:36Z","2026-05-10T19:08:37Z","2026-05-10T19:08:38Z","2026-05-10T19:08:42Z","2026-05-10T19:08:45Z","2026-05-10T19:08:49Z","2026-05-10T19:08:52Z","2026-05-10T19:08:53Z","2026-05-10T19:08:54Z","2026-05-10T19:08:56Z","2026-05-10T19:08:58Z","2026-05-10T19:08:59Z","2026-05-10T19:09:01Z","2026-05-10T19:09:03Z","2026-05-10T19:09:04Z","2026-05-10T19:09:06Z","2026-05-10T19:09:09Z","2026-05-10T19:09:13Z","2026-05-10T19:09:15Z","2026-05-10T19:09:23Z","2026-05-10T19:09:25Z","2026-05-10T19:09:28Z","2026-05-10T19:09:29Z","2026-05-10T19:09:46Z","2026-05-10T19:09:48Z","2026-05-10T19:09:54Z","2026-05-10T19:09:59Z","2026-05-10T19:10:04Z","2026-05-10T19:10:12Z","2026-05-10T19:10:21Z","2026-05-10T19:10:24Z","2026-05-10T19:10:27Z","2026-05-10T19:10:32Z","2026-05-10T19:10:33Z","2026-05-10T19:10:35Z","2026-05-10T19:10:37Z","2026-05-10T19:10:39Z","2026-05-10T19:10:41Z","2026-05-10T19:10:45Z","2026-05-10T19:10:46Z","2026-05-10T19:10:47Z","2026-05-10T19:10:49Z","2026-05-10T19:10:51Z","2026-05-10T19:11:02Z","2026-05-10T19:11:05Z","2026-05-10T19:11:07Z","2026-05-10T19:11:10Z","2026-05-10T19:11:12Z","2026-05-10T19:11:14Z","2026-05-10T19:11:16Z","2026-05-10T19:11:23Z","2026-05-10T19:11:27Z","2026-05-10T19:11:28Z","2026-05-10T19:11:30Z","2026-05-10T19:11:31Z","2026-05-10T19:11:35Z","2026-05-10T19:11:38Z","2026-05-10T19:11:40Z","2026-05-10T19:11:41Z","2026-05-10T19:11:45Z","2026-05-10T19:11:49Z","2026-05-10T19:11:52Z","2026-05-10T19:11:56Z","2026-05-10T19:12:00Z","2026-05-10T19:12:03Z","2026-05-10T19:12:04Z","2026-05-10T19:12:08Z","2026-05-10T19:12:12Z","2026-05-10T19:12:26Z","2026-05-10T19:12:32Z","2026-05-10T19:12:34Z","2026-05-10T19:12:40Z","2026-05-10T19:12:43Z","2026-05-10T19:12:45Z","2026-05-10T19:12:47Z","2026-05-10T19:12:48Z","2026-05-10T19:12:50Z","2026-05-10T19:12:52Z","2026-05-10T19:13:01Z","2026-05-10T19:13:04Z","2026-05-10T19:13:06Z","2026-05-10T19:13:09Z","2026-05-10T19:13:14Z","2026-05-10T19:13:15Z","2026-05-10T19:13:22Z","2026-05-10T19:13:33Z","2026-05-10T19:13:34Z","2026-05-10T19:13:35Z","2026-05-10T19:13:36Z","2026-05-10T19:13:37Z","2026-05-10T19:13:39Z","2026-05-10T19:13:41Z","2026-05-10T19:13:44Z","2026-05-10T19:13:46Z","2026-05-10T19:13:48Z","2026-05-10T19:13:50Z","2026-05-10T19:13:55Z","2026-05-10T19:13:57Z","2026-05-10T19:13:58Z","2026-05-10T19:14:07Z","2026-05-10T19:14:12Z","2026-05-10T19:14:17Z","2026-05-10T19:14:29Z","2026-05-10T19:14:33Z","2026-05-10T19:14:35Z","2026-05-10T19:14:36Z","2026-05-10T19:14:39Z","2026-05-10T19:14:40Z","2026-05-10T19:14:41Z","2026-05-10T19:14:42Z","2026-05-10T19:14:43Z","2026-05-10T19:14:51Z","2026-05-10T19:14:57Z","2026-05-10T19:14:59Z","2026-05-10T19:15:01Z","2026-05-10T19:15:03Z","2026-05-10T19:15:10Z","2026-05-10T19:15:13Z","2026-05-10T19:15:17Z","2026-05-10T19:15:19Z","2026-05-10T19:15:21Z","2026-05-10T19:15:23Z","2026-05-10T19:15:25Z","2026-05-10T19:15:26Z","2026-05-10T19:15:27Z","2026-05-10T19:15:30Z","2026-05-10T19:15:31Z","2026-05-10T19:15:32Z","2026-05-10T19:15:33Z","2026-05-10T19:15:34Z","2026-05-10T19:15:37Z","2026-05-10T19:15:47Z","2026-05-10T19:15:50Z","2026-05-10T19:15:52Z","2026-05-10T19:15:56Z","2026-05-10T19:16:00Z","2026-05-10T19:16:03Z","2026-05-10T19:16:07Z","2026-05-10T19:16:10Z","2026-05-10T19:16:18Z","2026-05-10T19:16:20Z","2026-05-10T19:16:21Z","2026-05-10T19:16:23Z","2026-05-10T19:16:24Z","2026-05-10T19:16:27Z","2026-05-10T19:16:28Z","2026-05-10T19:16:29Z","2026-05-10T19:16:31Z","2026-05-10T19:16:33Z","2026-05-10T19:16:34Z","2026-05-10T19:16:35Z","2026-05-10T19:16:36Z","2026-05-10T19:16:37Z","2026-05-10T19:16:39Z","2026-05-10T19:16:40Z","2026-05-10T19:16:41Z","2026-05-10T19:16:44Z","2026-05-10T19:16:45Z","2026-05-10T19:16:50Z","2026-05-10T19:16:51Z","2026-05-10T19:16:55Z","2026-05-10T19:16:56Z","2026-05-10T19:16:59Z","2026-05-10T19:17:01Z","2026-05-10T19:17:08Z","2026-05-10T19:17:10Z","2026-05-10T19:17:12Z","2026-05-10T19:17:15Z","2026-05-10T19:17:18Z","2026-05-10T19:17:20Z","2026-05-10T19:17:22Z","2026-05-10T19:17:23Z","2026-05-10T19:17:25Z","2026-05-10T19:17:29Z","2026-05-10T19:17:32Z","2026-05-10T19:17:34Z","2026-05-10T19:17:35Z","2026-05-10T19:17:37Z","2026-05-10T19:17:38Z","2026-05-10T19:17:39Z","2026-05-10T19:17:40Z","2026-05-10T19:17:43Z","2026-05-10T19:17:44Z","2026-05-10T19:17:47Z","2026-05-10T19:17:51Z","2026-05-10T19:17:55Z","2026-05-10T19:18:01Z","2026-05-10T19:18:28Z","2026-05-10T19:18:35Z","2026-05-10T19:18:37Z","2026-05-10T19:18:39Z","2026-05-10T19:18:50Z","2026-05-10T19:18:52Z","2026-05-10T19:18:54Z","2026-05-10T19:18:56Z","2026-05-10T19:19:03Z","2026-05-10T19:19:05Z","2026-05-10T19:19:08Z","2026-05-10T19:19:09Z","2026-05-10T19:19:13Z","2026-05-10T19:19:15Z","2026-05-10T19:19:16Z","2026-05-10T19:19:21Z","2026-05-10T19:19:27Z","2026-05-10T19:19:34Z","2026-05-10T19:19:35Z","2026-05-10T19:19:36Z","2026-05-10T19:19:37Z","2026-05-10T19:19:38Z","2026-05-10T19:19:40Z","2026-05-10T19:19:43Z","2026-05-10T19:19:44Z","2026-05-10T19:19:46Z","2026-05-10T19:19:48Z","2026-05-10T19:19:50Z","2026-05-10T19:19:51Z","2026-05-10T19:19:52Z","2026-05-10T19:19:53Z","2026-05-10T19:19:54Z","2026-05-10T19:19:56Z","2026-05-10T19:20:02Z","2026-05-10T19:20:03Z","2026-05-10T19:20:06Z","2026-05-10T19:20:09Z","2026-05-10T19:20:10Z","2026-05-10T19:20:21Z","2026-05-10T19:20:24Z","2026-05-10T19:20:26Z","2026-05-10T19:20:29Z","2026-05-10T19:20:30Z","2026-05-10T19:20:35Z","2026-05-10T19:20:36Z","2026-05-10T19:20:38Z","2026-05-10T19:20:46Z","2026-05-10T19:20:54Z","2026-05-10T19:20:58Z","2026-05-10T19:20:59Z","2026-05-10T19:21:03Z","2026-05-10T19:21:04Z","2026-05-10T19:21:06Z","2026-05-10T19:21:08Z","2026-05-10T19:21:09Z","2026-05-10T19:21:11Z","2026-05-10T19:21:14Z","2026-05-10T19:21:15Z","2026-05-10T19:21:16Z","2026-05-10T19:21:18Z","2026-05-10T19:21:20Z","2026-05-10T19:21:21Z","2026-05-10T19:21:24Z","2026-05-10T19:21:26Z","2026-05-10T19:21:29Z","2026-05-10T19:21:32Z","2026-05-10T19:21:33Z","2026-05-10T19:21:36Z","2026-05-10T19:21:40Z","2026-05-10T19:21:41Z","2026-05-10T19:21:42Z","2026-05-10T19:21:45Z","2026-05-10T19:21:49Z","2026-05-10T19:21:56Z","2026-05-10T19:21:59Z","2026-05-10T19:22:02Z","2026-05-10T19:22:08Z","2026-05-10T19:22:09Z","2026-05-10T19:22:14Z","2026-05-10T19:22:20Z","2026-05-10T19:22:21Z","2026-05-10T19:22:22Z","2026-05-10T19:22:26Z","2026-05-10T19:22:28Z","2026-05-10T19:22:29Z","2026-05-10T19:22:31Z","2026-05-10T19:22:33Z","2026-05-10T19:22:34Z","2026-05-10T19:22:37Z","2026-05-10T19:22:39Z","2026-05-10T19:22:43Z","2026-05-10T19:22:47Z","2026-05-10T19:22:50Z","2026-05-10T19:22:53Z","2026-05-10T19:22:54Z","2026-05-10T19:22:56Z","2026-05-10T19:22:57Z","2026-05-10T19:22:58Z","2026-05-10T19:23:03Z","2026-05-10T19:23:05Z","2026-05-10T19:23:06Z","2026-05-10T19:23:09Z","2026-05-10T19:23:12Z","2026-05-10T19:23:16Z","2026-05-10T19:23:18Z","2026-05-10T19:23:20Z","2026-05-10T19:23:21Z","2026-05-10T19:23:22Z","2026-05-10T19:23:25Z","2026-05-10T19:23:26Z","2026-05-10T19:23:34Z","2026-05-10T19:23:35Z","2026-05-10T19:23:36Z","2026-05-10T19:23:38Z","2026-05-10T19:23:39Z","2026-05-10T19:23:41Z","2026-05-10T19:23:43Z","2026-05-10T19:23:44Z","2026-05-10T19:23:50Z","2026-05-10T19:23:52Z","2026-05-10T19:23:53Z","2026-05-10T19:23:54Z","2026-05-10T19:23:57Z","2026-05-10T19:23:59Z","2026-05-10T19:24:01Z","2026-05-10T19:24:02Z","2026-05-10T19:24:08Z","2026-05-10T19:24:10Z","2026-05-10T19:24:12Z","2026-05-10T19:24:16Z","2026-05-10T19:24:21Z","2026-05-10T19:24:22Z","2026-05-10T19:24:25Z","2026-05-10T19:24:26Z","2026-05-10T19:24:28Z","2026-05-10T19:24:30Z","2026-05-10T19:24:34Z","2026-05-10T19:24:36Z","2026-05-10T19:24:37Z","2026-05-10T19:24:38Z","2026-05-10T19:24:40Z","2026-05-10T19:24:42Z","2026-05-10T19:24:43Z","2026-05-10T19:24:45Z","2026-05-10T19:24:47Z","2026-05-10T19:24:48Z","2026-05-10T19:24:49Z","2026-05-10T19:24:51Z","2026-05-10T19:24:52Z","2026-05-10T19:24:53Z","2026-05-10T19:24:54Z","2026-05-10T19:24:56Z","2026-05-10T19:24:58Z","2026-05-10T19:25:02Z","2026-05-10T19:25:03Z","2026-05-10T19:25:54Z","2026-05-10T19:26:03Z","2026-05-10T19:26:23Z","2026-05-10T19:26:27Z","2026-05-10T19:26:29Z","2026-05-10T19:26:30Z","2026-05-10T19:26:32Z","2026-05-10T19:26:37Z","2026-05-10T19:26:38Z","2026-05-10T19:26:56Z","2026-05-10T19:26:57Z","2026-05-10T19:27:01Z","2026-05-10T19:27:10Z","2026-05-10T19:27:13Z","2026-05-10T19:27:19Z","2026-05-10T19:27:22Z","2026-05-10T19:27:31Z","2026-05-10T19:27:34Z","2026-05-10T19:27:38Z","2026-05-10T19:27:40Z","2026-05-10T19:27:43Z","2026-05-10T19:27:47Z","2026-05-10T19:27:48Z","2026-05-10T19:27:49Z","2026-05-10T19:28:05Z","2026-05-10T19:28:11Z","2026-05-10T19:28:13Z","2026-05-10T19:28:16Z","2026-05-10T19:28:25Z","2026-05-10T19:28:27Z","2026-05-10T19:28:29Z","2026-05-10T19:28:30Z","2026-05-10T19:28:31Z","2026-05-10T19:28:32Z","2026-05-10T19:28:33Z","2026-05-10T19:28:34Z","2026-05-10T19:28:35Z","2026-05-10T19:28:36Z","2026-05-10T19:28:38Z","2026-05-10T19:28:39Z","2026-05-10T19:28:41Z","2026-05-10T19:28:43Z","2026-05-10T19:28:46Z","2026-05-10T19:28:48Z","2026-05-10T19:28:50Z","2026-05-10T19:28:53Z","2026-05-10T19:29:06Z","2026-05-10T19:29:07Z","2026-05-10T19:29:08Z","2026-05-10T19:29:16Z","2026-05-10T19:29:17Z","2026-05-10T19:29:18Z","2026-05-10T19:29:29Z","2026-05-10T19:29:32Z","2026-05-10T19:29:34Z","2026-05-10T19:29:39Z","2026-05-10T19:29:42Z","2026-05-10T19:29:46Z","2026-05-10T19:29:48Z","2026-05-10T19:29:54Z","2026-05-10T19:29:58Z","2026-05-10T19:30:01Z","2026-05-10T19:30:02Z","2026-05-10T19:30:05Z","2026-05-10T19:30:07Z","2026-05-10T19:30:11Z","2026-05-10T19:30:13Z","2026-05-10T19:30:15Z","2026-05-10T19:30:18Z","2026-05-10T19:30:22Z","2026-05-10T19:30:23Z","2026-05-10T19:30:24Z","2026-05-10T19:30:28Z","2026-05-10T19:30:30Z","2026-05-10T19:30:32Z","2026-05-10T19:30:34Z","2026-05-10T19:30:37Z","2026-05-10T19:30:40Z","2026-05-10T19:30:43Z","2026-05-10T19:30:46Z","2026-05-10T19:30:47Z","2026-05-10T19:30:53Z","2026-05-10T19:30:56Z","2026-05-10T19:31:02Z","2026-05-10T19:31:03Z","2026-05-10T19:31:04Z","2026-05-10T19:31:09Z","2026-05-10T19:31:11Z","2026-05-10T19:31:12Z","2026-05-10T19:31:17Z","2026-05-10T19:31:24Z","2026-05-10T19:31:27Z","2026-05-10T19:31:33Z","2026-05-10T19:31:37Z","2026-05-10T19:31:38Z","2026-05-10T19:31:48Z","2026-05-10T19:31:50Z","2026-05-10T19:31:54Z","2026-05-10T19:32:08Z","2026-05-10T19:32:11Z","2026-05-10T19:32:12Z","2026-05-10T19:32:14Z","2026-05-10T19:32:18Z","2026-05-10T19:32:19Z","2026-05-10T19:32:22Z","2026-05-10T19:32:26Z","2026-05-10T19:32:31Z","2026-05-10T19:32:43Z","2026-05-10T19:32:46Z","2026-05-10T19:32:48Z","2026-05-10T19:32:49Z","2026-05-10T19:32:54Z"],"heartRates":[112,112,105,105,105,106,106,106,106,106,106,106,106,121,121,121,122,122,122,122,122,119,119,119,119,119,119,119,121,122,122,122,121,121,121,121,121,121,121,133,133,133,138,138,138,138,139,139,139,139,139,137,137,137,137,137,137,137,136,136,136,136,136,138,138,138,138,138,138,138,139,139,140,140,139,139,139,138,135,135,130,130,130,130,127,127,127,126,126,126,126,126,126,131,131,134,134,134,132,132,132,132,132,132,131,131,131,131,131,131,128,129,129,129,129,133,133,133,134,134,134,136,136,136,136,136,136,136,136,138,139,139,139,139,139,139,139,139,139,139,139,139,134,135,135,136,136,136,137,137,139,138,138,138,136,136,136,136,136,136,136,136,136,136,136,136,136,138,138,138,137,137,137,133,133,133,133,133,133,133,133,139,139,140,140,140,140,140,136,136,136,133,133,133,133,133,132,132,132,132,131,131,133,133,133,128,128,130,130,130,127,126,126,126,128,128,128,128,128,128,131,131,132,131,132,132,132,132,132,132,132,129,129,129,129,129,129,129,129,129,129,132,132,133,133,133,133,133,133,137,137,137,137,137,137,135,135,137,137,137,137,137,137,136,137,137,137,137,143,143,143,143,141,141,119,119,119,121,120,120,120,120,118,118,118,118,121,121,121,121,121,121,121,121,123,122,122,122,122,126,126,126,126,126,126,126,126,126,130,131,131,131,131,131,139,140,140,140,140,139,139,139,139,139,140,140,140,140,140,141,141,141,141,142,142,148,148,148,151,151,151,149,149,149,149,149,150,149,145,145,145,142,142,142,142,133,133,134,132,132,131,131,131,131,131,131,133,133,133,137,137,137,139,136,132,132,132,132,132,132,127,127,130,130,128,128,127,127,127,127,132,132,135,135,135,135,138,138,138,138,134,134,134,126,122,122,122,122,122,122,122,121,122,122,122,122,122,122,122,125,126,126,127,127,127,131,131,131,126,126,126,126,126,126,126,126,126,126,126,123,123,125,125,125,125,125,127,127,132,132,131,129,129,129,125,120,120,117,117,117,117,117,118,118,118,118,119,116,116,116,113,113,113,113,113,113,113,113,113,112,112,108,108,108,107,107,106,109,108,106,106,106,108,108,114,114,114,117,117,122,122,122,122,122,122,122,121,121,121,118,114,114,114,114,114,114,122,126,126,126,126,126,125,125,126,126,125,125,125,125,126,126,126,126,132,132,130,130,132,132,132,132,134,134,134,134,134,135,135,139,139,139,139,137,137,135,135,135,135,134,134,134,135,135,135,138,140,140,140,138,138,138,130,130,129,129,129,129,129,129,129,129,126,126,126,126,126,126,126,126,136,136,142,142,142,141,141,141,141,136,132,130,130,130,130,130,128,128,128,127,127,127,127,122,122,122,118,118,120,120,120,122,122,122,122,122,122,122,131,131,131,131,131,131,131,130,130,133,133,135,135,133,133,133,133,133,133,133,131,135,136,136,135,135,134,134,138,138,138,135,134,134,129,127,123,123,123,123,123,127,127,122,122,118,117,117,116,116,116,116,118,116,116,116,116,116,121,121,119,118,117,117,121,121,121,121,129,129,127,126,126,126,126,127,127,127,129,128,128,122,122,122,128,128,128,128,123,123,121,121,121,121,121,118,118,119,118,118,118,118,117,117,117,117,113,113,113,113,113,113,113,115,115,115,113,113,113,111,111,112,113,113,116,116,116,114,114,114,114,114,116,116,116,116,115,115,115,111,111,113,113,115,115,115,119,119,117,111,111,115,115,115,115,120,120,118,118,117,117,115,114,114,114,114,114,114,114,115,115,115,115,115,117,116,116,116,116,116,112,112,112,112,112,112,112,120,122,119,120,120,120,121,121,121,121,121,123,123,123,123,129,129,129,123,123,122,120,118,117,118,117,117,117,116,117,111,112,112,112,111,111,111,112,112,113,113,113,113,123,127,127,127,127,127,127,133,133,133,133,141,141,144,144,143,143,143,143,142,142,142,142,142,142,142,142,146,146,146,146,146,142,141,139,139,139,139,139,139,139,141,141,154,154,154,155,155,155,156,156,156,156,156,153,153,153,153,158,158,158,155,154,154,154,154,154,154,152,152,153,153,153,153,159,158,156,156,156,151,149,149,149,151,149,149,143,139,139,135,135,135,133,132,131,131,131,131,131,131,137,137,137,137,138,140,140,140,135,132,132,131,131,131,131,130,130,127,127,127,129,129,129,130,130,130,130,130,130,130,132,131,123,123,123,123,123,123,123,123,123,128,128,128,128,126,126,126,123,123,123,123,123,122,122,122,122,127,127,127,127,122,122,122,119,118,118,118,117,117,117,117,117,121,127,122,122,121,121,117,117,117,117,117,111,111,111,114,114,114,110,110,110,110,110,109,108,108,108,109,109,109,113,114,114,114,114,118,118,116,116,116,120,120,120,119,119,119,118,118,118,127,123,123,123,123,123,128,128,128,128,127,127,123,123,123,125,125,125,125,125,122,122,119,118,117,116,116,114,113,113,113,113,114,113,113,113,113,118,118,118,118,129,129,129,129,129,129,129,129,128,128,126,126,126,126,122,122,122,121,121,121,121,121,121,121,121,118,117,116,116,113,113,113,113,113,122,122,122,130,130,131,129,129,129,129,130,133,133,133,133,137,141,141,141,139,139,139,139,139,134,134,134,138,138,140,140,138,138,135,135,133,133,135,137,138,138,138,138,140,140,145,145,145,143,143,141,141,141,141,141,142,142,150,150,150,147,147,147,147,147,148,149,149,149,149,149,149,152,152,150,145,142,143,143,147,147,147,147,147,148,148,148,148,141,141,141,139,139,139,139,139,139,142,144,144,144,144,144,158,158,156,156,156,153,152,152,152,150,150,150,150,150,150,150,150,150,150,150,157,157,157,157,158,156,156,153,153,153,153,149,149,149,149,149,149,149,149,153,148,148,148,148,133,132,128,127,127,127,123,123,119,120,120,119,118,118,118,122,122,122,122,122,120,121,121,121,121,121,123,122,118,118,118,122,122,122,135,135,133,132,131,131,131,131,131,129,127,125,126,127,126,126,122,121,121,121,121,121,121,121,120,120,116,116,117,117,117,117,117,117,123,123,123,123,136,138,138,139,135,135,135,130,130,130,129,129,129,129,129,123,121,118,118,118,118,116,116,117,117,122,122,122,122,122,133,133,133,132,132,130,128,128,129,129,129,129,127,123,121,121,121,123,123,123,123,126,126,129,129,129,131,131,131,131,135,135,135,142,142,140,140,139,139,136,136,136,137,137,138,138,138,135,134,134,132,132,132,134,134,134,131,131,131,128,127,128,120,117,121,121,113,113,113,113,117,117,117,117,122,122,122,122,120,122,122,122,122,123,123,125,125,123,123,123,121,121,121,121,121,127,127,125,123,123,122,122,122,122,122,128,128,128,134,134,132,132,132,132,135,135,135,135,135,148,148,148,150,150,150,150,150,144,144,144,144,144,144,145,145,147,149,148,148,142,142,140,140,140,137,137,140,140,140,140,140,140,144,144,141,140,140,140,140,137,137,143,143,144,143,143,139,139,139,139,137,137,140,140,140,140,140,140,140,140,143,141,141,141,141,138,138,138,141,141,141,141,139,139,139,139,137,137,137,144,144,144,144,141,141,141,141,141,141,139,139,139,139,141,141,141,141,132,123,120,114,114,113,113,113,113,114,114,113,114,115,115,117,118,118,118,122,122,120,120,120,121,119,121,122,117,115,115,115,115,115,119,119,119,119,119,123,123,123,123,123,123,123,121,121,121,122,122,122,127,123,121,120,119,119,119,118,116,116,116,115,115,115,115,115,115,118,118,118,118,126,126,128,128,132,133,134,134,134,129,125,125,125,123,123,123,122,122,121,121,120,120,118,115,115,114,114,114,114,114,114,109,109,109,108,108,110,110,110],"month":"2026-05-01"},"geometry":{"type":"LineString","coordinates":[[2.611484,48.684998,87.8],[2.611499,48.684999,87.8],[2.61149,48.684991,87.8],[2.611483,48.685017,87.8],[2.61148,48.684999,87.8],[2.611513,48.684986,87.9],[2.611538,48.684986,87.9],[2.611523,48.684974,87.9],[2.611492,48.684968,87.9],[2.611442,48.684986,87.9],[2.611372,48.684965,87.9],[2.611403,48.684978,87.9],[2.611389,48.684987,88],[2.611425,48.684987,87.9],[2.61143,48.684979,87.9],[2.611425,48.684985,87.9],[2.611395,48.684982,87.9],[2.611374,48.684988,88],[2.611408,48.685,87.9],[2.611407,48.684988,87.9],[2.611422,48.684997,87.9],[2.611434,48.684989,87.9],[2.611403,48.685,87.9],[2.611428,48.684989,87.9],[2.611429,48.685002,87.9],[2.61142,48.685003,87.9],[2.611425,48.684985,87.9],[2.611434,48.684985,87.9],[2.61143,48.684998,87.9],[2.611442,48.684996,87.8],[2.611451,48.684981,87.8],[2.611475,48.685002,87.8],[2.611443,48.684996,87.8],[2.61149,48.685002,87.8],[2.611511,48.684996,87.8],[2.611475,48.684991,87.8],[2.611453,48.684975,87.8],[2.61146,48.684972,87.8],[2.611429,48.684974,87.9],[2.61139,48.684992,88],[2.611354,48.684982,88],[2.611388,48.685004,88],[2.611431,48.685009,87.9],[2.611462,48.68503,87.9],[2.611465,48.685,87.8],[2.611431,48.685006,87.9],[2.611407,48.685001,87.9],[2.61141,48.68499,87.9],[2.61142,48.684998,87.9],[2.611409,48.684986,87.9],[2.611493,48.684997,87.8],[2.611515,48.68499,87.8],[2.61146,48.684999,87.8],[2.611476,48.685003,87.8],[2.611425,48.684992,87.9],[2.611404,48.68498,87.9],[2.611416,48.684982,87.9],[2.611412,48.684973,87.9],[2.611385,48.684978,87.9],[2.611403,48.684955,87.9],[2.611406,48.684971,87.9],[2.611423,48.684967,87.9],[2.611438,48.684951,87.8],[2.611435,48.68494,87.8],[2.611441,48.684952,87.8],[2.611414,48.684978,87.9],[2.61137,48.684991,88],[2.611353,48.684977,88],[2.611357,48.684983,88],[2.611338,48.684996,88],[2.61137,48.684952,87.9],[2.611416,48.684929,87.8],[2.611445,48.684885,87.7],[2.611478,48.68491,87.7],[2.611485,48.684933,87.7],[2.611468,48.684948,87.8],[2.611443,48.684951,87.8],[2.611454,48.684966,87.8],[2.611447,48.684959,87.8],[2.611457,48.684962,87.8],[2.611446,48.684976,87.8],[2.611461,48.684988,87.8],[2.611484,48.684976,87.8],[2.611463,48.68498,87.8],[2.611464,48.684967,87.8],[2.611439,48.68499,87.9],[2.611474,48.684986,87.8],[2.611479,48.684974,87.8],[2.611434,48.684954,87.8],[2.611357,48.684984,88],[2.611333,48.684979,88],[2.611282,48.684986,88.1],[2.611354,48.684943,87.9],[2.611368,48.68496,87.9],[2.611406,48.684975,87.9],[2.611434,48.684974,87.9],[2.611423,48.684972,87.9],[2.611423,48.684995,87.9],[2.611432,48.684997,87.9],[2.611456,48.684977,87.8],[2.611447,48.684976,87.8],[2.611439,48.68499,87.9],[2.611445,48.684974,87.8],[2.611431,48.684992,87.9],[2.611436,48.684969,87.9],[2.611445,48.684971,87.8],[2.611435,48.68497,87.9],[2.611433,48.684992,87.9],[2.611439,48.684979,87.9],[2.611433,48.685,87.9],[2.611416,48.684995,87.9],[2.611387,48.685,88],[2.611398,48.684983,88],[2.611415,48.684984,87.9],[2.611415,48.684975,87.9],[2.61139,48.684968,87.9],[2.611379,48.684955,87.9],[2.611375,48.68497,87.9],[2.611437,48.684969,87.9],[2.611441,48.684988,87.9],[2.611445,48.68498,87.8],[2.611414,48.684974,87.9],[2.611407,48.684986,87.9],[2.611392,48.684984,88],[2.611399,48.684977,87.9],[2.611415,48.684978,87.9],[2.611397,48.684974,87.9],[2.611391,48.684982,87.9],[2.611424,48.68498,87.9],[2.611418,48.684969,87.9],[2.6114,48.685009,87.9],[2.611378,48.685019,88],[2.611411,48.684988,87.9],[2.611389,48.684987,88],[2.611418,48.684977,87.9],[2.611403,48.68499,87.9],[2.611438,48.684986,87.9],[2.611433,48.68499,87.9],[2.611445,48.684988,87.8],[2.611447,48.685001,87.8],[2.611455,48.684987,87.8],[2.611427,48.684991,87.9],[2.611446,48.684974,87.8],[2.611439,48.684948,87.8],[2.611415,48.684938,87.8],[2.611384,48.684903,87.9],[2.61137,48.684899,87.9],[2.611358,48.684913,87.9],[2.611418,48.684977,87.9],[2.611405,48.685013,88],[2.611389,48.685022,88],[2.611452,48.68501,87.8],[2.611462,48.684994,87.8],[2.611435,48.684989,87.9],[2.611444,48.684982,87.8],[2.611429,48.684966,87.9],[2.611441,48.684974,87.9],[2.611426,48.684954,87.8],[2.611395,48.684949,87.9],[2.611404,48.684966,87.9],[2.611396,48.684971,87.9],[2.61139,48.684965,87.9],[2.611382,48.684969,87.9],[2.611408,48.684972,87.9],[2.611458,48.684959,87.8],[2.611449,48.684956,87.8],[2.611438,48.684973,87.9],[2.611415,48.684972,87.9],[2.611437,48.685011,88],[2.611425,48.685012,88],[2.611449,48.685009,87.8],[2.611435,48.684994,87.9],[2.611471,48.684989,87.8],[2.611478,48.684982,87.8],[2.611466,48.68501,87.8],[2.611435,48.685003,87.9],[2.611406,48.684985,87.9],[2.611373,48.684978,87.9],[2.611403,48.684976,87.9],[2.611427,48.684949,87.8],[2.611465,48.684933,87.8],[2.611449,48.684962,87.8],[2.611421,48.684966,87.9],[2.611415,48.684995,87.9],[2.611386,48.685002,88],[2.611477,48.684973,87.8],[2.611441,48.684966,87.9],[2.611459,48.684973,87.8],[2.611447,48.68498,87.8],[2.611463,48.684967,87.8],[2.611424,48.684979,87.9],[2.611428,48.684972,87.9],[2.61143,48.684978,87.9],[2.611421,48.684948,87.8],[2.61143,48.684959,87.9],[2.611415,48.68497,87.9],[2.611493,48.684987,87.8],[2.611502,48.685004,87.8],[2.611482,48.685007,87.8],[2.611442,48.684975,87.8],[2.611445,48.684963,87.8],[2.611414,48.684976,87.9],[2.611445,48.68498,87.8],[2.611421,48.684984,87.9],[2.61144,48.684971,87.9],[2.611516,48.684951,87.7],[2.611442,48.684961,87.8],[2.611468,48.684964,87.8],[2.611443,48.684982,87.8],[2.611454,48.684986,87.8],[2.611421,48.684962,87.9],[2.611455,48.684928,87.8],[2.611462,48.684889,87.7],[2.611442,48.684879,87.7],[2.611439,48.684884,87.8],[2.61145,48.684855,87.7],[2.611457,48.68486,87.7],[2.611456,48.684855,87.7],[2.611475,48.684859,87.7],[2.611449,48.684868,87.7],[2.611467,48.684844,87.7],[2.611488,48.684839,87.6],[2.611485,48.684833,87.6],[2.61146,48.684862,87.7],[2.611449,48.684842,87.7],[2.611461,48.684831,87.7],[2.61147,48.684838,87.7],[2.611477,48.684828,87.7],[2.611455,48.684839,87.7],[2.611475,48.684851,87.7],[2.611482,48.684845,87.7],[2.611533,48.684871,87.6],[2.611438,48.68486,87.8],[2.611421,48.684851,87.8],[2.611431,48.684854,87.8],[2.611428,48.684863,87.8],[2.611423,48.684854,87.8],[2.61144,48.684851,87.8],[2.611419,48.684861,87.8],[2.611465,48.684861,87.7],[2.611457,48.684857,87.7],[2.611467,48.684864,87.7],[2.611476,48.684858,87.7],[2.611438,48.68487,87.8],[2.611441,48.684878,87.8],[2.61138,48.684887,87.8],[2.611398,48.684911,87.9],[2.611462,48.684906,87.7],[2.611472,48.684888,87.7],[2.611439,48.684858,87.8],[2.611478,48.684874,87.7],[2.611449,48.684882,87.7],[2.611446,48.684864,87.7],[2.611484,48.684867,87.7],[2.611463,48.684883,87.7],[2.611407,48.684871,87.8],[2.611512,48.684852,87.7],[2.61147,48.684853,87.7],[2.611472,48.684835,87.7],[2.611468,48.684878,87.7],[2.611491,48.684878,87.7],[2.611499,48.684863,87.7],[2.611533,48.684876,87.6],[2.611506,48.684875,87.7],[2.611308,48.684793,87.9],[2.611457,48.684856,87.7],[2.611444,48.684872,87.7],[2.611464,48.684886,87.7],[2.611445,48.684892,87.7],[2.611437,48.684907,87.8],[2.61146,48.684917,87.7],[2.611479,48.684967,87.8],[2.61146,48.685017,87.9],[2.611468,48.685026,87.9],[2.611503,48.684975,87.7],[2.611457,48.684985,87.8],[2.611453,48.684966,87.8],[2.61143,48.684955,87.9],[2.611427,48.68497,87.9],[2.611406,48.68496,87.9],[2.611419,48.684951,87.8],[2.611431,48.684966,87.9],[2.611449,48.684961,87.8],[2.611464,48.684979,87.8],[2.611441,48.684975,87.9],[2.611441,48.684986,87.9],[2.611421,48.684983,87.9],[2.611422,48.684989,87.9],[2.611444,48.684989,87.8],[2.611433,48.684985,87.9],[2.61144,48.684984,87.9],[2.611427,48.684982,87.9],[2.611422,48.684966,87.9],[2.611416,48.684975,87.9],[2.611435,48.684979,87.9],[2.611467,48.684972,87.8],[2.611476,48.684959,87.8],[2.611439,48.684967,87.9],[2.611426,48.684985,87.9],[2.611436,48.685005,87.9],[2.611459,48.685,87.8],[2.61144,48.684983,87.9],[2.611441,48.684961,87.9],[2.611449,48.684968,87.8],[2.611425,48.684953,87.8],[2.611405,48.684975,87.9],[2.611418,48.684974,87.9],[2.611369,48.684988,88],[2.611493,48.684967,87.7],[2.611477,48.684963,87.8],[2.611423,48.684984,87.9],[2.6114,48.684982,87.9],[2.611452,48.684943,87.8],[2.611433,48.684931,87.8],[2.611419,48.684934,87.8],[2.6114,48.684974,87.9],[2.611412,48.684962,87.9],[2.611415,48.68498,87.9],[2.611397,48.68499,88],[2.611457,48.684947,87.8],[2.611491,48.684945,87.7],[2.611486,48.684957,87.7],[2.611438,48.684973,87.9],[2.611415,48.68496,87.9],[2.611376,48.684969,87.9],[2.611389,48.68496,87.9],[2.611414,48.68496,87.9],[2.611412,48.684965,87.9],[2.611404,48.68496,87.9],[2.611424,48.684989,87.9],[2.611446,48.684984,87.8],[2.611439,48.684976,87.9],[2.611469,48.684984,87.8],[2.611441,48.684994,87.9],[2.611437,48.685005,87.9],[2.611426,48.685001,87.9],[2.611408,48.685012,88],[2.611401,48.684986,87.9],[2.611424,48.685006,87.9],[2.611414,48.685012,88],[2.611419,48.685,87.9],[2.61148,48.684955,87.8],[2.611528,48.684905,87.6],[2.611434,48.684959,87.9],[2.611435,48.684944,87.8],[2.611423,48.684962,87.9],[2.61137,48.684984,88],[2.611405,48.684897,87.8],[2.61142,48.684902,87.8],[2.611488,48.684969,87.7],[2.61147,48.684966,87.8],[2.611457,48.684983,87.8],[2.611469,48.684974,87.8],[2.611439,48.684974,87.9],[2.611432,48.684983,87.9],[2.611469,48.684992,87.8],[2.611433,48.684985,87.9],[2.611453,48.684955,87.8],[2.611438,48.684957,87.9],[2.611444,48.684953,87.8],[2.611456,48.684985,87.8],[2.611439,48.685068,88.1],[2.611428,48.684993,87.9],[2.611434,48.684971,87.9],[2.611468,48.684993,87.8],[2.611463,48.685007,87.8],[2.611438,48.684989,87.9],[2.611441,48.684995,87.9],[2.611208,48.685097,88.4],[2.611415,48.68494,87.8],[2.61146,48.684871,87.7],[2.611444,48.684916,87.7],[2.611412,48.684958,87.9],[2.61144,48.684948,87.8],[2.611391,48.684947,87.9],[2.611376,48.684961,87.9],[2.611344,48.684962,88],[2.611336,48.684969,88],[2.611369,48.684986,88],[2.611427,48.684994,87.9],[2.611451,48.684986,87.8],[2.611486,48.684989,87.8],[2.611546,48.684965,87.7],[2.61153,48.684966,87.7],[2.611538,48.684994,87.7],[2.611408,48.685062,88],[2.61154,48.684996,87.7],[2.61152,48.684976,87.7],[2.611528,48.684994,87.7],[2.611514,48.684993,87.8],[2.611518,48.684966,87.7],[2.611495,48.685014,87.8],[2.611525,48.685014,87.8],[2.611533,48.685021,87.8],[2.611508,48.685009,87.8],[2.611513,48.685016,87.8],[2.611523,48.684998,87.8],[2.611501,48.684948,87.7],[2.6115,48.684964,87.7],[2.611544,48.684946,87.7],[2.611514,48.684956,87.7],[2.611506,48.684948,87.7],[2.611511,48.684953,87.7],[2.611483,48.684953,87.8],[2.611508,48.684979,87.7],[2.611504,48.684988,87.8],[2.611487,48.684983,87.8],[2.611536,48.684984,87.7],[2.611465,48.684999,87.8],[2.611505,48.685013,87.8],[2.61149,48.68501,87.8],[2.61154,48.685001,87.7],[2.611571,48.685033,87.7],[2.611571,48.685046,87.8],[2.611547,48.685029,87.8],[2.611527,48.685027,87.8],[2.61151,48.685006,87.8],[2.61152,48.685009,87.8],[2.61153,48.684994,87.7],[2.611523,48.684996,87.8],[2.611542,48.684974,87.7],[2.611508,48.684991,87.8],[2.611476,48.684989,87.8],[2.611466,48.684997,87.8],[2.611409,48.685008,87.9],[2.611407,48.684971,87.9],[2.611462,48.684967,87.8],[2.611511,48.684983,87.8],[2.61159,48.685039,87.7],[2.611617,48.685029,87.6],[2.611606,48.68505,87.8],[2.611643,48.685064,87.7],[2.61164,48.685069,87.7],[2.611551,48.685053,87.8],[2.611562,48.685037,87.8],[2.611524,48.685033,87.8],[2.611489,48.685019,87.8],[2.611474,48.685025,87.9],[2.611455,48.685019,87.9],[2.61144,48.684979,87.9],[2.611422,48.684979,87.9],[2.611422,48.684991,87.9],[2.611435,48.684973,87.9],[2.611293,48.685021,88.1],[2.611394,48.68496,87.9],[2.611412,48.684959,87.9],[2.611416,48.684987,87.9],[2.611435,48.684978,87.9],[2.611411,48.68499,87.9],[2.611437,48.684994,87.9],[2.611406,48.685008,87.9],[2.611386,48.684965,87.9],[2.611458,48.684983,87.8],[2.611449,48.68499,87.8],[2.611412,48.684993,87.9],[2.611388,48.684972,87.9],[2.611421,48.68495,87.8],[2.611422,48.684956,87.9],[2.611423,48.684937,87.8],[2.611447,48.684933,87.8],[2.611444,48.684938,87.8],[2.611459,48.684931,87.8],[2.611444,48.684923,87.7],[2.611442,48.684908,87.7],[2.611461,48.684883,87.7],[2.611475,48.684884,87.7],[2.611455,48.68485,87.7],[2.611449,48.684872,87.7],[2.611423,48.684876,87.8],[2.611408,48.684894,87.8],[2.611396,48.684895,87.8],[2.611404,48.684884,87.8],[2.611399,48.684888,87.8],[2.611397,48.684882,87.8],[2.611384,48.684883,87.8],[2.611413,48.684877,87.8],[2.611413,48.684884,87.8],[2.61142,48.684881,87.8],[2.611401,48.684876,87.8],[2.6114,48.684864,87.8],[2.611407,48.684879,87.8],[2.611389,48.684911,87.9],[2.611418,48.684903,87.8],[2.611424,48.684886,87.8],[2.611409,48.684915,87.8],[2.611424,48.684897,87.8],[2.611442,48.684928,87.8],[2.611415,48.684998,87.9],[2.611422,48.684979,87.9],[2.611413,48.684907,87.8],[2.611424,48.684902,87.8],[2.611469,48.684965,87.8],[2.611435,48.684979,87.9],[2.611434,48.684972,87.9],[2.611473,48.684972,87.8],[2.611442,48.684965,87.8],[2.611455,48.684963,87.8],[2.611408,48.684958,87.9],[2.611435,48.684965,87.9],[2.61143,48.684955,87.9],[2.611437,48.684957,87.9],[2.611455,48.684908,87.7],[2.611466,48.684908,87.7],[2.611457,48.684917,87.7],[2.61147,48.684919,87.7],[2.611463,48.684915,87.7],[2.611473,48.684914,87.7],[2.611472,48.684906,87.7],[2.611498,48.684903,87.7],[2.611498,48.684895,87.7],[2.611469,48.684878,87.7],[2.611467,48.684853,87.7],[2.611489,48.684842,87.7],[2.611527,48.684857,87.7],[2.611547,48.684852,87.6],[2.611529,48.684861,87.6],[2.611526,48.684843,87.7],[2.611557,48.684839,87.6],[2.611532,48.68486,87.6],[2.611495,48.684942,87.7],[2.611452,48.684989,87.8],[2.611432,48.684985,87.9],[2.611445,48.684982,87.8],[2.611432,48.68498,87.9],[2.611444,48.684966,87.8],[2.611437,48.684947,87.8],[2.611414,48.684952,87.8],[2.611433,48.684953,87.8],[2.61144,48.68497,87.9],[2.611417,48.684959,87.9],[2.611413,48.684963,87.9],[2.611409,48.684928,87.8],[2.611428,48.684903,87.8],[2.611385,48.684879,87.8],[2.611446,48.684878,87.7],[2.611481,48.68493,87.8],[2.611452,48.684891,87.7],[2.611468,48.68486,87.7],[2.611495,48.684851,87.7],[2.611565,48.684866,87.6],[2.611584,48.684878,87.6],[2.611561,48.684888,87.6],[2.611545,48.68488,87.6],[2.61155,48.684876,87.6],[2.6115,48.684911,87.7],[2.611482,48.684907,87.7],[2.611476,48.684891,87.7],[2.611548,48.684934,87.7],[2.611482,48.684951,87.8],[2.611485,48.684962,87.7],[2.611445,48.685,87.8],[2.611422,48.684972,87.9],[2.611415,48.684974,87.9],[2.611415,48.68496,87.9],[2.6114,48.684951,87.8],[2.611393,48.684954,87.9],[2.611431,48.684964,87.9],[2.611418,48.684962,87.9],[2.611442,48.68495,87.8],[2.611439,48.684942,87.8],[2.611509,48.684972,87.7],[2.611534,48.685,87.7],[2.611512,48.684993,87.8],[2.611483,48.684969,87.8],[2.611468,48.684982,87.8],[2.61153,48.684943,87.7],[2.611537,48.684931,87.7],[2.611545,48.684947,87.7],[2.611533,48.684964,87.7],[2.611497,48.684975,87.7],[2.611475,48.684965,87.8],[2.611457,48.684933,87.8],[2.611471,48.684914,87.7],[2.61145,48.684883,87.7],[2.611472,48.684867,87.7],[2.611504,48.684932,87.7],[2.611489,48.684951,87.7],[2.611473,48.684936,87.8],[2.611404,48.684961,87.9],[2.61141,48.684965,87.9],[2.611399,48.684958,87.9],[2.611409,48.68495,87.8],[2.611433,48.684956,87.9],[2.611409,48.684957,87.9],[2.611408,48.684951,87.8],[2.611424,48.684959,87.9],[2.611494,48.684954,87.7],[2.611454,48.684935,87.8],[2.61146,48.684945,87.8],[2.611437,48.684973,87.9],[2.611459,48.684946,87.8],[2.611535,48.684937,87.7],[2.611499,48.684946,87.7],[2.611513,48.684935,87.7],[2.611541,48.684938,87.7],[2.611564,48.684959,87.7],[2.611568,48.684951,87.7],[2.611557,48.684941,87.7],[2.61156,48.684925,87.6],[2.611485,48.684926,87.7],[2.611406,48.684973,87.9],[2.61138,48.68492,87.9],[2.611366,48.684918,87.9],[2.611374,48.684904,87.9],[2.611347,48.684879,87.9],[2.611341,48.684883,87.9],[2.611369,48.684846,87.8],[2.611378,48.684817,87.8],[2.611412,48.684795,87.7],[2.611468,48.684774,87.7],[2.611456,48.684772,87.7],[2.611467,48.68476,87.7],[2.611515,48.68474,87.6],[2.61153,48.684726,87.5],[2.611551,48.68475,87.6],[2.61153,48.684746,87.6],[2.611557,48.684772,87.6],[2.611573,48.684755,87.5],[2.611567,48.684752,87.6],[2.61157,48.684762,87.6],[2.611599,48.684666,87.5],[2.61163,48.684685,87.4],[2.611621,48.684731,87.5],[2.611593,48.68474,87.5],[2.611599,48.68475,87.5],[2.61159,48.684765,87.5],[2.61157,48.684764,87.6],[2.61157,48.684769,87.6],[2.611554,48.684755,87.6],[2.611533,48.684752,87.6],[2.611482,48.684781,87.7],[2.611495,48.684788,87.6],[2.611516,48.684783,87.6],[2.611512,48.684765,87.6],[2.6115,48.68476,87.6],[2.611528,48.684626,87.6],[2.611467,48.684742,87.7],[2.611504,48.684762,87.6],[2.611551,48.684739,87.6],[2.611598,48.684728,87.5],[2.611552,48.684702,87.5],[2.611587,48.684729,87.5],[2.61159,48.684746,87.5],[2.611602,48.68475,87.5],[2.611616,48.684733,87.5],[2.611606,48.684745,87.5],[2.611618,48.684766,87.5],[2.611579,48.684696,87.5],[2.611564,48.684756,87.6],[2.611563,48.684744,87.6],[2.611526,48.684756,87.6],[2.611453,48.684748,87.7],[2.611546,48.684754,87.6],[2.611338,48.684633,87.9],[2.611502,48.684757,87.6],[2.611519,48.68476,87.6],[2.611545,48.684782,87.6],[2.611585,48.684757,87.5],[2.611593,48.684762,87.5],[2.611574,48.684767,87.5],[2.611608,48.684768,87.5],[2.611617,48.684784,87.5],[2.611578,48.684788,87.5],[2.611599,48.684781,87.5],[2.611537,48.684793,87.6],[2.611519,48.684807,87.6],[2.61153,48.68484,87.6],[2.611515,48.684853,87.7],[2.611502,48.684851,87.7],[2.611541,48.684851,87.6],[2.611568,48.684862,87.6],[2.611544,48.684879,87.6],[2.611553,48.684877,87.6],[2.611571,48.684784,87.5],[2.611595,48.68479,87.5],[2.611588,48.684802,87.5],[2.611554,48.684793,87.6],[2.611566,48.684788,87.6],[2.611562,48.684796,87.6],[2.611551,48.684793,87.6],[2.611565,48.684809,87.6],[2.611584,48.684799,87.5],[2.611574,48.684785,87.5],[2.61158,48.684777,87.5],[2.611557,48.684791,87.6],[2.611559,48.684812,87.6],[2.611532,48.684837,87.6],[2.611541,48.684827,87.6],[2.611532,48.684837,87.6],[2.61156,48.684844,87.6],[2.61154,48.68488,87.6],[2.611555,48.684879,87.6],[2.611543,48.684829,87.6],[2.611511,48.684799,87.6],[2.611526,48.68476,87.6],[2.611557,48.684747,87.6],[2.611565,48.684755,87.6],[2.611557,48.684774,87.6],[2.611564,48.684776,87.6],[2.611549,48.684776,87.6],[2.611561,48.68478,87.6],[2.611538,48.684771,87.6],[2.611506,48.684804,87.6],[2.611531,48.684793,87.6],[2.611519,48.684806,87.6],[2.611509,48.684805,87.6],[2.611494,48.684819,87.6],[2.611536,48.684832,87.6],[2.61157,48.684822,87.6],[2.611587,48.684862,87.6],[2.611541,48.684847,87.6],[2.611519,48.684825,87.6],[2.611543,48.684835,87.6],[2.611568,48.684832,87.6],[2.611536,48.68486,87.6],[2.611468,48.684872,87.7],[2.611423,48.684872,87.8],[2.61141,48.684895,87.8],[2.611375,48.684918,87.9],[2.611371,48.684913,87.9],[2.611383,48.684913,87.9],[2.61139,48.684897,87.8],[2.611383,48.684887,87.8],[2.611364,48.68489,87.8],[2.611369,48.684876,87.8],[2.611435,48.684906,87.8],[2.611515,48.68493,87.7],[2.611533,48.684927,87.7],[2.611525,48.684917,87.7],[2.611548,48.684901,87.6],[2.611559,48.684874,87.6],[2.611505,48.684889,87.7],[2.61151,48.68488,87.7],[2.6115,48.684877,87.7],[2.611499,48.684887,87.7],[2.611519,48.68489,87.7],[2.611513,48.684893,87.7],[2.611504,48.684876,87.7],[2.611513,48.684867,87.7],[2.611516,48.684875,87.7],[2.611524,48.684866,87.7],[2.611517,48.684867,87.7],[2.611531,48.684873,87.6],[2.61153,48.684867,87.6],[2.61152,48.684892,87.7],[2.611446,48.684884,87.7],[2.611453,48.684894,87.7],[2.61146,48.68488,87.7],[2.611477,48.684884,87.7],[2.611489,48.684876,87.7],[2.611475,48.684867,87.7],[2.61147,48.684876,87.7],[2.611524,48.684866,87.7],[2.611556,48.684878,87.6],[2.61156,48.684873,87.6],[2.611547,48.684882,87.6],[2.611543,48.684866,87.6],[2.611511,48.684874,87.7],[2.611532,48.684864,87.6],[2.611541,48.684873,87.6],[2.611516,48.684869,87.7],[2.611497,48.684855,87.7],[2.611493,48.684873,87.7],[2.611448,48.684891,87.7],[2.61143,48.684874,87.8],[2.611441,48.684877,87.8],[2.61145,48.684865,87.7],[2.611468,48.684882,87.7],[2.611463,48.684878,87.7],[2.611479,48.684869,87.7],[2.611473,48.684864,87.7],[2.611456,48.684869,87.7],[2.611442,48.68489,87.7],[2.611479,48.684951,87.8],[2.611479,48.684994,87.8],[2.611478,48.684986,87.8],[2.611444,48.684976,87.8],[2.611425,48.684947,87.8],[2.611436,48.684943,87.8],[2.611431,48.684951,87.8],[2.611434,48.684938,87.8],[2.611456,48.684944,87.8],[2.611464,48.684919,87.7],[2.61145,48.684902,87.7],[2.611455,48.684867,87.7],[2.611437,48.684887,87.8],[2.611445,48.684909,87.7],[2.611452,48.684889,87.7],[2.611452,48.684897,87.7],[2.611436,48.684886,87.8],[2.61141,48.684918,87.8],[2.611414,48.684932,87.8],[2.611402,48.684957,87.9],[2.611387,48.684956,87.9],[2.611382,48.684944,87.9],[2.611395,48.684946,87.9],[2.611378,48.684952,87.9],[2.611379,48.684939,87.9],[2.611398,48.684933,87.9],[2.611419,48.684938,87.8],[2.611408,48.684945,87.8],[2.611419,48.684925,87.8],[2.61141,48.684929,87.8],[2.611415,48.684914,87.8],[2.611406,48.684908,87.8],[2.611432,48.684907,87.8],[2.611435,48.68492,87.8],[2.611429,48.684912,87.8],[2.611454,48.684904,87.7],[2.611445,48.684904,87.7],[2.611448,48.684909,87.7],[2.611446,48.6849,87.7],[2.611469,48.684885,87.7],[2.611458,48.684878,87.7],[2.611477,48.68489,87.7],[2.611413,48.684949,87.8],[2.611443,48.684979,87.8],[2.611473,48.684896,87.7],[2.611455,48.684925,87.7],[2.611463,48.684942,87.8],[2.611432,48.684973,87.9],[2.611438,48.684984,87.9],[2.611415,48.684987,87.9],[2.611425,48.684984,87.9],[2.611426,48.684972,87.9],[2.611425,48.685002,87.9],[2.611479,48.684942,87.8],[2.611489,48.684943,87.7],[2.611507,48.684908,87.7],[2.611479,48.684913,87.7],[2.611472,48.684905,87.7],[2.611441,48.684913,87.8],[2.611415,48.684907,87.8],[2.611389,48.684876,87.8],[2.611389,48.684888,87.8],[2.611365,48.684903,87.9],[2.611371,48.684913,87.9],[2.611361,48.684874,87.8],[2.611347,48.684884,87.9],[2.611345,48.684877,87.9],[2.611327,48.684877,87.9],[2.611357,48.684861,87.8],[2.611355,48.68485,87.9],[2.61139,48.684816,87.8],[2.611443,48.684782,87.7],[2.611533,48.684742,87.6],[2.611587,48.684739,87.5],[2.611591,48.684725,87.5],[2.611598,48.684728,87.5],[2.611531,48.684739,87.6],[2.611529,48.684745,87.6],[2.611565,48.684764,87.6],[2.611611,48.684766,87.5],[2.611603,48.684749,87.5],[2.611597,48.684768,87.5],[2.6116,48.684741,87.5],[2.611565,48.684745,87.6],[2.611575,48.684774,87.5],[2.611476,48.684752,87.7],[2.611441,48.684732,87.7],[2.611525,48.684771,87.6],[2.611544,48.684788,87.6],[2.611541,48.684782,87.6],[2.61157,48.684816,87.6],[2.611554,48.684847,87.6],[2.611531,48.68485,87.6],[2.611515,48.684835,87.6],[2.611519,48.684839,87.6],[2.611515,48.684815,87.6],[2.611498,48.684797,87.6],[2.611497,48.684805,87.6],[2.611482,48.684763,87.7],[2.611489,48.684753,87.6],[2.611529,48.684737,87.6],[2.611514,48.684737,87.6],[2.611488,48.684756,87.6],[2.611492,48.684766,87.6],[2.611519,48.684745,87.6],[2.611507,48.684758,87.6],[2.611557,48.684696,87.5],[2.611502,48.684762,87.6],[2.611498,48.684734,87.6],[2.611527,48.684747,87.6],[2.61151,48.684751,87.6],[2.611493,48.684739,87.6],[2.611514,48.684725,87.6],[2.611556,48.684719,87.5],[2.61159,48.68474,87.5],[2.611592,48.684727,87.5],[2.61158,48.684725,87.5],[2.611573,48.684733,87.5],[2.61159,48.684743,87.5],[2.611593,48.684732,87.5],[2.611604,48.684759,87.5],[2.611558,48.684782,87.6],[2.611624,48.684684,87.4],[2.611686,48.684671,87.4],[2.611588,48.684835,87.5],[2.611547,48.684869,87.6],[2.611511,48.684786,87.6],[2.611548,48.684744,87.6],[2.611514,48.684781,87.6],[2.611494,48.684786,87.6],[2.611482,48.684768,87.7],[2.611515,48.684747,87.6],[2.611539,48.684743,87.6],[2.611531,48.68475,87.6],[2.611518,48.684746,87.6],[2.611524,48.684757,87.6],[2.611534,48.684757,87.6],[2.611502,48.684787,87.6],[2.611508,48.684777,87.6],[2.611551,48.684779,87.6],[2.611568,48.684769,87.6],[2.611456,48.684765,87.7],[2.611492,48.684773,87.6],[2.611511,48.684736,87.6],[2.611502,48.684735,87.6],[2.611571,48.684733,87.5],[2.611615,48.684756,87.5],[2.611633,48.684776,87.5],[2.611629,48.684754,87.5],[2.611588,48.684734,87.5],[2.611536,48.684854,87.6],[2.611611,48.684763,87.5],[2.611641,48.684767,87.5],[2.611555,48.68477,87.6],[2.611522,48.684759,87.6],[2.611399,48.684767,87.7],[2.61146,48.684803,87.7],[2.611474,48.684796,87.7],[2.611467,48.684788,87.7],[2.611528,48.684737,87.6],[2.611534,48.684754,87.6],[2.611565,48.684734,87.6],[2.611565,48.684723,87.5],[2.611504,48.684726,87.6],[2.611463,48.684784,87.7],[2.611611,48.684698,87.5],[2.611657,48.684642,87.4],[2.611554,48.684741,87.6],[2.611569,48.684709,87.5],[2.611546,48.684717,87.5],[2.611552,48.684737,87.6],[2.611588,48.684755,87.5],[2.6116,48.684753,87.5],[2.611594,48.68476,87.5],[2.611534,48.684735,87.6],[2.611572,48.684752,87.5],[2.611579,48.684738,87.5],[2.611562,48.684725,87.5],[2.61146,48.684733,87.7],[2.611519,48.684768,87.6],[2.611517,48.684758,87.6],[2.611541,48.684744,87.6],[2.611503,48.684736,87.6],[2.61155,48.684826,87.6],[2.611526,48.684735,87.6],[2.611534,48.684724,87.5],[2.611517,48.684729,87.6],[2.611497,48.684724,87.6],[2.611515,48.684723,87.6],[2.611538,48.684768,87.6],[2.611513,48.684795,87.6],[2.611518,48.684842,87.7],[2.611519,48.684813,87.6],[2.611544,48.684808,87.6],[2.611535,48.684759,87.6],[2.611549,48.684746,87.6],[2.611574,48.684754,87.5],[2.611566,48.684758,87.6],[2.611608,48.684746,87.5],[2.611602,48.684741,87.5],[2.611577,48.684758,87.5],[2.611593,48.684749,87.5],[2.611585,48.684768,87.5],[2.611592,48.684777,87.5],[2.611584,48.684782,87.5],[2.611599,48.684791,87.5],[2.61159,48.684786,87.5],[2.61156,48.684797,87.6],[2.611504,48.684785,87.6],[2.611485,48.684769,87.6],[2.611502,48.68476,87.6],[2.611513,48.684765,87.6],[2.611515,48.684779,87.6],[2.611547,48.684797,87.6],[2.611531,48.684802,87.6],[2.611515,48.684825,87.6],[2.611564,48.684834,87.6],[2.611555,48.68486,87.6],[2.611536,48.684875,87.6],[2.611544,48.684887,87.6],[2.611555,48.684881,87.6],[2.611553,48.684871,87.6],[2.611582,48.684851,87.6],[2.611575,48.684838,87.5],[2.611588,48.684833,87.5],[2.611596,48.684839,87.5],[2.611589,48.684844,87.6],[2.611602,48.684809,87.5],[2.611595,48.684813,87.5],[2.611612,48.684799,87.5],[2.611597,48.684786,87.5],[2.611576,48.684787,87.5],[2.611584,48.684779,87.5],[2.611588,48.684803,87.5],[2.611576,48.684804,87.5],[2.611579,48.68479,87.5],[2.61157,48.684791,87.6],[2.611581,48.684786,87.5],[2.611567,48.684808,87.6],[2.611601,48.684838,87.5],[2.611572,48.684858,87.6],[2.611535,48.684848,87.6],[2.611526,48.684838,87.6],[2.611533,48.684834,87.6],[2.611547,48.684841,87.6],[2.611556,48.684831,87.6],[2.611563,48.684859,87.6],[2.611582,48.684846,87.6],[2.611562,48.684877,87.6],[2.611542,48.684871,87.6],[2.611596,48.684805,87.5],[2.611578,48.684802,87.5],[2.611576,48.684776,87.5],[2.611561,48.684784,87.6],[2.611595,48.684789,87.5],[2.611555,48.684797,87.6],[2.611571,48.684778,87.5],[2.611585,48.684776,87.5],[2.611557,48.68481,87.6],[2.611433,48.684898,87.8],[2.611418,48.684899,87.8],[2.61141,48.684911,87.8],[2.611373,48.684924,87.9],[2.611384,48.684892,87.8],[2.611371,48.684884,87.8],[2.611375,48.684867,87.8],[2.611355,48.684878,87.9],[2.611383,48.684881,87.8],[2.611409,48.684875,87.8],[2.611498,48.6849,87.7],[2.611551,48.684889,87.6],[2.611552,48.684883,87.6],[2.611596,48.684878,87.6],[2.611614,48.684869,87.5],[2.61163,48.684881,87.5],[2.611589,48.684873,87.6],[2.611573,48.684859,87.6],[2.611561,48.684859,87.6],[2.61156,48.684866,87.6],[2.611564,48.684856,87.6],[2.61154,48.684861,87.6],[2.611526,48.684925,87.7],[2.611512,48.68492,87.7],[2.611507,48.684898,87.7],[2.611516,48.684892,87.7],[2.611542,48.684894,87.6],[2.611529,48.684905,87.6],[2.611532,48.684898,87.6],[2.611547,48.684934,87.7],[2.611529,48.684927,87.7],[2.611465,48.684941,87.8],[2.61144,48.68493,87.8],[2.611411,48.684871,87.8],[2.611445,48.684867,87.7],[2.611439,48.684863,87.8],[2.611461,48.684867,87.7],[2.611463,48.684875,87.7],[2.611536,48.684865,87.6],[2.61157,48.684848,87.6],[2.611551,48.684849,87.6],[2.611545,48.684863,87.6],[2.611516,48.684873,87.7],[2.611481,48.68486,87.7],[2.611431,48.684865,87.8],[2.611462,48.684877,87.7],[2.611521,48.684873,87.7],[2.611429,48.684857,87.8],[2.611441,48.684867,87.8],[2.611442,48.68486,87.7],[2.611496,48.684938,87.7],[2.611494,48.684927,87.7],[2.611533,48.684907,87.6],[2.611523,48.68489,87.7],[2.611534,48.684872,87.6],[2.611552,48.684864,87.6],[2.611551,48.684871,87.6],[2.611534,48.684865,87.6],[2.611521,48.684878,87.7],[2.61152,48.684871,87.7],[2.611511,48.684885,87.7],[2.611518,48.684888,87.7],[2.611512,48.684881,87.7],[2.611477,48.684903,87.7],[2.611459,48.684898,87.7],[2.611457,48.684914,87.7],[2.611417,48.684882,87.8],[2.611401,48.684879,87.8],[2.611369,48.68484,87.8],[2.611399,48.684809,87.7],[2.611467,48.684772,87.7],[2.611595,48.68474,87.5],[2.611564,48.684741,87.6],[2.611522,48.684754,87.6],[2.611545,48.684755,87.6],[2.611544,48.684781,87.6],[2.611529,48.684793,87.6],[2.611544,48.684802,87.6],[2.611594,48.684798,87.5],[2.611595,48.684765,87.5],[2.611588,48.684785,87.5],[2.61157,48.684789,87.6],[2.611576,48.684815,87.5],[2.611488,48.684797,87.6],[2.61146,48.684772,87.7],[2.611576,48.684802,87.5],[2.611589,48.684792,87.5],[2.611572,48.684797,87.5],[2.611513,48.684858,87.7],[2.611527,48.68486,87.7],[2.611535,48.68485,87.6],[2.611515,48.684837,87.6],[2.611485,48.684837,87.6],[2.611522,48.684838,87.6],[2.611536,48.684829,87.6],[2.611561,48.684833,87.6],[2.611567,48.684859,87.6],[2.611562,48.684852,87.6],[2.611566,48.684864,87.6],[2.611597,48.684861,87.6],[2.611602,48.684808,87.5],[2.611616,48.684779,87.5],[2.611601,48.684773,87.5],[2.611596,48.684782,87.5],[2.611608,48.684779,87.5],[2.61156,48.684805,87.6],[2.611567,48.684826,87.6],[2.611574,48.684807,87.5],[2.611567,48.684806,87.6],[2.611578,48.684794,87.5],[2.611562,48.684795,87.6],[2.611548,48.684815,87.6],[2.611551,48.68481,87.6],[2.611541,48.684823,87.6],[2.61155,48.684833,87.6],[2.611545,48.684849,87.6],[2.611558,48.684851,87.6],[2.611551,48.684843,87.6],[2.611532,48.68485,87.6],[2.611509,48.684881,87.7],[2.611523,48.684875,87.7],[2.611527,48.684861,87.7],[2.611529,48.684868,87.6],[2.61152,48.684782,87.6],[2.611531,48.68477,87.6],[2.611562,48.684759,87.6],[2.611553,48.684758,87.6],[2.611576,48.684763,87.5],[2.61158,48.684791,87.5],[2.611598,48.68479,87.5],[2.611588,48.684787,87.5],[2.611591,48.684795,87.5],[2.611557,48.684806,87.6],[2.611469,48.684756,87.7],[2.611569,48.684781,87.6],[2.611687,48.684783,87.4],[2.611627,48.684781,87.5],[2.611577,48.684788,87.5],[2.611565,48.684806,87.6],[2.611559,48.684803,87.6],[2.61153,48.684832,87.6],[2.611544,48.684834,87.6],[2.611539,48.684839,87.6],[2.611548,48.684837,87.6],[2.611541,48.684841,87.6],[2.611543,48.684835,87.6],[2.61153,48.684852,87.6],[2.611502,48.684795,87.6],[2.61151,48.684782,87.6],[2.611525,48.684781,87.6],[2.61155,48.684735,87.6],[2.611572,48.684736,87.5],[2.61156,48.684744,87.6],[2.611602,48.68476,87.5],[2.611604,48.684752,87.5],[2.611589,48.684774,87.5],[2.611631,48.684667,87.4],[2.611538,48.684766,87.6],[2.611551,48.684749,87.6],[2.611564,48.684767,87.6],[2.61151,48.684773,87.6],[2.611508,48.684787,87.6],[2.611454,48.684792,87.7],[2.611401,48.684742,87.7],[2.611418,48.684718,87.7],[2.611536,48.684758,87.6],[2.611494,48.684723,87.6],[2.611509,48.684766,87.6],[2.611519,48.684748,87.6],[2.611518,48.684754,87.6],[2.611526,48.684741,87.6],[2.61154,48.684743,87.6],[2.611512,48.684739,87.6],[2.611638,48.684842,87.5],[2.611501,48.684742,87.6],[2.611496,48.68475,87.6],[2.611522,48.684753,87.6],[2.611514,48.684758,87.6],[2.611509,48.684719,87.6],[2.611595,48.684743,87.5],[2.611621,48.68476,87.5],[2.611609,48.684746,87.5],[2.611567,48.684753,87.6],[2.61156,48.684766,87.6],[2.6116,48.684745,87.5],[2.611552,48.684741,87.6],[2.611549,48.684753,87.6],[2.611594,48.684755,87.5],[2.611562,48.684777,87.6],[2.61152,48.684787,87.6],[2.61153,48.684816,87.6],[2.611524,48.684833,87.6],[2.611513,48.684831,87.6],[2.611504,48.684806,87.6],[2.61151,48.68478,87.6],[2.611478,48.684716,87.7],[2.611477,48.68469,87.7],[2.611558,48.684759,87.6],[2.611513,48.68474,87.6],[2.611528,48.684741,87.6],[2.61147,48.684748,87.7],[2.611497,48.684794,87.6],[2.611541,48.684791,87.6],[2.611564,48.684799,87.6],[2.611574,48.684812,87.5],[2.611591,48.684811,87.5],[2.611575,48.68477,87.5],[2.611564,48.684765,87.6],[2.611538,48.684699,87.5],[2.611587,48.68472,87.5],[2.611572,48.68475,87.5],[2.611577,48.684745,87.5],[2.611594,48.684765,87.5],[2.611598,48.684756,87.5],[2.611579,48.68476,87.5],[2.611549,48.684754,87.6],[2.611715,48.684732,87.4],[2.611534,48.684759,87.6],[2.6115,48.684723,87.6],[2.611557,48.684755,87.6],[2.611566,48.68481,87.6],[2.611593,48.684859,87.6],[2.611588,48.684866,87.6],[2.611582,48.684856,87.6],[2.611498,48.684824,87.6],[2.611514,48.684764,87.6],[2.611505,48.684764,87.6],[2.611524,48.684713,87.6],[2.611515,48.68473,87.6],[2.611507,48.684729,87.6],[2.611503,48.684757,87.6],[2.611514,48.684734,87.6],[2.611506,48.684735,87.6],[2.611514,48.684732,87.6],[2.611495,48.684725,87.6],[2.611538,48.68476,87.6],[2.611656,48.684906,87.5],[2.611611,48.684768,87.5],[2.611615,48.684811,87.5],[2.611565,48.684838,87.6],[2.611493,48.684827,87.6],[2.611487,48.684815,87.6],[2.611462,48.684828,87.7],[2.611477,48.684845,87.7],[2.611505,48.684851,87.7],[2.611528,48.684843,87.6],[2.61154,48.684828,87.6],[2.611525,48.68482,87.6],[2.611501,48.68482,87.6],[2.611428,48.684842,87.8],[2.611488,48.68481,87.6],[2.611516,48.68475,87.6],[2.611512,48.684721,87.6],[2.611503,48.684721,87.6],[2.611534,48.684728,87.6],[2.611565,48.684755,87.6],[2.611569,48.68474,87.6],[2.611564,48.684747,87.6],[2.611592,48.684753,87.5],[2.611504,48.684642,87.6],[2.611506,48.684569,87.7],[2.611629,48.684733,87.5],[2.611603,48.684771,87.5],[2.61152,48.684819,87.6],[2.611483,48.684826,87.7],[2.611406,48.684891,87.8],[2.611434,48.684905,87.8],[2.611405,48.68491,87.8],[2.611412,48.684899,87.8],[2.611436,48.684899,87.8],[2.611423,48.684899,87.8],[2.611445,48.684881,87.7],[2.611426,48.684877,87.8],[2.611438,48.684876,87.8],[2.611459,48.684896,87.7],[2.611452,48.684983,87.8],[2.611494,48.685001,87.8],[2.611443,48.684995,87.8],[2.611417,48.684964,87.9],[2.611425,48.684955,87.9],[2.611414,48.684964,87.9],[2.611429,48.684969,87.9],[2.611433,48.684962,87.9],[2.611437,48.684967,87.9],[2.611445,48.684959,87.8],[2.611446,48.684972,87.8],[2.611455,48.68497,87.8],[2.611419,48.684969,87.9],[2.611412,48.68498,87.9],[2.611437,48.684941,87.8],[2.611431,48.684948,87.8],[2.61147,48.684949,87.8],[2.611458,48.684967,87.8],[2.611457,48.684961,87.8],[2.611436,48.684993,87.9],[2.611433,48.684979,87.9],[2.611465,48.684957,87.8],[2.611476,48.684903,87.7],[2.611445,48.684909,87.7],[2.611388,48.684895,87.8],[2.611394,48.684906,87.9],[2.611446,48.684921,87.7],[2.611472,48.684918,87.7],[2.611493,48.684901,87.7],[2.611468,48.684909,87.7],[2.611451,48.684903,87.7],[2.611425,48.684917,87.8],[2.611458,48.684922,87.7],[2.611459,48.684912,87.7],[2.611463,48.684921,87.7],[2.611463,48.684909,87.7],[2.611455,48.684912,87.7],[2.611455,48.684979,87.8],[2.611414,48.685,87.9],[2.611431,48.684968,87.9],[2.611425,48.684946,87.8],[2.611401,48.684936,87.8],[2.611468,48.684908,87.7],[2.611456,48.684922,87.7],[2.611457,48.684911,87.7],[2.611439,48.684909,87.8],[2.611442,48.684901,87.7],[2.611451,48.684909,87.7],[2.611458,48.684897,87.7],[2.611482,48.684901,87.7],[2.611448,48.684924,87.7],[2.611435,48.684923,87.8],[2.611413,48.684938,87.8],[2.611392,48.684974,87.9],[2.611395,48.684966,87.9],[2.611399,48.684974,87.9],[2.611443,48.684942,87.8],[2.611426,48.684945,87.8],[2.611453,48.684944,87.8],[2.611504,48.684959,87.7],[2.61151,48.684971,87.7],[2.611478,48.684974,87.8],[2.611503,48.684973,87.7],[2.611363,48.684935,87.9],[2.61137,48.684943,87.9],[2.611354,48.684945,87.9],[2.611378,48.684934,87.9],[2.611459,48.684932,87.8],[2.611464,48.684926,87.8],[2.611455,48.684922,87.7],[2.611525,48.684902,87.7],[2.611552,48.684878,87.6],[2.61154,48.684893,87.6],[2.611557,48.684867,87.6],[2.611521,48.684896,87.7],[2.611485,48.684892,87.7],[2.611479,48.684898,87.7],[2.611443,48.684893,87.7],[2.611443,48.684886,87.7],[2.611427,48.684883,87.8],[2.611437,48.684879,87.8],[2.611428,48.684876,87.8],[2.611447,48.684869,87.7],[2.611557,48.684862,87.6],[2.611565,48.684853,87.6],[2.611554,48.684868,87.6],[2.611536,48.684865,87.6],[2.611536,48.684848,87.6],[2.611544,48.684848,87.6],[2.611501,48.684855,87.7],[2.611556,48.684875,87.6],[2.611527,48.684879,87.7],[2.611522,48.684851,87.7],[2.61151,48.684843,87.7],[2.611498,48.684849,87.7],[2.611506,48.684866,87.7],[2.611465,48.684889,87.7],[2.611456,48.684903,87.7],[2.611471,48.684899,87.7],[2.611454,48.6849,87.7],[2.611433,48.684887,87.8],[2.611437,48.684871,87.8],[2.611425,48.684844,87.8],[2.611432,48.684852,87.8],[2.611449,48.684847,87.7],[2.611459,48.684868,87.7],[2.611548,48.684879,87.6],[2.611574,48.684864,87.6],[2.611587,48.684879,87.6],[2.611561,48.68489,87.6],[2.611551,48.684861,87.6],[2.611538,48.684865,87.6],[2.611551,48.684867,87.6],[2.611541,48.684864,87.6],[2.611542,48.684873,87.6],[2.611481,48.684931,87.8],[2.611463,48.684928,87.8],[2.611481,48.684937,87.8],[2.611494,48.684929,87.7],[2.611487,48.68495,87.7],[2.611505,48.684963,87.7],[2.611559,48.684966,87.7],[2.611603,48.684987,87.7],[2.611595,48.684996,87.7],[2.611488,48.684972,87.7],[2.611459,48.684973,87.8],[2.611449,48.684984,87.8],[2.611445,48.684938,87.8],[2.611461,48.684924,87.7],[2.611525,48.684943,87.7],[2.611532,48.684937,87.7],[2.611478,48.684909,87.7],[2.611457,48.684909,87.7],[2.611421,48.684887,87.8],[2.611412,48.684861,87.8],[2.611427,48.684851,87.8],[2.611474,48.684874,87.7],[2.61152,48.684886,87.7],[2.611533,48.684912,87.6],[2.611495,48.684924,87.7],[2.611463,48.684924,87.7],[2.611442,48.684909,87.7],[2.611438,48.684895,87.8],[2.611415,48.684881,87.8],[2.611431,48.684867,87.8],[2.611414,48.684887,87.8],[2.611387,48.684894,87.8],[2.611384,48.684889,87.8],[2.611393,48.684893,87.8],[2.611395,48.684887,87.8],[2.611381,48.684882,87.8],[2.61139,48.684872,87.8],[2.611419,48.684876,87.8],[2.611416,48.684882,87.8],[2.611429,48.684883,87.8],[2.611423,48.684894,87.8],[2.611414,48.684884,87.8],[2.611449,48.684898,87.7],[2.611475,48.684933,87.8],[2.611492,48.684918,87.7],[2.611473,48.684906,87.7],[2.611486,48.684866,87.7],[2.611559,48.684747,87.6],[2.611582,48.684745,87.5],[2.61159,48.684734,87.5],[2.611605,48.684742,87.5],[2.611588,48.684774,87.5],[2.611567,48.684789,87.6],[2.611535,48.684797,87.6],[2.611543,48.684804,87.6],[2.611511,48.684837,87.6],[2.611537,48.684825,87.6],[2.611536,48.684818,87.6],[2.611554,48.684813,87.6],[2.611556,48.68483,87.6],[2.611582,48.684853,87.6],[2.611556,48.684859,87.6],[2.611543,48.684855,87.6],[2.611537,48.684832,87.6],[2.611548,48.684815,87.6],[2.61154,48.684794,87.6],[2.611557,48.68476,87.6],[2.611566,48.684766,87.6],[2.611596,48.684766,87.5],[2.611578,48.684779,87.5],[2.611579,48.684799,87.5],[2.611574,48.68479,87.5],[2.6116,48.684803,87.5],[2.61159,48.684796,87.5],[2.611606,48.684786,87.5],[2.611619,48.684801,87.5],[2.61163,48.684858,87.5],[2.61162,48.684864,87.5],[2.611565,48.684855,87.6],[2.611568,48.684841,87.6],[2.611577,48.684844,87.6],[2.611537,48.684856,87.6],[2.611555,48.684864,87.6],[2.611544,48.684882,87.6],[2.611546,48.684871,87.6],[2.61156,48.684869,87.6],[2.611505,48.684776,87.6],[2.611516,48.68475,87.6],[2.611516,48.684756,87.6],[2.611603,48.684745,87.5],[2.611566,48.684729,87.6],[2.611569,48.684771,87.6],[2.61158,48.684759,87.5],[2.611516,48.684786,87.6],[2.611503,48.684778,87.6],[2.611561,48.684788,87.6],[2.611604,48.684813,87.5],[2.611596,48.684835,87.5],[2.61156,48.684833,87.6],[2.611545,48.684853,87.6],[2.611535,48.684852,87.6],[2.611531,48.68484,87.6],[2.611549,48.684833,87.6],[2.611575,48.684836,87.5],[2.611568,48.684829,87.6],[2.611581,48.684836,87.5],[2.611561,48.684842,87.6],[2.611584,48.68485,87.6],[2.611553,48.684885,87.6],[2.611559,48.684872,87.6],[2.611544,48.684884,87.6],[2.611539,48.684873,87.6],[2.611526,48.684878,87.7],[2.611523,48.684857,87.7],[2.611479,48.684826,87.7],[2.611524,48.684827,87.6],[2.611564,48.68475,87.6],[2.611545,48.68474,87.6],[2.611576,48.684748,87.5],[2.61154,48.684752,87.6],[2.611569,48.684753,87.6],[2.611603,48.684772,87.5],[2.611611,48.684766,87.5],[2.611606,48.684777,87.5],[2.611556,48.684798,87.6],[2.611594,48.684749,87.5],[2.611604,48.684754,87.5],[2.611595,48.68476,87.5],[2.611576,48.684746,87.5],[2.611621,48.684733,87.5],[2.611629,48.684756,87.5],[2.611567,48.684755,87.6],[2.61154,48.684734,87.6],[2.611491,48.684728,87.6],[2.611525,48.684761,87.6],[2.611544,48.68475,87.6],[2.611567,48.684755,87.6],[2.611558,48.684743,87.6],[2.611576,48.684681,87.5],[2.611547,48.684738,87.6],[2.611538,48.684724,87.5],[2.61156,48.684728,87.6],[2.61155,48.684718,87.5],[2.611537,48.684722,87.5],[2.611565,48.684748,87.6],[2.611609,48.68475,87.5],[2.611572,48.684728,87.5],[2.611597,48.684741,87.5],[2.611597,48.684735,87.5],[2.611591,48.684752,87.5],[2.611602,48.684742,87.5],[2.611365,48.684738,87.8],[2.611595,48.684726,87.5],[2.61158,48.684758,87.5],[2.611578,48.684747,87.5],[2.611572,48.68477,87.5],[2.611586,48.68483,87.5],[2.611596,48.684828,87.5],[2.611546,48.684831,87.6],[2.611522,48.684815,87.6],[2.611503,48.684822,87.6],[2.61151,48.684778,87.6],[2.611483,48.684755,87.7],[2.611495,48.68475,87.6],[2.611501,48.684731,87.6],[2.611526,48.684734,87.6],[2.611528,48.684707,87.5],[2.611415,48.684783,87.7],[2.611305,48.684827,87.9],[2.611545,48.684736,87.6],[2.611574,48.684712,87.5],[2.611596,48.684708,87.5],[2.611594,48.684745,87.5],[2.611609,48.684733,87.5],[2.611621,48.684753,87.5],[2.611593,48.684767,87.5],[2.611615,48.684769,87.5],[2.611653,48.684757,87.5],[2.611618,48.68477,87.5],[2.611554,48.68475,87.6],[2.611528,48.684728,87.6],[2.611534,48.684735,87.6],[2.611564,48.684737,87.6],[2.611547,48.684761,87.6],[2.611507,48.684765,87.6],[2.611497,48.684751,87.6],[2.611506,48.684746,87.6],[2.611511,48.684767,87.6],[2.611493,48.684768,87.6],[2.611488,48.684757,87.6],[2.611513,48.684758,87.6],[2.611527,48.684769,87.6],[2.6115,48.684803,87.6],[2.61149,48.684804,87.6],[2.611548,48.6848,87.6],[2.611627,48.68481,87.5],[2.611602,48.684762,87.5],[2.611589,48.684756,87.5],[2.611493,48.684896,87.7],[2.611481,48.684896,87.7],[2.61153,48.684893,87.6],[2.611507,48.684882,87.7],[2.611495,48.684887,87.7],[2.611479,48.684882,87.7],[2.611477,48.684888,87.7],[2.611451,48.684892,87.7],[2.61145,48.684886,87.7],[2.611451,48.684892,87.7],[2.611485,48.684882,87.7],[2.611499,48.684891,87.7],[2.611475,48.684906,87.7],[2.611473,48.684945,87.8],[2.611493,48.684984,87.8],[2.611462,48.684986,87.8],[2.611476,48.684973,87.8],[2.611494,48.684987,87.8],[2.61147,48.684951,87.8],[2.611456,48.68495,87.8],[2.61146,48.684923,87.7],[2.611435,48.684907,87.8],[2.611442,48.684909,87.7],[2.611442,48.684903,87.7],[2.611506,48.684917,87.7],[2.61152,48.684912,87.7],[2.611506,48.684912,87.7],[2.6115,48.68492,87.7],[2.611506,48.68489,87.7],[2.611497,48.684898,87.7],[2.61151,48.684904,87.7],[2.611517,48.684899,87.7],[2.611499,48.684909,87.7],[2.611513,48.684921,87.7],[2.611486,48.684933,87.7],[2.611464,48.684932,87.8],[2.611463,48.684919,87.7],[2.611483,48.684913,87.7],[2.611544,48.684939,87.7],[2.611541,48.68496,87.7],[2.61151,48.684996,87.8],[2.611481,48.684993,87.8],[2.611448,48.685001,87.8],[2.611421,48.684998,87.9],[2.611425,48.684991,87.9],[2.611406,48.684981,87.9],[2.611451,48.684979,87.8],[2.611438,48.684965,87.9],[2.611446,48.684953,87.8],[2.611474,48.684956,87.8],[2.611477,48.68495,87.8],[2.61144,48.684953,87.8],[2.61152,48.684929,87.7],[2.611478,48.684919,87.7],[2.61147,48.684901,87.7],[2.611442,48.684907,87.7],[2.611445,48.684902,87.7],[2.611443,48.684907,87.7],[2.611459,48.684909,87.7],[2.611451,48.684884,87.7],[2.61147,48.684957,87.8],[2.611455,48.684992,87.8],[2.611438,48.684988,87.9],[2.611434,48.685,87.9],[2.611434,48.684983,87.9],[2.611453,48.684979,87.8],[2.611445,48.684984,87.8],[2.611463,48.684978,87.8],[2.611464,48.684956,87.8],[2.611429,48.684956,87.9],[2.611437,48.684967,87.9],[2.61143,48.684982,87.9],[2.611474,48.684971,87.8],[2.611542,48.684968,87.7],[2.611613,48.684985,87.7],[2.611545,48.684949,87.7],[2.611488,48.684982,87.7],[2.61147,48.684945,87.8],[2.611509,48.684896,87.7],[2.611473,48.684873,87.7],[2.611473,48.684851,87.7],[2.61153,48.684889,87.6],[2.611533,48.684925,87.6],[2.611566,48.684986,87.7],[2.611561,48.684998,87.7],[2.611572,48.685002,87.7],[2.611487,48.685011,87.8],[2.611501,48.685005,87.8],[2.611489,48.685008,87.8],[2.611459,48.684976,87.8],[2.611423,48.684905,87.8],[2.611367,48.684894,87.8],[2.61142,48.684855,87.8],[2.61142,48.684832,87.7],[2.611427,48.684836,87.7],[2.611416,48.684854,87.8],[2.611415,48.684849,87.8],[2.611471,48.684853,87.7],[2.611418,48.684872,87.8],[2.611403,48.684854,87.8],[2.611399,48.684861,87.8],[2.611399,48.684854,87.8],[2.611414,48.684876,87.8],[2.611405,48.684883,87.8],[2.611399,48.684862,87.8],[2.611389,48.684874,87.8],[2.611377,48.684875,87.8],[2.611394,48.684851,87.8],[2.611412,48.684855,87.8],[2.611413,48.684891,87.8],[2.611402,48.684891,87.8],[2.611436,48.68487,87.8]]}}]}