<?xml version="1.0" encoding="UTF-8"?>
<gpx version="1.1" creator="LoadMyTracks/073 http://www.cluetrust.com/LoadMyTracks.html" schemaLocation="http://www.topografix.com/GPX/1/1 http://www.topografix.com/GPX/1/1/gpx.xsd
http://www.cluetrust.com/XML/GPXDATA/1/0 http://www.cluetrust.com/Schemas/gpxdata10.xsd" xmlns="http://www.topografix.com/GPX/1/1" xmlns:xsi="http://www.w3.org/2001/XMLSchema-instance" xsi:schemaLocation="http://www.topografix.com/GPX/1/1 http://www.topografix.com/GPX/1/1/gpx.xsd http://www.garmin.com/xmlschemas/GpxExtensions/v3 http://www.garmin.com/xmlschemas/GpxExtensionsv3.xsd http://www.garmin.com/xmlschemas/TrackPointExtension/v1 http://www.garmin.com/xmlschemas/TrackPointExtensionv1.xsd http://www.garmin.com/xmlschemas/PowerExtension/v1 http://www.garmin.com/xmlschemas/PowerExtensionv1.xsd http://www.topografix.com/GPX/gpx_style/0/2 http://www.topografix.com/GPX/gpx_style/0/2/gpx_style.xsd" xmlns:gpxtpx="http://www.garmin.com/xmlschemas/TrackPointExtension/v1" xmlns:gpxx="http://www.garmin.com/xmlschemas/GpxExtensions/v3" xmlns:gpxpx="http://www.garmin.com/xmlschemas/PowerExtension/v1" xmlns:gpx_style="http://www.topografix.com/GPX/gpx_style/0/2">
  <metadata>
    <name>2008-09-14 22 01 21</name>
    <author>
      <name>gpx.studio</name>
      <link href="https://gpx.studio"/>
    </author>
  </metadata>
  <trk>
    <name>unnamed</name>
    <trkseg>
      <trkpt lat="45.514521" lon="-73.557976">
        <ele>85.21</ele>
        <time>2008-08-27T19:22:06.000Z</time>
      </trkpt>
      <trkpt lat="45.514483" lon="-73.558092">
        <ele>84.73</ele>
        <time>2008-08-27T19:22:18.000Z</time>
      </trkpt>
      <trkpt lat="45.514567" lon="-73.558321">
        <ele>84.73</ele>
        <time>2008-08-27T19:22:46.000Z</time>
      </trkpt>
      <trkpt lat="45.51196" lon="-73.558218">
        <ele>101.56</ele>
        <time>2008-08-27T19:24:21.000Z</time>
      </trkpt>
      <trkpt lat="45.51223" lon="-73.557956">
        <ele>101.08</ele>
        <time>2008-08-27T19:24:40.000Z</time>
      </trkpt>
      <trkpt lat="45.514183" lon="-73.558005">
        <ele>100.11</ele>
        <time>2008-08-27T19:26:00.000Z</time>
      </trkpt>
      <trkpt lat="45.514361" lon="-73.558025">
        <ele>97.71</ele>
        <time>2008-08-27T19:28:04.000Z</time>
      </trkpt>
      <trkpt lat="45.514393" lon="-73.558082">
        <ele>94.83</ele>
        <time>2008-08-27T19:28:22.000Z</time>
      </trkpt>
      <trkpt lat="45.514401" lon="-73.558095">
        <ele>91.46</ele>
        <time>2008-08-27T19:28:26.000Z</time>
      </trkpt>
      <trkpt lat="45.51441" lon="-73.558108">
        <ele>87.62</ele>
        <time>2008-08-27T19:28:30.000Z</time>
      </trkpt>
      <trkpt lat="45.514418" lon="-73.55812">
        <ele>84.25</ele>
        <time>2008-08-27T19:28:34.000Z</time>
      </trkpt>
      <trkpt lat="45.514427" lon="-73.558133">
        <ele>80.89</ele>
        <time>2008-08-27T19:28:38.000Z</time>
      </trkpt>
      <trkpt lat="45.514437" lon="-73.558149">
        <ele>77.04</ele>
        <time>2008-08-27T19:28:43.000Z</time>
      </trkpt>
      <trkpt lat="45.514265" lon="-73.558997">
        <ele>73.2</ele>
        <time>2008-08-27T19:29:17.000Z</time>
      </trkpt>
      <trkpt lat="45.514557" lon="-73.557984">
        <ele>73.68</ele>
        <time>2008-08-27T19:30:19.000Z</time>
      </trkpt>
      <trkpt lat="45.514488" lon="-73.557724">
        <ele>74.16</ele>
        <time>2008-08-27T19:30:47.000Z</time>
      </trkpt>
      <trkpt lat="45.514185" lon="-73.557716">
        <ele>74.16</ele>
        <time>2008-08-27T19:31:31.000Z</time>
      </trkpt>
      <trkpt lat="45.514179" lon="-73.557469">
        <ele>74.16</ele>
        <time>2008-08-27T19:32:37.000Z</time>
      </trkpt>
      <trkpt lat="45.514101" lon="-73.557436">
        <ele>74.16</ele>
        <time>2008-08-27T19:33:19.000Z</time>
      </trkpt>
      <trkpt lat="45.513807" lon="-73.55733">
        <ele>73.68</ele>
        <time>2008-08-27T19:34:22.000Z</time>
      </trkpt>
      <trkpt lat="45.513692" lon="-73.55739">
        <ele>73.2</ele>
        <time>2008-08-27T19:34:37.000Z</time>
      </trkpt>
      <trkpt lat="45.513737" lon="-73.557425">
        <ele>73.2</ele>
        <time>2008-08-27T19:35:03.000Z</time>
      </trkpt>
      <trkpt lat="45.513766" lon="-73.557422">
        <ele>73.2</ele>
        <time>2008-08-27T19:35:30.000Z</time>
      </trkpt>
      <trkpt lat="45.513764" lon="-73.557274">
        <ele>72.72</ele>
        <time>2008-08-27T19:35:45.000Z</time>
      </trkpt>
      <trkpt lat="45.513794" lon="-73.557167">
        <ele>72.24</ele>
        <time>2008-08-27T19:36:25.000Z</time>
      </trkpt>
      <trkpt lat="45.513691" lon="-73.557031">
        <ele>72.72</ele>
        <time>2008-08-27T19:36:44.000Z</time>
      </trkpt>
      <trkpt lat="45.513682" lon="-73.556924">
        <ele>72.24</ele>
        <time>2008-08-27T19:36:50.000Z</time>
      </trkpt>
      <trkpt lat="45.513581" lon="-73.556629">
        <ele>72.24</ele>
        <time>2008-08-27T19:37:09.000Z</time>
      </trkpt>
      <trkpt lat="45.513366" lon="-73.556422">
        <ele>71.27</ele>
        <time>2008-08-27T19:37:28.000Z</time>
      </trkpt>
      <trkpt lat="45.51315" lon="-73.556161">
        <ele>71.27</ele>
        <time>2008-08-27T19:37:48.000Z</time>
      </trkpt>
      <trkpt lat="45.513151" lon="-73.556074">
        <ele>70.79</ele>
        <time>2008-08-27T19:37:53.000Z</time>
      </trkpt>
      <trkpt lat="45.512965" lon="-73.555851">
        <ele>68.87</ele>
        <time>2008-08-27T19:38:13.000Z</time>
      </trkpt>
      <trkpt lat="45.5127" lon="-73.555613">
        <ele>66.95</ele>
        <time>2008-08-27T19:38:33.000Z</time>
      </trkpt>
      <trkpt lat="45.512476" lon="-73.555403">
        <ele>65.03</ele>
        <time>2008-08-27T19:38:53.000Z</time>
      </trkpt>
      <trkpt lat="45.512329" lon="-73.555178">
        <ele>65.51</ele>
        <time>2008-08-27T19:39:26.000Z</time>
      </trkpt>
      <trkpt lat="45.512264" lon="-73.555053">
        <ele>65.03</ele>
        <time>2008-08-27T19:39:38.000Z</time>
      </trkpt>
      <trkpt lat="45.512215" lon="-73.554927">
        <ele>65.51</ele>
        <time>2008-08-27T19:39:50.000Z</time>
      </trkpt>
      <trkpt lat="45.512146" lon="-73.554747">
        <ele>65.03</ele>
        <time>2008-08-27T19:40:02.000Z</time>
      </trkpt>
      <trkpt lat="45.512013" lon="-73.554359">
        <ele>64.55</ele>
        <time>2008-08-27T19:40:24.000Z</time>
      </trkpt>
      <trkpt lat="45.511971" lon="-73.554241">
        <ele>64.07</ele>
        <time>2008-08-27T19:40:46.000Z</time>
      </trkpt>
      <trkpt lat="45.511977" lon="-73.55413">
        <ele>63.1</ele>
        <time>2008-08-27T19:41:38.000Z</time>
      </trkpt>
      <trkpt lat="45.511948" lon="-73.553818">
        <ele>63.58</ele>
        <time>2008-08-27T19:41:53.000Z</time>
      </trkpt>
      <trkpt lat="45.511933" lon="-73.553761">
        <ele>63.1</ele>
        <time>2008-08-27T19:41:56.000Z</time>
      </trkpt>
      <trkpt lat="45.51192" lon="-73.553628">
        <ele>63.58</ele>
        <time>2008-08-27T19:42:04.000Z</time>
      </trkpt>
      <trkpt lat="45.511978" lon="-73.55331">
        <ele>64.55</ele>
        <time>2008-08-27T19:42:20.000Z</time>
      </trkpt>
      <trkpt lat="45.511843" lon="-73.553115">
        <ele>65.03</ele>
        <time>2008-08-27T19:42:40.000Z</time>
      </trkpt>
      <trkpt lat="45.511845" lon="-73.553015">
        <ele>65.03</ele>
        <time>2008-08-27T19:42:45.000Z</time>
      </trkpt>
      <trkpt lat="45.511852" lon="-73.552738">
        <ele>65.03</ele>
        <time>2008-08-27T19:43:04.000Z</time>
      </trkpt>
      <trkpt lat="45.511734" lon="-73.552683">
        <ele>65.51</ele>
        <time>2008-08-27T19:43:15.000Z</time>
      </trkpt>
      <trkpt lat="45.511539" lon="-73.552519">
        <ele>67.43</ele>
        <time>2008-08-27T19:43:36.000Z</time>
      </trkpt>
      <trkpt lat="45.511525" lon="-73.552194">
        <ele>69.83</ele>
        <time>2008-08-27T19:43:56.000Z</time>
      </trkpt>
      <trkpt lat="45.511395" lon="-73.551915">
        <ele>70.79</ele>
        <time>2008-08-27T19:44:17.000Z</time>
      </trkpt>
      <trkpt lat="45.511081" lon="-73.551853">
        <ele>70.79</ele>
        <time>2008-08-27T19:44:42.000Z</time>
      </trkpt>
      <trkpt lat="45.5109" lon="-73.551949">
        <ele>69.83</ele>
        <time>2008-08-27T19:45:05.000Z</time>
      </trkpt>
      <trkpt lat="45.510671" lon="-73.552096">
        <ele>68.87</ele>
        <time>2008-08-27T19:45:35.000Z</time>
      </trkpt>
      <trkpt lat="45.510507" lon="-73.552201">
        <ele>68.87</ele>
        <time>2008-08-27T19:45:56.000Z</time>
      </trkpt>
      <trkpt lat="45.510436" lon="-73.552647">
        <ele>68.39</ele>
        <time>2008-08-27T19:46:17.000Z</time>
      </trkpt>
      <trkpt lat="45.510116" lon="-73.552485">
        <ele>68.87</ele>
        <time>2008-08-27T19:46:31.000Z</time>
      </trkpt>
      <trkpt lat="45.510004" lon="-73.552613">
        <ele>68.87</ele>
        <time>2008-08-27T19:46:50.000Z</time>
      </trkpt>
      <trkpt lat="45.509777" lon="-73.552782">
        <ele>68.87</ele>
        <time>2008-08-27T19:47:10.000Z</time>
      </trkpt>
      <trkpt lat="45.509685" lon="-73.552998">
        <ele>68.87</ele>
        <time>2008-08-27T19:47:32.000Z</time>
      </trkpt>
      <trkpt lat="45.50945" lon="-73.553182">
        <ele>68.87</ele>
        <time>2008-08-27T19:47:49.000Z</time>
      </trkpt>
      <trkpt lat="45.509435" lon="-73.553312">
        <ele>68.39</ele>
        <time>2008-08-27T19:48:17.000Z</time>
      </trkpt>
      <trkpt lat="45.509372" lon="-73.553468">
        <ele>68.39</ele>
        <time>2008-08-27T19:48:40.000Z</time>
      </trkpt>
      <trkpt lat="45.509281" lon="-73.553628">
        <ele>67.91</ele>
        <time>2008-08-27T19:49:00.000Z</time>
      </trkpt>
      <trkpt lat="45.509006" lon="-73.55371">
        <ele>67.43</ele>
        <time>2008-08-27T19:49:17.000Z</time>
      </trkpt>
      <trkpt lat="45.508811" lon="-73.553807">
        <ele>67.43</ele>
        <time>2008-08-27T19:49:37.000Z</time>
      </trkpt>
      <trkpt lat="45.508621" lon="-73.553935">
        <ele>66.95</ele>
        <time>2008-08-27T19:49:58.000Z</time>
      </trkpt>
      <trkpt lat="45.50856" lon="-73.554036">
        <ele>66.95</ele>
        <time>2008-08-27T19:50:14.000Z</time>
      </trkpt>
      <trkpt lat="45.508499" lon="-73.554381">
        <ele>66.95</ele>
        <time>2008-08-27T19:50:34.000Z</time>
      </trkpt>
      <trkpt lat="45.508607" lon="-73.554698">
        <ele>67.43</ele>
        <time>2008-08-27T19:50:53.000Z</time>
      </trkpt>
      <trkpt lat="45.50868" lon="-73.554745">
        <ele>67.43</ele>
        <time>2008-08-27T19:51:16.000Z</time>
      </trkpt>
      <trkpt lat="45.508689" lon="-73.55464">
        <ele>67.43</ele>
        <time>2008-08-27T19:51:25.000Z</time>
      </trkpt>
      <trkpt lat="45.508535" lon="-73.554368">
        <ele>66.95</ele>
        <time>2008-08-27T19:51:46.000Z</time>
      </trkpt>
      <trkpt lat="45.508351" lon="-73.554255">
        <ele>66.95</ele>
        <time>2008-08-27T19:52:04.000Z</time>
      </trkpt>
      <trkpt lat="45.508339" lon="-73.554252">
        <ele>66.95</ele>
        <time>2008-08-27T19:52:22.000Z</time>
      </trkpt>
      <trkpt lat="45.50815" lon="-73.554532">
        <ele>66.47</ele>
        <time>2008-08-27T19:52:39.000Z</time>
      </trkpt>
      <trkpt lat="45.507944" lon="-73.554654">
        <ele>65.99</ele>
        <time>2008-08-27T19:52:58.000Z</time>
      </trkpt>
      <trkpt lat="45.50779" lon="-73.554681">
        <ele>65.51</ele>
        <time>2008-08-27T19:53:19.000Z</time>
      </trkpt>
      <trkpt lat="45.50773" lon="-73.554928">
        <ele>65.99</ele>
        <time>2008-08-27T19:53:47.000Z</time>
      </trkpt>
      <trkpt lat="45.507629" lon="-73.555046">
        <ele>65.99</ele>
        <time>2008-08-27T19:54:06.000Z</time>
      </trkpt>
      <trkpt lat="45.507561" lon="-73.555184">
        <ele>66.47</ele>
        <time>2008-08-27T19:54:25.000Z</time>
      </trkpt>
      <trkpt lat="45.507582" lon="-73.555324">
        <ele>66.47</ele>
        <time>2008-08-27T19:54:34.000Z</time>
      </trkpt>
      <trkpt lat="45.507208" lon="-73.555355">
        <ele>66.47</ele>
        <time>2008-08-27T19:54:56.000Z</time>
      </trkpt>
      <trkpt lat="45.506899" lon="-73.555391">
        <ele>66.47</ele>
        <time>2008-08-27T19:55:14.000Z</time>
      </trkpt>
      <trkpt lat="45.5067" lon="-73.555521">
        <ele>66.95</ele>
        <time>2008-08-27T19:55:34.000Z</time>
      </trkpt>
      <trkpt lat="45.506489" lon="-73.555524">
        <ele>66.95</ele>
        <time>2008-08-27T19:55:56.000Z</time>
      </trkpt>
      <trkpt lat="45.506523" lon="-73.555672">
        <ele>67.43</ele>
        <time>2008-08-27T19:56:27.000Z</time>
      </trkpt>
      <trkpt lat="45.50656" lon="-73.555661">
        <ele>67.91</ele>
        <time>2008-08-27T19:56:43.000Z</time>
      </trkpt>
      <trkpt lat="45.506324" lon="-73.555828">
        <ele>67.43</ele>
        <time>2008-08-27T19:57:02.000Z</time>
      </trkpt>
      <trkpt lat="45.506264" lon="-73.55594">
        <ele>67.91</ele>
        <time>2008-08-27T19:57:21.000Z</time>
      </trkpt>
      <trkpt lat="45.5062" lon="-73.555989">
        <ele>67.43</ele>
        <time>2008-08-27T19:57:26.000Z</time>
      </trkpt>
      <trkpt lat="45.506109" lon="-73.556304">
        <ele>67.43</ele>
        <time>2008-08-27T19:57:47.000Z</time>
      </trkpt>
      <trkpt lat="45.505831" lon="-73.556402">
        <ele>67.91</ele>
        <time>2008-08-27T19:58:11.000Z</time>
      </trkpt>
      <trkpt lat="45.50571" lon="-73.556419">
        <ele>67.91</ele>
        <time>2008-08-27T19:58:18.000Z</time>
      </trkpt>
      <trkpt lat="45.505719" lon="-73.556474">
        <ele>68.39</ele>
        <time>2008-08-27T19:58:24.000Z</time>
      </trkpt>
      <trkpt lat="45.505865" lon="-73.556701">
        <ele>68.39</ele>
        <time>2008-08-27T19:58:29.000Z</time>
      </trkpt>
      <trkpt lat="45.505788" lon="-73.556739">
        <ele>68.87</ele>
        <time>2008-08-27T19:58:47.000Z</time>
      </trkpt>
      <trkpt lat="45.505529" lon="-73.556689">
        <ele>70.31</ele>
        <time>2008-08-27T19:59:38.000Z</time>
      </trkpt>
      <trkpt lat="45.505366" lon="-73.556795">
        <ele>70.79</ele>
        <time>2008-08-27T19:59:57.000Z</time>
      </trkpt>
      <trkpt lat="45.505161" lon="-73.556982">
        <ele>71.27</ele>
        <time>2008-08-27T20:00:18.000Z</time>
      </trkpt>
      <trkpt lat="45.505083" lon="-73.557044">
        <ele>71.27</ele>
        <time>2008-08-27T20:00:38.000Z</time>
      </trkpt>
      <trkpt lat="45.504972" lon="-73.557096">
        <ele>71.76</ele>
        <time>2008-08-27T20:00:46.000Z</time>
      </trkpt>
      <trkpt lat="45.504861" lon="-73.557102">
        <ele>71.27</ele>
        <time>2008-08-27T20:00:54.000Z</time>
      </trkpt>
      <trkpt lat="45.504649" lon="-73.557246">
        <ele>71.27</ele>
        <time>2008-08-27T20:01:15.000Z</time>
      </trkpt>
      <trkpt lat="45.504582" lon="-73.557422">
        <ele>71.76</ele>
        <time>2008-08-27T20:01:32.000Z</time>
      </trkpt>
      <trkpt lat="45.504493" lon="-73.557487">
        <ele>72.24</ele>
        <time>2008-08-27T20:01:47.000Z</time>
      </trkpt>
      <trkpt lat="45.504093" lon="-73.557516">
        <ele>72.24</ele>
        <time>2008-08-27T20:02:10.000Z</time>
      </trkpt>
      <trkpt lat="45.503852" lon="-73.557473">
        <ele>72.24</ele>
        <time>2008-08-27T20:02:32.000Z</time>
      </trkpt>
      <trkpt lat="45.503741" lon="-73.557396">
        <ele>72.72</ele>
        <time>2008-08-27T20:02:40.000Z</time>
      </trkpt>
      <trkpt lat="45.50368" lon="-73.557966">
        <ele>72.72</ele>
        <time>2008-08-27T20:02:59.000Z</time>
      </trkpt>
      <trkpt lat="45.503506" lon="-73.558034">
        <ele>72.72</ele>
        <time>2008-08-27T20:03:18.000Z</time>
      </trkpt>
      <trkpt lat="45.503192" lon="-73.55797">
        <ele>72.72</ele>
        <time>2008-08-27T20:03:37.000Z</time>
      </trkpt>
      <trkpt lat="45.503133" lon="-73.557985">
        <ele>72.72</ele>
        <time>2008-08-27T20:03:42.000Z</time>
      </trkpt>
      <trkpt lat="45.503093" lon="-73.557975">
        <ele>72.72</ele>
        <time>2008-08-27T20:03:46.000Z</time>
      </trkpt>
      <trkpt lat="45.502976" lon="-73.558043">
        <ele>72.72</ele>
        <time>2008-08-27T20:03:50.000Z</time>
      </trkpt>
      <trkpt lat="45.502612" lon="-73.55782">
        <ele>72.72</ele>
        <time>2008-08-27T20:04:02.000Z</time>
      </trkpt>
      <trkpt lat="45.502583" lon="-73.557787">
        <ele>72.72</ele>
        <time>2008-08-27T20:04:12.000Z</time>
      </trkpt>
      <trkpt lat="45.502621" lon="-73.558245">
        <ele>73.68</ele>
        <time>2008-08-27T20:04:33.000Z</time>
      </trkpt>
      <trkpt lat="45.502502" lon="-73.558823">
        <ele>74.64</ele>
        <time>2008-08-27T20:05:01.000Z</time>
      </trkpt>
      <trkpt lat="45.502445" lon="-73.559284">
        <ele>74.64</ele>
        <time>2008-08-27T20:05:22.000Z</time>
      </trkpt>
      <trkpt lat="45.502751" lon="-73.559307">
        <ele>75.12</ele>
        <time>2008-08-27T20:05:45.000Z</time>
      </trkpt>
      <trkpt lat="45.502857" lon="-73.559294">
        <ele>75.12</ele>
        <time>2008-08-27T20:05:56.000Z</time>
      </trkpt>
      <trkpt lat="45.502846" lon="-73.559245">
        <ele>75.12</ele>
        <time>2008-08-27T20:05:59.000Z</time>
      </trkpt>
      <trkpt lat="45.502769" lon="-73.55923">
        <ele>75.12</ele>
        <time>2008-08-27T20:06:11.000Z</time>
      </trkpt>
      <trkpt lat="45.502726" lon="-73.559293">
        <ele>74.64</ele>
        <time>2008-08-27T20:06:24.000Z</time>
      </trkpt>
      <trkpt lat="45.50263" lon="-73.559372">
        <ele>74.64</ele>
        <time>2008-08-27T20:06:37.000Z</time>
      </trkpt>
      <trkpt lat="45.502483" lon="-73.559462">
        <ele>74.16</ele>
        <time>2008-08-27T20:06:48.000Z</time>
      </trkpt>
      <trkpt lat="45.502467" lon="-73.559466">
        <ele>74.64</ele>
        <time>2008-08-27T20:06:50.000Z</time>
      </trkpt>
      <trkpt lat="45.502188" lon="-73.559519">
        <ele>74.64</ele>
        <time>2008-08-27T20:07:02.000Z</time>
      </trkpt>
      <trkpt lat="45.502126" lon="-73.559547">
        <ele>74.16</ele>
        <time>2008-08-27T20:07:15.000Z</time>
      </trkpt>
      <trkpt lat="45.502121" lon="-73.559584">
        <ele>74.64</ele>
        <time>2008-08-27T20:07:26.000Z</time>
      </trkpt>
      <trkpt lat="45.502127" lon="-73.559632">
        <ele>74.64</ele>
        <time>2008-08-27T20:07:34.000Z</time>
      </trkpt>
      <trkpt lat="45.502056" lon="-73.55985">
        <ele>74.64</ele>
        <time>2008-08-27T20:07:47.000Z</time>
      </trkpt>
      <trkpt lat="45.50207" lon="-73.559847">
        <ele>74.64</ele>
        <time>2008-08-27T20:07:59.000Z</time>
      </trkpt>
      <trkpt lat="45.50206" lon="-73.559741">
        <ele>74.64</ele>
        <time>2008-08-27T20:08:11.000Z</time>
      </trkpt>
      <trkpt lat="45.502065" lon="-73.559725">
        <ele>75.12</ele>
        <time>2008-08-27T20:08:26.000Z</time>
      </trkpt>
      <trkpt lat="45.502007" lon="-73.559742">
        <ele>74.64</ele>
        <time>2008-08-27T20:08:41.000Z</time>
      </trkpt>
      <trkpt lat="45.502163" lon="-73.55973">
        <ele>74.64</ele>
        <time>2008-08-27T20:08:52.000Z</time>
      </trkpt>
      <trkpt lat="45.502147" lon="-73.559717">
        <ele>74.64</ele>
        <time>2008-08-27T20:08:58.000Z</time>
      </trkpt>
      <trkpt lat="45.502049" lon="-73.559739">
        <ele>74.64</ele>
        <time>2008-08-27T20:09:01.000Z</time>
      </trkpt>
      <trkpt lat="45.501868" lon="-73.5597">
        <ele>74.16</ele>
        <time>2008-08-27T20:09:13.000Z</time>
      </trkpt>
      <trkpt lat="45.501698" lon="-73.559941">
        <ele>74.64</ele>
        <time>2008-08-27T20:09:29.000Z</time>
      </trkpt>
      <trkpt lat="45.50164" lon="-73.559967">
        <ele>74.64</ele>
        <time>2008-08-27T20:09:47.000Z</time>
      </trkpt>
      <trkpt lat="45.50168" lon="-73.560486">
        <ele>74.64</ele>
        <time>2008-08-27T20:10:13.000Z</time>
      </trkpt>
      <trkpt lat="45.50162" lon="-73.560691">
        <ele>74.64</ele>
        <time>2008-08-27T20:10:34.000Z</time>
      </trkpt>
      <trkpt lat="45.501564" lon="-73.560841">
        <ele>70.79</ele>
        <time>2008-08-27T20:10:56.000Z</time>
      </trkpt>
      <trkpt lat="45.501536" lon="-73.560919">
        <ele>67.43</ele>
        <time>2008-08-27T20:11:07.000Z</time>
      </trkpt>
      <trkpt lat="45.501531" lon="-73.560933">
        <ele>66.95</ele>
        <time>2008-08-27T20:11:09.000Z</time>
      </trkpt>
      <trkpt lat="45.501618" lon="-73.563455">
        <ele>76.08</ele>
        <time>2008-08-27T20:23:00.000Z</time>
      </trkpt>
      <trkpt lat="45.501768" lon="-73.563825">
        <ele>75.6</ele>
        <time>2008-08-27T20:23:13.000Z</time>
      </trkpt>
      <trkpt lat="45.501806" lon="-73.563973">
        <ele>75.6</ele>
        <time>2008-08-27T20:23:17.000Z</time>
      </trkpt>
      <trkpt lat="45.501789" lon="-73.564207">
        <ele>75.12</ele>
        <time>2008-08-27T20:23:40.000Z</time>
      </trkpt>
      <trkpt lat="45.501705" lon="-73.564157">
        <ele>75.12</ele>
        <time>2008-08-27T20:23:46.000Z</time>
      </trkpt>
      <trkpt lat="45.501517" lon="-73.564154">
        <ele>75.12</ele>
        <time>2008-08-27T20:23:52.000Z</time>
      </trkpt>
      <trkpt lat="45.501162" lon="-73.564185">
        <ele>75.6</ele>
        <time>2008-08-27T20:24:14.000Z</time>
      </trkpt>
      <trkpt lat="45.500862" lon="-73.564172">
        <ele>77.52</ele>
        <time>2008-08-27T20:24:32.000Z</time>
      </trkpt>
      <trkpt lat="45.500782" lon="-73.564427">
        <ele>78.97</ele>
        <time>2008-08-27T20:24:52.000Z</time>
      </trkpt>
      <trkpt lat="45.500823" lon="-73.565289">
        <ele>80.89</ele>
        <time>2008-08-27T20:25:19.000Z</time>
      </trkpt>
      <trkpt lat="45.500586" lon="-73.565367">
        <ele>81.37</ele>
        <time>2008-08-27T20:25:42.000Z</time>
      </trkpt>
      <trkpt lat="45.500517" lon="-73.565344">
        <ele>80.89</ele>
        <time>2008-08-27T20:26:08.000Z</time>
      </trkpt>
      <trkpt lat="45.50076" lon="-73.565635">
        <ele>80.89</ele>
        <time>2008-08-27T20:26:26.000Z</time>
      </trkpt>
      <trkpt lat="45.500813" lon="-73.565741">
        <ele>80.89</ele>
        <time>2008-08-27T20:26:46.000Z</time>
      </trkpt>
      <trkpt lat="45.500758" lon="-73.565845">
        <ele>80.89</ele>
        <time>2008-08-27T20:26:52.000Z</time>
      </trkpt>
      <trkpt lat="45.500667" lon="-73.566132">
        <ele>80.89</ele>
        <time>2008-08-27T20:27:12.000Z</time>
      </trkpt>
      <trkpt lat="45.500729" lon="-73.566267">
        <ele>81.37</ele>
        <time>2008-08-27T20:27:22.000Z</time>
      </trkpt>
      <trkpt lat="45.501209" lon="-73.566179">
        <ele>82.33</ele>
        <time>2008-08-27T20:27:44.000Z</time>
      </trkpt>
      <trkpt lat="45.501214" lon="-73.566209">
        <ele>82.33</ele>
        <time>2008-08-27T20:28:07.000Z</time>
      </trkpt>
      <trkpt lat="45.501212" lon="-73.566256">
        <ele>82.33</ele>
        <time>2008-08-27T20:28:25.000Z</time>
      </trkpt>
      <trkpt lat="45.500778" lon="-73.566096">
        <ele>82.33</ele>
        <time>2008-08-27T20:29:02.000Z</time>
      </trkpt>
      <trkpt lat="45.500028" lon="-73.566656">
        <ele>83.29</ele>
        <time>2008-08-27T20:40:42.000Z</time>
      </trkpt>
      <trkpt lat="45.50036" lon="-73.566935">
        <ele>83.77</ele>
        <time>2008-08-27T20:41:06.000Z</time>
      </trkpt>
      <trkpt lat="45.500374" lon="-73.567162">
        <ele>84.25</ele>
        <time>2008-08-27T20:41:25.000Z</time>
      </trkpt>
      <trkpt lat="45.500307" lon="-73.567317">
        <ele>84.25</ele>
        <time>2008-08-27T20:41:45.000Z</time>
      </trkpt>
      <trkpt lat="45.500311" lon="-73.567275">
        <ele>84.25</ele>
        <time>2008-08-27T20:41:52.000Z</time>
      </trkpt>
      <trkpt lat="45.501358" lon="-73.570004">
        <ele>89.54</ele>
        <time>2008-08-27T20:54:36.000Z</time>
      </trkpt>
      <trkpt lat="45.501398" lon="-73.570365">
        <ele>89.54</ele>
        <time>2008-08-27T20:55:09.000Z</time>
      </trkpt>
      <trkpt lat="45.502823" lon="-73.571161">
        <ele>91.94</ele>
        <time>2008-08-27T21:09:14.000Z</time>
      </trkpt>
      <trkpt lat="45.502712" lon="-73.570988">
        <ele>91.94</ele>
        <time>2008-08-27T21:09:42.000Z</time>
      </trkpt>
      <trkpt lat="45.503109" lon="-73.573015">
        <ele>94.35</ele>
        <time>2008-08-27T21:14:08.000Z</time>
      </trkpt>
      <trkpt lat="45.5037" lon="-73.572121">
        <ele>94.35</ele>
        <time>2008-08-27T21:15:13.000Z</time>
      </trkpt>
      <trkpt lat="45.503713" lon="-73.571989">
        <ele>94.35</ele>
        <time>2008-08-27T21:15:44.000Z</time>
      </trkpt>
      <trkpt lat="45.503747" lon="-73.571795">
        <ele>94.35</ele>
        <time>2008-08-27T21:16:08.000Z</time>
      </trkpt>
      <trkpt lat="45.503795" lon="-73.571306">
        <ele>94.35</ele>
        <time>2008-08-27T21:16:33.000Z</time>
      </trkpt>
      <trkpt lat="45.5041" lon="-73.570846">
        <ele>94.35</ele>
        <time>2008-08-27T21:16:55.000Z</time>
      </trkpt>
      <trkpt lat="45.504118" lon="-73.570584">
        <ele>94.83</ele>
        <time>2008-08-27T21:17:30.000Z</time>
      </trkpt>
      <trkpt lat="45.504261" lon="-73.570144">
        <ele>94.35</ele>
        <time>2008-08-27T21:17:54.000Z</time>
      </trkpt>
      <trkpt lat="45.504143" lon="-73.569814">
        <ele>94.35</ele>
        <time>2008-08-27T21:18:14.000Z</time>
      </trkpt>
      <trkpt lat="45.503132" lon="-73.569663">
        <ele>94.35</ele>
        <time>2008-08-27T21:18:29.000Z</time>
      </trkpt>
      <trkpt lat="45.503245" lon="-73.569538">
        <ele>94.83</ele>
        <time>2008-08-27T21:19:02.000Z</time>
      </trkpt>
      <trkpt lat="45.503271" lon="-73.569593">
        <ele>95.31</ele>
        <time>2008-08-27T21:19:30.000Z</time>
      </trkpt>
      <trkpt lat="45.501208" lon="-73.569023">
        <ele>95.79</ele>
        <time>2008-08-27T21:21:17.000Z</time>
      </trkpt>
      <trkpt lat="45.50353" lon="-73.570448">
        <ele>95.79</ele>
        <time>2008-08-27T21:21:37.000Z</time>
      </trkpt>
      <trkpt lat="45.503561" lon="-73.570509">
        <ele>95.79</ele>
        <time>2008-08-27T21:21:56.000Z</time>
      </trkpt>
      <trkpt lat="45.503545" lon="-73.56901">
        <ele>97.23</ele>
        <time>2008-08-27T21:22:21.000Z</time>
      </trkpt>
      <trkpt lat="45.503724" lon="-73.568922">
        <ele>97.71</ele>
        <time>2008-08-27T21:22:44.000Z</time>
      </trkpt>
      <trkpt lat="45.503849" lon="-73.568736">
        <ele>98.19</ele>
        <time>2008-08-27T21:22:59.000Z</time>
      </trkpt>
      <trkpt lat="45.503897" lon="-73.568826">
        <ele>99.15</ele>
        <time>2008-08-27T21:23:21.000Z</time>
      </trkpt>
      <trkpt lat="45.503841" lon="-73.568901">
        <ele>99.15</ele>
        <time>2008-08-27T21:23:35.000Z</time>
      </trkpt>
      <trkpt lat="45.504228" lon="-73.568787">
        <ele>99.63</ele>
        <time>2008-08-27T21:23:57.000Z</time>
      </trkpt>
      <trkpt lat="45.504537" lon="-73.568548">
        <ele>100.11</ele>
        <time>2008-08-27T21:24:25.000Z</time>
      </trkpt>
      <trkpt lat="45.504645" lon="-73.568561">
        <ele>100.6</ele>
        <time>2008-08-27T21:24:42.000Z</time>
      </trkpt>
      <trkpt lat="45.505114" lon="-73.568236">
        <ele>101.56</ele>
        <time>2008-08-27T21:25:25.000Z</time>
      </trkpt>
      <trkpt lat="45.50528" lon="-73.567977">
        <ele>102.52</ele>
        <time>2008-08-27T21:25:43.000Z</time>
      </trkpt>
      <trkpt lat="45.505286" lon="-73.5681">
        <ele>102.52</ele>
        <time>2008-08-27T21:25:58.000Z</time>
      </trkpt>
      <trkpt lat="45.505273" lon="-73.5679">
        <ele>102.52</ele>
        <time>2008-08-27T21:26:13.000Z</time>
      </trkpt>
      <trkpt lat="45.505553" lon="-73.566913">
        <ele>103</ele>
        <time>2008-08-27T21:26:37.000Z</time>
      </trkpt>
      <trkpt lat="45.50578" lon="-73.56751">
        <ele>103.48</ele>
        <time>2008-08-27T21:27:58.000Z</time>
      </trkpt>
      <trkpt lat="45.505715" lon="-73.567428">
        <ele>103.48</ele>
        <time>2008-08-27T21:28:14.000Z</time>
      </trkpt>
      <trkpt lat="45.505741" lon="-73.56734">
        <ele>103.48</ele>
        <time>2008-08-27T21:28:23.000Z</time>
      </trkpt>
      <trkpt lat="45.50608" lon="-73.567468">
        <ele>103.96</ele>
        <time>2008-08-27T21:30:33.000Z</time>
      </trkpt>
      <trkpt lat="45.506019" lon="-73.567221">
        <ele>103</ele>
        <time>2008-08-27T21:31:08.000Z</time>
      </trkpt>
      <trkpt lat="45.506223" lon="-73.566973">
        <ele>102.52</ele>
        <time>2008-08-27T21:31:46.000Z</time>
      </trkpt>
      <trkpt lat="45.506288" lon="-73.566918">
        <ele>101.56</ele>
        <time>2008-08-27T21:32:43.000Z</time>
      </trkpt>
      <trkpt lat="45.506303" lon="-73.566906">
        <ele>101.08</ele>
        <time>2008-08-27T21:33:09.000Z</time>
      </trkpt>
      <trkpt lat="45.506463" lon="-73.566827">
        <ele>99.63</ele>
        <time>2008-08-27T21:33:37.000Z</time>
      </trkpt>
      <trkpt lat="45.506591" lon="-73.566808">
        <ele>98.19</ele>
        <time>2008-08-27T21:33:58.000Z</time>
      </trkpt>
      <trkpt lat="45.506665" lon="-73.566825">
        <ele>96.75</ele>
        <time>2008-08-27T21:34:16.000Z</time>
      </trkpt>
      <trkpt lat="45.506834" lon="-73.566537">
        <ele>95.79</ele>
        <time>2008-08-27T21:34:33.000Z</time>
      </trkpt>
      <trkpt lat="45.507027" lon="-73.566512">
        <ele>95.79</ele>
        <time>2008-08-27T21:35:12.000Z</time>
      </trkpt>
      <trkpt lat="45.50706" lon="-73.566414">
        <ele>95.79</ele>
        <time>2008-08-27T21:35:38.000Z</time>
      </trkpt>
      <trkpt lat="45.507173" lon="-73.56608">
        <ele>95.31</ele>
        <time>2008-08-27T21:35:56.000Z</time>
      </trkpt>
      <trkpt lat="45.50725" lon="-73.565982">
        <ele>94.83</ele>
        <time>2008-08-27T21:36:05.000Z</time>
      </trkpt>
      <trkpt lat="45.507228" lon="-73.565896">
        <ele>93.39</ele>
        <time>2008-08-27T21:36:31.000Z</time>
      </trkpt>
      <trkpt lat="45.507205" lon="-73.565826">
        <ele>90.5</ele>
        <time>2008-08-27T21:36:44.000Z</time>
      </trkpt>
      <trkpt lat="45.507213" lon="-73.565723">
        <ele>87.62</ele>
        <time>2008-08-27T21:36:57.000Z</time>
      </trkpt>
      <trkpt lat="45.509169" lon="-73.564552">
        <ele>89.54</ele>
        <time>2008-08-27T22:34:08.000Z</time>
      </trkpt>
      <trkpt lat="45.509118" lon="-73.564403">
        <ele>89.06</ele>
        <time>2008-08-27T22:34:31.000Z</time>
      </trkpt>
      <trkpt lat="45.509212" lon="-73.564379">
        <ele>88.58</ele>
        <time>2008-08-27T22:34:44.000Z</time>
      </trkpt>
      <trkpt lat="45.509431" lon="-73.564536">
        <ele>89.54</ele>
        <time>2008-08-27T22:35:05.000Z</time>
      </trkpt>
      <trkpt lat="45.509759" lon="-73.563988">
        <ele>90.02</ele>
        <time>2008-08-27T22:35:28.000Z</time>
      </trkpt>
      <trkpt lat="45.50966" lon="-73.563878">
        <ele>90.5</ele>
        <time>2008-08-27T22:36:05.000Z</time>
      </trkpt>
      <trkpt lat="45.509816" lon="-73.56374">
        <ele>90.5</ele>
        <time>2008-08-27T22:36:35.000Z</time>
      </trkpt>
      <trkpt lat="45.510049" lon="-73.563433">
        <ele>90.98</ele>
        <time>2008-08-27T22:36:57.000Z</time>
      </trkpt>
      <trkpt lat="45.510091" lon="-73.563338">
        <ele>90.98</ele>
        <time>2008-08-27T22:37:01.000Z</time>
      </trkpt>
      <trkpt lat="45.510271" lon="-73.563102">
        <ele>90.98</ele>
        <time>2008-08-27T22:37:21.000Z</time>
      </trkpt>
      <trkpt lat="45.510472" lon="-73.562882">
        <ele>90.98</ele>
        <time>2008-08-27T22:37:43.000Z</time>
      </trkpt>
      <trkpt lat="45.510676" lon="-73.562822">
        <ele>90.98</ele>
        <time>2008-08-27T22:38:09.000Z</time>
      </trkpt>
      <trkpt lat="45.510909" lon="-73.562799">
        <ele>90.98</ele>
        <time>2008-08-27T22:38:33.000Z</time>
      </trkpt>
      <trkpt lat="45.510925" lon="-73.562788">
        <ele>90.98</ele>
        <time>2008-08-27T22:38:34.000Z</time>
      </trkpt>
      <trkpt lat="45.511134" lon="-73.562582">
        <ele>90.98</ele>
        <time>2008-08-27T22:38:52.000Z</time>
      </trkpt>
      <trkpt lat="45.51141" lon="-73.562597">
        <ele>90.5</ele>
        <time>2008-08-27T22:39:17.000Z</time>
      </trkpt>
      <trkpt lat="45.51164" lon="-73.562244">
        <ele>90.02</ele>
        <time>2008-08-27T22:39:42.000Z</time>
      </trkpt>
      <trkpt lat="45.51182" lon="-73.562124">
        <ele>89.54</ele>
        <time>2008-08-27T22:40:08.000Z</time>
      </trkpt>
      <trkpt lat="45.512053" lon="-73.562081">
        <ele>89.06</ele>
        <time>2008-08-27T22:40:30.000Z</time>
      </trkpt>
      <trkpt lat="45.512177" lon="-73.562059">
        <ele>89.54</ele>
        <time>2008-08-27T22:40:50.000Z</time>
      </trkpt>
      <trkpt lat="45.512354" lon="-73.562052">
        <ele>88.58</ele>
        <time>2008-08-27T22:41:06.000Z</time>
      </trkpt>
      <trkpt lat="45.512525" lon="-73.561832">
        <ele>88.1</ele>
        <time>2008-08-27T22:41:29.000Z</time>
      </trkpt>
      <trkpt lat="45.51276" lon="-73.561624">
        <ele>88.1</ele>
        <time>2008-08-27T22:41:51.000Z</time>
      </trkpt>
      <trkpt lat="45.512959" lon="-73.561362">
        <ele>88.1</ele>
        <time>2008-08-27T22:42:17.000Z</time>
      </trkpt>
      <trkpt lat="45.5133" lon="-73.560873">
        <ele>87.62</ele>
        <time>2008-08-27T22:42:39.000Z</time>
      </trkpt>
      <trkpt lat="45.513349" lon="-73.560889">
        <ele>87.14</ele>
        <time>2008-08-27T22:42:44.000Z</time>
      </trkpt>
      <trkpt lat="45.513489" lon="-73.560837">
        <ele>87.14</ele>
        <time>2008-08-27T22:43:07.000Z</time>
      </trkpt>
      <trkpt lat="45.513597" lon="-73.560559">
        <ele>87.14</ele>
        <time>2008-08-27T22:44:07.000Z</time>
      </trkpt>
      <trkpt lat="45.513907" lon="-73.560262">
        <ele>86.66</ele>
        <time>2008-08-27T22:44:34.000Z</time>
      </trkpt>
      <trkpt lat="45.51411" lon="-73.560061">
        <ele>86.66</ele>
        <time>2008-08-27T22:44:54.000Z</time>
      </trkpt>
      <trkpt lat="45.514329" lon="-73.559861">
        <ele>86.66</ele>
        <time>2008-08-27T22:45:19.000Z</time>
      </trkpt>
      <trkpt lat="45.514501" lon="-73.559709">
        <ele>87.14</ele>
        <time>2008-08-27T22:45:41.000Z</time>
      </trkpt>
      <trkpt lat="45.514748" lon="-73.559533">
        <ele>86.66</ele>
        <time>2008-08-27T22:46:03.000Z</time>
      </trkpt>
      <trkpt lat="45.51487" lon="-73.559112">
        <ele>86.18</ele>
        <time>2008-08-27T22:46:22.000Z</time>
      </trkpt>
      <trkpt lat="45.51501" lon="-73.558678">
        <ele>86.18</ele>
        <time>2008-08-27T22:46:42.000Z</time>
      </trkpt>
      <trkpt lat="45.514932" lon="-73.558458">
        <ele>87.14</ele>
        <time>2008-08-27T22:47:01.000Z</time>
      </trkpt>
      <trkpt lat="45.514323" lon="-73.55853">
        <ele>87.14</ele>
        <time>2008-08-27T22:47:17.000Z</time>
      </trkpt>
      <trkpt lat="45.514177" lon="-73.558363">
        <ele>88.58</ele>
        <time>2008-08-27T22:47:42.000Z</time>
      </trkpt>
    </trkseg>
  </trk>
</gpx>
