{"type":"FeatureCollection","features":[{"type":"Feature","properties":{"name":"Balade à Louhans","type":"walking","time":"2025-07-26T17:29:26Z","coordTimes":["2025-07-26T17:29:26Z","2025-07-26T17:29:30Z","2025-07-26T17:30:01Z","2025-07-26T17:30:02Z","2025-07-26T17:30:03Z","2025-07-26T17:30:04Z","2025-07-26T17:30:05Z","2025-07-26T17:30:06Z","2025-07-26T17:30:07Z","2025-07-26T17:30:08Z","2025-07-26T17:30:09Z","2025-07-26T17:30:10Z","2025-07-26T17:30:11Z","2025-07-26T17:30:12Z","2025-07-26T17:30:13Z","2025-07-26T17:30:14Z","2025-07-26T17:30:15Z","2025-07-26T17:30:16Z","2025-07-26T17:30:17Z","2025-07-26T17:30:18Z","2025-07-26T17:30:19Z","2025-07-26T17:30:20Z","2025-07-26T17:30:21Z","2025-07-26T17:30:22Z","2025-07-26T17:30:23Z","2025-07-26T17:30:24Z","2025-07-26T17:30:25Z","2025-07-26T17:30:26Z","2025-07-26T17:30:27Z","2025-07-26T17:30:28Z","2025-07-26T17:30:29Z","2025-07-26T17:30:30Z","2025-07-26T17:30:31Z","2025-07-26T17:30:32Z","2025-07-26T17:30:33Z","2025-07-26T17:30:34Z","2025-07-26T17:30:35Z","2025-07-26T17:30:36Z","2025-07-26T17:30:37Z","2025-07-26T17:30:38Z","2025-07-26T17:30:39Z","2025-07-26T17:30:40Z","2025-07-26T17:30:41Z","2025-07-26T17:30:42Z","2025-07-26T17:30:43Z","2025-07-26T17:30:44Z","2025-07-26T17:30:45Z","2025-07-26T17:30:46Z","2025-07-26T17:30:47Z","2025-07-26T17:30:48Z","2025-07-26T17:30:49Z","2025-07-26T17:30:50Z","2025-07-26T17:30:51Z","2025-07-26T17:30:52Z","2025-07-26T17:30:53Z","2025-07-26T17:30:54Z","2025-07-26T17:30:55Z","2025-07-26T17:30:56Z","2025-07-26T17:30:57Z","2025-07-26T17:30:58Z","2025-07-26T17:30:59Z","2025-07-26T17:31:00Z","2025-07-26T17:31:01Z","2025-07-26T17:31:02Z","2025-07-26T17:31:03Z","2025-07-26T17:31:04Z","2025-07-26T17:31:05Z","2025-07-26T17:31:06Z","2025-07-26T17:31:07Z","2025-07-26T17:31:08Z","2025-07-26T17:31:09Z","2025-07-26T17:31:10Z","2025-07-26T17:31:11Z","2025-07-26T17:31:12Z","2025-07-26T17:31:13Z","2025-07-26T17:31:14Z","2025-07-26T17:31:15Z","2025-07-26T17:31:16Z","2025-07-26T17:31:17Z","2025-07-26T17:31:18Z","2025-07-26T17:31:19Z","2025-07-26T17:31:20Z","2025-07-26T17:31:21Z","2025-07-26T17:31:22Z","2025-07-26T17:31:23Z","2025-07-26T17:31:24Z","2025-07-26T17:31:25Z","2025-07-26T17:31:26Z","2025-07-26T17:31:27Z","2025-07-26T17:31:28Z","2025-07-26T17:31:29Z","2025-07-26T17:31:30Z","2025-07-26T17:31:31Z","2025-07-26T17:31:32Z","2025-07-26T17:31:33Z","2025-07-26T17:31:34Z","2025-07-26T17:31:35Z","2025-07-26T17:31:36Z","2025-07-26T17:31:37Z","2025-07-26T17:31:38Z","2025-07-26T17:31:39Z","2025-07-26T17:31:40Z","2025-07-26T17:31:41Z","2025-07-26T17:31:42Z","2025-07-26T17:31:43Z","2025-07-26T17:31:44Z","2025-07-26T17:31:45Z","2025-07-26T17:31:46Z","2025-07-26T17:31:47Z","2025-07-26T17:31:48Z","2025-07-26T17:31:49Z","2025-07-26T17:31:50Z","2025-07-26T17:31:51Z","2025-07-26T17:31:52Z","2025-07-26T17:31:53Z","2025-07-26T17:31:54Z","2025-07-26T17:31:55Z","2025-07-26T17:31:56Z","2025-07-26T17:31:57Z","2025-07-26T17:31:58Z","2025-07-26T17:31:59Z","2025-07-26T17:32:00Z","2025-07-26T17:32:01Z","2025-07-26T17:32:02Z","2025-07-26T17:32:03Z","2025-07-26T17:32:04Z","2025-07-26T17:32:05Z","2025-07-26T17:32:06Z","2025-07-26T17:32:07Z","2025-07-26T17:32:08Z","2025-07-26T17:32:09Z","2025-07-26T17:32:10Z","2025-07-26T17:32:11Z","2025-07-26T17:32:12Z","2025-07-26T17:32:13Z","2025-07-26T17:32:14Z","2025-07-26T17:32:15Z","2025-07-26T17:32:16Z","2025-07-26T17:32:17Z","2025-07-26T17:32:18Z","2025-07-26T17:32:19Z","2025-07-26T17:32:20Z","2025-07-26T17:32:21Z","2025-07-26T17:32:22Z","2025-07-26T17:32:23Z","2025-07-26T17:32:24Z","2025-07-26T17:32:25Z","2025-07-26T17:32:26Z","2025-07-26T17:32:27Z","2025-07-26T17:32:28Z","2025-07-26T17:32:29Z","2025-07-26T17:32:30Z","2025-07-26T17:32:31Z","2025-07-26T17:32:32Z","2025-07-26T17:32:33Z","2025-07-26T17:32:34Z","2025-07-26T17:32:35Z","2025-07-26T17:32:36Z","2025-07-26T17:32:37Z","2025-07-26T17:32:38Z","2025-07-26T17:32:39Z","2025-07-26T17:32:40Z","2025-07-26T17:32:41Z","2025-07-26T17:32:42Z","2025-07-26T17:32:43Z","2025-07-26T17:32:44Z","2025-07-26T17:32:45Z","2025-07-26T17:32:46Z","2025-07-26T17:32:47Z","2025-07-26T17:32:48Z","2025-07-26T17:32:49Z","2025-07-26T17:32:50Z","2025-07-26T17:32:51Z","2025-07-26T17:32:52Z","2025-07-26T17:32:53Z","2025-07-26T17:32:54Z","2025-07-26T17:32:55Z","2025-07-26T17:32:56Z","2025-07-26T17:32:57Z","2025-07-26T17:32:58Z","2025-07-26T17:32:59Z","2025-07-26T17:33:00Z","2025-07-26T17:33:01Z","2025-07-26T17:33:02Z","2025-07-26T17:33:03Z","2025-07-26T17:33:04Z","2025-07-26T17:33:05Z","2025-07-26T17:33:06Z","2025-07-26T17:33:07Z","2025-07-26T17:33:08Z","2025-07-26T17:33:09Z","2025-07-26T17:33:10Z","2025-07-26T17:33:11Z","2025-07-26T17:33:12Z","2025-07-26T17:33:13Z","2025-07-26T17:33:14Z","2025-07-26T17:33:15Z","2025-07-26T17:33:16Z","2025-07-26T17:33:17Z","2025-07-26T17:33:18Z","2025-07-26T17:33:19Z","2025-07-26T17:33:20Z","2025-07-26T17:33:21Z","2025-07-26T17:33:22Z","2025-07-26T17:33:23Z","2025-07-26T17:33:24Z","2025-07-26T17:33:25Z","2025-07-26T17:33:26Z","2025-07-26T17:33:27Z","2025-07-26T17:33:28Z","2025-07-26T17:33:29Z","2025-07-26T17:33:30Z","2025-07-26T17:33:31Z","2025-07-26T17:33:32Z","2025-07-26T17:33:33Z","2025-07-26T17:33:34Z","2025-07-26T17:33:35Z","2025-07-26T17:33:36Z","2025-07-26T17:33:37Z","2025-07-26T17:33:38Z","2025-07-26T17:33:39Z","2025-07-26T17:33:40Z","2025-07-26T17:33:41Z","2025-07-26T17:33:42Z","2025-07-26T17:33:43Z","2025-07-26T17:33:44Z","2025-07-26T17:33:45Z","2025-07-26T17:33:46Z","2025-07-26T17:33:47Z","2025-07-26T17:33:48Z","2025-07-26T17:33:49Z","2025-07-26T17:33:50Z","2025-07-26T17:33:51Z","2025-07-26T17:33:52Z","2025-07-26T17:33:53Z","2025-07-26T17:33:54Z","2025-07-26T17:33:55Z","2025-07-26T17:33:56Z","2025-07-26T17:33:57Z","2025-07-26T17:33:58Z","2025-07-26T17:33:59Z","2025-07-26T17:34:00Z","2025-07-26T17:34:01Z","2025-07-26T17:34:02Z","2025-07-26T17:34:03Z","2025-07-26T17:34:04Z","2025-07-26T17:34:05Z","2025-07-26T17:34:06Z","2025-07-26T17:34:07Z","2025-07-26T17:34:08Z","2025-07-26T17:34:09Z","2025-07-26T17:34:10Z","2025-07-26T17:34:11Z","2025-07-26T17:34:12Z","2025-07-26T17:34:13Z","2025-07-26T17:34:14Z","2025-07-26T17:34:15Z","2025-07-26T17:34:16Z","2025-07-26T17:34:17Z","2025-07-26T17:34:18Z","2025-07-26T17:34:19Z","2025-07-26T17:34:20Z","2025-07-26T17:34:21Z","2025-07-26T17:34:22Z","2025-07-26T17:34:23Z","2025-07-26T17:34:24Z","2025-07-26T17:34:25Z","2025-07-26T17:34:26Z","2025-07-26T17:34:27Z","2025-07-26T17:34:28Z","2025-07-26T17:34:29Z","2025-07-26T17:34:30Z","2025-07-26T17:34:31Z","2025-07-26T17:34:32Z","2025-07-26T17:34:33Z","2025-07-26T17:34:34Z","2025-07-26T17:34:35Z","2025-07-26T17:34:36Z","2025-07-26T17:34:37Z","2025-07-26T17:34:38Z","2025-07-26T17:34:39Z","2025-07-26T17:34:40Z","2025-07-26T17:34:41Z","2025-07-26T17:34:42Z","2025-07-26T17:34:43Z","2025-07-26T17:34:44Z","2025-07-26T17:34:45Z","2025-07-26T17:34:46Z","2025-07-26T17:34:47Z","2025-07-26T17:34:48Z","2025-07-26T17:34:49Z","2025-07-26T17:34:50Z","2025-07-26T17:34:51Z","2025-07-26T17:34:52Z","2025-07-26T17:34:53Z","2025-07-26T17:34:54Z","2025-07-26T17:34:55Z","2025-07-26T17:34:56Z","2025-07-26T17:34:57Z","2025-07-26T17:34:58Z","2025-07-26T17:34:59Z","2025-07-26T17:35:00Z","2025-07-26T17:35:01Z","2025-07-26T17:35:02Z","2025-07-26T17:35:03Z","2025-07-26T17:35:04Z","2025-07-26T17:35:05Z","2025-07-26T17:35:06Z","2025-07-26T17:35:07Z","2025-07-26T17:35:08Z","2025-07-26T17:35:09Z","2025-07-26T17:35:10Z","2025-07-26T17:35:11Z","2025-07-26T17:35:12Z","2025-07-26T17:35:13Z","2025-07-26T17:35:14Z","2025-07-26T17:35:15Z","2025-07-26T17:35:16Z","2025-07-26T17:35:17Z","2025-07-26T17:35:18Z","2025-07-26T17:35:19Z","2025-07-26T17:35:20Z","2025-07-26T17:35:21Z","2025-07-26T17:35:22Z","2025-07-26T17:35:23Z","2025-07-26T17:35:24Z","2025-07-26T17:35:25Z","2025-07-26T17:35:26Z","2025-07-26T17:35:27Z","2025-07-26T17:35:28Z","2025-07-26T17:35:29Z","2025-07-26T17:35:30Z","2025-07-26T17:35:31Z","2025-07-26T17:35:32Z","2025-07-26T17:35:33Z","2025-07-26T17:35:34Z","2025-07-26T17:35:35Z","2025-07-26T17:35:36Z","2025-07-26T17:35:37Z","2025-07-26T17:35:38Z","2025-07-26T17:35:39Z","2025-07-26T17:35:40Z","2025-07-26T17:35:41Z","2025-07-26T17:35:42Z","2025-07-26T17:35:43Z","2025-07-26T17:35:44Z","2025-07-26T17:35:45Z","2025-07-26T17:35:46Z","2025-07-26T17:35:47Z","2025-07-26T17:35:48Z","2025-07-26T17:35:49Z","2025-07-26T17:35:50Z","2025-07-26T17:35:51Z","2025-07-26T17:35:52Z","2025-07-26T17:35:53Z","2025-07-26T17:35:54Z","2025-07-26T17:35:55Z","2025-07-26T17:35:56Z","2025-07-26T17:35:57Z","2025-07-26T17:35:58Z","2025-07-26T17:35:59Z","2025-07-26T17:36:00Z","2025-07-26T17:36:01Z","2025-07-26T17:36:02Z","2025-07-26T17:36:03Z","2025-07-26T17:36:04Z","2025-07-26T17:36:05Z","2025-07-26T17:36:06Z","2025-07-26T17:36:07Z","2025-07-26T17:36:08Z","2025-07-26T17:36:09Z","2025-07-26T17:36:10Z","2025-07-26T17:36:11Z","2025-07-26T17:36:12Z","2025-07-26T17:36:13Z","2025-07-26T17:36:14Z","2025-07-26T17:36:15Z","2025-07-26T17:36:16Z","2025-07-26T17:36:17Z","2025-07-26T17:36:18Z","2025-07-26T17:36:19Z","2025-07-26T17:36:20Z","2025-07-26T17:36:21Z","2025-07-26T17:36:22Z","2025-07-26T17:36:23Z","2025-07-26T17:36:24Z","2025-07-26T17:36:25Z","2025-07-26T17:36:26Z","2025-07-26T17:36:27Z","2025-07-26T17:36:28Z","2025-07-26T17:36:29Z","2025-07-26T17:36:30Z","2025-07-26T17:36:31Z","2025-07-26T17:36:32Z","2025-07-26T17:36:33Z","2025-07-26T17:36:34Z","2025-07-26T17:36:35Z","2025-07-26T17:36:36Z","2025-07-26T17:36:37Z","2025-07-26T17:36:38Z","2025-07-26T17:36:39Z","2025-07-26T17:36:40Z","2025-07-26T17:36:41Z","2025-07-26T17:36:42Z","2025-07-26T17:36:43Z","2025-07-26T17:36:44Z","2025-07-26T17:36:45Z","2025-07-26T17:36:46Z","2025-07-26T17:36:47Z","2025-07-26T17:36:48Z","2025-07-26T17:36:49Z","2025-07-26T17:36:50Z","2025-07-26T17:36:51Z","2025-07-26T17:36:52Z","2025-07-26T17:36:53Z","2025-07-26T17:36:54Z","2025-07-26T17:36:55Z","2025-07-26T17:36:56Z","2025-07-26T17:36:57Z","2025-07-26T17:36:58Z","2025-07-26T17:36:59Z","2025-07-26T17:37:00Z","2025-07-26T17:37:01Z","2025-07-26T17:37:02Z","2025-07-26T17:37:03Z","2025-07-26T17:37:04Z","2025-07-26T17:37:05Z","2025-07-26T17:37:06Z","2025-07-26T17:37:07Z","2025-07-26T17:37:08Z","2025-07-26T17:37:09Z","2025-07-26T17:37:10Z","2025-07-26T17:37:11Z","2025-07-26T17:37:12Z","2025-07-26T17:37:13Z","2025-07-26T17:37:14Z","2025-07-26T17:37:15Z","2025-07-26T17:37:16Z","2025-07-26T17:37:17Z","2025-07-26T17:37:18Z","2025-07-26T17:37:19Z","2025-07-26T17:37:20Z","2025-07-26T17:37:21Z","2025-07-26T17:37:22Z","2025-07-26T17:37:23Z","2025-07-26T17:37:24Z","2025-07-26T17:37:25Z","2025-07-26T17:37:26Z","2025-07-26T17:37:27Z","2025-07-26T17:37:28Z","2025-07-26T17:37:29Z","2025-07-26T17:37:30Z","2025-07-26T17:37:31Z","2025-07-26T17:37:32Z","2025-07-26T17:37:33Z","2025-07-26T17:37:34Z","2025-07-26T17:37:35Z","2025-07-26T17:37:36Z","2025-07-26T17:37:37Z","2025-07-26T17:37:38Z","2025-07-26T17:37:39Z","2025-07-26T17:37:40Z","2025-07-26T17:37:41Z","2025-07-26T17:37:42Z","2025-07-26T17:37:43Z","2025-07-26T17:37:44Z","2025-07-26T17:37:45Z","2025-07-26T17:37:46Z","2025-07-26T17:37:47Z","2025-07-26T17:37:48Z","2025-07-26T17:37:49Z","2025-07-26T17:37:50Z","2025-07-26T17:37:51Z","2025-07-26T17:37:52Z","2025-07-26T17:37:53Z","2025-07-26T17:37:54Z","2025-07-26T17:37:55Z","2025-07-26T17:37:56Z","2025-07-26T17:37:57Z","2025-07-26T17:37:58Z","2025-07-26T17:37:59Z","2025-07-26T17:38:00Z","2025-07-26T17:38:01Z","2025-07-26T17:38:02Z","2025-07-26T17:38:03Z","2025-07-26T17:38:04Z","2025-07-26T17:38:05Z","2025-07-26T17:38:06Z","2025-07-26T17:38:07Z","2025-07-26T17:38:08Z","2025-07-26T17:38:09Z","2025-07-26T17:38:10Z","2025-07-26T17:38:11Z","2025-07-26T17:38:12Z","2025-07-26T17:38:13Z","2025-07-26T17:38:14Z","2025-07-26T17:38:15Z","2025-07-26T17:38:16Z","2025-07-26T17:38:17Z","2025-07-26T17:38:18Z","2025-07-26T17:38:19Z","2025-07-26T17:38:20Z","2025-07-26T17:38:21Z","2025-07-26T17:38:22Z","2025-07-26T17:38:23Z","2025-07-26T17:38:24Z","2025-07-26T17:38:25Z","2025-07-26T17:38:26Z","2025-07-26T17:38:27Z","2025-07-26T17:38:28Z","2025-07-26T17:38:29Z","2025-07-26T17:38:30Z","2025-07-26T17:38:31Z","2025-07-26T17:38:32Z","2025-07-26T17:38:33Z","2025-07-26T17:38:34Z","2025-07-26T17:38:35Z","2025-07-26T17:38:36Z","2025-07-26T17:38:37Z","2025-07-26T17:38:38Z","2025-07-26T17:38:39Z","2025-07-26T17:38:40Z","2025-07-26T17:38:41Z","2025-07-26T17:38:42Z","2025-07-26T17:38:43Z","2025-07-26T17:38:44Z","2025-07-26T17:38:45Z","2025-07-26T17:38:46Z","2025-07-26T17:38:47Z","2025-07-26T17:38:48Z","2025-07-26T17:38:49Z","2025-07-26T17:38:50Z","2025-07-26T17:38:51Z","2025-07-26T17:38:52Z","2025-07-26T17:38:53Z","2025-07-26T17:38:54Z","2025-07-26T17:38:55Z","2025-07-26T17:38:56Z","2025-07-26T17:38:57Z","2025-07-26T17:38:58Z","2025-07-26T17:38:59Z","2025-07-26T17:39:00Z","2025-07-26T17:39:01Z","2025-07-26T17:39:02Z","2025-07-26T17:39:03Z","2025-07-26T17:39:04Z","2025-07-26T17:39:05Z","2025-07-26T17:39:06Z","2025-07-26T17:39:07Z","2025-07-26T17:39:08Z","2025-07-26T17:39:09Z","2025-07-26T17:39:10Z","2025-07-26T17:39:11Z","2025-07-26T17:39:12Z","2025-07-26T17:39:13Z","2025-07-26T17:39:14Z","2025-07-26T17:39:15Z","2025-07-26T17:39:16Z","2025-07-26T17:39:17Z","2025-07-26T17:39:18Z","2025-07-26T17:39:19Z","2025-07-26T17:39:20Z","2025-07-26T17:39:21Z","2025-07-26T17:39:22Z","2025-07-26T17:39:23Z","2025-07-26T17:39:24Z","2025-07-26T17:39:25Z","2025-07-26T17:39:26Z","2025-07-26T17:39:27Z","2025-07-26T17:39:28Z","2025-07-26T17:39:29Z","2025-07-26T17:39:30Z","2025-07-26T17:39:31Z","2025-07-26T17:39:32Z","2025-07-26T17:39:33Z","2025-07-26T17:39:34Z","2025-07-26T17:39:35Z","2025-07-26T17:39:36Z","2025-07-26T17:39:37Z","2025-07-26T17:39:38Z","2025-07-26T17:39:39Z","2025-07-26T17:39:40Z","2025-07-26T17:39:41Z","2025-07-26T17:39:42Z","2025-07-26T17:39:43Z","2025-07-26T17:39:44Z","2025-07-26T17:39:45Z","2025-07-26T17:39:46Z","2025-07-26T17:39:47Z","2025-07-26T17:39:48Z","2025-07-26T17:39:49Z","2025-07-26T17:39:50Z","2025-07-26T17:39:51Z","2025-07-26T17:39:52Z","2025-07-26T17:39:53Z","2025-07-26T17:39:54Z","2025-07-26T17:39:55Z","2025-07-26T17:39:56Z","2025-07-26T17:39:57Z","2025-07-26T17:39:58Z","2025-07-26T17:39:59Z","2025-07-26T17:40:00Z","2025-07-26T17:40:01Z","2025-07-26T17:40:02Z","2025-07-26T17:40:03Z","2025-07-26T17:40:04Z","2025-07-26T17:40:05Z","2025-07-26T17:40:06Z","2025-07-26T17:40:07Z","2025-07-26T17:40:08Z","2025-07-26T17:40:09Z","2025-07-26T17:40:10Z","2025-07-26T17:40:11Z","2025-07-26T17:40:12Z","2025-07-26T17:40:13Z","2025-07-26T17:40:14Z","2025-07-26T17:40:15Z","2025-07-26T17:40:16Z","2025-07-26T17:40:17Z","2025-07-26T17:40:18Z","2025-07-26T17:40:19Z","2025-07-26T17:40:20Z","2025-07-26T17:40:21Z","2025-07-26T17:40:22Z","2025-07-26T17:40:23Z","2025-07-26T17:40:24Z","2025-07-26T17:40:25Z","2025-07-26T17:40:26Z","2025-07-26T17:40:27Z","2025-07-26T17:40:28Z","2025-07-26T17:40:29Z","2025-07-26T17:40:30Z","2025-07-26T17:40:31Z","2025-07-26T17:40:32Z","2025-07-26T17:40:33Z","2025-07-26T17:40:34Z","2025-07-26T17:40:35Z","2025-07-26T17:40:36Z","2025-07-26T17:40:37Z","2025-07-26T17:40:38Z","2025-07-26T17:40:39Z","2025-07-26T17:40:40Z","2025-07-26T17:40:41Z","2025-07-26T17:40:42Z","2025-07-26T17:40:43Z","2025-07-26T17:40:44Z","2025-07-26T17:40:45Z","2025-07-26T17:40:46Z","2025-07-26T17:40:47Z","2025-07-26T17:40:48Z","2025-07-26T17:40:49Z","2025-07-26T17:40:50Z","2025-07-26T17:40:51Z","2025-07-26T17:40:52Z","2025-07-26T17:40:53Z","2025-07-26T17:40:54Z","2025-07-26T17:40:55Z","2025-07-26T17:40:56Z","2025-07-26T17:40:57Z","2025-07-26T17:40:58Z","2025-07-26T17:40:59Z","2025-07-26T17:41:00Z","2025-07-26T17:41:01Z","2025-07-26T17:41:02Z","2025-07-26T17:41:03Z","2025-07-26T17:41:04Z","2025-07-26T17:41:05Z","2025-07-26T17:41:06Z","2025-07-26T17:41:07Z","2025-07-26T17:41:08Z","2025-07-26T17:41:09Z","2025-07-26T17:41:10Z","2025-07-26T17:41:11Z","2025-07-26T17:41:12Z","2025-07-26T17:41:13Z","2025-07-26T17:41:14Z","2025-07-26T17:41:15Z","2025-07-26T17:41:16Z","2025-07-26T17:41:17Z","2025-07-26T17:41:18Z","2025-07-26T17:41:19Z","2025-07-26T17:41:20Z","2025-07-26T17:41:21Z","2025-07-26T17:41:22Z","2025-07-26T17:41:23Z","2025-07-26T17:41:24Z","2025-07-26T17:41:25Z","2025-07-26T17:41:26Z","2025-07-26T17:41:27Z","2025-07-26T17:41:28Z","2025-07-26T17:41:29Z","2025-07-26T17:41:30Z","2025-07-26T17:41:31Z","2025-07-26T17:41:32Z","2025-07-26T17:41:33Z","2025-07-26T17:41:34Z","2025-07-26T17:41:35Z","2025-07-26T17:41:36Z","2025-07-26T17:41:37Z","2025-07-26T17:41:38Z","2025-07-26T17:41:39Z","2025-07-26T17:41:40Z","2025-07-26T17:41:41Z","2025-07-26T17:41:42Z","2025-07-26T17:41:43Z","2025-07-26T17:41:44Z","2025-07-26T17:41:45Z","2025-07-26T17:41:46Z","2025-07-26T17:41:47Z","2025-07-26T17:41:48Z","2025-07-26T17:41:49Z","2025-07-26T17:41:50Z","2025-07-26T17:41:51Z","2025-07-26T17:41:52Z","2025-07-26T17:41:53Z","2025-07-26T17:41:54Z","2025-07-26T17:41:55Z","2025-07-26T17:41:56Z","2025-07-26T17:41:57Z","2025-07-26T17:41:58Z","2025-07-26T17:41:59Z","2025-07-26T17:42:00Z","2025-07-26T17:42:01Z","2025-07-26T17:42:02Z","2025-07-26T17:42:03Z","2025-07-26T17:42:04Z","2025-07-26T17:42:05Z","2025-07-26T17:42:06Z","2025-07-26T17:42:07Z","2025-07-26T17:42:08Z","2025-07-26T17:42:09Z","2025-07-26T17:42:10Z","2025-07-26T17:42:11Z","2025-07-26T17:42:13Z","2025-07-26T17:42:14Z","2025-07-26T17:42:15Z","2025-07-26T17:42:16Z","2025-07-26T17:42:17Z","2025-07-26T17:42:18Z","2025-07-26T17:42:19Z","2025-07-26T17:42:20Z","2025-07-26T17:42:21Z","2025-07-26T17:42:22Z","2025-07-26T17:42:23Z","2025-07-26T17:42:24Z","2025-07-26T17:42:25Z","2025-07-26T17:42:26Z","2025-07-26T17:42:27Z","2025-07-26T17:42:28Z","2025-07-26T17:42:29Z","2025-07-26T17:42:30Z","2025-07-26T17:42:31Z","2025-07-26T17:42:32Z","2025-07-26T17:42:33Z","2025-07-26T17:42:34Z","2025-07-26T17:42:35Z","2025-07-26T17:42:36Z","2025-07-26T17:42:37Z","2025-07-26T17:42:38Z","2025-07-26T17:42:39Z","2025-07-26T17:42:40Z","2025-07-26T17:42:41Z","2025-07-26T17:42:42Z","2025-07-26T17:42:43Z","2025-07-26T17:42:44Z","2025-07-26T17:42:45Z","2025-07-26T17:42:46Z","2025-07-26T17:42:47Z","2025-07-26T17:42:48Z","2025-07-26T17:42:49Z","2025-07-26T17:42:50Z","2025-07-26T17:42:51Z","2025-07-26T17:42:52Z","2025-07-26T17:42:53Z","2025-07-26T17:42:54Z","2025-07-26T17:42:55Z","2025-07-26T17:42:56Z","2025-07-26T17:42:57Z","2025-07-26T17:42:58Z","2025-07-26T17:42:59Z","2025-07-26T17:43:00Z","2025-07-26T17:43:01Z","2025-07-26T17:43:02Z","2025-07-26T17:43:03Z","2025-07-26T17:43:04Z","2025-07-26T17:43:05Z","2025-07-26T17:43:06Z","2025-07-26T17:43:07Z","2025-07-26T17:43:08Z","2025-07-26T17:43:09Z","2025-07-26T17:43:10Z","2025-07-26T17:43:11Z","2025-07-26T17:43:12Z","2025-07-26T17:43:13Z","2025-07-26T17:43:14Z","2025-07-26T17:43:15Z","2025-07-26T17:43:16Z","2025-07-26T17:43:17Z","2025-07-26T17:43:18Z","2025-07-26T17:43:19Z","2025-07-26T17:43:20Z","2025-07-26T17:43:21Z","2025-07-26T17:43:22Z","2025-07-26T17:43:23Z","2025-07-26T17:43:24Z","2025-07-26T17:43:25Z","2025-07-26T17:43:26Z","2025-07-26T17:43:27Z","2025-07-26T17:43:28Z","2025-07-26T17:43:29Z","2025-07-26T17:43:30Z","2025-07-26T17:43:31Z","2025-07-26T17:43:32Z","2025-07-26T17:43:33Z","2025-07-26T17:43:34Z","2025-07-26T17:43:35Z","2025-07-26T17:43:36Z","2025-07-26T17:43:37Z","2025-07-26T17:43:38Z","2025-07-26T17:43:39Z","2025-07-26T17:43:40Z","2025-07-26T17:43:41Z","2025-07-26T17:43:42Z","2025-07-26T17:43:43Z","2025-07-26T17:43:44Z","2025-07-26T17:43:45Z","2025-07-26T17:43:46Z","2025-07-26T17:43:47Z","2025-07-26T17:43:48Z","2025-07-26T17:43:49Z","2025-07-26T17:43:50Z","2025-07-26T17:43:51Z","2025-07-26T17:43:52Z","2025-07-26T17:43:53Z","2025-07-26T17:43:54Z","2025-07-26T17:43:55Z","2025-07-26T17:43:56Z","2025-07-26T17:43:57Z","2025-07-26T17:43:58Z","2025-07-26T17:43:59Z","2025-07-26T17:44:00Z","2025-07-26T17:44:01Z","2025-07-26T17:44:02Z","2025-07-26T17:44:03Z","2025-07-26T17:44:04Z","2025-07-26T17:44:05Z","2025-07-26T17:44:06Z","2025-07-26T17:44:07Z","2025-07-26T17:44:08Z","2025-07-26T17:44:09Z","2025-07-26T17:44:10Z","2025-07-26T17:44:11Z","2025-07-26T17:44:12Z","2025-07-26T17:44:14Z","2025-07-26T17:44:15Z","2025-07-26T17:44:16Z","2025-07-26T17:44:17Z","2025-07-26T17:44:18Z","2025-07-26T17:44:19Z","2025-07-26T17:44:20Z","2025-07-26T17:44:21Z","2025-07-26T17:44:22Z","2025-07-26T17:44:23Z","2025-07-26T17:44:24Z","2025-07-26T17:44:25Z","2025-07-26T17:44:26Z","2025-07-26T17:44:27Z","2025-07-26T17:44:28Z","2025-07-26T17:44:29Z","2025-07-26T17:44:30Z","2025-07-26T17:44:31Z","2025-07-26T17:44:32Z","2025-07-26T17:44:33Z","2025-07-26T17:44:34Z","2025-07-26T17:44:35Z","2025-07-26T17:44:36Z","2025-07-26T17:44:37Z","2025-07-26T17:44:38Z","2025-07-26T17:44:39Z","2025-07-26T17:44:40Z","2025-07-26T17:44:41Z","2025-07-26T17:44:42Z","2025-07-26T17:44:43Z","2025-07-26T17:44:44Z","2025-07-26T17:44:45Z","2025-07-26T17:44:46Z","2025-07-26T17:44:47Z","2025-07-26T17:44:48Z","2025-07-26T17:44:49Z","2025-07-26T17:44:50Z","2025-07-26T17:44:51Z","2025-07-26T17:44:52Z","2025-07-26T17:44:53Z","2025-07-26T17:44:54Z","2025-07-26T17:44:55Z","2025-07-26T17:44:56Z","2025-07-26T17:44:57Z","2025-07-26T17:44:58Z","2025-07-26T17:44:59Z","2025-07-26T17:45:00Z","2025-07-26T17:45:01Z","2025-07-26T17:45:02Z","2025-07-26T17:45:03Z","2025-07-26T17:45:04Z","2025-07-26T17:45:05Z","2025-07-26T17:45:06Z","2025-07-26T17:45:07Z","2025-07-26T17:45:08Z","2025-07-26T17:45:09Z","2025-07-26T17:45:10Z","2025-07-26T17:45:11Z","2025-07-26T17:45:12Z","2025-07-26T17:45:13Z","2025-07-26T17:45:14Z","2025-07-26T17:45:15Z","2025-07-26T17:45:16Z","2025-07-26T17:45:17Z","2025-07-26T17:45:18Z","2025-07-26T17:45:19Z","2025-07-26T17:45:20Z","2025-07-26T17:45:21Z","2025-07-26T17:45:22Z","2025-07-26T17:45:23Z","2025-07-26T17:45:24Z","2025-07-26T17:45:25Z","2025-07-26T17:45:26Z","2025-07-26T17:45:27Z","2025-07-26T17:45:28Z","2025-07-26T17:45:29Z","2025-07-26T17:45:30Z","2025-07-26T17:45:31Z","2025-07-26T17:45:32Z","2025-07-26T17:45:33Z","2025-07-26T17:45:34Z","2025-07-26T17:45:35Z","2025-07-26T17:45:36Z","2025-07-26T17:45:37Z","2025-07-26T17:45:38Z","2025-07-26T17:45:39Z","2025-07-26T17:45:40Z","2025-07-26T17:45:41Z","2025-07-26T17:45:42Z","2025-07-26T17:45:43Z","2025-07-26T17:45:44Z","2025-07-26T17:45:45Z","2025-07-26T17:45:46Z","2025-07-26T17:45:47Z","2025-07-26T17:45:48Z","2025-07-26T17:45:49Z","2025-07-26T17:45:50Z","2025-07-26T17:45:51Z","2025-07-26T17:45:52Z","2025-07-26T17:45:53Z","2025-07-26T17:45:54Z","2025-07-26T17:45:55Z","2025-07-26T17:45:56Z","2025-07-26T17:45:57Z","2025-07-26T17:45:58Z","2025-07-26T17:45:59Z","2025-07-26T17:46:00Z","2025-07-26T17:46:01Z","2025-07-26T17:46:02Z","2025-07-26T17:46:03Z","2025-07-26T17:46:04Z","2025-07-26T17:46:05Z","2025-07-26T17:46:06Z","2025-07-26T17:46:07Z","2025-07-26T17:46:08Z","2025-07-26T17:46:09Z","2025-07-26T17:46:10Z","2025-07-26T17:46:11Z","2025-07-26T17:46:12Z","2025-07-26T17:46:13Z","2025-07-26T17:46:14Z","2025-07-26T17:46:15Z","2025-07-26T17:46:16Z","2025-07-26T17:46:17Z","2025-07-26T17:46:18Z","2025-07-26T17:46:19Z","2025-07-26T17:46:20Z","2025-07-26T17:46:21Z","2025-07-26T17:46:22Z","2025-07-26T17:46:23Z","2025-07-26T17:46:24Z","2025-07-26T17:46:25Z","2025-07-26T17:46:26Z","2025-07-26T17:46:27Z","2025-07-26T17:46:28Z","2025-07-26T17:46:29Z","2025-07-26T17:46:30Z","2025-07-26T17:46:31Z","2025-07-26T17:46:32Z","2025-07-26T17:46:33Z","2025-07-26T17:46:34Z","2025-07-26T17:46:35Z","2025-07-26T17:46:36Z","2025-07-26T17:46:37Z","2025-07-26T17:46:38Z","2025-07-26T17:46:39Z","2025-07-26T17:46:40Z","2025-07-26T17:46:41Z","2025-07-26T17:46:42Z","2025-07-26T17:46:43Z","2025-07-26T17:46:44Z","2025-07-26T17:46:45Z","2025-07-26T17:46:46Z","2025-07-26T17:46:47Z","2025-07-26T17:46:48Z","2025-07-26T17:46:49Z","2025-07-26T17:46:50Z","2025-07-26T17:46:51Z","2025-07-26T17:46:52Z","2025-07-26T17:46:53Z","2025-07-26T17:46:54Z","2025-07-26T17:46:55Z","2025-07-26T17:46:56Z","2025-07-26T17:46:57Z","2025-07-26T17:46:58Z","2025-07-26T17:46:59Z","2025-07-26T17:47:00Z","2025-07-26T17:47:01Z","2025-07-26T17:47:02Z","2025-07-26T17:47:03Z","2025-07-26T17:47:04Z","2025-07-26T17:47:05Z","2025-07-26T17:47:06Z","2025-07-26T17:47:07Z","2025-07-26T17:47:08Z","2025-07-26T17:47:09Z","2025-07-26T17:47:10Z","2025-07-26T17:47:11Z","2025-07-26T17:47:12Z","2025-07-26T17:47:13Z","2025-07-26T17:47:14Z","2025-07-26T17:47:15Z","2025-07-26T17:47:16Z","2025-07-26T17:47:17Z","2025-07-26T17:47:18Z","2025-07-26T17:47:19Z","2025-07-26T17:47:20Z","2025-07-26T17:47:21Z","2025-07-26T17:47:22Z","2025-07-26T17:47:23Z","2025-07-26T17:47:24Z","2025-07-26T17:47:25Z","2025-07-26T17:47:26Z","2025-07-26T17:47:27Z","2025-07-26T17:47:28Z","2025-07-26T17:47:29Z","2025-07-26T17:47:30Z","2025-07-26T17:47:31Z","2025-07-26T17:47:32Z","2025-07-26T17:47:33Z","2025-07-26T17:47:34Z","2025-07-26T17:47:35Z","2025-07-26T17:47:36Z","2025-07-26T17:47:37Z","2025-07-26T17:47:38Z","2025-07-26T17:47:39Z","2025-07-26T17:47:40Z","2025-07-26T17:47:41Z","2025-07-26T17:47:42Z","2025-07-26T17:47:43Z","2025-07-26T17:47:44Z","2025-07-26T17:47:45Z","2025-07-26T17:47:46Z","2025-07-26T17:47:47Z","2025-07-26T17:47:48Z","2025-07-26T17:47:49Z","2025-07-26T17:47:50Z","2025-07-26T17:47:51Z","2025-07-26T17:47:52Z","2025-07-26T17:47:53Z","2025-07-26T17:47:54Z","2025-07-26T17:47:55Z","2025-07-26T17:47:56Z","2025-07-26T17:47:57Z","2025-07-26T17:47:58Z","2025-07-26T17:47:59Z","2025-07-26T17:48:00Z","2025-07-26T17:48:01Z","2025-07-26T17:48:02Z","2025-07-26T17:48:03Z","2025-07-26T17:48:04Z","2025-07-26T17:48:05Z","2025-07-26T17:48:06Z","2025-07-26T17:48:07Z","2025-07-26T17:48:08Z","2025-07-26T17:48:09Z","2025-07-26T17:48:10Z","2025-07-26T17:48:11Z","2025-07-26T17:48:12Z","2025-07-26T17:48:13Z","2025-07-26T17:48:14Z","2025-07-26T17:48:15Z","2025-07-26T17:48:16Z","2025-07-26T17:48:17Z","2025-07-26T17:48:18Z","2025-07-26T17:48:19Z","2025-07-26T17:48:20Z","2025-07-26T17:48:21Z","2025-07-26T17:48:22Z","2025-07-26T17:48:23Z","2025-07-26T17:48:24Z","2025-07-26T17:48:25Z","2025-07-26T17:48:26Z","2025-07-26T17:48:27Z","2025-07-26T17:48:28Z","2025-07-26T17:48:29Z","2025-07-26T17:48:30Z","2025-07-26T17:48:31Z","2025-07-26T17:48:32Z","2025-07-26T17:48:33Z","2025-07-26T17:48:34Z","2025-07-26T17:48:35Z","2025-07-26T17:48:36Z","2025-07-26T17:48:37Z","2025-07-26T17:48:38Z","2025-07-26T17:48:39Z","2025-07-26T17:48:40Z","2025-07-26T17:48:41Z","2025-07-26T17:48:42Z","2025-07-26T17:48:43Z","2025-07-26T17:48:44Z","2025-07-26T17:48:45Z","2025-07-26T17:48:46Z","2025-07-26T17:48:47Z","2025-07-26T17:48:48Z","2025-07-26T17:48:49Z","2025-07-26T17:48:50Z","2025-07-26T17:48:51Z","2025-07-26T17:48:52Z","2025-07-26T17:48:53Z","2025-07-26T17:48:54Z","2025-07-26T17:48:55Z","2025-07-26T17:48:56Z","2025-07-26T17:48:57Z","2025-07-26T17:48:58Z","2025-07-26T17:48:59Z","2025-07-26T17:49:00Z","2025-07-26T17:49:01Z","2025-07-26T17:49:02Z","2025-07-26T17:49:03Z","2025-07-26T17:49:04Z","2025-07-26T17:49:05Z","2025-07-26T17:49:06Z","2025-07-26T17:49:07Z","2025-07-26T17:49:08Z","2025-07-26T17:49:09Z","2025-07-26T17:49:10Z","2025-07-26T17:49:11Z","2025-07-26T17:49:12Z","2025-07-26T17:49:13Z","2025-07-26T17:49:14Z","2025-07-26T17:49:15Z","2025-07-26T17:49:16Z","2025-07-26T17:49:17Z","2025-07-26T17:49:18Z","2025-07-26T17:49:19Z","2025-07-26T17:49:20Z","2025-07-26T17:49:21Z","2025-07-26T17:49:22Z","2025-07-26T17:49:23Z","2025-07-26T17:49:24Z","2025-07-26T17:49:25Z","2025-07-26T17:49:26Z","2025-07-26T17:49:27Z","2025-07-26T17:49:28Z","2025-07-26T17:49:29Z","2025-07-26T17:49:30Z","2025-07-26T17:49:31Z","2025-07-26T17:49:32Z","2025-07-26T17:49:33Z","2025-07-26T17:49:34Z","2025-07-26T17:49:35Z","2025-07-26T17:49:36Z","2025-07-26T17:49:37Z","2025-07-26T17:49:38Z","2025-07-26T17:49:39Z","2025-07-26T17:49:40Z","2025-07-26T17:49:41Z","2025-07-26T17:49:42Z","2025-07-26T17:49:43Z","2025-07-26T17:49:44Z","2025-07-26T17:49:45Z","2025-07-26T17:49:46Z","2025-07-26T17:49:47Z","2025-07-26T17:49:48Z","2025-07-26T17:49:49Z","2025-07-26T17:49:50Z","2025-07-26T17:49:51Z","2025-07-26T17:49:52Z","2025-07-26T17:49:53Z","2025-07-26T17:49:54Z","2025-07-26T17:49:55Z","2025-07-26T17:49:56Z","2025-07-26T17:49:57Z","2025-07-26T17:49:58Z","2025-07-26T17:49:59Z","2025-07-26T17:50:00Z","2025-07-26T17:50:01Z","2025-07-26T17:50:02Z","2025-07-26T17:50:03Z","2025-07-26T17:50:04Z","2025-07-26T17:50:05Z","2025-07-26T17:50:06Z","2025-07-26T17:50:07Z","2025-07-26T17:50:08Z","2025-07-26T17:50:09Z","2025-07-26T17:50:10Z","2025-07-26T17:50:11Z","2025-07-26T17:50:12Z","2025-07-26T17:50:13Z","2025-07-26T17:50:14Z","2025-07-26T17:50:15Z","2025-07-26T17:50:16Z","2025-07-26T17:50:17Z","2025-07-26T17:50:18Z","2025-07-26T17:50:19Z","2025-07-26T17:50:20Z","2025-07-26T17:50:21Z","2025-07-26T17:50:22Z","2025-07-26T17:50:23Z","2025-07-26T17:50:24Z","2025-07-26T17:50:25Z","2025-07-26T17:50:26Z","2025-07-26T17:50:27Z","2025-07-26T17:50:28Z","2025-07-26T17:50:29Z","2025-07-26T17:50:30Z","2025-07-26T17:50:31Z","2025-07-26T17:50:32Z","2025-07-26T17:50:33Z","2025-07-26T17:50:34Z","2025-07-26T17:50:35Z","2025-07-26T17:50:36Z","2025-07-26T17:50:37Z","2025-07-26T17:50:38Z","2025-07-26T17:50:39Z","2025-07-26T17:50:40Z","2025-07-26T17:50:41Z","2025-07-26T17:50:42Z","2025-07-26T17:50:43Z","2025-07-26T17:50:44Z","2025-07-26T17:50:45Z","2025-07-26T17:50:46Z","2025-07-26T17:50:47Z","2025-07-26T17:50:48Z","2025-07-26T17:50:49Z","2025-07-26T17:50:50Z","2025-07-26T17:50:51Z","2025-07-26T17:50:52Z","2025-07-26T17:50:53Z","2025-07-26T17:50:54Z","2025-07-26T17:50:55Z","2025-07-26T17:50:56Z","2025-07-26T17:50:57Z","2025-07-26T17:50:58Z","2025-07-26T17:50:59Z","2025-07-26T17:51:00Z","2025-07-26T17:51:01Z","2025-07-26T17:51:02Z","2025-07-26T17:51:03Z"],"heartRates":[87,87,87,87,87,87,87,87,87,87,87,87,87,87,87,87,87,87,87,87,87,87,87,87,87,87,87,87,87,87,87,87,87,87,87,87,87,87,87,87,87,87,87,87,87,87,87,87,87,87,87,87,87,87,87,87,87,87,87,87,87,87,87,87,87,87,87,87,87,87,87,87,87,87,87,87,87,87,87,87,87,87,87,87,87,87,87,87,87,87,87,87,87,87,87,87,87,87,87,87,87,87,87,87,87,87,87,87,87,87,87,87,87,87,87,87,93,93,93,93,93,93,93,93,93,93,93,93,93,93,93,93,93,93,93,93,93,93,93,93,93,93,93,93,93,93,93,93,93,93,93,93,93,93,93,93,93,93,93,93,93,93,93,93,93,93,93,93,93,93,93,93,93,93,93,93,93,93,93,93,93,93,93,93,93,93,93,93,93,93,93,93,93,93,93,93,93,93,93,93,93,93,93,93,93,93,93,93,93,93,93,93,93,93,93,93,93,93,93,93,93,93,93,93,93,93,93,93,93,93,93,93,93,93,93,93,93,93,93,93,93,93,93,93,93,93,93,93,93,93,93,93,93,93,93,93,93,93,93,93,93,93,93,93,93,93,93,93,93,93,90,90,90,90,90,90,90,90,90,90,90,90,90,90,90,90,90,90,90,90,90,90,90,90,90,90,90,90,90,90,90,90,90,90,90,90,90,90,90,90,90,90,90,90,90,90,90,90,90,90,90,90,90,90,90,90,90,90,90,90,90,90,90,90,90,90,90,90,90,90,90,90,90,90,90,90,90,90,90,90,90,90,90,90,90,90,90,90,90,90,90,90,90,90,90,90,90,90,90,90,90,90,90,90,90,90,90,90,90,90,90,90,90,90,90,90,90,90,90,90,90,90,90,90,90,90,90,90,90,90,90,90,90,88,88,88,88,88,85,85,85,85,84,84,84,84,84,84,84,85,85,85,85,85,85,85,85,85,83,83,83,83,83,83,83,83,83,83,83,83,83,83,83,83,83,83,83,83,83,83,83,83,83,83,83,83,83,83,83,83,83,83,83,83,83,83,83,83,83,83,83,83,83,83,83,83,83,83,83,83,83,83,83,83,83,83,83,83,83,83,83,83,83,83,83,83,83,83,83,83,83,83,83,83,83,83,83,83,83,83,83,83,83,83,83,83,83,83,83,83,83,83,83,83,83,83,83,83,83,83,83,83,83,83,83,83,83,83,83,83,83,83,83,83,83,83,83,83,83,83,83,83,83,83,83,83,83,83,83,83,83,83,83,83,83,83,79,79,79,79,79,79,79,79,79,79,79,79,79,79,79,79,79,79,79,79,79,79,79,79,79,79,79,79,79,79,79,79,79,79,79,79,79,79,79,79,79,79,79,79,79,79,79,79,79,79,79,79,79,79,79,79,79,79,79,79,79,79,79,79,79,79,79,79,79,79,79,79,79,79,79,79,79,79,79,79,79,79,79,79,79,79,79,79,79,79,79,79,79,79,79,79,79,79,79,79,79,79,79,79,79,79,79,79,79,79,79,79,79,79,79,79,79,79,79,79,79,79,79,79,79,79,79,79,79,79,79,79,79,90,90,90,90,90,90,90,90,90,88,88,88,88,88,88,84,84,84,84,84,84,84,84,84,84,82,82,81,81,81,81,81,81,80,80,80,81,81,81,81,81,81,81,81,81,81,81,81,81,81,81,81,81,81,82,82,82,82,81,81,81,81,81,81,79,79,79,79,79,79,80,80,80,80,80,80,80,80,80,80,80,80,80,80,80,80,80,80,80,82,83,83,83,83,83,83,83,84,84,84,84,84,84,82,82,82,82,82,82,82,82,82,82,83,83,83,83,83,85,85,85,85,85,86,86,86,86,86,86,86,86,86,86,86,86,86,86,86,86,86,86,85,85,85,85,85,85,85,85,85,84,84,84,84,84,84,83,83,83,83,86,86,86,86,86,86,86,87,87,87,87,87,87,87,87,87,87,86,86,86,86,88,88,88,88,88,90,90,90,90,90,90,90,89,89,89,88,88,88,88,88,85,85,85,85,85,85,85,86,86,85,85,85,85,85,85,85,85,85,85,85,85,85,85,85,85,85,88,88,88,87,87,87,87,87,86,86,86,86,86,86,86,86,87,87,87,87,86,86,86,86,86,86,85,85,84,84,84,84,84,84,85,85,85,85,85,85,87,87,87,87,87,87,87,87,87,87,87,87,87,87,87,88,88,88,88,88,89,89,89,89,89,89,89,89,89,89,89,89,89,88,88,88,88,88,88,88,88,88,88,88,88,88,90,90,90,90,90,90,90,87,87,87,87,87,87,87,84,84,84,84,84,84,84,85,85,85,85,85,85,85,85,85,81,82,82,82,82,82,82,82,82,82,85,85,85,85,85,85,85,85,82,82,82,83,83,83,83,83,81,81,81,81,81,81,81,81,81,79,79,81,81,81,81,81,81,81,81,82,82,82,82,82,83,83,83,83,83,83,83,83,83,83,84,84,84,84,84,85,85,85,85,85,85,85,85,85,85,84,84,85,85,85,85,85,85,86,86,86,86,86,86,86,87,87,87,87,87,87,88,88,88,88,88,88,88,88,88,89,89,89,90,90,90,90,90,90,90,87,87,87,87,87,87,87,87,87,88,88,88,88,88,88,87,88,88,88,88,88,88,90,90,90,90,90,90,90,90,91,91,91,91,91,91,91,91,91,91,89,89,89,89,88,88,88,88,88,88,88,89,89,89,89,89,89,89,89,89,90,90,90,90,90,90,90,90,90,89,89,90,90,90,90,90,90,90,90,90,90,90,90,90,90,90,90,90,90,90,90,89,89,89,89,89,89,87,87,87,87,87,87,87,87,88]},"geometry":{"type":"LineString","coordinates":[[5.226832,46.630077,0],[5.226825,46.630078,0],[5.226818,46.630078,0],[5.226811,46.630079,0],[5.226804,46.63008,0],[5.226797,46.63008,0],[5.22679,46.630081,0],[5.226783,46.630082,0],[5.226763,46.630079,0],[5.226753,46.630077,0],[5.226742,46.630076,0],[5.226732,46.630074,0],[5.226722,46.630072,0],[5.226712,46.63007,0],[5.226701,46.630069,0],[5.226691,46.630067,0],[5.226681,46.630065,0],[5.226671,46.630063,0],[5.22666,46.630062,0],[5.22665,46.63006,0],[5.22664,46.630058,0],[5.22663,46.630056,0],[5.226619,46.630054,0],[5.226609,46.630053,0],[5.226599,46.630051,0],[5.226589,46.630049,0],[5.226578,46.630047,0],[5.226568,46.630046,0],[5.226558,46.630044,0],[5.226548,46.630042,0],[5.226537,46.63004,0],[5.226527,46.630038,0],[5.226517,46.630037,0],[5.226507,46.630035,0],[5.226496,46.630033,0],[5.226486,46.630031,0],[5.226476,46.63003,0],[5.226466,46.630028,0],[5.226455,46.630026,0],[5.226445,46.630024,0],[5.226435,46.630023,0],[5.226425,46.630021,0],[5.226414,46.630019,0],[5.226404,46.630017,0],[5.226394,46.630015,0],[5.226384,46.630014,0],[5.226373,46.630012,0],[5.226363,46.63001,0],[5.226353,46.630008,0],[5.226343,46.630007,0],[5.226332,46.630005,0],[5.226322,46.630003,0],[5.226312,46.630001,0],[5.226302,46.63,0],[5.226291,46.629998,0],[5.226281,46.629996,0],[5.226271,46.629994,0],[5.226261,46.629992,0],[5.22625,46.629991,0],[5.22624,46.629989,0],[5.22623,46.629987,0],[5.22622,46.629985,0],[5.226209,46.629984,0],[5.226199,46.629982,0],[5.226189,46.62998,0],[5.226179,46.629978,0],[5.226168,46.629977,0],[5.22615,46.629967,0],[5.226141,46.629962,0],[5.226131,46.629957,0],[5.226122,46.629952,0],[5.226113,46.629947,0],[5.226104,46.629942,0],[5.226095,46.629937,0],[5.226085,46.629932,0],[5.226076,46.629927,0],[5.226067,46.629922,0],[5.226058,46.629917,0],[5.226049,46.629912,0],[5.226039,46.629907,0],[5.22603,46.629902,0],[5.226021,46.629897,0],[5.226012,46.629892,0],[5.226003,46.629887,0],[5.225993,46.629882,0],[5.225984,46.629877,0],[5.225975,46.629872,0],[5.225966,46.629867,0],[5.225957,46.629862,0],[5.225947,46.629857,0],[5.225938,46.629852,0],[5.225929,46.629847,0],[5.22592,46.629842,0],[5.225911,46.629837,0],[5.225901,46.629832,0],[5.225892,46.629827,0],[5.225883,46.629822,0],[5.225874,46.629817,0],[5.225864,46.629812,0],[5.225855,46.629807,0],[5.225846,46.629802,0],[5.225837,46.629797,0],[5.225828,46.629792,0],[5.225818,46.629787,0],[5.225809,46.629782,0],[5.2258,46.629777,0],[5.225791,46.629772,0],[5.225782,46.629767,0],[5.225772,46.629762,0],[5.225763,46.629757,0],[5.225754,46.629752,0],[5.225745,46.629747,0],[5.225736,46.629742,0],[5.225726,46.629737,0],[5.225717,46.629732,0],[5.225708,46.629727,0],[5.225699,46.629722,0],[5.22569,46.629717,0],[5.22568,46.629712,0],[5.225671,46.629707,0],[5.225662,46.629702,0],[5.225653,46.629697,0],[5.225644,46.629692,0],[5.225634,46.629687,0],[5.225625,46.629682,0],[5.225616,46.629678,0],[5.225599,46.629673,0],[5.225581,46.629669,0],[5.225563,46.629666,0],[5.225544,46.629663,0],[5.225525,46.62966,0],[5.225487,46.629654,0],[5.225468,46.629652,0],[5.225449,46.62965,0],[5.225431,46.629648,0],[5.225412,46.629646,0],[5.225395,46.629644,0],[5.225377,46.629641,0],[5.22536,46.629639,0],[5.225344,46.629636,0],[5.225328,46.629634,0],[5.225312,46.629631,0],[5.225297,46.629629,0],[5.225282,46.629627,0],[5.225265,46.629625,0],[5.225247,46.629622,0],[5.225229,46.62962,0],[5.22521,46.629617,0],[5.22519,46.629615,0],[5.225169,46.629612,0],[5.225148,46.62961,0],[5.225127,46.629607,0],[5.225106,46.629605,0],[5.225085,46.629602,0],[5.225063,46.629599,0],[5.225042,46.629597,0],[5.225021,46.629594,0],[5.225,46.629591,0],[5.22498,46.629588,0],[5.224959,46.629584,0],[5.224939,46.629581,0],[5.224919,46.629578,0],[5.224899,46.629574,0],[5.224879,46.62957,0],[5.22486,46.629566,0],[5.22484,46.629562,0],[5.224821,46.629558,0],[5.224801,46.629553,0],[5.224781,46.629548,0],[5.224761,46.629543,0],[5.224742,46.629539,0],[5.224724,46.629534,0],[5.224705,46.629529,0],[5.224688,46.629524,0],[5.22467,46.629519,0],[5.224653,46.629514,0],[5.224636,46.62951,0],[5.224619,46.629505,0],[5.224602,46.629501,0],[5.224586,46.629497,0],[5.22457,46.629493,0],[5.22454,46.629487,0],[5.224526,46.629484,0],[5.224513,46.629482,0],[5.2245,46.629479,0],[5.224467,46.629475,0],[5.224452,46.629474,0],[5.224437,46.629473,0],[5.224422,46.629472,0],[5.224407,46.629471,0],[5.224392,46.62947,0],[5.224377,46.629469,0],[5.224362,46.629468,0],[5.224347,46.629468,0],[5.224333,46.629467,0],[5.224318,46.629466,0],[5.224303,46.629465,0],[5.224288,46.629464,0],[5.224273,46.629463,0],[5.224258,46.629462,0],[5.224243,46.629461,0],[5.224228,46.62946,0],[5.224213,46.629459,0],[5.224198,46.629458,0],[5.224183,46.629457,0],[5.224168,46.629456,0],[5.224153,46.629455,0],[5.224138,46.629454,0],[5.224123,46.629453,0],[5.224108,46.629453,0],[5.224093,46.629452,0],[5.224078,46.629451,0],[5.224063,46.62945,0],[5.224048,46.629449,0],[5.224034,46.629448,0],[5.224019,46.629447,0],[5.224004,46.629446,0],[5.223989,46.629445,0],[5.223974,46.629444,0],[5.223959,46.629443,0],[5.223944,46.629442,0],[5.223929,46.629441,0],[5.223914,46.62944,0],[5.223899,46.629439,0],[5.223884,46.629438,0],[5.223869,46.629437,0],[5.223854,46.629437,0],[5.223839,46.629436,0],[5.223824,46.629435,0],[5.223809,46.629434,0],[5.223794,46.629433,0],[5.223779,46.629432,0],[5.223764,46.629431,0],[5.22375,46.62943,0],[5.223735,46.629429,0],[5.22372,46.629428,0],[5.223705,46.629427,0],[5.22369,46.629426,0],[5.223675,46.629425,0],[5.22366,46.629424,0],[5.223645,46.629423,0],[5.22363,46.629422,0],[5.223615,46.629422,0],[5.223585,46.629417,0],[5.223573,46.629416,0],[5.223561,46.629414,0],[5.22355,46.629413,0],[5.223538,46.629411,0],[5.223526,46.62941,0],[5.223514,46.629408,0],[5.223502,46.629407,0],[5.22349,46.629405,0],[5.223479,46.629404,0],[5.223467,46.629402,0],[5.223455,46.629401,0],[5.223443,46.629399,0],[5.223431,46.629398,0],[5.223419,46.629396,0],[5.223408,46.629395,0],[5.223396,46.629393,0],[5.223384,46.629392,0],[5.223372,46.62939,0],[5.22336,46.629389,0],[5.223348,46.629387,0],[5.223337,46.629386,0],[5.223325,46.629384,0],[5.223313,46.629383,0],[5.223301,46.629381,0],[5.223289,46.62938,0],[5.223277,46.629378,0],[5.223266,46.629377,0],[5.223254,46.629375,0],[5.223242,46.629374,0],[5.22323,46.629372,0],[5.223209,46.629367,0],[5.223201,46.629365,0],[5.223193,46.629364,0],[5.223185,46.629362,0],[5.223177,46.62936,0],[5.223169,46.629358,0],[5.22316,46.629357,0],[5.223152,46.629355,0],[5.223144,46.629353,0],[5.223136,46.629351,0],[5.223128,46.629349,0],[5.22312,46.629348,0],[5.223112,46.629346,0],[5.223104,46.629344,0],[5.223096,46.629342,0],[5.223088,46.629341,0],[5.22308,46.629339,0],[5.223072,46.629337,0],[5.223063,46.629335,0],[5.223055,46.629334,0],[5.223047,46.629332,0],[5.223039,46.62933,0],[5.223031,46.629328,0],[5.223023,46.629326,0],[5.223015,46.629325,0],[5.223007,46.629323,0],[5.222999,46.629321,0],[5.222991,46.629319,0],[5.222983,46.629318,0],[5.222975,46.629316,0],[5.222966,46.629314,0],[5.222952,46.629312,0],[5.222946,46.629311,0],[5.222939,46.62931,0],[5.222933,46.629309,0],[5.222926,46.629309,0],[5.222919,46.629308,0],[5.222913,46.629307,0],[5.222906,46.629306,0],[5.222899,46.629305,0],[5.222893,46.629304,0],[5.222886,46.629303,0],[5.22288,46.629302,0],[5.222873,46.629302,0],[5.222866,46.629301,0],[5.22286,46.6293,0],[5.222853,46.629299,0],[5.222847,46.629298,0],[5.22284,46.629297,0],[5.222833,46.629296,0],[5.222827,46.629295,0],[5.22282,46.629294,0],[5.222813,46.629294,0],[5.222807,46.629293,0],[5.2228,46.629292,0],[5.222794,46.629291,0],[5.222787,46.62929,0],[5.22278,46.629289,0],[5.222774,46.629288,0],[5.222767,46.629287,0],[5.22276,46.629287,0],[5.222737,46.629284,0],[5.222724,46.629284,0],[5.222712,46.629283,0],[5.2227,46.629283,0],[5.222687,46.629282,0],[5.222675,46.629282,0],[5.222663,46.629281,0],[5.22265,46.629281,0],[5.222638,46.62928,0],[5.222625,46.62928,0],[5.222613,46.629279,0],[5.222601,46.629279,0],[5.222588,46.629278,0],[5.222576,46.629278,0],[5.222564,46.629277,0],[5.222551,46.629277,0],[5.222539,46.629276,0],[5.222527,46.629276,0],[5.222514,46.629275,0],[5.222502,46.629275,0],[5.22249,46.629274,0],[5.222477,46.629274,0],[5.222465,46.629273,0],[5.222452,46.629273,0],[5.22244,46.629272,0],[5.222428,46.629272,0],[5.222415,46.629271,0],[5.222403,46.629271,0],[5.222391,46.62927,0],[5.222378,46.62927,0],[5.222366,46.629269,0],[5.222354,46.629276,0],[5.222352,46.629282,0],[5.222351,46.629288,0],[5.222349,46.629293,0],[5.222348,46.629299,0],[5.222346,46.629305,0],[5.222345,46.629311,0],[5.222344,46.629317,0],[5.222342,46.629323,0],[5.222341,46.629329,0],[5.222339,46.629335,0],[5.222338,46.62934,0],[5.222336,46.629346,0],[5.222335,46.629352,0],[5.222333,46.629358,0],[5.222332,46.629364,0],[5.222331,46.62937,0],[5.222329,46.629376,0],[5.222328,46.629382,0],[5.222326,46.629387,0],[5.222325,46.629393,0],[5.222323,46.629399,0],[5.222322,46.629405,0],[5.222321,46.629411,0],[5.222319,46.629417,0],[5.222318,46.629423,0],[5.222316,46.629429,0],[5.222315,46.629434,0],[5.222313,46.62944,0],[5.222312,46.629446,0],[5.222311,46.629452,0],[5.222307,46.629464,0],[5.22231,46.62947,0],[5.222314,46.629475,0],[5.222317,46.62948,0],[5.22232,46.629486,0],[5.222323,46.629491,0],[5.222327,46.629496,0],[5.22233,46.629502,0],[5.222333,46.629507,0],[5.222336,46.629512,0],[5.22234,46.629517,0],[5.222343,46.629523,0],[5.222346,46.629528,0],[5.222349,46.629533,0],[5.222352,46.629539,0],[5.222356,46.629544,0],[5.222359,46.629549,0],[5.222362,46.629555,0],[5.222365,46.62956,0],[5.222369,46.629565,0],[5.222372,46.629571,0],[5.222375,46.629576,0],[5.222378,46.629581,0],[5.222382,46.629587,0],[5.222385,46.629592,0],[5.222388,46.629597,0],[5.222391,46.629603,0],[5.222395,46.629608,0],[5.222398,46.629613,0],[5.222401,46.629619,0],[5.222403,46.629619,0],[5.222403,46.629616,0],[5.222404,46.629614,0],[5.222404,46.629612,0],[5.222405,46.62961,0],[5.222406,46.629607,0],[5.222406,46.629605,0],[5.222407,46.629603,0],[5.222407,46.629601,0],[5.222408,46.629598,0],[5.222408,46.629596,0],[5.222409,46.629594,0],[5.22241,46.629591,0],[5.22241,46.629589,0],[5.222411,46.629587,0],[5.222411,46.629585,0],[5.222412,46.629582,0],[5.222413,46.62958,0],[5.222413,46.629578,0],[5.222414,46.629576,0],[5.222414,46.629573,0],[5.222415,46.629571,0],[5.222416,46.629569,0],[5.222416,46.629566,0],[5.222417,46.629564,0],[5.222417,46.629562,0],[5.222418,46.62956,0],[5.222418,46.629557,0],[5.222419,46.629555,0],[5.22242,46.629553,0],[5.22242,46.62955,0],[5.222421,46.629548,0],[5.222421,46.629546,0],[5.222422,46.629544,0],[5.222423,46.629541,0],[5.222423,46.629539,0],[5.222424,46.629537,0],[5.222424,46.629535,0],[5.222425,46.629532,0],[5.222426,46.62953,0],[5.222426,46.629528,0],[5.222427,46.629525,0],[5.222427,46.629523,0],[5.222428,46.629521,0],[5.222428,46.629519,0],[5.222429,46.629516,0],[5.22243,46.629514,0],[5.22243,46.629512,0],[5.222431,46.62951,0],[5.222431,46.629507,0],[5.222432,46.629505,0],[5.222435,46.629492,0],[5.222437,46.629485,0],[5.222439,46.629478,0],[5.222441,46.629471,0],[5.222442,46.629465,0],[5.222444,46.629458,0],[5.222446,46.629451,0],[5.222448,46.629444,0],[5.22245,46.629437,0],[5.222452,46.62943,0],[5.222454,46.629423,0],[5.222456,46.629416,0],[5.222458,46.62941,0],[5.222459,46.629403,0],[5.222461,46.629396,0],[5.222463,46.629389,0],[5.222465,46.629382,0],[5.222467,46.629375,0],[5.222469,46.629368,0],[5.222471,46.629361,0],[5.222473,46.629354,0],[5.222474,46.629348,0],[5.222476,46.629341,0],[5.222478,46.629334,0],[5.22248,46.629327,0],[5.222482,46.62932,0],[5.222486,46.629316,0],[5.222489,46.629313,0],[5.222492,46.629309,0],[5.222495,46.629306,0],[5.222498,46.629303,0],[5.222501,46.6293,0],[5.222504,46.629297,0],[5.222507,46.629294,0],[5.22251,46.62929,0],[5.222513,46.629287,0],[5.222516,46.629284,0],[5.222519,46.629281,0],[5.222522,46.629278,0],[5.222525,46.629274,0],[5.222528,46.629271,0],[5.222531,46.629268,0],[5.222534,46.629265,0],[5.222537,46.629262,0],[5.22254,46.629258,0],[5.222543,46.629255,0],[5.222546,46.629252,0],[5.222549,46.629249,0],[5.222552,46.629246,0],[5.222555,46.629243,0],[5.222558,46.629239,0],[5.222561,46.629236,0],[5.222564,46.629233,0],[5.222567,46.62923,0],[5.22257,46.629227,0],[5.222573,46.629223,0],[5.222576,46.62922,0],[5.222579,46.629217,0],[5.222582,46.629214,0],[5.222585,46.629211,0],[5.222588,46.629208,0],[5.222591,46.629204,0],[5.222594,46.629201,0],[5.222597,46.629198,0],[5.2226,46.629195,0],[5.222603,46.629192,0],[5.222606,46.629188,0],[5.222609,46.629185,0],[5.222612,46.629182,0],[5.222615,46.629179,0],[5.222618,46.629176,0],[5.222621,46.629173,0],[5.222624,46.629169,0],[5.222627,46.629166,0],[5.22263,46.629163,0],[5.222633,46.62916,0],[5.222636,46.629157,0],[5.222639,46.629153,0],[5.222642,46.62915,0],[5.222645,46.629147,0],[5.222648,46.629144,0],[5.222651,46.629141,0],[5.222654,46.629137,0],[5.222657,46.629134,0],[5.22266,46.629131,0],[5.222663,46.629128,0],[5.222666,46.629125,0],[5.222669,46.629122,0],[5.222672,46.629118,0],[5.222675,46.629115,0],[5.222678,46.629112,0],[5.222681,46.629109,0],[5.222684,46.629106,0],[5.222687,46.629102,0],[5.22269,46.629099,0],[5.222693,46.629096,0],[5.222696,46.629093,0],[5.222699,46.62909,0],[5.222702,46.629087,0],[5.222705,46.629083,0],[5.222708,46.62908,0],[5.222711,46.629077,0],[5.222714,46.629074,0],[5.222717,46.629071,0],[5.22272,46.629067,0],[5.222723,46.629064,0],[5.222726,46.629061,0],[5.222729,46.629058,0],[5.222732,46.629055,0],[5.222735,46.629051,0],[5.222738,46.629048,0],[5.222741,46.629045,0],[5.222744,46.629042,0],[5.222747,46.629039,0],[5.22275,46.629036,0],[5.222753,46.629032,0],[5.222756,46.629029,0],[5.222759,46.629026,0],[5.222752,46.62901,0],[5.222745,46.629004,0],[5.222737,46.628999,0],[5.222729,46.628993,0],[5.222721,46.628988,0],[5.222714,46.628982,0],[5.222706,46.628977,0],[5.222698,46.628972,0],[5.222691,46.628966,0],[5.222683,46.628961,0],[5.222675,46.628955,0],[5.222667,46.62895,0],[5.22266,46.628944,0],[5.222652,46.628939,0],[5.222644,46.628934,0],[5.222637,46.628928,0],[5.222629,46.628923,0],[5.222621,46.628917,0],[5.222613,46.628912,0],[5.222606,46.628906,0],[5.222598,46.628901,0],[5.22259,46.628895,0],[5.222583,46.62889,0],[5.222575,46.628885,0],[5.222567,46.628879,0],[5.222559,46.628874,0],[5.222552,46.628868,0],[5.222544,46.628863,0],[5.222536,46.628857,0],[5.222528,46.628852,0],[5.222513,46.62885,0],[5.222513,46.62885,0],[5.222512,46.62885,0],[5.222511,46.62885,0],[5.222511,46.628849,0],[5.22251,46.628849,0],[5.222509,46.628849,0],[5.222509,46.628849,0],[5.222508,46.628849,0],[5.222508,46.628849,0],[5.222507,46.628849,0],[5.222506,46.628849,0],[5.222506,46.628849,0],[5.222505,46.628848,0],[5.222504,46.628848,0],[5.222504,46.628848,0],[5.222503,46.628848,0],[5.222502,46.628848,0],[5.222502,46.628848,0],[5.222501,46.628848,0],[5.2225,46.628848,0],[5.2225,46.628848,0],[5.222499,46.628847,0],[5.222499,46.628847,0],[5.222498,46.628847,0],[5.222497,46.628847,0],[5.222497,46.628847,0],[5.222496,46.628847,0],[5.222495,46.628847,0],[5.222495,46.628847,0],[5.222494,46.628847,0],[5.222518,46.628858,0],[5.222522,46.628866,0],[5.222526,46.628874,0],[5.22253,46.628882,0],[5.222534,46.62889,0],[5.222537,46.628898,0],[5.222541,46.628906,0],[5.222545,46.628914,0],[5.222549,46.628922,0],[5.222553,46.62893,0],[5.222557,46.628939,0],[5.222561,46.628947,0],[5.222565,46.628955,0],[5.222569,46.628963,0],[5.222573,46.628971,0],[5.222576,46.628979,0],[5.22258,46.628987,0],[5.222584,46.628995,0],[5.222588,46.629003,0],[5.222592,46.629011,0],[5.222596,46.629019,0],[5.2226,46.629027,0],[5.222604,46.629035,0],[5.222608,46.629043,0],[5.222612,46.629051,0],[5.222615,46.629059,0],[5.222619,46.629067,0],[5.222623,46.629075,0],[5.222627,46.629083,0],[5.222631,46.629091,0],[5.222635,46.6291,0],[5.222633,46.629119,0],[5.222633,46.629127,0],[5.222633,46.629136,0],[5.222633,46.629144,0],[5.222633,46.629153,0],[5.222633,46.629161,0],[5.222633,46.62917,0],[5.222633,46.629178,0],[5.222633,46.629187,0],[5.222633,46.629196,0],[5.222638,46.629203,0],[5.222642,46.629203,0],[5.222645,46.629203,0],[5.222649,46.629203,0],[5.222652,46.629203,0],[5.222656,46.629204,0],[5.222659,46.629204,0],[5.222663,46.629204,0],[5.222666,46.629204,0],[5.22267,46.629204,0],[5.222673,46.629204,0],[5.222676,46.629204,0],[5.22268,46.629204,0],[5.222683,46.629204,0],[5.222687,46.629204,0],[5.22269,46.629204,0],[5.222694,46.629204,0],[5.222697,46.629205,0],[5.222701,46.629205,0],[5.222704,46.629205,0],[5.222708,46.629205,0],[5.222711,46.629205,0],[5.222715,46.629205,0],[5.222718,46.629205,0],[5.222721,46.629205,0],[5.222725,46.629205,0],[5.222728,46.629205,0],[5.222732,46.629205,0],[5.222735,46.629205,0],[5.222739,46.629206,0],[5.222742,46.629206,0],[5.222746,46.629206,0],[5.222749,46.629206,0],[5.222753,46.629206,0],[5.222756,46.629206,0],[5.222759,46.629206,0],[5.222763,46.629206,0],[5.222766,46.629206,0],[5.22277,46.629206,0],[5.222773,46.629206,0],[5.222777,46.629206,0],[5.22278,46.629207,0],[5.222784,46.629207,0],[5.222787,46.629207,0],[5.222791,46.629207,0],[5.222794,46.629207,0],[5.222798,46.629207,0],[5.222801,46.629207,0],[5.222804,46.629207,0],[5.222808,46.629207,0],[5.222811,46.629207,0],[5.222815,46.629207,0],[5.222818,46.629207,0],[5.222822,46.629208,0],[5.222825,46.629208,0],[5.222829,46.629208,0],[5.222832,46.629208,0],[5.222836,46.629208,0],[5.222839,46.629208,0],[5.222842,46.629208,0],[5.222846,46.629208,0],[5.222849,46.629208,0],[5.222853,46.629208,0],[5.222856,46.629208,0],[5.22286,46.629208,0],[5.222863,46.629209,0],[5.222867,46.629209,0],[5.22287,46.629209,0],[5.222874,46.629209,0],[5.222877,46.629209,0],[5.222881,46.629209,0],[5.222884,46.629209,0],[5.222887,46.629209,0],[5.222891,46.629209,0],[5.222894,46.629209,0],[5.222898,46.629209,0],[5.222901,46.629209,0],[5.222905,46.62921,0],[5.222908,46.62921,0],[5.222912,46.62921,0],[5.222915,46.62921,0],[5.222919,46.62921,0],[5.222922,46.62921,0],[5.222943,46.629216,0],[5.222951,46.629219,0],[5.22296,46.629223,0],[5.222968,46.629226,0],[5.222977,46.629229,0],[5.222985,46.629232,0],[5.222994,46.629235,0],[5.223002,46.629238,0],[5.223011,46.629242,0],[5.223019,46.629245,0],[5.223028,46.629248,0],[5.223036,46.629251,0],[5.223045,46.629254,0],[5.223053,46.629257,0],[5.223062,46.629261,0],[5.22307,46.629264,0],[5.223079,46.629267,0],[5.223087,46.62927,0],[5.223096,46.629273,0],[5.223104,46.629276,0],[5.223113,46.62928,0],[5.223121,46.629283,0],[5.22313,46.629286,0],[5.223138,46.629289,0],[5.223147,46.629292,0],[5.223155,46.629295,0],[5.223164,46.629299,0],[5.223172,46.629302,0],[5.223181,46.629305,0],[5.223189,46.629308,0],[5.223198,46.629311,0],[5.223206,46.629314,0],[5.223215,46.629318,0],[5.223235,46.629322,0],[5.223251,46.629326,0],[5.223267,46.629329,0],[5.223283,46.629333,0],[5.223299,46.629336,0],[5.223315,46.62934,0],[5.223331,46.629343,0],[5.223347,46.629347,0],[5.223363,46.62935,0],[5.223379,46.629354,0],[5.223395,46.629357,0],[5.223411,46.62936,0],[5.223427,46.629364,0],[5.223443,46.629367,0],[5.223459,46.629371,0],[5.223475,46.629374,0],[5.223491,46.629378,0],[5.223507,46.629381,0],[5.223523,46.629385,0],[5.223539,46.629388,0],[5.223555,46.629391,0],[5.223571,46.629395,0],[5.223587,46.629398,0],[5.223603,46.629402,0],[5.223619,46.629405,0],[5.223635,46.629409,0],[5.223651,46.629412,0],[5.223667,46.629416,0],[5.223683,46.629419,0],[5.223699,46.629423,0],[5.223714,46.629426,0],[5.223729,46.629429,0],[5.223742,46.629432,0],[5.223754,46.629434,0],[5.223765,46.629435,0],[5.223776,46.629436,0],[5.223787,46.629436,0],[5.223797,46.629435,0],[5.223808,46.629433,0],[5.223825,46.629432,179.4],[5.223836,46.629433,179.2],[5.223847,46.629436,179.2],[5.223859,46.629441,179.2],[5.223871,46.629445,179.2],[5.223882,46.62945,179.2],[5.223895,46.629454,179.4],[5.223907,46.629458,179.4],[5.22392,46.629463,179.4],[5.223932,46.629467,179.4],[5.223944,46.62947,179.6],[5.223956,46.629474,179.6],[5.223968,46.629477,179.8],[5.223979,46.62948,179.8],[5.223991,46.629483,180],[5.224003,46.629485,180],[5.224015,46.629488,180.2],[5.224027,46.629492,180.2],[5.224052,46.629498,180.6],[5.224065,46.629499,180.8],[5.224076,46.629501,180.8],[5.224087,46.629502,181],[5.224096,46.629507,183],[5.224098,46.629508,183.6],[5.224099,46.629509,184.2],[5.2241,46.62951,184.6],[5.224102,46.629511,185.2],[5.224108,46.629512,185.6],[5.224119,46.629514,186],[5.22413,46.629516,186.4],[5.224143,46.629518,186.8],[5.224158,46.629517,187],[5.224182,46.629514,187.2],[5.22419,46.629513,187.6],[5.224205,46.62951,187.6],[5.224219,46.629508,187.8],[5.224234,46.629508,187.8],[5.224248,46.629509,187.8],[5.224262,46.629511,187.6],[5.224276,46.629512,187.6],[5.22429,46.629513,187.4],[5.224306,46.629512,187.2],[5.224332,46.629509,187],[5.224341,46.629507,186.8],[5.22435,46.629506,186.6],[5.224362,46.629506,186.4],[5.224375,46.629507,186],[5.224389,46.629509,185.8],[5.224404,46.629511,185.6],[5.224419,46.629515,185.6],[5.224435,46.629521,185.4],[5.224451,46.629527,185.4],[5.224476,46.629539,185.4],[5.224485,46.629544,185.4],[5.224494,46.629548,185.4],[5.224506,46.629554,185.4],[5.22452,46.629559,185.6],[5.224535,46.629564,185.6],[5.224549,46.629567,185.8],[5.224563,46.629571,185.8],[5.224577,46.629573,186],[5.224591,46.629574,186.2],[5.224605,46.629575,186.2],[5.224618,46.629576,186.4],[5.224632,46.629576,186.4],[5.224646,46.629576,186.6],[5.224659,46.629576,186.6],[5.224673,46.629578,186.8],[5.224685,46.629579,186.8],[5.224698,46.629582,187],[5.224712,46.629585,187],[5.224725,46.629589,187],[5.224738,46.629593,187],[5.224752,46.629596,187],[5.224767,46.629599,187.2],[5.224794,46.629605,187.2],[5.224805,46.629606,187.2],[5.224815,46.629608,187.4],[5.224826,46.629611,187.4],[5.224836,46.629614,187.4],[5.224848,46.629616,187.4],[5.224861,46.629619,187.2],[5.224877,46.629622,187.2],[5.2249,46.629626,187.2],[5.224909,46.629627,187.2],[5.224917,46.629629,187.2],[5.224929,46.629631,187],[5.224941,46.629633,187],[5.224955,46.629636,186.8],[5.224969,46.62964,186.6],[5.224983,46.629645,186.6],[5.224996,46.629649,186.4],[5.225009,46.629654,186.2],[5.225023,46.629658,186.2],[5.225037,46.629662,186],[5.225052,46.629665,185.8],[5.225067,46.629669,185.6],[5.225083,46.629673,185.4],[5.225099,46.629678,185.2],[5.225115,46.629683,185],[5.22513,46.629687,184.8],[5.225143,46.629692,184.6],[5.225155,46.629696,184.4],[5.225168,46.629701,184.2],[5.225182,46.629707,184],[5.225197,46.629711,183.8],[5.225213,46.629716,183.6],[5.225227,46.629721,183.4],[5.225239,46.629727,183.2],[5.225251,46.629735,183],[5.225262,46.629742,183],[5.225273,46.62975,183],[5.225284,46.629758,183],[5.225294,46.629766,182.8],[5.225313,46.629782,182.8],[5.225323,46.62979,182.8],[5.225333,46.629797,182.6],[5.225343,46.629805,182.6],[5.225353,46.629812,182.6],[5.225376,46.629824,182.6],[5.225384,46.629827,182.4],[5.225398,46.629833,182.4],[5.225411,46.629838,182.4],[5.225424,46.629842,182.2],[5.225436,46.629846,182.2],[5.225448,46.629851,182.2],[5.225459,46.629855,182.2],[5.22547,46.629859,182],[5.225482,46.629863,182],[5.225495,46.629867,181.8],[5.225507,46.629871,181.8],[5.22552,46.629875,181.6],[5.225532,46.629878,181.6],[5.225547,46.629882,181.4],[5.225562,46.629885,181.4],[5.225578,46.629889,181.2],[5.225592,46.629893,181.2],[5.225605,46.629898,181.2],[5.225618,46.629904,181],[5.225631,46.629909,181],[5.225644,46.629915,181],[5.225658,46.62992,181],[5.225673,46.629924,181],[5.225688,46.629928,181],[5.225702,46.62993,181],[5.225716,46.629935,181.2],[5.225728,46.629941,181.2],[5.225741,46.629947,181.2],[5.225754,46.629953,181.2],[5.225768,46.629958,181.2],[5.225782,46.629963,181.2],[5.225795,46.629967,181.4],[5.225808,46.629971,181.4],[5.22582,46.629975,181.4],[5.225832,46.629979,181.4],[5.225843,46.629982,181.4],[5.225851,46.629986,181.2],[5.225858,46.629988,181.2],[5.225859,46.629989,181.2],[5.22586,46.629989,181],[5.225861,46.629989,181],[5.225862,46.62999,180.8],[5.225863,46.62999,180.8],[5.225864,46.62999,180.8],[5.225865,46.629991,180.6],[5.225866,46.629991,180.6],[5.225867,46.629991,180.4],[5.225868,46.629992,180.4],[5.225869,46.629992,180.4],[5.225869,46.629992,180.4],[5.22587,46.629993,180.4],[5.225871,46.629993,180.2],[5.225872,46.629993,180.2],[5.225873,46.629994,180.2],[5.225874,46.629994,180.2],[5.225875,46.629994,180.2],[5.225876,46.629995,180.2],[5.225877,46.629995,180.2],[5.225878,46.629995,180.2],[5.225879,46.629996,180.4],[5.22588,46.629996,180.4],[5.225881,46.629996,180.4],[5.225882,46.629997,180.4],[5.225883,46.629997,180.4],[5.225884,46.629997,180.6],[5.225885,46.629998,180.6],[5.225886,46.629998,180.6],[5.225887,46.629998,180.6],[5.225888,46.629999,180.8],[5.225889,46.629999,180.8],[5.22589,46.629999,180.8],[5.225891,46.63,180.8],[5.225892,46.63,181],[5.225893,46.63,181],[5.225894,46.630001,181],[5.225894,46.630001,181],[5.225895,46.630001,181],[5.225896,46.630002,180.8],[5.225897,46.630002,180.8],[5.225898,46.630002,180.8],[5.225899,46.630003,180.8],[5.2259,46.630003,180.6],[5.225901,46.630003,180.6],[5.225902,46.630004,180.6],[5.225903,46.630004,180.6],[5.225904,46.630004,180.6],[5.225905,46.630005,180.6],[5.225906,46.630005,180.6],[5.225916,46.63001,180.6],[5.225926,46.630013,180.8],[5.22594,46.630016,180.8],[5.225956,46.630019,181],[5.225974,46.630021,181.2],[5.225993,46.630022,181.2],[5.226011,46.630023,181.4],[5.226027,46.630024,181.6],[5.226042,46.630025,181.6],[5.226055,46.630025,181.8],[5.226068,46.630027,181.8],[5.226081,46.630029,182],[5.226094,46.630033,182],[5.226107,46.630036,182.2],[5.226122,46.630038,182.2],[5.226137,46.630041,182.2],[5.226152,46.630045,182.4],[5.226166,46.63005,182.4],[5.226178,46.630055,182.4],[5.22619,46.63006,182.4],[5.226203,46.630063,182.6],[5.226219,46.630066,182.6],[5.226235,46.630068,182.6],[5.226252,46.630069,182.6],[5.226269,46.63007,182.6],[5.226286,46.630072,182.4],[5.226303,46.630074,182.4],[5.22632,46.630078,182.4],[5.226334,46.630081,182.4],[5.226347,46.630085,182.4],[5.226361,46.630088,182.4],[5.226378,46.630091,182.2],[5.226396,46.630093,182.2],[5.226424,46.630096,182.2],[5.226434,46.630097,182.2],[5.226445,46.630098,182.2],[5.226462,46.630099,182.2],[5.226479,46.630099,182.2],[5.226497,46.630099,182.2],[5.226513,46.630101,182.2],[5.226529,46.630104,182.2],[5.226544,46.630107,182.2],[5.226558,46.63011,182.4],[5.226573,46.630114,182.4],[5.226592,46.630119,182.4],[5.226599,46.63012,182.4],[5.226612,46.630123,182.6],[5.226626,46.630125,182.6],[5.226641,46.630127,182.6],[5.226657,46.630128,182.8],[5.226673,46.63013,182.8],[5.226691,46.630131,182.8],[5.226709,46.630132,182.8],[5.226726,46.630133,183],[5.226753,46.630133,183],[5.226761,46.630133,183],[5.226777,46.630134,183.2],[5.22679,46.630135,183.2],[5.226802,46.630137,183.2],[5.226816,46.630138,183.4],[5.226831,46.630139,183.4],[5.226849,46.630141,183.4],[5.226867,46.630143,183.4],[5.226884,46.630144,183.4],[5.226911,46.630147,183.6],[5.226921,46.630149,183.6],[5.226931,46.63015,183.6],[5.226946,46.630152,183.6],[5.226961,46.630154,183.6],[5.226976,46.630157,183.6],[5.226992,46.630159,183.6],[5.227008,46.630161,183.6],[5.227024,46.630163,183.6],[5.227039,46.630165,183.6],[5.227055,46.630167,183.6],[5.227071,46.630168,183.6],[5.227086,46.63017,183.6],[5.227101,46.630171,183.6],[5.227115,46.630171,183.6],[5.22713,46.630171,183.6],[5.227144,46.630171,183.6],[5.227158,46.630171,183.6],[5.227171,46.630171,183.6],[5.227183,46.630171,183.6],[5.227195,46.630172,183.6],[5.227207,46.630174,183.6],[5.227218,46.630176,183.6],[5.22723,46.630177,183.6],[5.227244,46.630177,183.4],[5.227258,46.630177,183.4],[5.227274,46.630176,183.4],[5.227292,46.630175,183.4],[5.227309,46.630174,183.4],[5.227324,46.630175,183.4],[5.227339,46.630175,183.4],[5.227353,46.630176,183.2],[5.227367,46.630179,183.2],[5.22738,46.630181,183.2],[5.227394,46.630184,183.2],[5.227407,46.630187,183.2],[5.227418,46.630189,183.2],[5.227429,46.630191,183.2],[5.227439,46.630194,183.2],[5.22745,46.630196,183.2],[5.227462,46.6302,183.2],[5.227475,46.630204,183.2],[5.22749,46.630208,183.2],[5.227506,46.630211,183.4],[5.227523,46.630213,183.4],[5.227539,46.630215,183.4],[5.227554,46.630216,183.4],[5.22757,46.630217,183.4],[5.227586,46.630219,183.6],[5.227601,46.63022,183.6],[5.227614,46.630222,183.4],[5.227626,46.630224,183.4],[5.227638,46.630227,183.4],[5.22765,46.63023,183.4],[5.227663,46.630233,183.2],[5.227676,46.630237,183.2],[5.227689,46.630241,183.2],[5.227702,46.630245,183],[5.227717,46.630248,183],[5.227733,46.63025,183],[5.22775,46.630252,183],[5.227767,46.630255,183],[5.227783,46.630258,183],[5.227798,46.63026,183],[5.227814,46.630262,183],[5.227832,46.630263,183],[5.227861,46.630265,183],[5.227872,46.630266,183],[5.227882,46.630267,183.2],[5.227896,46.630267,183.2],[5.227909,46.630267,183.2],[5.227923,46.630268,183.2],[5.227937,46.630269,183.2],[5.227952,46.63027,183],[5.227966,46.630271,183],[5.227981,46.630272,183],[5.227997,46.630274,182.8],[5.228014,46.630275,182.8],[5.228031,46.630277,182.8],[5.228047,46.630279,182.6],[5.228062,46.63028,182.6],[5.228075,46.630282,182.4],[5.228089,46.630284,182.4],[5.228101,46.630286,182.2],[5.228113,46.630288,182.2],[5.228126,46.630289,182],[5.228139,46.63029,182],[5.228153,46.630291,181.8],[5.228167,46.630292,181.8],[5.22818,46.630293,181.6],[5.228193,46.630294,181.6],[5.228207,46.630294,181.6],[5.228222,46.630295,181.4],[5.228236,46.630296,181.4],[5.22825,46.630297,181.4],[5.228264,46.630298,181.4],[5.228279,46.630299,181.4],[5.228294,46.630301,181.4],[5.228308,46.630304,181.4],[5.228322,46.630307,181.4],[5.228336,46.63031,181.4],[5.22835,46.630312,181.4],[5.228364,46.630314,181.6],[5.228379,46.630316,181.6],[5.228393,46.630316,181.6],[5.228407,46.630317,181.6],[5.22842,46.630318,181.6],[5.228432,46.630319,181.6],[5.228445,46.630321,181.6],[5.228456,46.630323,181.6],[5.228467,46.630325,181.6],[5.228476,46.630328,181.6],[5.228483,46.63033,181.6],[5.228487,46.630333,181.6],[5.228487,46.630336,181.6],[5.228487,46.63034,181.6],[5.228487,46.630345,181.6],[5.228487,46.630351,181.4],[5.228487,46.630355,181.4],[5.228486,46.630359,181.4],[5.228485,46.630362,181.4],[5.228484,46.630367,181.4],[5.228484,46.630373,181.4],[5.228483,46.630378,181.4],[5.228483,46.630384,181.4],[5.228483,46.630397,181.2],[5.228483,46.630403,181.2],[5.228483,46.63041,181.2],[5.228483,46.630416,181.2],[5.228483,46.630422,181.2],[5.22849,46.630422,181.2],[5.228499,46.63042,181.2],[5.228507,46.630415,181.2],[5.228514,46.63041,181.2],[5.22852,46.630405,181.2],[5.228527,46.630399,181.2],[5.228533,46.630394,181.2],[5.228533,46.630394,181.2]]}}]}