{"type":"FeatureCollection","features":[{"type":"Feature","properties":{"name":"Marche dans l'après-midi","type":"marche","time":"2024-04-11T15:09:07Z","coordTimes":["2024-04-11T15:09:07Z","2024-04-11T15:09:11Z","2024-04-11T15:09:18Z","2024-04-11T15:09:21Z","2024-04-11T15:09:26Z","2024-04-11T15:09:33Z","2024-04-11T15:09:40Z","2024-04-11T15:09:41Z","2024-04-11T15:09:45Z","2024-04-11T15:09:46Z","2024-04-11T15:09:47Z","2024-04-11T15:09:49Z","2024-04-11T15:09:50Z","2024-04-11T15:09:55Z","2024-04-11T15:09:58Z","2024-04-11T15:09:59Z","2024-04-11T15:10:02Z","2024-04-11T15:10:04Z","2024-04-11T15:10:07Z","2024-04-11T15:10:10Z","2024-04-11T15:10:12Z","2024-04-11T15:10:13Z","2024-04-11T15:10:15Z","2024-04-11T15:10:18Z","2024-04-11T15:10:20Z","2024-04-11T15:10:25Z","2024-04-11T15:10:27Z","2024-04-11T15:10:28Z","2024-04-11T15:10:35Z","2024-04-11T15:10:39Z","2024-04-11T15:10:47Z","2024-04-11T15:10:53Z","2024-04-11T15:10:58Z","2024-04-11T15:11:01Z","2024-04-11T15:11:03Z","2024-04-11T15:11:05Z","2024-04-11T15:11:14Z","2024-04-11T15:11:15Z","2024-04-11T15:11:17Z","2024-04-11T15:11:19Z","2024-04-11T15:11:22Z","2024-04-11T15:11:24Z","2024-04-11T15:11:27Z","2024-04-11T15:11:28Z","2024-04-11T15:11:29Z","2024-04-11T15:11:34Z","2024-04-11T15:11:41Z","2024-04-11T15:11:46Z","2024-04-11T15:11:50Z","2024-04-11T15:11:54Z","2024-04-11T15:11:57Z","2024-04-11T15:12:00Z","2024-04-11T15:12:06Z","2024-04-11T15:12:09Z","2024-04-11T15:12:10Z","2024-04-11T15:12:11Z","2024-04-11T15:12:15Z","2024-04-11T15:12:23Z","2024-04-11T15:12:26Z","2024-04-11T15:12:32Z","2024-04-11T15:12:36Z","2024-04-11T15:12:37Z","2024-04-11T15:12:43Z","2024-04-11T15:12:46Z","2024-04-11T15:12:57Z","2024-04-11T15:13:06Z","2024-04-11T15:13:07Z","2024-04-11T15:13:10Z","2024-04-11T15:13:15Z","2024-04-11T15:13:21Z","2024-04-11T15:13:27Z","2024-04-11T15:13:33Z","2024-04-11T15:13:35Z","2024-04-11T15:13:36Z","2024-04-11T15:13:37Z","2024-04-11T15:13:47Z","2024-04-11T15:13:49Z","2024-04-11T15:13:55Z","2024-04-11T15:14:01Z","2024-04-11T15:14:06Z","2024-04-11T15:14:12Z","2024-04-11T15:14:14Z","2024-04-11T15:14:17Z","2024-04-11T15:14:19Z","2024-04-11T15:14:21Z","2024-04-11T15:14:22Z","2024-04-11T15:14:26Z","2024-04-11T15:14:27Z","2024-04-11T15:14:28Z","2024-04-11T15:14:31Z","2024-04-11T15:14:33Z","2024-04-11T15:14:43Z","2024-04-11T15:14:46Z","2024-04-11T15:14:52Z","2024-04-11T15:15:13Z","2024-04-11T15:15:16Z","2024-04-11T15:15:19Z","2024-04-11T15:15:22Z","2024-04-11T15:15:25Z","2024-04-11T15:15:27Z","2024-04-11T15:15:36Z","2024-04-11T15:15:43Z","2024-04-11T15:15:46Z","2024-04-11T15:15:50Z","2024-04-11T15:15:51Z","2024-04-11T15:15:53Z","2024-04-11T15:16:03Z","2024-04-11T15:16:07Z","2024-04-11T15:16:10Z","2024-04-11T15:16:11Z","2024-04-11T15:16:18Z","2024-04-11T15:16:59Z","2024-04-11T15:17:08Z","2024-04-11T15:17:09Z","2024-04-11T15:17:15Z","2024-04-11T15:17:19Z","2024-04-11T15:17:23Z","2024-04-11T15:17:26Z","2024-04-11T15:17:31Z","2024-04-11T15:17:38Z","2024-04-11T15:17:43Z","2024-04-11T15:17:44Z","2024-04-11T15:17:45Z","2024-04-11T15:17:48Z","2024-04-11T15:17:52Z","2024-04-11T15:17:53Z","2024-04-11T15:17:55Z","2024-04-11T15:17:58Z","2024-04-11T15:18:00Z","2024-04-11T15:18:10Z","2024-04-11T15:18:12Z","2024-04-11T15:18:19Z","2024-04-11T15:18:22Z","2024-04-11T15:18:25Z","2024-04-11T15:18:27Z","2024-04-11T15:18:34Z","2024-04-11T15:18:40Z","2024-04-11T15:18:41Z","2024-04-11T15:18:44Z","2024-04-11T15:18:55Z","2024-04-11T15:18:58Z","2024-04-11T15:19:00Z","2024-04-11T15:19:05Z","2024-04-11T15:19:06Z","2024-04-11T15:19:08Z","2024-04-11T15:19:09Z","2024-04-11T15:19:11Z","2024-04-11T15:19:13Z","2024-04-11T15:19:14Z","2024-04-11T15:19:19Z","2024-04-11T15:19:20Z","2024-04-11T15:19:27Z","2024-04-11T15:19:30Z","2024-04-11T15:19:32Z","2024-04-11T15:19:34Z","2024-04-11T15:19:37Z","2024-04-11T15:19:38Z","2024-04-11T15:19:40Z","2024-04-11T15:19:42Z","2024-04-11T15:22:03Z","2024-04-11T15:22:04Z","2024-04-11T15:22:05Z","2024-04-11T15:22:06Z","2024-04-11T15:22:07Z","2024-04-11T15:22:08Z","2024-04-11T15:22:09Z","2024-04-11T15:22:10Z","2024-04-11T15:22:13Z","2024-04-11T15:22:14Z","2024-04-11T15:22:16Z","2024-04-11T15:22:17Z","2024-04-11T15:22:19Z","2024-04-11T15:22:21Z","2024-04-11T15:22:22Z","2024-04-11T15:22:23Z","2024-04-11T15:22:24Z","2024-04-11T15:22:25Z","2024-04-11T15:22:26Z","2024-04-11T15:22:27Z","2024-04-11T15:22:29Z","2024-04-11T15:22:32Z","2024-04-11T15:22:34Z","2024-04-11T15:22:35Z","2024-04-11T15:22:37Z","2024-04-11T15:22:38Z","2024-04-11T15:22:39Z","2024-04-11T15:22:45Z","2024-04-11T15:22:56Z","2024-04-11T15:22:58Z","2024-04-11T15:23:01Z","2024-04-11T15:23:10Z","2024-04-11T15:23:15Z","2024-04-11T15:23:18Z","2024-04-11T15:23:20Z","2024-04-11T15:23:21Z","2024-04-11T15:23:24Z","2024-04-11T15:23:31Z","2024-04-11T15:23:32Z","2024-04-11T15:23:47Z","2024-04-11T15:23:49Z","2024-04-11T15:23:58Z","2024-04-11T15:24:03Z","2024-04-11T15:24:08Z","2024-04-11T15:24:10Z","2024-04-11T15:24:18Z","2024-04-11T15:24:19Z","2024-04-11T15:24:21Z","2024-04-11T15:24:26Z","2024-04-11T15:24:28Z","2024-04-11T15:24:33Z","2024-04-11T15:24:34Z","2024-04-11T15:24:35Z","2024-04-11T15:24:36Z","2024-04-11T15:24:38Z","2024-04-11T15:24:41Z","2024-04-11T15:24:54Z","2024-04-11T15:24:55Z","2024-04-11T15:25:05Z","2024-04-11T15:25:09Z","2024-04-11T15:25:12Z","2024-04-11T15:25:14Z","2024-04-11T15:25:16Z","2024-04-11T15:25:17Z","2024-04-11T15:25:20Z","2024-04-11T15:25:26Z","2024-04-11T15:25:27Z","2024-04-11T15:25:31Z","2024-04-11T15:25:32Z","2024-04-11T15:25:34Z","2024-04-11T15:25:35Z","2024-04-11T15:25:37Z","2024-04-11T15:25:38Z","2024-04-11T15:25:40Z","2024-04-11T15:25:44Z","2024-04-11T15:25:46Z","2024-04-11T15:25:50Z","2024-04-11T15:25:59Z","2024-04-11T15:26:08Z","2024-04-11T15:26:12Z","2024-04-11T15:26:19Z","2024-04-11T15:26:21Z","2024-04-11T15:26:22Z","2024-04-11T15:26:28Z","2024-04-11T15:26:30Z","2024-04-11T15:26:36Z","2024-04-11T15:26:38Z","2024-04-11T15:26:44Z","2024-04-11T15:26:49Z","2024-04-11T15:26:54Z","2024-04-11T15:27:02Z","2024-04-11T15:27:08Z","2024-04-11T15:27:10Z","2024-04-11T15:27:16Z","2024-04-11T15:27:17Z","2024-04-11T15:27:23Z","2024-04-11T15:27:24Z","2024-04-11T15:27:35Z","2024-04-11T15:27:38Z","2024-04-11T15:27:41Z","2024-04-11T15:27:42Z","2024-04-11T15:27:43Z","2024-04-11T15:27:46Z","2024-04-11T15:27:50Z","2024-04-11T15:27:55Z","2024-04-11T15:28:03Z","2024-04-11T15:28:11Z","2024-04-11T15:28:26Z","2024-04-11T15:28:33Z","2024-04-11T15:28:41Z","2024-04-11T15:28:52Z","2024-04-11T15:29:02Z","2024-04-11T15:29:05Z","2024-04-11T15:29:09Z","2024-04-11T15:29:16Z","2024-04-11T15:29:19Z","2024-04-11T15:29:26Z","2024-04-11T15:30:12Z","2024-04-11T15:30:18Z","2024-04-11T15:30:24Z","2024-04-11T15:30:31Z","2024-04-11T15:30:33Z","2024-04-11T15:30:34Z","2024-04-11T15:30:40Z","2024-04-11T15:30:43Z","2024-04-11T15:30:48Z","2024-04-11T15:30:50Z","2024-04-11T15:37:42Z","2024-04-11T15:37:48Z","2024-04-11T15:37:54Z","2024-04-11T15:37:56Z","2024-04-11T15:38:00Z","2024-04-11T15:38:03Z","2024-04-11T15:38:07Z","2024-04-11T15:38:18Z","2024-04-11T15:38:21Z","2024-04-11T15:38:23Z","2024-04-11T15:38:24Z","2024-04-11T15:41:30Z","2024-04-11T15:51:33Z","2024-04-11T15:51:37Z","2024-04-11T15:51:39Z","2024-04-11T15:51:41Z","2024-04-11T15:51:50Z","2024-04-11T15:51:54Z","2024-04-11T15:51:57Z","2024-04-11T15:51:58Z","2024-04-11T15:52:00Z","2024-04-11T15:52:01Z","2024-04-11T15:52:05Z","2024-04-11T15:52:08Z","2024-04-11T15:52:11Z","2024-04-11T15:52:14Z","2024-04-11T15:52:16Z","2024-04-11T15:52:20Z","2024-04-11T15:52:21Z","2024-04-11T15:52:25Z","2024-04-11T15:52:26Z","2024-04-11T15:52:31Z","2024-04-11T15:52:32Z","2024-04-11T15:52:34Z","2024-04-11T15:52:35Z","2024-04-11T15:52:45Z","2024-04-11T15:52:46Z","2024-04-11T15:52:51Z","2024-04-11T15:52:52Z","2024-04-11T15:52:54Z","2024-04-11T15:53:06Z","2024-04-11T15:53:12Z","2024-04-11T15:53:14Z","2024-04-11T15:53:16Z","2024-04-11T15:53:20Z","2024-04-11T15:53:28Z","2024-04-11T15:53:31Z","2024-04-11T15:53:33Z","2024-04-11T15:53:36Z","2024-04-11T15:53:40Z","2024-04-11T15:53:42Z","2024-04-11T15:53:46Z","2024-04-11T15:53:48Z","2024-04-11T15:53:49Z","2024-04-11T15:53:53Z","2024-04-11T15:53:59Z","2024-04-11T16:01:20Z","2024-04-11T16:01:21Z","2024-04-11T16:01:23Z","2024-04-11T16:01:24Z","2024-04-11T16:01:27Z","2024-04-11T16:01:29Z","2024-04-11T16:01:35Z","2024-04-11T16:01:38Z","2024-04-11T16:01:40Z","2024-04-11T16:01:42Z","2024-04-11T16:01:50Z","2024-04-11T16:01:56Z","2024-04-11T16:05:25Z","2024-04-11T16:05:26Z","2024-04-11T16:08:06Z","2024-04-11T16:08:13Z","2024-04-11T16:08:17Z","2024-04-11T16:08:18Z","2024-04-11T16:08:22Z","2024-04-11T16:08:28Z","2024-04-11T16:08:29Z","2024-04-11T16:08:30Z","2024-04-11T16:08:35Z","2024-04-11T16:08:37Z","2024-04-11T16:08:38Z","2024-04-11T16:08:40Z","2024-04-11T16:08:43Z","2024-04-11T16:08:46Z","2024-04-11T16:08:49Z","2024-04-11T16:08:52Z","2024-04-11T16:08:55Z","2024-04-11T16:08:59Z","2024-04-11T16:09:03Z","2024-04-11T16:09:06Z","2024-04-11T16:09:08Z","2024-04-11T16:09:11Z","2024-04-11T16:09:13Z","2024-04-11T16:09:15Z","2024-04-11T16:09:20Z","2024-04-11T16:09:22Z","2024-04-11T16:09:25Z","2024-04-11T16:09:29Z","2024-04-11T16:09:36Z","2024-04-11T16:09:37Z","2024-04-11T16:09:42Z","2024-04-11T16:09:47Z","2024-04-11T16:09:48Z","2024-04-11T16:09:52Z","2024-04-11T16:09:53Z","2024-04-11T16:09:56Z","2024-04-11T16:09:57Z","2024-04-11T16:10:02Z","2024-04-11T16:10:04Z","2024-04-11T16:10:07Z","2024-04-11T16:10:11Z","2024-04-11T16:10:12Z","2024-04-11T16:10:13Z","2024-04-11T16:10:18Z","2024-04-11T16:10:22Z","2024-04-11T16:10:23Z","2024-04-11T16:10:25Z","2024-04-11T16:10:28Z","2024-04-11T16:10:50Z","2024-04-11T16:11:56Z","2024-04-11T16:14:24Z","2024-04-11T16:14:29Z","2024-04-11T16:14:30Z","2024-04-11T16:14:33Z","2024-04-11T16:14:34Z","2024-04-11T16:14:38Z","2024-04-11T16:14:41Z","2024-04-11T16:14:43Z","2024-04-11T16:14:58Z","2024-04-11T16:15:00Z","2024-04-11T16:15:02Z","2024-04-11T16:15:08Z","2024-04-11T16:15:15Z","2024-04-11T16:15:19Z","2024-04-11T16:15:25Z","2024-04-11T16:15:31Z","2024-04-11T16:15:34Z","2024-04-11T16:15:46Z","2024-04-11T16:15:50Z","2024-04-11T16:15:52Z","2024-04-11T16:15:59Z","2024-04-11T16:16:04Z","2024-04-11T16:16:15Z","2024-04-11T16:16:17Z","2024-04-11T16:16:24Z","2024-04-11T16:16:25Z","2024-04-11T16:16:31Z","2024-04-11T16:16:33Z","2024-04-11T16:16:43Z","2024-04-11T16:16:49Z","2024-04-11T16:16:52Z","2024-04-11T16:17:01Z","2024-04-11T16:17:04Z","2024-04-11T16:17:17Z","2024-04-11T16:17:23Z","2024-04-11T16:17:25Z","2024-04-11T16:17:33Z","2024-04-11T16:17:35Z","2024-04-11T16:17:42Z","2024-04-11T16:17:43Z","2024-04-11T16:17:45Z","2024-04-11T16:17:49Z","2024-04-11T16:17:54Z","2024-04-11T16:18:13Z","2024-04-11T16:18:21Z","2024-04-11T16:18:32Z","2024-04-11T16:18:43Z","2024-04-11T16:18:55Z","2024-04-11T16:19:13Z","2024-04-11T16:19:22Z","2024-04-11T16:19:34Z","2024-04-11T16:19:43Z","2024-04-11T16:19:44Z","2024-04-11T16:19:49Z","2024-04-11T16:20:09Z","2024-04-11T16:20:51Z","2024-04-11T16:24:47Z","2024-04-11T16:24:50Z","2024-04-11T16:25:37Z","2024-04-11T16:25:40Z","2024-04-11T16:25:41Z","2024-04-11T16:25:42Z","2024-04-11T16:25:46Z","2024-04-11T16:25:47Z","2024-04-11T16:25:58Z","2024-04-11T16:25:59Z","2024-04-11T16:26:07Z","2024-04-11T16:26:17Z","2024-04-11T16:26:22Z","2024-04-11T16:26:23Z","2024-04-11T16:26:25Z","2024-04-11T16:26:34Z","2024-04-11T16:26:35Z","2024-04-11T16:26:38Z","2024-04-11T16:26:48Z","2024-04-11T16:26:51Z","2024-04-11T16:26:53Z","2024-04-11T16:27:04Z","2024-04-11T16:27:08Z","2024-04-11T16:27:12Z","2024-04-11T16:27:15Z","2024-04-11T16:27:28Z","2024-04-11T16:27:31Z","2024-04-11T16:27:34Z","2024-04-11T16:27:37Z","2024-04-11T16:27:38Z","2024-04-11T16:27:45Z","2024-04-11T16:27:52Z","2024-04-11T16:27:55Z","2024-04-11T16:28:00Z","2024-04-11T16:28:01Z","2024-04-11T16:28:04Z","2024-04-11T16:28:05Z","2024-04-11T16:28:09Z","2024-04-11T16:28:13Z","2024-04-11T16:28:14Z","2024-04-11T16:28:16Z","2024-04-11T16:28:19Z","2024-04-11T16:28:22Z","2024-04-11T16:28:24Z","2024-04-11T16:28:26Z","2024-04-11T16:28:31Z","2024-04-11T16:28:36Z","2024-04-11T16:28:38Z","2024-04-11T16:28:39Z","2024-04-11T16:28:42Z","2024-04-11T16:28:45Z","2024-04-11T16:28:47Z","2024-04-11T16:28:55Z","2024-04-11T16:28:57Z","2024-04-11T16:29:02Z","2024-04-11T16:29:07Z","2024-04-11T16:29:10Z","2024-04-11T16:29:11Z","2024-04-11T16:29:13Z","2024-04-11T16:29:20Z","2024-04-11T16:29:22Z","2024-04-11T16:29:33Z","2024-04-11T16:29:38Z","2024-04-11T16:29:40Z","2024-04-11T16:29:41Z","2024-04-11T16:29:44Z","2024-04-11T16:29:46Z","2024-04-11T16:29:51Z","2024-04-11T16:29:55Z","2024-04-11T16:29:58Z","2024-04-11T16:30:55Z","2024-04-11T16:31:00Z","2024-04-11T16:31:08Z","2024-04-11T16:31:11Z","2024-04-11T16:31:15Z","2024-04-11T16:31:19Z","2024-04-11T16:31:22Z","2024-04-11T16:31:25Z","2024-04-11T16:31:26Z","2024-04-11T16:31:28Z","2024-04-11T16:31:31Z","2024-04-11T16:31:33Z","2024-04-11T16:31:37Z","2024-04-11T16:31:38Z","2024-04-11T16:31:46Z","2024-04-11T16:31:53Z","2024-04-11T16:31:56Z","2024-04-11T16:32:14Z","2024-04-11T16:32:15Z","2024-04-11T16:32:21Z","2024-04-11T16:32:24Z","2024-04-11T16:32:25Z","2024-04-11T16:32:28Z","2024-04-11T16:32:30Z","2024-04-11T16:32:33Z","2024-04-11T16:32:35Z","2024-04-11T16:32:36Z","2024-04-11T16:32:37Z","2024-04-11T16:32:39Z","2024-04-11T16:32:40Z","2024-04-11T16:32:41Z","2024-04-11T16:32:44Z","2024-04-11T16:32:46Z","2024-04-11T16:32:48Z","2024-04-11T16:32:49Z","2024-04-11T16:32:51Z","2024-04-11T16:32:52Z","2024-04-11T16:32:53Z","2024-04-11T16:32:55Z","2024-04-11T16:32:56Z","2024-04-11T16:32:58Z","2024-04-11T16:32:59Z","2024-04-11T16:33:00Z","2024-04-11T16:33:01Z","2024-04-11T16:33:03Z","2024-04-11T16:33:05Z","2024-04-11T16:33:07Z","2024-04-11T16:33:09Z","2024-04-11T16:33:10Z","2024-04-11T16:33:11Z","2024-04-11T16:34:07Z","2024-04-11T16:36:01Z","2024-04-11T16:36:02Z","2024-04-11T16:36:04Z","2024-04-11T16:36:07Z","2024-04-11T16:36:12Z","2024-04-11T16:36:14Z","2024-04-11T16:36:15Z","2024-04-11T16:36:17Z","2024-04-11T16:36:18Z","2024-04-11T16:36:22Z","2024-04-11T16:36:25Z","2024-04-11T16:37:04Z"],"heartRates":[103,103,103,103,103,102,104,105,105,105,105,105,105,106,107,107,107,107,107,109,109,108,108,108,108,108,108,108,102,102,103,103,104,104,104,102,103,103,102,102,102,102,102,102,102,105,105,104,104,104,102,102,98,98,98,98,100,105,106,106,106,106,104,104,103,105,105,104,104,104,103,101,101,101,100,99,102,103,104,105,105,104,104,104,104,104,105,105,105,106,106,103,103,102,102,104,104,104,104,105,103,105,104,104,103,103,104,104,105,105,104,104,108,108,101,101,101,100,99,101,101,101,102,102,102,102,102,105,104,104,104,106,106,106,104,104,107,107,107,108,109,109,109,108,108,108,108,107,107,107,106,105,104,104,104,108,108,108,110,109,109,109,97,97,97,97,97,93,93,93,92,92,92,93,93,93,93,93,93,93,97,97,97,97,97,97,96,93,93,94,95,96,96,96,96,96,92,92,96,98,99,101,101,101,102,102,99,98,99,99,99,99,99,99,99,102,102,101,101,104,104,104,104,104,101,101,99,99,98,98,98,98,98,95,95,95,98,100,99,99,99,99,97,92,92,95,98,99,99,100,99,97,98,98,99,99,99,99,100,100,100,100,100,99,100,98,96,99,98,99,102,102,101,99,99,99,95,100,96,94,94,94,94,95,96,96,94,94,94,96,96,99,101,103,103,103,103,87,87,92,92,90,89,89,93,93,93,93,94,94,96,96,96,97,97,97,97,98,96,96,96,95,95,95,96,96,96,96,97,97,95,95,95,95,96,96,96,96,96,96,98,96,96,96,96,96,93,93,93,92,92,92,93,94,92,92,86,89,89,89,89,89,89,89,91,91,91,92,92,92,92,92,92,94,94,94,90,90,90,90,94,93,94,94,95,95,95,97,97,97,97,97,95,95,97,97,97,97,97,98,98,98,98,97,94,86,91,95,95,95,95,95,95,95,97,97,97,96,95,95,95,93,93,97,97,97,97,97,96,97,97,97,97,96,97,97,96,96,95,95,96,96,95,95,95,95,95,95,95,90,90,92,92,94,91,90,93,91,91,91,89,88,87,87,85,85,85,90,91,91,94,94,97,95,96,96,96,97,97,96,95,96,96,95,95,96,96,99,99,99,99,98,98,100,100,100,100,100,100,100,100,100,99,99,99,99,99,100,100,100,100,100,99,99,99,98,97,97,97,97,97,98,99,97,97,97,97,97,97,97,98,98,96,96,95,95,95,94,95,95,95,96,96,97,96,96,97,99,99,102,102,102,101,101,101,101,101,101,101,101,101,101,101,101,101,98,98,98,99,99,99,99,99,99,99,99,99,99,99,99,99,99,95,92,93,93,93,88,88,88,88,88,88,88,79],"month":"2024-04-01"},"geometry":{"type":"LineString","coordinates":[[3.065492,50.634483,25.2],[3.065506,50.634447,25.2],[3.06556,50.634373,25.2],[3.065563,50.63434,25.2],[3.065594,50.634292,25.1],[3.06567,50.634221,25.1],[3.065752,50.634161,25.1],[3.065801,50.63418,25.1],[3.065822,50.634126,25.1],[3.065832,50.634127,25.1],[3.065832,50.634114,25.1],[3.065855,50.634104,25.1],[3.065861,50.634083,25.1],[3.065908,50.634036,25.1],[3.06593,50.633995,25.1],[3.065951,50.633994,25.1],[3.065977,50.633971,25.1],[3.066009,50.633962,25.1],[3.066059,50.633929,25.1],[3.066079,50.633899,25.2],[3.0661,50.633888,25.2],[3.066104,50.633876,25.2],[3.066127,50.633865,25.2],[3.066159,50.633808,25.2],[3.06619,50.633813,25.2],[3.066238,50.633781,25.3],[3.066257,50.633792,25.3],[3.06628,50.633782,25.3],[3.066332,50.633728,25.3],[3.066354,50.633684,25.4],[3.066444,50.633596,25.7],[3.066517,50.633557,25.8],[3.066562,50.63351,25.9],[3.066567,50.633486,25.9],[3.066584,50.633482,26],[3.066597,50.633461,26],[3.066569,50.63334,26.2],[3.066544,50.633309,26.2],[3.066535,50.633279,26.3],[3.066518,50.633267,26.3],[3.066512,50.633222,26.3],[3.066526,50.633191,26.3],[3.066499,50.633146,26.3],[3.0665,50.63313,26.3],[3.066526,50.633119,26.3],[3.066595,50.63303,26.3],[3.066636,50.632932,26.3],[3.066629,50.632876,26.3],[3.066598,50.632829,26.2],[3.066589,50.632783,26.2],[3.066567,50.632745,26.2],[3.066577,50.63271,26.2],[3.066566,50.632637,26.2],[3.066576,50.632605,26.2],[3.066566,50.632593,26.2],[3.066573,50.632578,26.1],[3.066557,50.632532,26.1],[3.066486,50.63246,26.1],[3.066463,50.632416,26.1],[3.066404,50.632357,26],[3.066386,50.632319,26],[3.066389,50.632302,26],[3.066361,50.632242,26],[3.066362,50.632215,26],[3.066302,50.632095,25.9],[3.066212,50.631988,25.9],[3.066199,50.631983,25.9],[3.066224,50.631955,25.9],[3.066242,50.631891,25.9],[3.066218,50.631824,25.9],[3.06613,50.631765,25.9],[3.066078,50.631699,25.9],[3.066098,50.631719,25.9],[3.066096,50.631702,25.9],[3.066072,50.631686,25.9],[3.066033,50.631566,25.9],[3.066044,50.631551,25.9],[3.066025,50.631476,25.8],[3.066036,50.631404,25.8],[3.066019,50.631344,25.8],[3.065964,50.631293,25.7],[3.065965,50.631268,25.7],[3.065909,50.631256,25.7],[3.065903,50.631233,25.6],[3.065875,50.631227,25.6],[3.065861,50.63121,25.6],[3.065847,50.631153,25.6],[3.065829,50.631147,25.5],[3.065824,50.631125,25.5],[3.065796,50.631101,25.5],[3.065782,50.63107,25.5],[3.065674,50.630993,25.4],[3.065655,50.630968,25.4],[3.065593,50.630943,25.4],[3.065463,50.630829,25.4],[3.065421,50.630805,25.4],[3.06537,50.630793,25.4],[3.065342,50.630774,25.4],[3.065335,50.630727,25.5],[3.065311,50.630706,25.5],[3.065234,50.630583,25.6],[3.065125,50.630537,25.7],[3.065061,50.630521,25.8],[3.065,50.630486,25.8],[3.064977,50.630482,25.9],[3.064941,50.630458,25.9],[3.064762,50.630414,26.1],[3.064713,50.630377,26.2],[3.064703,50.630347,26.2],[3.06472,50.630333,26.2],[3.064701,50.630262,26.3],[3.064594,50.630181,26.3],[3.064529,50.630113,26],[3.064516,50.630109,26],[3.064465,50.630041,25.9],[3.064402,50.63002,25.8],[3.064352,50.629981,25.8],[3.064299,50.629964,25.8],[3.06426,50.629905,25.8],[3.064145,50.629858,25.8],[3.064094,50.629815,25.8],[3.064089,50.629799,25.8],[3.064071,50.62979,25.8],[3.064039,50.629745,25.8],[3.063999,50.62972,25.8],[3.063994,50.629707,25.8],[3.063963,50.629696,25.8],[3.063924,50.629663,25.8],[3.063905,50.629632,25.8],[3.063769,50.629554,25.9],[3.063753,50.629531,26],[3.063662,50.629483,26],[3.063659,50.62946,26],[3.063701,50.629439,26.1],[3.063716,50.629419,26.1],[3.0637,50.62934,26.1],[3.063735,50.629268,26.2],[3.063744,50.629268,26.2],[3.063762,50.629243,26.2],[3.063916,50.629153,26.2],[3.063955,50.629145,26.2],[3.063987,50.629122,26.2],[3.064066,50.62909,26.2],[3.064056,50.62908,26.2],[3.064074,50.629069,26.2],[3.064101,50.629067,26.2],[3.064118,50.629048,26.2],[3.064152,50.629033,26.2],[3.064148,50.629017,26.2],[3.06424,50.628983,26.3],[3.064251,50.628985,26.3],[3.064239,50.628944,26.3],[3.064225,50.628941,26.3],[3.064235,50.628928,26.3],[3.064239,50.628942,26.3],[3.064249,50.628919,26.3],[3.064265,50.628928,26.3],[3.064263,50.628918,26.3],[3.064278,50.62893,26.3],[3.06438,50.628953,26.3],[3.064305,50.628933,26.3],[3.064327,50.628916,26.3],[3.064271,50.628924,26.3],[3.064235,50.628943,26.3],[3.064302,50.629057,26.4],[3.064261,50.629036,26.4],[3.064205,50.628983,26.4],[3.064219,50.62896,26.4],[3.064209,50.628964,26.4],[3.064238,50.628975,26.4],[3.064229,50.628965,26.5],[3.064242,50.628971,26.5],[3.064223,50.628967,26.5],[3.064215,50.628972,26.5],[3.064222,50.62898,26.5],[3.064233,50.628979,26.5],[3.064227,50.628958,26.5],[3.064203,50.62895,26.5],[3.064224,50.628952,26.5],[3.06424,50.628965,26.5],[3.064216,50.628959,26.5],[3.064212,50.628941,26.5],[3.06423,50.628951,26.5],[3.06428,50.62896,26.5],[3.064281,50.62897,26.5],[3.064302,50.628979,26.5],[3.06432,50.628973,26.5],[3.064375,50.628977,26.5],[3.064415,50.628966,26.5],[3.064457,50.628972,26.5],[3.064551,50.628957,26.5],[3.064603,50.628928,26.5],[3.064609,50.628901,26.5],[3.06464,50.628871,26.5],[3.064634,50.628861,26.5],[3.064647,50.628832,26.5],[3.064629,50.628761,26.5],[3.064642,50.628767,26.5],[3.064651,50.628868,26.5],[3.064677,50.628887,26.5],[3.06471,50.628965,26.5],[3.064689,50.629009,26.4],[3.064691,50.629096,26.4],[3.064707,50.629131,26.3],[3.064723,50.629239,26.3],[3.064748,50.629246,26.3],[3.064715,50.629267,26.3],[3.064744,50.629339,26.2],[3.06473,50.629359,26.2],[3.064733,50.629405,26.2],[3.064722,50.62941,26.2],[3.06474,50.629422,26.2],[3.064742,50.629435,26.2],[3.064698,50.629467,26.2],[3.0647,50.629512,26.2],[3.064776,50.629649,26.2],[3.064771,50.629669,26.2],[3.064806,50.629761,26.2],[3.064774,50.629821,26.2],[3.064777,50.629858,26.2],[3.064761,50.629882,26.2],[3.064789,50.629897,26.2],[3.064788,50.629912,26.2],[3.064758,50.629945,26.2],[3.064687,50.629985,26.1],[3.064687,50.629999,26.1],[3.06465,50.630033,26.1],[3.064627,50.63004,26.1],[3.064624,50.630053,26.1],[3.064606,50.630063,26.1],[3.06462,50.630062,26.1],[3.064621,50.630052,26.1],[3.064618,50.630059,26.1],[3.064556,50.630063,26.1],[3.06453,50.630087,26.1],[3.064456,50.630113,26.1],[3.064371,50.630205,26],[3.06426,50.630283,26],[3.064192,50.63031,26],[3.064052,50.630342,25.9],[3.06404,50.630351,25.9],[3.064048,50.630349,25.9],[3.06395,50.630398,25.9],[3.063937,50.630417,25.9],[3.063856,50.63047,25.8],[3.063842,50.63049,25.8],[3.063774,50.630538,25.8],[3.063687,50.630572,25.8],[3.063617,50.630622,25.8],[3.063497,50.630685,25.8],[3.063399,50.630723,25.8],[3.063386,50.63075,25.8],[3.063298,50.630784,25.7],[3.063279,50.630783,25.7],[3.063199,50.630832,25.7],[3.063187,50.630831,25.7],[3.063055,50.630921,25.5],[3.06302,50.630967,25.5],[3.062957,50.63098,25.5],[3.06295,50.630987,25.5],[3.062925,50.630984,25.5],[3.062895,50.631012,25.4],[3.062836,50.631021,25.4],[3.062739,50.631012,25.4],[3.06261,50.631029,25.4],[3.062558,50.631006,25.3],[3.062447,50.63111,25.2],[3.062366,50.631161,25.2],[3.062293,50.631226,25.2],[3.062158,50.631304,25.2],[3.062053,50.63138,25.2],[3.062011,50.631396,25.2],[3.061969,50.631432,25.2],[3.062002,50.631497,25.3],[3.061998,50.63152,25.3],[3.061962,50.631549,25.3],[3.062004,50.631632,25.7],[3.062072,50.631687,25.7],[3.062105,50.631744,25.6],[3.062178,50.631789,25.6],[3.062228,50.631802,25.6],[3.062224,50.631814,25.6],[3.062313,50.631856,25.6],[3.062322,50.631893,25.6],[3.062397,50.631931,25.6],[3.062382,50.631927,25.6],[3.06242,50.632037,25.6],[3.062479,50.632051,25.6],[3.062484,50.632099,25.4],[3.062458,50.632119,25.3],[3.062431,50.632161,25.3],[3.062448,50.632189,25.4],[3.062503,50.632215,25.4],[3.062595,50.632307,25.5],[3.062604,50.632292,25.5],[3.062634,50.632295,25.5],[3.062627,50.632304,25.5],[3.06225,50.632213,26],[3.062468,50.632317,26.1],[3.062414,50.63235,26.1],[3.062371,50.632351,26.2],[3.062357,50.632374,26.2],[3.062259,50.632444,26.3],[3.06225,50.632474,26.3],[3.062278,50.632505,26.3],[3.062285,50.632503,26.3],[3.062294,50.632519,26.3],[3.062304,50.632512,26.3],[3.06232,50.632541,26.3],[3.06232,50.632576,26.2],[3.062343,50.632603,26.2],[3.062383,50.632614,26.2],[3.062392,50.632644,26.2],[3.062464,50.632651,26.2],[3.062485,50.632661,26.2],[3.062511,50.632704,26.1],[3.062524,50.63271,26.1],[3.062526,50.632748,26.1],[3.062519,50.63274,26.1],[3.062526,50.63278,26.1],[3.062517,50.632778,26.1],[3.062489,50.632905,26],[3.062494,50.6329,26],[3.062538,50.632968,26],[3.062556,50.632967,26],[3.062584,50.632982,26],[3.062639,50.633105,25.9],[3.06268,50.633154,25.9],[3.062696,50.633151,25.9],[3.062719,50.633193,25.8],[3.06275,50.633224,25.8],[3.0628,50.633318,25.8],[3.062849,50.633332,25.8],[3.062868,50.633326,25.8],[3.062889,50.633332,25.8],[3.06288,50.633342,25.8],[3.062885,50.633336,25.8],[3.062936,50.633349,25.8],[3.062958,50.633362,25.8],[3.062935,50.63334,25.8],[3.062935,50.633355,25.7],[3.062913,50.633353,25.7],[3.062996,50.633464,25.7],[3.06297,50.633474,25.7],[3.062966,50.633505,25.7],[3.062977,50.633495,25.7],[3.062997,50.633518,25.7],[3.063025,50.633522,25.7],[3.063052,50.633561,25.7],[3.063042,50.633592,25.7],[3.063062,50.633619,25.7],[3.06306,50.633639,25.7],[3.06314,50.633701,25.6],[3.063211,50.633732,25.6],[3.063287,50.633819,25.6],[3.063278,50.633819,25.6],[3.063292,50.633714,25.5],[3.063352,50.633792,25.5],[3.063374,50.633841,25.5],[3.063385,50.633844,25.5],[3.0634,50.633889,25.5],[3.063446,50.63395,25.4],[3.063447,50.633972,25.4],[3.063462,50.633986,25.4],[3.063498,50.633995,25.4],[3.063505,50.634029,25.4],[3.063522,50.63403,25.4],[3.063564,50.634065,25.4],[3.063582,50.634094,25.4],[3.063611,50.634105,25.4],[3.063659,50.634142,25.5],[3.063685,50.634184,25.5],[3.063737,50.634209,25.5],[3.063755,50.634238,25.5],[3.063742,50.634289,25.5],[3.063775,50.634311,25.6],[3.063778,50.634327,25.6],[3.06381,50.634353,25.6],[3.063815,50.634369,25.6],[3.063829,50.63437,25.6],[3.063867,50.634394,25.6],[3.063882,50.634424,25.7],[3.063902,50.634427,25.7],[3.063929,50.634483,25.8],[3.063997,50.63452,25.8],[3.063997,50.634544,25.9],[3.064035,50.634584,25.9],[3.064067,50.634639,26],[3.064083,50.634644,26],[3.064105,50.634673,26],[3.064099,50.634694,26.1],[3.064126,50.634718,26.1],[3.064143,50.634721,26.1],[3.064182,50.634773,26.2],[3.064201,50.634776,26.2],[3.064223,50.634798,26.2],[3.064246,50.634846,26.3],[3.064261,50.634856,26.3],[3.064273,50.634852,26.3],[3.064282,50.634906,26.3],[3.064313,50.634949,26.3],[3.064298,50.634955,26.3],[3.064316,50.63496,26.3],[3.064328,50.634977,26.3],[3.064399,50.635009,26.3],[3.064418,50.635089,26.2],[3.06438,50.635062,26.2],[3.064371,50.635082,26.2],[3.06438,50.635077,26.2],[3.064363,50.635065,26.2],[3.064367,50.635075,26.2],[3.064385,50.635066,26.2],[3.064416,50.63509,26.2],[3.064443,50.635097,26.2],[3.06457,50.635186,26.1],[3.064589,50.635182,26.1],[3.06459,50.635202,26.1],[3.064553,50.635249,26.1],[3.064555,50.635305,26.1],[3.064518,50.635334,26.1],[3.064461,50.635355,26.1],[3.064422,50.635393,26.1],[3.064382,50.635399,26.1],[3.064321,50.635488,26.2],[3.06428,50.635522,26.3],[3.064275,50.63554,26.3],[3.064223,50.635581,26.3],[3.064229,50.635622,26.4],[3.064154,50.63569,26.5],[3.064138,50.635691,26.5],[3.064083,50.63574,26.5],[3.064071,50.635735,26.6],[3.064018,50.635777,26.6],[3.063994,50.635784,26.6],[3.06393,50.635851,26.7],[3.063921,50.635901,26.7],[3.063898,50.635915,26.7],[3.063871,50.635986,26.7],[3.063847,50.636004,26.7],[3.06379,50.636101,26.7],[3.063741,50.636133,26.7],[3.063739,50.636152,26.7],[3.063672,50.636205,26.7],[3.063672,50.63622,26.7],[3.063607,50.636264,26.7],[3.06361,50.636274,26.7],[3.063571,50.636278,26.7],[3.063587,50.636311,26.7],[3.063571,50.636328,26.6],[3.063574,50.636439,26.2],[3.063608,50.636478,26],[3.063627,50.636533,25.8],[3.063676,50.636588,25.6],[3.063746,50.636607,25.4],[3.063906,50.636674,25],[3.064001,50.636681,24.8],[3.0641,50.63666,24.5],[3.064196,50.636654,24.5],[3.064206,50.636661,24.5],[3.064246,50.636657,24.5],[3.064241,50.636627,24.5],[3.064284,50.636625,24.5],[3.064268,50.636714,24.5],[3.064268,50.636701,24.5],[3.06435,50.63671,24.5],[3.06438,50.636721,24.5],[3.064394,50.636718,24.5],[3.064403,50.636727,24.5],[3.064463,50.636738,24.4],[3.064469,50.636746,24.4],[3.064594,50.636784,24.4],[3.064603,50.636796,24.4],[3.064705,50.636838,24.4],[3.064812,50.636919,24.5],[3.064875,50.636947,24.5],[3.064889,50.636945,24.5],[3.064917,50.63696,24.5],[3.065045,50.636988,24.5],[3.065048,50.636982,24.5],[3.065099,50.636982,24.5],[3.065242,50.63703,24.5],[3.065296,50.637028,24.5],[3.065323,50.637017,24.5],[3.065461,50.637015,24.5],[3.065496,50.637028,24.5],[3.065515,50.637087,24.4],[3.065515,50.637137,24.4],[3.065624,50.637285,24.2],[3.065631,50.637319,24.2],[3.065653,50.637345,24.1],[3.065714,50.637374,24.1],[3.06573,50.637391,24],[3.065859,50.637412,24],[3.065991,50.637405,23.9],[3.066058,50.637425,23.8],[3.066149,50.637439,23.8],[3.066166,50.63745,23.8],[3.066218,50.637461,23.7],[3.066237,50.637457,23.7],[3.066292,50.637472,23.7],[3.066367,50.637467,23.6],[3.066387,50.637455,23.6],[3.06642,50.63746,23.6],[3.066476,50.637439,23.6],[3.066518,50.637453,23.5],[3.066546,50.637454,23.5],[3.066586,50.637479,23.5],[3.066657,50.637472,23.5],[3.066734,50.637478,23.5],[3.06678,50.637497,23.5],[3.066799,50.637497,23.5],[3.066855,50.637522,23.5],[3.066895,50.637522,23.5],[3.066919,50.63754,23.5],[3.067073,50.637546,23.5],[3.067107,50.637535,23.5],[3.067195,50.637554,23.6],[3.067277,50.637557,23.6],[3.067301,50.637568,23.6],[3.067316,50.637557,23.6],[3.067343,50.637553,23.6],[3.067455,50.637598,23.6],[3.067477,50.637617,23.6],[3.067642,50.637691,23.6],[3.067698,50.637747,23.6],[3.067736,50.63776,23.6],[3.067736,50.637775,23.7],[3.067785,50.637803,23.7],[3.067836,50.637807,23.7],[3.067902,50.637825,23.7],[3.067956,50.637857,23.7],[3.067995,50.637862,23.7],[3.068132,50.637968,23.7],[3.068136,50.638018,23.6],[3.068238,50.638074,23.5],[3.068298,50.63807,23.5],[3.068323,50.638113,23.5],[3.068373,50.638155,23.5],[3.068417,50.638166,23.5],[3.068441,50.638197,23.5],[3.068462,50.638208,23.5],[3.06848,50.638236,23.5],[3.068521,50.638264,23.5],[3.06857,50.638272,23.5],[3.068623,50.638305,23.5],[3.068628,50.638319,23.5],[3.068714,50.638376,23.5],[3.068759,50.638443,23.5],[3.068762,50.638477,23.5],[3.06897,50.638642,23.5],[3.068984,50.638638,23.5],[3.068983,50.638657,23.5],[3.069043,50.638695,23.5],[3.06905,50.63871,23.5],[3.069091,50.638715,23.5],[3.069031,50.638693,23.5],[3.068943,50.638675,23.5],[3.068955,50.638679,23.5],[3.068946,50.638675,23.5],[3.06895,50.638667,23.5],[3.068936,50.638664,23.5],[3.068947,50.638664,23.5],[3.068914,50.638631,23.5],[3.068928,50.638656,23.5],[3.068889,50.638631,23.5],[3.068949,50.638651,23.5],[3.068978,50.638647,23.5],[3.069008,50.638664,23.5],[3.069026,50.638656,23.5],[3.069037,50.638672,23.5],[3.068994,50.638666,23.5],[3.068966,50.638674,23.5],[3.068977,50.638673,23.5],[3.068967,50.638659,23.5],[3.068985,50.638654,23.5],[3.069023,50.638665,23.5],[3.069025,50.638653,23.5],[3.06905,50.638656,23.5],[3.069056,50.638668,23.5],[3.069036,50.638661,23.5],[3.069063,50.638663,23.5],[3.069046,50.63866,23.5],[3.069101,50.638604,23.5],[3.068744,50.638832,23.6],[3.068898,50.638793,23.6],[3.068909,50.638775,23.6],[3.06893,50.63878,23.6],[3.068888,50.638805,23.6],[3.068887,50.638792,23.6],[3.068875,50.638792,23.6],[3.068924,50.638806,23.6],[3.068882,50.638703,23.6],[3.068918,50.638671,23.6],[3.068935,50.638636,23.6],[3.068884,50.638704,23.6]]}}]}