{"type":"FeatureCollection","features":[{"type":"Feature","properties":{"name":"Oups, la taule…","type":"tennis","time":"2024-12-08T08:25:30Z","coordTimes":["2024-12-08T08:25:30Z","2024-12-08T08:28:03Z","2024-12-08T08:28:04Z","2024-12-08T08:28:08Z","2024-12-08T08:28:09Z","2024-12-08T08:28:10Z","2024-12-08T08:28:17Z","2024-12-08T08:28:21Z","2024-12-08T08:28:22Z","2024-12-08T08:28:24Z","2024-12-08T08:29:18Z","2024-12-08T08:29:23Z","2024-12-08T08:31:47Z","2024-12-08T08:31:49Z","2024-12-08T08:31:52Z","2024-12-08T08:31:53Z","2024-12-08T08:31:55Z","2024-12-08T08:31:57Z","2024-12-08T08:32:00Z","2024-12-08T08:32:43Z","2024-12-08T08:32:44Z","2024-12-08T08:33:28Z","2024-12-08T08:35:22Z","2024-12-08T08:35:23Z","2024-12-08T08:35:24Z","2024-12-08T08:36:12Z","2024-12-08T08:36:13Z","2024-12-08T08:37:02Z","2024-12-08T08:37:03Z","2024-12-08T08:38:59Z","2024-12-08T08:39:03Z","2024-12-08T08:41:04Z","2024-12-08T08:41:05Z","2024-12-08T08:41:06Z","2024-12-08T08:41:07Z","2024-12-08T08:41:09Z","2024-12-08T08:41:11Z","2024-12-08T08:41:12Z","2024-12-08T08:41:13Z","2024-12-08T08:41:14Z","2024-12-08T08:41:15Z","2024-12-08T08:41:17Z","2024-12-08T08:41:18Z","2024-12-08T08:41:19Z","2024-12-08T08:41:20Z","2024-12-08T08:41:22Z","2024-12-08T08:41:23Z","2024-12-08T08:41:25Z","2024-12-08T08:41:26Z","2024-12-08T08:41:27Z","2024-12-08T08:41:28Z","2024-12-08T08:41:29Z","2024-12-08T08:41:30Z","2024-12-08T08:41:32Z","2024-12-08T08:41:33Z","2024-12-08T08:41:35Z","2024-12-08T08:41:36Z","2024-12-08T08:41:37Z","2024-12-08T08:41:39Z","2024-12-08T08:41:42Z","2024-12-08T08:41:43Z","2024-12-08T08:41:44Z","2024-12-08T08:41:45Z","2024-12-08T08:41:47Z","2024-12-08T08:41:49Z","2024-12-08T08:41:52Z","2024-12-08T08:41:54Z","2024-12-08T08:41:55Z","2024-12-08T08:41:56Z","2024-12-08T08:41:57Z","2024-12-08T08:41:59Z","2024-12-08T08:42:00Z","2024-12-08T08:42:01Z","2024-12-08T08:42:03Z","2024-12-08T08:42:05Z","2024-12-08T08:42:06Z","2024-12-08T08:42:07Z","2024-12-08T08:42:08Z","2024-12-08T08:42:09Z","2024-12-08T08:42:10Z","2024-12-08T08:42:11Z","2024-12-08T08:42:12Z","2024-12-08T08:42:13Z","2024-12-08T08:42:14Z","2024-12-08T08:42:15Z","2024-12-08T08:42:16Z","2024-12-08T08:42:17Z","2024-12-08T08:42:19Z","2024-12-08T08:42:20Z","2024-12-08T08:42:21Z","2024-12-08T08:42:22Z","2024-12-08T08:42:25Z","2024-12-08T08:42:27Z","2024-12-08T08:42:29Z","2024-12-08T08:42:30Z","2024-12-08T08:42:31Z","2024-12-08T08:42:32Z","2024-12-08T08:42:34Z","2024-12-08T08:42:35Z","2024-12-08T08:42:42Z","2024-12-08T08:42:43Z","2024-12-08T08:42:44Z","2024-12-08T08:42:45Z","2024-12-08T08:42:47Z","2024-12-08T08:42:49Z","2024-12-08T08:42:50Z","2024-12-08T08:42:51Z","2024-12-08T08:42:53Z","2024-12-08T08:42:54Z","2024-12-08T08:42:55Z","2024-12-08T08:42:57Z","2024-12-08T08:43:00Z","2024-12-08T08:43:01Z","2024-12-08T08:43:02Z","2024-12-08T08:43:03Z","2024-12-08T08:43:04Z","2024-12-08T08:43:08Z","2024-12-08T08:43:09Z","2024-12-08T08:43:10Z","2024-12-08T08:43:12Z","2024-12-08T08:43:13Z","2024-12-08T08:43:15Z","2024-12-08T08:43:16Z","2024-12-08T08:43:17Z","2024-12-08T08:43:18Z","2024-12-08T08:43:19Z","2024-12-08T08:43:20Z","2024-12-08T08:43:21Z","2024-12-08T08:43:24Z","2024-12-08T08:43:25Z","2024-12-08T08:43:26Z","2024-12-08T08:43:29Z","2024-12-08T08:43:30Z","2024-12-08T08:43:32Z","2024-12-08T08:43:33Z","2024-12-08T08:43:34Z","2024-12-08T08:43:35Z","2024-12-08T08:43:36Z","2024-12-08T08:43:38Z","2024-12-08T08:43:39Z","2024-12-08T08:43:41Z","2024-12-08T08:43:43Z","2024-12-08T08:43:44Z","2024-12-08T08:43:45Z","2024-12-08T08:43:47Z","2024-12-08T08:43:48Z","2024-12-08T08:43:50Z","2024-12-08T08:44:00Z","2024-12-08T08:44:01Z","2024-12-08T08:44:02Z","2024-12-08T08:44:03Z","2024-12-08T08:44:04Z","2024-12-08T08:44:05Z","2024-12-08T08:44:08Z","2024-12-08T08:44:10Z","2024-12-08T08:44:12Z","2024-12-08T08:44:13Z","2024-12-08T08:44:15Z","2024-12-08T08:44:18Z","2024-12-08T08:44:19Z","2024-12-08T08:44:20Z","2024-12-08T08:44:21Z","2024-12-08T08:44:22Z","2024-12-08T08:44:23Z","2024-12-08T08:44:24Z","2024-12-08T08:44:26Z","2024-12-08T08:44:29Z","2024-12-08T08:44:31Z","2024-12-08T08:44:32Z","2024-12-08T08:44:33Z","2024-12-08T08:44:35Z","2024-12-08T08:44:36Z","2024-12-08T08:44:37Z","2024-12-08T08:44:39Z","2024-12-08T08:44:40Z","2024-12-08T08:44:41Z","2024-12-08T08:44:42Z","2024-12-08T08:44:43Z","2024-12-08T08:44:44Z","2024-12-08T08:44:46Z","2024-12-08T08:44:47Z","2024-12-08T08:44:49Z","2024-12-08T08:44:50Z","2024-12-08T08:44:51Z","2024-12-08T08:44:52Z","2024-12-08T08:44:55Z","2024-12-08T08:44:57Z","2024-12-08T08:45:00Z","2024-12-08T08:45:02Z","2024-12-08T08:45:03Z","2024-12-08T08:45:06Z","2024-12-08T08:45:07Z","2024-12-08T08:45:09Z","2024-12-08T08:45:10Z","2024-12-08T08:45:11Z","2024-12-08T08:45:13Z","2024-12-08T08:45:14Z","2024-12-08T08:45:16Z","2024-12-08T08:45:18Z","2024-12-08T08:45:19Z","2024-12-08T08:45:20Z","2024-12-08T08:45:21Z","2024-12-08T08:45:22Z","2024-12-08T08:45:25Z","2024-12-08T08:45:26Z","2024-12-08T08:45:28Z","2024-12-08T08:45:31Z","2024-12-08T08:45:32Z","2024-12-08T08:45:34Z","2024-12-08T08:45:39Z","2024-12-08T08:45:40Z","2024-12-08T08:45:41Z","2024-12-08T08:45:45Z","2024-12-08T08:45:46Z","2024-12-08T08:45:47Z","2024-12-08T08:45:48Z","2024-12-08T08:45:52Z","2024-12-08T08:45:54Z","2024-12-08T08:45:55Z","2024-12-08T08:45:57Z","2024-12-08T08:45:59Z","2024-12-08T08:46:01Z","2024-12-08T08:46:06Z","2024-12-08T08:46:08Z","2024-12-08T08:46:12Z","2024-12-08T08:46:13Z","2024-12-08T08:46:15Z","2024-12-08T08:46:17Z","2024-12-08T08:46:19Z","2024-12-08T08:46:21Z","2024-12-08T08:46:23Z","2024-12-08T08:46:24Z","2024-12-08T08:46:25Z","2024-12-08T08:46:27Z","2024-12-08T08:46:28Z","2024-12-08T08:46:29Z","2024-12-08T08:46:30Z","2024-12-08T08:46:31Z","2024-12-08T08:46:33Z","2024-12-08T08:46:34Z","2024-12-08T08:46:36Z","2024-12-08T08:46:37Z","2024-12-08T08:46:38Z","2024-12-08T08:46:39Z","2024-12-08T08:46:42Z","2024-12-08T08:46:44Z","2024-12-08T08:46:46Z","2024-12-08T08:46:48Z","2024-12-08T08:46:49Z","2024-12-08T08:46:51Z","2024-12-08T08:46:53Z","2024-12-08T08:46:54Z","2024-12-08T08:46:55Z","2024-12-08T08:46:56Z","2024-12-08T08:46:58Z","2024-12-08T08:47:01Z","2024-12-08T08:47:02Z","2024-12-08T08:47:03Z","2024-12-08T08:47:06Z","2024-12-08T08:47:08Z","2024-12-08T08:47:09Z","2024-12-08T08:47:10Z","2024-12-08T08:47:11Z","2024-12-08T08:47:12Z","2024-12-08T08:47:13Z","2024-12-08T08:47:14Z","2024-12-08T08:47:17Z","2024-12-08T08:47:21Z","2024-12-08T08:47:22Z","2024-12-08T08:47:23Z","2024-12-08T08:47:24Z","2024-12-08T08:47:25Z","2024-12-08T08:47:27Z","2024-12-08T08:47:29Z","2024-12-08T08:47:31Z","2024-12-08T08:47:32Z","2024-12-08T08:47:33Z","2024-12-08T08:47:34Z","2024-12-08T08:47:35Z","2024-12-08T08:47:36Z","2024-12-08T08:47:38Z","2024-12-08T08:47:39Z","2024-12-08T08:47:42Z","2024-12-08T08:47:43Z","2024-12-08T08:47:44Z","2024-12-08T08:47:45Z","2024-12-08T08:47:46Z","2024-12-08T08:47:48Z","2024-12-08T08:47:49Z","2024-12-08T08:47:50Z","2024-12-08T08:47:51Z","2024-12-08T08:47:52Z","2024-12-08T08:47:53Z","2024-12-08T08:47:54Z","2024-12-08T08:47:55Z","2024-12-08T08:47:56Z","2024-12-08T08:47:57Z","2024-12-08T08:47:58Z","2024-12-08T08:48:00Z","2024-12-08T08:48:01Z","2024-12-08T08:48:02Z","2024-12-08T08:48:03Z","2024-12-08T08:48:04Z","2024-12-08T08:48:05Z","2024-12-08T08:48:06Z","2024-12-08T08:48:07Z","2024-12-08T08:48:08Z","2024-12-08T08:48:09Z","2024-12-08T08:48:10Z","2024-12-08T08:48:11Z","2024-12-08T08:48:13Z","2024-12-08T08:48:14Z","2024-12-08T08:48:15Z","2024-12-08T08:48:16Z","2024-12-08T08:48:17Z","2024-12-08T08:48:20Z","2024-12-08T08:48:21Z","2024-12-08T08:48:22Z","2024-12-08T08:48:23Z","2024-12-08T08:48:24Z","2024-12-08T08:48:25Z","2024-12-08T08:48:27Z","2024-12-08T08:48:28Z","2024-12-08T08:48:30Z","2024-12-08T08:48:31Z","2024-12-08T08:48:33Z","2024-12-08T08:48:34Z","2024-12-08T08:48:35Z","2024-12-08T08:48:37Z","2024-12-08T08:48:39Z","2024-12-08T08:48:40Z","2024-12-08T08:48:41Z","2024-12-08T08:48:43Z","2024-12-08T08:48:44Z","2024-12-08T08:48:45Z","2024-12-08T08:48:48Z","2024-12-08T08:48:50Z","2024-12-08T08:48:52Z","2024-12-08T08:48:54Z","2024-12-08T08:48:55Z","2024-12-08T08:48:56Z","2024-12-08T08:48:57Z","2024-12-08T08:48:58Z","2024-12-08T08:49:01Z","2024-12-08T08:49:02Z","2024-12-08T08:49:04Z","2024-12-08T08:49:05Z","2024-12-08T08:49:06Z","2024-12-08T08:49:08Z","2024-12-08T08:49:09Z","2024-12-08T08:49:11Z","2024-12-08T08:49:13Z","2024-12-08T08:49:16Z","2024-12-08T08:49:19Z","2024-12-08T08:49:20Z","2024-12-08T08:49:22Z","2024-12-08T08:49:39Z","2024-12-08T08:49:40Z","2024-12-08T08:49:41Z","2024-12-08T08:49:42Z","2024-12-08T08:49:43Z","2024-12-08T08:49:44Z","2024-12-08T08:49:46Z","2024-12-08T08:49:48Z","2024-12-08T08:49:51Z","2024-12-08T08:49:53Z","2024-12-08T08:49:57Z","2024-12-08T08:50:11Z","2024-12-08T08:50:13Z","2024-12-08T08:50:17Z","2024-12-08T08:50:18Z","2024-12-08T08:50:19Z","2024-12-08T08:50:21Z","2024-12-08T08:50:23Z","2024-12-08T08:50:24Z","2024-12-08T08:50:27Z","2024-12-08T08:50:29Z","2024-12-08T08:50:30Z","2024-12-08T08:50:31Z","2024-12-08T08:50:32Z","2024-12-08T08:50:33Z","2024-12-08T08:50:35Z","2024-12-08T08:50:38Z","2024-12-08T08:50:40Z","2024-12-08T08:50:41Z","2024-12-08T08:50:43Z","2024-12-08T08:50:45Z","2024-12-08T08:50:48Z","2024-12-08T08:50:49Z","2024-12-08T08:50:50Z","2024-12-08T08:50:51Z","2024-12-08T08:50:52Z","2024-12-08T08:50:53Z","2024-12-08T08:50:54Z","2024-12-08T08:50:55Z","2024-12-08T08:50:56Z","2024-12-08T08:50:57Z","2024-12-08T08:50:58Z","2024-12-08T08:51:00Z","2024-12-08T08:51:01Z","2024-12-08T08:51:04Z","2024-12-08T08:51:05Z","2024-12-08T08:51:07Z","2024-12-08T08:51:08Z","2024-12-08T08:51:09Z","2024-12-08T08:51:10Z","2024-12-08T08:51:12Z","2024-12-08T08:51:14Z","2024-12-08T08:51:16Z","2024-12-08T08:51:18Z","2024-12-08T08:51:22Z","2024-12-08T08:51:25Z","2024-12-08T08:51:27Z","2024-12-08T08:51:28Z","2024-12-08T08:51:32Z","2024-12-08T08:51:33Z","2024-12-08T08:51:37Z","2024-12-08T08:51:38Z","2024-12-08T08:51:41Z","2024-12-08T08:51:43Z","2024-12-08T08:51:45Z","2024-12-08T08:51:46Z","2024-12-08T08:51:51Z","2024-12-08T08:51:53Z","2024-12-08T08:51:54Z","2024-12-08T08:51:59Z","2024-12-08T08:52:00Z","2024-12-08T08:52:02Z","2024-12-08T08:52:03Z","2024-12-08T08:52:06Z","2024-12-08T08:52:07Z","2024-12-08T08:52:08Z","2024-12-08T08:52:09Z","2024-12-08T08:52:10Z","2024-12-08T08:52:11Z","2024-12-08T08:52:12Z","2024-12-08T08:52:13Z","2024-12-08T08:52:14Z","2024-12-08T08:52:15Z","2024-12-08T08:52:17Z","2024-12-08T08:52:18Z","2024-12-08T08:52:19Z","2024-12-08T08:52:23Z","2024-12-08T08:52:27Z","2024-12-08T08:52:28Z","2024-12-08T08:52:30Z","2024-12-08T08:52:32Z","2024-12-08T08:52:37Z","2024-12-08T08:52:38Z","2024-12-08T08:52:41Z","2024-12-08T08:52:43Z","2024-12-08T08:52:44Z","2024-12-08T08:52:46Z","2024-12-08T08:52:47Z","2024-12-08T08:52:48Z","2024-12-08T08:52:51Z","2024-12-08T08:52:55Z","2024-12-08T08:52:56Z","2024-12-08T08:52:57Z","2024-12-08T08:52:59Z","2024-12-08T08:53:00Z","2024-12-08T08:53:03Z","2024-12-08T08:53:04Z","2024-12-08T08:53:06Z","2024-12-08T08:53:08Z","2024-12-08T08:53:10Z","2024-12-08T08:53:12Z","2024-12-08T08:53:13Z","2024-12-08T08:53:14Z","2024-12-08T08:53:16Z","2024-12-08T08:53:17Z","2024-12-08T08:53:25Z","2024-12-08T08:53:33Z","2024-12-08T08:53:34Z","2024-12-08T08:53:37Z","2024-12-08T08:53:39Z","2024-12-08T08:53:40Z","2024-12-08T08:53:41Z","2024-12-08T08:53:42Z","2024-12-08T08:53:47Z","2024-12-08T08:53:50Z","2024-12-08T08:53:51Z","2024-12-08T08:53:54Z","2024-12-08T08:53:55Z","2024-12-08T08:53:56Z","2024-12-08T08:53:57Z","2024-12-08T08:54:00Z","2024-12-08T08:54:03Z","2024-12-08T08:54:04Z","2024-12-08T08:54:05Z","2024-12-08T08:54:06Z","2024-12-08T08:54:07Z","2024-12-08T08:54:08Z","2024-12-08T08:54:11Z","2024-12-08T08:54:16Z","2024-12-08T08:54:19Z","2024-12-08T08:54:23Z","2024-12-08T08:54:24Z","2024-12-08T08:54:28Z","2024-12-08T08:54:34Z","2024-12-08T08:54:35Z","2024-12-08T08:54:38Z","2024-12-08T08:54:42Z","2024-12-08T08:54:43Z","2024-12-08T08:54:54Z","2024-12-08T08:54:59Z","2024-12-08T08:55:01Z","2024-12-08T08:55:03Z","2024-12-08T08:55:04Z","2024-12-08T08:55:07Z","2024-12-08T08:55:15Z","2024-12-08T08:55:16Z","2024-12-08T08:55:26Z","2024-12-08T08:55:29Z","2024-12-08T08:55:30Z","2024-12-08T08:55:31Z","2024-12-08T08:55:33Z","2024-12-08T08:55:34Z","2024-12-08T08:55:35Z","2024-12-08T08:55:37Z","2024-12-08T08:55:38Z","2024-12-08T08:55:40Z","2024-12-08T08:55:41Z","2024-12-08T08:55:42Z","2024-12-08T08:55:43Z","2024-12-08T08:55:45Z","2024-12-08T08:55:46Z","2024-12-08T08:55:47Z","2024-12-08T08:55:48Z","2024-12-08T08:55:49Z","2024-12-08T08:55:50Z","2024-12-08T08:55:51Z","2024-12-08T08:55:53Z","2024-12-08T08:55:55Z","2024-12-08T08:55:58Z","2024-12-08T08:55:59Z","2024-12-08T08:56:02Z","2024-12-08T08:56:03Z","2024-12-08T08:56:04Z","2024-12-08T08:56:07Z","2024-12-08T08:56:08Z","2024-12-08T08:56:10Z","2024-12-08T08:56:11Z","2024-12-08T08:56:12Z","2024-12-08T08:56:14Z","2024-12-08T08:56:15Z","2024-12-08T08:56:17Z","2024-12-08T08:56:21Z","2024-12-08T08:56:22Z","2024-12-08T08:56:27Z","2024-12-08T08:56:29Z","2024-12-08T08:56:31Z","2024-12-08T08:56:36Z","2024-12-08T08:56:38Z","2024-12-08T08:56:40Z","2024-12-08T08:56:41Z","2024-12-08T08:56:42Z","2024-12-08T08:56:43Z","2024-12-08T08:56:45Z","2024-12-08T08:56:47Z","2024-12-08T08:56:48Z","2024-12-08T08:56:51Z","2024-12-08T08:56:52Z","2024-12-08T08:57:10Z","2024-12-08T08:57:16Z","2024-12-08T08:57:18Z","2024-12-08T08:57:19Z","2024-12-08T08:57:22Z","2024-12-08T08:57:25Z","2024-12-08T08:57:27Z","2024-12-08T08:57:30Z","2024-12-08T08:57:34Z","2024-12-08T08:57:53Z","2024-12-08T08:57:54Z","2024-12-08T08:57:57Z","2024-12-08T08:57:58Z","2024-12-08T08:57:59Z","2024-12-08T08:58:01Z","2024-12-08T08:58:16Z","2024-12-08T08:58:17Z","2024-12-08T08:58:18Z","2024-12-08T08:58:19Z","2024-12-08T08:58:20Z","2024-12-08T08:58:21Z","2024-12-08T08:58:22Z","2024-12-08T08:58:24Z","2024-12-08T08:58:26Z","2024-12-08T08:58:27Z","2024-12-08T08:58:28Z","2024-12-08T08:58:29Z","2024-12-08T08:58:30Z","2024-12-08T08:58:31Z","2024-12-08T08:58:33Z","2024-12-08T08:58:35Z","2024-12-08T08:58:36Z","2024-12-08T08:58:37Z","2024-12-08T08:58:38Z","2024-12-08T08:58:39Z","2024-12-08T08:58:40Z","2024-12-08T08:58:41Z","2024-12-08T08:58:43Z","2024-12-08T08:58:44Z","2024-12-08T08:58:46Z","2024-12-08T08:58:48Z","2024-12-08T08:58:49Z","2024-12-08T08:58:51Z","2024-12-08T08:58:53Z","2024-12-08T08:58:54Z","2024-12-08T08:58:55Z","2024-12-08T08:58:56Z","2024-12-08T08:58:57Z","2024-12-08T08:59:00Z","2024-12-08T08:59:02Z","2024-12-08T08:59:04Z","2024-12-08T08:59:05Z","2024-12-08T08:59:07Z","2024-12-08T08:59:08Z","2024-12-08T08:59:11Z","2024-12-08T08:59:12Z","2024-12-08T08:59:13Z","2024-12-08T08:59:14Z","2024-12-08T08:59:15Z","2024-12-08T08:59:17Z","2024-12-08T08:59:18Z","2024-12-08T08:59:21Z","2024-12-08T08:59:22Z","2024-12-08T08:59:27Z","2024-12-08T08:59:28Z","2024-12-08T08:59:30Z","2024-12-08T08:59:32Z","2024-12-08T08:59:34Z","2024-12-08T08:59:35Z","2024-12-08T08:59:38Z","2024-12-08T08:59:39Z","2024-12-08T08:59:40Z","2024-12-08T08:59:42Z","2024-12-08T08:59:44Z","2024-12-08T08:59:46Z","2024-12-08T08:59:47Z","2024-12-08T08:59:48Z","2024-12-08T08:59:49Z","2024-12-08T08:59:50Z","2024-12-08T08:59:51Z","2024-12-08T08:59:52Z","2024-12-08T08:59:55Z","2024-12-08T08:59:56Z","2024-12-08T08:59:57Z","2024-12-08T08:59:59Z","2024-12-08T09:00:00Z","2024-12-08T09:00:01Z","2024-12-08T09:00:02Z","2024-12-08T09:00:03Z","2024-12-08T09:00:04Z","2024-12-08T09:00:05Z","2024-12-08T09:00:07Z","2024-12-08T09:00:08Z","2024-12-08T09:00:09Z","2024-12-08T09:00:11Z","2024-12-08T09:00:18Z","2024-12-08T09:00:21Z","2024-12-08T09:00:24Z","2024-12-08T09:00:25Z","2024-12-08T09:00:26Z","2024-12-08T09:00:27Z","2024-12-08T09:00:28Z","2024-12-08T09:00:29Z","2024-12-08T09:00:30Z","2024-12-08T09:00:33Z","2024-12-08T09:00:37Z","2024-12-08T09:00:39Z","2024-12-08T09:00:41Z","2024-12-08T09:00:42Z","2024-12-08T09:00:46Z","2024-12-08T09:00:47Z","2024-12-08T09:00:48Z","2024-12-08T09:00:49Z","2024-12-08T09:00:51Z","2024-12-08T09:00:52Z","2024-12-08T09:00:55Z","2024-12-08T09:00:56Z","2024-12-08T09:00:57Z","2024-12-08T09:00:58Z","2024-12-08T09:00:59Z","2024-12-08T09:01:01Z","2024-12-08T09:01:02Z","2024-12-08T09:01:03Z","2024-12-08T09:01:04Z","2024-12-08T09:01:05Z","2024-12-08T09:01:06Z","2024-12-08T09:01:07Z","2024-12-08T09:01:09Z","2024-12-08T09:01:10Z","2024-12-08T09:01:11Z","2024-12-08T09:01:13Z","2024-12-08T09:01:14Z","2024-12-08T09:01:16Z","2024-12-08T09:01:19Z","2024-12-08T09:01:20Z","2024-12-08T09:01:21Z","2024-12-08T09:01:22Z","2024-12-08T09:01:24Z","2024-12-08T09:01:26Z","2024-12-08T09:01:27Z","2024-12-08T09:01:28Z","2024-12-08T09:01:29Z","2024-12-08T09:01:30Z","2024-12-08T09:01:31Z","2024-12-08T09:01:34Z","2024-12-08T09:01:35Z","2024-12-08T09:01:36Z","2024-12-08T09:01:37Z","2024-12-08T09:01:38Z","2024-12-08T09:01:39Z","2024-12-08T09:01:40Z","2024-12-08T09:01:41Z","2024-12-08T09:01:42Z","2024-12-08T09:01:44Z","2024-12-08T09:01:48Z","2024-12-08T09:01:50Z","2024-12-08T09:01:51Z","2024-12-08T09:01:52Z","2024-12-08T09:01:53Z","2024-12-08T09:01:54Z","2024-12-08T09:01:55Z","2024-12-08T09:01:57Z","2024-12-08T09:01:58Z","2024-12-08T09:01:59Z","2024-12-08T09:02:01Z","2024-12-08T09:02:02Z","2024-12-08T09:02:03Z","2024-12-08T09:02:04Z","2024-12-08T09:02:06Z","2024-12-08T09:02:09Z","2024-12-08T09:02:11Z","2024-12-08T09:02:12Z","2024-12-08T09:02:13Z","2024-12-08T09:02:15Z","2024-12-08T09:02:20Z","2024-12-08T09:02:21Z","2024-12-08T09:02:27Z","2024-12-08T09:02:28Z","2024-12-08T09:02:29Z","2024-12-08T09:02:30Z","2024-12-08T09:02:31Z","2024-12-08T09:02:32Z","2024-12-08T09:02:33Z","2024-12-08T09:02:34Z","2024-12-08T09:02:35Z","2024-12-08T09:02:36Z","2024-12-08T09:02:37Z","2024-12-08T09:02:38Z","2024-12-08T09:02:39Z","2024-12-08T09:02:41Z","2024-12-08T09:02:44Z","2024-12-08T09:02:45Z","2024-12-08T09:02:46Z","2024-12-08T09:02:47Z","2024-12-08T09:02:49Z","2024-12-08T09:02:51Z","2024-12-08T09:02:53Z","2024-12-08T09:02:54Z","2024-12-08T09:02:55Z","2024-12-08T09:02:57Z","2024-12-08T09:03:01Z","2024-12-08T09:03:02Z","2024-12-08T09:03:03Z","2024-12-08T09:03:04Z","2024-12-08T09:03:05Z","2024-12-08T09:03:06Z","2024-12-08T09:03:10Z","2024-12-08T09:03:11Z","2024-12-08T09:03:12Z","2024-12-08T09:03:13Z","2024-12-08T09:03:14Z","2024-12-08T09:03:15Z","2024-12-08T09:03:20Z","2024-12-08T09:03:21Z","2024-12-08T09:03:23Z","2024-12-08T09:03:28Z","2024-12-08T09:03:40Z","2024-12-08T09:03:41Z","2024-12-08T09:03:43Z","2024-12-08T09:03:44Z","2024-12-08T09:03:45Z","2024-12-08T09:03:46Z","2024-12-08T09:03:47Z","2024-12-08T09:03:53Z","2024-12-08T09:03:54Z","2024-12-08T09:03:56Z","2024-12-08T09:03:57Z","2024-12-08T09:04:00Z","2024-12-08T09:04:01Z","2024-12-08T09:04:04Z","2024-12-08T09:04:07Z","2024-12-08T09:04:08Z","2024-12-08T09:04:10Z","2024-12-08T09:04:12Z","2024-12-08T09:04:13Z","2024-12-08T09:04:14Z","2024-12-08T09:04:17Z","2024-12-08T09:04:32Z","2024-12-08T09:04:37Z","2024-12-08T09:04:42Z","2024-12-08T09:04:46Z","2024-12-08T09:04:47Z","2024-12-08T09:04:48Z","2024-12-08T09:04:51Z","2024-12-08T09:04:52Z","2024-12-08T09:05:02Z","2024-12-08T09:05:08Z","2024-12-08T09:05:09Z","2024-12-08T09:05:12Z","2024-12-08T09:05:13Z","2024-12-08T09:05:14Z","2024-12-08T09:05:15Z","2024-12-08T09:05:17Z","2024-12-08T09:05:18Z","2024-12-08T09:05:20Z","2024-12-08T09:05:21Z","2024-12-08T09:05:22Z","2024-12-08T09:05:23Z","2024-12-08T09:05:24Z","2024-12-08T09:05:28Z","2024-12-08T09:05:33Z","2024-12-08T09:05:35Z","2024-12-08T09:05:36Z","2024-12-08T09:05:39Z","2024-12-08T09:05:43Z","2024-12-08T09:05:45Z","2024-12-08T09:37:31Z"],"heartRates":[108,109,109,109,109,109,108,109,109,109,124,124,142,142,143,143,143,145,145,151,151,153,144,144,144,142,142,151,151,150,150,143,142,142,142,142,142,142,142,142,142,142,143,143,143,143,143,142,142,142,142,142,141,141,141,141,140,140,140,140,140,140,140,140,139,139,140,140,140,140,141,141,141,141,141,141,141,141,147,147,147,147,147,147,150,150,150,150,152,152,152,152,152,152,152,152,152,152,150,149,150,150,150,150,150,150,150,150,150,150,150,147,147,147,145,145,146,146,146,146,145,145,145,145,145,145,145,145,145,144,144,144,144,145,145,145,145,146,146,146,146,146,146,146,146,146,142,140,140,139,139,139,139,139,136,136,136,135,135,135,136,136,136,136,136,134,134,133,133,133,133,134,134,134,134,134,136,136,136,134,134,134,134,136,136,136,136,136,136,136,139,139,139,139,139,137,137,137,137,137,137,137,137,137,137,137,137,137,137,138,138,138,138,138,138,138,136,136,136,135,135,135,132,132,130,130,130,128,128,128,128,128,131,131,133,133,133,133,136,136,139,139,139,139,139,140,142,142,142,142,142,148,148,148,149,149,149,149,148,148,148,147,146,146,146,146,146,149,149,151,151,151,151,151,155,155,155,155,154,153,153,153,153,153,152,152,152,152,154,154,154,154,154,160,160,160,160,160,162,162,162,162,162,162,162,161,161,161,161,161,159,159,159,159,159,160,160,161,161,161,161,161,161,166,166,166,166,166,166,166,165,165,164,164,164,164,164,164,163,163,163,163,163,163,163,163,160,160,160,160,160,159,160,160,160,160,163,159,159,159,159,159,159,159,154,154,151,146,146,140,140,140,140,140,140,138,138,138,136,136,136,136,137,137,137,137,150,153,153,153,153,155,155,155,155,155,155,155,151,151,151,151,151,153,153,153,153,153,156,156,161,161,161,161,161,161,160,158,158,158,155,155,154,152,152,151,151,150,150,150,150,150,150,150,150,150,151,151,151,151,151,155,155,155,155,152,152,151,151,153,153,153,153,153,156,156,154,154,154,152,152,150,150,150,149,149,149,149,149,149,149,151,153,153,156,154,154,154,153,153,153,153,156,156,156,156,158,158,158,158,158,158,158,155,155,154,155,155,156,156,157,158,158,158,167,166,166,166,167,167,167,167,166,166,160,160,160,160,158,159,159,159,158,158,158,158,158,158,158,158,158,158,158,161,163,163,163,163,163,163,163,163,163,163,163,163,163,166,166,166,169,169,166,166,163,163,163,163,160,160,160,160,160,152,149,149,149,149,148,149,149,146,135,135,135,135,135,138,131,131,131,131,131,131,131,131,132,132,132,132,132,136,136,136,136,136,134,134,134,134,134,134,134,135,135,135,135,135,140,140,140,139,139,139,138,138,138,142,142,142,142,142,142,142,156,156,160,160,160,160,160,157,157,158,158,158,158,161,161,161,161,162,162,162,163,163,163,163,163,163,163,164,164,164,164,164,163,163,158,156,156,156,156,155,155,155,155,160,160,160,162,162,162,162,162,162,162,162,162,162,162,162,162,164,164,164,164,163,163,163,163,163,163,163,159,159,158,158,158,156,156,156,156,156,157,157,157,157,157,159,159,159,159,159,159,159,159,153,153,153,153,153,153,153,153,153,155,155,155,157,157,157,157,156,156,156,153,151,151,149,149,149,149,149,152,152,152,152,152,156,156,156,156,156,164,164,164,164,164,164,162,162,162,160,160,160,160,162,162,164,164,164,164,164,163,162,162,162,164,163,163,163,163,163,163,163,167,167,167,167,161,161,161,161,157,157,154,154,154,154,146,141,141,139,139,139,140,140,136,135,135,135,135,133,133,134,134,134,134,134,134,137,137,139,139,139,135,135,134,136],"month":"2024-12-01"},"geometry":{"type":"LineString","coordinates":[[2.941192,48.388055,49],[2.941857,48.387974,48.9],[2.941866,48.387984,48.9],[2.941982,48.38801,48.9],[2.941992,48.388021,48.9],[2.941982,48.388035,48.9],[2.942012,48.388123,48.9],[2.941975,48.388313,48.9],[2.941982,48.388244,48.9],[2.941991,48.388369,48.8],[2.941812,48.388007,48.7],[2.941823,48.388122,48.8],[2.942847,48.387505,48.9],[2.9428,48.387495,48.9],[2.942154,48.387492,49],[2.94213,48.387524,49],[2.942122,48.387573,49],[2.941863,48.387642,49],[2.941875,48.387716,49],[2.941929,48.387742,49],[2.941912,48.38775,49],[2.941867,48.387856,49],[2.941976,48.387544,48.9],[2.942012,48.387527,49],[2.942046,48.387572,49],[2.942531,48.388012,48.4],[2.942471,48.388031,48.4],[2.941796,48.388126,48.5],[2.94179,48.388136,48.5],[2.941943,48.387937,48.6],[2.94189,48.38799,48.7],[2.941695,48.387549,48.8],[2.941777,48.387544,48.8],[2.941829,48.38757,48.8],[2.941819,48.38762,48.8],[2.941842,48.387697,48.9],[2.9419,48.387719,48.9],[2.941912,48.387749,48.9],[2.941932,48.387749,48.9],[2.941932,48.387765,48.9],[2.941958,48.387789,48.9],[2.941966,48.387826,48.9],[2.941984,48.387845,48.9],[2.941972,48.387847,48.9],[2.941987,48.387858,48.9],[2.941938,48.387824,48.9],[2.941941,48.387814,48.9],[2.941906,48.387786,48.9],[2.941899,48.387794,48.9],[2.941908,48.387798,48.9],[2.941893,48.38779,48.9],[2.941891,48.387796,48.9],[2.941893,48.387787,48.9],[2.941892,48.387832,48.9],[2.941899,48.387818,48.9],[2.941877,48.387852,49],[2.941889,48.387877,49],[2.94191,48.38787,49],[2.941868,48.387835,49],[2.941917,48.387899,49],[2.941909,48.387899,49],[2.941921,48.387885,49],[2.941912,48.38786,49],[2.941932,48.387893,49],[2.941921,48.387897,49],[2.941889,48.387839,49],[2.941836,48.387845,49],[2.941847,48.387884,48.9],[2.941847,48.38787,48.9],[2.941865,48.387876,48.9],[2.941811,48.387849,48.9],[2.941812,48.387863,48.9],[2.9418,48.387865,48.9],[2.941892,48.38789,48.9],[2.941841,48.387815,48.9],[2.941786,48.387779,48.9],[2.94177,48.387819,48.9],[2.941764,48.3878,48.9],[2.941754,48.387846,48.9],[2.941687,48.387861,48.8],[2.941702,48.387865,48.8],[2.941695,48.387877,48.8],[2.941713,48.387853,48.8],[2.941744,48.387868,48.8],[2.941759,48.387887,48.8],[2.941808,48.387872,48.8],[2.941861,48.387869,48.8],[2.941897,48.387932,48.7],[2.941902,48.38796,48.7],[2.941944,48.387981,48.7],[2.941976,48.38801,48.7],[2.942003,48.388082,48.7],[2.942048,48.388079,48.7],[2.942085,48.388049,48.6],[2.942032,48.388028,48.6],[2.942012,48.38801,48.6],[2.942022,48.387975,48.6],[2.942016,48.387959,48.6],[2.94201,48.387991,48.6],[2.942035,48.38817,48.5],[2.942028,48.388166,48.5],[2.942022,48.388177,48.5],[2.941989,48.388145,48.5],[2.941952,48.388138,48.5],[2.941966,48.388184,48.6],[2.941991,48.388191,48.6],[2.942005,48.388184,48.6],[2.941989,48.388155,48.6],[2.941998,48.38815,48.6],[2.941986,48.388148,48.6],[2.94196,48.388103,48.7],[2.941904,48.388046,48.8],[2.941908,48.388053,48.8],[2.941901,48.388046,48.8],[2.941904,48.388063,48.8],[2.941926,48.388083,48.8],[2.941736,48.388068,48.9],[2.941672,48.388042,49],[2.94157,48.388049,49],[2.941273,48.387954,48.9],[2.941192,48.387916,48.8],[2.941807,48.38806,48.9],[2.94191,48.388036,48.9],[2.941949,48.388015,48.9],[2.941964,48.388018,48.9],[2.941964,48.387993,48.9],[2.941978,48.388008,48.9],[2.941993,48.388007,48.9],[2.94192,48.387869,48.9],[2.941848,48.387761,49],[2.941842,48.387694,49],[2.941979,48.388045,48.9],[2.942011,48.388034,48.9],[2.941949,48.388016,48.9],[2.941945,48.388043,48.9],[2.941919,48.388002,48.9],[2.941937,48.388036,48.9],[2.94193,48.388059,48.9],[2.941895,48.388055,48.9],[2.941878,48.38803,48.9],[2.941891,48.387988,48.9],[2.941945,48.387983,48.9],[2.94196,48.387966,48.9],[2.941986,48.387959,48.8],[2.94198,48.387947,48.8],[2.941958,48.387938,48.8],[2.941935,48.387911,48.8],[2.941972,48.388036,48.8],[2.941984,48.388044,48.8],[2.941986,48.38806,48.8],[2.941982,48.388047,48.8],[2.941977,48.388063,48.8],[2.941963,48.388055,48.7],[2.941978,48.38803,48.7],[2.941968,48.387993,48.7],[2.941933,48.387948,48.7],[2.941921,48.387952,48.7],[2.941984,48.387942,48.7],[2.942019,48.387905,48.7],[2.942006,48.387891,48.8],[2.941981,48.387884,48.8],[2.941976,48.387868,48.8],[2.941954,48.387856,48.8],[2.941943,48.387858,48.8],[2.941931,48.387846,48.8],[2.94187,48.38787,48.8],[2.941826,48.387916,48.8],[2.941822,48.387892,48.8],[2.941808,48.387892,48.8],[2.941813,48.387875,48.9],[2.941796,48.387876,48.9],[2.941816,48.387886,48.9],[2.941807,48.38789,48.9],[2.941817,48.387894,48.9],[2.941799,48.38788,48.9],[2.941794,48.387893,48.9],[2.941766,48.387882,48.9],[2.941788,48.387891,48.9],[2.941766,48.387902,48.9],[2.941732,48.387893,48.9],[2.941714,48.387919,48.9],[2.941725,48.387941,48.9],[2.94172,48.387936,48.9],[2.941719,48.387954,48.9],[2.941727,48.38795,48.9],[2.941725,48.38792,48.9],[2.94175,48.387921,48.9],[2.941773,48.387904,48.9],[2.941779,48.387928,48.9],[2.941793,48.387911,48.9],[2.941739,48.387879,49],[2.941727,48.387885,49],[2.941814,48.387935,49],[2.941821,48.387932,49],[2.941819,48.387938,49],[2.941845,48.387946,49],[2.941845,48.387953,49],[2.941857,48.387954,49],[2.941837,48.387945,49],[2.941842,48.387963,49],[2.941818,48.387963,49],[2.941818,48.387968,49],[2.941821,48.38796,49],[2.94183,48.387973,49],[2.94184,48.387972,49],[2.941829,48.387938,49],[2.941803,48.387912,49],[2.941784,48.387907,49],[2.941788,48.38794,49],[2.941819,48.387973,48.9],[2.941828,48.387962,48.9],[2.94183,48.387969,48.9],[2.941874,48.387936,48.9],[2.94193,48.387953,48.9],[2.941913,48.38796,48.9],[2.941914,48.387951,48.9],[2.941933,48.387956,48.9],[2.941896,48.387944,48.9],[2.94189,48.387929,48.9],[2.941823,48.387896,48.9],[2.94179,48.387902,48.9],[2.941812,48.38795,48.9],[2.941871,48.387972,48.9],[2.941889,48.387966,48.9],[2.94187,48.388002,48.9],[2.941881,48.387997,48.9],[2.941874,48.387971,48.8],[2.941795,48.387959,48.8],[2.941788,48.387939,48.8],[2.941752,48.387915,48.8],[2.941742,48.387938,48.8],[2.941732,48.387938,48.8],[2.941742,48.38791,48.8],[2.941682,48.387935,48.8],[2.941597,48.387931,48.8],[2.941597,48.387965,48.8],[2.941615,48.387992,48.8],[2.941695,48.388016,48.9],[2.94175,48.387947,48.9],[2.941759,48.387954,48.9],[2.941729,48.387922,48.9],[2.941715,48.387932,48.9],[2.941683,48.387936,48.9],[2.94165,48.387909,48.9],[2.941648,48.387837,48.9],[2.941621,48.38779,48.9],[2.941542,48.387704,48.9],[2.941468,48.387659,49],[2.941476,48.387647,49],[2.941396,48.387598,49],[2.941326,48.387582,49],[2.941419,48.387646,49],[2.941456,48.387684,49],[2.941431,48.387681,49],[2.941408,48.387689,49],[2.941299,48.387651,49],[2.94136,48.387715,49],[2.94144,48.387777,49],[2.941483,48.387782,49],[2.941658,48.387835,49],[2.9417,48.387872,49],[2.941702,48.387885,49],[2.941704,48.387869,49],[2.941707,48.387875,49],[2.941681,48.387864,49],[2.941704,48.387896,49],[2.941679,48.387847,49],[2.941734,48.387901,49],[2.941756,48.387909,49],[2.941682,48.38789,49],[2.941636,48.387869,49],[2.941606,48.387834,49],[2.94167,48.387899,49],[2.941608,48.387858,49],[2.941502,48.387824,49],[2.941545,48.387825,49],[2.941622,48.387863,49],[2.941623,48.387848,49],[2.94168,48.387859,49],[2.94169,48.387849,49],[2.94167,48.387874,49],[2.941654,48.387862,49],[2.941564,48.387868,49],[2.941627,48.387942,48.9],[2.941685,48.38797,48.9],[2.941692,48.387941,48.9],[2.941714,48.387949,48.9],[2.941686,48.387945,48.9],[2.941688,48.387982,48.9],[2.941679,48.387951,48.9],[2.94166,48.387948,48.9],[2.94168,48.387943,48.9],[2.941666,48.387931,48.9],[2.941651,48.387956,48.9],[2.94166,48.387981,48.9],[2.941649,48.388,48.9],[2.941659,48.388015,48.9],[2.941652,48.388009,48.9],[2.94166,48.387993,48.9],[2.941642,48.387961,48.9],[2.941652,48.387965,48.9],[2.941623,48.387954,48.9],[2.941731,48.38798,48.9],[2.941756,48.387952,48.9],[2.941739,48.387923,48.9],[2.941702,48.387917,48.9],[2.941672,48.387895,48.9],[2.941697,48.38794,48.9],[2.941734,48.387944,48.9],[2.941719,48.387951,48.9],[2.941667,48.387948,48.9],[2.941754,48.387957,48.9],[2.941681,48.38806,48.9],[2.94161,48.388076,48.9],[2.941616,48.3881,48.9],[2.941797,48.387843,48.9],[2.941808,48.387808,48.9],[2.941787,48.387831,48.9],[2.941812,48.387871,48.9],[2.941815,48.387858,48.9],[2.941811,48.387863,48.9],[2.941728,48.387837,48.9],[2.941736,48.387837,48.9],[2.941721,48.387812,48.9],[2.941709,48.387841,48.9],[2.941707,48.387899,48.9],[2.941729,48.38789,48.9],[2.94174,48.387937,48.9],[2.941729,48.387987,48.9],[2.941661,48.387988,48.9],[2.941624,48.38796,48.9],[2.941492,48.387958,48.9],[2.941358,48.387927,48.9],[2.941236,48.38796,48.9],[2.94125,48.387945,48.9],[2.941523,48.387993,48.9],[2.941532,48.388034,48.9],[2.941507,48.388043,48.9],[2.941557,48.388098,48.9],[2.941584,48.388102,48.8],[2.941598,48.388125,48.8],[2.941622,48.388132,48.8],[2.941649,48.388158,48.8],[2.941714,48.388113,48.8],[2.941711,48.388106,48.8],[2.94167,48.388092,48.8],[2.941661,48.388095,48.8],[2.941665,48.388101,48.8],[2.94163,48.388108,48.8],[2.941663,48.388112,48.8],[2.941643,48.388073,48.8],[2.941536,48.388021,48.8],[2.94141,48.387983,48.8],[2.941758,48.388053,48.8],[2.941751,48.388044,48.8],[2.941788,48.388123,48.8],[2.941928,48.387981,48.8],[2.941905,48.388005,48.8],[2.941899,48.387986,48.8],[2.941933,48.38798,48.8],[2.941941,48.387966,48.8],[2.941925,48.387944,48.8],[2.941852,48.387929,48.8],[2.941864,48.387933,48.8],[2.941845,48.387947,48.8],[2.941891,48.387945,48.8],[2.941953,48.387929,48.8],[2.941876,48.387944,48.8],[2.941854,48.387918,48.8],[2.941889,48.387912,48.8],[2.941898,48.387922,48.8],[2.941879,48.387907,48.8],[2.941905,48.387888,48.8],[2.941925,48.387884,48.8],[2.941937,48.387872,48.8],[2.941988,48.387854,48.8],[2.941959,48.387855,48.8],[2.941985,48.387855,48.8],[2.941982,48.387844,48.8],[2.941956,48.387864,48.8],[2.941969,48.387858,48.8],[2.941926,48.387856,48.8],[2.942001,48.387885,48.8],[2.941923,48.387881,48.8],[2.941906,48.387866,48.8],[2.941878,48.387889,48.8],[2.941896,48.387923,48.8],[2.941848,48.387951,48.8],[2.941827,48.387982,48.8],[2.941841,48.387995,48.8],[2.941851,48.387974,48.9],[2.94187,48.387986,48.9],[2.941865,48.387952,48.9],[2.941875,48.387937,48.9],[2.941863,48.38794,48.9],[2.941853,48.387969,48.9],[2.941886,48.387957,48.9],[2.941886,48.387962,48.9],[2.94189,48.387927,48.9],[2.941907,48.387914,48.9],[2.941916,48.387877,48.9],[2.941931,48.387888,48.9],[2.941941,48.387885,48.9],[2.941925,48.387892,48.9],[2.941916,48.387913,48.9],[2.94192,48.387895,48.9],[2.941975,48.387905,48.9],[2.941927,48.38795,48.9],[2.941889,48.387945,48.9],[2.941888,48.387967,48.9],[2.941955,48.387924,48.9],[2.941935,48.387907,48.9],[2.941959,48.387868,48.9],[2.941988,48.387848,48.9],[2.942092,48.387819,48.9],[2.942122,48.387821,48.9],[2.94204,48.387876,48.9],[2.94205,48.387878,48.9],[2.942027,48.387838,48.9],[2.941965,48.387843,48.9],[2.941948,48.387825,48.9],[2.941936,48.387829,48.9],[2.941907,48.38791,48.9],[2.941897,48.387908,48.9],[2.941911,48.387898,48.9],[2.941892,48.387894,48.9],[2.9419,48.38788,48.9],[2.941895,48.387856,48.9],[2.941889,48.387872,48.9],[2.941928,48.38781,48.9],[2.941941,48.387823,48.9],[2.941937,48.387833,48.9],[2.941953,48.387804,48.9],[2.941975,48.387809,48.9],[2.942008,48.387804,48.9],[2.942006,48.387847,48.9],[2.941994,48.387864,48.9],[2.941993,48.3879,48.9],[2.941972,48.387929,48.9],[2.941962,48.387983,48.9],[2.941933,48.388003,48.9],[2.941944,48.387979,48.9],[2.942044,48.387896,48.9],[2.942201,48.387859,48.9],[2.942194,48.387875,48.9],[2.942138,48.387873,48.9],[2.942136,48.38788,48.9],[2.942064,48.387891,48.9],[2.942043,48.387882,48.9],[2.942,48.387932,48.9],[2.941977,48.387922,48.9],[2.941945,48.387922,48.9],[2.941918,48.387913,48.9],[2.941916,48.387923,48.9],[2.941929,48.387929,48.9],[2.941908,48.387925,48.9],[2.941955,48.387866,48.9],[2.94194,48.387865,48.9],[2.94195,48.387859,48.9],[2.941902,48.387889,48.9],[2.941887,48.387889,48.9],[2.941966,48.387907,48.9],[2.941966,48.387922,49],[2.941907,48.387928,49],[2.941941,48.387914,49],[2.941944,48.387893,49],[2.9419,48.387896,49],[2.941915,48.387898,49],[2.941932,48.387884,49],[2.941974,48.387883,49],[2.941965,48.387863,49],[2.942008,48.38775,49],[2.941898,48.387946,49],[2.941926,48.387955,49],[2.941923,48.387927,49],[2.941939,48.387906,49],[2.94198,48.387895,49],[2.941967,48.387875,49],[2.941987,48.387867,49],[2.94201,48.387835,49],[2.941923,48.387866,49],[2.941892,48.387891,49],[2.941886,48.387952,49],[2.941926,48.387951,49],[2.941935,48.387931,49],[2.941928,48.38792,49],[2.941971,48.387917,49],[2.94201,48.387878,49],[2.942038,48.387885,49],[2.94204,48.387871,49],[2.94206,48.387866,49],[2.942077,48.387871,49],[2.942062,48.38787,49],[2.942059,48.387905,49],[2.942168,48.387851,49],[2.942007,48.387848,49],[2.942188,48.387803,49],[2.942176,48.387778,49],[2.942102,48.387799,49],[2.941814,48.387843,49],[2.941777,48.38783,49],[2.941778,48.387861,49],[2.941811,48.38787,49],[2.941843,48.38786,49],[2.941876,48.387832,49],[2.941925,48.387899,49],[2.941977,48.387905,48.9],[2.942028,48.387936,48.9],[2.942095,48.388006,48.9],[2.942022,48.387875,48.9],[2.942106,48.387846,48.9],[2.942083,48.387859,48.9],[2.94195,48.387873,48.9],[2.941917,48.387897,48.9],[2.94196,48.387927,48.9],[2.941929,48.387915,48.9],[2.941958,48.38789,48.9],[2.941934,48.387884,48.9],[2.941956,48.387888,48.9],[2.941994,48.387854,48.9],[2.941984,48.38784,48.9],[2.941945,48.387844,48.9],[2.941928,48.387832,48.9],[2.941965,48.38784,48.9],[2.941972,48.387849,48.9],[2.941882,48.387807,48.9],[2.941891,48.387831,48.9],[2.941983,48.387836,48.9],[2.941968,48.387855,48.9],[2.941985,48.387894,48.9],[2.942012,48.387913,48.9],[2.942005,48.387931,48.9],[2.942027,48.387935,48.9],[2.942022,48.387944,48.9],[2.941981,48.387924,48.9],[2.941967,48.387907,48.9],[2.94193,48.387937,48.9],[2.94192,48.387934,48.9],[2.94193,48.387923,48.9],[2.941916,48.387864,48.9],[2.941938,48.387853,48.9],[2.941982,48.387855,48.9],[2.941987,48.387877,48.9],[2.94205,48.387884,48.9],[2.941928,48.387903,48.9],[2.94184,48.387891,48.9],[2.941975,48.387913,48.9],[2.941925,48.388004,48.9],[2.94193,48.388017,48.9],[2.941945,48.388016,48.9],[2.941928,48.387966,48.9],[2.941904,48.387963,48.9],[2.941829,48.388021,48.9],[2.941857,48.387994,48.9],[2.941854,48.388011,48.9],[2.941826,48.388015,48.9],[2.941833,48.388014,48.9],[2.941834,48.388029,48.9],[2.941856,48.388001,48.8],[2.94182,48.387986,48.8],[2.941795,48.387997,48.8],[2.941811,48.387962,48.8],[2.941801,48.387954,48.8],[2.941838,48.387928,48.8],[2.941874,48.387919,48.8],[2.941856,48.387917,48.8],[2.941852,48.387904,48.8],[2.941881,48.387923,48.7],[2.941935,48.387922,48.6],[2.941961,48.387897,48.7],[2.941914,48.3879,48.8],[2.941925,48.387906,48.8],[2.941777,48.387952,48.7],[2.941776,48.38794,48.8],[2.941807,48.387943,48.8],[2.941831,48.387925,48.8],[2.941849,48.387944,48.7],[2.941838,48.38794,48.8],[2.941855,48.387948,48.7],[2.941869,48.387944,48.7],[2.941853,48.387958,48.6],[2.941872,48.38797,48.6],[2.941905,48.387971,48.5],[2.941907,48.387977,48.5],[2.941885,48.387989,48.5],[2.941822,48.387998,48.5],[2.941767,48.388031,48.4],[2.941778,48.388027,48.4],[2.941775,48.38804,48.3],[2.941726,48.388048,48.3],[2.941715,48.388018,48.5],[2.941724,48.388002,48.6],[2.941729,48.388007,48.6],[2.941738,48.387993,48.6],[2.941774,48.387982,48.5],[2.941783,48.387989,48.5],[2.941796,48.387972,48.7],[2.941801,48.387981,48.5],[2.941781,48.38799,48.5],[2.941797,48.387988,48.5],[2.941811,48.387964,48.6],[2.941799,48.38793,48.8],[2.941812,48.387886,49],[2.941771,48.387881,49.1],[2.941738,48.387893,49.1],[2.941738,48.387907,49],[2.941761,48.38791,49],[2.941768,48.387889,49.1],[2.941756,48.387893,49.1],[2.941789,48.387921,48.9],[2.941786,48.387947,48.8],[2.941816,48.38802,48.4],[2.941839,48.387974,48.6],[2.94187,48.387992,48.5],[2.941859,48.387983,48.5],[2.941853,48.387951,48.6],[2.941862,48.387996,48.5],[2.941817,48.38797,48.6],[2.941858,48.387955,48.6],[2.941876,48.387932,48.7],[2.941882,48.38794,48.7],[2.941878,48.387907,48.8],[2.941874,48.387944,48.7],[2.941823,48.38792,48.9],[2.941804,48.387958,48.6],[2.941812,48.387913,48.9],[2.941778,48.387971,48.7],[2.941819,48.387971,48.6],[2.941832,48.38795,48.8],[2.941801,48.387898,48.9],[2.941813,48.38792,48.9],[2.941819,48.387912,48.9],[2.941787,48.387919,48.9],[2.941778,48.387933,48.8],[2.941765,48.387923,48.8],[2.941808,48.387947,48.8],[2.941777,48.387972,48.7],[2.941769,48.388016,48.4],[2.941746,48.38802,48.5],[2.941763,48.388022,48.4],[2.941758,48.388006,48.6],[2.941751,48.388015,48.5],[2.941727,48.388021,48.5],[2.941731,48.388036,48.3],[2.941712,48.388035,48.5],[2.941707,48.38802,48.5],[2.941699,48.388023,48.5],[2.941725,48.388027,48.5],[2.94176,48.388016,48.5],[2.941777,48.38802,48.4],[2.941755,48.388019,48.5],[2.941754,48.388035,48.5],[2.941739,48.388031,48.5],[2.941732,48.388051,48.3],[2.941688,48.388059,48.4],[2.941658,48.388043,48.4],[2.941626,48.387998,48.7],[2.941665,48.387965,48.8],[2.941755,48.388052,48.3],[2.941729,48.388046,48.3],[2.941725,48.388069,48.2],[2.941703,48.388062,48.4],[2.941686,48.388067,48.2],[2.941702,48.388067,48.2],[2.941719,48.388055,48.3],[2.941713,48.388044,48.4],[2.94176,48.388043,48.3],[2.941776,48.388083,48.2],[2.941714,48.388056,48.4],[2.941727,48.388048,48.3],[2.941639,48.388052,48.4],[2.9416,48.388042,48.4],[2.941576,48.387966,48.9],[2.941646,48.387935,48.9],[2.941693,48.388011,48.5],[2.94171,48.388009,48.5],[2.94164,48.388028,48.5],[2.941634,48.388013,48.5],[2.941706,48.38796,48.7],[2.941732,48.388002,48.6],[2.941715,48.387998,48.6],[2.941725,48.388012,48.5],[2.941707,48.388017,48.5],[2.941717,48.388047,48.4],[2.941707,48.388049,48.4],[2.941708,48.388029,48.5],[2.941679,48.388044,48.4],[2.941671,48.388027,48.5],[2.94169,48.388026,48.5],[2.941737,48.388042,48.3],[2.941748,48.388058,48.3],[2.941746,48.388026,48.5],[2.941757,48.388012,48.5],[2.941735,48.387992,48.6],[2.941741,48.387998,48.6],[2.94167,48.387977,48.8],[2.941547,48.387965,48.9],[2.941581,48.387956,48.9],[2.941607,48.387939,49],[2.941622,48.387907,49.1],[2.941592,48.387881,49.2],[2.941616,48.387926,49],[2.941659,48.387883,49.2],[2.941611,48.387911,49.1],[2.941621,48.387967,48.8],[2.941676,48.387946,48.9],[2.941669,48.387969,48.8],[2.941453,48.388008,48.8],[2.941435,48.38802,48.8],[2.941428,48.388038,48.6],[2.941436,48.388056,48.6],[2.941456,48.38803,48.8],[2.941391,48.388065,48.4],[2.941337,48.388032,48.9],[2.941304,48.38804,48.7],[2.941315,48.388038,48.7],[2.941323,48.388068,48.5],[2.941299,48.388214,47.9],[2.941184,48.388232,47.8],[2.941127,48.388298,47.7],[2.941089,48.388387,47.8],[2.941037,48.388455,47.9],[2.940988,48.388578,48.1],[2.940988,48.388643,48.2],[2.941047,48.388231,47.8],[2.941183,48.388194,47.9],[2.941209,48.38821,47.8],[2.941282,48.388217,47.9],[2.94133,48.388203,47.9],[2.941354,48.388141,48.2],[2.941341,48.38814,48.2],[2.941408,48.388122,48.1],[2.941467,48.388132,48.1],[2.941567,48.388104,48.2],[2.941658,48.388044,48.4],[2.941601,48.388195,47.9],[2.941475,48.388206,47.9],[2.941279,48.388201,47.9],[2.941383,48.388209,47.9],[2.941256,48.388185,47.9],[2.941275,48.388225,47.9],[2.941287,48.388315,47.8],[2.941165,48.388455,47.9],[2.941439,48.388481,47.9],[2.941458,48.388564,48.1],[2.941442,48.388655,48.2],[2.941498,48.388703,48.1],[2.941447,48.38884,47.4],[2.941488,48.388854,47.4],[2.941518,48.388939,47.3],[2.941454,48.38892,47.3],[2.941394,48.388921,47.3],[2.941522,48.388618,48.1],[2.941457,48.388742,48],[2.94142,48.388769,47.9],[2.941289,48.388811,47.6],[2.941219,48.388844,47.4],[2.94114,48.388914,47.3],[2.941133,48.388992,47.6],[2.941142,48.389067,48.7],[2.941178,48.389109,49.3],[2.941194,48.389147,50],[2.941294,48.389229,52.3],[2.942161,48.388146,47.9],[2.942232,48.388092,48],[2.942292,48.388064,47.9],[2.94238,48.38805,47.9],[2.942337,48.387991,47.9],[2.942417,48.387928,48],[2.94227,48.387276,50.4],[2.94236,48.387209,50.3],[2.942317,48.387107,50.4],[2.942328,48.387035,50.2],[2.942432,48.386981,50.1],[2.942443,48.386918,50],[2.941954,48.387708,49.7],[2.941912,48.387822,49.2],[2.941897,48.38791,48.8],[2.941063,48.389888,63.9],[2.941889,48.387999,48.5],[2.9419,48.388012,48.3],[2.94187,48.388082,48.2],[2.941882,48.388078,48.2],[2.941834,48.388073,48.2],[2.941842,48.388089,48.2],[2.941791,48.388094,48.1],[2.941807,48.388031,48.4],[2.941803,48.388007,48.5],[2.9418,48.388044,48.3],[2.94181,48.388057,48.3],[2.941795,48.387979,48.5],[2.941808,48.387935,48.8],[2.941768,48.387889,49.1],[2.94176,48.3879,49],[2.941726,48.387907,49],[2.941657,48.387889,49.2],[2.941609,48.387897,49.1],[2.941607,48.38788,49.2],[2.941586,48.387868,49.3],[2.941593,48.387892,49.2],[2.941614,48.387887,49.2],[2.941591,48.387923,49],[2.941627,48.387917,49.1],[2.941618,48.387946,49],[2.941606,48.387951,48.8],[2.941621,48.387919,49.1],[2.94165,48.387889,49.2],[2.941632,48.387915,49.1],[2.941646,48.387956,48.8],[2.941677,48.387953,48.7],[2.941664,48.38796,48.8],[2.941689,48.388008,48.5],[2.941718,48.387993,48.6],[2.941763,48.388007,48.5],[2.94179,48.387995,48.5],[2.941828,48.387999,48.5],[2.941792,48.388002,48.5],[2.941799,48.388031,48.4],[2.941789,48.388035,48.4],[2.941827,48.38805,48.3],[2.941799,48.38804,48.3],[2.941793,48.38805,48.3],[2.941775,48.38805,48.3],[2.941783,48.388023,48.4],[2.941756,48.387993,48.6],[2.941763,48.387987,48.5],[2.941754,48.387979,48.6],[2.941721,48.387981,48.6],[2.941711,48.387974,48.7],[2.941622,48.387983,48.7]]}}]}