{"type":"FeatureCollection","features":[{"type":"Feature","properties":{"name":"La forêt ne voulait pas de moi ! 😭","type":"VTT","time":"2024-10-05T14:49:33Z","coordTimes":["2024-10-05T14:49:33Z","2024-10-05T14:49:39Z","2024-10-05T14:49:42Z","2024-10-05T14:49:54Z","2024-10-05T14:49:57Z","2024-10-05T14:49:59Z","2024-10-05T14:50:00Z","2024-10-05T14:50:06Z","2024-10-05T14:50:13Z","2024-10-05T14:50:15Z","2024-10-05T14:50:16Z","2024-10-05T14:50:18Z","2024-10-05T14:50:27Z","2024-10-05T14:50:35Z","2024-10-05T14:50:38Z","2024-10-05T14:50:39Z","2024-10-05T14:50:41Z","2024-10-05T14:50:43Z","2024-10-05T14:50:45Z","2024-10-05T14:50:48Z","2024-10-05T14:50:51Z","2024-10-05T14:50:54Z","2024-10-05T14:51:06Z","2024-10-05T14:51:10Z","2024-10-05T14:51:14Z","2024-10-05T14:51:17Z","2024-10-05T14:51:33Z","2024-10-05T14:51:35Z","2024-10-05T14:51:37Z","2024-10-05T14:51:38Z","2024-10-05T14:51:40Z","2024-10-05T14:51:41Z","2024-10-05T14:51:43Z","2024-10-05T14:51:45Z","2024-10-05T14:51:46Z","2024-10-05T14:51:48Z","2024-10-05T14:51:51Z","2024-10-05T14:51:54Z","2024-10-05T14:52:05Z","2024-10-05T14:52:07Z","2024-10-05T14:52:09Z","2024-10-05T14:52:32Z","2024-10-05T14:52:34Z","2024-10-05T14:52:37Z","2024-10-05T14:52:41Z","2024-10-05T14:52:45Z","2024-10-05T14:52:51Z","2024-10-05T14:52:55Z","2024-10-05T14:53:03Z","2024-10-05T14:53:06Z","2024-10-05T14:53:11Z","2024-10-05T14:53:12Z","2024-10-05T14:53:17Z","2024-10-05T14:53:21Z","2024-10-05T14:53:35Z","2024-10-05T14:53:39Z","2024-10-05T14:53:43Z","2024-10-05T14:53:44Z","2024-10-05T14:53:45Z","2024-10-05T14:53:46Z","2024-10-05T14:53:47Z","2024-10-05T14:53:48Z","2024-10-05T14:53:50Z","2024-10-05T14:53:56Z","2024-10-05T14:53:59Z","2024-10-05T14:54:00Z","2024-10-05T14:54:04Z","2024-10-05T14:54:05Z","2024-10-05T14:54:08Z","2024-10-05T14:54:10Z","2024-10-05T14:54:13Z","2024-10-05T14:54:18Z","2024-10-05T14:54:24Z","2024-10-05T14:54:25Z","2024-10-05T14:54:26Z","2024-10-05T14:54:28Z","2024-10-05T14:54:32Z","2024-10-05T14:54:36Z","2024-10-05T14:54:37Z","2024-10-05T14:54:39Z","2024-10-05T14:54:43Z","2024-10-05T14:54:46Z","2024-10-05T14:54:47Z","2024-10-05T14:54:49Z","2024-10-05T14:54:50Z","2024-10-05T14:54:51Z","2024-10-05T14:54:53Z","2024-10-05T14:54:55Z","2024-10-05T14:54:56Z","2024-10-05T14:55:00Z","2024-10-05T14:55:01Z","2024-10-05T14:55:08Z","2024-10-05T14:55:09Z","2024-10-05T14:55:13Z","2024-10-05T14:55:16Z","2024-10-05T14:55:18Z","2024-10-05T14:55:23Z","2024-10-05T14:55:28Z","2024-10-05T14:55:32Z","2024-10-05T14:55:34Z","2024-10-05T14:55:42Z","2024-10-05T14:55:44Z","2024-10-05T14:55:46Z","2024-10-05T14:55:50Z","2024-10-05T14:55:51Z","2024-10-05T14:55:53Z","2024-10-05T14:55:57Z","2024-10-05T14:55:58Z","2024-10-05T14:55:59Z","2024-10-05T14:56:01Z","2024-10-05T14:56:04Z","2024-10-05T14:56:06Z","2024-10-05T14:56:07Z","2024-10-05T14:56:09Z","2024-10-05T14:56:11Z","2024-10-05T14:56:12Z","2024-10-05T14:56:15Z","2024-10-05T14:56:17Z","2024-10-05T14:56:18Z","2024-10-05T14:56:21Z","2024-10-05T14:56:24Z","2024-10-05T14:56:25Z","2024-10-05T14:56:27Z","2024-10-05T14:56:30Z","2024-10-05T14:56:32Z","2024-10-05T14:56:33Z","2024-10-05T14:56:35Z","2024-10-05T14:56:37Z","2024-10-05T14:56:41Z","2024-10-05T14:56:44Z","2024-10-05T14:56:46Z","2024-10-05T14:56:48Z","2024-10-05T14:56:50Z","2024-10-05T14:56:52Z","2024-10-05T14:56:54Z","2024-10-05T14:56:56Z","2024-10-05T14:56:57Z","2024-10-05T14:57:04Z","2024-10-05T14:57:05Z","2024-10-05T14:57:08Z","2024-10-05T14:57:10Z","2024-10-05T14:57:12Z","2024-10-05T14:57:16Z","2024-10-05T14:57:20Z","2024-10-05T14:57:21Z","2024-10-05T14:57:22Z","2024-10-05T14:57:24Z","2024-10-05T14:57:27Z","2024-10-05T14:57:31Z","2024-10-05T14:57:32Z","2024-10-05T14:57:34Z","2024-10-05T14:57:35Z","2024-10-05T14:57:39Z","2024-10-05T14:57:41Z","2024-10-05T14:57:44Z","2024-10-05T14:57:47Z","2024-10-05T14:57:48Z","2024-10-05T14:57:51Z","2024-10-05T14:57:52Z","2024-10-05T14:57:56Z","2024-10-05T14:57:59Z","2024-10-05T14:58:02Z","2024-10-05T14:58:04Z","2024-10-05T14:58:07Z","2024-10-05T14:58:09Z","2024-10-05T14:58:10Z","2024-10-05T14:58:11Z","2024-10-05T14:58:14Z","2024-10-05T14:58:21Z","2024-10-05T14:58:24Z","2024-10-05T14:58:26Z","2024-10-05T14:58:29Z","2024-10-05T14:58:30Z","2024-10-05T14:58:31Z","2024-10-05T14:58:33Z","2024-10-05T14:58:34Z","2024-10-05T14:58:35Z","2024-10-05T14:58:36Z","2024-10-05T14:58:37Z","2024-10-05T14:58:39Z","2024-10-05T14:58:44Z","2024-10-05T14:58:45Z","2024-10-05T14:58:46Z","2024-10-05T14:58:48Z","2024-10-05T14:58:50Z","2024-10-05T14:58:53Z","2024-10-05T14:58:56Z","2024-10-05T14:58:57Z","2024-10-05T14:58:59Z","2024-10-05T14:59:02Z","2024-10-05T14:59:05Z","2024-10-05T14:59:07Z","2024-10-05T14:59:09Z","2024-10-05T14:59:12Z","2024-10-05T14:59:13Z","2024-10-05T14:59:14Z","2024-10-05T14:59:17Z","2024-10-05T14:59:19Z","2024-10-05T14:59:20Z","2024-10-05T14:59:22Z","2024-10-05T14:59:25Z","2024-10-05T14:59:27Z","2024-10-05T14:59:33Z","2024-10-05T14:59:35Z","2024-10-05T14:59:37Z","2024-10-05T14:59:41Z","2024-10-05T14:59:42Z","2024-10-05T14:59:43Z","2024-10-05T14:59:44Z","2024-10-05T14:59:46Z","2024-10-05T14:59:47Z","2024-10-05T14:59:48Z","2024-10-05T14:59:49Z","2024-10-05T14:59:51Z","2024-10-05T14:59:52Z","2024-10-05T14:59:58Z","2024-10-05T14:59:59Z","2024-10-05T15:00:00Z","2024-10-05T15:00:02Z","2024-10-05T15:00:04Z","2024-10-05T15:00:06Z","2024-10-05T15:00:07Z","2024-10-05T15:00:08Z","2024-10-05T15:00:10Z","2024-10-05T15:00:12Z","2024-10-05T15:00:13Z","2024-10-05T15:00:14Z","2024-10-05T15:00:15Z","2024-10-05T15:00:17Z","2024-10-05T15:00:18Z","2024-10-05T15:00:19Z","2024-10-05T15:00:20Z","2024-10-05T15:00:22Z","2024-10-05T15:00:24Z","2024-10-05T15:00:25Z","2024-10-05T15:00:27Z","2024-10-05T15:00:28Z","2024-10-05T15:00:33Z","2024-10-05T15:00:35Z","2024-10-05T15:00:37Z","2024-10-05T15:00:38Z","2024-10-05T15:00:40Z","2024-10-05T15:00:42Z","2024-10-05T15:00:44Z","2024-10-05T15:00:46Z","2024-10-05T15:00:47Z","2024-10-05T15:00:48Z","2024-10-05T15:00:51Z","2024-10-05T15:00:52Z","2024-10-05T15:00:58Z","2024-10-05T15:00:59Z","2024-10-05T15:01:01Z","2024-10-05T15:01:02Z","2024-10-05T15:01:03Z","2024-10-05T15:01:04Z","2024-10-05T15:01:06Z","2024-10-05T15:01:09Z","2024-10-05T15:01:11Z","2024-10-05T15:01:13Z","2024-10-05T15:01:15Z","2024-10-05T15:01:17Z","2024-10-05T15:01:18Z","2024-10-05T15:01:23Z","2024-10-05T15:01:27Z","2024-10-05T15:01:28Z","2024-10-05T15:01:31Z","2024-10-05T15:01:34Z","2024-10-05T15:01:36Z","2024-10-05T15:01:37Z","2024-10-05T15:01:38Z","2024-10-05T15:01:39Z","2024-10-05T15:01:41Z","2024-10-05T15:01:44Z","2024-10-05T15:01:45Z","2024-10-05T15:01:49Z","2024-10-05T15:01:50Z","2024-10-05T15:01:51Z","2024-10-05T15:02:02Z","2024-10-05T15:02:06Z","2024-10-05T15:02:14Z","2024-10-05T15:02:16Z","2024-10-05T15:02:19Z","2024-10-05T15:02:26Z","2024-10-05T15:02:28Z","2024-10-05T15:02:32Z","2024-10-05T15:02:34Z","2024-10-05T15:02:36Z","2024-10-05T15:02:38Z","2024-10-05T15:02:41Z","2024-10-05T15:02:43Z","2024-10-05T15:02:46Z","2024-10-05T15:02:47Z","2024-10-05T15:02:49Z","2024-10-05T15:02:51Z","2024-10-05T15:02:54Z","2024-10-05T15:02:56Z","2024-10-05T15:02:58Z","2024-10-05T15:02:59Z","2024-10-05T15:03:01Z","2024-10-05T15:03:04Z","2024-10-05T15:03:07Z","2024-10-05T15:03:08Z","2024-10-05T15:03:13Z","2024-10-05T15:03:16Z","2024-10-05T15:03:19Z","2024-10-05T15:03:20Z","2024-10-05T15:03:23Z","2024-10-05T15:03:26Z","2024-10-05T15:03:28Z","2024-10-05T15:03:29Z","2024-10-05T15:03:32Z","2024-10-05T15:03:38Z","2024-10-05T15:03:39Z","2024-10-05T15:03:42Z","2024-10-05T15:03:44Z","2024-10-05T15:03:45Z","2024-10-05T15:03:46Z","2024-10-05T15:03:48Z","2024-10-05T15:03:50Z","2024-10-05T15:03:51Z","2024-10-05T15:03:53Z","2024-10-05T15:03:54Z","2024-10-05T15:03:55Z","2024-10-05T15:03:56Z","2024-10-05T15:03:57Z","2024-10-05T15:03:59Z","2024-10-05T15:04:01Z","2024-10-05T15:04:04Z","2024-10-05T15:04:06Z","2024-10-05T15:04:08Z","2024-10-05T15:04:09Z","2024-10-05T15:04:11Z","2024-10-05T15:04:12Z","2024-10-05T15:04:14Z","2024-10-05T15:04:15Z","2024-10-05T15:04:18Z","2024-10-05T15:04:19Z","2024-10-05T15:04:26Z","2024-10-05T15:04:28Z","2024-10-05T15:04:30Z","2024-10-05T15:04:31Z","2024-10-05T15:04:33Z","2024-10-05T15:04:36Z","2024-10-05T15:04:37Z","2024-10-05T15:04:38Z","2024-10-05T15:04:40Z","2024-10-05T15:04:41Z","2024-10-05T15:04:42Z","2024-10-05T15:04:43Z","2024-10-05T15:04:44Z","2024-10-05T15:04:45Z","2024-10-05T15:04:47Z","2024-10-05T15:04:48Z","2024-10-05T15:04:50Z","2024-10-05T15:04:51Z","2024-10-05T15:04:52Z","2024-10-05T15:04:54Z","2024-10-05T15:04:55Z","2024-10-05T15:04:58Z","2024-10-05T15:05:02Z","2024-10-05T15:05:04Z","2024-10-05T15:05:06Z","2024-10-05T15:05:07Z","2024-10-05T15:05:10Z","2024-10-05T15:05:12Z","2024-10-05T15:05:13Z","2024-10-05T15:05:15Z","2024-10-05T15:05:16Z","2024-10-05T15:05:17Z","2024-10-05T15:05:19Z","2024-10-05T15:05:21Z","2024-10-05T15:05:23Z","2024-10-05T15:05:29Z","2024-10-05T15:05:32Z","2024-10-05T15:05:34Z","2024-10-05T15:05:35Z","2024-10-05T15:05:39Z","2024-10-05T15:05:40Z","2024-10-05T15:05:45Z","2024-10-05T15:05:46Z","2024-10-05T15:05:48Z","2024-10-05T15:05:49Z","2024-10-05T15:05:50Z","2024-10-05T15:05:52Z","2024-10-05T15:05:54Z","2024-10-05T15:05:55Z","2024-10-05T15:05:57Z","2024-10-05T15:05:58Z","2024-10-05T15:06:04Z","2024-10-05T15:06:05Z","2024-10-05T15:06:08Z","2024-10-05T15:06:10Z","2024-10-05T15:06:15Z","2024-10-05T15:06:18Z","2024-10-05T15:06:20Z","2024-10-05T15:06:22Z","2024-10-05T15:06:24Z","2024-10-05T15:06:26Z","2024-10-05T15:06:29Z","2024-10-05T15:06:32Z","2024-10-05T15:06:33Z","2024-10-05T15:06:37Z","2024-10-05T15:06:40Z","2024-10-05T15:06:42Z","2024-10-05T15:06:44Z","2024-10-05T15:06:45Z","2024-10-05T15:06:46Z","2024-10-05T15:06:48Z","2024-10-05T15:06:51Z","2024-10-05T15:06:53Z","2024-10-05T15:06:55Z","2024-10-05T15:06:58Z","2024-10-05T15:06:59Z","2024-10-05T15:07:03Z","2024-10-05T15:07:05Z","2024-10-05T15:07:06Z","2024-10-05T15:07:08Z","2024-10-05T15:07:11Z","2024-10-05T15:07:13Z","2024-10-05T15:07:14Z","2024-10-05T15:07:15Z","2024-10-05T15:07:16Z","2024-10-05T15:07:17Z","2024-10-05T15:07:18Z","2024-10-05T15:07:19Z","2024-10-05T15:07:22Z","2024-10-05T15:07:23Z","2024-10-05T15:07:25Z","2024-10-05T15:07:26Z","2024-10-05T15:07:28Z","2024-10-05T15:07:29Z","2024-10-05T15:07:31Z","2024-10-05T15:07:33Z","2024-10-05T15:07:34Z","2024-10-05T15:07:35Z","2024-10-05T15:07:37Z","2024-10-05T15:07:38Z","2024-10-05T15:07:39Z","2024-10-05T15:07:42Z","2024-10-05T15:07:44Z","2024-10-05T15:07:47Z","2024-10-05T15:07:50Z","2024-10-05T15:07:53Z","2024-10-05T15:07:54Z","2024-10-05T15:07:56Z","2024-10-05T15:08:01Z","2024-10-05T15:08:02Z","2024-10-05T15:08:05Z","2024-10-05T15:08:09Z","2024-10-05T15:08:15Z","2024-10-05T15:08:16Z","2024-10-05T15:08:18Z","2024-10-05T15:08:19Z","2024-10-05T15:08:21Z","2024-10-05T15:08:26Z","2024-10-05T15:08:27Z","2024-10-05T15:08:29Z","2024-10-05T15:08:30Z","2024-10-05T15:08:32Z","2024-10-05T15:08:33Z","2024-10-05T15:08:34Z","2024-10-05T15:08:38Z","2024-10-05T15:08:39Z","2024-10-05T15:08:42Z","2024-10-05T15:08:45Z","2024-10-05T15:08:47Z","2024-10-05T15:08:50Z","2024-10-05T15:08:52Z","2024-10-05T15:08:54Z","2024-10-05T15:08:55Z","2024-10-05T15:08:57Z","2024-10-05T15:08:58Z","2024-10-05T15:09:00Z","2024-10-05T15:09:02Z","2024-10-05T15:09:03Z","2024-10-05T15:09:05Z","2024-10-05T15:09:07Z","2024-10-05T15:09:11Z","2024-10-05T15:09:13Z","2024-10-05T15:09:18Z","2024-10-05T15:09:20Z","2024-10-05T15:09:23Z","2024-10-05T15:09:26Z","2024-10-05T15:09:28Z","2024-10-05T15:09:29Z","2024-10-05T15:09:30Z","2024-10-05T15:09:32Z","2024-10-05T15:09:34Z","2024-10-05T15:09:35Z","2024-10-05T15:09:36Z","2024-10-05T15:09:37Z","2024-10-05T15:09:40Z","2024-10-05T15:09:42Z","2024-10-05T15:09:44Z","2024-10-05T15:09:46Z","2024-10-05T15:09:49Z","2024-10-05T15:09:50Z","2024-10-05T15:09:51Z","2024-10-05T15:09:53Z","2024-10-05T15:09:56Z","2024-10-05T15:09:58Z","2024-10-05T15:09:59Z","2024-10-05T15:10:00Z","2024-10-05T15:10:01Z","2024-10-05T15:10:03Z","2024-10-05T15:10:05Z","2024-10-05T15:10:07Z","2024-10-05T15:10:10Z","2024-10-05T15:10:11Z","2024-10-05T15:10:12Z","2024-10-05T15:10:13Z","2024-10-05T15:10:14Z","2024-10-05T15:10:15Z","2024-10-05T15:10:22Z","2024-10-05T15:10:24Z","2024-10-05T15:10:26Z","2024-10-05T15:10:27Z","2024-10-05T15:10:31Z","2024-10-05T15:10:32Z","2024-10-05T15:10:34Z","2024-10-05T15:10:36Z","2024-10-05T15:10:38Z","2024-10-05T15:10:40Z","2024-10-05T15:10:41Z","2024-10-05T15:10:45Z","2024-10-05T15:10:47Z","2024-10-05T15:10:49Z","2024-10-05T15:10:53Z","2024-10-05T15:10:56Z","2024-10-05T15:11:01Z","2024-10-05T15:11:02Z","2024-10-05T15:11:07Z","2024-10-05T15:11:11Z","2024-10-05T15:11:18Z","2024-10-05T15:11:19Z","2024-10-05T15:11:20Z","2024-10-05T15:11:23Z","2024-10-05T15:11:26Z","2024-10-05T15:11:36Z","2024-10-05T15:11:37Z","2024-10-05T15:11:38Z","2024-10-05T15:11:39Z","2024-10-05T15:11:41Z","2024-10-05T15:11:42Z","2024-10-05T15:11:54Z","2024-10-05T15:12:06Z","2024-10-05T15:12:09Z","2024-10-05T15:12:13Z","2024-10-05T15:12:16Z","2024-10-05T15:12:17Z","2024-10-05T15:12:19Z","2024-10-05T15:12:21Z","2024-10-05T15:12:22Z","2024-10-05T15:12:23Z","2024-10-05T15:12:24Z","2024-10-05T15:12:25Z","2024-10-05T15:12:26Z","2024-10-05T15:12:30Z","2024-10-05T15:12:31Z","2024-10-05T15:12:32Z","2024-10-05T15:12:33Z","2024-10-05T15:12:34Z","2024-10-05T15:12:36Z","2024-10-05T15:12:39Z","2024-10-05T15:12:40Z","2024-10-05T15:12:43Z","2024-10-05T15:12:44Z","2024-10-05T15:12:47Z","2024-10-05T15:12:49Z","2024-10-05T15:12:52Z","2024-10-05T15:12:54Z","2024-10-05T15:12:56Z","2024-10-05T15:12:57Z","2024-10-05T15:13:00Z","2024-10-05T15:13:03Z","2024-10-05T15:13:05Z","2024-10-05T15:13:07Z","2024-10-05T15:13:10Z","2024-10-05T15:13:12Z","2024-10-05T15:13:13Z","2024-10-05T15:13:17Z","2024-10-05T15:13:20Z","2024-10-05T15:13:25Z","2024-10-05T15:13:27Z","2024-10-05T15:13:32Z","2024-10-05T15:13:34Z","2024-10-05T15:13:35Z","2024-10-05T15:13:39Z","2024-10-05T15:13:42Z","2024-10-05T15:13:46Z","2024-10-05T15:13:49Z","2024-10-05T15:13:51Z","2024-10-05T15:13:53Z","2024-10-05T15:13:55Z","2024-10-05T15:13:56Z","2024-10-05T15:14:00Z","2024-10-05T15:14:02Z","2024-10-05T15:14:05Z","2024-10-05T15:14:07Z","2024-10-05T15:14:10Z","2024-10-05T15:14:12Z","2024-10-05T15:14:16Z","2024-10-05T15:14:18Z","2024-10-05T15:14:19Z","2024-10-05T15:14:22Z","2024-10-05T15:14:24Z","2024-10-05T15:14:26Z","2024-10-05T15:14:28Z","2024-10-05T15:14:30Z","2024-10-05T15:14:31Z","2024-10-05T15:14:38Z","2024-10-05T15:14:43Z","2024-10-05T15:14:45Z","2024-10-05T15:14:47Z","2024-10-05T15:14:48Z","2024-10-05T15:14:50Z","2024-10-05T15:14:51Z","2024-10-05T15:14:52Z","2024-10-05T15:14:56Z","2024-10-05T15:14:59Z","2024-10-05T15:15:00Z","2024-10-05T15:15:02Z","2024-10-05T15:15:05Z","2024-10-05T15:15:07Z","2024-10-05T15:15:09Z","2024-10-05T15:15:11Z","2024-10-05T15:15:15Z","2024-10-05T15:15:20Z","2024-10-05T15:15:24Z","2024-10-05T15:15:25Z","2024-10-05T15:15:27Z","2024-10-05T15:15:28Z","2024-10-05T15:15:29Z","2024-10-05T15:15:31Z","2024-10-05T15:15:33Z","2024-10-05T15:15:35Z","2024-10-05T15:15:39Z","2024-10-05T15:15:41Z","2024-10-05T15:15:43Z","2024-10-05T15:15:46Z","2024-10-05T15:15:47Z","2024-10-05T15:15:51Z","2024-10-05T15:15:54Z","2024-10-05T15:15:58Z","2024-10-05T15:15:59Z","2024-10-05T15:16:00Z","2024-10-05T15:16:03Z","2024-10-05T15:16:04Z","2024-10-05T15:16:07Z","2024-10-05T15:16:08Z","2024-10-05T15:16:09Z","2024-10-05T15:16:10Z","2024-10-05T15:16:11Z","2024-10-05T15:16:13Z","2024-10-05T15:16:14Z","2024-10-05T15:16:18Z","2024-10-05T15:16:19Z","2024-10-05T15:16:23Z","2024-10-05T15:16:25Z","2024-10-05T15:16:26Z","2024-10-05T15:16:27Z","2024-10-05T15:16:29Z","2024-10-05T15:16:31Z","2024-10-05T15:16:33Z","2024-10-05T15:16:35Z","2024-10-05T15:16:36Z","2024-10-05T15:16:38Z","2024-10-05T15:16:40Z","2024-10-05T15:16:42Z","2024-10-05T15:16:43Z","2024-10-05T15:16:45Z","2024-10-05T15:16:47Z","2024-10-05T15:16:48Z","2024-10-05T15:16:50Z","2024-10-05T15:16:58Z","2024-10-05T15:16:59Z","2024-10-05T15:17:03Z","2024-10-05T15:17:05Z","2024-10-05T15:17:08Z","2024-10-05T15:17:10Z","2024-10-05T15:17:15Z","2024-10-05T15:17:16Z","2024-10-05T15:17:20Z","2024-10-05T15:17:23Z","2024-10-05T15:17:25Z","2024-10-05T15:17:26Z","2024-10-05T15:17:28Z","2024-10-05T15:17:30Z","2024-10-05T15:17:33Z","2024-10-05T15:17:34Z","2024-10-05T15:17:36Z","2024-10-05T15:17:39Z","2024-10-05T15:17:40Z","2024-10-05T15:17:41Z","2024-10-05T15:17:45Z","2024-10-05T15:17:48Z","2024-10-05T15:17:49Z","2024-10-05T15:17:52Z","2024-10-05T15:17:53Z","2024-10-05T15:17:55Z","2024-10-05T15:17:56Z","2024-10-05T15:17:57Z","2024-10-05T15:18:00Z","2024-10-05T15:18:02Z","2024-10-05T15:18:03Z","2024-10-05T15:18:05Z","2024-10-05T15:18:06Z","2024-10-05T15:18:07Z","2024-10-05T15:18:08Z","2024-10-05T15:18:11Z","2024-10-05T15:18:13Z","2024-10-05T15:18:19Z","2024-10-05T15:18:20Z","2024-10-05T15:18:26Z","2024-10-05T15:18:28Z","2024-10-05T15:18:29Z","2024-10-05T15:18:30Z","2024-10-05T15:18:32Z","2024-10-05T15:18:33Z","2024-10-05T15:18:34Z","2024-10-05T15:18:38Z","2024-10-05T15:18:39Z","2024-10-05T15:18:41Z","2024-10-05T15:18:43Z","2024-10-05T15:18:46Z","2024-10-05T15:18:47Z","2024-10-05T15:18:54Z","2024-10-05T15:18:55Z","2024-10-05T15:18:56Z","2024-10-05T15:18:58Z","2024-10-05T15:19:00Z","2024-10-05T15:19:03Z","2024-10-05T15:19:05Z","2024-10-05T15:19:08Z","2024-10-05T15:19:10Z","2024-10-05T15:19:11Z","2024-10-05T15:19:14Z","2024-10-05T15:19:15Z","2024-10-05T15:19:16Z","2024-10-05T15:19:17Z","2024-10-05T15:19:18Z","2024-10-05T15:19:19Z","2024-10-05T15:19:23Z","2024-10-05T15:19:25Z","2024-10-05T15:19:26Z","2024-10-05T15:19:28Z","2024-10-05T15:19:29Z","2024-10-05T15:19:30Z","2024-10-05T15:19:31Z","2024-10-05T15:19:32Z","2024-10-05T15:19:37Z","2024-10-05T15:19:40Z","2024-10-05T15:19:41Z","2024-10-05T15:19:42Z","2024-10-05T15:19:46Z","2024-10-05T15:19:48Z","2024-10-05T15:19:49Z","2024-10-05T15:19:51Z","2024-10-05T15:19:52Z","2024-10-05T15:19:54Z","2024-10-05T15:19:57Z","2024-10-05T15:20:00Z","2024-10-05T15:20:01Z","2024-10-05T15:21:32Z","2024-10-05T15:21:37Z","2024-10-05T15:21:44Z","2024-10-05T15:21:46Z","2024-10-05T15:21:50Z","2024-10-05T15:21:55Z","2024-10-05T15:21:57Z","2024-10-05T15:21:58Z","2024-10-05T15:22:09Z","2024-10-05T15:22:12Z","2024-10-05T15:22:14Z","2024-10-05T15:22:15Z","2024-10-05T15:22:16Z","2024-10-05T15:22:20Z","2024-10-05T15:22:22Z","2024-10-05T15:22:23Z","2024-10-05T15:22:24Z","2024-10-05T15:22:27Z","2024-10-05T15:22:29Z","2024-10-05T15:22:33Z","2024-10-05T15:22:34Z","2024-10-05T15:22:35Z","2024-10-05T15:22:37Z","2024-10-05T15:22:39Z","2024-10-05T15:22:40Z","2024-10-05T15:22:41Z","2024-10-05T15:22:42Z","2024-10-05T15:22:46Z","2024-10-05T15:22:47Z","2024-10-05T15:22:53Z","2024-10-05T15:22:54Z","2024-10-05T15:22:55Z","2024-10-05T15:22:57Z","2024-10-05T15:22:59Z","2024-10-05T15:23:00Z","2024-10-05T15:23:03Z","2024-10-05T15:23:04Z","2024-10-05T15:23:07Z","2024-10-05T15:23:10Z","2024-10-05T15:23:12Z","2024-10-05T15:23:14Z","2024-10-05T15:23:45Z","2024-10-05T15:23:46Z","2024-10-05T15:23:55Z","2024-10-05T15:23:58Z","2024-10-05T15:24:03Z","2024-10-05T15:24:07Z","2024-10-05T15:24:18Z","2024-10-05T15:24:20Z","2024-10-05T15:24:25Z","2024-10-05T15:24:27Z","2024-10-05T15:24:29Z","2024-10-05T15:24:32Z","2024-10-05T15:24:33Z","2024-10-05T15:24:36Z","2024-10-05T15:24:44Z","2024-10-05T15:24:49Z","2024-10-05T15:24:50Z","2024-10-05T15:24:55Z","2024-10-05T15:25:00Z","2024-10-05T15:25:02Z","2024-10-05T15:25:04Z","2024-10-05T15:25:07Z","2024-10-05T15:25:08Z","2024-10-05T15:25:11Z","2024-10-05T15:25:13Z","2024-10-05T15:25:17Z","2024-10-05T15:25:19Z","2024-10-05T15:25:20Z","2024-10-05T15:25:22Z","2024-10-05T15:25:23Z","2024-10-05T15:25:25Z","2024-10-05T15:25:26Z","2024-10-05T15:25:27Z","2024-10-05T15:25:30Z","2024-10-05T15:25:31Z","2024-10-05T15:25:34Z","2024-10-05T15:25:38Z","2024-10-05T15:25:39Z","2024-10-05T15:25:40Z","2024-10-05T15:25:41Z","2024-10-05T15:25:43Z","2024-10-05T15:25:50Z","2024-10-05T15:25:55Z","2024-10-05T15:25:57Z","2024-10-05T15:25:58Z","2024-10-05T15:26:02Z","2024-10-05T15:26:04Z","2024-10-05T15:26:06Z","2024-10-05T15:26:08Z","2024-10-05T15:26:10Z","2024-10-05T15:26:12Z","2024-10-05T15:26:14Z","2024-10-05T15:26:17Z","2024-10-05T15:26:22Z","2024-10-05T15:26:23Z","2024-10-05T15:26:25Z","2024-10-05T15:26:28Z","2024-10-05T15:26:29Z","2024-10-05T15:26:30Z","2024-10-05T15:26:32Z","2024-10-05T15:26:34Z","2024-10-05T15:26:42Z","2024-10-05T15:26:50Z","2024-10-05T15:26:59Z","2024-10-05T15:27:06Z","2024-10-05T15:27:09Z","2024-10-05T15:27:12Z","2024-10-05T15:27:17Z","2024-10-05T15:27:18Z","2024-10-05T15:27:25Z","2024-10-05T15:27:27Z","2024-10-05T15:27:31Z","2024-10-05T15:27:34Z","2024-10-05T15:27:35Z","2024-10-05T15:27:39Z","2024-10-05T15:27:41Z","2024-10-05T15:27:44Z","2024-10-05T15:27:45Z","2024-10-05T15:27:47Z","2024-10-05T15:27:48Z","2024-10-05T15:27:50Z","2024-10-05T15:27:51Z","2024-10-05T15:27:55Z","2024-10-05T15:27:56Z","2024-10-05T15:27:58Z","2024-10-05T15:28:00Z","2024-10-05T15:28:02Z","2024-10-05T15:28:04Z","2024-10-05T15:28:05Z","2024-10-05T15:28:07Z","2024-10-05T15:28:09Z","2024-10-05T15:28:11Z","2024-10-05T15:28:14Z","2024-10-05T15:28:15Z","2024-10-05T15:28:17Z","2024-10-05T15:28:21Z","2024-10-05T15:28:23Z","2024-10-05T15:28:25Z","2024-10-05T15:28:27Z","2024-10-05T15:28:30Z","2024-10-05T15:28:31Z","2024-10-05T15:28:36Z","2024-10-05T15:28:38Z","2024-10-05T15:28:39Z","2024-10-05T15:28:43Z","2024-10-05T15:28:45Z","2024-10-05T15:28:47Z","2024-10-05T15:28:49Z","2024-10-05T15:28:51Z","2024-10-05T15:28:52Z","2024-10-05T15:28:53Z","2024-10-05T15:28:55Z","2024-10-05T15:28:56Z","2024-10-05T15:29:00Z","2024-10-05T15:29:04Z","2024-10-05T15:29:05Z","2024-10-05T15:29:06Z","2024-10-05T15:29:07Z","2024-10-05T15:29:13Z","2024-10-05T15:29:15Z","2024-10-05T15:29:21Z","2024-10-05T15:29:22Z","2024-10-05T15:29:24Z","2024-10-05T15:29:30Z","2024-10-05T15:29:32Z","2024-10-05T15:29:33Z","2024-10-05T15:29:38Z","2024-10-05T15:29:41Z","2024-10-05T15:29:44Z","2024-10-05T15:29:48Z","2024-10-05T15:29:49Z","2024-10-05T15:29:54Z","2024-10-05T15:30:00Z","2024-10-05T15:30:04Z","2024-10-05T15:30:08Z","2024-10-05T15:30:11Z","2024-10-05T15:30:14Z","2024-10-05T15:30:15Z","2024-10-05T15:30:16Z","2024-10-05T15:30:18Z","2024-10-05T15:30:19Z","2024-10-05T15:30:24Z","2024-10-05T15:32:01Z","2024-10-05T15:32:06Z","2024-10-05T15:32:09Z","2024-10-05T15:34:53Z","2024-10-05T15:34:57Z","2024-10-05T15:35:04Z","2024-10-05T15:35:08Z","2024-10-05T15:35:10Z","2024-10-05T15:35:13Z","2024-10-05T15:35:16Z","2024-10-05T15:35:20Z","2024-10-05T15:35:22Z","2024-10-05T15:35:24Z","2024-10-05T15:35:26Z","2024-10-05T15:35:27Z","2024-10-05T15:35:29Z","2024-10-05T15:35:33Z","2024-10-05T15:35:36Z","2024-10-05T15:35:37Z","2024-10-05T15:35:38Z","2024-10-05T15:35:40Z","2024-10-05T15:35:44Z","2024-10-05T15:35:46Z","2024-10-05T15:35:48Z","2024-10-05T15:35:49Z","2024-10-05T15:35:51Z","2024-10-05T15:35:53Z","2024-10-05T15:35:54Z","2024-10-05T15:35:56Z","2024-10-05T15:35:57Z","2024-10-05T15:35:58Z","2024-10-05T15:36:00Z","2024-10-05T15:36:01Z","2024-10-05T15:36:04Z","2024-10-05T15:36:05Z","2024-10-05T15:36:13Z","2024-10-05T15:36:15Z","2024-10-05T15:36:18Z","2024-10-05T15:36:22Z","2024-10-05T15:36:24Z","2024-10-05T15:36:41Z","2024-10-05T15:36:45Z","2024-10-05T15:37:04Z","2024-10-05T15:37:12Z","2024-10-05T15:37:17Z","2024-10-05T15:37:24Z","2024-10-05T15:37:26Z","2024-10-05T15:37:27Z","2024-10-05T15:37:29Z","2024-10-05T15:37:30Z","2024-10-05T15:37:31Z","2024-10-05T15:37:32Z","2024-10-05T15:37:33Z","2024-10-05T15:37:34Z","2024-10-05T15:37:35Z","2024-10-05T15:37:37Z","2024-10-05T15:37:41Z","2024-10-05T15:37:44Z","2024-10-05T15:37:46Z","2024-10-05T15:37:55Z","2024-10-05T15:37:56Z","2024-10-05T15:37:58Z","2024-10-05T15:38:02Z","2024-10-05T15:38:05Z","2024-10-05T15:38:09Z","2024-10-05T15:38:11Z","2024-10-05T15:38:13Z","2024-10-05T15:38:18Z","2024-10-05T15:38:21Z","2024-10-05T15:38:23Z","2024-10-05T15:38:25Z","2024-10-05T15:38:34Z","2024-10-05T15:40:39Z","2024-10-05T15:40:42Z","2024-10-05T15:40:44Z","2024-10-05T15:40:56Z","2024-10-05T15:40:59Z","2024-10-05T15:41:00Z","2024-10-05T15:41:01Z","2024-10-05T15:41:05Z","2024-10-05T15:41:06Z","2024-10-05T15:41:09Z","2024-10-05T15:41:10Z","2024-10-05T15:41:11Z","2024-10-05T15:41:14Z","2024-10-05T15:41:16Z","2024-10-05T15:41:19Z","2024-10-05T15:41:21Z","2024-10-05T15:41:25Z","2024-10-05T15:41:28Z","2024-10-05T15:41:31Z","2024-10-05T15:41:33Z","2024-10-05T15:41:37Z","2024-10-05T15:41:38Z","2024-10-05T15:41:39Z","2024-10-05T15:41:42Z","2024-10-05T15:41:43Z","2024-10-05T15:41:52Z","2024-10-05T15:41:54Z","2024-10-05T15:41:56Z","2024-10-05T15:41:59Z","2024-10-05T15:42:02Z","2024-10-05T15:42:06Z","2024-10-05T15:42:07Z","2024-10-05T15:42:09Z","2024-10-05T15:42:12Z","2024-10-05T15:42:15Z","2024-10-05T15:42:16Z","2024-10-05T15:42:18Z","2024-10-05T15:42:23Z","2024-10-05T15:42:24Z","2024-10-05T15:42:25Z","2024-10-05T15:42:29Z","2024-10-05T15:42:32Z","2024-10-05T15:42:33Z","2024-10-05T15:42:35Z","2024-10-05T15:42:37Z","2024-10-05T15:42:38Z","2024-10-05T15:42:41Z","2024-10-05T15:42:43Z","2024-10-05T15:42:47Z","2024-10-05T15:42:49Z","2024-10-05T15:42:52Z","2024-10-05T15:42:56Z","2024-10-05T15:42:57Z","2024-10-05T15:43:00Z","2024-10-05T15:43:03Z","2024-10-05T15:43:05Z","2024-10-05T15:43:10Z","2024-10-05T15:43:13Z","2024-10-05T15:43:18Z","2024-10-05T15:43:20Z","2024-10-05T15:43:26Z","2024-10-05T15:43:28Z","2024-10-05T15:43:34Z","2024-10-05T15:43:40Z","2024-10-05T15:43:44Z","2024-10-05T15:43:51Z","2024-10-05T15:43:54Z","2024-10-05T15:44:00Z","2024-10-05T15:44:03Z","2024-10-05T15:44:07Z","2024-10-05T15:44:08Z","2024-10-05T15:44:09Z","2024-10-05T15:44:11Z","2024-10-05T15:44:13Z","2024-10-05T15:44:15Z","2024-10-05T15:44:17Z","2024-10-05T15:44:20Z","2024-10-05T15:44:24Z","2024-10-05T15:44:29Z","2024-10-05T15:44:32Z","2024-10-05T15:44:33Z","2024-10-05T15:44:34Z","2024-10-05T15:44:35Z","2024-10-05T15:44:37Z","2024-10-05T15:44:38Z","2024-10-05T15:44:39Z","2024-10-05T15:44:40Z","2024-10-05T15:44:49Z","2024-10-05T15:44:50Z","2024-10-05T15:44:51Z","2024-10-05T15:44:55Z","2024-10-05T15:44:57Z","2024-10-05T15:44:59Z","2024-10-05T15:45:02Z","2024-10-05T15:45:03Z","2024-10-05T15:45:04Z","2024-10-05T15:45:06Z","2024-10-05T15:45:08Z","2024-10-05T15:45:10Z","2024-10-05T15:45:11Z","2024-10-05T15:45:13Z","2024-10-05T15:45:14Z","2024-10-05T15:45:16Z","2024-10-05T15:45:17Z","2024-10-05T15:45:19Z","2024-10-05T15:45:22Z","2024-10-05T15:45:24Z","2024-10-05T15:45:28Z","2024-10-05T15:45:31Z","2024-10-05T15:45:32Z","2024-10-05T15:45:35Z","2024-10-05T15:45:37Z","2024-10-05T15:45:45Z","2024-10-05T15:46:25Z","2024-10-05T15:46:26Z","2024-10-05T15:46:30Z","2024-10-05T15:46:38Z","2024-10-05T15:46:43Z","2024-10-05T15:46:47Z","2024-10-05T15:46:50Z","2024-10-05T15:46:53Z","2024-10-05T15:46:57Z","2024-10-05T15:47:00Z","2024-10-05T15:47:03Z","2024-10-05T15:47:06Z","2024-10-05T15:47:09Z","2024-10-05T15:47:12Z","2024-10-05T15:47:14Z","2024-10-05T15:47:20Z","2024-10-05T15:47:21Z","2024-10-05T15:47:23Z","2024-10-05T15:47:25Z","2024-10-05T15:47:34Z","2024-10-05T15:47:35Z","2024-10-05T15:47:37Z","2024-10-05T15:47:40Z","2024-10-05T15:47:43Z","2024-10-05T15:47:44Z","2024-10-05T15:47:47Z","2024-10-05T15:47:51Z","2024-10-05T15:47:53Z","2024-10-05T15:47:54Z","2024-10-05T15:47:55Z","2024-10-05T15:47:56Z","2024-10-05T15:48:00Z","2024-10-05T15:48:01Z","2024-10-05T15:48:02Z","2024-10-05T15:48:03Z","2024-10-05T15:48:09Z","2024-10-05T15:48:12Z","2024-10-05T15:48:14Z","2024-10-05T15:48:15Z","2024-10-05T15:48:19Z","2024-10-05T15:48:23Z","2024-10-05T15:48:57Z","2024-10-05T15:48:59Z","2024-10-05T15:49:03Z","2024-10-05T15:49:05Z","2024-10-05T15:49:06Z","2024-10-05T15:49:08Z","2024-10-05T15:49:13Z","2024-10-05T15:49:15Z","2024-10-05T15:49:26Z","2024-10-05T15:49:28Z","2024-10-05T15:49:29Z","2024-10-05T15:49:30Z","2024-10-05T15:49:31Z","2024-10-05T15:49:35Z","2024-10-05T15:49:41Z","2024-10-05T15:49:44Z","2024-10-05T15:49:46Z","2024-10-05T15:49:48Z","2024-10-05T15:49:51Z","2024-10-05T15:49:53Z","2024-10-05T15:49:57Z","2024-10-05T15:50:00Z","2024-10-05T15:50:01Z","2024-10-05T15:50:02Z","2024-10-05T15:50:07Z","2024-10-05T15:50:10Z","2024-10-05T15:50:12Z","2024-10-05T15:50:17Z","2024-10-05T15:50:22Z","2024-10-05T15:50:25Z","2024-10-05T15:50:35Z","2024-10-05T15:50:37Z","2024-10-05T15:50:38Z","2024-10-05T15:50:39Z","2024-10-05T15:50:42Z","2024-10-05T15:50:50Z","2024-10-05T15:50:51Z","2024-10-05T15:50:55Z","2024-10-05T15:50:56Z","2024-10-05T15:50:59Z","2024-10-05T15:51:02Z","2024-10-05T15:51:04Z","2024-10-05T15:51:09Z","2024-10-05T15:51:10Z","2024-10-05T15:51:12Z","2024-10-05T15:51:13Z","2024-10-05T15:51:14Z","2024-10-05T15:51:16Z","2024-10-05T15:51:20Z","2024-10-05T15:51:21Z","2024-10-05T15:51:23Z","2024-10-05T15:51:26Z","2024-10-05T15:51:29Z","2024-10-05T15:51:31Z","2024-10-05T15:51:32Z","2024-10-05T15:51:33Z","2024-10-05T15:51:34Z","2024-10-05T15:51:36Z","2024-10-05T15:51:39Z","2024-10-05T15:51:40Z","2024-10-05T15:51:46Z","2024-10-05T15:51:47Z","2024-10-05T15:51:49Z","2024-10-05T15:51:56Z","2024-10-05T15:52:00Z","2024-10-05T15:52:02Z","2024-10-05T15:52:08Z","2024-10-05T15:52:15Z","2024-10-05T15:52:19Z","2024-10-05T15:52:31Z","2024-10-05T15:52:32Z","2024-10-05T15:52:45Z","2024-10-05T15:52:46Z","2024-10-05T15:53:01Z","2024-10-05T15:53:04Z","2024-10-05T15:53:07Z","2024-10-05T15:53:10Z","2024-10-05T15:53:11Z","2024-10-05T15:53:23Z","2024-10-05T15:53:27Z","2024-10-05T15:53:29Z","2024-10-05T15:53:32Z","2024-10-05T15:53:33Z","2024-10-05T15:53:35Z","2024-10-05T15:53:38Z","2024-10-05T15:53:44Z","2024-10-05T15:53:47Z","2024-10-05T15:53:48Z","2024-10-05T15:53:51Z","2024-10-05T15:53:58Z","2024-10-05T15:54:41Z","2024-10-05T15:54:49Z","2024-10-05T15:54:54Z","2024-10-05T15:54:59Z","2024-10-05T15:55:00Z","2024-10-05T15:55:02Z","2024-10-05T15:55:06Z","2024-10-05T15:55:08Z","2024-10-05T15:55:10Z","2024-10-05T15:55:14Z","2024-10-05T15:55:15Z","2024-10-05T15:55:19Z","2024-10-05T15:55:21Z","2024-10-05T15:55:22Z","2024-10-05T15:55:27Z","2024-10-05T15:55:28Z","2024-10-05T15:55:30Z","2024-10-05T15:55:31Z","2024-10-05T15:55:34Z","2024-10-05T15:55:40Z","2024-10-05T15:55:43Z","2024-10-05T15:55:45Z","2024-10-05T15:55:48Z","2024-10-05T15:55:49Z","2024-10-05T15:55:50Z","2024-10-05T15:55:51Z","2024-10-05T15:55:52Z","2024-10-05T15:55:53Z","2024-10-05T15:55:55Z","2024-10-05T15:56:03Z","2024-10-05T15:56:48Z","2024-10-05T15:56:52Z","2024-10-05T15:56:55Z","2024-10-05T15:56:58Z","2024-10-05T15:57:03Z","2024-10-05T15:57:14Z","2024-10-05T15:57:15Z","2024-10-05T15:57:17Z","2024-10-05T15:57:20Z","2024-10-05T15:57:22Z","2024-10-05T15:57:25Z","2024-10-05T15:57:27Z","2024-10-05T15:57:28Z","2024-10-05T15:57:30Z","2024-10-05T15:57:31Z","2024-10-05T15:57:32Z","2024-10-05T15:57:35Z","2024-10-05T15:57:39Z","2024-10-05T15:57:41Z","2024-10-05T15:57:42Z","2024-10-05T15:57:48Z","2024-10-05T15:57:53Z","2024-10-05T15:57:55Z","2024-10-05T15:57:57Z","2024-10-05T15:57:58Z","2024-10-05T15:58:04Z","2024-10-05T15:58:08Z","2024-10-05T15:58:12Z","2024-10-05T15:58:17Z","2024-10-05T15:58:19Z","2024-10-05T15:58:20Z","2024-10-05T15:58:25Z","2024-10-05T15:58:26Z","2024-10-05T15:58:27Z","2024-10-05T15:58:28Z","2024-10-05T15:58:31Z","2024-10-05T15:58:33Z","2024-10-05T15:58:34Z","2024-10-05T15:58:35Z","2024-10-05T15:58:37Z","2024-10-05T15:58:40Z","2024-10-05T15:58:41Z","2024-10-05T15:58:42Z","2024-10-05T15:58:44Z","2024-10-05T15:58:48Z","2024-10-05T15:58:49Z","2024-10-05T15:58:51Z","2024-10-05T15:58:52Z","2024-10-05T15:58:53Z","2024-10-05T15:58:55Z","2024-10-05T15:58:56Z","2024-10-05T15:58:59Z","2024-10-05T15:59:00Z","2024-10-05T15:59:02Z","2024-10-05T15:59:04Z","2024-10-05T15:59:06Z","2024-10-05T15:59:08Z","2024-10-05T15:59:16Z","2024-10-05T15:59:19Z","2024-10-05T15:59:21Z","2024-10-05T15:59:23Z","2024-10-05T15:59:25Z","2024-10-05T15:59:26Z","2024-10-05T15:59:28Z","2024-10-05T15:59:30Z","2024-10-05T15:59:34Z","2024-10-05T15:59:35Z","2024-10-05T15:59:40Z","2024-10-05T15:59:41Z","2024-10-05T15:59:45Z","2024-10-05T15:59:48Z","2024-10-05T15:59:49Z","2024-10-05T15:59:53Z","2024-10-05T15:59:56Z","2024-10-05T15:59:58Z","2024-10-05T16:00:00Z","2024-10-05T16:00:01Z","2024-10-05T16:00:02Z","2024-10-05T16:00:03Z","2024-10-05T16:00:04Z","2024-10-05T16:00:05Z","2024-10-05T16:00:06Z","2024-10-05T16:00:08Z","2024-10-05T16:00:09Z","2024-10-05T16:00:10Z","2024-10-05T16:00:11Z","2024-10-05T16:00:13Z","2024-10-05T16:00:16Z","2024-10-05T16:00:17Z","2024-10-05T16:00:21Z","2024-10-05T16:00:23Z","2024-10-05T16:00:25Z","2024-10-05T16:00:27Z","2024-10-05T16:00:30Z","2024-10-05T16:00:32Z","2024-10-05T16:00:33Z","2024-10-05T16:00:35Z","2024-10-05T16:00:36Z","2024-10-05T16:00:38Z","2024-10-05T16:00:44Z","2024-10-05T16:00:46Z","2024-10-05T16:00:49Z","2024-10-05T16:00:50Z","2024-10-05T16:00:52Z","2024-10-05T16:00:53Z","2024-10-05T16:00:55Z","2024-10-05T16:00:56Z","2024-10-05T16:00:57Z","2024-10-05T16:00:58Z","2024-10-05T16:01:00Z","2024-10-05T16:01:01Z","2024-10-05T16:01:03Z","2024-10-05T16:01:05Z","2024-10-05T16:01:10Z","2024-10-05T16:01:11Z","2024-10-05T16:01:12Z","2024-10-05T16:01:15Z","2024-10-05T16:01:17Z","2024-10-05T16:01:18Z","2024-10-05T16:01:20Z","2024-10-05T16:01:23Z","2024-10-05T16:02:36Z","2024-10-05T16:02:38Z","2024-10-05T16:02:45Z","2024-10-05T16:02:48Z","2024-10-05T16:02:51Z","2024-10-05T16:02:54Z","2024-10-05T16:02:59Z","2024-10-05T16:03:07Z","2024-10-05T16:03:09Z","2024-10-05T16:03:10Z","2024-10-05T16:03:14Z","2024-10-05T16:03:16Z","2024-10-05T16:03:19Z","2024-10-05T16:03:22Z","2024-10-05T16:03:24Z","2024-10-05T16:03:27Z","2024-10-05T16:03:29Z","2024-10-05T16:03:30Z","2024-10-05T16:03:32Z","2024-10-05T16:03:39Z","2024-10-05T16:03:44Z","2024-10-05T16:03:53Z","2024-10-05T16:03:59Z","2024-10-05T16:04:04Z","2024-10-05T16:04:10Z","2024-10-05T16:04:17Z","2024-10-05T16:04:20Z","2024-10-05T16:04:24Z","2024-10-05T16:04:30Z","2024-10-05T16:04:50Z","2024-10-05T16:04:54Z","2024-10-05T16:04:55Z","2024-10-05T16:04:56Z","2024-10-05T16:04:57Z","2024-10-05T16:04:58Z","2024-10-05T16:04:59Z","2024-10-05T16:05:00Z","2024-10-05T16:05:01Z","2024-10-05T16:05:02Z","2024-10-05T16:05:03Z","2024-10-05T16:05:04Z","2024-10-05T16:05:05Z","2024-10-05T16:05:06Z","2024-10-05T16:05:07Z","2024-10-05T16:05:09Z","2024-10-05T16:05:10Z","2024-10-05T16:05:12Z","2024-10-05T16:05:24Z","2024-10-05T16:05:26Z","2024-10-05T16:05:30Z","2024-10-05T16:05:39Z","2024-10-05T16:05:41Z","2024-10-05T16:05:42Z","2024-10-05T16:05:44Z","2024-10-05T16:05:45Z","2024-10-05T16:05:46Z","2024-10-05T16:05:47Z","2024-10-05T16:05:48Z","2024-10-05T16:05:50Z","2024-10-05T16:05:51Z","2024-10-05T16:05:52Z","2024-10-05T16:05:58Z","2024-10-05T16:06:01Z","2024-10-05T16:06:06Z","2024-10-05T16:06:10Z","2024-10-05T16:06:20Z","2024-10-05T16:06:24Z","2024-10-05T16:06:31Z","2024-10-05T16:06:33Z","2024-10-05T16:06:36Z","2024-10-05T16:06:41Z","2024-10-05T16:07:08Z","2024-10-05T16:07:09Z","2024-10-05T16:07:13Z","2024-10-05T16:07:28Z","2024-10-05T16:07:29Z","2024-10-05T16:07:30Z","2024-10-05T16:07:37Z","2024-10-05T16:07:39Z","2024-10-05T16:07:40Z","2024-10-05T16:07:46Z","2024-10-05T16:07:47Z","2024-10-05T16:07:52Z","2024-10-05T16:07:54Z","2024-10-05T16:07:57Z","2024-10-05T16:08:02Z","2024-10-05T16:08:03Z","2024-10-05T16:08:08Z","2024-10-05T16:08:15Z","2024-10-05T16:08:18Z","2024-10-05T16:08:20Z","2024-10-05T16:08:21Z","2024-10-05T16:08:23Z","2024-10-05T16:08:32Z","2024-10-05T16:08:38Z","2024-10-05T16:08:40Z","2024-10-05T16:08:42Z","2024-10-05T16:08:49Z","2024-10-05T16:09:07Z","2024-10-05T16:09:13Z","2024-10-05T16:09:28Z","2024-10-05T16:09:29Z","2024-10-05T16:09:32Z","2024-10-05T16:09:36Z","2024-10-05T16:09:45Z","2024-10-05T16:09:47Z","2024-10-05T16:09:50Z","2024-10-05T16:09:54Z","2024-10-05T16:09:57Z","2024-10-05T16:10:01Z","2024-10-05T16:10:06Z","2024-10-05T16:10:17Z","2024-10-05T16:10:19Z","2024-10-05T16:10:31Z","2024-10-05T16:10:42Z","2024-10-05T16:10:43Z","2024-10-05T16:10:56Z","2024-10-05T16:10:58Z","2024-10-05T16:11:00Z","2024-10-05T16:11:02Z","2024-10-05T16:11:03Z","2024-10-05T16:11:05Z","2024-10-05T16:11:09Z","2024-10-05T16:11:12Z","2024-10-05T16:11:15Z","2024-10-05T16:11:17Z","2024-10-05T16:11:21Z","2024-10-05T16:11:28Z","2024-10-05T16:11:32Z","2024-10-05T16:11:34Z","2024-10-05T16:11:48Z","2024-10-05T16:11:50Z","2024-10-05T16:11:54Z","2024-10-05T16:11:56Z","2024-10-05T16:11:58Z","2024-10-05T16:11:59Z","2024-10-05T16:12:00Z","2024-10-05T16:12:03Z","2024-10-05T16:12:07Z","2024-10-05T16:12:20Z","2024-10-05T16:12:23Z","2024-10-05T16:12:26Z","2024-10-05T16:12:31Z","2024-10-05T16:12:40Z","2024-10-05T16:12:43Z","2024-10-05T16:12:52Z","2024-10-05T16:12:54Z","2024-10-05T16:12:56Z","2024-10-05T16:12:57Z","2024-10-05T16:12:58Z","2024-10-05T16:13:01Z","2024-10-05T16:13:14Z","2024-10-05T16:13:17Z","2024-10-05T16:13:19Z","2024-10-05T16:13:37Z","2024-10-05T16:13:39Z","2024-10-05T16:13:54Z","2024-10-05T16:14:00Z","2024-10-05T16:14:18Z","2024-10-05T16:15:00Z","2024-10-05T16:15:03Z","2024-10-05T16:15:06Z","2024-10-05T16:15:10Z","2024-10-05T16:15:11Z","2024-10-05T16:15:12Z","2024-10-05T16:15:14Z","2024-10-05T16:15:25Z","2024-10-05T16:15:28Z","2024-10-05T16:15:31Z","2024-10-05T16:15:34Z","2024-10-05T16:15:40Z","2024-10-05T16:15:43Z","2024-10-05T16:15:45Z","2024-10-05T16:15:46Z","2024-10-05T16:15:53Z","2024-10-05T16:15:54Z","2024-10-05T16:15:59Z","2024-10-05T16:16:37Z","2024-10-05T16:16:45Z","2024-10-05T16:16:46Z","2024-10-05T16:16:47Z","2024-10-05T16:16:48Z","2024-10-05T16:16:49Z","2024-10-05T16:16:52Z","2024-10-05T16:16:54Z","2024-10-05T16:16:56Z","2024-10-05T16:17:02Z","2024-10-05T16:17:03Z","2024-10-05T16:17:05Z","2024-10-05T16:17:20Z","2024-10-05T16:17:22Z","2024-10-05T16:17:26Z","2024-10-05T16:17:30Z","2024-10-05T16:17:33Z","2024-10-05T16:17:42Z","2024-10-05T16:17:44Z","2024-10-05T16:17:46Z","2024-10-05T16:17:47Z","2024-10-05T16:17:49Z","2024-10-05T16:17:55Z","2024-10-05T16:17:56Z","2024-10-05T16:18:01Z","2024-10-05T16:18:02Z","2024-10-05T16:18:05Z","2024-10-05T16:18:06Z","2024-10-05T16:18:09Z","2024-10-05T16:18:11Z","2024-10-05T16:18:12Z","2024-10-05T16:18:13Z","2024-10-05T16:18:15Z","2024-10-05T16:18:17Z","2024-10-05T16:18:20Z","2024-10-05T16:18:25Z","2024-10-05T16:18:30Z","2024-10-05T16:18:31Z","2024-10-05T16:18:38Z","2024-10-05T16:18:40Z","2024-10-05T16:18:47Z","2024-10-05T16:18:48Z","2024-10-05T16:18:50Z","2024-10-05T16:18:53Z","2024-10-05T16:18:55Z","2024-10-05T16:19:00Z","2024-10-05T16:19:04Z","2024-10-05T16:19:05Z","2024-10-05T16:19:09Z"],"heartRates":[104,104,104,104,104,104,104,104,104,104,104,104,104,122,122,122,122,122,122,122,122,122,122,122,122,122,122,127,127,127,127,127,131,131,131,131,131,132,130,130,130,127,126,126,124,124,122,122,121,122,122,122,122,122,119,119,120,120,120,121,121,121,120,120,122,122,122,122,131,130,130,130,130,130,130,130,130,130,130,130,130,130,130,130,130,130,130,130,130,130,130,142,142,141,140,140,138,139,139,141,140,140,140,139,139,139,139,139,139,139,139,139,139,142,142,141,140,140,140,140,137,137,137,137,136,136,136,136,135,133,133,133,133,133,131,131,131,130,130,129,128,128,128,126,126,126,128,128,128,128,129,129,126,126,126,126,125,124,124,124,126,126,126,127,128,128,128,128,124,121,121,120,120,120,120,120,120,120,120,121,122,122,122,122,122,124,126,126,127,127,127,127,127,132,132,132,132,132,132,132,132,132,132,132,132,132,132,132,132,132,132,135,135,135,135,134,134,134,134,132,132,132,125,126,126,126,126,126,126,126,127,127,127,130,130,130,130,131,131,131,131,131,130,130,130,130,129,129,129,131,131,131,133,133,132,132,132,132,132,132,132,133,132,132,130,133,132,132,132,132,131,131,131,132,133,133,133,133,132,124,124,122,122,122,122,122,122,122,122,122,122,122,122,122,122,122,122,122,122,122,122,122,122,122,122,122,122,122,122,122,122,122,122,122,122,122,122,122,122,122,122,122,122,122,122,122,122,122,122,122,122,122,122,122,122,122,122,122,122,122,122,122,122,122,122,122,122,122,122,122,122,122,122,122,122,122,122,122,122,122,122,122,122,122,122,122,122,122,122,122,122,122,122,122,122,122,122,122,122,122,122,122,122,122,122,122,122,122,122,122,122,122,122,122,122,122,122,122,122,122,122,122,122,122,122,122,122,122,122,122,122,122,122,122,122,122,122,122,122,122,122,122,122,122,122,122,122,122,122,122,122,122,122,122,122,122,122,122,143,143,143,137,138,138,138,138,138,138,138,138,138,138,138,138,138,138,138,138,138,138,138,138,138,138,138,138,138,138,138,138,138,138,138,138,138,138,138,138,138,138,138,138,138,144,143,143,143,142,142,142,142,142,142,142,142,142,142,142,142,142,142,142,142,142,142,142,142,142,142,142,142,142,142,142,152,152,152,150,150,148,148,148,148,148,148,148,151,151,153,153,153,154,153,152,152,152,150,150,150,150,150,150,150,150,149,148,148,147,146,146,146,146,146,146,146,146,146,143,143,143,143,143,143,144,144,144,144,144,144,144,146,147,147,147,143,143,143,143,143,143,143,142,138,138,138,138,138,145,145,147,147,147,145,145,145,145,147,150,150,151,151,153,153,153,155,156,156,156,155,155,153,149,149,146,146,146,146,142,141,143,143,143,143,143,141,141,142,142,142,142,142,142,144,144,144,143,145,145,145,148,148,148,148,148,148,148,151,151,151,152,153,153,153,153,153,153,153,154,154,154,154,154,154,156,156,156,155,155,155,155,155,154,154,154,155,155,154,154,154,150,150,149,148,148,148,148,148,148,148,147,147,147,147,149,149,150,150,150,148,148,148,148,147,147,147,147,147,147,147,146,146,144,144,147,147,147,149,149,149,149,150,150,152,152,151,151,153,153,153,153,153,154,154,154,154,154,154,154,152,152,152,153,153,156,156,156,158,158,158,158,158,158,158,158,158,158,158,159,159,159,159,161,161,151,138,139,139,140,139,142,142,145,145,145,145,145,147,147,147,147,147,147,147,147,147,147,148,148,148,148,150,150,151,150,150,150,150,150,150,150,150,150,150,152,152,152,144,144,143,144,143,143,142,142,142,142,142,140,139,139,139,139,140,140,140,140,140,144,144,145,149,149,149,149,149,149,149,150,150,150,152,152,152,152,152,154,154,154,154,152,152,151,151,151,151,151,154,153,153,155,155,155,156,156,156,156,150,150,153,154,154,154,154,153,153,153,153,153,152,151,151,151,153,153,153,153,153,153,153,153,153,153,153,153,155,157,157,160,160,162,162,162,162,162,162,162,162,162,162,162,162,163,163,162,162,162,162,164,164,164,164,164,160,160,159,159,159,162,162,162,165,165,166,164,164,165,166,165,165,164,165,165,165,165,166,166,139,139,139,139,139,134,134,139,139,143,143,143,143,150,152,152,156,156,156,156,158,158,161,161,161,161,162,162,162,163,163,163,163,163,163,163,163,163,163,165,165,169,168,168,169,169,169,169,169,169,169,169,169,169,169,168,168,168,165,165,160,160,157,157,152,149,149,143,142,142,142,137,136,136,136,140,140,140,140,141,141,140,140,140,140,140,144,144,144,147,146,146,145,145,145,145,145,148,150,150,150,153,154,154,154,156,157,157,157,158,158,158,160,160,160,159,159,159,159,159,159,160,160,159,159,161,160,160,160,160,160,160,159,159,159,158,158,160,161,163,163,163,163,163,163,163,163,163,162,162,158,155,155,155,155,155,155,155,155,153,153,153,154,154,152,152,152,152,149,149,149,148,147,147,147,147,147,148,148,149,149,150,150,150,148,148,148,143,141,140,139,139,139,139,139,139,139,139,138,138,137,137,137,137,138,138,141,141,141,141,138,139,139,138,138,138,136,136,136,136,140,139,139,139,137,138,136,137,137,137,137,137,137,137,133,134,134,134,134,134,137,137,141,141,142,142,147,147,147,147,148,148,148,148,147,145,148,148,148,148,148,149,151,151,153,153,153,152,152,152,151,151,151,151,149,149,146,146,145,145,145,145,145,145,145,145,144,144,144,142,142,142,142,140,139,135,135,135,135,134,134,134,134,134,134,134,134,134,134,134,134,134,131,131,131,130,120,134,136,135,135,135,135,135,135,137,137,140,140,140,144,144,144,146,146,149,149,151,154,154,154,154,154,154,154,153,153,135,135,135,135,143,143,143,143,143,143,144,144,144,144,144,144,146,146,147,148,148,148,148,147,147,149,152,156,156,157,156,156,156,156,156,157,157,157,157,157,158,158,158,155,155,155,156,155,155,155,155,155,154,154,154,154,151,151,151,144,144,144,144,144,143,143,143,143,142,142,142,145,145,147,147,147,147,147,147,147,147,147,147,147,147,153,153,153,153,153,154,154,154,151,147,147,147,147,152,152,151,151,151,151,151,151,151,151,151,151,151,151,150,150,150,150,149,149,149,149,147,122,122,128,128,126,124,126,126,126,127,129,129,129,129,133,133,133,133,134,139,140,140,139,139,144,145,147,146,141,144,144,144,144,144,143,143,143,143,143,143,143,143,143,143,143,143,148,148,156,159,159,159,159,159,159,159,159,159,159,159,159,159,158,158,155,155,154,152,152,152,131,131,131,138,138,138,138,139,139,140,140,140,140,142,141,141,141,141,140,140,140,140,144,144,144,146,146,152,152,155,155,155,155,153,153,151,151,150,150,150,149,149,150,155,155,154,157,157,157,156,156,155,155,155,154,154,153,151,151,153,153,154,154,154,154,154,154,152,150,150,150,151,152,152,153,153,152,152,152,152,154,154,154,153,153,153,154,156,156,156,156,154,154,154,154,155,153,153,153,153,153,153,153,156,156,159,163,162,161,161,161,161,161,161,161,158,158,157,153,153,153,148,148,148,148,148,141,141,140,140,140,140,140,140,139,139,139,139,139,137,137,136,136,137,138,138,137,137,135,135,135,134,134,136,135],"month":"2024-10-01"},"geometry":{"type":"LineString","coordinates":[[2.453531,48.700049,83.7],[2.45349,48.699757,83.8],[2.453458,48.699615,83.9],[2.453403,48.699244,83.9],[2.453385,48.69922,83.9],[2.453346,48.699204,83.9],[2.453332,48.699184,84],[2.45331,48.698935,83.9],[2.453247,48.698639,83.8],[2.453292,48.698597,83.7],[2.453303,48.698558,83.7],[2.453279,48.698476,83.7],[2.453224,48.69803,83.5],[2.453099,48.697618,83.6],[2.453043,48.697465,83.6],[2.453034,48.697413,83.6],[2.453037,48.697302,83.6],[2.453063,48.697195,83.6],[2.453126,48.697095,83.6],[2.453245,48.696957,83.5],[2.453332,48.696809,83.3],[2.453396,48.696657,83.1],[2.453752,48.696109,83],[2.453821,48.695953,83],[2.45389,48.695837,83],[2.453884,48.69584,83],[2.453904,48.695791,83],[2.453948,48.695744,83],[2.454026,48.695696,83.1],[2.454075,48.695682,83.1],[2.454174,48.69567,83.2],[2.454194,48.695644,83.2],[2.454167,48.695597,83.1],[2.454121,48.695559,83.1],[2.454119,48.695537,83.1],[2.454175,48.695495,83],[2.45425,48.695401,83],[2.454317,48.695292,83],[2.454523,48.695002,82.9],[2.454586,48.694968,82.9],[2.454589,48.694903,83],[2.455207,48.69405,83.8],[2.455249,48.69397,83.8],[2.455349,48.693858,84],[2.455465,48.693702,84.1],[2.4556,48.693549,84.1],[2.455779,48.693311,84.1],[2.455867,48.693143,84.1],[2.456085,48.692804,84.1],[2.45614,48.692675,84.2],[2.456295,48.692461,84.5],[2.456315,48.692413,84.5],[2.45646,48.692192,84.5],[2.456554,48.692007,84.6],[2.456961,48.691399,84.8],[2.457051,48.691231,84.7],[2.457173,48.691064,84.7],[2.457184,48.691016,84.7],[2.457208,48.690976,84.7],[2.457253,48.690946,84.8],[2.457315,48.690946,84.7],[2.457377,48.690965,84.7],[2.457487,48.691019,84.7],[2.457855,48.691102,85],[2.458022,48.691164,85.1],[2.458088,48.691174,85.1],[2.458325,48.691237,85.3],[2.458374,48.691262,85.3],[2.458557,48.691294,85.3],[2.458674,48.691304,85.3],[2.458828,48.691383,85.4],[2.459105,48.691461,85.6],[2.459437,48.691535,85.9],[2.459494,48.691535,85.9],[2.459535,48.691545,85.9],[2.459611,48.691591,86],[2.459827,48.691647,86.1],[2.460007,48.691708,86.3],[2.460045,48.691704,86.3],[2.460153,48.691721,86.4],[2.460382,48.691786,86.5],[2.460558,48.691819,86.6],[2.460629,48.691821,86.6],[2.460735,48.691803,86.7],[2.460791,48.691809,86.8],[2.460827,48.691826,86.8],[2.460898,48.691893,86.8],[2.460983,48.691949,86.8],[2.461032,48.691971,86.9],[2.461202,48.692095,87],[2.461249,48.692119,87],[2.46154,48.692332,87.1],[2.461577,48.692368,87.1],[2.461748,48.692491,87.1],[2.461872,48.692602,87.2],[2.46197,48.692667,87.2],[2.462181,48.692841,87.2],[2.462403,48.693003,87.1],[2.462586,48.693154,87.1],[2.462701,48.693235,87.1],[2.463036,48.693505,87.2],[2.463086,48.693523,87.3],[2.463124,48.693571,87.3],[2.463235,48.693658,87.3],[2.463233,48.693676,87.3],[2.463176,48.693688,87.3],[2.46303,48.693685,87.4],[2.462994,48.693693,87.4],[2.462978,48.693685,87.4],[2.462973,48.693631,87.4],[2.463039,48.693569,87.3],[2.463077,48.693495,87.3],[2.463109,48.693463,87.3],[2.463189,48.69341,87.2],[2.463226,48.693341,87.2],[2.463228,48.693308,87.2],[2.463203,48.693254,87.2],[2.463268,48.693206,87.2],[2.463288,48.693164,87.1],[2.463306,48.693063,87.1],[2.46344,48.693,87.1],[2.463435,48.692961,87.1],[2.463467,48.692897,87.1],[2.463553,48.692809,87.1],[2.463547,48.692732,87.1],[2.463525,48.692689,87.1],[2.463554,48.692617,87.1],[2.463555,48.692552,87.1],[2.463615,48.692402,87],[2.463698,48.692305,87],[2.463734,48.692223,87],[2.463787,48.692156,87],[2.463828,48.692081,87],[2.463837,48.692005,87.1],[2.463867,48.69194,87.1],[2.463926,48.691886,87.1],[2.463949,48.691852,87.1],[2.464145,48.691649,87.2],[2.464161,48.69162,87.2],[2.464176,48.691534,87.3],[2.464225,48.691481,87.3],[2.464292,48.691451,87.3],[2.464349,48.691355,87.3],[2.464507,48.691252,87.3],[2.464534,48.691226,87.3],[2.464578,48.691206,87.3],[2.464673,48.69119,87.3],[2.46477,48.691143,87.3],[2.464988,48.691125,87.4],[2.465039,48.691113,87.4],[2.46512,48.691067,87.3],[2.465175,48.69105,87.3],[2.465375,48.691016,87.3],[2.465496,48.691023,87.3],[2.465636,48.690994,87.3],[2.465781,48.690976,87.3],[2.465813,48.690988,87.3],[2.465935,48.691008,87.3],[2.465966,48.690998,87.3],[2.466112,48.6909,87.3],[2.466228,48.690856,87.3],[2.466333,48.69083,87.3],[2.466438,48.690835,87.4],[2.466609,48.690803,87.4],[2.46671,48.690762,87.4],[2.466738,48.690732,87.4],[2.466785,48.690708,87.4],[2.466935,48.690696,87.4],[2.467196,48.690482,87.3],[2.467354,48.690418,87.2],[2.467418,48.690357,87.1],[2.467528,48.690291,87.1],[2.467573,48.690284,87],[2.467628,48.690262,87],[2.467707,48.690262,86.9],[2.467738,48.690246,86.9],[2.46776,48.690216,86.9],[2.467769,48.690176,86.9],[2.467737,48.690138,86.9],[2.467698,48.690058,86.9],[2.467645,48.689821,86.8],[2.46765,48.689791,86.8],[2.467624,48.689767,86.8],[2.46757,48.689621,86.9],[2.46755,48.68952,87.1],[2.467474,48.689386,87.3],[2.467445,48.689262,87.4],[2.467455,48.689237,87.4],[2.46755,48.689233,87.4],[2.467722,48.6892,87.4],[2.467882,48.689156,87.4],[2.467964,48.689108,87.4],[2.468037,48.689037,87.4],[2.468052,48.688927,87.4],[2.468092,48.688891,87.4],[2.468139,48.688865,87.5],[2.468317,48.688856,87.5],[2.468417,48.688818,87.5],[2.468468,48.68881,87.5],[2.468581,48.688808,87.5],[2.468773,48.688782,87.5],[2.468881,48.6888,87.5],[2.469235,48.68889,87.5],[2.469341,48.688897,87.5],[2.46947,48.688929,87.5],[2.469685,48.688951,87.5],[2.469747,48.688969,87.5],[2.469821,48.688964,87.4],[2.469842,48.688991,87.4],[2.470004,48.688962,87.3],[2.470073,48.688958,87.2],[2.470133,48.688965,87.2],[2.4702,48.688984,87.2],[2.470301,48.689038,87.1],[2.470369,48.689052,87.1],[2.470739,48.689093,87.2],[2.470792,48.689113,87.3],[2.470857,48.689118,87.3],[2.470991,48.689108,87.3],[2.471117,48.689087,87.3],[2.471239,48.689054,87.2],[2.4713,48.689047,87.2],[2.471368,48.689049,87.2],[2.471497,48.689028,87.2],[2.471602,48.688995,87.2],[2.471635,48.688972,87.2],[2.471642,48.688941,87.2],[2.471679,48.688924,87.2],[2.471781,48.68892,87.2],[2.471845,48.688901,87.2],[2.471891,48.688867,87.2],[2.471946,48.688845,87.1],[2.472072,48.688834,87.1],[2.47218,48.688856,87.1],[2.472238,48.688856,87.1],[2.472355,48.688814,87.2],[2.472409,48.688807,87.1],[2.472678,48.688857,87.1],[2.472751,48.688911,87],[2.472836,48.688955,87],[2.472879,48.688965,87],[2.472973,48.689009,87],[2.473065,48.689066,87],[2.473147,48.689085,87],[2.473254,48.689097,87],[2.473303,48.68909,87],[2.473339,48.689093,87],[2.473452,48.689151,87.1],[2.473486,48.689182,87.1],[2.473814,48.68924,87.2],[2.47387,48.689258,87.2],[2.473985,48.689253,87.2],[2.47402,48.689259,87.2],[2.474066,48.689284,87.3],[2.474121,48.689287,87.3],[2.474243,48.689278,87.3],[2.474401,48.689298,87.4],[2.474506,48.689299,87.4],[2.474599,48.689276,87.4],[2.474619,48.68924,87.3],[2.474716,48.689231,87.3],[2.474768,48.689218,87.3],[2.475009,48.689127,87.2],[2.475217,48.689063,87.1],[2.475262,48.689036,87.1],[2.475357,48.688918,87.2],[2.475454,48.688821,87.2],[2.475566,48.688779,87.3],[2.475618,48.688729,87.3],[2.475661,48.688701,87.4],[2.475685,48.688666,87.4],[2.475766,48.688606,87.5],[2.475862,48.688519,87.6],[2.475905,48.6885,87.7],[2.476034,48.688394,87.8],[2.476077,48.68838,87.8],[2.476103,48.688347,87.9],[2.476472,48.68801,88.1],[2.476638,48.687875,88.1],[2.476969,48.687577,88.3],[2.477015,48.687517,88.3],[2.477167,48.687402,88.4],[2.477467,48.687149,88.4],[2.477536,48.68708,88.3],[2.477722,48.686926,88.3],[2.477789,48.686853,88.3],[2.477873,48.686792,88.3],[2.477918,48.686747,88.3],[2.477988,48.686736,88.3],[2.478054,48.686752,88.3],[2.478149,48.68681,88.3],[2.478192,48.686824,88.2],[2.478298,48.686838,88.2],[2.478386,48.686878,88.2],[2.478517,48.686916,88.2],[2.478597,48.686965,88.1],[2.478701,48.686959,88.1],[2.478752,48.686969,88.1],[2.478833,48.686999,88.1],[2.478994,48.687041,88.1],[2.479119,48.68711,88.1],[2.479169,48.687129,88.1],[2.479442,48.687172,88.1],[2.479572,48.687232,88.1],[2.479726,48.687273,88.1],[2.479778,48.687273,88.1],[2.479952,48.687339,88.2],[2.480123,48.687372,88.2],[2.48021,48.687412,88.2],[2.480248,48.687417,88.2],[2.480462,48.687486,88.2],[2.480817,48.687583,88.2],[2.480873,48.687607,88.2],[2.481062,48.687645,88.3],[2.481165,48.687679,88.3],[2.481214,48.68772,88.4],[2.481258,48.687744,88.4],[2.481357,48.687765,88.4],[2.481432,48.687812,88.5],[2.481467,48.687825,88.5],[2.481553,48.687834,88.5],[2.481577,48.687821,88.5],[2.481589,48.687839,88.5],[2.481609,48.687835,88.5],[2.481665,48.687842,88.5],[2.481771,48.68787,88.4],[2.481871,48.687874,88.4],[2.48201,48.687833,88.3],[2.48208,48.68784,88.3],[2.482163,48.687805,88.3],[2.482185,48.687775,88.3],[2.482172,48.68771,88.3],[2.482178,48.687685,88.3],[2.482161,48.68763,88.3],[2.482176,48.687597,88.3],[2.48228,48.687497,88.2],[2.482317,48.687476,88.3],[2.482516,48.68729,88.3],[2.482599,48.687225,88.3],[2.482684,48.687178,88.3],[2.482749,48.687161,88.3],[2.48285,48.687159,88.2],[2.483016,48.687127,88.2],[2.48306,48.687111,88.2],[2.483107,48.687113,88.2],[2.483192,48.687077,88.1],[2.483235,48.687068,88.1],[2.483271,48.687051,88.1],[2.483309,48.687045,88.1],[2.483348,48.687048,88.1],[2.483383,48.687061,88.1],[2.483455,48.687011,88.1],[2.483489,48.686999,88.1],[2.483599,48.686999,88.1],[2.483642,48.686985,88.1],[2.483664,48.686961,88.1],[2.483729,48.686958,88.1],[2.483769,48.686945,88],[2.483866,48.686892,88],[2.484053,48.686871,88],[2.484166,48.686846,88],[2.484278,48.68681,88],[2.48433,48.686803,88],[2.484484,48.686753,88],[2.484587,48.686748,88.1],[2.484621,48.686728,88.1],[2.484655,48.686671,88.1],[2.484679,48.686651,88.1],[2.484726,48.686635,88.1],[2.484817,48.686622,88.1],[2.484864,48.686561,88.1],[2.484889,48.686507,88],[2.485062,48.686336,88],[2.485135,48.686249,88],[2.485191,48.686199,88],[2.485207,48.686168,88],[2.485336,48.686037,88.1],[2.48537,48.686014,88.2],[2.48551,48.685863,88.2],[2.485555,48.685836,88.2],[2.485641,48.685821,88.2],[2.48568,48.685806,88.2],[2.485709,48.68578,88.2],[2.485734,48.685715,88.2],[2.485801,48.685685,88.3],[2.485857,48.685676,88.4],[2.485891,48.68568,88.4],[2.485883,48.685679,88.4],[2.486089,48.685595,88.5],[2.486155,48.685587,88.5],[2.486318,48.685584,88.6],[2.486434,48.685548,88.6],[2.486602,48.68539,88.7],[2.486712,48.685324,88.7],[2.486782,48.685265,88.8],[2.48684,48.685197,88.9],[2.486924,48.68513,88.9],[2.486987,48.685064,88.9],[2.48712,48.684982,89],[2.487263,48.684927,89.1],[2.487301,48.684898,89.1],[2.487425,48.684762,89.3],[2.487429,48.684652,89.4],[2.487473,48.684587,89.4],[2.487563,48.684528,89.5],[2.487596,48.684496,89.5],[2.487621,48.684453,89.5],[2.487648,48.684369,89.6],[2.487704,48.684261,89.6],[2.487713,48.684201,89.6],[2.487752,48.684152,89.6],[2.487888,48.684075,89.5],[2.48792,48.68404,89.5],[2.487983,48.68389,89.3],[2.48803,48.683823,89.2],[2.488038,48.683782,89.1],[2.488008,48.6837,89],[2.48805,48.683608,88.8],[2.488043,48.683535,88.7],[2.488052,48.683486,88.6],[2.488042,48.683447,88.6],[2.488068,48.683418,88.5],[2.488062,48.683387,88.5],[2.488078,48.683354,88.4],[2.488057,48.683307,88.4],[2.488031,48.683182,88.3],[2.48804,48.683141,88.3],[2.488077,48.683065,88.2],[2.488068,48.68302,88.2],[2.488081,48.682956,88.2],[2.488073,48.682926,88.2],[2.488121,48.682866,88.2],[2.488203,48.682823,88.2],[2.488231,48.682786,88.3],[2.488242,48.682744,88.3],[2.488235,48.682672,88.4],[2.488258,48.68264,88.4],[2.488301,48.682623,88.3],[2.488469,48.682627,88.1],[2.488543,48.682596,88.1],[2.488704,48.682547,87.9],[2.488846,48.682481,87.8],[2.488992,48.682443,87.7],[2.489027,48.682426,87.7],[2.489114,48.682408,87.7],[2.489366,48.682314,88.1],[2.489423,48.6823,88.2],[2.489486,48.682256,88.4],[2.489583,48.682357,88.5],[2.489679,48.682561,88.6],[2.489702,48.682585,88.6],[2.48976,48.682621,88.6],[2.489814,48.682613,88.6],[2.489883,48.682558,88.5],[2.490083,48.682515,88.5],[2.490121,48.682517,88.5],[2.490205,48.682542,88.5],[2.490252,48.682538,88.6],[2.490325,48.682468,88.5],[2.490345,48.682436,88.5],[2.49038,48.682409,88.5],[2.490528,48.682372,88.4],[2.490586,48.682372,88.4],[2.490694,48.682302,88.5],[2.490678,48.682228,88.5],[2.490705,48.682208,88.5],[2.490716,48.682123,88.6],[2.490712,48.682065,88.6],[2.490748,48.682033,88.6],[2.490761,48.682002,88.6],[2.490826,48.681989,88.6],[2.490872,48.681965,88.6],[2.490917,48.681911,88.6],[2.490907,48.681851,88.7],[2.490927,48.68182,88.7],[2.490979,48.681785,88.7],[2.490966,48.681792,88.7],[2.490984,48.681764,88.6],[2.491035,48.681723,88.6],[2.491077,48.68156,88.4],[2.491074,48.681506,88.4],[2.49114,48.681485,88.3],[2.491235,48.681411,88.2],[2.491308,48.681389,88.2],[2.491349,48.681391,88.1],[2.491389,48.681369,88.1],[2.491439,48.681314,88.1],[2.49152,48.681313,88.1],[2.491568,48.681301,88.1],[2.491597,48.681264,88.2],[2.491632,48.681249,88.2],[2.491748,48.681251,88.2],[2.491806,48.681215,88.1],[2.491798,48.681175,88.1],[2.491849,48.681138,88],[2.491976,48.681092,87.8],[2.491997,48.681063,87.8],[2.491996,48.681029,87.7],[2.492018,48.68098,87.7],[2.492072,48.680931,87.6],[2.492153,48.680943,87.6],[2.492184,48.680955,87.6],[2.492246,48.680947,87.5],[2.492281,48.68092,87.5],[2.492311,48.680856,87.4],[2.492356,48.6808,87.4],[2.492446,48.680771,87.5],[2.492492,48.680689,87.5],[2.492516,48.680664,87.5],[2.492544,48.680662,87.5],[2.49258,48.680682,87.5],[2.492629,48.680695,87.5],[2.492658,48.680717,87.5],[2.492946,48.680787,87.3],[2.493014,48.680796,87.2],[2.493039,48.680787,87.1],[2.493029,48.680786,87.1],[2.493156,48.680759,86.8],[2.493192,48.680733,86.7],[2.493219,48.680681,86.6],[2.493232,48.680699,86.5],[2.493219,48.680708,86.5],[2.493212,48.680702,86.5],[2.493213,48.680711,86.5],[2.493236,48.680714,86.4],[2.493266,48.680689,86.4],[2.493312,48.680704,86.6],[2.493413,48.680766,87.4],[2.493546,48.680723,87.5],[2.493735,48.680551,87.3],[2.493787,48.680519,87.3],[2.493995,48.680349,87.2],[2.49416,48.680228,87.2],[2.494365,48.68005,87.2],[2.494418,48.680017,87.2],[2.494444,48.67998,87.2],[2.494573,48.679885,87.2],[2.494682,48.679776,87.2],[2.495101,48.679455,87.2],[2.495137,48.679436,87.2],[2.495196,48.679429,87.2],[2.49523,48.679411,87.2],[2.495234,48.679352,87.2],[2.49525,48.67933,87.2],[2.495652,48.678993,87],[2.496086,48.678666,87.1],[2.496177,48.67858,87.1],[2.496306,48.678491,87.2],[2.496327,48.678417,87.3],[2.496357,48.678399,87.3],[2.49646,48.678391,87.3],[2.496537,48.678359,87.3],[2.496564,48.67833,87.3],[2.496565,48.678297,87.3],[2.496551,48.678265,87.3],[2.496568,48.678243,87.3],[2.496611,48.678229,87.3],[2.496791,48.678216,87.3],[2.496813,48.678202,87.3],[2.496847,48.678197,87.3],[2.496885,48.678203,87.2],[2.496921,48.67822,87.2],[2.496955,48.678271,87.1],[2.497047,48.678309,87.1],[2.497056,48.678337,87],[2.497042,48.67838,87],[2.497063,48.678392,87],[2.497159,48.678387,87],[2.497204,48.678444,86.9],[2.49731,48.678525,86.8],[2.497388,48.678562,86.8],[2.497439,48.678621,86.7],[2.497477,48.678644,86.7],[2.49756,48.678731,86.7],[2.497648,48.678794,86.7],[2.497717,48.678812,86.8],[2.49778,48.678848,86.8],[2.497843,48.678922,86.8],[2.497904,48.678971,86.8],[2.49795,48.678989,86.8],[2.49805,48.679114,86.8],[2.49808,48.679199,86.7],[2.498225,48.679317,86.8],[2.498305,48.679356,86.8],[2.498487,48.679469,86.9],[2.498576,48.679498,86.9],[2.498612,48.679518,87],[2.498747,48.679561,87],[2.498863,48.679626,87],[2.498968,48.679732,87],[2.499075,48.679816,86.9],[2.499131,48.679881,86.9],[2.499189,48.679922,86.9],[2.499267,48.679953,86.9],[2.49928,48.679975,87],[2.499281,48.68008,87],[2.49933,48.680133,87],[2.499462,48.680184,87],[2.499496,48.680231,86.9],[2.499593,48.680312,86.8],[2.499612,48.68038,86.7],[2.499746,48.680509,86.6],[2.49982,48.680558,86.6],[2.499878,48.680577,86.6],[2.499999,48.680655,86.5],[2.500088,48.68069,86.5],[2.500132,48.680736,86.5],[2.500188,48.680777,86.4],[2.500239,48.680833,86.4],[2.500289,48.680851,86.4],[2.50053,48.681055,86.4],[2.500664,48.681206,86.4],[2.500738,48.681262,86.4],[2.500825,48.681306,86.4],[2.500844,48.681338,86.4],[2.500803,48.681379,86.4],[2.500795,48.681414,86.5],[2.500829,48.681459,86.5],[2.500975,48.681594,86.5],[2.501064,48.681707,86.5],[2.501096,48.681733,86.6],[2.501179,48.681775,86.6],[2.501292,48.681866,86.7],[2.501351,48.681932,86.7],[2.501397,48.682008,86.8],[2.501477,48.682058,86.9],[2.501616,48.682199,87],[2.501798,48.682344,87.2],[2.501973,48.682443,87.4],[2.50203,48.682466,87.5],[2.502163,48.682483,87.5],[2.502212,48.682513,87.6],[2.502243,48.682558,87.6],[2.502329,48.682607,87.6],[2.502425,48.682632,87.6],[2.502528,48.682682,87.6],[2.502729,48.682729,87.6],[2.502847,48.682743,87.6],[2.502965,48.68274,87.7],[2.503139,48.682785,87.8],[2.503188,48.682804,87.8],[2.503406,48.682859,88.1],[2.503582,48.682883,88.2],[2.503791,48.682901,88.3],[2.503847,48.682897,88.3],[2.503911,48.682907,88.3],[2.504074,48.682899,88.2],[2.504141,48.682911,88.2],[2.504334,48.682921,88],[2.504405,48.682931,87.9],[2.504463,48.682927,87.9],[2.504515,48.682901,87.8],[2.504562,48.682901,87.8],[2.504632,48.682925,87.8],[2.504685,48.682934,87.7],[2.504904,48.682947,87.7],[2.50494,48.682943,87.6],[2.505042,48.68296,87.6],[2.505093,48.682984,87.6],[2.50512,48.682976,87.6],[2.505171,48.682979,87.5],[2.505262,48.683003,87.5],[2.505359,48.683016,87.5],[2.505468,48.683007,87.5],[2.505585,48.683019,87.5],[2.505634,48.683035,87.5],[2.505746,48.683046,87.5],[2.505869,48.683046,87.4],[2.505983,48.68302,87.4],[2.506038,48.683015,87.4],[2.50613,48.683036,87.4],[2.506245,48.683049,87.4],[2.506289,48.683047,87.4],[2.506415,48.683003,87.3],[2.506764,48.682758,87.1],[2.506813,48.682752,87.1],[2.506993,48.682784,87],[2.507052,48.682816,87],[2.507177,48.68285,86.9],[2.507194,48.682833,86.9],[2.507169,48.682816,86.9],[2.507158,48.682817,86.9],[2.507044,48.682765,87],[2.506922,48.682731,87],[2.506815,48.682735,87.1],[2.506815,48.682716,87.1],[2.506874,48.682659,87.1],[2.506975,48.682613,87.1],[2.507054,48.682537,87.2],[2.507095,48.682529,87.3],[2.507218,48.682537,87.4],[2.507359,48.682562,87.5],[2.507426,48.682582,87.5],[2.507482,48.682588,87.5],[2.507678,48.682638,87.5],[2.507827,48.682659,87.5],[2.507882,48.682682,87.5],[2.507997,48.682686,87.5],[2.508039,48.682704,87.5],[2.508153,48.682721,87.5],[2.508209,48.682719,87.4],[2.50827,48.682701,87.4],[2.508406,48.682688,87.4],[2.508514,48.68271,87.4],[2.508577,48.682713,87.4],[2.508686,48.682699,87.4],[2.508743,48.68268,87.4],[2.508804,48.682671,87.4],[2.508874,48.682674,87.5],[2.50906,48.682653,87.7],[2.509126,48.682653,87.7],[2.509489,48.682608,87.6],[2.509553,48.682606,87.6],[2.509895,48.682559,87.5],[2.510019,48.682554,87.4],[2.510077,48.682563,87.4],[2.510151,48.682563,87.4],[2.510271,48.682547,87.4],[2.510331,48.68253,87.4],[2.510405,48.682522,87.4],[2.510653,48.682453,87.4],[2.510722,48.682445,87.4],[2.510839,48.682445,87.5],[2.510964,48.682456,87.6],[2.511128,48.682523,87.7],[2.511175,48.682535,87.8],[2.511488,48.682674,87.9],[2.511498,48.682699,87.9],[2.511522,48.682721,87.9],[2.511599,48.682712,87.9],[2.511658,48.682676,87.9],[2.511827,48.68265,87.6],[2.51195,48.682643,87.5],[2.512117,48.68266,87.3],[2.512209,48.682658,87.3],[2.512261,48.682671,87.2],[2.512456,48.682692,87.2],[2.512507,48.682709,87.2],[2.512574,48.682717,87.2],[2.512639,48.682711,87.2],[2.512696,48.682693,87.2],[2.512743,48.682668,87.2],[2.512972,48.682605,87.1],[2.513087,48.682606,87.1],[2.513147,48.682617,87.1],[2.51326,48.68261,87.2],[2.513309,48.682596,87.3],[2.513335,48.682569,87.3],[2.513334,48.682524,87.3],[2.513304,48.682486,87.3],[2.513245,48.682294,87.2],[2.513237,48.682191,87.1],[2.513253,48.682168,87.1],[2.513297,48.682167,87.1],[2.513448,48.682185,87],[2.513537,48.68217,87],[2.513568,48.682176,87],[2.513604,48.682172,86.9],[2.513641,48.682187,86.9],[2.513744,48.682205,86.9],[2.513864,48.6822,86.9],[2.513935,48.68218,86.9],[2.513926,48.682182,86.9],[2.514136,48.682196,87],[2.514287,48.682137,87],[2.514414,48.682024,87],[2.514469,48.681999,87],[2.514532,48.681919,87],[2.514635,48.681844,87],[2.514676,48.681804,87],[2.514699,48.681802,87],[2.51481,48.681897,86.9],[2.514777,48.681926,86.9],[2.514777,48.681968,86.9],[2.514797,48.681971,86.9],[2.514791,48.681976,86.9],[2.514875,48.682,86.9],[2.514931,48.681966,86.9],[2.514955,48.681961,86.9],[2.514977,48.681966,86.9],[2.515038,48.682018,86.9],[2.515063,48.68201,86.9],[2.515091,48.682042,86.9],[2.515095,48.682067,86.8],[2.515112,48.682085,86.8],[2.515172,48.682082,86.8],[2.515208,48.682103,86.8],[2.515235,48.682102,86.8],[2.515278,48.682067,86.8],[2.515327,48.682044,86.8],[2.515471,48.68201,86.7],[2.515502,48.681996,86.7],[2.515751,48.681936,86.6],[2.515791,48.681935,86.6],[2.515814,48.681922,86.6],[2.515832,48.681889,86.6],[2.515843,48.681897,86.6],[2.51585,48.681891,86.6],[2.515832,48.681859,86.6],[2.515847,48.681877,86.6],[2.515854,48.681859,86.6],[2.515842,48.681856,86.6],[2.51586,48.681857,86.6],[2.515869,48.681845,86.6],[2.516023,48.681794,86.6],[2.516037,48.681796,86.6],[2.516015,48.681852,86.6],[2.516077,48.681873,86.6],[2.516209,48.681859,86.5],[2.516298,48.681822,86.4],[2.516399,48.681765,86.4],[2.516477,48.681751,86.4],[2.516701,48.681747,86.4],[2.516772,48.681722,86.4],[2.516809,48.681677,86.4],[2.516773,48.681592,86.3],[2.51678,48.68161,86.3],[2.516782,48.681604,86.3],[2.516827,48.681602,86.3],[2.51687,48.681568,86.3],[2.516883,48.681567,86.3],[2.516925,48.681528,86.2],[2.51699,48.681486,86.2],[2.517019,48.681454,86.2],[2.517077,48.681417,86.1],[2.51715,48.681339,86],[2.517199,48.681313,85.9],[2.517301,48.681237,85.8],[2.517345,48.681182,85.7],[2.517483,48.681115,85.6],[2.51753,48.681061,85.5],[2.517556,48.681049,85.5],[2.517616,48.680999,85.5],[2.517638,48.68096,85.5],[2.517721,48.6809,85.4],[2.517759,48.680862,85.4],[2.51781,48.680829,85.3],[2.517896,48.680715,85.2],[2.51791,48.680682,85.2],[2.51789,48.680602,85.1],[2.517929,48.680523,85.1],[2.517953,48.680507,85.1],[2.517988,48.6805,85.1],[2.518044,48.680511,85],[2.518154,48.680566,84.9],[2.518507,48.680668,84.6],[2.518756,48.680757,84.5],[2.518849,48.680814,84.5],[2.518887,48.680848,84.5],[2.518949,48.681003,84.5],[2.519003,48.681072,84.4],[2.519013,48.681147,84.3],[2.51906,48.681225,84.3],[2.519117,48.681289,84.2],[2.519136,48.681371,84.1],[2.519183,48.681439,84.1],[2.51923,48.681557,84],[2.519333,48.681725,84],[2.519333,48.681753,84],[2.519371,48.681829,84],[2.519377,48.681905,83.9],[2.519393,48.681925,83.7],[2.519416,48.681933,83.6],[2.519428,48.681928,83.5],[2.519486,48.681962,83.3],[2.519655,48.68221,84],[2.519804,48.682499,84.3],[2.52004,48.682871,84.2],[2.520227,48.683195,83.8],[2.52033,48.683335,83.6],[2.520406,48.6835,83.3],[2.520573,48.683788,82.2],[2.520595,48.683844,82],[2.520831,48.684246,79.9],[2.520897,48.684383,78.7],[2.521072,48.684617,76],[2.521152,48.684779,73.9],[2.521205,48.68485,72.9],[2.521253,48.684963,71.5],[2.521246,48.684955,71.5],[2.521318,48.684961,71.5],[2.521359,48.684953,71.5],[2.521413,48.684918,71.6],[2.521432,48.684921,71.6],[2.521495,48.68489,71.7],[2.521516,48.684865,71.8],[2.521661,48.68478,72.2],[2.5217,48.68474,72.3],[2.521739,48.68467,72.6],[2.521787,48.684619,72.9],[2.521822,48.68456,73.2],[2.521874,48.684527,73.5],[2.521883,48.684506,73.6],[2.521931,48.684468,73.9],[2.521976,48.684459,74],[2.522051,48.684461,74.3],[2.522121,48.684475,74.6],[2.522146,48.68449,74.7],[2.522228,48.684514,75],[2.522381,48.684506,75.5],[2.522478,48.684476,75.8],[2.522557,48.684464,75.9],[2.522633,48.684478,76.1],[2.522719,48.684463,76.3],[2.522772,48.68447,76.4],[2.522946,48.684439,76.9],[2.523013,48.684408,77.1],[2.523047,48.684408,77.2],[2.523189,48.684375,77.5],[2.523253,48.684335,77.7],[2.523327,48.684316,77.8],[2.523408,48.684306,77.9],[2.52347,48.684282,77.9],[2.523518,48.684279,77.9],[2.523567,48.684265,77.9],[2.523601,48.684264,77.9],[2.523599,48.684269,77.9],[2.523622,48.684259,77.9],[2.523702,48.684273,77.9],[2.523695,48.684244,77.9],[2.523711,48.684241,77.9],[2.523724,48.684251,77.9],[2.523886,48.684268,77.9],[2.523972,48.684257,77.9],[2.524096,48.684133,77.9],[2.524087,48.684091,77.9],[2.524114,48.684043,77.9],[2.524195,48.684009,78],[2.524201,48.683985,78],[2.524193,48.683985,78],[2.5242,48.683961,78],[2.524237,48.683935,78],[2.524242,48.683904,78],[2.524268,48.683864,78],[2.524278,48.683862,78],[2.524299,48.683796,78],[2.524293,48.683725,78],[2.524243,48.683723,78.1],[2.524217,48.683691,78.1],[2.524275,48.683678,78.1],[2.524329,48.683682,78.1],[2.524331,48.683688,78.1],[2.524337,48.683685,78.1],[2.52432,48.68369,78.2],[2.524328,48.683692,78.2],[2.52432,48.683692,78.2],[2.524463,48.683666,78.3],[2.524496,48.68365,78.3],[2.524497,48.683655,78.3],[2.524578,48.683613,78.5],[2.524749,48.683584,78.7],[2.525043,48.683476,79.1],[2.525192,48.683439,79.3],[2.525268,48.683411,79.4],[2.525402,48.683381,79.6],[2.525523,48.683334,79.8],[2.525655,48.683302,79.9],[2.525727,48.683294,80],[2.525802,48.683275,80.1],[2.525866,48.683268,80.2],[2.525899,48.683288,80.2],[2.525977,48.683254,80.3],[2.526115,48.683219,80.4],[2.526262,48.683193,80.5],[2.526306,48.683176,80.5],[2.526335,48.683155,80.5],[2.526414,48.683124,80.6],[2.52656,48.683097,80.7],[2.52664,48.683097,80.8],[2.526709,48.683077,80.8],[2.52675,48.683083,80.8],[2.526822,48.683063,80.9],[2.526901,48.683053,80.9],[2.526936,48.683063,80.7],[2.527022,48.683067,80.5],[2.52706,48.683057,80.4],[2.52709,48.683032,80.3],[2.527105,48.682973,80.1],[2.527122,48.682957,80],[2.527241,48.682954,79.7],[2.527262,48.682937,79.7],[2.527337,48.682813,79.1],[2.527358,48.682804,79.1],[2.527354,48.682796,79],[2.527374,48.68279,79],[2.527387,48.682776,78.9],[2.527415,48.68268,78.6],[2.527475,48.682598,78.2],[2.527814,48.682367,76.5],[2.527989,48.682228,75.3],[2.5281,48.682162,74.7],[2.528342,48.682061,73.5],[2.528406,48.682026,73.2],[2.528463,48.682011,72.9],[2.528551,48.681972,72.5],[2.528581,48.681947,72.3],[2.528649,48.681913,72.1],[2.528707,48.681901,72],[2.52877,48.681903,71.7],[2.528844,48.681919,71.5],[2.528897,48.681946,71.4],[2.529021,48.681976,71],[2.529274,48.682007,70.5],[2.529453,48.682003,70.1],[2.529556,48.681959,70],[2.529971,48.681838,69.3],[2.530002,48.681847,69.2],[2.53004,48.681879,69],[2.530113,48.682025,68.4],[2.530191,48.6821,68.1],[2.530271,48.682197,67.8],[2.530314,48.682225,67.7],[2.530414,48.682257,67.4],[2.530646,48.682265,66.7],[2.530767,48.682255,66.3],[2.530749,48.682262,66.4],[2.53074,48.682238,66.5],[2.530751,48.682251,66.6],[2.530477,48.682237,67.3],[2.530407,48.682216,67.5],[2.530368,48.682195,67.6],[2.5302,48.682023,68.3],[2.53021,48.681988,68.4],[2.530203,48.681978,68.5],[2.530184,48.681976,68.5],[2.530106,48.681911,68.8],[2.530076,48.681908,68.9],[2.530052,48.68186,69.1],[2.530059,48.681838,69.2],[2.530048,48.681814,69.3],[2.52989,48.681842,69.5],[2.52981,48.681878,69.6],[2.52965,48.681903,69.8],[2.529564,48.681937,70],[2.529384,48.681965,70.3],[2.529246,48.681941,70.6],[2.529107,48.681934,70.9],[2.529018,48.681905,71.1],[2.52882,48.681875,71.6],[2.528773,48.681855,71.8],[2.528713,48.681846,71.9],[2.528555,48.681805,72.2],[2.528509,48.681786,72.3],[2.528027,48.681668,73.3],[2.52792,48.681654,73.5],[2.527818,48.681619,73.8],[2.527665,48.681581,74],[2.527512,48.681553,74.3],[2.527292,48.681501,74.7],[2.527259,48.681481,74.8],[2.527141,48.681451,75.1],[2.526998,48.6814,75.4],[2.526888,48.681348,75.7],[2.526844,48.681335,75.8],[2.526764,48.681289,76],[2.526588,48.681216,76.6],[2.526546,48.68121,76.7],[2.52651,48.681222,76.8],[2.526456,48.681292,76.9],[2.526378,48.681346,77.1],[2.526345,48.681357,77.1],[2.526259,48.681368,77.3],[2.526214,48.681389,77.4],[2.526177,48.681396,77.5],[2.526094,48.68147,77.7],[2.526072,48.681507,77.9],[2.526053,48.681576,78.1],[2.526033,48.681565,78.1],[2.526048,48.681588,78.2],[2.526016,48.6816,78.2],[2.526003,48.681598,78.3],[2.525971,48.681612,78.3],[2.525931,48.681679,78.5],[2.525905,48.681704,78.6],[2.525853,48.681816,78.9],[2.525777,48.681883,79.2],[2.525724,48.682018,79.6],[2.52568,48.682041,79.7],[2.525513,48.682032,79.9],[2.525467,48.682041,79.9],[2.525217,48.682026,80.2],[2.524984,48.681953,80.5],[2.524778,48.681955,80.8],[2.524434,48.681905,81.2],[2.524279,48.6819,81.3],[2.523974,48.68186,81.7],[2.523827,48.681882,81.7],[2.523643,48.681971,81.8],[2.523607,48.682004,81.8],[2.523595,48.682042,81.8],[2.523552,48.68211,81.9],[2.52349,48.68218,81.9],[2.523399,48.682222,81.9],[2.523302,48.682244,82],[2.523187,48.682308,82],[2.522999,48.682369,82],[2.522745,48.682395,82.1],[2.522663,48.68242,82.1],[2.522632,48.682414,82.1],[2.522602,48.682397,82.1],[2.522546,48.682396,82.1],[2.522481,48.682423,82.1],[2.522462,48.682456,82.1],[2.522467,48.682489,82.1],[2.522454,48.682515,82.1],[2.522145,48.682723,82],[2.522133,48.682754,81.9],[2.52211,48.682772,81.9],[2.52196,48.682813,81.9],[2.521886,48.682852,81.9],[2.521807,48.682879,81.9],[2.521718,48.68295,81.9],[2.521697,48.682984,81.9],[2.521669,48.682997,81.9],[2.521577,48.683018,81.9],[2.521546,48.683082,81.9],[2.521497,48.683134,82],[2.521464,48.683155,82],[2.521374,48.683165,82.1],[2.521335,48.683176,82.2],[2.521251,48.683179,82.3],[2.521204,48.683167,82.3],[2.5211,48.683168,82.5],[2.520942,48.683182,82.7],[2.520857,48.683208,82.8],[2.520677,48.683248,83.1],[2.520545,48.683291,83.3],[2.520502,48.683295,83.4],[2.520416,48.683271,83.5],[2.520381,48.683271,83.6],[2.520391,48.683264,83.6],[2.520391,48.683271,83.7],[2.520365,48.683265,83.7],[2.520278,48.683181,83.9],[2.520123,48.682939,84.2],[2.520028,48.682766,84.3],[2.519937,48.682628,84.3],[2.519886,48.682516,84.3],[2.519805,48.682411,84.3],[2.519731,48.682265,84.3],[2.519663,48.68219,84.1],[2.519619,48.682086,83.8],[2.519563,48.682015,83.7],[2.519461,48.681991,83.5],[2.51953,48.682,83.4],[2.519502,48.681988,83.4],[2.5195,48.681962,83.3],[2.519476,48.681941,83.3],[2.519441,48.681878,84],[2.519425,48.681794,84],[2.519267,48.681511,84.1],[2.519263,48.68148,84.1],[2.519217,48.681413,84.1],[2.519173,48.681305,84.1],[2.519146,48.6812,84.2],[2.519096,48.681177,84.3],[2.519045,48.681097,84.3],[2.519024,48.680979,84.4],[2.51898,48.680941,84.5],[2.518935,48.680933,84.5],[2.518904,48.680954,84.9],[2.518903,48.680965,84.9],[2.518816,48.681013,84.8],[2.518784,48.681,84.8],[2.518754,48.681003,84.8],[2.518747,48.681017,84.8],[2.518725,48.681027,84.8],[2.518754,48.681043,84.7],[2.518777,48.681037,84.7],[2.518808,48.681008,84.7],[2.51888,48.680996,84.7],[2.518914,48.680981,84.6],[2.518975,48.680981,84.6],[2.518998,48.680966,84.5],[2.519014,48.680905,84.5],[2.51899,48.680854,84.5],[2.518964,48.680826,84.5],[2.518878,48.680769,84.5],[2.518638,48.680666,84.6],[2.518528,48.680639,84.6],[2.517928,48.680447,85.2],[2.517844,48.680411,85.4],[2.517788,48.680409,85.6],[2.517737,48.68039,85.7],[2.517674,48.680387,85.8],[2.517459,48.680331,86.1],[2.517159,48.68021,86.4],[2.517007,48.680158,86.6],[2.516897,48.680132,86.7],[2.516828,48.680095,86.8],[2.516692,48.680058,86.9],[2.516601,48.68001,86.9],[2.516403,48.679944,87],[2.516246,48.679906,87.1],[2.516199,48.679886,87.1],[2.516151,48.679877,87.1],[2.515895,48.679793,87.1],[2.515754,48.679724,87.1],[2.515632,48.679702,87.1],[2.515361,48.679606,87.1],[2.515073,48.67952,87.1],[2.514894,48.679475,87.1],[2.514343,48.679295,87.6],[2.514256,48.679277,87.7],[2.5142,48.679251,87.7],[2.514139,48.679235,87.8],[2.513979,48.679172,88],[2.513533,48.679034,88.1],[2.513484,48.679013,88.1],[2.513257,48.678945,88],[2.513206,48.678919,88],[2.513029,48.678866,88],[2.512861,48.678799,88],[2.512764,48.678751,88],[2.512469,48.678689,88],[2.512411,48.678683,87.9],[2.512296,48.678691,87.9],[2.512243,48.678709,87.9],[2.512191,48.678739,87.9],[2.512123,48.678801,87.9],[2.511975,48.67888,88],[2.511947,48.678911,88],[2.511871,48.678962,88],[2.511731,48.679033,88],[2.511576,48.679089,88],[2.511458,48.679112,88],[2.5114,48.679132,88],[2.511351,48.67916,88],[2.511316,48.679196,88],[2.511278,48.679279,88],[2.511258,48.679401,88],[2.51123,48.679434,88],[2.51101,48.679588,88],[2.510994,48.679611,88],[2.510916,48.679645,88],[2.510644,48.679855,88],[2.510489,48.67999,88],[2.510402,48.680048,88],[2.510162,48.680234,87.8],[2.509868,48.680437,87.6],[2.509704,48.680564,87.5],[2.509185,48.680927,87.4],[2.509149,48.680961,87.4],[2.508579,48.681372,87.4],[2.508534,48.681392,87.4],[2.507926,48.681853,87.5],[2.507808,48.681953,87.5],[2.507664,48.682044,87.5],[2.507542,48.682136,87.4],[2.507496,48.682158,87.4],[2.507016,48.682522,87.2],[2.506863,48.682651,87.1],[2.506773,48.682702,87.1],[2.506664,48.682789,87.1],[2.50662,48.682797,87.2],[2.506546,48.682772,87],[2.506473,48.682707,86.8],[2.506333,48.682633,86.6],[2.506244,48.682573,86.5],[2.506243,48.682563,86.5],[2.506256,48.682572,86.5],[2.50625,48.682575,86.5],[2.50605,48.682451,86.5],[2.505771,48.682235,86.6],[2.505532,48.682101,86.5],[2.505316,48.681963,86.4],[2.505255,48.681942,86.4],[2.505156,48.681882,86.4],[2.504991,48.681809,86.4],[2.504949,48.681771,86.5],[2.504849,48.681734,86.5],[2.504747,48.68166,86.5],[2.504739,48.681635,86.5],[2.504598,48.681513,86.4],[2.50454,48.681448,86.4],[2.504497,48.681418,86.4],[2.504348,48.681267,86.4],[2.504316,48.68126,86.4],[2.504277,48.681219,86.4],[2.504274,48.681196,86.4],[2.504177,48.681139,86.4],[2.504039,48.680989,86.5],[2.503975,48.68089,86.5],[2.503977,48.680834,86.5],[2.503945,48.680763,86.5],[2.503953,48.680736,86.5],[2.503946,48.680706,86.5],[2.503955,48.680683,86.5],[2.503982,48.680659,86.5],[2.504001,48.680653,86.5],[2.503978,48.680671,86.4],[2.503999,48.680671,86.4],[2.504014,48.680628,86.4],[2.503989,48.680535,86.3],[2.503991,48.680498,86.3],[2.503978,48.680459,86.3],[2.503941,48.680422,86.4],[2.503859,48.680169,86.6],[2.503856,48.680132,86.6],[2.503816,48.680069,86.7],[2.5037,48.680049,86.7],[2.503586,48.680064,86.7],[2.503445,48.680066,86.7],[2.503375,48.680082,86.7],[2.503335,48.680068,86.7],[2.503253,48.68007,86.6],[2.503208,48.680084,86.6],[2.503159,48.680089,86.6],[2.503025,48.680072,86.6],[2.502893,48.680018,86.6],[2.502852,48.679972,86.8],[2.502805,48.679952,86.8],[2.502628,48.679802,86.7],[2.502529,48.679647,86.7],[2.502475,48.679594,86.7],[2.502401,48.679553,86.7],[2.502364,48.679543,86.7],[2.50216,48.679405,86.8],[2.502064,48.679272,86.9],[2.501943,48.679172,87],[2.501853,48.679126,87.1],[2.501836,48.679099,87.1],[2.501818,48.679091,87.1],[2.501772,48.67902,87.1],[2.501729,48.678991,87.1],[2.501667,48.678968,87.1],[2.50159,48.678955,87.1],[2.501438,48.678892,87.2],[2.501376,48.678877,87.2],[2.501343,48.678877,87.3],[2.501324,48.678885,87.3],[2.501278,48.678885,87.3],[2.501206,48.678906,87.3],[2.501178,48.678925,87.2],[2.501142,48.678931,87.2],[2.501089,48.678986,87.1],[2.500969,48.679066,87],[2.500954,48.679095,87],[2.500953,48.679173,86.9],[2.500942,48.679207,86.9],[2.500914,48.679239,86.9],[2.500907,48.679292,86.8],[2.500914,48.679342,86.8],[2.500961,48.679424,86.8],[2.50095,48.679457,86.8],[2.5009,48.679514,86.7],[2.500839,48.679556,86.7],[2.500777,48.679614,86.7],[2.500686,48.679655,86.6],[2.500297,48.679767,86.6],[2.500167,48.679824,86.7],[2.500075,48.679847,86.7],[2.499989,48.67988,86.7],[2.499917,48.679919,86.7],[2.499857,48.679928,86.7],[2.49977,48.679961,86.8],[2.499727,48.680017,86.8],[2.499625,48.680106,86.8],[2.499601,48.680108,86.9],[2.499487,48.680165,87],[2.499454,48.680159,87],[2.499322,48.680064,87],[2.499304,48.679979,87],[2.499278,48.679947,87],[2.499148,48.679834,86.9],[2.499032,48.67975,86.9],[2.498967,48.679692,87],[2.498883,48.67964,87],[2.498866,48.679613,87],[2.498829,48.679591,87],[2.498779,48.679583,87],[2.498723,48.679588,87],[2.49867,48.679572,87],[2.498641,48.679552,87],[2.498588,48.67949,87],[2.498555,48.679468,86.9],[2.498507,48.679454,86.9],[2.498476,48.679427,86.9],[2.498381,48.679403,86.8],[2.498291,48.679318,86.8],[2.498248,48.679303,86.8],[2.498124,48.679187,86.7],[2.498104,48.679124,86.7],[2.498048,48.679043,86.8],[2.497988,48.678985,86.8],[2.497854,48.678902,86.8],[2.497787,48.678836,86.8],[2.497748,48.678812,86.8],[2.497637,48.678782,86.7],[2.4976,48.678757,86.7],[2.497535,48.678674,86.7],[2.497329,48.678491,86.8],[2.497246,48.678435,86.9],[2.497169,48.67835,87],[2.497123,48.678357,87],[2.497084,48.678373,87],[2.497092,48.678364,87],[2.497072,48.678311,87],[2.497052,48.67829,87],[2.497011,48.67827,87.1],[2.496949,48.678265,87.1],[2.496898,48.678209,87.2],[2.496862,48.678188,87.2],[2.496796,48.678201,87.3],[2.496755,48.678218,87.3],[2.496622,48.678242,87.2],[2.496578,48.678238,87.3],[2.496527,48.678249,87.3],[2.496443,48.678312,87.3],[2.496421,48.678355,87.3],[2.496423,48.678375,87.3],[2.496395,48.678401,87.3],[2.496395,48.678392,87.3],[2.496383,48.678447,86.9],[2.496411,48.678494,86.8],[2.49643,48.678664,86.4],[2.496418,48.678755,86.3],[2.496433,48.678859,86.3],[2.496434,48.678974,86.2],[2.496455,48.679158,86.1],[2.496526,48.679436,86],[2.496559,48.679512,86],[2.496555,48.679545,86],[2.496607,48.679696,85.9],[2.496611,48.679771,85.9],[2.496589,48.679879,85.8],[2.496626,48.679992,85.9],[2.496625,48.680066,86],[2.496611,48.680131,86.1],[2.496659,48.680198,85.9],[2.496669,48.680252,85.8],[2.496668,48.680353,85.6],[2.496709,48.680694,85.3],[2.496754,48.68095,85.4],[2.496853,48.681379,85.9],[2.496864,48.681557,86.3],[2.496909,48.681781,85.8],[2.496939,48.682076,85.6],[2.496991,48.682426,85.6],[2.496997,48.682574,85.7],[2.497029,48.68274,85.9],[2.497083,48.682933,86.2],[2.497194,48.683826,86.5],[2.497236,48.683993,87],[2.497259,48.684037,87.1],[2.497335,48.684062,87.1],[2.497414,48.684074,87],[2.497472,48.684094,87],[2.497512,48.684133,87.1],[2.497531,48.684177,87.1],[2.497533,48.684226,87.1],[2.497516,48.684268,87.2],[2.497485,48.684307,87.2],[2.49744,48.684339,87.2],[2.497385,48.684363,87.2],[2.497322,48.684379,87.3],[2.497253,48.684382,87.3],[2.497114,48.684359,87.3],[2.497041,48.684373,87.3],[2.496933,48.684437,87.3],[2.496359,48.684877,88.1],[2.496284,48.684953,88.2],[2.496078,48.685081,88.4],[2.495651,48.685402,89],[2.495578,48.68548,89.2],[2.495566,48.685526,89.2],[2.495574,48.685615,89.2],[2.495566,48.685653,89.2],[2.495533,48.685689,89.2],[2.495471,48.685709,89.2],[2.495399,48.685719,89.2],[2.495265,48.685724,89.3],[2.495197,48.685746,89.2],[2.495141,48.685782,89.1],[2.494851,48.686012,88.9],[2.494699,48.686121,88.8],[2.494456,48.686319,88.7],[2.494245,48.686466,88.4],[2.493695,48.686875,87.4],[2.493505,48.687034,87.4],[2.493293,48.687176,87.7],[2.493302,48.687167,87.7],[2.493294,48.687168,87.7],[2.4933,48.687162,87.8],[2.493203,48.687184,87.8],[2.493158,48.687166,87.8],[2.493022,48.687027,87.9],[2.492527,48.686423,88.1],[2.492479,48.686391,88.1],[2.492405,48.686382,88],[2.491939,48.686528,87.5],[2.491799,48.686561,87.5],[2.49174,48.686588,87.6],[2.491333,48.686686,87.5],[2.491272,48.686708,87.5],[2.490929,48.686788,87.3],[2.490786,48.686812,87.1],[2.490562,48.686879,86.9],[2.490185,48.686971,86.6],[2.490111,48.686998,86.6],[2.489719,48.687109,86.5],[2.489174,48.687234,86.5],[2.489079,48.687265,86.6],[2.489007,48.687329,86.6],[2.488953,48.687358,86.6],[2.488811,48.687403,86.5],[2.488313,48.687806,86.2],[2.487923,48.688074,86],[2.487828,48.688179,86],[2.487699,48.688272,85.9],[2.487291,48.688595,85.7],[2.486201,48.689432,85.2],[2.485852,48.689722,85.1],[2.485141,48.690278,85.1],[2.485126,48.690304,85.1],[2.48499,48.690389,85.1],[2.484833,48.690521,85.1],[2.48447,48.690793,85.2],[2.484436,48.690805,85.2],[2.484322,48.690888,85.2],[2.484167,48.691021,85.1],[2.484029,48.691118,85.1],[2.483854,48.691266,85.1],[2.483598,48.691454,85.1],[2.483066,48.691877,85.5],[2.48296,48.691944,85.5],[2.482379,48.692412,85.7],[2.481831,48.692831,85.7],[2.481782,48.692877,85.7],[2.481099,48.6934,85.6],[2.481038,48.693468,85.7],[2.481012,48.693481,85.7],[2.480955,48.693545,85.6],[2.480911,48.693578,85.5],[2.480802,48.693635,85.3],[2.480614,48.693786,85],[2.480458,48.693898,84.9],[2.480315,48.694014,84.9],[2.480231,48.694096,84.9],[2.480125,48.694182,85],[2.479816,48.694395,84.6],[2.479631,48.694549,84.5],[2.479523,48.694625,84.5],[2.47878,48.695207,84.6],[2.47867,48.695284,84.6],[2.478496,48.695429,84.9],[2.478473,48.695474,84.8],[2.478481,48.695522,84.7],[2.478473,48.695557,84.7],[2.478434,48.695584,84.7],[2.478242,48.69562,84.5],[2.477962,48.69569,84.4],[2.476979,48.695904,84.5],[2.47675,48.695948,84.5],[2.476524,48.696002,84.5],[2.476135,48.696078,84.2],[2.475426,48.696236,83.9],[2.475185,48.6963,83.8],[2.474441,48.696465,83.9],[2.4743,48.696485,83.9],[2.474198,48.696485,83.9],[2.474158,48.696494,83.9],[2.474103,48.696519,83.9],[2.473923,48.696647,83.6],[2.472936,48.697201,82.2],[2.472765,48.69732,82],[2.472634,48.697381,81.8],[2.471206,48.698186,79],[2.471061,48.698299,78.9],[2.469808,48.699006,79.5],[2.469336,48.699246,80.1],[2.468227,48.699859,81.4],[2.466225,48.700994,81.6],[2.466067,48.701075,81.6],[2.465864,48.701151,81.5],[2.465587,48.701273,81.4],[2.465506,48.701266,81.4],[2.465439,48.701221,81.4],[2.46535,48.701126,81.3],[2.46487,48.700692,81.5],[2.464728,48.700575,81.7],[2.464601,48.700445,81.8],[2.464455,48.700313,82],[2.464211,48.700037,82.4],[2.464073,48.699908,82.5],[2.463967,48.699825,82.5],[2.463943,48.699772,82.5],[2.463651,48.699445,82.6],[2.463603,48.699405,82.7],[2.463314,48.699216,82.9],[2.461199,48.697903,84.8],[2.460815,48.697726,85.3],[2.460762,48.697718,85.3],[2.460727,48.697732,85.3],[2.460725,48.697756,85.4],[2.460736,48.697768,85.4],[2.460679,48.6978,85.4],[2.460647,48.697854,85.4],[2.460573,48.697933,85.4],[2.46031,48.698174,85.2],[2.460282,48.698214,85.2],[2.460191,48.698293,85.2],[2.459606,48.698881,85],[2.459518,48.698958,85],[2.459359,48.699125,84.9],[2.459188,48.699284,84.8],[2.459078,48.699405,84.7],[2.458723,48.699737,84.3],[2.458675,48.699802,84.2],[2.458588,48.699849,84.2],[2.458549,48.699884,84.1],[2.4585,48.699962,84.1],[2.458282,48.700192,84],[2.458268,48.700231,83.9],[2.458063,48.700435,83.8],[2.458041,48.700478,83.7],[2.457918,48.700575,83.6],[2.457875,48.700599,83.6],[2.457768,48.700701,83.5],[2.457668,48.700772,83.4],[2.457639,48.700811,83.4],[2.457624,48.700868,83.4],[2.457549,48.700948,83.4],[2.457456,48.70102,83.3],[2.457334,48.701134,83.3],[2.457142,48.701348,83.2],[2.456929,48.701553,83.1],[2.456893,48.701599,83.1],[2.456603,48.701873,82.8],[2.456532,48.701957,82.8],[2.456259,48.702235,82.5],[2.45624,48.702277,82.5],[2.456179,48.702354,82.4],[2.456042,48.70247,82.3],[2.455973,48.702551,82.3],[2.455743,48.702757,82.1],[2.455596,48.702922,82],[2.455551,48.702955,82],[2.455395,48.703113,81.9]]}}]}