<?xml version="1.0" encoding="UTF-8"?>
<gpx version="1.1" creator="GPSBabel - https://www.gpsbabel.org" xmlns="http://www.topografix.com/GPX/1/1" xmlns:xsi="http://www.w3.org/2001/XMLSchema-instance">
  <metadata>
    <link href="http://gps4cam.com">
      <text>gps4cam</text>
    </link>
    <time>2025-09-02T15:56:50.689Z</time>
    <bounds minlat="48.650468530" minlon="2.466634087" maxlat="48.666673019" maxlon="2.491505294"/>
  </metadata>
  <trk>
    <name>foret</name>
    <trkseg>
      <trkpt lat="48.652920226" lon="2.466634087">
        <ele>95.000</ele>
        <time>2016-10-22T05:56:14Z</time>
      </trkpt>
      <trkpt lat="48.653057949" lon="2.466676612">
        <ele>84.000</ele>
        <time>2016-10-22T05:59:11Z</time>
      </trkpt>
      <trkpt lat="48.653186986" lon="2.466762859">
        <ele>85.000</ele>
        <time>2016-10-22T06:02:43Z</time>
      </trkpt>
      <trkpt lat="48.653284468" lon="2.467159308">
        <ele>85.000</ele>
        <time>2016-10-22T06:03:08Z</time>
      </trkpt>
      <trkpt lat="48.653316426" lon="2.467364563">
        <ele>85.000</ele>
        <time>2016-10-22T06:03:20Z</time>
      </trkpt>
      <trkpt lat="48.653443318" lon="2.467743230">
        <ele>86.000</ele>
        <time>2016-10-22T06:03:45Z</time>
      </trkpt>
      <trkpt lat="48.653462701" lon="2.467951930">
        <ele>86.000</ele>
        <time>2016-10-22T06:03:57Z</time>
      </trkpt>
      <trkpt lat="48.653519805" lon="2.468150297">
        <ele>87.000</ele>
        <time>2016-10-22T06:04:08Z</time>
      </trkpt>
      <trkpt lat="48.653551815" lon="2.468348243">
        <ele>86.000</ele>
        <time>2016-10-22T06:04:22Z</time>
      </trkpt>
      <trkpt lat="48.653617284" lon="2.468546752">
        <ele>87.000</ele>
        <time>2016-10-22T06:04:33Z</time>
      </trkpt>
      <trkpt lat="48.653697870" lon="2.468964857">
        <ele>87.000</ele>
        <time>2016-10-22T06:04:54Z</time>
      </trkpt>
      <trkpt lat="48.653854061" lon="2.469340369">
        <ele>87.000</ele>
        <time>2016-10-22T06:05:17Z</time>
      </trkpt>
      <trkpt lat="48.653877650" lon="2.469545486">
        <ele>87.000</ele>
        <time>2016-10-22T06:05:25Z</time>
      </trkpt>
      <trkpt lat="48.653960008" lon="2.469722347">
        <ele>87.000</ele>
        <time>2016-10-22T06:05:34Z</time>
      </trkpt>
      <trkpt lat="48.653987699" lon="2.469938501">
        <ele>87.000</ele>
        <time>2016-10-22T06:05:44Z</time>
      </trkpt>
      <trkpt lat="48.654093644" lon="2.470320482">
        <ele>87.000</ele>
        <time>2016-10-22T06:06:06Z</time>
      </trkpt>
      <trkpt lat="48.654129753" lon="2.470529468">
        <ele>87.000</ele>
        <time>2016-10-22T06:06:18Z</time>
      </trkpt>
      <trkpt lat="48.654144976" lon="2.470734445">
        <ele>87.000</ele>
        <time>2016-10-22T06:06:29Z</time>
      </trkpt>
      <trkpt lat="48.654193711" lon="2.470932677">
        <ele>87.000</ele>
        <time>2016-10-22T06:06:41Z</time>
      </trkpt>
      <trkpt lat="48.654221454" lon="2.471141522">
        <ele>87.000</ele>
        <time>2016-10-22T06:06:54Z</time>
      </trkpt>
      <trkpt lat="48.654270189" lon="2.471339754">
        <ele>87.000</ele>
        <time>2016-10-22T06:07:07Z</time>
      </trkpt>
      <trkpt lat="48.654462586" lon="2.471909643">
        <ele>87.000</ele>
        <time>2016-10-22T06:07:38Z</time>
      </trkpt>
      <trkpt lat="48.654568526" lon="2.472291631">
        <ele>87.000</ele>
        <time>2016-10-22T06:08:03Z</time>
      </trkpt>
      <trkpt lat="48.654583585" lon="2.472518542">
        <ele>87.000</ele>
        <time>2016-10-22T06:08:15Z</time>
      </trkpt>
      <trkpt lat="48.654649155" lon="2.472702439">
        <ele>87.000</ele>
        <time>2016-10-22T06:08:25Z</time>
      </trkpt>
      <trkpt lat="48.654738147" lon="2.473113389">
        <ele>87.000</ele>
        <time>2016-10-22T06:09:24Z</time>
      </trkpt>
      <trkpt lat="48.654749157" lon="2.473321955">
        <ele>87.000</ele>
        <time>2016-10-22T06:09:36Z</time>
      </trkpt>
      <trkpt lat="48.654806254" lon="2.473520332">
        <ele>87.000</ele>
        <time>2016-10-22T06:09:48Z</time>
      </trkpt>
      <trkpt lat="48.654842465" lon="2.473714701">
        <ele>87.000</ele>
        <time>2016-10-22T06:09:59Z</time>
      </trkpt>
      <trkpt lat="48.654895405" lon="2.473909353">
        <ele>87.000</ele>
        <time>2016-10-22T06:10:11Z</time>
      </trkpt>
      <trkpt lat="48.654902259" lon="2.474114194">
        <ele>87.000</ele>
        <time>2016-10-22T06:10:26Z</time>
      </trkpt>
      <trkpt lat="48.654763782" lon="2.474173998">
        <ele>86.000</ele>
        <time>2016-10-22T06:10:39Z</time>
      </trkpt>
      <trkpt lat="48.654482835" lon="2.474267949">
        <ele>87.000</ele>
        <time>2016-10-22T06:11:03Z</time>
      </trkpt>
      <trkpt lat="48.654255151" lon="2.474512685">
        <ele>87.000</ele>
        <time>2016-10-22T06:11:29Z</time>
      </trkpt>
      <trkpt lat="48.654191038" lon="2.474698041">
        <ele>87.000</ele>
        <time>2016-10-22T06:11:43Z</time>
      </trkpt>
      <trkpt lat="48.654114458" lon="2.474872219">
        <ele>86.000</ele>
        <time>2016-10-22T06:12:03Z</time>
      </trkpt>
      <trkpt lat="48.653980082" lon="2.474943057">
        <ele>86.000</ele>
        <time>2016-10-22T06:12:18Z</time>
      </trkpt>
      <trkpt lat="48.653845544" lon="2.475035826">
        <ele>87.000</ele>
        <time>2016-10-22T06:12:30Z</time>
      </trkpt>
      <trkpt lat="48.653744194" lon="2.475165713">
        <ele>87.000</ele>
        <time>2016-10-22T06:12:49Z</time>
      </trkpt>
      <trkpt lat="48.653709275" lon="2.475362529">
        <ele>86.000</ele>
        <time>2016-10-22T06:13:26Z</time>
      </trkpt>
      <trkpt lat="48.653607762" lon="2.475514347">
        <ele>86.000</ele>
        <time>2016-10-22T06:13:34Z</time>
      </trkpt>
      <trkpt lat="48.653485527" lon="2.475640223">
        <ele>87.000</ele>
        <time>2016-10-22T06:13:41Z</time>
      </trkpt>
      <trkpt lat="48.653355089" lon="2.475744025">
        <ele>86.000</ele>
        <time>2016-10-22T06:13:52Z</time>
      </trkpt>
      <trkpt lat="48.653237117" lon="2.475859005">
        <ele>86.000</ele>
        <time>2016-10-22T06:14:04Z</time>
      </trkpt>
      <trkpt lat="48.653127401" lon="2.475988747">
        <ele>86.000</ele>
        <time>2016-10-22T06:14:18Z</time>
      </trkpt>
      <trkpt lat="48.652993078" lon="2.476052269">
        <ele>86.000</ele>
        <time>2016-10-22T06:14:30Z</time>
      </trkpt>
      <trkpt lat="48.652858918" lon="2.476093860">
        <ele>86.000</ele>
        <time>2016-10-22T06:14:45Z</time>
      </trkpt>
      <trkpt lat="48.652839495" lon="2.475892470">
        <ele>86.000</ele>
        <time>2016-10-22T06:14:57Z</time>
      </trkpt>
      <trkpt lat="48.652870261" lon="2.475691932">
        <ele>86.000</ele>
        <time>2016-10-22T06:15:09Z</time>
      </trkpt>
      <trkpt lat="48.652758176" lon="2.475576705">
        <ele>86.000</ele>
        <time>2016-10-22T06:16:01Z</time>
      </trkpt>
      <trkpt lat="48.652619915" lon="2.475607260">
        <ele>86.000</ele>
        <time>2016-10-22T06:20:26Z</time>
      </trkpt>
      <trkpt lat="48.652485538" lon="2.475678092">
        <ele>86.000</ele>
        <time>2016-10-22T06:20:39Z</time>
      </trkpt>
      <trkpt lat="48.652123527" lon="2.475986328">
        <ele>86.000</ele>
        <time>2016-10-22T06:21:25Z</time>
      </trkpt>
      <trkpt lat="48.651989529" lon="2.476005987">
        <ele>86.000</ele>
        <time>2016-10-22T06:21:52Z</time>
      </trkpt>
      <trkpt lat="48.651879557" lon="2.475605662">
        <ele>86.000</ele>
        <time>2016-10-22T06:22:23Z</time>
      </trkpt>
      <trkpt lat="48.651794624" lon="2.475213075">
        <ele>86.000</ele>
        <time>2016-10-22T06:22:49Z</time>
      </trkpt>
      <trkpt lat="48.651733269" lon="2.475025600">
        <ele>86.000</ele>
        <time>2016-10-22T06:23:03Z</time>
      </trkpt>
      <trkpt lat="48.651709745" lon="2.474813179">
        <ele>86.000</ele>
        <time>2016-10-22T06:23:15Z</time>
      </trkpt>
      <trkpt lat="48.651669328" lon="2.474622404">
        <ele>86.000</ele>
        <time>2016-10-22T06:23:32Z</time>
      </trkpt>
      <trkpt lat="48.651670950" lon="2.474403099">
        <ele>86.000</ele>
        <time>2016-10-22T06:24:16Z</time>
      </trkpt>
      <trkpt lat="48.651541811" lon="2.474331454">
        <ele>86.000</ele>
        <time>2016-10-22T06:24:40Z</time>
      </trkpt>
      <trkpt lat="48.651459408" lon="2.474161902">
        <ele>85.000</ele>
        <time>2016-10-22T06:24:58Z</time>
      </trkpt>
      <trkpt lat="48.651428653" lon="2.473795827">
        <ele>85.000</ele>
        <time>2016-10-22T06:25:53Z</time>
      </trkpt>
      <trkpt lat="48.651389470" lon="2.474003529">
        <ele>85.000</ele>
        <time>2016-10-22T06:30:36Z</time>
      </trkpt>
      <trkpt lat="48.651263351" lon="2.474089124">
        <ele>85.000</ele>
        <time>2016-10-22T06:30:57Z</time>
      </trkpt>
      <trkpt lat="48.651129137" lon="2.474138026">
        <ele>85.000</ele>
        <time>2016-10-22T06:31:15Z</time>
      </trkpt>
      <trkpt lat="48.650873121" lon="2.474254318">
        <ele>85.000</ele>
        <time>2016-10-22T06:32:11Z</time>
      </trkpt>
      <trkpt lat="48.650738907" lon="2.474303219">
        <ele>85.000</ele>
        <time>2016-10-22T06:32:30Z</time>
      </trkpt>
      <trkpt lat="48.650625090" lon="2.474421920">
        <ele>85.000</ele>
        <time>2016-10-22T06:33:23Z</time>
      </trkpt>
      <trkpt lat="48.650486775" lon="2.474459784">
        <ele>85.000</ele>
        <time>2016-10-22T06:33:37Z</time>
      </trkpt>
      <trkpt lat="48.650468530" lon="2.474664180">
        <ele>85.000</ele>
        <time>2016-10-22T06:35:23Z</time>
      </trkpt>
      <trkpt lat="48.650608131" lon="2.475017475">
        <ele>85.000</ele>
        <time>2016-10-22T06:35:57Z</time>
      </trkpt>
      <trkpt lat="48.650648438" lon="2.475222866">
        <ele>85.000</ele>
        <time>2016-10-22T06:36:37Z</time>
      </trkpt>
      <trkpt lat="48.650695863" lon="2.475596531">
        <ele>85.000</ele>
        <time>2016-10-22T06:37:10Z</time>
      </trkpt>
      <trkpt lat="48.650761426" lon="2.475780419">
        <ele>85.000</ele>
        <time>2016-10-22T06:37:24Z</time>
      </trkpt>
      <trkpt lat="48.650785003" lon="2.475985527">
        <ele>85.000</ele>
        <time>2016-10-22T06:37:38Z</time>
      </trkpt>
      <trkpt lat="48.650854829" lon="2.476158521">
        <ele>85.000</ele>
        <time>2016-10-22T06:37:48Z</time>
      </trkpt>
      <trkpt lat="48.650985844" lon="2.476540920">
        <ele>85.000</ele>
        <time>2016-10-22T06:38:10Z</time>
      </trkpt>
      <trkpt lat="48.651123541" lon="2.477150077">
        <ele>85.000</ele>
        <time>2016-10-22T06:38:47Z</time>
      </trkpt>
      <trkpt lat="48.651254608" lon="2.477525170">
        <ele>85.000</ele>
        <time>2016-10-22T06:39:14Z</time>
      </trkpt>
      <trkpt lat="48.651290702" lon="2.477734149">
        <ele>85.000</ele>
        <time>2016-10-22T06:39:29Z</time>
      </trkpt>
      <trkpt lat="48.651339424" lon="2.477932377">
        <ele>85.000</ele>
        <time>2016-10-22T06:39:45Z</time>
      </trkpt>
      <trkpt lat="48.651400720" lon="2.478127164">
        <ele>84.000</ele>
        <time>2016-10-22T06:40:00Z</time>
      </trkpt>
      <trkpt lat="48.651424293" lon="2.478332276">
        <ele>84.000</ele>
        <time>2016-10-22T06:40:13Z</time>
      </trkpt>
      <trkpt lat="48.651456285" lon="2.478530220">
        <ele>84.000</ele>
        <time>2016-10-22T06:40:25Z</time>
      </trkpt>
      <trkpt lat="48.651467283" lon="2.478738773">
        <ele>84.000</ele>
        <time>2016-10-22T06:40:49Z</time>
      </trkpt>
      <trkpt lat="48.651507638" lon="2.478936860">
        <ele>84.000</ele>
        <time>2016-10-22T06:41:01Z</time>
      </trkpt>
      <trkpt lat="48.651585880" lon="2.479102693">
        <ele>84.000</ele>
        <time>2016-10-22T06:41:13Z</time>
      </trkpt>
      <trkpt lat="48.651626235" lon="2.479300781">
        <ele>84.000</ele>
        <time>2016-10-22T06:41:40Z</time>
      </trkpt>
      <trkpt lat="48.651649806" lon="2.479505894">
        <ele>84.000</ele>
        <time>2016-10-22T06:41:53Z</time>
      </trkpt>
      <trkpt lat="48.651722150" lon="2.479901928">
        <ele>84.000</ele>
        <time>2016-10-22T06:42:45Z</time>
      </trkpt>
      <trkpt lat="48.651787707" lon="2.480085825">
        <ele>84.000</ele>
        <time>2016-10-22T06:42:58Z</time>
      </trkpt>
      <trkpt lat="48.651865783" lon="2.480273591">
        <ele>84.000</ele>
        <time>2016-10-22T06:43:14Z</time>
      </trkpt>
      <trkpt lat="48.651864150" lon="2.480492897">
        <ele>84.000</ele>
        <time>2016-10-22T06:43:26Z</time>
      </trkpt>
      <trkpt lat="48.651929706" lon="2.480676795">
        <ele>84.000</ele>
        <time>2016-10-22T06:43:37Z</time>
      </trkpt>
      <trkpt lat="48.652012155" lon="2.480839048">
        <ele>84.000</ele>
        <time>2016-10-22T06:43:50Z</time>
      </trkpt>
      <trkpt lat="48.652073447" lon="2.481033841">
        <ele>84.000</ele>
        <time>2016-10-22T06:44:04Z</time>
      </trkpt>
      <trkpt lat="48.652207023" lon="2.481631984">
        <ele>84.000</ele>
        <time>2016-10-22T06:44:46Z</time>
      </trkpt>
      <trkpt lat="48.652307028" lon="2.482244179">
        <ele>83.000</ele>
        <time>2016-10-22T06:45:26Z</time>
      </trkpt>
      <trkpt lat="48.652445400" lon="2.482199022">
        <ele>84.000</ele>
        <time>2016-10-22T06:45:47Z</time>
      </trkpt>
      <trkpt lat="48.652579835" lon="2.482120897">
        <ele>83.000</ele>
        <time>2016-10-22T06:46:01Z</time>
      </trkpt>
      <trkpt lat="48.652466012" lon="2.482239586">
        <ele>81.000</ele>
        <time>2016-10-22T06:50:58Z</time>
      </trkpt>
      <trkpt lat="48.652364599" lon="2.482376765">
        <ele>81.000</ele>
        <time>2016-10-22T06:51:13Z</time>
      </trkpt>
      <trkpt lat="48.652375591" lon="2.482585323">
        <ele>81.000</ele>
        <time>2016-10-22T06:51:25Z</time>
      </trkpt>
      <trkpt lat="48.652411677" lon="2.482794310">
        <ele>81.000</ele>
        <time>2016-10-22T06:51:37Z</time>
      </trkpt>
      <trkpt lat="48.652485594" lon="2.482978356">
        <ele>81.000</ele>
        <time>2016-10-22T06:51:49Z</time>
      </trkpt>
      <trkpt lat="48.652567931" lon="2.483155235">
        <ele>81.000</ele>
        <time>2016-10-22T06:52:04Z</time>
      </trkpt>
      <trkpt lat="48.652595760" lon="2.483349459">
        <ele>81.000</ele>
        <time>2016-10-22T06:52:16Z</time>
      </trkpt>
      <trkpt lat="48.652726810" lon="2.483724577">
        <ele>80.000</ele>
        <time>2016-10-22T06:52:42Z</time>
      </trkpt>
      <trkpt lat="48.652765464" lon="2.484149293">
        <ele>80.000</ele>
        <time>2016-10-22T06:53:06Z</time>
      </trkpt>
      <trkpt lat="48.652814176" lon="2.484347533">
        <ele>80.000</ele>
        <time>2016-10-22T06:53:17Z</time>
      </trkpt>
      <trkpt lat="48.652871363" lon="2.484531295">
        <ele>80.000</ele>
        <time>2016-10-22T06:53:31Z</time>
      </trkpt>
      <trkpt lat="48.652899080" lon="2.484740142">
        <ele>80.000</ele>
        <time>2016-10-22T06:53:43Z</time>
      </trkpt>
      <trkpt lat="48.652952002" lon="2.484934798">
        <ele>80.000</ele>
        <time>2016-10-22T06:53:56Z</time>
      </trkpt>
      <trkpt lat="48.653068232" lon="2.485053772">
        <ele>80.000</ele>
        <time>2016-10-22T06:54:45Z</time>
      </trkpt>
      <trkpt lat="48.653211089" lon="2.484968486">
        <ele>80.000</ele>
        <time>2016-10-22T06:55:12Z</time>
      </trkpt>
      <trkpt lat="48.653629871" lon="2.484902551">
        <ele>80.000</ele>
        <time>2016-10-22T06:55:55Z</time>
      </trkpt>
      <trkpt lat="48.653763979" lon="2.484868292">
        <ele>80.000</ele>
        <time>2016-10-22T06:56:06Z</time>
      </trkpt>
      <trkpt lat="48.653897924" lon="2.484855965">
        <ele>80.000</ele>
        <time>2016-10-22T06:56:21Z</time>
      </trkpt>
      <trkpt lat="48.654032032" lon="2.484821706">
        <ele>80.000</ele>
        <time>2016-10-22T06:56:38Z</time>
      </trkpt>
      <trkpt lat="48.654316706" lon="2.484790026">
        <ele>80.000</ele>
        <time>2016-10-22T06:57:07Z</time>
      </trkpt>
      <trkpt lat="48.654458687" lon="2.484821704">
        <ele>80.000</ele>
        <time>2016-10-22T06:57:19Z</time>
      </trkpt>
      <trkpt lat="48.654588039" lon="2.484864134">
        <ele>80.000</ele>
        <time>2016-10-22T06:57:33Z</time>
      </trkpt>
      <trkpt lat="48.654730021" lon="2.484895812">
        <ele>80.000</ele>
        <time>2016-10-22T06:57:46Z</time>
      </trkpt>
      <trkpt lat="48.654872385" lon="2.484876316">
        <ele>80.000</ele>
        <time>2016-10-22T06:58:03Z</time>
      </trkpt>
      <trkpt lat="48.655014530" lon="2.484886063">
        <ele>81.000</ele>
        <time>2016-10-22T06:58:15Z</time>
      </trkpt>
      <trkpt lat="48.655126497" lon="2.485015934">
        <ele>80.000</ele>
        <time>2016-10-22T06:58:29Z</time>
      </trkpt>
      <trkpt lat="48.655255358" lon="2.485124160">
        <ele>81.000</ele>
        <time>2016-10-22T06:58:43Z</time>
      </trkpt>
      <trkpt lat="48.655535274" lon="2.485169170">
        <ele>81.000</ele>
        <time>2016-10-22T06:59:05Z</time>
      </trkpt>
      <trkpt lat="48.655669547" lon="2.485112976">
        <ele>81.000</ele>
        <time>2016-10-22T06:59:21Z</time>
      </trkpt>
      <trkpt lat="48.655783536" lon="2.484972350">
        <ele>81.000</ele>
        <time>2016-10-22T06:59:42Z</time>
      </trkpt>
      <trkpt lat="48.655934100" lon="2.484974928">
        <ele>80.000</ele>
        <time>2016-10-22T06:59:54Z</time>
      </trkpt>
      <trkpt lat="48.656080182" lon="2.485017644">
        <ele>81.000</ele>
        <time>2016-10-22T07:00:07Z</time>
      </trkpt>
      <trkpt lat="48.656218391" lon="2.484994420">
        <ele>81.000</ele>
        <time>2016-10-22T07:00:18Z</time>
      </trkpt>
      <trkpt lat="48.656356491" lon="2.484985817">
        <ele>81.000</ele>
        <time>2016-10-22T07:00:29Z</time>
      </trkpt>
      <trkpt lat="48.656623451" lon="2.485085441">
        <ele>81.000</ele>
        <time>2016-10-22T07:00:53Z</time>
      </trkpt>
      <trkpt lat="48.656752640" lon="2.485149803">
        <ele>80.000</ele>
        <time>2016-10-22T07:01:09Z</time>
      </trkpt>
      <trkpt lat="48.656873300" lon="2.485235955">
        <ele>81.000</ele>
        <time>2016-10-22T07:01:28Z</time>
      </trkpt>
      <trkpt lat="48.657019873" lon="2.485212873">
        <ele>81.000</ele>
        <time>2016-10-22T07:01:43Z</time>
      </trkpt>
      <trkpt lat="48.657125443" lon="2.485079410">
        <ele>81.000</ele>
        <time>2016-10-22T07:02:02Z</time>
      </trkpt>
      <trkpt lat="48.657247632" lon="2.484960855">
        <ele>81.000</ele>
        <time>2016-10-22T07:02:13Z</time>
      </trkpt>
      <trkpt lat="48.657361620" lon="2.484820223">
        <ele>81.000</ele>
        <time>2016-10-22T07:02:30Z</time>
      </trkpt>
      <trkpt lat="48.657495946" lon="2.484756713">
        <ele>81.000</ele>
        <time>2016-10-22T07:05:30Z</time>
      </trkpt>
      <trkpt lat="48.657715502" lon="2.484482613">
        <ele>81.000</ele>
        <time>2016-10-22T07:06:06Z</time>
      </trkpt>
      <trkpt lat="48.657792093" lon="2.484308435">
        <ele>81.000</ele>
        <time>2016-10-22T07:06:23Z</time>
      </trkpt>
      <trkpt lat="48.657914118" lon="2.484211809">
        <ele>81.000</ele>
        <time>2016-10-22T07:08:19Z</time>
      </trkpt>
      <trkpt lat="48.658061182" lon="2.484122922">
        <ele>81.000</ele>
        <time>2016-10-22T07:09:21Z</time>
      </trkpt>
      <trkpt lat="48.658162703" lon="2.483971104">
        <ele>81.000</ele>
        <time>2016-10-22T07:09:42Z</time>
      </trkpt>
      <trkpt lat="48.658288664" lon="2.483907448">
        <ele>81.000</ele>
        <time>2016-10-22T07:10:13Z</time>
      </trkpt>
      <trkpt lat="48.658381820" lon="2.483755485">
        <ele>81.000</ele>
        <time>2016-10-22T07:10:40Z</time>
      </trkpt>
      <trkpt lat="48.658487387" lon="2.483622014">
        <ele>82.000</ele>
        <time>2016-10-22T07:10:59Z</time>
      </trkpt>
      <trkpt lat="48.658601209" lon="2.483503308">
        <ele>81.000</ele>
        <time>2016-10-22T07:11:17Z</time>
      </trkpt>
      <trkpt lat="48.658698466" lon="2.483362382">
        <ele>81.000</ele>
        <time>2016-10-22T07:11:40Z</time>
      </trkpt>
      <trkpt lat="48.658820489" lon="2.483265751">
        <ele>81.000</ele>
        <time>2016-10-22T07:12:02Z</time>
      </trkpt>
      <trkpt lat="48.658934256" lon="2.483154354">
        <ele>82.000</ele>
        <time>2016-10-22T07:12:22Z</time>
      </trkpt>
      <trkpt lat="48.659031621" lon="2.482998804">
        <ele>81.000</ele>
        <time>2016-10-22T07:12:45Z</time>
      </trkpt>
      <trkpt lat="48.659153753" lon="2.482887549">
        <ele>82.000</ele>
        <time>2016-10-22T07:13:08Z</time>
      </trkpt>
      <trkpt lat="48.659263473" lon="2.482757800">
        <ele>82.000</ele>
        <time>2016-10-22T07:13:28Z</time>
      </trkpt>
      <trkpt lat="48.659393643" lon="2.482690554">
        <ele>82.000</ele>
        <time>2016-10-22T07:13:47Z</time>
      </trkpt>
      <trkpt lat="48.659478596" lon="2.482516509">
        <ele>81.000</ele>
        <time>2016-10-22T07:14:12Z</time>
      </trkpt>
      <trkpt lat="48.659592525" lon="2.482383174">
        <ele>81.000</ele>
        <time>2016-10-22T07:14:45Z</time>
      </trkpt>
      <trkpt lat="48.659722749" lon="2.482308615">
        <ele>81.000</ele>
        <time>2016-10-22T07:15:24Z</time>
      </trkpt>
      <trkpt lat="48.659991290" lon="2.482196195">
        <ele>81.000</ele>
        <time>2016-10-22T07:15:54Z</time>
      </trkpt>
      <trkpt lat="48.660117412" lon="2.482110596">
        <ele>81.000</ele>
        <time>2016-10-22T07:16:12Z</time>
      </trkpt>
      <trkpt lat="48.660255620" lon="2.482087357">
        <ele>81.000</ele>
        <time>2016-10-22T07:16:35Z</time>
      </trkpt>
      <trkpt lat="48.660348719" lon="2.481942695">
        <ele>81.000</ele>
        <time>2016-10-22T07:17:01Z</time>
      </trkpt>
      <trkpt lat="48.660612995" lon="2.481841166">
        <ele>80.000</ele>
        <time>2016-10-22T07:18:07Z</time>
      </trkpt>
      <trkpt lat="48.660759567" lon="2.481818069">
        <ele>81.000</ele>
        <time>2016-10-22T07:18:35Z</time>
      </trkpt>
      <trkpt lat="48.660897938" lon="2.481772894">
        <ele>81.000</ele>
        <time>2016-10-22T07:18:46Z</time>
      </trkpt>
      <trkpt lat="48.661031611" lon="2.481797107">
        <ele>81.000</ele>
        <time>2016-10-22T07:19:05Z</time>
      </trkpt>
      <trkpt lat="48.661165717" lon="2.481762827">
        <ele>81.000</ele>
        <time>2016-10-22T07:19:25Z</time>
      </trkpt>
      <trkpt lat="48.661311856" lon="2.481798221">
        <ele>81.000</ele>
        <time>2016-10-22T07:19:40Z</time>
      </trkpt>
      <trkpt lat="48.661405008" lon="2.481646244">
        <ele>81.000</ele>
        <time>2016-10-22T07:20:17Z</time>
      </trkpt>
      <trkpt lat="48.661539114" lon="2.481611963">
        <ele>81.000</ele>
        <time>2016-10-22T07:20:48Z</time>
      </trkpt>
      <trkpt lat="48.661669337" lon="2.481537397">
        <ele>81.000</ele>
        <time>2016-10-22T07:21:58Z</time>
      </trkpt>
      <trkpt lat="48.661799397" lon="2.481484765">
        <ele>80.000</ele>
        <time>2016-10-22T07:22:15Z</time>
      </trkpt>
      <trkpt lat="48.661913162" lon="2.481373355">
        <ele>81.000</ele>
        <time>2016-10-22T07:22:54Z</time>
      </trkpt>
      <trkpt lat="48.662039284" lon="2.481287749">
        <ele>81.000</ele>
        <time>2016-10-22T07:23:08Z</time>
      </trkpt>
      <trkpt lat="48.662157203" lon="2.481180065">
        <ele>81.000</ele>
        <time>2016-10-22T07:23:23Z</time>
      </trkpt>
      <trkpt lat="48.662356078" lon="2.480872658">
        <ele>81.000</ele>
        <time>2016-10-22T07:24:01Z</time>
      </trkpt>
      <trkpt lat="48.662467746" lon="2.480479671">
        <ele>81.000</ele>
        <time>2016-10-22T07:27:31Z</time>
      </trkpt>
      <trkpt lat="48.662581564" lon="2.480360945">
        <ele>82.000</ele>
        <time>2016-10-22T07:27:42Z</time>
      </trkpt>
      <trkpt lat="48.662698616" lon="2.480370246">
        <ele>82.000</ele>
        <time>2016-10-22T07:35:07Z</time>
      </trkpt>
      <trkpt lat="48.662482325" lon="2.480205694">
        <ele>81.000</ele>
        <time>2016-10-22T07:41:21Z</time>
      </trkpt>
      <trkpt lat="48.662657334" lon="2.480296418">
        <ele>81.000</ele>
        <time>2016-10-22T07:41:32Z</time>
      </trkpt>
      <trkpt lat="48.662516109" lon="2.480162392">
        <ele>88.000</ele>
        <time>2016-10-22T07:42:41Z</time>
      </trkpt>
      <trkpt lat="48.662658959" lon="2.480077065">
        <ele>87.000</ele>
        <time>2016-10-22T07:43:28Z</time>
      </trkpt>
      <trkpt lat="48.662766725" lon="2.480210523">
        <ele>102.000</ele>
        <time>2016-10-22T07:46:14Z</time>
      </trkpt>
      <trkpt lat="48.662823978" lon="2.480387001">
        <ele>97.000</ele>
        <time>2016-10-22T07:46:26Z</time>
      </trkpt>
      <trkpt lat="48.662902007" lon="2.480582114">
        <ele>95.000</ele>
        <time>2016-10-22T07:46:36Z</time>
      </trkpt>
      <trkpt lat="48.662771460" lon="2.480700556">
        <ele>81.000</ele>
        <time>2016-10-22T07:46:54Z</time>
      </trkpt>
      <trkpt lat="48.662824395" lon="2.480895243">
        <ele>88.000</ele>
        <time>2016-10-22T07:47:09Z</time>
      </trkpt>
      <trkpt lat="48.662974743" lon="2.480927049">
        <ele>88.000</ele>
        <time>2016-10-22T07:47:17Z</time>
      </trkpt>
      <trkpt lat="48.663108199" lon="2.480980506">
        <ele>89.000</ele>
        <time>2016-10-22T07:47:43Z</time>
      </trkpt>
      <trkpt lat="48.663185956" lon="2.481212180">
        <ele>91.000</ele>
        <time>2016-10-22T07:48:04Z</time>
      </trkpt>
      <trkpt lat="48.663306621" lon="2.481298328">
        <ele>90.000</ele>
        <time>2016-10-22T07:48:18Z</time>
      </trkpt>
      <trkpt lat="48.663275745" lon="2.481513530">
        <ele>81.000</ele>
        <time>2016-10-22T07:49:04Z</time>
      </trkpt>
      <trkpt lat="48.663396301" lon="2.481614303">
        <ele>84.000</ele>
        <time>2016-10-22T07:49:21Z</time>
      </trkpt>
      <trkpt lat="48.663315453" lon="2.481799405">
        <ele>80.000</ele>
        <time>2016-10-22T07:50:10Z</time>
      </trkpt>
      <trkpt lat="48.663339083" lon="2.481997252">
        <ele>82.000</ele>
        <time>2016-10-22T07:50:36Z</time>
      </trkpt>
      <trkpt lat="48.663266599" lon="2.482182496">
        <ele>82.000</ele>
        <time>2016-10-22T07:50:51Z</time>
      </trkpt>
      <trkpt lat="48.663165083" lon="2.482334337">
        <ele>75.000</ele>
        <time>2016-10-22T07:51:14Z</time>
      </trkpt>
      <trkpt lat="48.663134748" lon="2.482476420">
        <ele>78.000</ele>
        <time>2016-10-22T07:51:33Z</time>
      </trkpt>
      <trkpt lat="48.663029130" lon="2.482617221">
        <ele>84.000</ele>
        <time>2016-10-22T07:52:23Z</time>
      </trkpt>
      <trkpt lat="48.663120273" lon="2.482735777">
        <ele>72.000</ele>
        <time>2016-10-22T07:55:29Z</time>
      </trkpt>
      <trkpt lat="48.662994096" lon="2.482828695">
        <ele>71.000</ele>
        <time>2016-10-22T07:55:39Z</time>
      </trkpt>
      <trkpt lat="48.662868082" lon="2.482899676">
        <ele>73.000</ele>
        <time>2016-10-22T07:55:49Z</time>
      </trkpt>
      <trkpt lat="48.662730581" lon="2.482827864">
        <ele>73.000</ele>
        <time>2016-10-22T07:56:07Z</time>
      </trkpt>
      <trkpt lat="48.662588055" lon="2.482869313">
        <ele>70.000</ele>
        <time>2016-10-22T07:56:28Z</time>
      </trkpt>
      <trkpt lat="48.662201702" lon="2.483074799">
        <ele>85.000</ele>
        <time>2016-10-22T07:57:44Z</time>
      </trkpt>
      <trkpt lat="48.662079517" lon="2.483193375">
        <ele>87.000</ele>
        <time>2016-10-22T07:57:57Z</time>
      </trkpt>
      <trkpt lat="48.661945845" lon="2.483169159">
        <ele>85.000</ele>
        <time>2016-10-22T07:58:18Z</time>
      </trkpt>
      <trkpt lat="48.661807365" lon="2.483228956">
        <ele>91.000</ele>
        <time>2016-10-22T08:00:58Z</time>
      </trkpt>
      <trkpt lat="48.661681242" lon="2.483314557">
        <ele>93.000</ele>
        <time>2016-10-22T08:01:14Z</time>
      </trkpt>
      <trkpt lat="48.661823442" lon="2.483316981">
        <ele>95.000</ele>
        <time>2016-10-22T08:02:28Z</time>
      </trkpt>
      <trkpt lat="48.661914312" lon="2.483472095">
        <ele>97.000</ele>
        <time>2016-10-22T08:02:38Z</time>
      </trkpt>
      <trkpt lat="48.661950403" lon="2.483681119">
        <ele>91.000</ele>
        <time>2016-10-22T08:02:52Z</time>
      </trkpt>
      <trkpt lat="48.662024380" lon="2.483857884">
        <ele>92.000</ele>
        <time>2016-10-22T08:03:06Z</time>
      </trkpt>
      <trkpt lat="48.662085673" lon="2.484052714">
        <ele>94.000</ele>
        <time>2016-10-22T08:03:19Z</time>
      </trkpt>
      <trkpt lat="48.662179064" lon="2.484430908">
        <ele>93.000</ele>
        <time>2016-10-22T08:03:47Z</time>
      </trkpt>
      <trkpt lat="48.662242824" lon="2.484856129">
        <ele>89.000</ele>
        <time>2016-10-22T08:04:08Z</time>
      </trkpt>
      <trkpt lat="48.662295751" lon="2.485050818">
        <ele>88.000</ele>
        <time>2016-10-22T08:04:25Z</time>
      </trkpt>
      <trkpt lat="48.662357098" lon="2.485238339">
        <ele>87.000</ele>
        <time>2016-10-22T08:04:37Z</time>
      </trkpt>
      <trkpt lat="48.662426917" lon="2.485411379">
        <ele>88.000</ele>
        <time>2016-10-22T08:04:50Z</time>
      </trkpt>
      <trkpt lat="48.662522661" lon="2.486034594">
        <ele>89.000</ele>
        <time>2016-10-22T08:05:32Z</time>
      </trkpt>
      <trkpt lat="48.662609263" lon="2.486200610">
        <ele>87.000</ele>
        <time>2016-10-22T08:05:48Z</time>
      </trkpt>
      <trkpt lat="48.662624466" lon="2.486405625">
        <ele>90.000</ele>
        <time>2016-10-22T08:06:03Z</time>
      </trkpt>
      <trkpt lat="48.662660552" lon="2.486614655">
        <ele>87.000</ele>
        <time>2016-10-22T08:06:14Z</time>
      </trkpt>
      <trkpt lat="48.662684009" lon="2.486834437">
        <ele>85.000</ele>
        <time>2016-10-22T08:06:27Z</time>
      </trkpt>
      <trkpt lat="48.662728569" lon="2.487028987">
        <ele>84.000</ele>
        <time>2016-10-22T08:06:38Z</time>
      </trkpt>
      <trkpt lat="48.662802487" lon="2.487213070">
        <ele>84.000</ele>
        <time>2016-10-22T08:06:53Z</time>
      </trkpt>
      <trkpt lat="48.662838681" lon="2.487407477">
        <ele>85.000</ele>
        <time>2016-10-22T08:07:10Z</time>
      </trkpt>
      <trkpt lat="48.662841253" lon="2.487623247">
        <ele>82.000</ele>
        <time>2016-10-22T08:08:29Z</time>
      </trkpt>
      <trkpt lat="48.662927799" lon="2.487796578">
        <ele>78.000</ele>
        <time>2016-10-22T08:08:43Z</time>
      </trkpt>
      <trkpt lat="48.662972248" lon="2.488005753">
        <ele>79.000</ele>
        <time>2016-10-22T08:08:57Z</time>
      </trkpt>
      <trkpt lat="48.663029434" lon="2.488189552">
        <ele>81.000</ele>
        <time>2016-10-22T08:09:12Z</time>
      </trkpt>
      <trkpt lat="48.663118495" lon="2.488585967">
        <ele>82.000</ele>
        <time>2016-10-22T08:09:42Z</time>
      </trkpt>
      <trkpt lat="48.663171417" lon="2.488780663">
        <ele>82.000</ele>
        <time>2016-10-22T08:09:55Z</time>
      </trkpt>
      <trkpt lat="48.663203344" lon="2.488985969">
        <ele>82.000</ele>
        <time>2016-10-22T08:10:10Z</time>
      </trkpt>
      <trkpt lat="48.663285679" lon="2.489162888">
        <ele>81.000</ele>
        <time>2016-10-22T08:10:24Z</time>
      </trkpt>
      <trkpt lat="48.663359594" lon="2.489346975">
        <ele>83.000</ele>
        <time>2016-10-22T08:10:40Z</time>
      </trkpt>
      <trkpt lat="48.663345433" lon="2.489562461">
        <ele>85.000</ele>
        <time>2016-10-22T08:12:51Z</time>
      </trkpt>
      <trkpt lat="48.663369049" lon="2.489760312">
        <ele>86.000</ele>
        <time>2016-10-22T08:14:45Z</time>
      </trkpt>
      <trkpt lat="48.663451328" lon="2.489944544">
        <ele>86.000</ele>
        <time>2016-10-22T08:15:04Z</time>
      </trkpt>
      <trkpt lat="48.663495883" lon="2.490139099">
        <ele>87.000</ele>
        <time>2016-10-22T08:15:17Z</time>
      </trkpt>
      <trkpt lat="48.663531964" lon="2.490348134">
        <ele>87.000</ele>
        <time>2016-10-22T08:15:33Z</time>
      </trkpt>
      <trkpt lat="48.663686566" lon="2.490928505">
        <ele>87.000</ele>
        <time>2016-10-22T08:16:24Z</time>
      </trkpt>
      <trkpt lat="48.663731119" lon="2.491123061">
        <ele>87.000</ele>
        <time>2016-10-22T08:16:37Z</time>
      </trkpt>
      <trkpt lat="48.663800821" lon="2.491310737">
        <ele>87.000</ele>
        <time>2016-10-22T08:16:56Z</time>
      </trkpt>
      <trkpt lat="48.663845375" lon="2.491505294">
        <ele>88.000</ele>
        <time>2016-10-22T08:17:12Z</time>
      </trkpt>
      <trkpt lat="48.663926237" lon="2.491320205">
        <ele>87.000</ele>
        <time>2016-10-22T08:17:32Z</time>
      </trkpt>
      <trkpt lat="48.664019345" lon="2.491175547">
        <ele>87.000</ele>
        <time>2016-10-22T08:17:44Z</time>
      </trkpt>
      <trkpt lat="48.664267720" lon="2.490964082">
        <ele>87.000</ele>
        <time>2016-10-22T08:18:13Z</time>
      </trkpt>
      <trkpt lat="48.664405984" lon="2.490933548">
        <ele>87.000</ele>
        <time>2016-10-22T08:18:21Z</time>
      </trkpt>
      <trkpt lat="48.664536212" lon="2.490858998">
        <ele>88.000</ele>
        <time>2016-10-22T08:18:36Z</time>
      </trkpt>
      <trkpt lat="48.664612754" lon="2.490692114">
        <ele>87.000</ele>
        <time>2016-10-22T08:18:50Z</time>
      </trkpt>
      <trkpt lat="48.664718380" lon="2.490551323">
        <ele>87.000</ele>
        <time>2016-10-22T08:19:06Z</time>
      </trkpt>
      <trkpt lat="48.664856644" lon="2.490520787">
        <ele>87.000</ele>
        <time>2016-10-22T08:19:17Z</time>
      </trkpt>
      <trkpt lat="48.664904210" lon="2.490313182">
        <ele>87.000</ele>
        <time>2016-10-22T08:19:31Z</time>
      </trkpt>
      <trkpt lat="48.664944997" lon="2.489893382">
        <ele>87.000</ele>
        <time>2016-10-22T08:20:08Z</time>
      </trkpt>
      <trkpt lat="48.665063033" lon="2.489771084">
        <ele>87.000</ele>
        <time>2016-10-22T08:23:21Z</time>
      </trkpt>
      <trkpt lat="48.665081238" lon="2.489573943">
        <ele>87.000</ele>
        <time>2016-10-22T08:24:00Z</time>
      </trkpt>
      <trkpt lat="48.665053520" lon="2.489365046">
        <ele>86.000</ele>
        <time>2016-10-22T08:24:15Z</time>
      </trkpt>
      <trkpt lat="48.664971130" lon="2.489195434">
        <ele>87.000</ele>
        <time>2016-10-22T08:24:53Z</time>
      </trkpt>
      <trkpt lat="48.664934992" lon="2.488993706">
        <ele>87.000</ele>
        <time>2016-10-22T08:25:16Z</time>
      </trkpt>
      <trkpt lat="48.664869331" lon="2.488824381">
        <ele>87.000</ele>
        <time>2016-10-22T08:25:36Z</time>
      </trkpt>
      <trkpt lat="48.664916839" lon="2.488624086">
        <ele>87.000</ele>
        <time>2016-10-22T08:27:32Z</time>
      </trkpt>
      <trkpt lat="48.664889119" lon="2.488415190">
        <ele>87.000</ele>
        <time>2016-10-22T08:28:12Z</time>
      </trkpt>
      <trkpt lat="48.664694214" lon="2.488188807">
        <ele>87.000</ele>
        <time>2016-10-22T08:28:35Z</time>
      </trkpt>
      <trkpt lat="48.664750086" lon="2.487988655">
        <ele>87.000</ele>
        <time>2016-10-22T08:30:13Z</time>
      </trkpt>
      <trkpt lat="48.664693006" lon="2.487790227">
        <ele>87.000</ele>
        <time>2016-10-22T08:30:31Z</time>
      </trkpt>
      <trkpt lat="48.664623243" lon="2.487609865">
        <ele>87.000</ele>
        <time>2016-10-22T08:30:46Z</time>
      </trkpt>
      <trkpt lat="48.664687370" lon="2.487424480">
        <ele>87.000</ele>
        <time>2016-10-22T08:32:25Z</time>
      </trkpt>
      <trkpt lat="48.664651229" lon="2.487222755">
        <ele>87.000</ele>
        <time>2016-10-22T08:32:40Z</time>
      </trkpt>
      <trkpt lat="48.664648601" lon="2.487014289">
        <ele>88.000</ele>
        <time>2016-10-22T08:33:06Z</time>
      </trkpt>
      <trkpt lat="48.664620824" lon="2.486812707">
        <ele>88.000</ele>
        <time>2016-10-22T08:33:24Z</time>
      </trkpt>
      <trkpt lat="48.664487193" lon="2.486221728">
        <ele>87.000</ele>
        <time>2016-10-22T08:34:58Z</time>
      </trkpt>
      <trkpt lat="48.664501238" lon="2.486020861">
        <ele>87.000</ele>
        <time>2016-10-22T08:35:22Z</time>
      </trkpt>
      <trkpt lat="48.664532013" lon="2.485820280">
        <ele>86.000</ele>
        <time>2016-10-22T08:35:45Z</time>
      </trkpt>
      <trkpt lat="48.664520963" lon="2.485618984">
        <ele>87.000</ele>
        <time>2016-10-22T08:36:15Z</time>
      </trkpt>
      <trkpt lat="48.664484873" lon="2.485409948">
        <ele>87.000</ele>
        <time>2016-10-22T08:36:46Z</time>
      </trkpt>
      <trkpt lat="48.664427736" lon="2.485218836">
        <ele>87.000</ele>
        <time>2016-10-22T08:37:13Z</time>
      </trkpt>
      <trkpt lat="48.664349604" lon="2.485038336">
        <ele>87.000</ele>
        <time>2016-10-22T08:37:56Z</time>
      </trkpt>
      <trkpt lat="48.664215714" lon="2.485043364">
        <ele>87.000</ele>
        <time>2016-10-22T08:38:27Z</time>
      </trkpt>
      <trkpt lat="48.664188098" lon="2.484819849">
        <ele>88.000</ele>
        <time>2016-10-22T08:38:59Z</time>
      </trkpt>
      <trkpt lat="48.664122649" lon="2.484621284">
        <ele>88.000</ele>
        <time>2016-10-22T08:40:10Z</time>
      </trkpt>
      <trkpt lat="48.664471497" lon="2.484396874">
        <ele>88.000</ele>
        <time>2016-10-22T08:41:02Z</time>
      </trkpt>
      <trkpt lat="48.664591725" lon="2.484541527">
        <ele>88.000</ele>
        <time>2016-10-22T08:41:19Z</time>
      </trkpt>
      <trkpt lat="48.664917187" lon="2.484649458">
        <ele>88.000</ele>
        <time>2016-10-22T08:42:08Z</time>
      </trkpt>
      <trkpt lat="48.665047357" lon="2.484582203">
        <ele>86.000</ele>
        <time>2016-10-22T08:42:47Z</time>
      </trkpt>
      <trkpt lat="48.665024002" lon="2.484347787">
        <ele>88.000</ele>
        <time>2016-10-22T08:44:09Z</time>
      </trkpt>
      <trkpt lat="48.665133722" lon="2.484218022">
        <ele>87.000</ele>
        <time>2016-10-22T08:44:29Z</time>
      </trkpt>
      <trkpt lat="48.665251426" lon="2.484139583">
        <ele>87.000</ele>
        <time>2016-10-22T08:44:56Z</time>
      </trkpt>
      <trkpt lat="48.665277335" lon="2.484030328">
        <ele>87.000</ele>
        <time>2016-10-22T08:45:21Z</time>
      </trkpt>
      <trkpt lat="48.665387054" lon="2.483900562">
        <ele>88.000</ele>
        <time>2016-10-22T08:45:44Z</time>
      </trkpt>
      <trkpt lat="48.665521378" lon="2.483837031">
        <ele>88.000</ele>
        <time>2016-10-22T08:46:24Z</time>
      </trkpt>
      <trkpt lat="48.665646034" lon="2.483948851">
        <ele>88.000</ele>
        <time>2016-10-22T08:46:36Z</time>
      </trkpt>
      <trkpt lat="48.665804421" lon="2.484024680">
        <ele>88.000</ele>
        <time>2016-10-22T08:46:53Z</time>
      </trkpt>
      <trkpt lat="48.665914900" lon="2.483792539">
        <ele>88.000</ele>
        <time>2016-10-22T08:47:21Z</time>
      </trkpt>
      <trkpt lat="48.666061146" lon="2.483813312">
        <ele>88.000</ele>
        <time>2016-10-22T08:47:54Z</time>
      </trkpt>
      <trkpt lat="48.666202966" lon="2.483866919">
        <ele>88.000</ele>
        <time>2016-10-22T08:48:11Z</time>
      </trkpt>
      <trkpt lat="48.666341174" lon="2.483843675">
        <ele>88.000</ele>
        <time>2016-10-22T08:48:33Z</time>
      </trkpt>
      <trkpt lat="48.666438535" lon="2.483688098">
        <ele>88.000</ele>
        <time>2016-10-22T08:48:48Z</time>
      </trkpt>
      <trkpt lat="48.666552354" lon="2.483569366">
        <ele>88.000</ele>
        <time>2016-10-22T08:49:10Z</time>
      </trkpt>
      <trkpt lat="48.666673019" lon="2.483655522">
        <ele>88.000</ele>
        <time>2016-10-22T08:49:18Z</time>
      </trkpt>
      <trkpt lat="48.666577883" lon="2.483511294">
        <ele>88.000</ele>
        <time>2016-10-22T08:51:18Z</time>
      </trkpt>
      <trkpt lat="48.666465963" lon="2.483374094">
        <ele>87.000</ele>
        <time>2016-10-22T08:51:52Z</time>
      </trkpt>
      <trkpt lat="48.666345353" lon="2.483280627">
        <ele>89.000</ele>
        <time>2016-10-22T08:52:11Z</time>
      </trkpt>
      <trkpt lat="48.666207417" lon="2.483267311">
        <ele>88.000</ele>
        <time>2016-10-22T08:52:24Z</time>
      </trkpt>
      <trkpt lat="48.666078333" lon="2.483188326">
        <ele>88.000</ele>
        <time>2016-10-22T08:52:47Z</time>
      </trkpt>
      <trkpt lat="48.665900743" lon="2.482881808">
        <ele>88.000</ele>
        <time>2016-10-22T08:53:42Z</time>
      </trkpt>
      <trkpt lat="48.665792978" lon="2.482748339">
        <ele>88.000</ele>
        <time>2016-10-22T08:54:05Z</time>
      </trkpt>
      <trkpt lat="48.665702051" lon="2.482600529">
        <ele>88.000</ele>
        <time>2016-10-22T08:54:26Z</time>
      </trkpt>
      <trkpt lat="48.665581604" lon="2.482485128">
        <ele>75.000</ele>
        <time>2016-10-22T09:12:15Z</time>
      </trkpt>
      <trkpt lat="48.665494940" lon="2.482326422">
        <ele>75.000</ele>
        <time>2016-10-22T09:12:33Z</time>
      </trkpt>
      <trkpt lat="48.665454526" lon="2.482135595">
        <ele>75.000</ele>
        <time>2016-10-22T09:12:58Z</time>
      </trkpt>
      <trkpt lat="48.665407427" lon="2.481717947">
        <ele>76.000</ele>
        <time>2016-10-22T09:13:23Z</time>
      </trkpt>
      <trkpt lat="48.665350337" lon="2.481519524">
        <ele>75.000</ele>
        <time>2016-10-22T09:13:38Z</time>
      </trkpt>
      <trkpt lat="48.665332485" lon="2.481106031">
        <ele>75.000</ele>
        <time>2016-10-22T09:14:10Z</time>
      </trkpt>
      <trkpt lat="48.665355048" lon="2.480883364">
        <ele>76.000</ele>
        <time>2016-10-22T09:14:39Z</time>
      </trkpt>
      <trkpt lat="48.665444096" lon="2.480720331">
        <ele>75.000</ele>
        <time>2016-10-22T09:15:05Z</time>
      </trkpt>
      <trkpt lat="48.665407943" lon="2.480518607">
        <ele>76.000</ele>
        <time>2016-10-22T09:15:23Z</time>
      </trkpt>
      <trkpt lat="48.665517604" lon="2.480396144">
        <ele>75.000</ele>
        <time>2016-10-22T09:15:44Z</time>
      </trkpt>
      <trkpt lat="48.665237683" lon="2.480351174">
        <ele>76.000</ele>
        <time>2016-10-22T09:17:04Z</time>
      </trkpt>
      <trkpt lat="48.665146754" lon="2.480203371">
        <ele>76.000</ele>
        <time>2016-10-22T09:17:24Z</time>
      </trkpt>
      <trkpt lat="48.665076979" lon="2.480023017">
        <ele>76.000</ele>
        <time>2016-10-22T09:19:51Z</time>
      </trkpt>
      <trkpt lat="48.664986103" lon="2.479867902">
        <ele>76.000</ele>
        <time>2016-10-22T09:20:07Z</time>
      </trkpt>
      <trkpt lat="48.664861389" lon="2.479763405">
        <ele>76.000</ele>
        <time>2016-10-22T09:22:26Z</time>
      </trkpt>
      <trkpt lat="48.664719189" lon="2.479760994">
        <ele>76.000</ele>
        <time>2016-10-22T09:22:46Z</time>
      </trkpt>
      <trkpt lat="48.664585624" lon="2.479722165">
        <ele>76.000</ele>
        <time>2016-10-22T09:23:08Z</time>
      </trkpt>
      <trkpt lat="48.664447309" lon="2.479760041">
        <ele>76.000</ele>
        <time>2016-10-22T09:23:28Z</time>
      </trkpt>
      <trkpt lat="48.664343804" lon="2.479615683">
        <ele>76.000</ele>
        <time>2016-10-22T09:24:03Z</time>
      </trkpt>
      <trkpt lat="48.664209807" lon="2.479635350">
        <ele>76.000</ele>
        <time>2016-10-22T09:24:39Z</time>
      </trkpt>
      <trkpt lat="48.664156924" lon="2.479433348">
        <ele>76.000</ele>
        <time>2016-10-22T09:25:12Z</time>
      </trkpt>
      <trkpt lat="48.664036365" lon="2.479332579">
        <ele>75.000</ele>
        <time>2016-10-22T09:25:27Z</time>
      </trkpt>
      <trkpt lat="48.663902962" lon="2.479271815">
        <ele>75.000</ele>
        <time>2016-10-22T09:26:13Z</time>
      </trkpt>
      <trkpt lat="48.663768586" lon="2.479342665">
        <ele>75.000</ele>
        <time>2016-10-22T09:26:25Z</time>
      </trkpt>
      <trkpt lat="48.663526983" lon="2.479206938">
        <ele>76.000</ele>
        <time>2016-10-22T09:27:09Z</time>
      </trkpt>
      <trkpt lat="48.663389046" lon="2.479193630">
        <ele>76.000</ele>
        <time>2016-10-22T09:27:24Z</time>
      </trkpt>
      <trkpt lat="48.663247170" lon="2.479147348">
        <ele>75.000</ele>
        <time>2016-10-22T09:27:55Z</time>
      </trkpt>
      <trkpt lat="48.663040107" lon="2.478865952">
        <ele>76.000</ele>
        <time>2016-10-22T09:29:14Z</time>
      </trkpt>
      <trkpt lat="48.662938595" lon="2.479017799">
        <ele>75.000</ele>
        <time>2016-10-22T09:29:33Z</time>
      </trkpt>
      <trkpt lat="48.662764820" lon="2.479325643">
        <ele>76.000</ele>
        <time>2016-10-22T09:30:28Z</time>
      </trkpt>
      <trkpt lat="48.662512525" lon="2.479504180">
        <ele>75.000</ele>
        <time>2016-10-22T09:31:30Z</time>
      </trkpt>
      <trkpt lat="48.662402918" lon="2.479619323">
        <ele>75.000</ele>
        <time>2016-10-22T09:31:47Z</time>
      </trkpt>
      <trkpt lat="48.662265306" lon="2.479562143">
        <ele>75.000</ele>
        <time>2016-10-22T09:33:44Z</time>
      </trkpt>
      <trkpt lat="48.662163955" lon="2.479692050">
        <ele>75.000</ele>
        <time>2016-10-22T09:33:54Z</time>
      </trkpt>
      <trkpt lat="48.662021863" lon="2.479675013">
        <ele>75.000</ele>
        <time>2016-10-22T09:34:26Z</time>
      </trkpt>
      <trkpt lat="48.661964718" lon="2.479483915">
        <ele>75.000</ele>
        <time>2016-10-22T09:34:46Z</time>
      </trkpt>
      <trkpt lat="48.661852688" lon="2.479361356">
        <ele>74.000</ele>
        <time>2016-10-22T09:35:10Z</time>
      </trkpt>
      <trkpt lat="48.661799697" lon="2.479173986">
        <ele>75.000</ele>
        <time>2016-10-22T09:35:52Z</time>
      </trkpt>
      <trkpt lat="48.661562953" lon="2.478946936">
        <ele>76.000</ele>
        <time>2016-10-22T09:36:44Z</time>
      </trkpt>
      <trkpt lat="48.661433544" lon="2.478911835">
        <ele>75.000</ele>
        <time>2016-10-22T09:37:12Z</time>
      </trkpt>
      <trkpt lat="48.661303431" lon="2.478971784">
        <ele>75.000</ele>
        <time>2016-10-22T09:38:04Z</time>
      </trkpt>
      <trkpt lat="48.661187136" lon="2.478860123">
        <ele>75.000</ele>
        <time>2016-10-22T09:39:36Z</time>
      </trkpt>
      <trkpt lat="48.661056861" lon="2.478942006">
        <ele>75.000</ele>
        <time>2016-10-22T09:41:30Z</time>
      </trkpt>
      <trkpt lat="48.661012343" lon="2.478740158">
        <ele>75.000</ele>
        <time>2016-10-22T09:43:06Z</time>
      </trkpt>
      <trkpt lat="48.661113964" lon="2.478573695">
        <ele>75.000</ele>
        <time>2016-10-22T09:43:26Z</time>
      </trkpt>
      <trkpt lat="48.661152444" lon="2.478461004">
        <ele>75.000</ele>
        <time>2016-10-22T09:44:01Z</time>
      </trkpt>
      <trkpt lat="48.661174898" lon="2.478252979">
        <ele>75.000</ele>
        <time>2016-10-22T09:45:23Z</time>
      </trkpt>
      <trkpt lat="48.661037231" lon="2.478203114">
        <ele>75.000</ele>
        <time>2016-10-22T09:45:49Z</time>
      </trkpt>
      <trkpt lat="48.661093089" lon="2.478002968">
        <ele>75.000</ele>
        <time>2016-10-22T09:46:32Z</time>
      </trkpt>
      <trkpt lat="48.660958388" lon="2.478117684">
        <ele>75.000</ele>
        <time>2016-10-22T09:48:56Z</time>
      </trkpt>
      <trkpt lat="48.661018726" lon="2.477877396">
        <ele>75.000</ele>
        <time>2016-10-22T09:49:12Z</time>
      </trkpt>
      <trkpt lat="48.660961578" lon="2.477686303">
        <ele>75.000</ele>
        <time>2016-10-22T09:49:24Z</time>
      </trkpt>
      <trkpt lat="48.660983976" lon="2.477485590">
        <ele>75.000</ele>
        <time>2016-10-22T09:49:49Z</time>
      </trkpt>
      <trkpt lat="48.660939456" lon="2.477283744">
        <ele>75.000</ele>
        <time>2016-10-22T09:50:03Z</time>
      </trkpt>
      <trkpt lat="48.660912422" lon="2.476979819">
        <ele>75.000</ele>
        <time>2016-10-22T09:50:36Z</time>
      </trkpt>
      <trkpt lat="48.660901738" lon="2.476727359">
        <ele>75.000</ele>
        <time>2016-10-22T09:51:03Z</time>
      </trkpt>
      <trkpt lat="48.661011559" lon="2.476582968">
        <ele>75.000</ele>
        <time>2016-10-22T09:51:16Z</time>
      </trkpt>
      <trkpt lat="48.661141887" lon="2.476493768">
        <ele>75.000</ele>
        <time>2016-10-22T09:51:31Z</time>
      </trkpt>
      <trkpt lat="48.661023108" lon="2.476151729">
        <ele>75.000</ele>
        <time>2016-10-22T09:52:00Z</time>
      </trkpt>
      <trkpt lat="48.661041617" lon="2.475910730">
        <ele>76.000</ele>
        <time>2016-10-22T09:53:06Z</time>
      </trkpt>
      <trkpt lat="48.661029259" lon="2.475884928">
        <ele>75.000</ele>
        <time>2016-10-22T09:53:08Z</time>
      </trkpt>
      <trkpt lat="48.661043451" lon="2.475662137">
        <ele>75.000</ele>
        <time>2016-10-22T09:53:23Z</time>
      </trkpt>
      <trkpt lat="48.661050410" lon="2.475285663">
        <ele>75.000</ele>
        <time>2016-10-22T09:54:15Z</time>
      </trkpt>
      <trkpt lat="48.661029902" lon="2.475230473">
        <ele>75.000</ele>
        <time>2016-10-22T09:54:30Z</time>
      </trkpt>
      <trkpt lat="48.661130549" lon="2.475195611">
        <ele>75.000</ele>
        <time>2016-10-22T09:54:33Z</time>
      </trkpt>
      <trkpt lat="48.661140476" lon="2.474983717">
        <ele>75.000</ele>
        <time>2016-10-22T09:54:53Z</time>
      </trkpt>
      <trkpt lat="48.661262654" lon="2.474865125">
        <ele>75.000</ele>
        <time>2016-10-22T09:55:05Z</time>
      </trkpt>
      <trkpt lat="48.661289364" lon="2.474646201">
        <ele>76.000</ele>
        <time>2016-10-22T09:55:22Z</time>
      </trkpt>
      <trkpt lat="48.661591571" lon="2.474505052">
        <ele>76.000</ele>
        <time>2016-10-22T09:56:05Z</time>
      </trkpt>
      <trkpt lat="48.661721897" lon="2.474415845">
        <ele>76.000</ele>
        <time>2016-10-22T09:56:35Z</time>
      </trkpt>
      <trkpt lat="48.662011314" lon="2.474307384">
        <ele>75.000</ele>
        <time>2016-10-22T09:58:13Z</time>
      </trkpt>
      <trkpt lat="48.662144665" lon="2.474375447">
        <ele>75.000</ele>
        <time>2016-10-22T09:58:29Z</time>
      </trkpt>
      <trkpt lat="48.662334513" lon="2.474155615">
        <ele>75.000</ele>
        <time>2016-10-22T09:59:43Z</time>
      </trkpt>
      <trkpt lat="48.662464730" lon="2.474081028">
        <ele>75.000</ele>
        <time>2016-10-22T10:00:01Z</time>
      </trkpt>
      <trkpt lat="48.662578488" lon="2.473969600">
        <ele>76.000</ele>
        <time>2016-10-22T10:04:27Z</time>
      </trkpt>
      <trkpt lat="48.662458033" lon="2.473854222">
        <ele>76.000</ele>
        <time>2016-10-22T10:04:59Z</time>
      </trkpt>
      <trkpt lat="48.662354523" lon="2.473709880">
        <ele>76.000</ele>
        <time>2016-10-22T10:05:41Z</time>
      </trkpt>
      <trkpt lat="48.662242594" lon="2.473572710">
        <ele>76.000</ele>
        <time>2016-10-22T10:05:52Z</time>
      </trkpt>
      <trkpt lat="48.662122192" lon="2.473450022">
        <ele>76.000</ele>
        <time>2016-10-22T10:06:08Z</time>
      </trkpt>
      <trkpt lat="48.662125256" lon="2.473033254">
        <ele>76.000</ele>
        <time>2016-10-22T10:06:44Z</time>
      </trkpt>
      <trkpt lat="48.661867186" lon="2.472860717">
        <ele>76.000</ele>
        <time>2016-10-22T10:10:04Z</time>
      </trkpt>
      <trkpt lat="48.661831022" lon="2.472659012">
        <ele>76.000</ele>
        <time>2016-10-22T10:10:19Z</time>
      </trkpt>
      <trkpt lat="48.661782284" lon="2.472460752">
        <ele>76.000</ele>
        <time>2016-10-22T10:10:48Z</time>
      </trkpt>
      <trkpt lat="48.661661721" lon="2.472360002">
        <ele>76.000</ele>
        <time>2016-10-22T10:11:09Z</time>
      </trkpt>
      <trkpt lat="48.661600301" lon="2.472179811">
        <ele>76.000</ele>
        <time>2016-10-22T10:11:37Z</time>
      </trkpt>
      <trkpt lat="48.661488424" lon="2.472035333">
        <ele>75.000</ele>
        <time>2016-10-22T10:11:54Z</time>
      </trkpt>
      <trkpt lat="48.661369900" lon="2.471656744">
        <ele>75.000</ele>
        <time>2016-10-22T10:12:20Z</time>
      </trkpt>
      <trkpt lat="48.661400653" lon="2.471456167">
        <ele>76.000</ele>
        <time>2016-10-22T10:12:40Z</time>
      </trkpt>
      <trkpt lat="48.661364487" lon="2.471254464">
        <ele>75.000</ele>
        <time>2016-10-22T10:13:04Z</time>
      </trkpt>
      <trkpt lat="48.661336739" lon="2.471045591">
        <ele>75.000</ele>
        <time>2016-10-22T10:13:29Z</time>
      </trkpt>
      <trkpt lat="48.661224861" lon="2.470901117">
        <ele>75.000</ele>
        <time>2016-10-22T10:13:44Z</time>
      </trkpt>
      <trkpt lat="48.661201322" lon="2.470688659">
        <ele>75.000</ele>
        <time>2016-10-22T10:14:02Z</time>
      </trkpt>
      <trkpt lat="48.661062902" lon="2.470741176">
        <ele>75.000</ele>
        <time>2016-10-22T10:14:41Z</time>
      </trkpt>
      <trkpt lat="48.660933812" lon="2.470662225">
        <ele>75.000</ele>
        <time>2016-10-22T10:15:05Z</time>
      </trkpt>
      <trkpt lat="48.660835205" lon="2.470419257">
        <ele>76.000</ele>
        <time>2016-10-22T10:15:50Z</time>
      </trkpt>
      <trkpt lat="48.660944857" lon="2.470296788">
        <ele>76.000</ele>
        <time>2016-10-22T10:16:50Z</time>
      </trkpt>
      <trkpt lat="48.660992391" lon="2.470089182">
        <ele>77.000</ele>
        <time>2016-10-22T10:17:18Z</time>
      </trkpt>
      <trkpt lat="48.661126816" lon="2.470011003">
        <ele>76.000</ele>
        <time>2016-10-22T10:17:36Z</time>
      </trkpt>
      <trkpt lat="48.660985741" lon="2.469855072">
        <ele>77.000</ele>
        <time>2016-10-22T10:18:19Z</time>
      </trkpt>
      <trkpt lat="48.661184320" lon="2.469584189">
        <ele>77.000</ele>
        <time>2016-10-22T10:19:10Z</time>
      </trkpt>
      <trkpt lat="48.661093379" lon="2.469436413">
        <ele>77.000</ele>
        <time>2016-10-22T10:20:05Z</time>
      </trkpt>
      <trkpt lat="48.660882086" lon="2.469158650">
        <ele>77.000</ele>
        <time>2016-10-22T10:20:35Z</time>
      </trkpt>
      <trkpt lat="48.660791199" lon="2.469003564">
        <ele>77.000</ele>
        <time>2016-10-22T10:20:47Z</time>
      </trkpt>
      <trkpt lat="48.660738353" lon="2.468794273">
        <ele>76.000</ele>
        <time>2016-10-22T10:22:00Z</time>
      </trkpt>
      <trkpt lat="48.660781568" lon="2.468604875">
        <ele>76.000</ele>
        <time>2016-10-22T10:25:41Z</time>
      </trkpt>
      <trkpt lat="48.660703414" lon="2.468424410">
        <ele>77.000</ele>
        <time>2016-10-22T10:25:56Z</time>
      </trkpt>
      <trkpt lat="48.660591319" lon="2.468309189">
        <ele>77.000</ele>
        <time>2016-10-22T10:26:23Z</time>
      </trkpt>
      <trkpt lat="48.660483647" lon="2.468161135">
        <ele>77.000</ele>
        <time>2016-10-22T10:26:40Z</time>
      </trkpt>
      <trkpt lat="48.660306132" lon="2.467840072">
        <ele>77.000</ele>
        <time>2016-10-22T10:27:09Z</time>
      </trkpt>
      <trkpt lat="48.660206878" lon="2.467684849">
        <ele>76.000</ele>
        <time>2016-10-22T10:27:23Z</time>
      </trkpt>
      <trkpt lat="48.660086418" lon="2.467569490">
        <ele>77.000</ele>
        <time>2016-10-22T10:27:40Z</time>
      </trkpt>
      <trkpt lat="48.659948587" lon="2.467541587">
        <ele>77.000</ele>
        <time>2016-10-22T10:27:57Z</time>
      </trkpt>
      <trkpt lat="48.659810916" lon="2.467491750">
        <ele>76.000</ele>
        <time>2016-10-22T10:28:15Z</time>
      </trkpt>
      <trkpt lat="48.659698714" lon="2.467391154">
        <ele>77.000</ele>
        <time>2016-10-22T10:28:31Z</time>
      </trkpt>
      <trkpt lat="48.659559921" lon="2.467494856">
        <ele>77.000</ele>
        <time>2016-10-22T10:31:15Z</time>
      </trkpt>
      <trkpt lat="48.659442013" lon="2.467602563">
        <ele>77.000</ele>
        <time>2016-10-22T10:31:33Z</time>
      </trkpt>
      <trkpt lat="48.659222604" lon="2.467862124">
        <ele>76.000</ele>
        <time>2016-10-22T10:32:03Z</time>
      </trkpt>
      <trkpt lat="48.659100540" lon="2.467966103">
        <ele>77.000</ele>
        <time>2016-10-22T10:32:28Z</time>
      </trkpt>
      <trkpt lat="48.658990836" lon="2.468095882">
        <ele>76.000</ele>
        <time>2016-10-22T10:32:45Z</time>
      </trkpt>
      <trkpt lat="48.658864562" lon="2.468203446">
        <ele>77.000</ele>
        <time>2016-10-22T10:33:02Z</time>
      </trkpt>
      <trkpt lat="48.658771372" lon="2.468362749">
        <ele>77.000</ele>
        <time>2016-10-22T10:33:18Z</time>
      </trkpt>
      <trkpt lat="48.658649361" lon="2.468459415">
        <ele>77.000</ele>
        <time>2016-10-22T10:33:34Z</time>
      </trkpt>
      <trkpt lat="48.658510727" lon="2.468541177">
        <ele>77.000</ele>
        <time>2016-10-22T10:33:47Z</time>
      </trkpt>
      <trkpt lat="48.658287160" lon="2.468797002">
        <ele>77.000</ele>
        <time>2016-10-22T10:34:14Z</time>
      </trkpt>
      <trkpt lat="48.658146543" lon="2.469149274">
        <ele>77.000</ele>
        <time>2016-10-22T10:34:51Z</time>
      </trkpt>
      <trkpt lat="48.658024370" lon="2.469267869">
        <ele>77.000</ele>
        <time>2016-10-22T10:35:07Z</time>
      </trkpt>
      <trkpt lat="48.657898256" lon="2.469353494">
        <ele>77.000</ele>
        <time>2016-10-22T10:35:22Z</time>
      </trkpt>
      <trkpt lat="48.657764045" lon="2.469402422">
        <ele>77.000</ele>
        <time>2016-10-22T10:35:39Z</time>
      </trkpt>
      <trkpt lat="48.657617421" lon="2.469432861">
        <ele>78.000</ele>
        <time>2016-10-22T10:35:56Z</time>
      </trkpt>
      <trkpt lat="48.657345273" lon="2.469468501">
        <ele>78.000</ele>
        <time>2016-10-22T10:36:24Z</time>
      </trkpt>
      <trkpt lat="48.657216129" lon="2.469396866">
        <ele>77.000</ele>
        <time>2016-10-22T10:37:09Z</time>
      </trkpt>
      <trkpt lat="48.657167389" lon="2.469198626">
        <ele>77.000</ele>
        <time>2016-10-22T10:37:34Z</time>
      </trkpt>
      <trkpt lat="48.657059613" lon="2.469065200">
        <ele>77.000</ele>
        <time>2016-10-22T10:38:00Z</time>
      </trkpt>
      <trkpt lat="48.656899047" lon="2.468715187">
        <ele>77.000</ele>
        <time>2016-10-22T10:38:52Z</time>
      </trkpt>
      <trkpt lat="48.656725746" lon="2.468390554">
        <ele>77.000</ele>
        <time>2016-10-22T10:43:40Z</time>
      </trkpt>
      <trkpt lat="48.656685477" lon="2.468177835">
        <ele>77.000</ele>
        <time>2016-10-22T10:43:56Z</time>
      </trkpt>
      <trkpt lat="48.656577646" lon="2.468051723">
        <ele>77.000</ele>
        <time>2016-10-22T10:44:18Z</time>
      </trkpt>
      <trkpt lat="48.656444293" lon="2.467983677">
        <ele>77.000</ele>
        <time>2016-10-22T10:44:37Z</time>
      </trkpt>
      <trkpt lat="48.656211955" lon="2.467723864">
        <ele>77.000</ele>
        <time>2016-10-22T10:45:06Z</time>
      </trkpt>
      <trkpt lat="48.656074446" lon="2.467652094">
        <ele>77.000</ele>
        <time>2016-10-22T10:45:17Z</time>
      </trkpt>
      <trkpt lat="48.656000449" lon="2.467475370">
        <ele>76.000</ele>
        <time>2016-10-22T10:45:38Z</time>
      </trkpt>
      <trkpt lat="48.655943342" lon="2.467276995">
        <ele>77.000</ele>
        <time>2016-10-22T10:45:51Z</time>
      </trkpt>
      <trkpt lat="48.655953259" lon="2.467065121">
        <ele>77.000</ele>
        <time>2016-10-22T10:45:59Z</time>
      </trkpt>
      <trkpt lat="48.655858215" lon="2.466906325">
        <ele>77.000</ele>
        <time>2016-10-22T10:46:10Z</time>
      </trkpt>
      <trkpt lat="48.655729124" lon="2.466827386">
        <ele>77.000</ele>
        <time>2016-10-22T10:46:25Z</time>
      </trkpt>
      <trkpt lat="48.655472742" lon="2.466994908">
        <ele>77.000</ele>
        <time>2016-10-22T10:46:49Z</time>
      </trkpt>
      <trkpt lat="48.655334323" lon="2.467047423">
        <ele>77.000</ele>
        <time>2016-10-22T10:47:03Z</time>
      </trkpt>
      <trkpt lat="48.655207995" lon="2.467162288">
        <ele>77.000</ele>
        <time>2016-10-22T10:47:16Z</time>
      </trkpt>
      <trkpt lat="48.654939467" lon="2.467274766">
        <ele>77.000</ele>
        <time>2016-10-22T10:47:43Z</time>
      </trkpt>
      <trkpt lat="48.654833970" lon="2.467400946">
        <ele>77.000</ele>
        <time>2016-10-22T10:47:55Z</time>
      </trkpt>
      <trkpt lat="48.654687186" lon="2.467453318">
        <ele>77.000</ele>
        <time>2016-10-22T10:48:10Z</time>
      </trkpt>
      <trkpt lat="48.654569383" lon="2.467546389">
        <ele>77.000</ele>
        <time>2016-10-22T10:48:19Z</time>
      </trkpt>
      <trkpt lat="48.654288066" lon="2.467691548">
        <ele>77.000</ele>
        <time>2016-10-22T10:48:49Z</time>
      </trkpt>
      <trkpt lat="48.654153909" lon="2.467733162">
        <ele>77.000</ele>
        <time>2016-10-22T10:49:00Z</time>
      </trkpt>
      <trkpt lat="48.653901680" lon="2.467904397">
        <ele>77.000</ele>
        <time>2016-10-22T10:49:25Z</time>
      </trkpt>
      <trkpt lat="48.653637467" lon="2.467998659">
        <ele>78.000</ele>
        <time>2016-10-22T10:49:50Z</time>
      </trkpt>
      <trkpt lat="48.653499798" lon="2.467948821">
        <ele>77.000</ele>
        <time>2016-10-22T10:50:02Z</time>
      </trkpt>
      <trkpt lat="48.653417384" lon="2.467779274">
        <ele>78.000</ele>
        <time>2016-10-22T10:50:15Z</time>
      </trkpt>
      <trkpt lat="48.653351915" lon="2.467580766">
        <ele>77.000</ele>
        <time>2016-10-22T10:50:27Z</time>
      </trkpt>
      <trkpt lat="48.653303120" lon="2.467389852">
        <ele>86.000</ele>
        <time>2016-10-22T10:50:39Z</time>
      </trkpt>
      <trkpt lat="48.653267007" lon="2.467180872">
        <ele>77.000</ele>
        <time>2016-10-22T10:50:52Z</time>
      </trkpt>
      <trkpt lat="48.653201483" lon="2.466989676">
        <ele>86.000</ele>
        <time>2016-10-22T10:51:06Z</time>
      </trkpt>
      <trkpt lat="48.653182206" lon="2.466766357">
        <ele>85.000</ele>
        <time>2016-10-22T10:51:17Z</time>
      </trkpt>
      <trkpt lat="48.653048477" lon="2.466749489">
        <ele>76.000</ele>
        <time>2016-10-22T10:56:07Z</time>
      </trkpt>
    </trkseg>
  </trk>
</gpx>
