<?xml version="1.0" encoding="UTF-8" standalone="no" ?>
<gpx xmlns="http://www.topografix.com/GPX/1/1" creator="gps4cam - http://gps4cam.com" version="1.1" xmlns:xsi="http://www.w3.org/2001/XMLSchema-instance" xsi:schemaLocation="http://www.topografix.com/GPX/1/1 http://www.topografix.com/GPX/1/1/gpx.xsd">
  <metadata>
    <link href="http://gps4cam.com">
      <text>gps4cam</text>
    </link>
    <time>2018-03-03T13:22:06Z</time>
  </metadata>
  <trk>
    <name>gps4cam trip started at: 2018-03-01T19:56:35Z</name>
    <trkseg>
      <trkpt lat="19.3255741448" lon="-69.5038283065">
        <time>2018-03-01T19:56:35Z</time>
      </trkpt>
      <trkpt lat="19.3255631843" lon="-69.5039752091">
        <time>2018-03-01T19:56:51Z</time>
      </trkpt>
      <trkpt lat="19.3255806194" lon="-69.5041282354">
        <time>2018-03-01T19:57:38Z</time>
      </trkpt>
      <trkpt lat="19.3255255319" lon="-69.5042610983">
        <time>2018-03-01T19:58:04Z</time>
      </trkpt>
      <trkpt lat="19.3255051051" lon="-69.5044059593">
        <time>2018-03-01T19:58:18Z</time>
      </trkpt>
      <trkpt lat="19.3254926111" lon="-69.5045480080">
        <time>2018-03-01T19:58:35Z</time>
      </trkpt>
      <trkpt lat="19.3254642505" lon="-69.5046956812">
        <time>2018-03-01T19:58:50Z</time>
      </trkpt>
      <trkpt lat="19.3254470231" lon="-69.5048367091">
        <time>2018-03-01T19:59:05Z</time>
      </trkpt>
      <trkpt lat="19.3254566592" lon="-69.5049790075">
        <time>2018-03-01T19:59:22Z</time>
      </trkpt>
      <trkpt lat="19.3254519609" lon="-69.5051317841">
        <time>2018-03-01T19:59:36Z</time>
      </trkpt>
      <trkpt lat="19.3254615962" lon="-69.5052740826">
        <time>2018-03-01T19:59:54Z</time>
      </trkpt>
      <trkpt lat="19.3254933623" lon="-69.5054166312">
        <time>2018-03-01T20:00:14Z</time>
      </trkpt>
      <trkpt lat="19.3255155265" lon="-69.5055706787">
        <time>2018-03-01T20:01:02Z</time>
      </trkpt>
      <trkpt lat="19.3255425591" lon="-69.5057122068">
        <time>2018-03-01T20:01:13Z</time>
      </trkpt>
      <trkpt lat="19.3256219230" lon="-69.5058378831">
        <time>2018-03-01T20:01:50Z</time>
      </trkpt>
      <trkpt lat="19.3257188214" lon="-69.5059492489">
        <time>2018-03-01T20:02:55Z</time>
      </trkpt>
      <trkpt lat="19.3258253211" lon="-69.5060491165">
        <time>2018-03-01T20:03:08Z</time>
      </trkpt>
      <trkpt lat="19.3259287564" lon="-69.5061392771">
        <time>2018-03-01T20:03:23Z</time>
      </trkpt>
      <trkpt lat="19.3260209211" lon="-69.5062496233">
        <time>2018-03-01T20:03:38Z</time>
      </trkpt>
      <trkpt lat="19.3261386903" lon="-69.5063293070">
        <time>2018-03-01T20:03:55Z</time>
      </trkpt>
      <trkpt lat="19.3262308543" lon="-69.5064396540">
        <time>2018-03-01T20:04:16Z</time>
      </trkpt>
      <trkpt lat="19.3263484864" lon="-69.5065328790">
        <time>2018-03-01T20:04:37Z</time>
      </trkpt>
      <trkpt lat="19.3264598535" lon="-69.5066202297">
        <time>2018-03-01T20:04:51Z</time>
      </trkpt>
      <trkpt lat="19.3265584178" lon="-69.5067229123">
        <time>2018-03-01T20:05:37Z</time>
      </trkpt>
      <trkpt lat="19.3265549436" lon="-69.5067538259">
        <time>2018-03-01T20:07:23Z</time>
      </trkpt>
      <trkpt lat="19.3266551762" lon="-69.5068478223">
        <time>2018-03-01T20:13:34Z</time>
      </trkpt>
      <trkpt lat="19.3265340710" lon="-69.5067855091">
        <time>2018-03-01T20:16:48Z</time>
      </trkpt>
      <trkpt lat="19.3266150996" lon="-69.5069025024">
        <time>2018-03-01T20:18:04Z</time>
      </trkpt>
      <trkpt lat="19.3267458068" lon="-69.5069533173">
        <time>2018-03-01T20:18:35Z</time>
      </trkpt>
      <trkpt lat="19.3268781826" lon="-69.5069954460">
        <time>2018-03-01T20:18:45Z</time>
      </trkpt>
      <trkpt lat="19.3270104214" lon="-69.5070511155">
        <time>2018-03-01T20:19:04Z</time>
      </trkpt>
      <trkpt lat="19.3271427970" lon="-69.5070932450">
        <time>2018-03-01T20:19:19Z</time>
      </trkpt>
      <trkpt lat="19.3272605638" lon="-69.5071729332">
        <time>2018-03-01T20:20:51Z</time>
      </trkpt>
      <trkpt lat="19.3271394595" lon="-69.5071106179">
        <time>2018-03-01T20:21:27Z</time>
      </trkpt>
      <trkpt lat="19.3270023514" lon="-69.5070674670">
        <time>2018-03-01T20:24:20Z</time>
      </trkpt>
      <trkpt lat="19.3268731765" lon="-69.5070215047">
        <time>2018-03-01T20:24:31Z</time>
      </trkpt>
      <trkpt lat="19.3267456703" lon="-69.5069668562">
        <time>2018-03-01T20:24:49Z</time>
      </trkpt>
      <trkpt lat="19.3267218441" lon="-69.5068214931">
        <time>2018-03-01T20:25:51Z</time>
      </trkpt>
      <trkpt lat="19.3266185479" lon="-69.5067177887">
        <time>2018-03-01T20:26:14Z</time>
      </trkpt>
      <trkpt lat="19.3265120507" lon="-69.5066179176">
        <time>2018-03-01T20:26:28Z</time>
      </trkpt>
      <trkpt lat="19.3263926138" lon="-69.5065469187">
        <time>2018-03-01T20:26:42Z</time>
      </trkpt>
      <trkpt lat="19.3262955812" lon="-69.5064490903">
        <time>2018-03-01T20:27:01Z</time>
      </trkpt>
      <trkpt lat="19.3261601408" lon="-69.5063972565">
        <time>2018-03-01T20:27:23Z</time>
      </trkpt>
      <trkpt lat="19.3260457092" lon="-69.5063001991">
        <time>2018-03-01T20:27:56Z</time>
      </trkpt>
      <trkpt lat="19.3259424111" lon="-69.5061964973">
        <time>2018-03-01T20:28:08Z</time>
      </trkpt>
      <trkpt lat="19.3258375806" lon="-69.5060879422">
        <time>2018-03-01T20:28:20Z</time>
      </trkpt>
      <trkpt lat="19.3257422150" lon="-69.5059814293">
        <time>2018-03-01T20:28:32Z</time>
      </trkpt>
      <trkpt lat="19.3256357153" lon="-69.5058815617">
        <time>2018-03-01T20:28:43Z</time>
      </trkpt>
      <trkpt lat="19.3255516192" lon="-69.5057548643">
        <time>2018-03-01T20:28:57Z</time>
      </trkpt>
      <trkpt lat="19.3254977233" lon="-69.5056120650">
        <time>2018-03-01T20:29:12Z</time>
      </trkpt>
      <trkpt lat="19.3254676264" lon="-69.5054608296">
        <time>2018-03-01T20:29:51Z</time>
      </trkpt>
      <trkpt lat="19.3254453259" lon="-69.5053203225">
        <time>2018-03-01T20:30:05Z</time>
      </trkpt>
      <trkpt lat="19.3254309583" lon="-69.5051770033">
        <time>2018-03-01T20:30:18Z</time>
      </trkpt>
      <trkpt lat="19.3254261917" lon="-69.5050221852">
        <time>2018-03-01T20:30:32Z</time>
      </trkpt>
      <trkpt lat="19.3254418874" lon="-69.5048763037">
        <time>2018-03-01T20:30:45Z</time>
      </trkpt>
      <trkpt lat="19.3254638477" lon="-69.5047362966">
        <time>2018-03-01T20:31:00Z</time>
      </trkpt>
      <trkpt lat="19.3254842755" lon="-69.5045914357">
        <time>2018-03-01T20:31:15Z</time>
      </trkpt>
      <trkpt lat="19.3255126360" lon="-69.5044437625">
        <time>2018-03-01T20:34:48Z</time>
      </trkpt>
      <trkpt lat="19.3255425285" lon="-69.5043009428">
        <time>2018-03-01T20:36:27Z</time>
      </trkpt>
      <trkpt lat="19.3255550223" lon="-69.5041588941">
        <time>2018-03-01T20:36:40Z</time>
      </trkpt>
      <trkpt lat="19.3255991121" lon="-69.5040191362">
        <time>2018-03-01T20:36:54Z</time>
      </trkpt>
      <trkpt lat="19.3256479344" lon="-69.5038803988">
        <time>2018-03-01T20:37:10Z</time>
      </trkpt>
      <trkpt lat="19.3256857588" lon="-69.5037347664">
        <time>2018-03-01T20:37:24Z</time>
      </trkpt>
      <trkpt lat="19.3257266475" lon="-69.5035988411">
        <time>2018-03-01T20:37:37Z</time>
      </trkpt>
      <trkpt lat="19.3257644714" lon="-69.5034532084">
        <time>2018-03-01T20:37:53Z</time>
      </trkpt>
      <trkpt lat="19.3257864289" lon="-69.5033132006">
        <time>2018-03-01T20:38:12Z</time>
      </trkpt>
      <trkpt lat="19.3258225841" lon="-69.5031762544">
        <time>2018-03-01T20:38:28Z</time>
      </trkpt>
      <trkpt lat="19.3258730728" lon="-69.5030288295">
        <time>2018-03-01T20:38:43Z</time>
      </trkpt>
      <trkpt lat="19.3259218933" lon="-69.5028900911">
        <time>2018-03-01T20:38:57Z</time>
      </trkpt>
      <trkpt lat="19.3259849115" lon="-69.5027544144">
        <time>2018-03-01T20:39:12Z</time>
      </trkpt>
      <trkpt lat="19.3260541946" lon="-69.5026246116">
        <time>2018-03-01T20:39:25Z</time>
      </trkpt>
      <trkpt lat="19.3261092794" lon="-69.5024917471">
        <time>2018-03-01T20:39:37Z</time>
      </trkpt>
      <trkpt lat="19.3261864951" lon="-69.5023591315">
        <time>2018-03-01T20:39:50Z</time>
      </trkpt>
      <trkpt lat="19.3262557776" lon="-69.5022293284">
        <time>2018-03-01T20:40:03Z</time>
      </trkpt>
      <trkpt lat="19.3263123943" lon="-69.5021013171">
        <time>2018-03-01T20:40:16Z</time>
      </trkpt>
      <trkpt lat="19.3263832088" lon="-69.5019763672">
        <time>2018-03-01T20:40:56Z</time>
      </trkpt>
      <trkpt lat="19.3263767678" lon="-69.5018302353">
        <time>2018-03-01T20:41:12Z</time>
      </trkpt>
      <trkpt lat="19.3264066556" lon="-69.5016874137">
        <time>2018-03-01T20:41:33Z</time>
      </trkpt>
      <trkpt lat="19.3263748825" lon="-69.5015448661">
        <time>2018-03-01T20:41:49Z</time>
      </trkpt>
      <trkpt lat="19.3263905715" lon="-69.5013989830">
        <time>2018-03-01T20:42:12Z</time>
      </trkpt>
      <trkpt lat="19.3263302660" lon="-69.5012638532">
        <time>2018-03-01T20:42:41Z</time>
      </trkpt>
      <trkpt lat="19.3262858260" lon="-69.5011230981">
        <time>2018-03-01T20:42:56Z</time>
      </trkpt>
      <trkpt lat="19.3262031177" lon="-69.5010148011">
        <time>2018-03-01T20:43:09Z</time>
      </trkpt>
      <trkpt lat="19.3261094112" lon="-69.5008996099">
        <time>2018-03-01T20:43:24Z</time>
      </trkpt>
      <trkpt lat="19.3260125041" lon="-69.5007882523">
        <time>2018-03-01T20:43:56Z</time>
      </trkpt>
      <trkpt lat="19.3258979276" lon="-69.5007047480">
        <time>2018-03-01T20:44:12Z</time>
      </trkpt>
      <trkpt lat="19.3258025523" lon="-69.5005982448">
        <time>2018-03-01T20:44:32Z</time>
      </trkpt>
      <trkpt lat="19.3257135770" lon="-69.5004840756">
        <time>2018-03-01T20:44:50Z</time>
      </trkpt>
      <trkpt lat="19.3256659338" lon="-69.5003471555">
        <time>2018-03-01T20:45:14Z</time>
      </trkpt>
      <trkpt lat="19.3255960238" lon="-69.5002235279">
        <time>2018-03-01T20:45:29Z</time>
      </trkpt>
      <trkpt lat="19.3255404468" lon="-69.5000894211">
        <time>2018-03-01T20:45:48Z</time>
      </trkpt>
      <trkpt lat="19.3255086681" lon="-69.4999468757">
        <time>2018-03-01T20:46:08Z</time>
      </trkpt>
      <trkpt lat="19.3254451573" lon="-69.4998155824">
        <time>2018-03-01T20:46:21Z</time>
      </trkpt>
      <trkpt lat="19.3254069775" lon="-69.4996807038">
        <time>2018-03-01T20:46:35Z</time>
      </trkpt>
      <trkpt lat="19.3253689321" lon="-69.4995322850">
        <time>2018-03-01T20:46:51Z</time>
      </trkpt>
      <trkpt lat="19.3253386843" lon="-69.4993945936">
        <time>2018-03-01T20:47:04Z</time>
      </trkpt>
      <trkpt lat="19.3252910377" lon="-69.4992576750">
        <time>2018-03-01T20:47:17Z</time>
      </trkpt>
      <trkpt lat="19.3252290577" lon="-69.4991312365">
        <time>2018-03-01T20:47:31Z</time>
      </trkpt>
      <trkpt lat="19.3251910106" lon="-69.4989828184">
        <time>2018-03-01T20:47:45Z</time>
      </trkpt>
      <trkpt lat="19.3251402974" lon="-69.4988361935">
        <time>2018-03-01T20:48:05Z</time>
      </trkpt>
      <trkpt lat="19.3251164476" lon="-69.4986908361">
        <time>2018-03-01T20:48:21Z</time>
      </trkpt>
      <trkpt lat="19.3251020629" lon="-69.4985475190">
        <time>2018-03-01T20:48:36Z</time>
      </trkpt>
      <trkpt lat="19.3250734796" lon="-69.4984011417">
        <time>2018-03-01T20:48:52Z</time>
      </trkpt>
      <trkpt lat="19.3250590941" lon="-69.4982578248">
        <time>2018-03-01T20:49:10Z</time>
      </trkpt>
      <trkpt lat="19.3250447083" lon="-69.4981145080">
        <time>2018-03-01T20:49:24Z</time>
      </trkpt>
      <trkpt lat="19.3250461877" lon="-69.4979655645">
        <time>2018-03-01T20:50:15Z</time>
      </trkpt>
      <trkpt lat="19.3250255355" lon="-69.4978163742">
        <time>2018-03-01T20:50:31Z</time>
      </trkpt>
      <trkpt lat="19.3250270141" lon="-69.4976674308">
        <time>2018-03-01T20:50:48Z</time>
      </trkpt>
      <trkpt lat="19.3250332250" lon="-69.4975195073">
        <time>2018-03-01T20:51:04Z</time>
      </trkpt>
      <trkpt lat="19.3250740980" lon="-69.4973835773">
        <time>2018-03-01T20:51:20Z</time>
      </trkpt>
      <trkpt lat="19.3250977066" lon="-69.4972348803">
        <time>2018-03-01T20:51:35Z</time>
      </trkpt>
      <trkpt lat="19.3251039166" lon="-69.4970869567">
        <time>2018-03-01T20:51:50Z</time>
      </trkpt>
      <trkpt lat="19.3251116591" lon="-69.4969438866">
        <time>2018-03-01T20:52:10Z</time>
      </trkpt>
      <trkpt lat="19.3251194013" lon="-69.4968008164">
        <time>2018-03-01T20:52:28Z</time>
      </trkpt>
      <trkpt lat="19.3251208774" lon="-69.4966518728">
        <time>2018-03-01T20:52:45Z</time>
      </trkpt>
      <trkpt lat="19.3251554828" lon="-69.4965100687">
        <time>2018-03-01T20:53:00Z</time>
      </trkpt>
      <trkpt lat="19.3251932878" lon="-69.4963644310">
        <time>2018-03-01T20:53:16Z</time>
      </trkpt>
      <trkpt lat="19.3251788976" lon="-69.4962211146">
        <time>2018-03-01T20:53:32Z</time>
      </trkpt>
      <trkpt lat="19.3252638960" lon="-69.4960992160">
        <time>2018-03-01T20:54:18Z</time>
      </trkpt>
      <trkpt lat="19.3253346958" lon="-69.4959742576">
        <time>2018-03-01T20:54:34Z</time>
      </trkpt>
      <trkpt lat="19.3253929640" lon="-69.4958375524">
        <time>2018-03-01T20:54:50Z</time>
      </trkpt>
      <trkpt lat="19.3254637635" lon="-69.4957125937">
        <time>2018-03-01T20:55:07Z</time>
      </trkpt>
      <trkpt lat="19.3253589127" lon="-69.4956040609">
        <time>2018-03-01T20:55:26Z</time>
      </trkpt>
      <trkpt lat="19.3253127902" lon="-69.4954719992">
        <time>2018-03-01T20:55:50Z</time>
      </trkpt>
      <trkpt lat="19.3253189962" lon="-69.4953240753">
        <time>2018-03-01T20:56:13Z</time>
      </trkpt>
      <trkpt lat="19.3252571416" lon="-69.4951841010">
        <time>2018-03-01T21:00:18Z</time>
      </trkpt>
      <trkpt lat="19.3251713547" lon="-69.4950661087">
        <time>2018-03-01T21:00:57Z</time>
      </trkpt>
      <trkpt lat="19.3252360201" lon="-69.4949217353">
        <time>2018-03-01T21:01:34Z</time>
      </trkpt>
      <trkpt lat="19.3252200934" lon="-69.4947735658">
        <time>2018-03-01T21:01:52Z</time>
      </trkpt>
      <trkpt lat="19.3251756355" lon="-69.4946328181">
        <time>2018-03-01T21:02:02Z</time>
      </trkpt>
      <trkpt lat="19.3250253167" lon="-69.4946456603">
        <time>2018-03-01T21:02:19Z</time>
      </trkpt>
      <trkpt lat="19.3248232041" lon="-69.4946202049">
        <time>2018-03-01T21:02:41Z</time>
      </trkpt>
      <trkpt lat="19.3246506836" lon="-69.4948001395">
        <time>2018-03-01T21:02:54Z</time>
      </trkpt>
      <trkpt lat="19.3245190289" lon="-69.4948441419">
        <time>2018-03-01T21:03:03Z</time>
      </trkpt>
      <trkpt lat="19.3243833096" lon="-69.4948194233">
        <time>2018-03-01T21:03:15Z</time>
      </trkpt>
      <trkpt lat="19.3242407900" lon="-69.4948429931">
        <time>2018-03-01T21:03:31Z</time>
      </trkpt>
      <trkpt lat="19.3240982703" lon="-69.4948665631">
        <time>2018-03-01T21:04:07Z</time>
      </trkpt>
      <trkpt lat="19.3239740839" lon="-69.4947945771">
        <time>2018-03-01T21:04:23Z</time>
      </trkpt>
      <trkpt lat="19.3238400310" lon="-69.4947611730">
        <time>2018-03-01T21:04:36Z</time>
      </trkpt>
      <trkpt lat="19.3237414420" lon="-69.4946585188">
        <time>2018-03-01T21:04:48Z</time>
      </trkpt>
      <trkpt lat="19.3236364532" lon="-69.4945635324">
        <time>2018-03-01T21:05:01Z</time>
      </trkpt>
      <trkpt lat="19.3234974004" lon="-69.4945561904">
        <time>2018-03-01T21:05:19Z</time>
      </trkpt>
      <trkpt lat="19.3233904106" lon="-69.4946643076">
        <time>2018-03-01T21:05:37Z</time>
      </trkpt>
      <trkpt lat="19.3233211502" lon="-69.4947941217">
        <time>2018-03-01T21:05:47Z</time>
      </trkpt>
      <trkpt lat="19.3231770977" lon="-69.4948128406">
        <time>2018-03-01T21:06:00Z</time>
      </trkpt>
      <trkpt lat="19.3230366451" lon="-69.4947871055">
        <time>2018-03-01T21:06:15Z</time>
      </trkpt>
      <trkpt lat="19.3228996587" lon="-69.4947304569">
        <time>2018-03-01T21:06:25Z</time>
      </trkpt>
      <trkpt lat="19.3228105340" lon="-69.4946298440">
        <time>2018-03-01T21:06:38Z</time>
      </trkpt>
      <trkpt lat="19.3225566930" lon="-69.4947198953">
        <time>2018-03-01T21:09:20Z</time>
      </trkpt>
      <trkpt lat="19.3227007452" lon="-69.4947011746">
        <time>2018-03-01T21:09:43Z</time>
      </trkpt>
      <trkpt lat="19.3226192204" lon="-69.4947921631">
        <time>2018-03-01T21:10:46Z</time>
      </trkpt>
      <trkpt lat="19.3226224859" lon="-69.4946209946">
        <time>2018-03-01T21:11:23Z</time>
      </trkpt>
      <trkpt lat="19.3227458723" lon="-69.4944530877">
        <time>2018-03-01T21:13:18Z</time>
      </trkpt>
      <trkpt lat="19.3227458723" lon="-69.4944530877">
        <time>2018-03-01T21:14:13Z</time>
      </trkpt>
    </trkseg>
  </trk>
</gpx>
