<?xml version="1.0" encoding="UTF-8"?>
<gpx version="1.1" creator="GPSBabel - https://www.gpsbabel.org" xmlns="http://www.topografix.com/GPX/1/1" xmlns:xsi="http://www.w3.org/2001/XMLSchema-instance">
  <metadata>
    <name>Randonnée à vélo</name>
    <time>2025-08-30T11:13:25.635Z</time>
    <bounds minlat="48.655989000" minlon="2.422543000" maxlat="48.692524000" maxlon="2.492560000"/>
  </metadata>
  <trk>
    <name>Randonnée à vélo</name>
    <trkseg>
      <trkpt lat="48.655989000" lon="2.492382000">
        <ele>83.595</ele>
        <time>2020-07-18T15:34:11Z</time>
      </trkpt>
      <trkpt lat="48.656087000" lon="2.492377000">
        <ele>83.595</ele>
        <time>2020-07-18T15:34:22Z</time>
      </trkpt>
      <trkpt lat="48.656182000" lon="2.492337000">
        <ele>83.595</ele>
        <time>2020-07-18T15:34:27Z</time>
      </trkpt>
      <trkpt lat="48.656277000" lon="2.492402000">
        <ele>83.595</ele>
        <time>2020-07-18T15:34:32Z</time>
      </trkpt>
      <trkpt lat="48.656315000" lon="2.492533000">
        <ele>83.595</ele>
        <time>2020-07-18T15:34:38Z</time>
      </trkpt>
      <trkpt lat="48.656410000" lon="2.492560000">
        <ele>83.595</ele>
        <time>2020-07-18T15:34:43Z</time>
      </trkpt>
      <trkpt lat="48.656504000" lon="2.492466000">
        <ele>83.595</ele>
        <time>2020-07-18T15:34:47Z</time>
      </trkpt>
      <trkpt lat="48.656597000" lon="2.492355000">
        <ele>83.595</ele>
        <time>2020-07-18T15:34:51Z</time>
      </trkpt>
      <trkpt lat="48.656708000" lon="2.492321000">
        <ele>83.595</ele>
        <time>2020-07-18T15:34:55Z</time>
      </trkpt>
      <trkpt lat="48.656794000" lon="2.492238000">
        <ele>83.576</ele>
        <time>2020-07-18T15:34:57.999Z</time>
      </trkpt>
      <trkpt lat="48.656923000" lon="2.491814000">
        <ele>83.420</ele>
        <time>2020-07-18T15:35:08.999Z</time>
      </trkpt>
      <trkpt lat="48.656957000" lon="2.491675000">
        <ele>83.370</ele>
        <time>2020-07-18T15:35:13.999Z</time>
      </trkpt>
      <trkpt lat="48.657010000" lon="2.491520000">
        <ele>83.312</ele>
        <time>2020-07-18T15:35:18.999Z</time>
      </trkpt>
      <trkpt lat="48.657009000" lon="2.491358000">
        <ele>83.258</ele>
        <time>2020-07-18T15:35:22.999Z</time>
      </trkpt>
      <trkpt lat="48.657112000" lon="2.491061000">
        <ele>83.145</ele>
        <time>2020-07-18T15:35:31.999Z</time>
      </trkpt>
      <trkpt lat="48.657180000" lon="2.490961000">
        <ele>83.097</ele>
        <time>2020-07-18T15:35:34.999Z</time>
      </trkpt>
      <trkpt lat="48.657239000" lon="2.490791000">
        <ele>83.033</ele>
        <time>2020-07-18T15:35:38.999Z</time>
      </trkpt>
      <trkpt lat="48.657271000" lon="2.490660000">
        <ele>82.987</ele>
        <time>2020-07-18T15:35:41.999Z</time>
      </trkpt>
      <trkpt lat="48.657293000" lon="2.490498000">
        <ele>82.931</ele>
        <time>2020-07-18T15:35:45.999Z</time>
      </trkpt>
      <trkpt lat="48.657277000" lon="2.490312000">
        <ele>82.869</ele>
        <time>2020-07-18T15:35:49.999Z</time>
      </trkpt>
      <trkpt lat="48.657315000" lon="2.490171000">
        <ele>82.818</ele>
        <time>2020-07-18T15:35:53.999Z</time>
      </trkpt>
      <trkpt lat="48.657328000" lon="2.490009000">
        <ele>82.763</ele>
        <time>2020-07-18T15:35:57.999Z</time>
      </trkpt>
      <trkpt lat="48.657379000" lon="2.489843000">
        <ele>82.702</ele>
        <time>2020-07-18T15:36:00.999Z</time>
      </trkpt>
      <trkpt lat="48.657416000" lon="2.489661000">
        <ele>82.712</ele>
        <time>2020-07-18T15:36:03.999Z</time>
      </trkpt>
      <trkpt lat="48.657504000" lon="2.489354000">
        <ele>82.776</ele>
        <time>2020-07-18T15:36:08.999Z</time>
      </trkpt>
      <trkpt lat="48.657608000" lon="2.489091000">
        <ele>82.835</ele>
        <time>2020-07-18T15:36:14.999Z</time>
      </trkpt>
      <trkpt lat="48.657619000" lon="2.488790000">
        <ele>82.892</ele>
        <time>2020-07-18T15:36:21.999Z</time>
      </trkpt>
      <trkpt lat="48.657600000" lon="2.488647000">
        <ele>82.920</ele>
        <time>2020-07-18T15:36:24.999Z</time>
      </trkpt>
      <trkpt lat="48.657594000" lon="2.488500000">
        <ele>82.948</ele>
        <time>2020-07-18T15:36:26.999Z</time>
      </trkpt>
      <trkpt lat="48.657602000" lon="2.488330000">
        <ele>82.981</ele>
        <time>2020-07-18T15:36:28.999Z</time>
      </trkpt>
      <trkpt lat="48.657620000" lon="2.488186000">
        <ele>83.009</ele>
        <time>2020-07-18T15:36:30.999Z</time>
      </trkpt>
      <trkpt lat="48.657674000" lon="2.488014000">
        <ele>83.045</ele>
        <time>2020-07-18T15:36:33.999Z</time>
      </trkpt>
      <trkpt lat="48.657699000" lon="2.487824000">
        <ele>83.082</ele>
        <time>2020-07-18T15:36:36.999Z</time>
      </trkpt>
      <trkpt lat="48.657755000" lon="2.487674000">
        <ele>83.115</ele>
        <time>2020-07-18T15:36:39.999Z</time>
      </trkpt>
      <trkpt lat="48.657847000" lon="2.487361000">
        <ele>83.180</ele>
        <time>2020-07-18T15:36:45.999Z</time>
      </trkpt>
      <trkpt lat="48.657900000" lon="2.487211000">
        <ele>83.215</ele>
        <time>2020-07-18T15:36:48.999Z</time>
      </trkpt>
      <trkpt lat="48.657910000" lon="2.487047000">
        <ele>83.253</ele>
        <time>2020-07-18T15:36:51.999Z</time>
      </trkpt>
      <trkpt lat="48.657844000" lon="2.486603000">
        <ele>83.361</ele>
        <time>2020-07-18T15:37:00.999Z</time>
      </trkpt>
      <trkpt lat="48.657840000" lon="2.486431000">
        <ele>83.401</ele>
        <time>2020-07-18T15:37:08Z</time>
      </trkpt>
      <trkpt lat="48.657798000" lon="2.486278000">
        <ele>83.440</ele>
        <time>2020-07-18T15:37:13Z</time>
      </trkpt>
      <trkpt lat="48.657737000" lon="2.486156000">
        <ele>83.476</ele>
        <time>2020-07-18T15:37:17Z</time>
      </trkpt>
      <trkpt lat="48.657730000" lon="2.486005000">
        <ele>83.512</ele>
        <time>2020-07-18T15:37:21Z</time>
      </trkpt>
      <trkpt lat="48.657704000" lon="2.485873000">
        <ele>83.545</ele>
        <time>2020-07-18T15:37:25Z</time>
      </trkpt>
      <trkpt lat="48.657697000" lon="2.485690000">
        <ele>83.588</ele>
        <time>2020-07-18T15:37:30Z</time>
      </trkpt>
      <trkpt lat="48.657675000" lon="2.485548000">
        <ele>83.622</ele>
        <time>2020-07-18T15:37:34Z</time>
      </trkpt>
      <trkpt lat="48.657619000" lon="2.485400000">
        <ele>83.663</ele>
        <time>2020-07-18T15:37:36Z</time>
      </trkpt>
      <trkpt lat="48.657542000" lon="2.485262000">
        <ele>83.705</ele>
        <time>2020-07-18T15:37:38Z</time>
      </trkpt>
      <trkpt lat="48.657397000" lon="2.484792000">
        <ele>83.828</ele>
        <time>2020-07-18T15:37:46Z</time>
      </trkpt>
      <trkpt lat="48.657293000" lon="2.484363000">
        <ele>83.780</ele>
        <time>2020-07-18T15:37:54Z</time>
      </trkpt>
      <trkpt lat="48.657265000" lon="2.484208000">
        <ele>83.751</ele>
        <time>2020-07-18T15:37:57Z</time>
      </trkpt>
      <trkpt lat="48.657207000" lon="2.483708000">
        <ele>83.660</ele>
        <time>2020-07-18T15:38:07Z</time>
      </trkpt>
      <trkpt lat="48.657130000" lon="2.483405000">
        <ele>83.601</ele>
        <time>2020-07-18T15:38:13Z</time>
      </trkpt>
      <trkpt lat="48.657107000" lon="2.483264000">
        <ele>83.575</ele>
        <time>2020-07-18T15:38:18Z</time>
      </trkpt>
      <trkpt lat="48.657105000" lon="2.483093000">
        <ele>83.544</ele>
        <time>2020-07-18T15:38:23Z</time>
      </trkpt>
      <trkpt lat="48.657040000" lon="2.482810000">
        <ele>83.490</ele>
        <time>2020-07-18T15:38:30Z</time>
      </trkpt>
      <trkpt lat="48.657024000" lon="2.482666000">
        <ele>83.464</ele>
        <time>2020-07-18T15:38:34Z</time>
      </trkpt>
      <trkpt lat="48.656989000" lon="2.482489000">
        <ele>83.431</ele>
        <time>2020-07-18T15:38:38Z</time>
      </trkpt>
      <trkpt lat="48.656936000" lon="2.482344000">
        <ele>83.401</ele>
        <time>2020-07-18T15:38:42Z</time>
      </trkpt>
      <trkpt lat="48.656761000" lon="2.481556000">
        <ele>83.465</ele>
        <time>2020-07-18T15:39:02Z</time>
      </trkpt>
      <trkpt lat="48.656692000" lon="2.481444000">
        <ele>83.494</ele>
        <time>2020-07-18T15:39:04Z</time>
      </trkpt>
      <trkpt lat="48.656559000" lon="2.481116000">
        <ele>83.565</ele>
        <time>2020-07-18T15:39:07Z</time>
      </trkpt>
      <trkpt lat="48.656471000" lon="2.480987000">
        <ele>83.599</ele>
        <time>2020-07-18T15:39:09Z</time>
      </trkpt>
      <trkpt lat="48.656456000" lon="2.480848000">
        <ele>83.625</ele>
        <time>2020-07-18T15:39:13Z</time>
      </trkpt>
      <trkpt lat="48.656399000" lon="2.480726000">
        <ele>83.653</ele>
        <time>2020-07-18T15:39:21Z</time>
      </trkpt>
      <trkpt lat="48.656324000" lon="2.480440000">
        <ele>83.710</ele>
        <time>2020-07-18T15:39:34Z</time>
      </trkpt>
      <trkpt lat="48.656309000" lon="2.480082000">
        <ele>83.776</ele>
        <time>2020-07-18T15:39:43Z</time>
      </trkpt>
      <trkpt lat="48.656277000" lon="2.479932000">
        <ele>83.806</ele>
        <time>2020-07-18T15:39:47Z</time>
      </trkpt>
      <trkpt lat="48.656238000" lon="2.479610000">
        <ele>83.860</ele>
        <time>2020-07-18T15:39:55Z</time>
      </trkpt>
      <trkpt lat="48.656188000" lon="2.479461000">
        <ele>83.855</ele>
        <time>2020-07-18T15:39:58Z</time>
      </trkpt>
      <trkpt lat="48.656085000" lon="2.478997000">
        <ele>83.842</ele>
        <time>2020-07-18T15:40:06Z</time>
      </trkpt>
      <trkpt lat="48.656101000" lon="2.478861000">
        <ele>83.839</ele>
        <time>2020-07-18T15:40:08Z</time>
      </trkpt>
      <trkpt lat="48.656163000" lon="2.478720000">
        <ele>83.834</ele>
        <time>2020-07-18T15:40:11Z</time>
      </trkpt>
      <trkpt lat="48.656256000" lon="2.478668000">
        <ele>83.830</ele>
        <time>2020-07-18T15:40:14Z</time>
      </trkpt>
      <trkpt lat="48.656323000" lon="2.478557000">
        <ele>83.826</ele>
        <time>2020-07-18T15:40:17Z</time>
      </trkpt>
      <trkpt lat="48.656432000" lon="2.478444000">
        <ele>83.821</ele>
        <time>2020-07-18T15:40:21Z</time>
      </trkpt>
      <trkpt lat="48.656738000" lon="2.478036000">
        <ele>83.804</ele>
        <time>2020-07-18T15:40:38Z</time>
      </trkpt>
      <trkpt lat="48.656993000" lon="2.477736000">
        <ele>83.791</ele>
        <time>2020-07-18T15:40:51Z</time>
      </trkpt>
      <trkpt lat="48.657067000" lon="2.477616000">
        <ele>83.780</ele>
        <time>2020-07-18T15:40:56Z</time>
      </trkpt>
      <trkpt lat="48.657248000" lon="2.477450000">
        <ele>83.725</ele>
        <time>2020-07-18T15:41:04Z</time>
      </trkpt>
      <trkpt lat="48.657405000" lon="2.477280000">
        <ele>83.675</ele>
        <time>2020-07-18T15:41:11Z</time>
      </trkpt>
      <trkpt lat="48.657471000" lon="2.477160000">
        <ele>83.648</ele>
        <time>2020-07-18T15:41:14Z</time>
      </trkpt>
      <trkpt lat="48.657570000" lon="2.477107000">
        <ele>83.620</ele>
        <time>2020-07-18T15:41:17Z</time>
      </trkpt>
      <trkpt lat="48.657801000" lon="2.476823000">
        <ele>83.543</ele>
        <time>2020-07-18T15:41:27Z</time>
      </trkpt>
      <trkpt lat="48.657888000" lon="2.476775000">
        <ele>83.519</ele>
        <time>2020-07-18T15:41:29Z</time>
      </trkpt>
      <trkpt lat="48.658007000" lon="2.476744000">
        <ele>83.487</ele>
        <time>2020-07-18T15:41:32Z</time>
      </trkpt>
      <trkpt lat="48.658089000" lon="2.476654000">
        <ele>83.461</ele>
        <time>2020-07-18T15:41:35Z</time>
      </trkpt>
      <trkpt lat="48.658158000" lon="2.476556000">
        <ele>83.436</ele>
        <time>2020-07-18T15:41:38Z</time>
      </trkpt>
      <trkpt lat="48.658239000" lon="2.476492000">
        <ele>83.412</ele>
        <time>2020-07-18T15:41:41Z</time>
      </trkpt>
      <trkpt lat="48.658394000" lon="2.476296000">
        <ele>83.360</ele>
        <time>2020-07-18T15:41:47Z</time>
      </trkpt>
      <trkpt lat="48.658533000" lon="2.476092000">
        <ele>83.340</ele>
        <time>2020-07-18T15:41:53Z</time>
      </trkpt>
      <trkpt lat="48.658642000" lon="2.475995000">
        <ele>83.413</ele>
        <time>2020-07-18T15:41:57Z</time>
      </trkpt>
      <trkpt lat="48.658727000" lon="2.475896000">
        <ele>83.474</ele>
        <time>2020-07-18T15:42:01Z</time>
      </trkpt>
      <trkpt lat="48.658935000" lon="2.475683000">
        <ele>83.619</ele>
        <time>2020-07-18T15:42:09Z</time>
      </trkpt>
      <trkpt lat="48.659024000" lon="2.475613000">
        <ele>83.677</ele>
        <time>2020-07-18T15:42:12Z</time>
      </trkpt>
      <trkpt lat="48.659099000" lon="2.475537000">
        <ele>83.729</ele>
        <time>2020-07-18T15:42:15Z</time>
      </trkpt>
      <trkpt lat="48.659167000" lon="2.475446000">
        <ele>83.781</ele>
        <time>2020-07-18T15:42:18Z</time>
      </trkpt>
      <trkpt lat="48.659371000" lon="2.475262000">
        <ele>83.918</ele>
        <time>2020-07-18T15:42:24Z</time>
      </trkpt>
      <trkpt lat="48.659452000" lon="2.475172000">
        <ele>83.976</ele>
        <time>2020-07-18T15:42:27Z</time>
      </trkpt>
      <trkpt lat="48.659552000" lon="2.475142000">
        <ele>84.035</ele>
        <time>2020-07-18T15:42:30Z</time>
      </trkpt>
      <trkpt lat="48.659622000" lon="2.475041000">
        <ele>84.091</ele>
        <time>2020-07-18T15:42:34Z</time>
      </trkpt>
      <trkpt lat="48.659603000" lon="2.474908000">
        <ele>84.143</ele>
        <time>2020-07-18T15:42:38Z</time>
      </trkpt>
      <trkpt lat="48.659605000" lon="2.474753000">
        <ele>84.202</ele>
        <time>2020-07-18T15:42:43Z</time>
      </trkpt>
      <trkpt lat="48.659561000" lon="2.474591000">
        <ele>84.269</ele>
        <time>2020-07-18T15:42:48Z</time>
      </trkpt>
      <trkpt lat="48.659533000" lon="2.474449000">
        <ele>84.325</ele>
        <time>2020-07-18T15:42:52Z</time>
      </trkpt>
      <trkpt lat="48.659544000" lon="2.474311000">
        <ele>84.370</ele>
        <time>2020-07-18T15:42:56Z</time>
      </trkpt>
      <trkpt lat="48.659492000" lon="2.474183000">
        <ele>84.406</ele>
        <time>2020-07-18T15:43:00Z</time>
      </trkpt>
      <trkpt lat="48.659475000" lon="2.474025000">
        <ele>84.444</ele>
        <time>2020-07-18T15:43:05Z</time>
      </trkpt>
      <trkpt lat="48.659426000" lon="2.473908000">
        <ele>84.478</ele>
        <time>2020-07-18T15:43:12Z</time>
      </trkpt>
      <trkpt lat="48.659313000" lon="2.473332000">
        <ele>84.622</ele>
        <time>2020-07-18T15:43:31Z</time>
      </trkpt>
      <trkpt lat="48.659189000" lon="2.473071000">
        <ele>84.700</ele>
        <time>2020-07-18T15:43:39Z</time>
      </trkpt>
      <trkpt lat="48.659169000" lon="2.472925000">
        <ele>84.735</ele>
        <time>2020-07-18T15:43:44Z</time>
      </trkpt>
      <trkpt lat="48.659132000" lon="2.472795000">
        <ele>84.769</ele>
        <time>2020-07-18T15:43:49Z</time>
      </trkpt>
      <trkpt lat="48.659076000" lon="2.472490000">
        <ele>84.846</ele>
        <time>2020-07-18T15:44:02Z</time>
      </trkpt>
      <trkpt lat="48.659089000" lon="2.472348000">
        <ele>84.880</ele>
        <time>2020-07-18T15:44:08Z</time>
      </trkpt>
      <trkpt lat="48.659018000" lon="2.472068000">
        <ele>84.952</ele>
        <time>2020-07-18T15:44:20Z</time>
      </trkpt>
      <trkpt lat="48.658933000" lon="2.471988000">
        <ele>84.989</ele>
        <time>2020-07-18T15:44:34Z</time>
      </trkpt>
      <trkpt lat="48.658895000" lon="2.471822000">
        <ele>85.003</ele>
        <time>2020-07-18T15:44:43Z</time>
      </trkpt>
      <trkpt lat="48.658881000" lon="2.471657000">
        <ele>84.988</ele>
        <time>2020-07-18T15:44:48Z</time>
      </trkpt>
      <trkpt lat="48.658835000" lon="2.471507000">
        <ele>84.974</ele>
        <time>2020-07-18T15:44:52Z</time>
      </trkpt>
      <trkpt lat="48.658810000" lon="2.471174000">
        <ele>84.944</ele>
        <time>2020-07-18T15:45:04Z</time>
      </trkpt>
      <trkpt lat="48.658688000" lon="2.470763000">
        <ele>84.903</ele>
        <time>2020-07-18T15:45:22.999Z</time>
      </trkpt>
      <trkpt lat="48.658624000" lon="2.470646000">
        <ele>84.890</ele>
        <time>2020-07-18T15:45:26.999Z</time>
      </trkpt>
      <trkpt lat="48.658595000" lon="2.470488000">
        <ele>84.875</ele>
        <time>2020-07-18T15:45:31Z</time>
      </trkpt>
      <trkpt lat="48.658513000" lon="2.470227000">
        <ele>84.849</ele>
        <time>2020-07-18T15:45:42Z</time>
      </trkpt>
      <trkpt lat="48.658487000" lon="2.470093000">
        <ele>84.836</ele>
        <time>2020-07-18T15:45:50Z</time>
      </trkpt>
      <trkpt lat="48.658411000" lon="2.470006000">
        <ele>84.823</ele>
        <time>2020-07-18T15:46:03Z</time>
      </trkpt>
      <trkpt lat="48.658509000" lon="2.469893000">
        <ele>84.807</ele>
        <time>2020-07-18T15:46:14Z</time>
      </trkpt>
      <trkpt lat="48.658604000" lon="2.469863000">
        <ele>84.794</ele>
        <time>2020-07-18T15:46:17.999Z</time>
      </trkpt>
      <trkpt lat="48.658795000" lon="2.469879000">
        <ele>84.768</ele>
        <time>2020-07-18T15:46:34.999Z</time>
      </trkpt>
      <trkpt lat="48.658900000" lon="2.469871000">
        <ele>84.772</ele>
        <time>2020-07-18T15:46:38.999Z</time>
      </trkpt>
      <trkpt lat="48.658996000" lon="2.469877000">
        <ele>84.778</ele>
        <time>2020-07-18T15:46:42.999Z</time>
      </trkpt>
      <trkpt lat="48.659099000" lon="2.469858000">
        <ele>84.784</ele>
        <time>2020-07-18T15:46:47.999Z</time>
      </trkpt>
      <trkpt lat="48.659202000" lon="2.469861000">
        <ele>84.790</ele>
        <time>2020-07-18T15:46:53.999Z</time>
      </trkpt>
      <trkpt lat="48.659313000" lon="2.469821000">
        <ele>84.796</ele>
        <time>2020-07-18T15:47:01.999Z</time>
      </trkpt>
      <trkpt lat="48.659380000" lon="2.469729000">
        <ele>84.801</ele>
        <time>2020-07-18T15:47:05.999Z</time>
      </trkpt>
      <trkpt lat="48.659471000" lon="2.469661000">
        <ele>84.807</ele>
        <time>2020-07-18T15:47:08.999Z</time>
      </trkpt>
      <trkpt lat="48.659530000" lon="2.469553000">
        <ele>84.812</ele>
        <time>2020-07-18T15:47:14.999Z</time>
      </trkpt>
      <trkpt lat="48.659620000" lon="2.469541000">
        <ele>84.817</ele>
        <time>2020-07-18T15:47:19.999Z</time>
      </trkpt>
      <trkpt lat="48.659696000" lon="2.469452000">
        <ele>84.823</ele>
        <time>2020-07-18T15:47:24.999Z</time>
      </trkpt>
      <trkpt lat="48.659770000" lon="2.469346000">
        <ele>84.828</ele>
        <time>2020-07-18T15:47:28.999Z</time>
      </trkpt>
      <trkpt lat="48.659855000" lon="2.469281000">
        <ele>84.834</ele>
        <time>2020-07-18T15:47:32.999Z</time>
      </trkpt>
      <trkpt lat="48.659939000" lon="2.469177000">
        <ele>84.840</ele>
        <time>2020-07-18T15:47:37Z</time>
      </trkpt>
      <trkpt lat="48.659987000" lon="2.469027000">
        <ele>84.846</ele>
        <time>2020-07-18T15:47:41Z</time>
      </trkpt>
      <trkpt lat="48.660244000" lon="2.468675000">
        <ele>84.866</ele>
        <time>2020-07-18T15:47:55Z</time>
      </trkpt>
      <trkpt lat="48.660310000" lon="2.468554000">
        <ele>84.869</ele>
        <time>2020-07-18T15:47:58.999Z</time>
      </trkpt>
      <trkpt lat="48.660360000" lon="2.468416000">
        <ele>84.871</ele>
        <time>2020-07-18T15:48:02.999Z</time>
      </trkpt>
      <trkpt lat="48.660351000" lon="2.468275000">
        <ele>84.872</ele>
        <time>2020-07-18T15:48:08.999Z</time>
      </trkpt>
      <trkpt lat="48.660282000" lon="2.468182000">
        <ele>84.873</ele>
        <time>2020-07-18T15:48:13.999Z</time>
      </trkpt>
      <trkpt lat="48.659849000" lon="2.467721000">
        <ele>84.880</ele>
        <time>2020-07-18T15:48:33.999Z</time>
      </trkpt>
      <trkpt lat="48.659761000" lon="2.467657000">
        <ele>84.881</ele>
        <time>2020-07-18T15:48:37.999Z</time>
      </trkpt>
      <trkpt lat="48.659530000" lon="2.467392000">
        <ele>84.885</ele>
        <time>2020-07-18T15:48:49.999Z</time>
      </trkpt>
      <trkpt lat="48.659436000" lon="2.467315000">
        <ele>84.886</ele>
        <time>2020-07-18T15:48:56.999Z</time>
      </trkpt>
      <trkpt lat="48.659357000" lon="2.467207000">
        <ele>84.888</ele>
        <time>2020-07-18T15:49:02.999Z</time>
      </trkpt>
      <trkpt lat="48.659179000" lon="2.467048000">
        <ele>84.890</ele>
        <time>2020-07-18T15:49:11.999Z</time>
      </trkpt>
      <trkpt lat="48.659109000" lon="2.466944000">
        <ele>84.892</ele>
        <time>2020-07-18T15:49:15.999Z</time>
      </trkpt>
      <trkpt lat="48.659024000" lon="2.466880000">
        <ele>84.853</ele>
        <time>2020-07-18T15:49:20.999Z</time>
      </trkpt>
      <trkpt lat="48.658942000" lon="2.466773000">
        <ele>84.796</ele>
        <time>2020-07-18T15:49:26.999Z</time>
      </trkpt>
      <trkpt lat="48.658954000" lon="2.466637000">
        <ele>84.749</ele>
        <time>2020-07-18T15:49:29.999Z</time>
      </trkpt>
      <trkpt lat="48.659049000" lon="2.466391000">
        <ele>84.651</ele>
        <time>2020-07-18T15:49:35.999Z</time>
      </trkpt>
      <trkpt lat="48.659090000" lon="2.466223000">
        <ele>84.589</ele>
        <time>2020-07-18T15:49:39.999Z</time>
      </trkpt>
      <trkpt lat="48.659159000" lon="2.466087000">
        <ele>84.530</ele>
        <time>2020-07-18T15:49:43.999Z</time>
      </trkpt>
      <trkpt lat="48.659236000" lon="2.466013000">
        <ele>84.483</ele>
        <time>2020-07-18T15:49:47.999Z</time>
      </trkpt>
      <trkpt lat="48.659339000" lon="2.465939000">
        <ele>84.423</ele>
        <time>2020-07-18T15:49:53.999Z</time>
      </trkpt>
      <trkpt lat="48.659424000" lon="2.465857000">
        <ele>84.371</ele>
        <time>2020-07-18T15:49:58.999Z</time>
      </trkpt>
      <trkpt lat="48.659632000" lon="2.465843000">
        <ele>84.262</ele>
        <time>2020-07-18T15:50:08.999Z</time>
      </trkpt>
      <trkpt lat="48.659723000" lon="2.465813000">
        <ele>84.213</ele>
        <time>2020-07-18T15:50:12.999Z</time>
      </trkpt>
      <trkpt lat="48.659865000" lon="2.465590000">
        <ele>84.107</ele>
        <time>2020-07-18T15:50:20.999Z</time>
      </trkpt>
      <trkpt lat="48.659920000" lon="2.465448000">
        <ele>84.050</ele>
        <time>2020-07-18T15:50:24.999Z</time>
      </trkpt>
      <trkpt lat="48.659988000" lon="2.465322000">
        <ele>83.994</ele>
        <time>2020-07-18T15:50:28.999Z</time>
      </trkpt>
      <trkpt lat="48.660037000" lon="2.465187000">
        <ele>83.951</ele>
        <time>2020-07-18T15:50:34.999Z</time>
      </trkpt>
      <trkpt lat="48.660090000" lon="2.465076000">
        <ele>83.940</ele>
        <time>2020-07-18T15:50:38.999Z</time>
      </trkpt>
      <trkpt lat="48.660277000" lon="2.464944000">
        <ele>83.916</ele>
        <time>2020-07-18T15:50:47.999Z</time>
      </trkpt>
      <trkpt lat="48.660337000" lon="2.464816000">
        <ele>83.903</ele>
        <time>2020-07-18T15:50:52.999Z</time>
      </trkpt>
      <trkpt lat="48.660430000" lon="2.464749000">
        <ele>83.891</ele>
        <time>2020-07-18T15:50:58.999Z</time>
      </trkpt>
      <trkpt lat="48.660505000" lon="2.464661000">
        <ele>83.880</ele>
        <time>2020-07-18T15:51:01.999Z</time>
      </trkpt>
      <trkpt lat="48.660645000" lon="2.464442000">
        <ele>83.856</ele>
        <time>2020-07-18T15:51:07.999Z</time>
      </trkpt>
      <trkpt lat="48.660746000" lon="2.464352000">
        <ele>83.842</ele>
        <time>2020-07-18T15:51:11.999Z</time>
      </trkpt>
      <trkpt lat="48.660904000" lon="2.464156000">
        <ele>83.817</ele>
        <time>2020-07-18T15:51:22.999Z</time>
      </trkpt>
      <trkpt lat="48.661100000" lon="2.463991000">
        <ele>83.790</ele>
        <time>2020-07-18T15:51:29.999Z</time>
      </trkpt>
      <trkpt lat="48.661257000" lon="2.463812000">
        <ele>83.767</ele>
        <time>2020-07-18T15:51:35.999Z</time>
      </trkpt>
      <trkpt lat="48.661412000" lon="2.463585000">
        <ele>83.741</ele>
        <time>2020-07-18T15:51:43.999Z</time>
      </trkpt>
      <trkpt lat="48.661403000" lon="2.463435000">
        <ele>83.775</ele>
        <time>2020-07-18T15:51:48Z</time>
      </trkpt>
      <trkpt lat="48.661414000" lon="2.463257000">
        <ele>83.824</ele>
        <time>2020-07-18T15:51:53Z</time>
      </trkpt>
      <trkpt lat="48.661470000" lon="2.462923000">
        <ele>83.920</ele>
        <time>2020-07-18T15:52:02Z</time>
      </trkpt>
      <trkpt lat="48.661541000" lon="2.462664000">
        <ele>83.998</ele>
        <time>2020-07-18T15:52:09Z</time>
      </trkpt>
      <trkpt lat="48.661562000" lon="2.462495000">
        <ele>84.046</ele>
        <time>2020-07-18T15:52:11.999Z</time>
      </trkpt>
      <trkpt lat="48.661557000" lon="2.462306000">
        <ele>84.098</ele>
        <time>2020-07-18T15:52:14.999Z</time>
      </trkpt>
      <trkpt lat="48.661562000" lon="2.462142000">
        <ele>84.144</ele>
        <time>2020-07-18T15:52:21.999Z</time>
      </trkpt>
      <trkpt lat="48.661660000" lon="2.461732000">
        <ele>84.265</ele>
        <time>2020-07-18T15:52:34.999Z</time>
      </trkpt>
      <trkpt lat="48.661643000" lon="2.461579000">
        <ele>84.308</ele>
        <time>2020-07-18T15:52:37.999Z</time>
      </trkpt>
      <trkpt lat="48.661648000" lon="2.461394000">
        <ele>84.359</ele>
        <time>2020-07-18T15:52:42.999Z</time>
      </trkpt>
      <trkpt lat="48.661674000" lon="2.461256000">
        <ele>84.399</ele>
        <time>2020-07-18T15:52:46.999Z</time>
      </trkpt>
      <trkpt lat="48.661676000" lon="2.461113000">
        <ele>84.439</ele>
        <time>2020-07-18T15:52:50.999Z</time>
      </trkpt>
      <trkpt lat="48.661759000" lon="2.460633000">
        <ele>84.527</ele>
        <time>2020-07-18T15:53:02.999Z</time>
      </trkpt>
      <trkpt lat="48.661735000" lon="2.460496000">
        <ele>84.542</ele>
        <time>2020-07-18T15:53:04.999Z</time>
      </trkpt>
      <trkpt lat="48.661673000" lon="2.460281000">
        <ele>84.568</ele>
        <time>2020-07-18T15:53:07.999Z</time>
      </trkpt>
      <trkpt lat="48.661694000" lon="2.460124000">
        <ele>84.585</ele>
        <time>2020-07-18T15:53:09.999Z</time>
      </trkpt>
      <trkpt lat="48.661674000" lon="2.459954000">
        <ele>84.604</ele>
        <time>2020-07-18T15:53:11.999Z</time>
      </trkpt>
      <trkpt lat="48.661673000" lon="2.459591000">
        <ele>84.643</ele>
        <time>2020-07-18T15:53:15.999Z</time>
      </trkpt>
      <trkpt lat="48.661659000" lon="2.459416000">
        <ele>84.662</ele>
        <time>2020-07-18T15:53:18.999Z</time>
      </trkpt>
      <trkpt lat="48.661681000" lon="2.459103000">
        <ele>84.697</ele>
        <time>2020-07-18T15:53:24.999Z</time>
      </trkpt>
      <trkpt lat="48.661713000" lon="2.458975000">
        <ele>84.712</ele>
        <time>2020-07-18T15:53:27.999Z</time>
      </trkpt>
      <trkpt lat="48.661722000" lon="2.458658000">
        <ele>84.746</ele>
        <time>2020-07-18T15:53:33.999Z</time>
      </trkpt>
      <trkpt lat="48.661746000" lon="2.458360000">
        <ele>84.779</ele>
        <time>2020-07-18T15:53:40.999Z</time>
      </trkpt>
      <trkpt lat="48.661715000" lon="2.458217000">
        <ele>84.790</ele>
        <time>2020-07-18T15:53:42.999Z</time>
      </trkpt>
      <trkpt lat="48.661695000" lon="2.458033000">
        <ele>84.786</ele>
        <time>2020-07-18T15:53:46.999Z</time>
      </trkpt>
      <trkpt lat="48.661700000" lon="2.457856000">
        <ele>84.782</ele>
        <time>2020-07-18T15:53:49.999Z</time>
      </trkpt>
      <trkpt lat="48.661721000" lon="2.457721000">
        <ele>84.779</ele>
        <time>2020-07-18T15:53:53Z</time>
      </trkpt>
      <trkpt lat="48.661708000" lon="2.457385000">
        <ele>84.772</ele>
        <time>2020-07-18T15:54:00Z</time>
      </trkpt>
      <trkpt lat="48.661750000" lon="2.457063000">
        <ele>84.765</ele>
        <time>2020-07-18T15:54:11Z</time>
      </trkpt>
      <trkpt lat="48.661773000" lon="2.456744000">
        <ele>84.758</ele>
        <time>2020-07-18T15:54:19Z</time>
      </trkpt>
      <trkpt lat="48.661804000" lon="2.456509000">
        <ele>84.753</ele>
        <time>2020-07-18T15:54:24Z</time>
      </trkpt>
      <trkpt lat="48.661760000" lon="2.456366000">
        <ele>84.750</ele>
        <time>2020-07-18T15:54:26.999Z</time>
      </trkpt>
      <trkpt lat="48.661748000" lon="2.456220000">
        <ele>84.747</ele>
        <time>2020-07-18T15:54:29.999Z</time>
      </trkpt>
      <trkpt lat="48.661771000" lon="2.456085000">
        <ele>84.744</ele>
        <time>2020-07-18T15:54:31.999Z</time>
      </trkpt>
      <trkpt lat="48.661775000" lon="2.455732000">
        <ele>84.736</ele>
        <time>2020-07-18T15:54:37.999Z</time>
      </trkpt>
      <trkpt lat="48.661753000" lon="2.455383000">
        <ele>84.726</ele>
        <time>2020-07-18T15:54:43.999Z</time>
      </trkpt>
      <trkpt lat="48.661755000" lon="2.455200000">
        <ele>84.720</ele>
        <time>2020-07-18T15:54:46.999Z</time>
      </trkpt>
      <trkpt lat="48.661743000" lon="2.455053000">
        <ele>84.715</ele>
        <time>2020-07-18T15:54:49.999Z</time>
      </trkpt>
      <trkpt lat="48.661761000" lon="2.454882000">
        <ele>84.709</ele>
        <time>2020-07-18T15:54:53.999Z</time>
      </trkpt>
      <trkpt lat="48.661751000" lon="2.454719000">
        <ele>84.703</ele>
        <time>2020-07-18T15:54:56.999Z</time>
      </trkpt>
      <trkpt lat="48.661743000" lon="2.454234000">
        <ele>84.687</ele>
        <time>2020-07-18T15:55:06.999Z</time>
      </trkpt>
      <trkpt lat="48.661767000" lon="2.453906000">
        <ele>84.675</ele>
        <time>2020-07-18T15:55:14.999Z</time>
      </trkpt>
      <trkpt lat="48.661819000" lon="2.453585000">
        <ele>84.664</ele>
        <time>2020-07-18T15:55:20.999Z</time>
      </trkpt>
      <trkpt lat="48.661877000" lon="2.453305000">
        <ele>84.654</ele>
        <time>2020-07-18T15:55:26.999Z</time>
      </trkpt>
      <trkpt lat="48.661915000" lon="2.452996000">
        <ele>84.643</ele>
        <time>2020-07-18T15:55:36.999Z</time>
      </trkpt>
      <trkpt lat="48.661963000" lon="2.452866000">
        <ele>84.642</ele>
        <time>2020-07-18T15:55:40.999Z</time>
      </trkpt>
      <trkpt lat="48.661971000" lon="2.452689000">
        <ele>84.652</ele>
        <time>2020-07-18T15:55:44.999Z</time>
      </trkpt>
      <trkpt lat="48.661964000" lon="2.452501000">
        <ele>84.664</ele>
        <time>2020-07-18T15:55:48.999Z</time>
      </trkpt>
      <trkpt lat="48.661937000" lon="2.452352000">
        <ele>84.673</ele>
        <time>2020-07-18T15:55:51.999Z</time>
      </trkpt>
      <trkpt lat="48.661940000" lon="2.452211000">
        <ele>84.682</ele>
        <time>2020-07-18T15:55:55.999Z</time>
      </trkpt>
      <trkpt lat="48.661976000" lon="2.451927000">
        <ele>84.699</ele>
        <time>2020-07-18T15:56:03Z</time>
      </trkpt>
      <trkpt lat="48.661984000" lon="2.451621000">
        <ele>84.718</ele>
        <time>2020-07-18T15:56:10Z</time>
      </trkpt>
      <trkpt lat="48.661999000" lon="2.451476000">
        <ele>84.727</ele>
        <time>2020-07-18T15:56:14Z</time>
      </trkpt>
      <trkpt lat="48.661980000" lon="2.451297000">
        <ele>84.738</ele>
        <time>2020-07-18T15:56:17Z</time>
      </trkpt>
      <trkpt lat="48.662047000" lon="2.450802000">
        <ele>84.769</ele>
        <time>2020-07-18T15:56:28.999Z</time>
      </trkpt>
      <trkpt lat="48.662072000" lon="2.450670000">
        <ele>84.777</ele>
        <time>2020-07-18T15:56:31.999Z</time>
      </trkpt>
      <trkpt lat="48.662075000" lon="2.450477000">
        <ele>84.789</ele>
        <time>2020-07-18T15:56:35.999Z</time>
      </trkpt>
      <trkpt lat="48.662125000" lon="2.450321000">
        <ele>84.800</ele>
        <time>2020-07-18T15:56:39.999Z</time>
      </trkpt>
      <trkpt lat="48.662088000" lon="2.450169000">
        <ele>84.806</ele>
        <time>2020-07-18T15:56:42.999Z</time>
      </trkpt>
      <trkpt lat="48.662118000" lon="2.450022000">
        <ele>84.808</ele>
        <time>2020-07-18T15:56:45.999Z</time>
      </trkpt>
      <trkpt lat="48.662109000" lon="2.449814000">
        <ele>84.810</ele>
        <time>2020-07-18T15:56:49.999Z</time>
      </trkpt>
      <trkpt lat="48.662114000" lon="2.449665000">
        <ele>84.812</ele>
        <time>2020-07-18T15:56:52.999Z</time>
      </trkpt>
      <trkpt lat="48.662097000" lon="2.449516000">
        <ele>84.814</ele>
        <time>2020-07-18T15:56:55.999Z</time>
      </trkpt>
      <trkpt lat="48.662091000" lon="2.449350000">
        <ele>84.816</ele>
        <time>2020-07-18T15:56:59.999Z</time>
      </trkpt>
      <trkpt lat="48.662095000" lon="2.449189000">
        <ele>84.818</ele>
        <time>2020-07-18T15:57:02.999Z</time>
      </trkpt>
      <trkpt lat="48.662042000" lon="2.449010000">
        <ele>84.820</ele>
        <time>2020-07-18T15:57:04.999Z</time>
      </trkpt>
      <trkpt lat="48.661979000" lon="2.448872000">
        <ele>84.822</ele>
        <time>2020-07-18T15:57:07.999Z</time>
      </trkpt>
      <trkpt lat="48.662002000" lon="2.448685000">
        <ele>84.825</ele>
        <time>2020-07-18T15:57:10.999Z</time>
      </trkpt>
      <trkpt lat="48.661997000" lon="2.448501000">
        <ele>84.827</ele>
        <time>2020-07-18T15:57:13.999Z</time>
      </trkpt>
      <trkpt lat="48.661971000" lon="2.448323000">
        <ele>84.829</ele>
        <time>2020-07-18T15:57:16.999Z</time>
      </trkpt>
      <trkpt lat="48.661956000" lon="2.448137000">
        <ele>84.831</ele>
        <time>2020-07-18T15:57:19.999Z</time>
      </trkpt>
      <trkpt lat="48.661955000" lon="2.447999000">
        <ele>84.833</ele>
        <time>2020-07-18T15:57:21.999Z</time>
      </trkpt>
      <trkpt lat="48.661977000" lon="2.447711000">
        <ele>84.836</ele>
        <time>2020-07-18T15:57:28.999Z</time>
      </trkpt>
      <trkpt lat="48.662004000" lon="2.447567000">
        <ele>84.832</ele>
        <time>2020-07-18T15:57:32.999Z</time>
      </trkpt>
      <trkpt lat="48.662023000" lon="2.447375000">
        <ele>84.782</ele>
        <time>2020-07-18T15:57:37.999Z</time>
      </trkpt>
      <trkpt lat="48.662061000" lon="2.447209000">
        <ele>84.737</ele>
        <time>2020-07-18T15:57:42.999Z</time>
      </trkpt>
      <trkpt lat="48.662037000" lon="2.446854000">
        <ele>84.646</ele>
        <time>2020-07-18T15:57:49.999Z</time>
      </trkpt>
      <trkpt lat="48.662034000" lon="2.446694000">
        <ele>84.606</ele>
        <time>2020-07-18T15:57:53.999Z</time>
      </trkpt>
      <trkpt lat="48.662003000" lon="2.446561000">
        <ele>84.570</ele>
        <time>2020-07-18T15:57:56.999Z</time>
      </trkpt>
      <trkpt lat="48.662009000" lon="2.446424000">
        <ele>84.535</ele>
        <time>2020-07-18T15:57:58.999Z</time>
      </trkpt>
      <trkpt lat="48.662033000" lon="2.446237000">
        <ele>84.486</ele>
        <time>2020-07-18T15:58:01.999Z</time>
      </trkpt>
      <trkpt lat="48.662052000" lon="2.445952000">
        <ele>84.413</ele>
        <time>2020-07-18T15:58:08Z</time>
      </trkpt>
      <trkpt lat="48.662075000" lon="2.445811000">
        <ele>84.376</ele>
        <time>2020-07-18T15:58:11Z</time>
      </trkpt>
      <trkpt lat="48.662133000" lon="2.445652000">
        <ele>84.330</ele>
        <time>2020-07-18T15:58:15Z</time>
      </trkpt>
      <trkpt lat="48.662168000" lon="2.445523000">
        <ele>84.294</ele>
        <time>2020-07-18T15:58:18Z</time>
      </trkpt>
      <trkpt lat="48.662342000" lon="2.445312000">
        <ele>84.208</ele>
        <time>2020-07-18T15:58:27Z</time>
      </trkpt>
      <trkpt lat="48.662518000" lon="2.445175000">
        <ele>84.151</ele>
        <time>2020-07-18T15:58:35.999Z</time>
      </trkpt>
      <trkpt lat="48.662596000" lon="2.445086000">
        <ele>84.174</ele>
        <time>2020-07-18T15:58:40.999Z</time>
      </trkpt>
      <trkpt lat="48.662699000" lon="2.445071000">
        <ele>84.199</ele>
        <time>2020-07-18T15:58:45.999Z</time>
      </trkpt>
      <trkpt lat="48.662898000" lon="2.444975000">
        <ele>84.249</ele>
        <time>2020-07-18T15:58:52.999Z</time>
      </trkpt>
      <trkpt lat="48.662992000" lon="2.444985000">
        <ele>84.271</ele>
        <time>2020-07-18T15:58:56.999Z</time>
      </trkpt>
      <trkpt lat="48.663091000" lon="2.445059000">
        <ele>84.297</ele>
        <time>2020-07-18T15:59:00.999Z</time>
      </trkpt>
      <trkpt lat="48.663129000" lon="2.445204000">
        <ele>84.322</ele>
        <time>2020-07-18T15:59:04.999Z</time>
      </trkpt>
      <trkpt lat="48.663226000" lon="2.445266000">
        <ele>84.347</ele>
        <time>2020-07-18T15:59:07.999Z</time>
      </trkpt>
      <trkpt lat="48.663302000" lon="2.445404000">
        <ele>84.375</ele>
        <time>2020-07-18T15:59:11.999Z</time>
      </trkpt>
      <trkpt lat="48.663377000" lon="2.445516000">
        <ele>84.400</ele>
        <time>2020-07-18T15:59:15.999Z</time>
      </trkpt>
      <trkpt lat="48.663482000" lon="2.445523000">
        <ele>84.425</ele>
        <time>2020-07-18T15:59:19.999Z</time>
      </trkpt>
      <trkpt lat="48.663585000" lon="2.445435000">
        <ele>84.453</ele>
        <time>2020-07-18T15:59:23.999Z</time>
      </trkpt>
      <trkpt lat="48.663668000" lon="2.445315000">
        <ele>84.480</ele>
        <time>2020-07-18T15:59:27.999Z</time>
      </trkpt>
      <trkpt lat="48.663747000" lon="2.445246000">
        <ele>84.502</ele>
        <time>2020-07-18T15:59:31.999Z</time>
      </trkpt>
      <trkpt lat="48.663891000" lon="2.445375000">
        <ele>84.542</ele>
        <time>2020-07-18T15:59:34.999Z</time>
      </trkpt>
      <trkpt lat="48.663949000" lon="2.445504000">
        <ele>84.566</ele>
        <time>2020-07-18T15:59:38.999Z</time>
      </trkpt>
      <trkpt lat="48.664030000" lon="2.445584000">
        <ele>84.569</ele>
        <time>2020-07-18T15:59:41.999Z</time>
      </trkpt>
      <trkpt lat="48.664130000" lon="2.445645000">
        <ele>84.567</ele>
        <time>2020-07-18T15:59:44.999Z</time>
      </trkpt>
      <trkpt lat="48.664223000" lon="2.445589000">
        <ele>84.566</ele>
        <time>2020-07-18T15:59:47.999Z</time>
      </trkpt>
      <trkpt lat="48.664301000" lon="2.445493000">
        <ele>84.564</ele>
        <time>2020-07-18T15:59:51.999Z</time>
      </trkpt>
      <trkpt lat="48.664393000" lon="2.445403000">
        <ele>84.562</ele>
        <time>2020-07-18T15:59:55.999Z</time>
      </trkpt>
      <trkpt lat="48.664470000" lon="2.445277000">
        <ele>84.560</ele>
        <time>2020-07-18T15:59:59.999Z</time>
      </trkpt>
      <trkpt lat="48.664595000" lon="2.445211000">
        <ele>84.557</ele>
        <time>2020-07-18T16:00:04.999Z</time>
      </trkpt>
      <trkpt lat="48.664765000" lon="2.445044000">
        <ele>84.553</ele>
        <time>2020-07-18T16:00:13Z</time>
      </trkpt>
      <trkpt lat="48.664875000" lon="2.445037000">
        <ele>84.551</ele>
        <time>2020-07-18T16:00:16Z</time>
      </trkpt>
      <trkpt lat="48.664972000" lon="2.445012000">
        <ele>84.549</ele>
        <time>2020-07-18T16:00:18Z</time>
      </trkpt>
      <trkpt lat="48.665066000" lon="2.444967000">
        <ele>84.548</ele>
        <time>2020-07-18T16:00:20Z</time>
      </trkpt>
      <trkpt lat="48.665475000" lon="2.444909000">
        <ele>84.540</ele>
        <time>2020-07-18T16:00:33Z</time>
      </trkpt>
      <trkpt lat="48.665676000" lon="2.444807000">
        <ele>84.587</ele>
        <time>2020-07-18T16:00:41.999Z</time>
      </trkpt>
      <trkpt lat="48.665775000" lon="2.444831000">
        <ele>84.654</ele>
        <time>2020-07-18T16:00:44.999Z</time>
      </trkpt>
      <trkpt lat="48.665999000" lon="2.444761000">
        <ele>84.806</ele>
        <time>2020-07-18T16:00:53.999Z</time>
      </trkpt>
      <trkpt lat="48.666111000" lon="2.444800000">
        <ele>84.883</ele>
        <time>2020-07-18T16:00:56.999Z</time>
      </trkpt>
      <trkpt lat="48.666324000" lon="2.444725000">
        <ele>85.028</ele>
        <time>2020-07-18T16:01:03.999Z</time>
      </trkpt>
      <trkpt lat="48.666426000" lon="2.444735000">
        <ele>85.097</ele>
        <time>2020-07-18T16:01:07.999Z</time>
      </trkpt>
      <trkpt lat="48.666519000" lon="2.444764000">
        <ele>85.160</ele>
        <time>2020-07-18T16:01:10.999Z</time>
      </trkpt>
      <trkpt lat="48.666650000" lon="2.444748000">
        <ele>85.248</ele>
        <time>2020-07-18T16:01:13.999Z</time>
      </trkpt>
      <trkpt lat="48.666768000" lon="2.444825000">
        <ele>85.333</ele>
        <time>2020-07-18T16:01:16.999Z</time>
      </trkpt>
      <trkpt lat="48.666889000" lon="2.444883000">
        <ele>85.418</ele>
        <time>2020-07-18T16:01:18.999Z</time>
      </trkpt>
      <trkpt lat="48.667038000" lon="2.444844000">
        <ele>85.519</ele>
        <time>2020-07-18T16:01:21.999Z</time>
      </trkpt>
      <trkpt lat="48.667229000" lon="2.444813000">
        <ele>85.647</ele>
        <time>2020-07-18T16:01:27.999Z</time>
      </trkpt>
      <trkpt lat="48.667552000" lon="2.444802000">
        <ele>85.725</ele>
        <time>2020-07-18T16:01:38.999Z</time>
      </trkpt>
      <trkpt lat="48.667665000" lon="2.444816000">
        <ele>85.719</ele>
        <time>2020-07-18T16:01:42.999Z</time>
      </trkpt>
      <trkpt lat="48.667873000" lon="2.444757000">
        <ele>85.706</ele>
        <time>2020-07-18T16:01:50.999Z</time>
      </trkpt>
      <trkpt lat="48.667993000" lon="2.444769000">
        <ele>85.699</ele>
        <time>2020-07-18T16:01:54.999Z</time>
      </trkpt>
      <trkpt lat="48.668091000" lon="2.444798000">
        <ele>85.693</ele>
        <time>2020-07-18T16:01:58.999Z</time>
      </trkpt>
      <trkpt lat="48.668292000" lon="2.444792000">
        <ele>85.682</ele>
        <time>2020-07-18T16:02:05.999Z</time>
      </trkpt>
      <trkpt lat="48.668383000" lon="2.444858000">
        <ele>85.676</ele>
        <time>2020-07-18T16:02:08.999Z</time>
      </trkpt>
      <trkpt lat="48.668488000" lon="2.444872000">
        <ele>85.670</ele>
        <time>2020-07-18T16:02:11.999Z</time>
      </trkpt>
      <trkpt lat="48.668596000" lon="2.444938000">
        <ele>85.663</ele>
        <time>2020-07-18T16:02:14.999Z</time>
      </trkpt>
      <trkpt lat="48.668706000" lon="2.444884000">
        <ele>85.656</ele>
        <time>2020-07-18T16:02:18.999Z</time>
      </trkpt>
      <trkpt lat="48.668783000" lon="2.444760000">
        <ele>85.650</ele>
        <time>2020-07-18T16:02:24Z</time>
      </trkpt>
      <trkpt lat="48.668959000" lon="2.444616000">
        <ele>85.638</ele>
        <time>2020-07-18T16:02:29.999Z</time>
      </trkpt>
      <trkpt lat="48.669040000" lon="2.444504000">
        <ele>85.632</ele>
        <time>2020-07-18T16:02:33.999Z</time>
      </trkpt>
      <trkpt lat="48.669082000" lon="2.444382000">
        <ele>85.631</ele>
        <time>2020-07-18T16:02:38.999Z</time>
      </trkpt>
      <trkpt lat="48.669114000" lon="2.444226000">
        <ele>85.630</ele>
        <time>2020-07-18T16:02:42.999Z</time>
      </trkpt>
      <trkpt lat="48.669254000" lon="2.444025000">
        <ele>85.629</ele>
        <time>2020-07-18T16:02:48.999Z</time>
      </trkpt>
      <trkpt lat="48.669249000" lon="2.443734000">
        <ele>85.628</ele>
        <time>2020-07-18T16:02:59.999Z</time>
      </trkpt>
      <trkpt lat="48.669273000" lon="2.443555000">
        <ele>85.628</ele>
        <time>2020-07-18T16:03:05.999Z</time>
      </trkpt>
      <trkpt lat="48.669342000" lon="2.443434000">
        <ele>85.627</ele>
        <time>2020-07-18T16:03:12.999Z</time>
      </trkpt>
      <trkpt lat="48.669437000" lon="2.443351000">
        <ele>85.627</ele>
        <time>2020-07-18T16:03:16.999Z</time>
      </trkpt>
      <trkpt lat="48.669627000" lon="2.443309000">
        <ele>85.626</ele>
        <time>2020-07-18T16:03:28.999Z</time>
      </trkpt>
      <trkpt lat="48.669683000" lon="2.443176000">
        <ele>85.625</ele>
        <time>2020-07-18T16:03:33.999Z</time>
      </trkpt>
      <trkpt lat="48.669715000" lon="2.443047000">
        <ele>85.625</ele>
        <time>2020-07-18T16:03:37.999Z</time>
      </trkpt>
      <trkpt lat="48.669726000" lon="2.442892000">
        <ele>85.624</ele>
        <time>2020-07-18T16:03:41.999Z</time>
      </trkpt>
      <trkpt lat="48.669760000" lon="2.442742000">
        <ele>85.624</ele>
        <time>2020-07-18T16:03:46.999Z</time>
      </trkpt>
      <trkpt lat="48.669836000" lon="2.442664000">
        <ele>85.623</ele>
        <time>2020-07-18T16:03:50.999Z</time>
      </trkpt>
      <trkpt lat="48.669925000" lon="2.442766000">
        <ele>85.622</ele>
        <time>2020-07-18T16:03:53.999Z</time>
      </trkpt>
      <trkpt lat="48.670220000" lon="2.442901000">
        <ele>85.583</ele>
        <time>2020-07-18T16:04:03.999Z</time>
      </trkpt>
      <trkpt lat="48.670322000" lon="2.442903000">
        <ele>85.565</ele>
        <time>2020-07-18T16:04:10.999Z</time>
      </trkpt>
      <trkpt lat="48.670489000" lon="2.442655000">
        <ele>85.524</ele>
        <time>2020-07-18T16:04:18.999Z</time>
      </trkpt>
      <trkpt lat="48.670564000" lon="2.442559000">
        <ele>85.506</ele>
        <time>2020-07-18T16:04:21.999Z</time>
      </trkpt>
      <trkpt lat="48.670710000" lon="2.442321000">
        <ele>85.469</ele>
        <time>2020-07-18T16:04:29.999Z</time>
      </trkpt>
      <trkpt lat="48.670816000" lon="2.442215000">
        <ele>85.446</ele>
        <time>2020-07-18T16:04:32.999Z</time>
      </trkpt>
      <trkpt lat="48.670931000" lon="2.442130000">
        <ele>85.424</ele>
        <time>2020-07-18T16:04:35.999Z</time>
      </trkpt>
      <trkpt lat="48.671015000" lon="2.442015000">
        <ele>85.404</ele>
        <time>2020-07-18T16:04:38.999Z</time>
      </trkpt>
      <trkpt lat="48.671102000" lon="2.441925000">
        <ele>85.386</ele>
        <time>2020-07-18T16:04:42.999Z</time>
      </trkpt>
      <trkpt lat="48.671189000" lon="2.441864000">
        <ele>85.369</ele>
        <time>2020-07-18T16:04:45.999Z</time>
      </trkpt>
      <trkpt lat="48.671270000" lon="2.441786000">
        <ele>85.352</ele>
        <time>2020-07-18T16:04:49.999Z</time>
      </trkpt>
      <trkpt lat="48.671361000" lon="2.441680000">
        <ele>85.332</ele>
        <time>2020-07-18T16:04:53.999Z</time>
      </trkpt>
      <trkpt lat="48.671476000" lon="2.441655000">
        <ele>85.311</ele>
        <time>2020-07-18T16:04:58.999Z</time>
      </trkpt>
      <trkpt lat="48.671561000" lon="2.441550000">
        <ele>85.281</ele>
        <time>2020-07-18T16:05:03.999Z</time>
      </trkpt>
      <trkpt lat="48.671633000" lon="2.441432000">
        <ele>85.247</ele>
        <time>2020-07-18T16:05:06.999Z</time>
      </trkpt>
      <trkpt lat="48.671649000" lon="2.441273000">
        <ele>85.213</ele>
        <time>2020-07-18T16:05:09.999Z</time>
      </trkpt>
      <trkpt lat="48.671549000" lon="2.441269000">
        <ele>85.182</ele>
        <time>2020-07-18T16:05:16.999Z</time>
      </trkpt>
      <trkpt lat="48.671454000" lon="2.441155000">
        <ele>85.143</ele>
        <time>2020-07-18T16:05:19.999Z</time>
      </trkpt>
      <trkpt lat="48.671350000" lon="2.440875000">
        <ele>85.076</ele>
        <time>2020-07-18T16:05:26.999Z</time>
      </trkpt>
      <trkpt lat="48.671274000" lon="2.440763000">
        <ele>85.042</ele>
        <time>2020-07-18T16:05:30.999Z</time>
      </trkpt>
      <trkpt lat="48.671137000" lon="2.440521000">
        <ele>84.975</ele>
        <time>2020-07-18T16:05:38.999Z</time>
      </trkpt>
      <trkpt lat="48.671071000" lon="2.440376000">
        <ele>84.939</ele>
        <time>2020-07-18T16:05:42.999Z</time>
      </trkpt>
      <trkpt lat="48.670996000" lon="2.440299000">
        <ele>84.910</ele>
        <time>2020-07-18T16:05:45.999Z</time>
      </trkpt>
      <trkpt lat="48.670777000" lon="2.439984000">
        <ele>84.814</ele>
        <time>2020-07-18T16:05:59.999Z</time>
      </trkpt>
      <trkpt lat="48.670598000" lon="2.439804000">
        <ele>84.746</ele>
        <time>2020-07-18T16:06:09.999Z</time>
      </trkpt>
      <trkpt lat="48.670548000" lon="2.439687000">
        <ele>84.722</ele>
        <time>2020-07-18T16:06:12.999Z</time>
      </trkpt>
      <trkpt lat="48.670204000" lon="2.439181000">
        <ele>84.617</ele>
        <time>2020-07-18T16:06:25.999Z</time>
      </trkpt>
      <trkpt lat="48.670077000" lon="2.438952000">
        <ele>84.573</ele>
        <time>2020-07-18T16:06:32.999Z</time>
      </trkpt>
      <trkpt lat="48.669988000" lon="2.438836000">
        <ele>84.547</ele>
        <time>2020-07-18T16:06:37.999Z</time>
      </trkpt>
      <trkpt lat="48.669861000" lon="2.438616000">
        <ele>84.505</ele>
        <time>2020-07-18T16:06:43.999Z</time>
      </trkpt>
      <trkpt lat="48.669759000" lon="2.438500000">
        <ele>84.476</ele>
        <time>2020-07-18T16:06:47.999Z</time>
      </trkpt>
      <trkpt lat="48.669667000" lon="2.438376000">
        <ele>84.449</ele>
        <time>2020-07-18T16:06:51.999Z</time>
      </trkpt>
      <trkpt lat="48.669586000" lon="2.438222000">
        <ele>84.421</ele>
        <time>2020-07-18T16:06:55.999Z</time>
      </trkpt>
      <trkpt lat="48.669545000" lon="2.438086000">
        <ele>84.399</ele>
        <time>2020-07-18T16:06:59.999Z</time>
      </trkpt>
      <trkpt lat="48.669515000" lon="2.437775000">
        <ele>84.353</ele>
        <time>2020-07-18T16:07:05.999Z</time>
      </trkpt>
      <trkpt lat="48.669486000" lon="2.437634000">
        <ele>84.322</ele>
        <time>2020-07-18T16:07:07.999Z</time>
      </trkpt>
      <trkpt lat="48.669506000" lon="2.437321000">
        <ele>84.223</ele>
        <time>2020-07-18T16:07:15.999Z</time>
      </trkpt>
      <trkpt lat="48.669525000" lon="2.437160000">
        <ele>84.171</ele>
        <time>2020-07-18T16:07:20.999Z</time>
      </trkpt>
      <trkpt lat="48.669525000" lon="2.437014000">
        <ele>84.125</ele>
        <time>2020-07-18T16:07:23.999Z</time>
      </trkpt>
      <trkpt lat="48.669483000" lon="2.436825000">
        <ele>84.062</ele>
        <time>2020-07-18T16:07:26.999Z</time>
      </trkpt>
      <trkpt lat="48.669420000" lon="2.436671000">
        <ele>84.004</ele>
        <time>2020-07-18T16:07:30.999Z</time>
      </trkpt>
      <trkpt lat="48.669296000" lon="2.436508000">
        <ele>83.926</ele>
        <time>2020-07-18T16:07:32.999Z</time>
      </trkpt>
      <trkpt lat="48.669228000" lon="2.436363000">
        <ele>83.869</ele>
        <time>2020-07-18T16:07:33.999Z</time>
      </trkpt>
      <trkpt lat="48.669180000" lon="2.436180000">
        <ele>83.807</ele>
        <time>2020-07-18T16:07:35.999Z</time>
      </trkpt>
      <trkpt lat="48.668962000" lon="2.435788000">
        <ele>83.645</ele>
        <time>2020-07-18T16:07:41.999Z</time>
      </trkpt>
      <trkpt lat="48.668907000" lon="2.435665000">
        <ele>83.598</ele>
        <time>2020-07-18T16:07:43.999Z</time>
      </trkpt>
      <trkpt lat="48.668824000" lon="2.435538000">
        <ele>83.541</ele>
        <time>2020-07-18T16:07:46.999Z</time>
      </trkpt>
      <trkpt lat="48.668905000" lon="2.435236000">
        <ele>83.448</ele>
        <time>2020-07-18T16:07:51.999Z</time>
      </trkpt>
      <trkpt lat="48.668961000" lon="2.435096000">
        <ele>83.409</ele>
        <time>2020-07-18T16:07:54.999Z</time>
      </trkpt>
      <trkpt lat="48.669044000" lon="2.434978000">
        <ele>83.368</ele>
        <time>2020-07-18T16:07:57.999Z</time>
      </trkpt>
      <trkpt lat="48.669178000" lon="2.434675000">
        <ele>83.282</ele>
        <time>2020-07-18T16:08:03.999Z</time>
      </trkpt>
      <trkpt lat="48.669249000" lon="2.434540000">
        <ele>83.242</ele>
        <time>2020-07-18T16:08:06.999Z</time>
      </trkpt>
      <trkpt lat="48.669292000" lon="2.434396000">
        <ele>83.204</ele>
        <time>2020-07-18T16:08:09.999Z</time>
      </trkpt>
      <trkpt lat="48.669482000" lon="2.434039000">
        <ele>83.096</ele>
        <time>2020-07-18T16:08:21.998Z</time>
      </trkpt>
      <trkpt lat="48.669623000" lon="2.433826000">
        <ele>83.025</ele>
        <time>2020-07-18T16:08:27.998Z</time>
      </trkpt>
      <trkpt lat="48.669718000" lon="2.433730000">
        <ele>82.984</ele>
        <time>2020-07-18T16:08:30.998Z</time>
      </trkpt>
      <trkpt lat="48.669862000" lon="2.433455000">
        <ele>82.902</ele>
        <time>2020-07-18T16:08:36.998Z</time>
      </trkpt>
      <trkpt lat="48.669939000" lon="2.433346000">
        <ele>82.864</ele>
        <time>2020-07-18T16:08:42.998Z</time>
      </trkpt>
      <trkpt lat="48.670062000" lon="2.433098000">
        <ele>82.815</ele>
        <time>2020-07-18T16:08:49.998Z</time>
      </trkpt>
      <trkpt lat="48.670179000" lon="2.432810000">
        <ele>82.778</ele>
        <time>2020-07-18T16:08:57.998Z</time>
      </trkpt>
      <trkpt lat="48.670247000" lon="2.432713000">
        <ele>82.763</ele>
        <time>2020-07-18T16:09:01.998Z</time>
      </trkpt>
      <trkpt lat="48.670337000" lon="2.432631000">
        <ele>82.746</ele>
        <time>2020-07-18T16:09:05.998Z</time>
      </trkpt>
      <trkpt lat="48.670424000" lon="2.432568000">
        <ele>82.730</ele>
        <time>2020-07-18T16:09:08.999Z</time>
      </trkpt>
      <trkpt lat="48.670513000" lon="2.432436000">
        <ele>82.710</ele>
        <time>2020-07-18T16:09:12.999Z</time>
      </trkpt>
      <trkpt lat="48.670573000" lon="2.432304000">
        <ele>82.693</ele>
        <time>2020-07-18T16:09:15.999Z</time>
      </trkpt>
      <trkpt lat="48.670615000" lon="2.432183000">
        <ele>82.678</ele>
        <time>2020-07-18T16:09:18.999Z</time>
      </trkpt>
      <trkpt lat="48.670678000" lon="2.432060000">
        <ele>82.662</ele>
        <time>2020-07-18T16:09:23.999Z</time>
      </trkpt>
      <trkpt lat="48.670776000" lon="2.431926000">
        <ele>82.640</ele>
        <time>2020-07-18T16:09:27.999Z</time>
      </trkpt>
      <trkpt lat="48.670860000" lon="2.431848000">
        <ele>82.624</ele>
        <time>2020-07-18T16:09:30.999Z</time>
      </trkpt>
      <trkpt lat="48.670954000" lon="2.431738000">
        <ele>82.605</ele>
        <time>2020-07-18T16:09:34.999Z</time>
      </trkpt>
      <trkpt lat="48.671133000" lon="2.431573000">
        <ele>82.571</ele>
        <time>2020-07-18T16:09:40.999Z</time>
      </trkpt>
      <trkpt lat="48.671148000" lon="2.431402000">
        <ele>82.552</ele>
        <time>2020-07-18T16:09:43.999Z</time>
      </trkpt>
      <trkpt lat="48.671195000" lon="2.431266000">
        <ele>82.552</ele>
        <time>2020-07-18T16:09:46.999Z</time>
      </trkpt>
      <trkpt lat="48.671269000" lon="2.431145000">
        <ele>82.577</ele>
        <time>2020-07-18T16:09:49.999Z</time>
      </trkpt>
      <trkpt lat="48.671436000" lon="2.430983000">
        <ele>82.622</ele>
        <time>2020-07-18T16:09:55.999Z</time>
      </trkpt>
      <trkpt lat="48.671510000" lon="2.430877000">
        <ele>82.646</ele>
        <time>2020-07-18T16:09:58.999Z</time>
      </trkpt>
      <trkpt lat="48.671597000" lon="2.430787000">
        <ele>82.670</ele>
        <time>2020-07-18T16:10:01.999Z</time>
      </trkpt>
      <trkpt lat="48.671660000" lon="2.430660000">
        <ele>82.694</ele>
        <time>2020-07-18T16:10:04.999Z</time>
      </trkpt>
      <trkpt lat="48.671758000" lon="2.430581000">
        <ele>82.719</ele>
        <time>2020-07-18T16:10:07.999Z</time>
      </trkpt>
      <trkpt lat="48.671835000" lon="2.430487000">
        <ele>82.742</ele>
        <time>2020-07-18T16:10:11.999Z</time>
      </trkpt>
      <trkpt lat="48.671941000" lon="2.430471000">
        <ele>82.767</ele>
        <time>2020-07-18T16:10:15.999Z</time>
      </trkpt>
      <trkpt lat="48.672057000" lon="2.430419000">
        <ele>82.794</ele>
        <time>2020-07-18T16:10:19.999Z</time>
      </trkpt>
      <trkpt lat="48.672156000" lon="2.430317000">
        <ele>82.822</ele>
        <time>2020-07-18T16:10:23.999Z</time>
      </trkpt>
      <trkpt lat="48.672255000" lon="2.430253000">
        <ele>82.847</ele>
        <time>2020-07-18T16:10:27.999Z</time>
      </trkpt>
      <trkpt lat="48.672318000" lon="2.430118000">
        <ele>82.872</ele>
        <time>2020-07-18T16:10:31.999Z</time>
      </trkpt>
      <trkpt lat="48.672396000" lon="2.430039000">
        <ele>82.893</ele>
        <time>2020-07-18T16:10:36.999Z</time>
      </trkpt>
      <trkpt lat="48.672483000" lon="2.429925000">
        <ele>82.920</ele>
        <time>2020-07-18T16:10:40.999Z</time>
      </trkpt>
      <trkpt lat="48.672569000" lon="2.430009000">
        <ele>82.943</ele>
        <time>2020-07-18T16:10:51.999Z</time>
      </trkpt>
      <trkpt lat="48.672469000" lon="2.429888000">
        <ele>82.977</ele>
        <time>2020-07-18T16:13:01.999Z</time>
      </trkpt>
      <trkpt lat="48.672560000" lon="2.429917000">
        <ele>83.005</ele>
        <time>2020-07-18T16:13:29.997Z</time>
      </trkpt>
      <trkpt lat="48.672526000" lon="2.429772000">
        <ele>83.034</ele>
        <time>2020-07-18T16:14:55.999Z</time>
      </trkpt>
      <trkpt lat="48.672505000" lon="2.429613000">
        <ele>83.066</ele>
        <time>2020-07-18T16:14:59.999Z</time>
      </trkpt>
      <trkpt lat="48.672575000" lon="2.429498000">
        <ele>83.096</ele>
        <time>2020-07-18T16:15:03.999Z</time>
      </trkpt>
      <trkpt lat="48.672636000" lon="2.429344000">
        <ele>83.131</ele>
        <time>2020-07-18T16:15:07.999Z</time>
      </trkpt>
      <trkpt lat="48.672734000" lon="2.429262000">
        <ele>83.164</ele>
        <time>2020-07-18T16:15:13.999Z</time>
      </trkpt>
      <trkpt lat="48.672799000" lon="2.429132000">
        <ele>83.195</ele>
        <time>2020-07-18T16:15:18.999Z</time>
      </trkpt>
      <trkpt lat="48.672849000" lon="2.428975000">
        <ele>83.229</ele>
        <time>2020-07-18T16:15:28.999Z</time>
      </trkpt>
      <trkpt lat="48.673034000" lon="2.428792000">
        <ele>83.294</ele>
        <time>2020-07-18T16:15:40.999Z</time>
      </trkpt>
      <trkpt lat="48.673227000" lon="2.428474000">
        <ele>83.377</ele>
        <time>2020-07-18T16:15:50.999Z</time>
      </trkpt>
      <trkpt lat="48.673391000" lon="2.428297000">
        <ele>83.436</ele>
        <time>2020-07-18T16:15:59.999Z</time>
      </trkpt>
      <trkpt lat="48.673432000" lon="2.428164000">
        <ele>83.465</ele>
        <time>2020-07-18T16:16:03.999Z</time>
      </trkpt>
      <trkpt lat="48.673564000" lon="2.427936000">
        <ele>83.429</ele>
        <time>2020-07-18T16:16:10.999Z</time>
      </trkpt>
      <trkpt lat="48.673642000" lon="2.427779000">
        <ele>83.378</ele>
        <time>2020-07-18T16:16:13.999Z</time>
      </trkpt>
      <trkpt lat="48.673729000" lon="2.427669000">
        <ele>83.334</ele>
        <time>2020-07-18T16:16:16.999Z</time>
      </trkpt>
      <trkpt lat="48.673809000" lon="2.427507000">
        <ele>83.281</ele>
        <time>2020-07-18T16:16:20.999Z</time>
      </trkpt>
      <trkpt lat="48.673958000" lon="2.427303000">
        <ele>83.203</ele>
        <time>2020-07-18T16:16:28.999Z</time>
      </trkpt>
      <trkpt lat="48.674027000" lon="2.427127000">
        <ele>83.150</ele>
        <time>2020-07-18T16:16:32.999Z</time>
      </trkpt>
      <trkpt lat="48.674123000" lon="2.427031000">
        <ele>83.105</ele>
        <time>2020-07-18T16:16:36.999Z</time>
      </trkpt>
      <trkpt lat="48.674219000" lon="2.427010000">
        <ele>83.067</ele>
        <time>2020-07-18T16:16:39.999Z</time>
      </trkpt>
      <trkpt lat="48.674270000" lon="2.426896000">
        <ele>83.031</ele>
        <time>2020-07-18T16:16:42.999Z</time>
      </trkpt>
      <trkpt lat="48.674388000" lon="2.426671000">
        <ele>82.957</ele>
        <time>2020-07-18T16:16:48.998Z</time>
      </trkpt>
      <trkpt lat="48.674659000" lon="2.426407000">
        <ele>82.831</ele>
        <time>2020-07-18T16:16:58.999Z</time>
      </trkpt>
      <trkpt lat="48.674732000" lon="2.426232000">
        <ele>82.777</ele>
        <time>2020-07-18T16:17:01.999Z</time>
      </trkpt>
      <trkpt lat="48.674799000" lon="2.426116000">
        <ele>82.717</ele>
        <time>2020-07-18T16:17:04.999Z</time>
      </trkpt>
      <trkpt lat="48.674889000" lon="2.425869000">
        <ele>82.606</ele>
        <time>2020-07-18T16:17:09.999Z</time>
      </trkpt>
      <trkpt lat="48.674949000" lon="2.425748000">
        <ele>82.546</ele>
        <time>2020-07-18T16:17:11.999Z</time>
      </trkpt>
      <trkpt lat="48.675044000" lon="2.425623000">
        <ele>82.472</ele>
        <time>2020-07-18T16:17:14.999Z</time>
      </trkpt>
      <trkpt lat="48.675193000" lon="2.425366000">
        <ele>82.337</ele>
        <time>2020-07-18T16:17:19.999Z</time>
      </trkpt>
      <trkpt lat="48.675291000" lon="2.425268000">
        <ele>82.268</ele>
        <time>2020-07-18T16:17:21.999Z</time>
      </trkpt>
      <trkpt lat="48.675468000" lon="2.425031000">
        <ele>82.127</ele>
        <time>2020-07-18T16:17:27.999Z</time>
      </trkpt>
      <trkpt lat="48.675618000" lon="2.424768000">
        <ele>81.991</ele>
        <time>2020-07-18T16:17:33.999Z</time>
      </trkpt>
      <trkpt lat="48.675688000" lon="2.424614000">
        <ele>81.917</ele>
        <time>2020-07-18T16:17:36.999Z</time>
      </trkpt>
      <trkpt lat="48.675769000" lon="2.424535000">
        <ele>81.860</ele>
        <time>2020-07-18T16:17:40.999Z</time>
      </trkpt>
      <trkpt lat="48.675854000" lon="2.424481000">
        <ele>81.805</ele>
        <time>2020-07-18T16:17:52.999Z</time>
      </trkpt>
      <trkpt lat="48.675949000" lon="2.424493000">
        <ele>81.749</ele>
        <time>2020-07-18T16:18:11.999Z</time>
      </trkpt>
      <trkpt lat="48.676098000" lon="2.424275000">
        <ele>81.702</ele>
        <time>2020-07-18T16:18:18.999Z</time>
      </trkpt>
      <trkpt lat="48.676157000" lon="2.424152000">
        <ele>81.696</ele>
        <time>2020-07-18T16:18:21.999Z</time>
      </trkpt>
      <trkpt lat="48.676231000" lon="2.424030000">
        <ele>81.690</ele>
        <time>2020-07-18T16:18:24.999Z</time>
      </trkpt>
      <trkpt lat="48.676295000" lon="2.423887000">
        <ele>81.683</ele>
        <time>2020-07-18T16:18:27.999Z</time>
      </trkpt>
      <trkpt lat="48.676448000" lon="2.423664000">
        <ele>81.671</ele>
        <time>2020-07-18T16:18:34.999Z</time>
      </trkpt>
      <trkpt lat="48.676542000" lon="2.423719000">
        <ele>81.665</ele>
        <time>2020-07-18T16:18:40.999Z</time>
      </trkpt>
      <trkpt lat="48.676592000" lon="2.423835000">
        <ele>81.660</ele>
        <time>2020-07-18T16:18:43.999Z</time>
      </trkpt>
      <trkpt lat="48.676623000" lon="2.423976000">
        <ele>81.654</ele>
        <time>2020-07-18T16:18:46.999Z</time>
      </trkpt>
      <trkpt lat="48.676692000" lon="2.424067000">
        <ele>81.649</ele>
        <time>2020-07-18T16:18:49.999Z</time>
      </trkpt>
      <trkpt lat="48.676737000" lon="2.424189000">
        <ele>81.644</ele>
        <time>2020-07-18T16:18:52.999Z</time>
      </trkpt>
      <trkpt lat="48.676761000" lon="2.424324000">
        <ele>81.638</ele>
        <time>2020-07-18T16:18:57.999Z</time>
      </trkpt>
      <trkpt lat="48.676835000" lon="2.424475000">
        <ele>81.631</ele>
        <time>2020-07-18T16:19:01.999Z</time>
      </trkpt>
      <trkpt lat="48.676889000" lon="2.424644000">
        <ele>81.624</ele>
        <time>2020-07-18T16:19:05.999Z</time>
      </trkpt>
      <trkpt lat="48.676958000" lon="2.424920000">
        <ele>81.612</ele>
        <time>2020-07-18T16:19:13.999Z</time>
      </trkpt>
      <trkpt lat="48.677041000" lon="2.425065000">
        <ele>81.605</ele>
        <time>2020-07-18T16:19:17.999Z</time>
      </trkpt>
      <trkpt lat="48.677056000" lon="2.425215000">
        <ele>81.601</ele>
        <time>2020-07-18T16:19:22.999Z</time>
      </trkpt>
      <trkpt lat="48.677088000" lon="2.425346000">
        <ele>81.597</ele>
        <time>2020-07-18T16:19:25.999Z</time>
      </trkpt>
      <trkpt lat="48.677171000" lon="2.425504000">
        <ele>81.591</ele>
        <time>2020-07-18T16:19:29.999Z</time>
      </trkpt>
      <trkpt lat="48.677218000" lon="2.425643000">
        <ele>81.586</ele>
        <time>2020-07-18T16:19:34.999Z</time>
      </trkpt>
      <trkpt lat="48.677242000" lon="2.425778000">
        <ele>81.582</ele>
        <time>2020-07-18T16:19:37.999Z</time>
      </trkpt>
      <trkpt lat="48.677290000" lon="2.425924000">
        <ele>81.577</ele>
        <time>2020-07-18T16:19:41.999Z</time>
      </trkpt>
      <trkpt lat="48.677314000" lon="2.426075000">
        <ele>81.573</ele>
        <time>2020-07-18T16:19:45.999Z</time>
      </trkpt>
      <trkpt lat="48.677385000" lon="2.426208000">
        <ele>81.568</ele>
        <time>2020-07-18T16:19:49.999Z</time>
      </trkpt>
      <trkpt lat="48.677476000" lon="2.426554000">
        <ele>81.557</ele>
        <time>2020-07-18T16:19:57.999Z</time>
      </trkpt>
      <trkpt lat="48.677566000" lon="2.426707000">
        <ele>81.551</ele>
        <time>2020-07-18T16:20:01.999Z</time>
      </trkpt>
      <trkpt lat="48.677616000" lon="2.426821000">
        <ele>81.547</ele>
        <time>2020-07-18T16:20:04.999Z</time>
      </trkpt>
      <trkpt lat="48.677760000" lon="2.427066000">
        <ele>81.537</ele>
        <time>2020-07-18T16:20:09.999Z</time>
      </trkpt>
      <trkpt lat="48.677786000" lon="2.427200000">
        <ele>81.533</ele>
        <time>2020-07-18T16:20:11.999Z</time>
      </trkpt>
      <trkpt lat="48.677900000" lon="2.427454000">
        <ele>81.512</ele>
        <time>2020-07-18T16:20:16.999Z</time>
      </trkpt>
      <trkpt lat="48.677971000" lon="2.427546000">
        <ele>81.483</ele>
        <time>2020-07-18T16:20:20.999Z</time>
      </trkpt>
      <trkpt lat="48.678049000" lon="2.427695000">
        <ele>81.445</ele>
        <time>2020-07-18T16:20:23.999Z</time>
      </trkpt>
      <trkpt lat="48.678095000" lon="2.427843000">
        <ele>81.411</ele>
        <time>2020-07-18T16:20:25.999Z</time>
      </trkpt>
      <trkpt lat="48.678167000" lon="2.427985000">
        <ele>81.375</ele>
        <time>2020-07-18T16:20:28.999Z</time>
      </trkpt>
      <trkpt lat="48.678214000" lon="2.428147000">
        <ele>81.339</ele>
        <time>2020-07-18T16:20:31.999Z</time>
      </trkpt>
      <trkpt lat="48.678273000" lon="2.428261000">
        <ele>81.310</ele>
        <time>2020-07-18T16:20:34.999Z</time>
      </trkpt>
      <trkpt lat="48.678329000" lon="2.428403000">
        <ele>81.276</ele>
        <time>2020-07-18T16:20:37.999Z</time>
      </trkpt>
      <trkpt lat="48.678383000" lon="2.428679000">
        <ele>81.218</ele>
        <time>2020-07-18T16:20:46.999Z</time>
      </trkpt>
      <trkpt lat="48.678427000" lon="2.428832000">
        <ele>81.184</ele>
        <time>2020-07-18T16:20:50.999Z</time>
      </trkpt>
      <trkpt lat="48.678517000" lon="2.428874000">
        <ele>81.155</ele>
        <time>2020-07-18T16:20:54.999Z</time>
      </trkpt>
      <trkpt lat="48.678711000" lon="2.428756000">
        <ele>81.090</ele>
        <time>2020-07-18T16:21:00.999Z</time>
      </trkpt>
      <trkpt lat="48.678909000" lon="2.428602000">
        <ele>81.022</ele>
        <time>2020-07-18T16:21:10Z</time>
      </trkpt>
      <trkpt lat="48.679042000" lon="2.428605000">
        <ele>80.981</ele>
        <time>2020-07-18T16:21:14Z</time>
      </trkpt>
      <trkpt lat="48.679108000" lon="2.428494000">
        <ele>80.950</ele>
        <time>2020-07-18T16:21:19Z</time>
      </trkpt>
      <trkpt lat="48.679209000" lon="2.428451000">
        <ele>80.917</ele>
        <time>2020-07-18T16:21:24Z</time>
      </trkpt>
      <trkpt lat="48.679297000" lon="2.428488000">
        <ele>80.889</ele>
        <time>2020-07-18T16:21:27Z</time>
      </trkpt>
      <trkpt lat="48.679387000" lon="2.428585000">
        <ele>80.854</ele>
        <time>2020-07-18T16:21:30Z</time>
      </trkpt>
      <trkpt lat="48.679450000" lon="2.428708000">
        <ele>80.822</ele>
        <time>2020-07-18T16:21:34Z</time>
      </trkpt>
      <trkpt lat="48.679613000" lon="2.428904000">
        <ele>80.757</ele>
        <time>2020-07-18T16:21:40Z</time>
      </trkpt>
      <trkpt lat="48.679656000" lon="2.429053000">
        <ele>80.723</ele>
        <time>2020-07-18T16:21:43.999Z</time>
      </trkpt>
      <trkpt lat="48.679749000" lon="2.429113000">
        <ele>80.692</ele>
        <time>2020-07-18T16:21:47.999Z</time>
      </trkpt>
      <trkpt lat="48.679773000" lon="2.429275000">
        <ele>80.657</ele>
        <time>2020-07-18T16:21:51.999Z</time>
      </trkpt>
      <trkpt lat="48.679845000" lon="2.429428000">
        <ele>80.619</ele>
        <time>2020-07-18T16:21:56.999Z</time>
      </trkpt>
      <trkpt lat="48.679931000" lon="2.429498000">
        <ele>80.588</ele>
        <time>2020-07-18T16:22:02.999Z</time>
      </trkpt>
      <trkpt lat="48.680297000" lon="2.429474000">
        <ele>80.473</ele>
        <time>2020-07-18T16:22:10.999Z</time>
      </trkpt>
      <trkpt lat="48.680405000" lon="2.429446000">
        <ele>80.439</ele>
        <time>2020-07-18T16:22:13.999Z</time>
      </trkpt>
      <trkpt lat="48.680472000" lon="2.429334000">
        <ele>80.408</ele>
        <time>2020-07-18T16:22:16.999Z</time>
      </trkpt>
      <trkpt lat="48.680478000" lon="2.429171000">
        <ele>80.375</ele>
        <time>2020-07-18T16:22:19.999Z</time>
      </trkpt>
      <trkpt lat="48.680508000" lon="2.429035000">
        <ele>80.346</ele>
        <time>2020-07-18T16:22:21.999Z</time>
      </trkpt>
      <trkpt lat="48.680557000" lon="2.428877000">
        <ele>80.311</ele>
        <time>2020-07-18T16:22:25.999Z</time>
      </trkpt>
      <trkpt lat="48.680813000" lon="2.428618000">
        <ele>80.217</ele>
        <time>2020-07-18T16:22:37.999Z</time>
      </trkpt>
      <trkpt lat="48.680984000" lon="2.428488000">
        <ele>80.159</ele>
        <time>2020-07-18T16:22:45.999Z</time>
      </trkpt>
      <trkpt lat="48.681070000" lon="2.428410000">
        <ele>80.128</ele>
        <time>2020-07-18T16:22:50.999Z</time>
      </trkpt>
      <trkpt lat="48.681169000" lon="2.428341000">
        <ele>80.095</ele>
        <time>2020-07-18T16:23:08.999Z</time>
      </trkpt>
      <trkpt lat="48.681267000" lon="2.428318000">
        <ele>80.064</ele>
        <time>2020-07-18T16:23:12.999Z</time>
      </trkpt>
      <trkpt lat="48.681333000" lon="2.428477000">
        <ele>80.027</ele>
        <time>2020-07-18T16:23:16Z</time>
      </trkpt>
      <trkpt lat="48.681364000" lon="2.428620000">
        <ele>79.996</ele>
        <time>2020-07-18T16:23:19Z</time>
      </trkpt>
      <trkpt lat="48.681464000" lon="2.428887000">
        <ele>79.934</ele>
        <time>2020-07-18T16:23:25Z</time>
      </trkpt>
      <trkpt lat="48.681508000" lon="2.429026000">
        <ele>79.903</ele>
        <time>2020-07-18T16:23:30Z</time>
      </trkpt>
      <trkpt lat="48.681646000" lon="2.429311000">
        <ele>79.959</ele>
        <time>2020-07-18T16:23:38Z</time>
      </trkpt>
      <trkpt lat="48.681799000" lon="2.429574000">
        <ele>80.202</ele>
        <time>2020-07-18T16:23:46Z</time>
      </trkpt>
      <trkpt lat="48.681860000" lon="2.429709000">
        <ele>80.316</ele>
        <time>2020-07-18T16:23:49.999Z</time>
      </trkpt>
      <trkpt lat="48.681943000" lon="2.429763000">
        <ele>80.410</ele>
        <time>2020-07-18T16:23:52.999Z</time>
      </trkpt>
      <trkpt lat="48.681996000" lon="2.429886000">
        <ele>80.512</ele>
        <time>2020-07-18T16:23:55.999Z</time>
      </trkpt>
      <trkpt lat="48.682046000" lon="2.430048000">
        <ele>80.636</ele>
        <time>2020-07-18T16:23:59.999Z</time>
      </trkpt>
      <trkpt lat="48.682132000" lon="2.430110000">
        <ele>80.736</ele>
        <time>2020-07-18T16:24:03.999Z</time>
      </trkpt>
      <trkpt lat="48.682178000" lon="2.430239000">
        <ele>80.837</ele>
        <time>2020-07-18T16:24:07.999Z</time>
      </trkpt>
      <trkpt lat="48.682454000" lon="2.430519000">
        <ele>81.186</ele>
        <time>2020-07-18T16:24:18.999Z</time>
      </trkpt>
      <trkpt lat="48.682492000" lon="2.430657000">
        <ele>81.289</ele>
        <time>2020-07-18T16:24:23.999Z</time>
      </trkpt>
      <trkpt lat="48.682634000" lon="2.430909000">
        <ele>81.519</ele>
        <time>2020-07-18T16:24:31.999Z</time>
      </trkpt>
      <trkpt lat="48.682678000" lon="2.431039000">
        <ele>81.620</ele>
        <time>2020-07-18T16:24:35.999Z</time>
      </trkpt>
      <trkpt lat="48.682736000" lon="2.431154000">
        <ele>81.720</ele>
        <time>2020-07-18T16:24:39.999Z</time>
      </trkpt>
      <trkpt lat="48.682815000" lon="2.431241000">
        <ele>81.775</ele>
        <time>2020-07-18T16:24:42.999Z</time>
      </trkpt>
      <trkpt lat="48.682905000" lon="2.431376000">
        <ele>81.824</ele>
        <time>2020-07-18T16:24:46.999Z</time>
      </trkpt>
      <trkpt lat="48.683021000" lon="2.431458000">
        <ele>81.874</ele>
        <time>2020-07-18T16:24:49.999Z</time>
      </trkpt>
      <trkpt lat="48.683081000" lon="2.431600000">
        <ele>81.917</ele>
        <time>2020-07-18T16:24:54.999Z</time>
      </trkpt>
      <trkpt lat="48.683175000" lon="2.431633000">
        <ele>81.955</ele>
        <time>2020-07-18T16:24:57.999Z</time>
      </trkpt>
      <trkpt lat="48.683197000" lon="2.431781000">
        <ele>81.994</ele>
        <time>2020-07-18T16:25:01.999Z</time>
      </trkpt>
      <trkpt lat="48.683336000" lon="2.432073000">
        <ele>82.086</ele>
        <time>2020-07-18T16:25:10.999Z</time>
      </trkpt>
      <trkpt lat="48.683402000" lon="2.432178000">
        <ele>82.123</ele>
        <time>2020-07-18T16:25:14.999Z</time>
      </trkpt>
      <trkpt lat="48.683492000" lon="2.432279000">
        <ele>82.167</ele>
        <time>2020-07-18T16:25:18.999Z</time>
      </trkpt>
      <trkpt lat="48.683612000" lon="2.432540000">
        <ele>82.249</ele>
        <time>2020-07-18T16:25:27Z</time>
      </trkpt>
      <trkpt lat="48.683704000" lon="2.432667000">
        <ele>82.297</ele>
        <time>2020-07-18T16:25:31Z</time>
      </trkpt>
      <trkpt lat="48.683766000" lon="2.432796000">
        <ele>82.338</ele>
        <time>2020-07-18T16:25:35Z</time>
      </trkpt>
      <trkpt lat="48.683813000" lon="2.432961000">
        <ele>82.384</ele>
        <time>2020-07-18T16:25:39Z</time>
      </trkpt>
      <trkpt lat="48.683868000" lon="2.433099000">
        <ele>82.425</ele>
        <time>2020-07-18T16:25:43Z</time>
      </trkpt>
      <trkpt lat="48.683942000" lon="2.433237000">
        <ele>82.447</ele>
        <time>2020-07-18T16:25:47Z</time>
      </trkpt>
      <trkpt lat="48.684041000" lon="2.433359000">
        <ele>82.449</ele>
        <time>2020-07-18T16:25:50.999Z</time>
      </trkpt>
      <trkpt lat="48.684213000" lon="2.433599000">
        <ele>82.451</ele>
        <time>2020-07-18T16:25:57.999Z</time>
      </trkpt>
      <trkpt lat="48.684309000" lon="2.433658000">
        <ele>82.452</ele>
        <time>2020-07-18T16:26:00.999Z</time>
      </trkpt>
      <trkpt lat="48.684343000" lon="2.433819000">
        <ele>82.453</ele>
        <time>2020-07-18T16:26:04.999Z</time>
      </trkpt>
      <trkpt lat="48.684470000" lon="2.434109000">
        <ele>82.456</ele>
        <time>2020-07-18T16:26:09.999Z</time>
      </trkpt>
      <trkpt lat="48.684572000" lon="2.434215000">
        <ele>82.457</ele>
        <time>2020-07-18T16:26:11.999Z</time>
      </trkpt>
      <trkpt lat="48.684643000" lon="2.434323000">
        <ele>82.458</ele>
        <time>2020-07-18T16:26:13.999Z</time>
      </trkpt>
      <trkpt lat="48.684825000" lon="2.434461000">
        <ele>82.460</ele>
        <time>2020-07-18T16:26:17.999Z</time>
      </trkpt>
      <trkpt lat="48.684929000" lon="2.434503000">
        <ele>82.462</ele>
        <time>2020-07-18T16:26:19.999Z</time>
      </trkpt>
      <trkpt lat="48.685055000" lon="2.434517000">
        <ele>82.463</ele>
        <time>2020-07-18T16:26:21.999Z</time>
      </trkpt>
      <trkpt lat="48.685170000" lon="2.434544000">
        <ele>82.464</ele>
        <time>2020-07-18T16:26:23.999Z</time>
      </trkpt>
      <trkpt lat="48.685269000" lon="2.434553000">
        <ele>82.465</ele>
        <time>2020-07-18T16:26:25.999Z</time>
      </trkpt>
      <trkpt lat="48.685491000" lon="2.434481000">
        <ele>82.274</ele>
        <time>2020-07-18T16:26:31.999Z</time>
      </trkpt>
      <trkpt lat="48.685595000" lon="2.434381000">
        <ele>82.140</ele>
        <time>2020-07-18T16:26:34.999Z</time>
      </trkpt>
      <trkpt lat="48.685700000" lon="2.434312000">
        <ele>82.015</ele>
        <time>2020-07-18T16:26:37.999Z</time>
      </trkpt>
      <trkpt lat="48.686106000" lon="2.433915000">
        <ele>81.488</ele>
        <time>2020-07-18T16:26:49.999Z</time>
      </trkpt>
      <trkpt lat="48.686198000" lon="2.433809000">
        <ele>81.362</ele>
        <time>2020-07-18T16:26:52.999Z</time>
      </trkpt>
      <trkpt lat="48.686298000" lon="2.433722000">
        <ele>81.236</ele>
        <time>2020-07-18T16:26:55.999Z</time>
      </trkpt>
      <trkpt lat="48.686676000" lon="2.433307000">
        <ele>80.727</ele>
        <time>2020-07-18T16:27:07.999Z</time>
      </trkpt>
      <trkpt lat="48.686775000" lon="2.433184000">
        <ele>80.587</ele>
        <time>2020-07-18T16:27:10.999Z</time>
      </trkpt>
      <trkpt lat="48.686885000" lon="2.433123000">
        <ele>80.401</ele>
        <time>2020-07-18T16:27:13.999Z</time>
      </trkpt>
      <trkpt lat="48.686997000" lon="2.433106000">
        <ele>80.117</ele>
        <time>2020-07-18T16:27:16.999Z</time>
      </trkpt>
      <trkpt lat="48.687104000" lon="2.433114000">
        <ele>79.847</ele>
        <time>2020-07-18T16:27:19.999Z</time>
      </trkpt>
      <trkpt lat="48.687209000" lon="2.433139000">
        <ele>79.579</ele>
        <time>2020-07-18T16:27:22.999Z</time>
      </trkpt>
      <trkpt lat="48.687373000" lon="2.433277000">
        <ele>79.106</ele>
        <time>2020-07-18T16:27:45Z</time>
      </trkpt>
      <trkpt lat="48.687478000" lon="2.433318000">
        <ele>78.833</ele>
        <time>2020-07-18T16:27:48.999Z</time>
      </trkpt>
      <trkpt lat="48.687569000" lon="2.433337000">
        <ele>78.601</ele>
        <time>2020-07-18T16:28:05.999Z</time>
      </trkpt>
      <trkpt lat="48.687665000" lon="2.433301000">
        <ele>78.352</ele>
        <time>2020-07-18T16:28:13.999Z</time>
      </trkpt>
      <trkpt lat="48.687772000" lon="2.433193000">
        <ele>78.028</ele>
        <time>2020-07-18T16:28:17.999Z</time>
      </trkpt>
      <trkpt lat="48.688022000" lon="2.433062000">
        <ele>77.361</ele>
        <time>2020-07-18T16:28:23.999Z</time>
      </trkpt>
      <trkpt lat="48.688103000" lon="2.433002000">
        <ele>77.134</ele>
        <time>2020-07-18T16:28:25.999Z</time>
      </trkpt>
      <trkpt lat="48.688163000" lon="2.432837000">
        <ele>76.820</ele>
        <time>2020-07-18T16:28:28.999Z</time>
      </trkpt>
      <trkpt lat="48.688226000" lon="2.432698000">
        <ele>76.540</ele>
        <time>2020-07-18T16:28:31.999Z</time>
      </trkpt>
      <trkpt lat="48.688378000" lon="2.432428000">
        <ele>75.944</ele>
        <time>2020-07-18T16:28:37.999Z</time>
      </trkpt>
      <trkpt lat="48.688449000" lon="2.432325000">
        <ele>75.633</ele>
        <time>2020-07-18T16:28:40.999Z</time>
      </trkpt>
      <trkpt lat="48.688549000" lon="2.432387000">
        <ele>75.291</ele>
        <time>2020-07-18T16:28:42.999Z</time>
      </trkpt>
      <trkpt lat="48.688655000" lon="2.432414000">
        <ele>74.950</ele>
        <time>2020-07-18T16:28:45.999Z</time>
      </trkpt>
      <trkpt lat="48.688738000" lon="2.432348000">
        <ele>74.653</ele>
        <time>2020-07-18T16:28:47.999Z</time>
      </trkpt>
      <trkpt lat="48.688822000" lon="2.432187000">
        <ele>74.225</ele>
        <time>2020-07-18T16:28:50.999Z</time>
      </trkpt>
      <trkpt lat="48.688804000" lon="2.432050000">
        <ele>73.933</ele>
        <time>2020-07-18T16:28:53.999Z</time>
      </trkpt>
      <trkpt lat="48.688854000" lon="2.431775000">
        <ele>73.336</ele>
        <time>2020-07-18T16:28:57.999Z</time>
      </trkpt>
      <trkpt lat="48.688908000" lon="2.431640000">
        <ele>73.006</ele>
        <time>2020-07-18T16:29:00.999Z</time>
      </trkpt>
      <trkpt lat="48.688943000" lon="2.431466000">
        <ele>72.626</ele>
        <time>2020-07-18T16:29:04.999Z</time>
      </trkpt>
      <trkpt lat="48.688895000" lon="2.431186000">
        <ele>72.021</ele>
        <time>2020-07-18T16:29:10.999Z</time>
      </trkpt>
      <trkpt lat="48.688925000" lon="2.430737000">
        <ele>71.078</ele>
        <time>2020-07-18T16:29:17.999Z</time>
      </trkpt>
      <trkpt lat="48.688966000" lon="2.430540000">
        <ele>70.646</ele>
        <time>2020-07-18T16:29:19.999Z</time>
      </trkpt>
      <trkpt lat="48.688991000" lon="2.430350000">
        <ele>70.240</ele>
        <time>2020-07-18T16:29:22.999Z</time>
      </trkpt>
      <trkpt lat="48.689093000" lon="2.430264000">
        <ele>69.859</ele>
        <time>2020-07-18T16:29:25.999Z</time>
      </trkpt>
      <trkpt lat="48.689537000" lon="2.430290000">
        <ele>68.408</ele>
        <time>2020-07-18T16:29:34.999Z</time>
      </trkpt>
      <trkpt lat="48.689861000" lon="2.430285000">
        <ele>67.350</ele>
        <time>2020-07-18T16:29:40.999Z</time>
      </trkpt>
      <trkpt lat="48.689969000" lon="2.430229000">
        <ele>66.978</ele>
        <time>2020-07-18T16:29:42.999Z</time>
      </trkpt>
      <trkpt lat="48.690067000" lon="2.430110000">
        <ele>66.568</ele>
        <time>2020-07-18T16:29:45.999Z</time>
      </trkpt>
      <trkpt lat="48.690199000" lon="2.429777000">
        <ele>65.730</ele>
        <time>2020-07-18T16:29:51.999Z</time>
      </trkpt>
      <trkpt lat="48.690256000" lon="2.429666000">
        <ele>65.427</ele>
        <time>2020-07-18T16:29:53.999Z</time>
      </trkpt>
      <trkpt lat="48.690341000" lon="2.429403000">
        <ele>64.796</ele>
        <time>2020-07-18T16:29:57.999Z</time>
      </trkpt>
      <trkpt lat="48.690427000" lon="2.429291000">
        <ele>64.425</ele>
        <time>2020-07-18T16:30:00.999Z</time>
      </trkpt>
      <trkpt lat="48.690545000" lon="2.429284000">
        <ele>64.123</ele>
        <time>2020-07-18T16:30:03.999Z</time>
      </trkpt>
      <trkpt lat="48.690654000" lon="2.429296000">
        <ele>63.848</ele>
        <time>2020-07-18T16:30:06.999Z</time>
      </trkpt>
      <trkpt lat="48.690779000" lon="2.429281000">
        <ele>63.533</ele>
        <time>2020-07-18T16:30:10.999Z</time>
      </trkpt>
      <trkpt lat="48.690890000" lon="2.429297000">
        <ele>63.252</ele>
        <time>2020-07-18T16:30:13.999Z</time>
      </trkpt>
      <trkpt lat="48.690982000" lon="2.429347000">
        <ele>63.006</ele>
        <time>2020-07-18T16:30:16.999Z</time>
      </trkpt>
      <trkpt lat="48.691085000" lon="2.429286000">
        <ele>62.728</ele>
        <time>2020-07-18T16:30:20.999Z</time>
      </trkpt>
      <trkpt lat="48.691157000" lon="2.429175000">
        <ele>62.469</ele>
        <time>2020-07-18T16:30:24.999Z</time>
      </trkpt>
      <trkpt lat="48.691371000" lon="2.429091000">
        <ele>61.913</ele>
        <time>2020-07-18T16:30:38.999Z</time>
      </trkpt>
      <trkpt lat="48.691430000" lon="2.428957000">
        <ele>61.645</ele>
        <time>2020-07-18T16:30:41.999Z</time>
      </trkpt>
      <trkpt lat="48.691541000" lon="2.428847000">
        <ele>61.311</ele>
        <time>2020-07-18T16:30:44.999Z</time>
      </trkpt>
      <trkpt lat="48.691637000" lon="2.428703000">
        <ele>60.971</ele>
        <time>2020-07-18T16:30:47.999Z</time>
      </trkpt>
      <trkpt lat="48.691870000" lon="2.428445000">
        <ele>60.244</ele>
        <time>2020-07-18T16:30:50.999Z</time>
      </trkpt>
      <trkpt lat="48.691999000" lon="2.428152000">
        <ele>59.767</ele>
        <time>2020-07-18T16:30:56.999Z</time>
      </trkpt>
      <trkpt lat="48.692086000" lon="2.428063000">
        <ele>59.634</ele>
        <time>2020-07-18T16:30:59.999Z</time>
      </trkpt>
      <trkpt lat="48.692152000" lon="2.427927000">
        <ele>59.492</ele>
        <time>2020-07-18T16:31:02.999Z</time>
      </trkpt>
      <trkpt lat="48.692317000" lon="2.427724000">
        <ele>59.222</ele>
        <time>2020-07-18T16:31:08.999Z</time>
      </trkpt>
      <trkpt lat="48.692383000" lon="2.427624000">
        <ele>59.103</ele>
        <time>2020-07-18T16:31:11.999Z</time>
      </trkpt>
      <trkpt lat="48.692461000" lon="2.427536000">
        <ele>58.980</ele>
        <time>2020-07-18T16:31:14.999Z</time>
      </trkpt>
      <trkpt lat="48.692524000" lon="2.427416000">
        <ele>58.851</ele>
        <time>2020-07-18T16:31:18.999Z</time>
      </trkpt>
      <trkpt lat="48.692508000" lon="2.427241000">
        <ele>58.703</ele>
        <time>2020-07-18T16:31:23.999Z</time>
      </trkpt>
      <trkpt lat="48.692241000" lon="2.426937000">
        <ele>58.279</ele>
        <time>2020-07-18T16:31:32.999Z</time>
      </trkpt>
      <trkpt lat="48.691907000" lon="2.426486000">
        <ele>57.710</ele>
        <time>2020-07-18T16:31:44.999Z</time>
      </trkpt>
      <trkpt lat="48.691823000" lon="2.426421000">
        <ele>57.593</ele>
        <time>2020-07-18T16:31:46.999Z</time>
      </trkpt>
      <trkpt lat="48.691743000" lon="2.426271000">
        <ele>57.635</ele>
        <time>2020-07-18T16:31:49.999Z</time>
      </trkpt>
      <trkpt lat="48.691650000" lon="2.426167000">
        <ele>57.673</ele>
        <time>2020-07-18T16:31:52.999Z</time>
      </trkpt>
      <trkpt lat="48.691513000" lon="2.425954000">
        <ele>57.738</ele>
        <time>2020-07-18T16:31:57.999Z</time>
      </trkpt>
      <trkpt lat="48.691323000" lon="2.425736000">
        <ele>57.817</ele>
        <time>2020-07-18T16:32:03.999Z</time>
      </trkpt>
      <trkpt lat="48.691078000" lon="2.425409000">
        <ele>57.925</ele>
        <time>2020-07-18T16:32:12.999Z</time>
      </trkpt>
      <trkpt lat="48.690899000" lon="2.425233000">
        <ele>57.996</ele>
        <time>2020-07-18T16:32:19.999Z</time>
      </trkpt>
      <trkpt lat="48.690843000" lon="2.425077000">
        <ele>58.035</ele>
        <time>2020-07-18T16:32:22.999Z</time>
      </trkpt>
      <trkpt lat="48.690773000" lon="2.424986000">
        <ele>58.065</ele>
        <time>2020-07-18T16:32:25.999Z</time>
      </trkpt>
      <trkpt lat="48.690706000" lon="2.424865000">
        <ele>58.100</ele>
        <time>2020-07-18T16:32:28.999Z</time>
      </trkpt>
      <trkpt lat="48.690465000" lon="2.424532000">
        <ele>58.188</ele>
        <time>2020-07-18T16:32:37.999Z</time>
      </trkpt>
      <trkpt lat="48.690396000" lon="2.424400000">
        <ele>58.188</ele>
        <time>2020-07-18T16:32:40.999Z</time>
      </trkpt>
      <trkpt lat="48.690183000" lon="2.424072000">
        <ele>58.187</ele>
        <time>2020-07-18T16:32:49.999Z</time>
      </trkpt>
      <trkpt lat="48.690099000" lon="2.423979000">
        <ele>58.187</ele>
        <time>2020-07-18T16:32:52.999Z</time>
      </trkpt>
      <trkpt lat="48.689954000" lon="2.423779000">
        <ele>58.186</ele>
        <time>2020-07-18T16:32:58.999Z</time>
      </trkpt>
      <trkpt lat="48.689800000" lon="2.423591000">
        <ele>58.186</ele>
        <time>2020-07-18T16:33:04.999Z</time>
      </trkpt>
      <trkpt lat="48.689716000" lon="2.423514000">
        <ele>58.186</ele>
        <time>2020-07-18T16:33:07.999Z</time>
      </trkpt>
      <trkpt lat="48.689640000" lon="2.423422000">
        <ele>58.186</ele>
        <time>2020-07-18T16:33:10.999Z</time>
      </trkpt>
      <trkpt lat="48.689515000" lon="2.423165000">
        <ele>58.185</ele>
        <time>2020-07-18T16:33:17.999Z</time>
      </trkpt>
      <trkpt lat="48.689596000" lon="2.423067000">
        <ele>58.185</ele>
        <time>2020-07-18T16:33:20.999Z</time>
      </trkpt>
      <trkpt lat="48.689676000" lon="2.422952000">
        <ele>58.185</ele>
        <time>2020-07-18T16:33:24.999Z</time>
      </trkpt>
      <trkpt lat="48.689768000" lon="2.422857000">
        <ele>58.185</ele>
        <time>2020-07-18T16:33:28.999Z</time>
      </trkpt>
      <trkpt lat="48.689830000" lon="2.422752000">
        <ele>58.184</ele>
        <time>2020-07-18T16:33:31.999Z</time>
      </trkpt>
      <trkpt lat="48.689998000" lon="2.422602000">
        <ele>58.184</ele>
        <time>2020-07-18T16:33:37.999Z</time>
      </trkpt>
      <trkpt lat="48.690120000" lon="2.422590000">
        <ele>58.184</ele>
        <time>2020-07-18T16:33:41.998Z</time>
      </trkpt>
      <trkpt lat="48.690214000" lon="2.422605000">
        <ele>58.184</ele>
        <time>2020-07-18T16:33:44.998Z</time>
      </trkpt>
      <trkpt lat="48.690298000" lon="2.422543000">
        <ele>58.184</ele>
        <time>2020-07-18T16:33:47.999Z</time>
      </trkpt>
      <trkpt lat="48.690336000" lon="2.422669000">
        <ele>58.184</ele>
        <time>2020-07-18T16:33:56.999Z</time>
      </trkpt>
      <trkpt lat="48.690413000" lon="2.422778000">
        <ele>58.184</ele>
        <time>2020-07-18T16:34:04.999Z</time>
      </trkpt>
      <trkpt lat="48.690347000" lon="2.422668000">
        <ele>58.184</ele>
        <time>2020-07-18T16:35:05.999Z</time>
      </trkpt>
      <trkpt lat="48.690446000" lon="2.422623000">
        <ele>58.184</ele>
        <time>2020-07-18T16:35:21.999Z</time>
      </trkpt>
      <trkpt lat="48.690295000" lon="2.422662000">
        <ele>58.184</ele>
        <time>2020-07-18T16:35:25.999Z</time>
      </trkpt>
      <trkpt lat="48.690287000" lon="2.422799000">
        <ele>58.184</ele>
        <time>2020-07-18T16:35:36.140Z</time>
      </trkpt>
      <trkpt lat="48.690382000" lon="2.422680000">
        <ele>58.184</ele>
        <time>2020-07-18T16:35:42.999Z</time>
      </trkpt>
    </trkseg>
  </trk>
</gpx>
