{"type":"FeatureCollection","features":[{"type":"Feature","properties":{"name":"Une petite pause méridienne bien optimisée ! 🚴","type":"cycling","time":"2025-05-05T10:56:11.000Z","coordTimes":["2025-05-05T10:56:11.000Z","2025-05-05T10:56:12.000Z","2025-05-05T10:56:13.000Z","2025-05-05T10:56:16.000Z","2025-05-05T10:56:18.000Z","2025-05-05T10:56:26.000Z","2025-05-05T10:56:31.000Z","2025-05-05T10:56:41.000Z","2025-05-05T10:56:44.000Z","2025-05-05T10:56:47.000Z","2025-05-05T10:57:02.000Z","2025-05-05T10:57:04.000Z","2025-05-05T10:57:24.000Z","2025-05-05T10:57:41.000Z","2025-05-05T10:58:20.000Z","2025-05-05T10:58:22.000Z","2025-05-05T10:58:24.000Z","2025-05-05T10:58:25.000Z","2025-05-05T10:58:27.000Z","2025-05-05T10:58:33.000Z","2025-05-05T10:58:34.000Z","2025-05-05T10:58:36.000Z","2025-05-05T10:58:38.000Z","2025-05-05T10:58:44.000Z","2025-05-05T10:58:48.000Z","2025-05-05T10:58:49.000Z","2025-05-05T10:58:50.000Z","2025-05-05T10:58:52.000Z","2025-05-05T10:58:53.000Z","2025-05-05T10:58:54.000Z","2025-05-05T10:58:55.000Z","2025-05-05T10:58:56.000Z","2025-05-05T10:59:00.000Z","2025-05-05T10:59:05.000Z","2025-05-05T10:59:06.000Z","2025-05-05T10:59:07.000Z","2025-05-05T10:59:08.000Z","2025-05-05T10:59:09.000Z","2025-05-05T10:59:10.000Z","2025-05-05T10:59:11.000Z","2025-05-05T10:59:12.000Z","2025-05-05T10:59:13.000Z","2025-05-05T10:59:14.000Z","2025-05-05T10:59:17.000Z","2025-05-05T10:59:20.000Z","2025-05-05T10:59:23.000Z","2025-05-05T10:59:25.000Z","2025-05-05T10:59:28.000Z","2025-05-05T10:59:29.000Z","2025-05-05T10:59:30.000Z","2025-05-05T10:59:33.000Z","2025-05-05T10:59:34.000Z","2025-05-05T10:59:36.000Z","2025-05-05T10:59:39.000Z","2025-05-05T10:59:41.000Z","2025-05-05T10:59:44.000Z","2025-05-05T10:59:46.000Z","2025-05-05T10:59:49.000Z","2025-05-05T10:59:54.000Z","2025-05-05T10:59:56.000Z","2025-05-05T11:00:10.000Z","2025-05-05T11:00:12.000Z","2025-05-05T11:00:14.000Z","2025-05-05T11:00:15.000Z","2025-05-05T11:00:16.000Z","2025-05-05T11:00:18.000Z","2025-05-05T11:00:21.000Z","2025-05-05T11:00:23.000Z","2025-05-05T11:00:24.000Z","2025-05-05T11:00:26.000Z","2025-05-05T11:00:28.000Z","2025-05-05T11:00:30.000Z","2025-05-05T11:00:31.000Z","2025-05-05T11:00:32.000Z","2025-05-05T11:00:33.000Z","2025-05-05T11:00:38.000Z","2025-05-05T11:00:47.000Z","2025-05-05T11:00:55.000Z","2025-05-05T11:01:08.000Z","2025-05-05T11:01:13.000Z","2025-05-05T11:01:15.000Z","2025-05-05T11:01:17.000Z","2025-05-05T11:01:19.000Z","2025-05-05T11:01:20.000Z","2025-05-05T11:01:30.000Z","2025-05-05T11:01:35.000Z","2025-05-05T11:01:38.000Z","2025-05-05T11:01:39.000Z","2025-05-05T11:01:40.000Z","2025-05-05T11:01:41.000Z","2025-05-05T11:01:42.000Z","2025-05-05T11:01:43.000Z","2025-05-05T11:01:45.000Z","2025-05-05T11:01:47.000Z","2025-05-05T11:01:50.000Z","2025-05-05T11:01:52.000Z","2025-05-05T11:01:54.000Z","2025-05-05T11:01:57.000Z","2025-05-05T11:01:58.000Z","2025-05-05T11:01:59.000Z","2025-05-05T11:02:05.000Z","2025-05-05T11:02:08.000Z","2025-05-05T11:02:11.000Z","2025-05-05T11:02:13.000Z","2025-05-05T11:02:15.000Z","2025-05-05T11:02:17.000Z","2025-05-05T11:02:20.000Z","2025-05-05T11:02:22.000Z","2025-05-05T11:02:25.000Z","2025-05-05T11:02:29.000Z","2025-05-05T11:02:32.000Z","2025-05-05T11:02:35.000Z","2025-05-05T11:02:38.000Z","2025-05-05T11:02:39.000Z","2025-05-05T11:02:40.000Z","2025-05-05T11:02:46.000Z","2025-05-05T11:02:50.000Z","2025-05-05T11:02:52.000Z","2025-05-05T11:02:53.000Z","2025-05-05T11:02:54.000Z","2025-05-05T11:02:55.000Z","2025-05-05T11:02:57.000Z","2025-05-05T11:03:00.000Z","2025-05-05T11:03:02.000Z","2025-05-05T11:03:05.000Z","2025-05-05T11:03:06.000Z","2025-05-05T11:03:07.000Z","2025-05-05T11:03:08.000Z","2025-05-05T11:03:11.000Z","2025-05-05T11:03:13.000Z","2025-05-05T11:03:17.000Z","2025-05-05T11:03:22.000Z","2025-05-05T11:03:26.000Z","2025-05-05T11:03:30.000Z","2025-05-05T11:03:32.000Z","2025-05-05T11:03:35.000Z","2025-05-05T11:03:38.000Z","2025-05-05T11:03:42.000Z","2025-05-05T11:03:46.000Z","2025-05-05T11:03:53.000Z","2025-05-05T11:03:54.000Z","2025-05-05T11:04:03.000Z","2025-05-05T11:04:10.000Z","2025-05-05T11:04:12.000Z","2025-05-05T11:04:15.000Z","2025-05-05T11:04:18.000Z","2025-05-05T11:04:22.000Z","2025-05-05T11:04:28.000Z","2025-05-05T11:04:34.000Z","2025-05-05T11:04:38.000Z","2025-05-05T11:04:39.000Z","2025-05-05T11:04:42.000Z","2025-05-05T11:04:43.000Z","2025-05-05T11:04:44.000Z","2025-05-05T11:04:45.000Z","2025-05-05T11:04:46.000Z","2025-05-05T11:04:49.000Z","2025-05-05T11:04:51.000Z","2025-05-05T11:04:52.000Z","2025-05-05T11:04:58.000Z","2025-05-05T11:05:00.000Z","2025-05-05T11:05:01.000Z","2025-05-05T11:05:02.000Z","2025-05-05T11:05:03.000Z","2025-05-05T11:05:04.000Z","2025-05-05T11:05:06.000Z","2025-05-05T11:05:09.000Z","2025-05-05T11:05:12.000Z","2025-05-05T11:05:17.000Z","2025-05-05T11:05:25.000Z","2025-05-05T11:05:27.000Z","2025-05-05T11:05:35.000Z","2025-05-05T11:05:37.000Z","2025-05-05T11:05:42.000Z","2025-05-05T11:05:47.000Z","2025-05-05T11:05:48.000Z","2025-05-05T11:05:50.000Z","2025-05-05T11:05:51.000Z","2025-05-05T11:05:52.000Z","2025-05-05T11:05:53.000Z","2025-05-05T11:05:55.000Z","2025-05-05T11:05:56.000Z","2025-05-05T11:06:00.000Z","2025-05-05T11:06:01.000Z","2025-05-05T11:06:10.000Z","2025-05-05T11:06:20.000Z","2025-05-05T11:06:22.000Z","2025-05-05T11:06:26.000Z","2025-05-05T11:06:28.000Z","2025-05-05T11:06:30.000Z","2025-05-05T11:06:32.000Z","2025-05-05T11:06:33.000Z","2025-05-05T11:06:34.000Z","2025-05-05T11:06:38.000Z","2025-05-05T11:06:41.000Z","2025-05-05T11:06:44.000Z","2025-05-05T11:06:49.000Z","2025-05-05T11:07:04.000Z","2025-05-05T11:07:06.000Z","2025-05-05T11:08:40.000Z","2025-05-05T11:08:42.000Z","2025-05-05T11:08:46.000Z","2025-05-05T11:08:49.000Z","2025-05-05T11:08:55.000Z","2025-05-05T11:08:57.000Z","2025-05-05T11:09:04.000Z","2025-05-05T11:09:08.000Z","2025-05-05T11:09:10.000Z","2025-05-05T11:09:13.000Z","2025-05-05T11:09:15.000Z","2025-05-05T11:09:21.000Z","2025-05-05T11:10:48.000Z","2025-05-05T11:10:51.000Z","2025-05-05T11:10:56.000Z","2025-05-05T11:10:59.000Z","2025-05-05T11:11:01.000Z","2025-05-05T11:11:02.000Z","2025-05-05T11:11:06.000Z","2025-05-05T11:11:12.000Z","2025-05-05T11:11:42.000Z","2025-05-05T11:11:44.000Z","2025-05-05T11:11:48.000Z","2025-05-05T11:11:49.000Z","2025-05-05T11:11:54.000Z","2025-05-05T11:12:04.000Z","2025-05-05T11:12:09.000Z","2025-05-05T11:12:33.000Z","2025-05-05T11:12:37.000Z","2025-05-05T11:12:38.000Z","2025-05-05T11:12:42.000Z","2025-05-05T11:12:47.000Z","2025-05-05T11:12:49.000Z","2025-05-05T11:12:52.000Z","2025-05-05T11:12:55.000Z","2025-05-05T11:12:57.000Z","2025-05-05T11:12:58.000Z","2025-05-05T11:13:06.000Z","2025-05-05T11:13:08.000Z","2025-05-05T11:13:10.000Z","2025-05-05T11:13:13.000Z","2025-05-05T11:13:14.000Z","2025-05-05T11:13:17.000Z","2025-05-05T11:13:18.000Z","2025-05-05T11:13:19.000Z","2025-05-05T11:13:20.000Z","2025-05-05T11:13:22.000Z","2025-05-05T11:13:23.000Z","2025-05-05T11:13:24.000Z","2025-05-05T11:13:25.000Z","2025-05-05T11:13:27.000Z","2025-05-05T11:13:31.000Z","2025-05-05T11:13:32.000Z","2025-05-05T11:13:34.000Z","2025-05-05T11:13:35.000Z","2025-05-05T11:13:38.000Z","2025-05-05T11:13:39.000Z","2025-05-05T11:13:41.000Z","2025-05-05T11:13:43.000Z","2025-05-05T11:13:47.000Z","2025-05-05T11:13:52.000Z","2025-05-05T11:13:54.000Z","2025-05-05T11:13:55.000Z","2025-05-05T11:13:58.000Z","2025-05-05T11:14:02.000Z","2025-05-05T11:14:06.000Z","2025-05-05T11:14:09.000Z","2025-05-05T11:14:12.000Z","2025-05-05T11:14:14.000Z","2025-05-05T11:14:18.000Z","2025-05-05T11:14:23.000Z","2025-05-05T11:14:26.000Z","2025-05-05T11:14:27.000Z","2025-05-05T11:14:30.000Z","2025-05-05T11:14:32.000Z","2025-05-05T11:14:34.000Z","2025-05-05T11:14:37.000Z","2025-05-05T11:14:38.000Z","2025-05-05T11:14:41.000Z","2025-05-05T11:14:43.000Z","2025-05-05T11:14:44.000Z","2025-05-05T11:14:45.000Z","2025-05-05T11:14:46.000Z","2025-05-05T11:14:47.000Z","2025-05-05T11:14:48.000Z","2025-05-05T11:14:49.000Z","2025-05-05T11:14:51.000Z","2025-05-05T11:14:52.000Z","2025-05-05T11:14:54.000Z","2025-05-05T11:14:56.000Z","2025-05-05T11:14:57.000Z","2025-05-05T11:14:58.000Z","2025-05-05T11:15:00.000Z","2025-05-05T11:15:03.000Z","2025-05-05T11:15:04.000Z","2025-05-05T11:15:05.000Z","2025-05-05T11:15:08.000Z","2025-05-05T11:15:09.000Z","2025-05-05T11:15:11.000Z","2025-05-05T11:15:14.000Z","2025-05-05T11:15:15.000Z","2025-05-05T11:15:17.000Z","2025-05-05T11:15:18.000Z","2025-05-05T11:15:21.000Z","2025-05-05T11:15:22.000Z","2025-05-05T11:15:23.000Z","2025-05-05T11:15:25.000Z","2025-05-05T11:15:28.000Z","2025-05-05T11:15:33.000Z","2025-05-05T11:15:34.000Z","2025-05-05T11:15:35.000Z","2025-05-05T11:15:36.000Z","2025-05-05T11:15:38.000Z","2025-05-05T11:15:40.000Z","2025-05-05T11:15:41.000Z","2025-05-05T11:15:42.000Z","2025-05-05T11:15:49.000Z","2025-05-05T11:15:50.000Z","2025-05-05T11:15:52.000Z","2025-05-05T11:15:59.000Z","2025-05-05T11:16:01.000Z","2025-05-05T11:16:04.000Z","2025-05-05T11:16:12.000Z","2025-05-05T11:16:14.000Z","2025-05-05T11:16:16.000Z","2025-05-05T11:16:20.000Z","2025-05-05T11:16:22.000Z","2025-05-05T11:16:23.000Z","2025-05-05T11:16:25.000Z","2025-05-05T11:16:26.000Z","2025-05-05T11:16:29.000Z","2025-05-05T11:16:30.000Z","2025-05-05T11:16:31.000Z","2025-05-05T11:16:32.000Z","2025-05-05T11:16:35.000Z","2025-05-05T11:16:36.000Z","2025-05-05T11:16:39.000Z","2025-05-05T11:16:46.000Z","2025-05-05T11:16:50.000Z","2025-05-05T11:16:53.000Z","2025-05-05T11:16:55.000Z","2025-05-05T11:16:58.000Z","2025-05-05T11:17:04.000Z","2025-05-05T11:17:05.000Z","2025-05-05T11:17:07.000Z","2025-05-05T11:17:10.000Z","2025-05-05T11:17:15.000Z","2025-05-05T11:17:18.000Z","2025-05-05T11:17:21.000Z","2025-05-05T11:17:23.000Z","2025-05-05T11:17:24.000Z","2025-05-05T11:17:25.000Z","2025-05-05T11:17:29.000Z","2025-05-05T11:17:32.000Z","2025-05-05T11:17:35.000Z","2025-05-05T11:17:39.000Z","2025-05-05T11:17:42.000Z","2025-05-05T11:17:45.000Z","2025-05-05T11:17:47.000Z","2025-05-05T11:17:48.000Z","2025-05-05T11:17:49.000Z","2025-05-05T11:17:50.000Z","2025-05-05T11:17:51.000Z","2025-05-05T11:17:56.000Z","2025-05-05T11:17:58.000Z","2025-05-05T11:18:00.000Z","2025-05-05T11:18:02.000Z","2025-05-05T11:18:12.000Z","2025-05-05T11:18:14.000Z","2025-05-05T11:18:16.000Z","2025-05-05T11:18:18.000Z","2025-05-05T11:18:19.000Z","2025-05-05T11:18:20.000Z","2025-05-05T11:18:23.000Z","2025-05-05T11:18:24.000Z","2025-05-05T11:18:28.000Z","2025-05-05T11:18:32.000Z","2025-05-05T11:18:34.000Z","2025-05-05T11:18:38.000Z","2025-05-05T11:19:05.000Z","2025-05-05T11:19:07.000Z","2025-05-05T11:19:08.000Z","2025-05-05T11:19:10.000Z","2025-05-05T11:19:26.000Z","2025-05-05T11:19:28.000Z","2025-05-05T11:19:30.000Z","2025-05-05T11:19:31.000Z","2025-05-05T11:19:34.000Z","2025-05-05T11:19:37.000Z","2025-05-05T11:20:03.000Z","2025-05-05T11:20:06.000Z","2025-05-05T11:20:09.000Z","2025-05-05T11:20:11.000Z","2025-05-05T11:20:14.000Z","2025-05-05T11:20:25.000Z","2025-05-05T11:20:27.000Z","2025-05-05T11:20:30.000Z","2025-05-05T11:20:34.000Z","2025-05-05T11:20:36.000Z","2025-05-05T11:20:39.000Z","2025-05-05T11:20:41.000Z","2025-05-05T11:22:03.000Z","2025-05-05T11:22:09.000Z","2025-05-05T11:22:11.000Z","2025-05-05T11:22:14.000Z","2025-05-05T11:22:17.000Z","2025-05-05T11:22:21.000Z","2025-05-05T11:22:27.000Z","2025-05-05T11:22:31.000Z","2025-05-05T11:22:36.000Z","2025-05-05T11:22:37.000Z","2025-05-05T11:22:39.000Z","2025-05-05T11:22:40.000Z","2025-05-05T11:22:41.000Z","2025-05-05T11:22:43.000Z","2025-05-05T11:22:44.000Z","2025-05-05T11:22:45.000Z","2025-05-05T11:22:46.000Z","2025-05-05T11:22:47.000Z","2025-05-05T11:22:48.000Z","2025-05-05T11:22:50.000Z","2025-05-05T11:22:53.000Z","2025-05-05T11:22:54.000Z","2025-05-05T11:22:56.000Z","2025-05-05T11:22:59.000Z","2025-05-05T11:23:05.000Z","2025-05-05T11:23:06.000Z","2025-05-05T11:23:09.000Z","2025-05-05T11:23:11.000Z","2025-05-05T11:23:13.000Z","2025-05-05T11:23:14.000Z","2025-05-05T11:23:16.000Z","2025-05-05T11:23:17.000Z","2025-05-05T11:23:20.000Z","2025-05-05T11:23:24.000Z","2025-05-05T11:23:25.000Z","2025-05-05T11:23:27.000Z","2025-05-05T11:23:30.000Z","2025-05-05T11:23:31.000Z","2025-05-05T11:23:36.000Z","2025-05-05T11:23:39.000Z","2025-05-05T11:23:42.000Z","2025-05-05T11:23:46.000Z","2025-05-05T11:23:48.000Z","2025-05-05T11:23:52.000Z","2025-05-05T11:23:54.000Z","2025-05-05T11:23:55.000Z","2025-05-05T11:24:04.000Z","2025-05-05T11:24:05.000Z","2025-05-05T11:24:08.000Z","2025-05-05T11:24:10.000Z","2025-05-05T11:24:15.000Z","2025-05-05T11:24:21.000Z","2025-05-05T11:24:23.000Z","2025-05-05T11:24:26.000Z","2025-05-05T11:24:30.000Z","2025-05-05T11:24:31.000Z","2025-05-05T11:24:33.000Z","2025-05-05T11:24:35.000Z","2025-05-05T11:24:38.000Z","2025-05-05T11:24:40.000Z","2025-05-05T11:24:41.000Z","2025-05-05T11:24:42.000Z","2025-05-05T11:24:44.000Z","2025-05-05T11:24:45.000Z","2025-05-05T11:24:48.000Z","2025-05-05T11:24:52.000Z","2025-05-05T11:24:53.000Z","2025-05-05T11:24:54.000Z","2025-05-05T11:24:57.000Z","2025-05-05T11:24:58.000Z","2025-05-05T11:25:00.000Z","2025-05-05T11:25:01.000Z","2025-05-05T11:25:02.000Z","2025-05-05T11:25:04.000Z","2025-05-05T11:25:05.000Z","2025-05-05T11:25:06.000Z","2025-05-05T11:25:08.000Z","2025-05-05T11:25:11.000Z","2025-05-05T11:25:15.000Z","2025-05-05T11:25:18.000Z","2025-05-05T11:25:20.000Z","2025-05-05T11:25:26.000Z","2025-05-05T11:25:30.000Z","2025-05-05T11:25:33.000Z","2025-05-05T11:25:37.000Z","2025-05-05T11:25:42.000Z","2025-05-05T11:25:43.000Z","2025-05-05T11:25:44.000Z","2025-05-05T11:25:49.000Z","2025-05-05T11:25:50.000Z","2025-05-05T11:25:51.000Z","2025-05-05T11:25:52.000Z","2025-05-05T11:25:53.000Z","2025-05-05T11:25:54.000Z","2025-05-05T11:25:55.000Z","2025-05-05T11:25:56.000Z","2025-05-05T11:25:58.000Z","2025-05-05T11:26:01.000Z","2025-05-05T11:26:03.000Z","2025-05-05T11:26:08.000Z","2025-05-05T11:26:10.000Z","2025-05-05T11:26:13.000Z","2025-05-05T11:26:16.000Z","2025-05-05T11:26:18.000Z","2025-05-05T11:26:19.000Z","2025-05-05T11:26:25.000Z","2025-05-05T11:26:29.000Z","2025-05-05T11:26:30.000Z","2025-05-05T11:26:32.000Z","2025-05-05T11:26:34.000Z","2025-05-05T11:26:38.000Z","2025-05-05T11:26:39.000Z","2025-05-05T11:26:47.000Z","2025-05-05T11:26:50.000Z","2025-05-05T11:26:51.000Z","2025-05-05T11:26:53.000Z","2025-05-05T11:26:54.000Z","2025-05-05T11:26:56.000Z","2025-05-05T11:26:57.000Z","2025-05-05T11:26:58.000Z","2025-05-05T11:27:01.000Z","2025-05-05T11:27:03.000Z","2025-05-05T11:27:04.000Z","2025-05-05T11:27:07.000Z","2025-05-05T11:27:09.000Z","2025-05-05T11:27:10.000Z","2025-05-05T11:27:11.000Z","2025-05-05T11:27:13.000Z","2025-05-05T11:27:14.000Z","2025-05-05T11:27:15.000Z","2025-05-05T11:27:18.000Z","2025-05-05T11:27:22.000Z","2025-05-05T11:27:25.000Z","2025-05-05T11:27:29.000Z","2025-05-05T11:27:31.000Z","2025-05-05T11:27:34.000Z","2025-05-05T11:27:37.000Z","2025-05-05T11:27:40.000Z","2025-05-05T11:27:41.000Z","2025-05-05T11:27:43.000Z","2025-05-05T11:27:46.000Z","2025-05-05T11:27:50.000Z","2025-05-05T11:27:55.000Z","2025-05-05T11:28:01.000Z","2025-05-05T11:28:02.000Z","2025-05-05T11:28:03.000Z","2025-05-05T11:28:06.000Z","2025-05-05T11:28:11.000Z","2025-05-05T11:28:14.000Z","2025-05-05T11:28:15.000Z","2025-05-05T11:28:16.000Z","2025-05-05T11:28:18.000Z","2025-05-05T11:28:22.000Z","2025-05-05T11:28:24.000Z","2025-05-05T11:28:26.000Z","2025-05-05T11:28:30.000Z","2025-05-05T11:28:33.000Z","2025-05-05T11:28:34.000Z","2025-05-05T11:28:35.000Z","2025-05-05T11:28:36.000Z","2025-05-05T11:28:37.000Z","2025-05-05T11:28:39.000Z","2025-05-05T11:28:45.000Z","2025-05-05T11:29:12.000Z","2025-05-05T11:29:18.000Z","2025-05-05T11:29:23.000Z","2025-05-05T11:29:26.000Z","2025-05-05T11:29:32.000Z","2025-05-05T11:29:35.000Z","2025-05-05T11:29:40.000Z","2025-05-05T11:29:42.000Z","2025-05-05T11:29:44.000Z","2025-05-05T11:29:49.000Z","2025-05-05T11:29:51.000Z","2025-05-05T11:29:53.000Z","2025-05-05T11:29:54.000Z","2025-05-05T11:30:00.000Z","2025-05-05T11:30:04.000Z","2025-05-05T11:30:06.000Z","2025-05-05T11:30:22.000Z","2025-05-05T11:30:24.000Z","2025-05-05T11:30:25.000Z","2025-05-05T11:30:31.000Z","2025-05-05T11:31:23.000Z","2025-05-05T11:31:25.000Z","2025-05-05T11:31:31.000Z","2025-05-05T11:31:42.000Z","2025-05-05T11:31:50.000Z","2025-05-05T11:31:56.000Z","2025-05-05T11:32:00.000Z","2025-05-05T11:32:05.000Z","2025-05-05T11:32:09.000Z","2025-05-05T11:32:11.000Z","2025-05-05T11:32:16.000Z","2025-05-05T11:32:18.000Z","2025-05-05T11:32:20.000Z","2025-05-05T11:32:23.000Z","2025-05-05T11:32:25.000Z","2025-05-05T11:32:27.000Z","2025-05-05T11:32:29.000Z","2025-05-05T11:32:30.000Z","2025-05-05T11:32:32.000Z","2025-05-05T11:32:40.000Z","2025-05-05T11:32:44.000Z","2025-05-05T11:32:45.000Z","2025-05-05T11:32:47.000Z","2025-05-05T11:32:48.000Z","2025-05-05T11:32:50.000Z","2025-05-05T11:32:52.000Z","2025-05-05T11:32:54.000Z","2025-05-05T11:32:55.000Z","2025-05-05T11:32:59.000Z","2025-05-05T11:33:00.000Z","2025-05-05T11:33:02.000Z","2025-05-05T11:33:03.000Z","2025-05-05T11:33:05.000Z","2025-05-05T11:33:06.000Z","2025-05-05T11:33:07.000Z","2025-05-05T11:33:09.000Z","2025-05-05T11:33:12.000Z","2025-05-05T11:33:13.000Z","2025-05-05T11:33:14.000Z","2025-05-05T11:33:15.000Z","2025-05-05T11:33:16.000Z","2025-05-05T11:33:20.000Z","2025-05-05T11:33:22.000Z","2025-05-05T11:33:23.000Z","2025-05-05T11:33:24.000Z","2025-05-05T11:33:27.000Z","2025-05-05T11:33:28.000Z","2025-05-05T11:33:31.000Z","2025-05-05T11:33:33.000Z","2025-05-05T11:33:34.000Z","2025-05-05T11:33:37.000Z","2025-05-05T11:33:40.000Z","2025-05-05T11:33:41.000Z","2025-05-05T11:33:43.000Z","2025-05-05T11:36:07.000Z","2025-05-05T11:36:08.000Z","2025-05-05T11:36:12.000Z","2025-05-05T11:36:18.000Z","2025-05-05T11:36:24.000Z","2025-05-05T11:36:27.000Z","2025-05-05T11:36:31.000Z","2025-05-05T11:36:36.000Z","2025-05-05T11:36:37.000Z","2025-05-05T11:36:38.000Z","2025-05-05T11:36:39.000Z","2025-05-05T11:36:40.000Z","2025-05-05T11:36:42.000Z","2025-05-05T11:36:43.000Z","2025-05-05T11:36:45.000Z","2025-05-05T11:36:46.000Z","2025-05-05T11:36:48.000Z","2025-05-05T11:36:50.000Z","2025-05-05T11:36:52.000Z","2025-05-05T11:36:54.000Z","2025-05-05T11:36:55.000Z","2025-05-05T11:36:58.000Z","2025-05-05T11:36:59.000Z","2025-05-05T11:37:00.000Z","2025-05-05T11:37:01.000Z","2025-05-05T11:37:02.000Z","2025-05-05T11:37:04.000Z","2025-05-05T11:37:06.000Z","2025-05-05T11:37:11.000Z","2025-05-05T11:37:14.000Z","2025-05-05T11:37:18.000Z","2025-05-05T11:37:20.000Z","2025-05-05T11:37:24.000Z","2025-05-05T11:37:25.000Z","2025-05-05T11:37:27.000Z","2025-05-05T11:37:30.000Z","2025-05-05T11:37:39.000Z","2025-05-05T11:37:42.000Z","2025-05-05T11:37:44.000Z","2025-05-05T11:37:48.000Z","2025-05-05T11:37:49.000Z","2025-05-05T11:37:51.000Z","2025-05-05T11:37:52.000Z","2025-05-05T11:37:53.000Z","2025-05-05T11:37:54.000Z","2025-05-05T11:37:55.000Z","2025-05-05T11:37:56.000Z","2025-05-05T11:37:58.000Z","2025-05-05T11:38:00.000Z","2025-05-05T11:38:01.000Z","2025-05-05T11:38:10.000Z","2025-05-05T11:38:12.000Z","2025-05-05T11:38:14.000Z","2025-05-05T11:38:16.000Z","2025-05-05T11:38:20.000Z","2025-05-05T11:38:25.000Z","2025-05-05T11:38:31.000Z","2025-05-05T11:38:33.000Z","2025-05-05T11:38:34.000Z","2025-05-05T11:38:36.000Z","2025-05-05T11:38:44.000Z","2025-05-05T11:38:49.000Z","2025-05-05T11:38:51.000Z","2025-05-05T11:38:54.000Z","2025-05-05T11:38:57.000Z","2025-05-05T11:39:01.000Z","2025-05-05T11:39:03.000Z","2025-05-05T11:39:05.000Z","2025-05-05T11:39:06.000Z","2025-05-05T11:39:07.000Z","2025-05-05T11:39:09.000Z","2025-05-05T11:39:11.000Z","2025-05-05T11:39:14.000Z","2025-05-05T11:39:16.000Z","2025-05-05T11:39:17.000Z","2025-05-05T11:39:19.000Z","2025-05-05T11:39:21.000Z","2025-05-05T11:39:24.000Z","2025-05-05T11:39:26.000Z","2025-05-05T11:39:27.000Z","2025-05-05T11:39:28.000Z","2025-05-05T11:39:30.000Z","2025-05-05T11:39:32.000Z","2025-05-05T11:39:35.000Z","2025-05-05T11:39:36.000Z","2025-05-05T11:39:38.000Z","2025-05-05T11:39:43.000Z","2025-05-05T11:39:47.000Z","2025-05-05T11:39:48.000Z","2025-05-05T11:39:51.000Z","2025-05-05T11:39:54.000Z","2025-05-05T11:39:56.000Z","2025-05-05T11:39:57.000Z","2025-05-05T11:39:58.000Z","2025-05-05T11:40:00.000Z","2025-05-05T11:40:02.000Z","2025-05-05T11:40:03.000Z","2025-05-05T11:40:04.000Z","2025-05-05T11:40:08.000Z","2025-05-05T11:40:10.000Z","2025-05-05T11:40:11.000Z","2025-05-05T11:40:12.000Z","2025-05-05T11:40:17.000Z","2025-05-05T11:40:22.000Z","2025-05-05T11:40:24.000Z","2025-05-05T11:40:25.000Z","2025-05-05T11:40:30.000Z","2025-05-05T11:40:31.000Z","2025-05-05T11:40:32.000Z","2025-05-05T11:40:38.000Z","2025-05-05T11:40:39.000Z","2025-05-05T11:40:40.000Z","2025-05-05T11:40:43.000Z","2025-05-05T11:40:45.000Z","2025-05-05T11:40:46.000Z","2025-05-05T11:40:48.000Z","2025-05-05T11:40:49.000Z","2025-05-05T11:40:50.000Z","2025-05-05T11:40:51.000Z","2025-05-05T11:40:53.000Z","2025-05-05T11:40:55.000Z","2025-05-05T11:40:57.000Z","2025-05-05T11:40:59.000Z","2025-05-05T11:41:02.000Z","2025-05-05T11:41:04.000Z","2025-05-05T11:41:05.000Z","2025-05-05T11:41:07.000Z","2025-05-05T11:41:09.000Z","2025-05-05T11:41:13.000Z","2025-05-05T11:41:15.000Z","2025-05-05T11:41:18.000Z","2025-05-05T11:41:20.000Z","2025-05-05T11:41:28.000Z","2025-05-05T11:41:30.000Z","2025-05-05T11:41:31.000Z","2025-05-05T11:41:32.000Z","2025-05-05T11:41:35.000Z","2025-05-05T11:41:37.000Z","2025-05-05T11:41:40.000Z","2025-05-05T11:41:43.000Z","2025-05-05T11:41:46.000Z","2025-05-05T11:41:48.000Z","2025-05-05T11:41:51.000Z","2025-05-05T11:41:52.000Z","2025-05-05T11:41:55.000Z","2025-05-05T11:41:58.000Z","2025-05-05T11:41:59.000Z","2025-05-05T11:42:00.000Z","2025-05-05T11:42:01.000Z","2025-05-05T11:42:02.000Z","2025-05-05T11:42:05.000Z","2025-05-05T11:42:08.000Z","2025-05-05T11:42:11.000Z","2025-05-05T11:42:14.000Z","2025-05-05T11:42:15.000Z","2025-05-05T11:42:17.000Z","2025-05-05T11:42:19.000Z","2025-05-05T11:42:22.000Z","2025-05-05T11:42:24.000Z","2025-05-05T11:42:25.000Z","2025-05-05T11:42:26.000Z","2025-05-05T11:42:28.000Z","2025-05-05T11:42:30.000Z","2025-05-05T11:42:32.000Z","2025-05-05T11:42:34.000Z","2025-05-05T11:42:35.000Z","2025-05-05T11:42:37.000Z","2025-05-05T11:42:39.000Z","2025-05-05T11:42:45.000Z","2025-05-05T11:42:48.000Z","2025-05-05T11:42:52.000Z","2025-05-05T11:42:54.000Z","2025-05-05T11:42:55.000Z","2025-05-05T11:43:01.000Z","2025-05-05T11:43:02.000Z","2025-05-05T11:43:03.000Z","2025-05-05T11:43:04.000Z","2025-05-05T11:43:08.000Z","2025-05-05T11:43:10.000Z","2025-05-05T11:43:11.000Z","2025-05-05T11:43:13.000Z","2025-05-05T11:43:14.000Z","2025-05-05T11:43:17.000Z","2025-05-05T11:43:22.000Z","2025-05-05T11:43:23.000Z","2025-05-05T11:43:24.000Z","2025-05-05T11:43:26.000Z","2025-05-05T11:43:27.000Z","2025-05-05T11:43:29.000Z","2025-05-05T11:43:31.000Z","2025-05-05T11:43:32.000Z","2025-05-05T11:43:35.000Z","2025-05-05T11:43:37.000Z","2025-05-05T11:43:38.000Z","2025-05-05T11:43:39.000Z","2025-05-05T11:43:40.000Z","2025-05-05T11:43:43.000Z","2025-05-05T11:43:48.000Z","2025-05-05T11:43:50.000Z","2025-05-05T11:43:54.000Z","2025-05-05T11:43:55.000Z","2025-05-05T11:43:56.000Z","2025-05-05T11:43:57.000Z","2025-05-05T11:43:58.000Z","2025-05-05T11:43:59.000Z","2025-05-05T11:44:01.000Z","2025-05-05T11:44:02.000Z","2025-05-05T11:44:03.000Z","2025-05-05T11:44:07.000Z","2025-05-05T11:44:12.000Z","2025-05-05T11:44:15.000Z","2025-05-05T11:44:18.000Z","2025-05-05T11:44:20.000Z","2025-05-05T11:44:21.000Z","2025-05-05T11:44:22.000Z","2025-05-05T11:44:30.000Z","2025-05-05T11:44:35.000Z","2025-05-05T11:44:39.000Z","2025-05-05T11:44:41.000Z","2025-05-05T11:44:42.000Z","2025-05-05T11:44:44.000Z","2025-05-05T11:44:45.000Z","2025-05-05T11:44:48.000Z","2025-05-05T11:46:12.000Z","2025-05-05T11:46:13.000Z","2025-05-05T11:46:15.000Z","2025-05-05T11:46:16.000Z","2025-05-05T11:46:17.000Z","2025-05-05T11:46:18.000Z","2025-05-05T11:46:19.000Z","2025-05-05T11:46:20.000Z","2025-05-05T11:46:21.000Z","2025-05-05T11:46:22.000Z","2025-05-05T11:46:24.000Z","2025-05-05T11:46:26.000Z","2025-05-05T11:46:27.000Z","2025-05-05T11:46:29.000Z","2025-05-05T11:46:30.000Z","2025-05-05T11:46:31.000Z","2025-05-05T11:46:32.000Z","2025-05-05T11:46:34.000Z","2025-05-05T11:46:38.000Z","2025-05-05T11:46:43.000Z","2025-05-05T11:46:44.000Z","2025-05-05T11:46:45.000Z","2025-05-05T11:46:46.000Z","2025-05-05T11:46:47.000Z","2025-05-05T11:46:48.000Z","2025-05-05T11:46:49.000Z","2025-05-05T11:46:50.000Z","2025-05-05T11:46:51.000Z","2025-05-05T11:46:54.000Z","2025-05-05T11:46:55.000Z","2025-05-05T11:46:57.000Z","2025-05-05T11:47:01.000Z","2025-05-05T11:47:10.000Z","2025-05-05T11:47:20.000Z","2025-05-05T11:47:25.000Z","2025-05-05T11:47:26.000Z","2025-05-05T11:47:28.000Z","2025-05-05T11:47:32.000Z","2025-05-05T11:47:34.000Z","2025-05-05T11:47:43.000Z","2025-05-05T11:47:47.000Z","2025-05-05T11:47:49.000Z","2025-05-05T11:47:53.000Z","2025-05-05T11:47:56.000Z","2025-05-05T11:47:57.000Z","2025-05-05T11:48:00.000Z","2025-05-05T11:48:05.000Z","2025-05-05T11:48:11.000Z","2025-05-05T11:48:20.000Z","2025-05-05T11:48:26.000Z","2025-05-05T11:48:29.000Z","2025-05-05T11:48:31.000Z","2025-05-05T11:48:34.000Z","2025-05-05T11:48:38.000Z","2025-05-05T11:48:40.000Z","2025-05-05T11:48:41.000Z","2025-05-05T11:48:42.000Z","2025-05-05T11:48:44.000Z","2025-05-05T11:48:46.000Z","2025-05-05T11:48:47.000Z","2025-05-05T11:48:48.000Z","2025-05-05T11:48:51.000Z","2025-05-05T11:48:54.000Z","2025-05-05T11:48:58.000Z","2025-05-05T11:49:02.000Z","2025-05-05T11:49:07.000Z","2025-05-05T11:49:08.000Z","2025-05-05T11:49:11.000Z","2025-05-05T11:49:13.000Z","2025-05-05T11:49:21.000Z","2025-05-05T11:49:28.000Z","2025-05-05T11:49:31.000Z","2025-05-05T11:49:32.000Z","2025-05-05T11:49:33.000Z","2025-05-05T11:49:34.000Z","2025-05-05T11:49:35.000Z","2025-05-05T11:49:36.000Z","2025-05-05T11:49:37.000Z","2025-05-05T11:49:40.000Z","2025-05-05T11:49:44.000Z","2025-05-05T11:49:46.000Z","2025-05-05T11:49:50.000Z","2025-05-05T11:49:52.000Z","2025-05-05T11:49:56.000Z","2025-05-05T11:50:00.000Z","2025-05-05T11:50:01.000Z","2025-05-05T11:50:02.000Z","2025-05-05T11:50:03.000Z","2025-05-05T11:50:05.000Z","2025-05-05T11:50:07.000Z","2025-05-05T11:50:08.000Z","2025-05-05T11:50:13.000Z","2025-05-05T11:50:18.000Z","2025-05-05T11:50:23.000Z","2025-05-05T11:50:26.000Z","2025-05-05T11:50:30.000Z","2025-05-05T11:50:31.000Z","2025-05-05T11:50:32.000Z","2025-05-05T11:50:33.000Z","2025-05-05T11:50:34.000Z","2025-05-05T11:50:36.000Z","2025-05-05T11:50:37.000Z","2025-05-05T11:50:38.000Z","2025-05-05T11:50:41.000Z","2025-05-05T11:50:42.000Z","2025-05-05T11:50:43.000Z","2025-05-05T11:50:45.000Z","2025-05-05T11:50:46.000Z","2025-05-05T11:50:48.000Z","2025-05-05T11:50:49.000Z","2025-05-05T11:50:51.000Z","2025-05-05T11:50:54.000Z","2025-05-05T11:51:00.000Z","2025-05-05T11:51:01.000Z","2025-05-05T11:51:03.000Z","2025-05-05T11:51:05.000Z","2025-05-05T11:51:06.000Z","2025-05-05T11:51:07.000Z","2025-05-05T11:51:08.000Z","2025-05-05T11:51:10.000Z","2025-05-05T11:51:12.000Z","2025-05-05T11:51:13.000Z","2025-05-05T11:51:15.000Z","2025-05-05T11:51:16.000Z","2025-05-05T11:51:18.000Z","2025-05-05T11:51:19.000Z","2025-05-05T11:51:21.000Z","2025-05-05T11:51:23.000Z","2025-05-05T11:51:26.000Z","2025-05-05T11:51:31.000Z","2025-05-05T11:51:33.000Z","2025-05-05T11:51:34.000Z","2025-05-05T11:51:35.000Z","2025-05-05T11:51:37.000Z","2025-05-05T11:51:39.000Z","2025-05-05T11:51:42.000Z","2025-05-05T11:51:49.000Z","2025-05-05T11:51:52.000Z","2025-05-05T11:51:53.000Z","2025-05-05T11:51:56.000Z","2025-05-05T11:51:57.000Z","2025-05-05T11:51:58.000Z","2025-05-05T11:51:59.000Z","2025-05-05T11:52:00.000Z","2025-05-05T11:52:02.000Z","2025-05-05T11:52:07.000Z","2025-05-05T11:52:09.000Z","2025-05-05T11:52:10.000Z","2025-05-05T11:52:17.000Z","2025-05-05T11:52:20.000Z","2025-05-05T11:52:21.000Z","2025-05-05T11:52:22.000Z","2025-05-05T11:52:23.000Z","2025-05-05T11:52:28.000Z","2025-05-05T11:52:31.000Z","2025-05-05T11:52:34.000Z","2025-05-05T11:52:36.000Z","2025-05-05T11:52:38.000Z","2025-05-05T11:52:40.000Z","2025-05-05T11:52:41.000Z","2025-05-05T11:52:42.000Z","2025-05-05T11:52:43.000Z","2025-05-05T11:52:44.000Z","2025-05-05T11:52:47.000Z","2025-05-05T11:52:48.000Z","2025-05-05T11:52:52.000Z","2025-05-05T11:52:55.000Z","2025-05-05T11:53:00.000Z","2025-05-05T11:53:01.000Z","2025-05-05T11:53:04.000Z","2025-05-05T11:53:11.000Z","2025-05-05T11:53:17.000Z","2025-05-05T11:53:19.000Z","2025-05-05T11:53:20.000Z","2025-05-05T11:53:21.000Z","2025-05-05T11:53:23.000Z","2025-05-05T11:53:24.000Z","2025-05-05T11:53:26.000Z","2025-05-05T11:53:27.000Z","2025-05-05T11:53:28.000Z","2025-05-05T11:53:30.000Z","2025-05-05T11:53:38.000Z","2025-05-05T11:53:43.000Z","2025-05-05T11:53:48.000Z","2025-05-05T11:53:54.000Z","2025-05-05T11:53:57.000Z","2025-05-05T11:53:59.000Z","2025-05-05T11:54:00.000Z","2025-05-05T11:54:01.000Z","2025-05-05T11:54:06.000Z","2025-05-05T11:54:12.000Z","2025-05-05T11:54:17.000Z","2025-05-05T11:54:26.000Z","2025-05-05T11:54:32.000Z","2025-05-05T11:54:34.000Z","2025-05-05T11:54:36.000Z","2025-05-05T11:54:38.000Z","2025-05-05T11:54:41.000Z","2025-05-05T11:54:44.000Z","2025-05-05T11:54:50.000Z","2025-05-05T11:54:55.000Z","2025-05-05T11:54:57.000Z","2025-05-05T11:54:58.000Z","2025-05-05T11:54:59.000Z","2025-05-05T11:55:00.000Z","2025-05-05T11:55:03.000Z","2025-05-05T11:55:05.000Z","2025-05-05T11:55:08.000Z","2025-05-05T11:55:11.000Z","2025-05-05T11:55:12.000Z","2025-05-05T11:55:13.000Z","2025-05-05T11:55:15.000Z","2025-05-05T11:55:16.000Z","2025-05-05T11:55:20.000Z","2025-05-05T11:55:27.000Z","2025-05-05T11:55:37.000Z","2025-05-05T11:55:38.000Z","2025-05-05T11:55:40.000Z","2025-05-05T11:55:41.000Z","2025-05-05T11:55:43.000Z","2025-05-05T11:55:47.000Z","2025-05-05T11:55:49.000Z","2025-05-05T11:55:51.000Z","2025-05-05T11:55:52.000Z","2025-05-05T11:55:56.000Z","2025-05-05T11:56:03.000Z","2025-05-05T11:56:05.000Z","2025-05-05T11:56:06.000Z","2025-05-05T11:56:10.000Z","2025-05-05T11:56:11.000Z","2025-05-05T11:56:12.000Z","2025-05-05T11:56:13.000Z","2025-05-05T11:56:15.000Z","2025-05-05T11:56:17.000Z","2025-05-05T11:56:23.000Z","2025-05-05T11:56:26.000Z","2025-05-05T11:56:27.000Z","2025-05-05T11:56:31.000Z","2025-05-05T11:56:33.000Z","2025-05-05T11:56:37.000Z","2025-05-05T11:56:42.000Z","2025-05-05T11:56:45.000Z","2025-05-05T11:56:46.000Z","2025-05-05T11:56:54.000Z","2025-05-05T11:56:55.000Z","2025-05-05T11:56:58.000Z","2025-05-05T11:57:00.000Z","2025-05-05T11:57:01.000Z","2025-05-05T11:57:02.000Z","2025-05-05T11:57:03.000Z","2025-05-05T11:57:06.000Z","2025-05-05T11:57:08.000Z","2025-05-05T11:57:09.000Z","2025-05-05T11:57:10.000Z","2025-05-05T11:57:14.000Z","2025-05-05T11:57:16.000Z","2025-05-05T11:57:18.000Z","2025-05-05T11:57:19.000Z","2025-05-05T11:57:21.000Z","2025-05-05T11:57:22.000Z","2025-05-05T11:57:26.000Z","2025-05-05T11:57:29.000Z","2025-05-05T11:57:30.000Z","2025-05-05T11:57:31.000Z","2025-05-05T11:57:36.000Z","2025-05-05T11:57:38.000Z","2025-05-05T11:57:39.000Z","2025-05-05T11:57:43.000Z","2025-05-05T11:57:46.000Z","2025-05-05T11:57:47.000Z","2025-05-05T11:57:49.000Z","2025-05-05T11:57:50.000Z","2025-05-05T11:57:52.000Z","2025-05-05T11:57:53.000Z","2025-05-05T11:57:54.000Z","2025-05-05T11:57:55.000Z","2025-05-05T11:57:56.000Z","2025-05-05T11:57:57.000Z","2025-05-05T11:57:58.000Z","2025-05-05T11:57:59.000Z","2025-05-05T11:58:02.000Z","2025-05-05T11:58:04.000Z","2025-05-05T11:58:06.000Z","2025-05-05T11:58:08.000Z","2025-05-05T11:58:11.000Z","2025-05-05T11:58:19.000Z","2025-05-05T11:58:22.000Z","2025-05-05T11:58:24.000Z","2025-05-05T11:58:26.000Z","2025-05-05T11:58:27.000Z","2025-05-05T11:58:28.000Z","2025-05-05T11:58:29.000Z","2025-05-05T11:58:30.000Z","2025-05-05T11:58:31.000Z","2025-05-05T11:58:32.000Z","2025-05-05T11:58:33.000Z","2025-05-05T11:58:34.000Z","2025-05-05T11:58:36.000Z","2025-05-05T11:58:38.000Z","2025-05-05T11:58:44.000Z","2025-05-05T11:58:46.000Z","2025-05-05T11:58:48.000Z","2025-05-05T11:58:50.000Z","2025-05-05T11:58:51.000Z","2025-05-05T11:58:52.000Z","2025-05-05T11:58:53.000Z","2025-05-05T11:58:58.000Z","2025-05-05T11:59:07.000Z","2025-05-05T11:59:11.000Z","2025-05-05T11:59:12.000Z","2025-05-05T11:59:14.000Z","2025-05-05T11:59:17.000Z","2025-05-05T11:59:18.000Z","2025-05-05T11:59:22.000Z","2025-05-05T11:59:30.000Z","2025-05-05T11:59:36.000Z","2025-05-05T11:59:38.000Z","2025-05-05T11:59:40.000Z","2025-05-05T11:59:43.000Z","2025-05-05T11:59:56.000Z","2025-05-05T12:00:00.000Z","2025-05-05T12:00:01.000Z","2025-05-05T12:00:02.000Z","2025-05-05T12:00:03.000Z","2025-05-05T12:00:05.000Z","2025-05-05T12:00:08.000Z","2025-05-05T12:00:12.000Z","2025-05-05T12:00:14.000Z","2025-05-05T12:00:18.000Z","2025-05-05T12:00:31.000Z","2025-05-05T12:00:34.000Z","2025-05-05T12:00:39.000Z","2025-05-05T12:00:40.000Z","2025-05-05T12:00:51.000Z","2025-05-05T12:01:01.000Z","2025-05-05T12:01:06.000Z","2025-05-05T12:01:09.000Z","2025-05-05T12:01:12.000Z","2025-05-05T12:01:19.000Z","2025-05-05T12:01:22.000Z","2025-05-05T12:01:23.000Z","2025-05-05T12:01:24.000Z","2025-05-05T12:01:26.000Z","2025-05-05T12:01:33.000Z","2025-05-05T12:01:39.000Z","2025-05-05T12:01:46.000Z","2025-05-05T12:01:47.000Z","2025-05-05T12:01:52.000Z","2025-05-05T12:01:55.000Z","2025-05-05T12:01:57.000Z","2025-05-05T12:02:00.000Z","2025-05-05T12:02:04.000Z","2025-05-05T12:02:05.000Z","2025-05-05T12:02:09.000Z","2025-05-05T12:02:15.000Z","2025-05-05T12:02:26.000Z","2025-05-05T12:02:32.000Z","2025-05-05T12:02:35.000Z","2025-05-05T12:02:37.000Z","2025-05-05T12:02:41.000Z","2025-05-05T12:02:46.000Z","2025-05-05T12:02:48.000Z","2025-05-05T12:02:52.000Z","2025-05-05T12:02:55.000Z","2025-05-05T12:03:00.000Z","2025-05-05T12:03:03.000Z","2025-05-05T12:03:14.000Z","2025-05-05T12:03:22.000Z","2025-05-05T12:03:24.000Z","2025-05-05T12:03:32.000Z","2025-05-05T12:03:33.000Z","2025-05-05T12:03:40.000Z","2025-05-05T12:03:41.000Z","2025-05-05T12:03:42.000Z","2025-05-05T12:03:43.000Z","2025-05-05T12:03:47.000Z","2025-05-05T12:03:53.000Z","2025-05-05T12:03:59.000Z","2025-05-05T12:04:05.000Z","2025-05-05T12:04:06.000Z","2025-05-05T12:04:10.000Z","2025-05-05T12:04:18.000Z","2025-05-05T12:04:24.000Z","2025-05-05T12:04:28.000Z","2025-05-05T12:04:32.000Z","2025-05-05T12:04:47.000Z","2025-05-05T12:04:49.000Z","2025-05-05T12:05:00.000Z","2025-05-05T12:05:01.000Z"],"heartRates":[100,100,100,100,106,108,104,109,109,109,107,129,127,112,110,110,82,82,82,101,101,101,104,110,110,110,109,109,109,109,109,113,108,108,108,108,108,108,108,108,108,108,108,108,110,110,110,114,114,115,115,115,115,117,117,118,118,120,120,120,126,126,125,125,125,125,125,125,128,128,128,128,128,128,128,129,128,127,135,135,134,134,134,134,136,136,134,133,133,133,133,133,133,133,131,131,132,134,134,134,135,135,135,134,134,134,134,136,136,136,136,137,137,136,136,135,135,135,135,135,135,135,135,135,140,140,141,141,141,141,141,141,141,141,141,141,141,141,141,142,138,138,143,143,143,150,150,150,149,148,148,149,149,147,147,147,147,147,147,148,148,148,148,148,148,148,148,148,148,149,149,148,148,147,147,147,147,148,148,148,148,148,147,147,148,148,146,146,146,146,146,146,146,144,144,144,142,141,141,113,113,113,120,120,120,121,121,121,121,121,121,121,121,113,113,113,113,116,117,122,122,127,127,125,124,124,125,122,122,122,122,122,122,122,122,121,121,119,118,118,118,118,115,116,116,116,116,116,116,116,118,118,119,119,120,120,120,120,122,122,124,124,124,127,128,128,128,132,132,131,131,131,131,132,132,132,134,135,135,136,136,136,136,136,136,136,136,136,137,137,137,137,141,141,141,136,136,136,135,134,134,134,134,134,131,131,131,131,131,131,131,134,134,134,134,133,133,133,131,131,128,128,127,127,127,127,128,128,128,129,129,129,129,128,128,128,128,128,127,127,124,124,124,121,121,124,124,122,122,122,122,122,124,126,126,132,132,132,129,129,129,129,126,127,127,130,129,122,122,124,124,124,122,122,124,124,127,127,127,125,125,125,125,125,125,125,122,122,120,119,119,119,118,119,119,119,120,120,119,119,115,116,116,116,117,117,119,121,121,122,124,124,124,124,124,124,124,125,125,122,122,122,121,122,122,122,122,122,121,121,121,121,121,121,120,120,120,120,122,122,122,124,124,125,125,125,125,128,128,128,126,130,130,130,126,126,126,125,125,125,125,125,125,125,134,134,134,134,135,135,134,134,134,133,133,133,133,132,132,135,135,135,135,135,136,136,135,135,134,134,134,134,134,134,134,134,134,134,132,131,131,131,130,130,130,130,130,130,130,130,130,130,132,132,133,133,133,132,132,132,132,132,132,132,130,130,130,130,130,130,131,131,131,130,130,130,130,128,128,128,128,127,125,125,125,125,125,124,124,124,122,122,122,120,120,118,118,118,114,114,114,114,114,116,117,114,114,113,113,115,115,115,117,118,118,118,118,118,118,116,116,116,116,116,109,110,112,113,113,111,111,116,116,116,116,116,114,114,114,115,115,115,117,119,119,121,121,122,122,128,128,128,128,127,127,127,127,127,127,125,125,125,124,124,124,124,124,124,124,126,126,126,126,122,122,122,122,122,122,111,114,114,114,120,122,122,122,122,122,122,122,122,122,122,122,125,125,126,126,126,126,126,126,125,124,124,124,124,124,126,126,126,125,126,128,128,127,127,127,127,127,127,127,127,127,127,127,124,124,124,124,124,122,122,122,122,125,125,122,122,122,122,121,121,121,121,120,120,122,122,122,122,125,125,126,126,126,127,127,125,125,125,125,125,126,126,126,126,126,126,126,125,125,125,125,121,121,121,121,121,121,124,124,122,122,122,122,122,122,121,121,121,122,122,122,122,120,120,120,120,121,121,121,121,124,124,124,124,124,124,124,126,126,126,126,126,127,127,127,127,127,127,129,129,129,129,129,131,131,130,129,129,129,127,127,127,127,127,125,125,125,125,125,125,126,126,128,128,127,127,127,127,127,127,127,127,127,127,127,128,128,128,128,128,128,128,128,128,128,128,128,128,128,128,122,122,122,122,122,122,122,122,122,122,122,122,122,122,122,122,122,122,121,121,121,121,121,121,122,122,122,122,104,104,104,104,104,104,104,122,122,126,126,126,128,128,128,128,128,126,126,126,130,130,130,130,130,132,133,133,133,133,137,140,140,140,139,139,139,139,140,140,141,141,142,142,142,142,142,142,140,140,139,139,139,139,136,136,136,136,136,138,138,139,138,138,136,136,136,137,137,136,136,136,136,136,136,133,133,132,132,130,130,127,127,127,127,127,127,122,122,124,126,124,122,122,122,122,121,122,122,122,122,122,122,122,122,122,119,119,117,117,122,122,126,126,126,126,125,124,124,124,124,122,122,122,122,121,121,120,120,120,120,120,120,125,127,127,127,127,127,125,125,125,125,126,125,125,125,124,124,122,122,125,126,126,125,125,125,125,125,126,126,124,124,124,124,125,125,125,122,122,122,120,120,120,120,120,120,120,121,124,125,124,124,127,127,127,127,127,130,130,128,128,128,130,130,130,130,129,132,132,132,132,132,131,131,131,131,132,132,132,132,132,133,134,133,133,133,132,132,132,132,127,127,126,126,127,127,127,125,125,122,122,125,126,126,126,129,129,131,131,131,131,131,128,128,128,128,125,124,124,124,124,124,124,124,124,122,122,120,118,118,118,114,114,116,116,116,116,112,112,111,111,112,112,112,112,112,112,121,121,121,128,128,127,127,128,128,128,128,128,128,128,128,131,131,131,131,131,131,131,130,130,130,130,124,126,127,127,126,126,126,124,124,124,125,125,132,134,131,131,131,131,131,129,131,131,133,133,134,135,135,137,138,138,138,138,136,136,136,132,132,130,131,133,133,133,133,133,133,134,133,134,137,138,142,142,142,144,144,144,144,143,145,145,143,143,137,133,133,133,133,133,133,135,133,134,134,134,134,134,135,137,138,142,142,141,141]},"geometry":{"type":"LineString","coordinates":[[2.453764,48.700522,83.7],[2.453841,48.70049,83.7],[2.453895,48.700441,83.7],[2.454012,48.70032,83.8],[2.454105,48.700241,84],[2.454467,48.699902,84.4],[2.454716,48.699685,84.7],[2.455217,48.69922,85],[2.455363,48.699079,85],[2.455503,48.698928,85.1],[2.456379,48.698135,84.9],[2.456496,48.698018,84.9],[2.457544,48.697062,85.2],[2.45775,48.69686,85.3],[2.457793,48.696848,85.3],[2.457841,48.696807,85.4],[2.45792,48.696762,85.4],[2.457988,48.696769,85.4],[2.458127,48.696801,85.5],[2.458539,48.696922,85.6],[2.458615,48.696896,85.6],[2.458736,48.696895,85.6],[2.458865,48.696902,85.6],[2.459291,48.697039,85.4],[2.459608,48.697163,85.4],[2.459704,48.697186,85.4],[2.459787,48.697215,85.3],[2.459957,48.69728,85.3],[2.460019,48.697316,85.3],[2.460108,48.697334,85.3],[2.460197,48.697359,85.2],[2.460279,48.697373,85.2],[2.460593,48.697468,85.3],[2.460805,48.697564,85.2],[2.460836,48.697588,85.2],[2.460876,48.69759,85.2],[2.460916,48.697582,85.3],[2.460974,48.697585,85.3],[2.460948,48.697574,85.4],[2.460929,48.697552,85.4],[2.460916,48.697513,85.4],[2.460934,48.697518,85.4],[2.460986,48.697488,85.5],[2.461064,48.69742,85.5],[2.461155,48.697323,85.5],[2.461289,48.697213,85.5],[2.461367,48.697129,85.5],[2.461499,48.697008,85.5],[2.461546,48.696962,85.5],[2.461576,48.696919,85.6],[2.4617,48.696798,85.6],[2.461753,48.696761,85.6],[2.461837,48.696668,85.7],[2.461978,48.696535,85.8],[2.462067,48.696429,85.8],[2.462209,48.696299,85.9],[2.462302,48.696192,85.9],[2.462464,48.69604,85.9],[2.462707,48.695788,86],[2.462813,48.69569,86],[2.463516,48.694983,86.1],[2.463603,48.694885,86.1],[2.463681,48.69478,86.1],[2.463738,48.694721,86.1],[2.463787,48.694681,86.1],[2.463922,48.694596,86.1],[2.464053,48.694462,86],[2.464121,48.694414,86],[2.464132,48.694398,86],[2.464116,48.694375,86.1],[2.46417,48.694375,86.1],[2.464287,48.694395,86],[2.464354,48.694383,86],[2.464411,48.694336,86],[2.464447,48.694282,85.9],[2.464671,48.694039,86],[2.465122,48.693603,86],[2.465537,48.693176,86],[2.466267,48.692461,85.8],[2.466549,48.69217,85.7],[2.466663,48.692064,85.7],[2.466764,48.691954,85.8],[2.466878,48.691842,85.8],[2.466944,48.691786,85.9],[2.467477,48.691254,86.2],[2.467723,48.690989,86.3],[2.467882,48.690839,86.5],[2.467926,48.690789,86.6],[2.467957,48.690739,86.6],[2.467965,48.690679,86.7],[2.467951,48.690617,86.7],[2.467919,48.690559,86.8],[2.467872,48.690443,86.8],[2.467844,48.690328,86.8],[2.46778,48.690169,86.8],[2.467746,48.690048,86.7],[2.467694,48.689909,86.7],[2.467592,48.68972,86.7],[2.467589,48.68965,86.8],[2.467555,48.689587,86.9],[2.467428,48.689229,87.3],[2.467382,48.689047,87.5],[2.467328,48.688875,87.5],[2.467281,48.688761,87.5],[2.467223,48.68865,87.5],[2.46718,48.688534,87.5],[2.467118,48.688352,87.5],[2.467095,48.688233,87.6],[2.467042,48.688064,87.6],[2.466937,48.687825,87.7],[2.466879,48.687651,87.8],[2.466814,48.687486,87.9],[2.466729,48.687334,87.9],[2.466721,48.687285,88],[2.466727,48.687234,88],[2.466631,48.686912,88.4],[2.466525,48.6867,88.6],[2.466491,48.686598,88.6],[2.466462,48.686552,88.6],[2.466443,48.686504,88.7],[2.46644,48.686441,88.6],[2.466417,48.686323,88.6],[2.466355,48.686165,88.5],[2.466336,48.686054,88.4],[2.466276,48.685883,88.3],[2.466269,48.685821,88.3],[2.466276,48.685766,88.2],[2.466266,48.685708,88.2],[2.4662,48.685537,88],[2.466162,48.685425,87.9],[2.466093,48.685196,87.8],[2.46602,48.684909,87.9],[2.465974,48.68468,87.9],[2.465909,48.68445,87.8],[2.465886,48.684328,87.8],[2.465837,48.684159,87.8],[2.465776,48.683986,87.7],[2.465708,48.683728,87.6],[2.465651,48.683459,87.6],[2.4655,48.683005,87.7],[2.46549,48.682937,87.7],[2.46532,48.682325,87.8],[2.465204,48.681822,87.7],[2.46516,48.681679,87.6],[2.465084,48.681476,87.6],[2.465026,48.681265,87.5],[2.464961,48.680971,87.5],[2.464835,48.680537,87.4],[2.464733,48.680099,87.1],[2.464654,48.67981,87],[2.464624,48.679744,87],[2.464561,48.679535,87],[2.46453,48.679466,87],[2.464475,48.679403,87.1],[2.464406,48.679348,87],[2.464311,48.679302,87],[2.464002,48.679234,86.9],[2.463813,48.679173,86.8],[2.463719,48.679149,86.8],[2.463182,48.678975,86.6],[2.462981,48.678924,86.5],[2.462887,48.678895,86.5],[2.462786,48.678876,86.4],[2.462689,48.678847,86.4],[2.4626,48.67881,86.4],[2.462415,48.67875,86.3],[2.462131,48.678676,86.3],[2.461838,48.678589,86.2],[2.461376,48.67844,85.9],[2.460597,48.678222,85.5],[2.460413,48.678161,85.4],[2.459624,48.677929,84.5],[2.459421,48.677873,84.3],[2.458932,48.677719,83.9],[2.458438,48.677591,83.8],[2.458338,48.677577,83.8],[2.458141,48.67757,83.8],[2.458048,48.677559,83.9],[2.45796,48.677529,83.9],[2.457887,48.677486,84],[2.457758,48.677393,84.1],[2.457684,48.677355,84.2],[2.45735,48.677259,84.3],[2.457273,48.677228,84.4],[2.456574,48.677024,84.9],[2.455882,48.676797,85.3],[2.45575,48.676767,85.4],[2.455538,48.676704,85.5],[2.4555,48.67668,85.5],[2.455518,48.676677,85.5],[2.455525,48.67666,85.5],[2.455536,48.676658,85.5],[2.455531,48.67665,85.6],[2.455537,48.676614,85.6],[2.455574,48.676591,85.6],[2.455574,48.676565,85.6],[2.455592,48.676532,85.6],[2.455698,48.676474,85.7],[2.4557,48.676478,85.7],[2.455774,48.676459,85.7],[2.455799,48.676447,85.7],[2.45584,48.676449,85.8],[2.455866,48.676439,85.8],[2.455922,48.676388,85.8],[2.455923,48.676377,85.8],[2.455954,48.676348,85.8],[2.455985,48.676343,85.9],[2.455993,48.676323,85.9],[2.455987,48.676296,85.9],[2.456024,48.67629,85.9],[2.456036,48.67627,86],[2.455982,48.676264,86],[2.455961,48.676293,86],[2.455893,48.676341,86.1],[2.45589,48.676357,86.1],[2.455885,48.676367,86.1],[2.455892,48.676361,86.1],[2.455879,48.676387,86.2],[2.455844,48.676424,86.2],[2.455617,48.676523,86.4],[2.455591,48.676538,86.5],[2.455558,48.676576,86.5],[2.45556,48.676586,86.5],[2.455539,48.676625,86.4],[2.455526,48.676713,86.3],[2.455509,48.676713,86.2],[2.455502,48.676723,86.2],[2.455578,48.676776,86.1],[2.455615,48.676792,86],[2.45582,48.676838,85.8],[2.456128,48.676928,85.6],[2.45628,48.676978,85.5],[2.4565,48.677029,85.3],[2.456726,48.6771,85.1],[2.456877,48.677139,85],[2.456954,48.677166,85],[2.457553,48.677333,84.3],[2.457677,48.677382,84.2],[2.457797,48.677415,84.1],[2.457942,48.677518,83.9],[2.458007,48.677542,83.9],[2.458208,48.677578,83.8],[2.458263,48.677567,83.8],[2.458323,48.677577,83.8],[2.458404,48.67758,83.8],[2.458554,48.677619,83.7],[2.45863,48.677645,83.7],[2.458708,48.677657,83.8],[2.458781,48.677693,83.8],[2.458927,48.677728,83.9],[2.459235,48.677818,84.1],[2.4593,48.677847,84.2],[2.45944,48.677886,84.3],[2.459508,48.677914,84.4],[2.459705,48.677977,84.6],[2.459774,48.677993,84.7],[2.459913,48.678037,84.9],[2.460048,48.678063,85],[2.460311,48.678147,85.3],[2.460653,48.678241,85.5],[2.460792,48.67829,85.6],[2.460877,48.678308,85.6],[2.461088,48.678383,85.7],[2.461384,48.67846,85.9],[2.46167,48.678547,86.1],[2.461884,48.6786,86.2],[2.462095,48.678672,86.3],[2.462259,48.678711,86.3],[2.462549,48.678807,86.4],[2.462933,48.678907,86.5],[2.46314,48.678984,86.6],[2.463217,48.679005,86.6],[2.46345,48.679052,86.7],[2.463588,48.679095,86.8],[2.463743,48.679154,86.8],[2.463965,48.679219,86.8],[2.464047,48.67923,86.9],[2.464243,48.679299,87],[2.464389,48.679328,87],[2.464464,48.679327,87.1],[2.464516,48.679304,87.2],[2.464547,48.679276,87.3],[2.464579,48.679258,87.3],[2.464627,48.679247,87.3],[2.464655,48.679233,87.3],[2.464699,48.679174,87.4],[2.464742,48.67914,87.4],[2.464813,48.679057,87.4],[2.46489,48.678998,87.4],[2.464926,48.678961,87.4],[2.464983,48.678922,87.4],[2.465054,48.678836,87.4],[2.465191,48.67872,87.4],[2.46521,48.678693,87.4],[2.465257,48.678654,87.4],[2.465359,48.678576,87.5],[2.46539,48.67858,87.5],[2.465462,48.678514,87.5],[2.465511,48.678448,87.6],[2.465539,48.678431,87.6],[2.465596,48.678411,87.6],[2.465607,48.678399,87.7],[2.465653,48.678396,87.7],[2.465683,48.678382,87.7],[2.465681,48.678365,87.7],[2.465706,48.678358,87.7],[2.465701,48.678278,87.7],[2.46579,48.678186,87.7],[2.465825,48.678163,87.7],[2.465864,48.678149,87.7],[2.465901,48.678112,87.7],[2.465964,48.678069,87.7],[2.466037,48.677995,87.7],[2.466049,48.677943,87.7],[2.466032,48.677909,87.7],[2.465964,48.6777,87.6],[2.465948,48.677683,87.6],[2.465956,48.677653,87.6],[2.465939,48.677551,87.6],[2.465922,48.677533,87.6],[2.465862,48.677553,87.6],[2.465769,48.677557,87.6],[2.465742,48.677571,87.6],[2.465749,48.67761,87.6],[2.465916,48.677618,87.6],[2.465962,48.677559,87.6],[2.466002,48.677549,87.6],[2.466101,48.677566,87.6],[2.466157,48.677584,87.5],[2.466284,48.677589,87.5],[2.466326,48.677579,87.5],[2.466384,48.677553,87.5],[2.466417,48.67752,87.5],[2.466554,48.677423,87.4],[2.466603,48.677383,87.4],[2.466718,48.677256,87.4],[2.467041,48.676976,87.2],[2.467201,48.676805,87.1],[2.467332,48.676699,87.1],[2.467411,48.676612,87.1],[2.467487,48.676545,87.1],[2.467662,48.676418,87.1],[2.467698,48.676384,87.1],[2.467763,48.676302,87.2],[2.467899,48.676178,87.2],[2.468109,48.675958,87.2],[2.468255,48.675833,87.1],[2.468384,48.675697,87.1],[2.468494,48.67561,87],[2.468527,48.675566,87],[2.46857,48.675524,87],[2.468777,48.675372,86.9],[2.468893,48.675211,86.9],[2.469028,48.67509,86.9],[2.469224,48.674889,86.7],[2.469392,48.674759,86.7],[2.469514,48.674632,86.8],[2.469603,48.674552,86.9],[2.469659,48.674532,86.9],[2.469727,48.674523,86.9],[2.469799,48.674525,86.9],[2.469879,48.674539,86.9],[2.470231,48.674636,86.8],[2.470374,48.674683,86.8],[2.470527,48.674717,86.8],[2.470662,48.674765,86.8],[2.471272,48.674937,86.7],[2.471378,48.674958,86.7],[2.471477,48.674986,86.7],[2.471547,48.675013,86.7],[2.471572,48.675015,86.7],[2.471584,48.675008,86.7],[2.47159,48.674982,86.7],[2.471602,48.67497,86.7],[2.471667,48.674925,86.8],[2.471729,48.67492,86.8],[2.471765,48.674911,86.9],[2.471745,48.674918,86.8],[2.471848,48.674927,86.9],[2.471883,48.674922,87],[2.471905,48.674916,87],[2.471938,48.674896,87.1],[2.47206,48.674853,87.2],[2.472088,48.674831,87.2],[2.472088,48.674811,87.2],[2.472095,48.674803,87.2],[2.472079,48.674796,87.2],[2.472101,48.67479,87.3],[2.472133,48.674694,87.3],[2.472116,48.674658,87.4],[2.472112,48.67462,87.4],[2.472087,48.674589,87.4],[2.472071,48.674547,87.4],[2.472107,48.674474,87.5],[2.472125,48.674455,87.5],[2.472138,48.674419,87.5],[2.472122,48.674374,87.5],[2.472138,48.674362,87.5],[2.472159,48.674362,87.5],[2.472176,48.674351,87.6],[2.472118,48.674255,87.6],[2.472028,48.674278,87.5],[2.471992,48.674299,87.5],[2.471955,48.674337,87.4],[2.471931,48.674373,87.4],[2.471887,48.674409,87.3],[2.471833,48.674481,87.1],[2.471809,48.674504,87.1],[2.471775,48.67452,87.1],[2.471753,48.674543,87],[2.471736,48.674572,86.9],[2.471742,48.674578,86.9],[2.471734,48.674578,86.9],[2.47174,48.674576,86.9],[2.471735,48.67459,86.9],[2.471732,48.674578,86.9],[2.471731,48.674584,86.9],[2.471739,48.674581,86.9],[2.471725,48.674586,86.9],[2.471716,48.674597,86.9],[2.471699,48.674636,86.8],[2.471686,48.674632,86.8],[2.471688,48.674648,86.8],[2.471737,48.67468,86.8],[2.471795,48.674752,86.8],[2.471813,48.67476,86.8],[2.471843,48.674786,86.8],[2.471874,48.674795,86.8],[2.471899,48.67481,86.9],[2.47191,48.674819,86.9],[2.47191,48.674835,86.8],[2.471933,48.674849,86.9],[2.471949,48.674842,86.9],[2.47196,48.674814,86.9],[2.471949,48.674819,86.9],[2.471948,48.674836,86.9],[2.471973,48.674849,86.9],[2.471972,48.674865,86.9],[2.471939,48.674908,86.9],[2.47195,48.674954,86.8],[2.471926,48.674987,86.8],[2.471921,48.675038,86.7],[2.471911,48.675064,86.7],[2.471933,48.675099,86.7],[2.471928,48.675116,86.7],[2.471919,48.675122,86.7],[2.471939,48.675148,86.7],[2.471936,48.675145,86.7],[2.47199,48.675151,86.7],[2.472054,48.675172,86.7],[2.472286,48.675226,86.7],[2.472624,48.675311,86.7],[2.472744,48.675347,86.7],[2.472938,48.675392,86.7],[2.473203,48.675468,86.7],[2.473277,48.675481,86.6],[2.473408,48.675518,86.6],[2.473513,48.675557,86.6],[2.473737,48.675614,86.6],[2.473868,48.675655,86.6],[2.473925,48.675678,86.6],[2.473975,48.675688,86.6],[2.474074,48.675728,86.6],[2.474138,48.67574,86.6],[2.474333,48.675791,86.6],[2.474621,48.675839,86.5],[2.47469,48.675866,86.5],[2.474757,48.675885,86.4],[2.474974,48.675936,86.4],[2.475051,48.675949,86.4],[2.475206,48.67596,86.3],[2.475285,48.675975,86.3],[2.475358,48.675996,86.3],[2.475497,48.676056,86.3],[2.475561,48.676076,86.3],[2.475635,48.67611,86.3],[2.475761,48.676154,86.4],[2.475971,48.676199,86.4],[2.476254,48.676285,86.4],[2.476484,48.676335,86.3],[2.476636,48.676379,86.2],[2.47709,48.6765,86.2],[2.477393,48.676571,86.2],[2.47762,48.676634,86.1],[2.477928,48.676731,86],[2.478307,48.676825,86],[2.478377,48.676847,86],[2.478455,48.676859,86],[2.478814,48.67696,86],[2.478878,48.676981,86],[2.478926,48.677016,86],[2.478936,48.677062,86],[2.478904,48.677106,86],[2.478844,48.677135,86],[2.478787,48.677155,86],[2.478743,48.677185,86],[2.478666,48.677252,86],[2.478525,48.67735,86],[2.478437,48.67743,86],[2.478187,48.677617,86],[2.478099,48.6777,86],[2.477946,48.677813,86],[2.477794,48.677942,86],[2.477672,48.678023,86],[2.477612,48.678055,86],[2.47731,48.678281,86.2],[2.47711,48.678393,86.3],[2.477056,48.678428,86.3],[2.476973,48.678496,86.3],[2.476852,48.678564,86.3],[2.476679,48.678745,86.2],[2.476631,48.678787,86.2],[2.476222,48.67911,86.3],[2.476076,48.679216,86.3],[2.47604,48.679253,86.4],[2.475945,48.679325,86.4],[2.475909,48.679359,86.4],[2.475854,48.679421,86.4],[2.475823,48.679431,86.4],[2.475794,48.679422,86.5],[2.475724,48.679364,86.6],[2.47567,48.679335,86.7],[2.475632,48.679324,86.7],[2.475499,48.6793,86.9],[2.47542,48.679295,86.9],[2.475378,48.679286,86.9],[2.475333,48.679271,86.9],[2.475264,48.679228,86.9],[2.475227,48.679217,86.9],[2.475174,48.679213,86.8],[2.475028,48.679176,86.8],[2.474822,48.679114,86.8],[2.474682,48.679081,86.8],[2.474489,48.679021,86.8],[2.474383,48.678996,86.9],[2.474243,48.678952,86.9],[2.47409,48.678917,86.9],[2.47394,48.678869,86.9],[2.473881,48.67886,86.9],[2.473788,48.678837,86.9],[2.473668,48.678794,86.9],[2.473522,48.678756,86.9],[2.473393,48.6787,86.9],[2.473151,48.678636,86.9],[2.473097,48.678627,86.9],[2.473054,48.678611,86.9],[2.472922,48.678588,86.9],[2.472708,48.678538,87],[2.472602,48.678495,87],[2.472562,48.678485,87],[2.472517,48.678483,87],[2.472431,48.678467,87],[2.472274,48.678425,87.1],[2.472219,48.678394,87.1],[2.472154,48.678383,87.1],[2.472068,48.678359,87.1],[2.471987,48.678346,87.1],[2.471966,48.678336,87.1],[2.471966,48.678326,87.1],[2.471977,48.678319,87.1],[2.471983,48.678318,87.1],[2.471986,48.678329,87.1],[2.472006,48.678315,87.2],[2.472052,48.678308,87.2],[2.472051,48.678229,87.2],[2.47203,48.67816,87.2],[2.472031,48.678133,87.2],[2.472061,48.678034,87.3],[2.472079,48.678029,87.3],[2.472144,48.678035,87.3],[2.472183,48.678029,87.3],[2.472205,48.678016,87.3],[2.472155,48.678032,87.3],[2.472158,48.678017,87.3],[2.472165,48.67803,87.3],[2.472173,48.678028,87.3],[2.472227,48.677997,87.3],[2.472241,48.677955,87.4],[2.472251,48.677947,87.4],[2.47212,48.677997,87.4],[2.472094,48.677998,87.4],[2.472085,48.677994,87.4],[2.472086,48.677987,87.4],[2.472069,48.678023,87.4],[2.472042,48.678045,87.4],[2.472015,48.678111,87.4],[2.471965,48.678177,87.3],[2.471967,48.678207,87.3],[2.471958,48.678243,87.3],[2.472102,48.67832,87.2],[2.47234,48.678414,87.2],[2.472548,48.67847,87.1],[2.47265,48.678491,87.1],[2.47289,48.678584,87],[2.473001,48.678611,87],[2.473116,48.678635,87],[2.47328,48.678685,86.9],[2.473374,48.678726,86.9],[2.473485,48.678752,86.9],[2.473598,48.678783,86.9],[2.473631,48.678816,86.9],[2.473746,48.678836,86.9],[2.474171,48.678963,86.9],[2.474401,48.679022,86.9],[2.474462,48.679041,86.9],[2.474561,48.679082,86.8],[2.474621,48.679099,86.8],[2.474743,48.679126,86.8],[2.474848,48.679153,86.8],[2.474946,48.679186,86.8],[2.475005,48.679195,86.8],[2.475246,48.679259,86.9],[2.475294,48.679275,86.9],[2.475371,48.679328,86.9],[2.475437,48.679342,86.9],[2.475544,48.67934,86.8],[2.475597,48.679349,86.7],[2.475648,48.679363,86.6],[2.475728,48.679397,86.5],[2.475796,48.679438,86.4],[2.475833,48.679432,86.4],[2.475862,48.679419,86.4],[2.475897,48.679416,86.3],[2.475953,48.679421,86.3],[2.476154,48.679489,86.3],[2.476248,48.679515,86.2],[2.476303,48.67952,86.2],[2.476342,48.679532,86.2],[2.476443,48.679586,86.3],[2.476475,48.679595,86.3],[2.476543,48.679591,86.3],[2.476538,48.679596,86.3],[2.476558,48.6796,86.3],[2.476572,48.679612,86.3],[2.476569,48.679615,86.3],[2.476564,48.679618,86.3],[2.476549,48.679616,86.3],[2.476572,48.679641,86.3],[2.4766,48.67964,86.3],[2.47671,48.679664,86.3],[2.476829,48.679703,86.3],[2.477055,48.679742,86.2],[2.477172,48.679753,86.2],[2.477332,48.679812,86.2],[2.47756,48.679887,86.2],[2.477601,48.679891,86.2],[2.477637,48.679901,86.2],[2.477664,48.679912,86.2],[2.477679,48.679941,86.2],[2.47774,48.679955,86.2],[2.477749,48.679963,86.2],[2.477827,48.679991,86.2],[2.47788,48.679994,86.2],[2.477953,48.68001,86.2],[2.478027,48.680042,86.2],[2.478122,48.68005,86.2],[2.478202,48.680076,86.2],[2.478247,48.680082,86.2],[2.478357,48.680114,86.2],[2.4784,48.680123,86.2],[2.478447,48.680123,86.2],[2.478489,48.680131,86.2],[2.478525,48.680148,86.2],[2.478613,48.680167,86.2],[2.478705,48.680178,86.2],[2.47889,48.680233,86.2],[2.479014,48.680254,86.2],[2.479213,48.680305,86.2],[2.47931,48.680335,86.1],[2.479527,48.680388,86.1],[2.479578,48.680407,86.1],[2.479695,48.680431,86.1],[2.479855,48.680479,86.1],[2.480366,48.68061,86.3],[2.480428,48.680633,86.3],[2.480504,48.680647,86.3],[2.480702,48.680705,86.3],[2.480739,48.680716,86.3],[2.480794,48.680754,86.3],[2.480831,48.680761,86.3],[2.480878,48.680756,86.3],[2.480898,48.680774,86.3],[2.480934,48.680782,86.3],[2.480975,48.680783,86.3],[2.481043,48.680807,86.3],[2.481145,48.680833,86.3],[2.481213,48.680841,86.3],[2.481659,48.68096,86.4],[2.481742,48.680976,86.4],[2.481786,48.680998,86.4],[2.481795,48.681007,86.4],[2.481788,48.681013,86.4],[2.481795,48.681007,86.4],[2.481853,48.681009,86.4],[2.481942,48.681034,86.4],[2.481979,48.68105,86.4],[2.482071,48.681069,86.5],[2.482482,48.681179,86.7],[2.482736,48.681253,86.8],[2.482847,48.681277,86.9],[2.482981,48.681324,86.9],[2.483084,48.681367,86.9],[2.483269,48.681392,86.9],[2.483357,48.681415,87],[2.483416,48.681438,87],[2.483459,48.68144,87],[2.483458,48.681453,87],[2.483501,48.68147,87],[2.483547,48.68148,87],[2.483663,48.681475,87.1],[2.483724,48.681482,87.2],[2.483734,48.681506,87.2],[2.483803,48.681542,87.2],[2.483872,48.681569,87.3],[2.483972,48.68159,87.3],[2.484023,48.681614,87.3],[2.484017,48.681627,87.3],[2.483978,48.681641,87.3],[2.483908,48.681691,87.3],[2.483847,48.681747,87.4],[2.483728,48.681818,87.4],[2.483712,48.681847,87.4],[2.483626,48.681903,87.4],[2.483456,48.682063,87.5],[2.483294,48.682197,87.5],[2.483253,48.682223,87.5],[2.483147,48.682321,87.5],[2.483031,48.682408,87.5],[2.48296,48.682478,87.5],[2.482934,48.682513,87.5],[2.48288,48.682532,87.5],[2.482796,48.682595,87.5],[2.48272,48.682673,87.5],[2.482684,48.682702,87.6],[2.48264,48.682727,87.6],[2.482485,48.68287,87.6],[2.482417,48.682937,87.6],[2.482389,48.682974,87.6],[2.482344,48.683002,87.6],[2.48213,48.683177,87.5],[2.481941,48.683349,87.5],[2.481853,48.683409,87.5],[2.481814,48.683443,87.5],[2.481637,48.683607,87.6],[2.481598,48.683639,87.6],[2.481554,48.683665,87.6],[2.481331,48.683858,87.7],[2.481287,48.683888,87.7],[2.481253,48.683919,87.7],[2.481164,48.684015,87.7],[2.481087,48.684068,87.7],[2.481034,48.684091,87.8],[2.480917,48.684121,87.8],[2.480875,48.684147,87.8],[2.480865,48.684181,87.8],[2.480891,48.684209,87.8],[2.480987,48.684223,87.8],[2.481058,48.684251,87.8],[2.481179,48.684274,87.8],[2.481276,48.684313,87.7],[2.481442,48.684362,87.7],[2.481552,48.684407,87.7],[2.481607,48.684423,87.8],[2.481709,48.684442,87.8],[2.481811,48.684478,87.8],[2.482022,48.684531,87.8],[2.48212,48.684573,87.9],[2.482293,48.684633,87.9],[2.482401,48.684648,87.9],[2.482839,48.684796,88],[2.482955,48.684823,88.1],[2.483012,48.684846,88.1],[2.483071,48.684862,88.1],[2.483248,48.684893,88.2],[2.483373,48.6849,88.2],[2.483525,48.684966,88.3],[2.48371,48.685015,88.3],[2.483891,48.685083,88.3],[2.484007,48.685114,88.3],[2.484186,48.685172,88.3],[2.484236,48.685194,88.3],[2.484397,48.685236,88.3],[2.484571,48.685294,88.3],[2.484622,48.685321,88.3],[2.484673,48.685338,88.3],[2.484742,48.685339,88.2],[2.4848,48.685348,88.2],[2.484949,48.685402,88.2],[2.485115,48.685436,88.2],[2.485255,48.685478,88.3],[2.485398,48.685529,88.3],[2.485452,48.685542,88.3],[2.485539,48.685576,88.3],[2.485634,48.685592,88.4],[2.485778,48.685645,88.4],[2.485852,48.685685,88.5],[2.485892,48.685699,88.5],[2.485943,48.685691,88.5],[2.485996,48.685636,88.5],[2.486059,48.68562,88.5],[2.486176,48.685601,88.5],[2.486272,48.685602,88.5],[2.486322,48.685593,88.5],[2.486437,48.685542,88.5],[2.486513,48.685488,88.5],[2.486703,48.685319,88.6],[2.486782,48.685269,88.7],[2.486878,48.685173,88.7],[2.486926,48.685146,88.8],[2.486956,48.685118,88.8],[2.487235,48.684948,88.9],[2.487285,48.684923,89],[2.487321,48.684893,89],[2.487356,48.684849,89],[2.487435,48.684709,89.2],[2.487455,48.684634,89.3],[2.48748,48.684598,89.3],[2.487555,48.68455,89.3],[2.48759,48.684515,89.3],[2.487667,48.684396,89.4],[2.487753,48.684207,89.4],[2.487778,48.684169,89.4],[2.487815,48.684124,89.4],[2.487886,48.684084,89.4],[2.487916,48.684056,89.4],[2.487969,48.683959,89.3],[2.487998,48.683863,89.2],[2.48802,48.683816,89.1],[2.488036,48.683673,88.8],[2.488073,48.683587,88.6],[2.488076,48.683544,88.6],[2.488061,48.683503,88.5],[2.488064,48.68346,88.4],[2.488097,48.683351,88.3],[2.48805,48.683184,88.2],[2.488083,48.683107,88.1],[2.488069,48.682942,88],[2.488083,48.682896,88],[2.48812,48.682852,88],[2.488167,48.68283,88],[2.488207,48.682802,88],[2.488233,48.682769,88],[2.488248,48.682686,88.1],[2.488264,48.682654,88.1],[2.488284,48.682632,88.1],[2.48851,48.682587,87.9],[2.488778,48.682507,87.7],[2.488917,48.682453,87.6],[2.489049,48.682417,87.6],[2.489097,48.68243,87.6],[2.489135,48.682452,87.5],[2.489166,48.682484,87.5],[2.489347,48.682737,87.7],[2.489453,48.682904,87.8],[2.48956,48.683032,88],[2.489596,48.683102,88.1],[2.489627,48.683133,88.2],[2.489698,48.683186,88.3],[2.489738,48.683207,88.4],[2.489879,48.683241,88.7],[2.490167,48.683244,89.1],[2.490231,48.683254,89.1],[2.490368,48.683291,89.1],[2.490437,48.683322,89.1],[2.490503,48.683365,89.1],[2.490557,48.683416,89.1],[2.490593,48.683473,89],[2.490611,48.683535,89],[2.490612,48.683598,89],[2.4906,48.68366,88.9],[2.490541,48.683779,88.9],[2.490431,48.683873,88.9],[2.490364,48.683904,88.9],[2.490212,48.683958,88.9],[2.490127,48.683971,88.8],[2.490054,48.683995,88.8],[2.490039,48.684058,88.6],[2.490071,48.684181,88.4],[2.490063,48.684429,88.1],[2.490069,48.684733,87.8],[2.490043,48.684796,87.8],[2.490038,48.684847,87.8],[2.490047,48.684904,87.7],[2.490043,48.684958,87.7],[2.490018,48.68501,87.7],[2.48996,48.685052,87.6],[2.489895,48.685084,87.5],[2.489826,48.68513,87.4],[2.489656,48.685272,87.1],[2.489581,48.685317,87],[2.489465,48.685413,86.9],[2.489239,48.685616,86.6],[2.488705,48.686043,86.2],[2.488131,48.686526,86.4],[2.487929,48.686677,86.7],[2.487912,48.686698,86.7],[2.487827,48.686752,86.5],[2.48764,48.686923,86.1],[2.487536,48.687003,85.9],[2.487035,48.687415,85.7],[2.48682,48.687596,85.8],[2.486732,48.687683,85.8],[2.486528,48.687844,86],[2.486364,48.687953,86.1],[2.486292,48.687989,86.1],[2.486049,48.688036,85.9],[2.485646,48.688143,85.8],[2.485161,48.688256,85.8],[2.484439,48.688457,86],[2.484005,48.68857,86.4],[2.483874,48.688596,86.5],[2.483868,48.688587,86.5],[2.483876,48.688581,86.4],[2.483826,48.688575,86.4],[2.48377,48.688551,86.2],[2.483728,48.688554,86.2],[2.48368,48.688584,86],[2.483609,48.688654,85.8],[2.483555,48.688694,85.7],[2.48354,48.688695,85.7],[2.48351,48.688708,85.6],[2.483409,48.688772,85.5],[2.483274,48.688906,85.3],[2.483067,48.68907,85.2],[2.482869,48.689243,85.2],[2.482618,48.689429,85.2],[2.482565,48.68948,85.2],[2.482396,48.689615,85.1],[2.482299,48.689704,85.1],[2.481849,48.690068,85.1],[2.48156,48.690315,85.8],[2.48149,48.690364,86],[2.481437,48.690373,86.1],[2.481387,48.690357,86.1],[2.481325,48.690362,86.1],[2.481292,48.690401,86],[2.481285,48.690446,85.9],[2.481265,48.690488,85.8],[2.481175,48.690607,85.7],[2.481005,48.690753,85.7],[2.480931,48.690825,85.7],[2.480775,48.69095,85.7],[2.480696,48.691023,85.8],[2.480517,48.69116,85.8],[2.480362,48.691292,85.9],[2.480321,48.691316,85.9],[2.480267,48.69133,86],[2.4802,48.691319,86.1],[2.480104,48.69127,86.2],[2.479984,48.691231,86.4],[2.479927,48.691207,86.5],[2.47961,48.691102,86.8],[2.479258,48.691005,87],[2.478924,48.690887,87.1],[2.478784,48.690844,87.2],[2.478553,48.690748,87.6],[2.478481,48.690739,87.5],[2.478407,48.69075,87.5],[2.478342,48.690783,87.5],[2.478291,48.69082,87.5],[2.47818,48.690882,87.4],[2.478135,48.690919,87.3],[2.478082,48.69094,87.3],[2.477926,48.691028,87.1],[2.477856,48.691044,87.1],[2.47779,48.691043,87.1],[2.477686,48.691031,87.1],[2.477648,48.691022,87.1],[2.477599,48.69103,87.1],[2.477588,48.691027,87.1],[2.477612,48.691007,87.1],[2.477681,48.691011,87.2],[2.477896,48.69104,87.5],[2.477942,48.691031,87.6],[2.478012,48.691031,87.7],[2.478086,48.691065,87.9],[2.478128,48.691071,88],[2.478155,48.691096,88],[2.478202,48.69111,88],[2.478279,48.691116,88.1],[2.478353,48.69113,88.2],[2.478398,48.691143,88.2],[2.47847,48.691185,88.2],[2.478502,48.691193,88.1],[2.478529,48.691241,88.2],[2.478522,48.691265,88.2],[2.47847,48.691338,88.3],[2.47839,48.69141,88.4],[2.478337,48.691522,88.6],[2.478208,48.691697,89],[2.478192,48.69174,89.1],[2.478199,48.691761,89.1],[2.478236,48.691767,89.1],[2.478291,48.691765,88.8],[2.478345,48.691784,88.5],[2.478439,48.691785,88],[2.478564,48.691838,87.3],[2.478585,48.691828,87.2],[2.4786,48.691827,87.1],[2.478632,48.691844,87],[2.478667,48.691835,86.8],[2.478684,48.691837,86.8],[2.478704,48.691828,86.7],[2.478722,48.691829,86.6],[2.478724,48.691824,86.6],[2.478751,48.691834,86.4],[2.478757,48.691871,86.3],[2.478731,48.691896,86.3],[2.478571,48.691994,86.3],[2.478522,48.692038,86.3],[2.478488,48.692057,86.3],[2.478479,48.69208,86.3],[2.478454,48.692104,86.3],[2.47831,48.692219,86.4],[2.478259,48.692269,86.4],[2.478189,48.692316,86.4],[2.478164,48.692355,86.4],[2.478121,48.692395,86.4],[2.478102,48.69243,86.4],[2.478137,48.692443,86.3],[2.478183,48.692446,86.2],[2.478213,48.692458,86.1],[2.478241,48.692477,86],[2.478297,48.692533,85.8],[2.478332,48.692549,85.7],[2.478448,48.692568,85.4],[2.478542,48.692607,85.3],[2.478643,48.692638,85.2],[2.478679,48.692633,85.2],[2.478768,48.692563,85.3],[2.479007,48.692402,85.3],[2.479185,48.692253,85.4],[2.479236,48.692225,85.4],[2.479273,48.692221,85.4],[2.479308,48.692237,85.4],[2.479327,48.692272,85.3],[2.47931,48.692306,85.3],[2.479225,48.692371,85.3],[2.479209,48.692413,85.2],[2.47926,48.692453,85.1],[2.479381,48.692506,85.1],[2.479814,48.692771,84.9],[2.480124,48.692944,85],[2.480411,48.693121,85.1],[2.48075,48.693337,85.4],[2.480914,48.693431,85.6],[2.480993,48.693492,85.7],[2.480994,48.693528,85.6],[2.480948,48.693573,85.6],[2.48068,48.693752,85.3],[2.480365,48.693977,85.1],[2.480169,48.694154,85],[2.479847,48.694387,84.8],[2.479537,48.694632,84.6],[2.47946,48.694701,84.5],[2.479359,48.69476,84.5],[2.47926,48.694844,84.5],[2.479103,48.694956,84.5],[2.478958,48.695081,84.5],[2.478654,48.695308,84.6],[2.478469,48.695469,84.7],[2.478465,48.695526,84.6],[2.478437,48.695561,84.5],[2.478389,48.69559,84.5],[2.478319,48.695608,84.5],[2.478105,48.695645,84.3],[2.477966,48.695681,84.3],[2.477749,48.695723,84.3],[2.477541,48.69577,84.4],[2.477494,48.695805,84.4],[2.47748,48.695862,84.4],[2.477533,48.695967,84.5],[2.477548,48.696015,84.5],[2.477631,48.696193,84.6],[2.477722,48.696526,84.5],[2.477915,48.697061,83.8],[2.477937,48.697116,83.7],[2.478,48.697209,83.7],[2.478021,48.697253,83.6],[2.47804,48.697336,83.6],[2.478074,48.697424,83.5],[2.478073,48.69748,83.5],[2.478124,48.697535,83.4],[2.47814,48.697568,83.4],[2.478167,48.697721,83.3],[2.478271,48.698029,83.1],[2.478298,48.698119,83],[2.478303,48.698168,83],[2.478393,48.698324,83],[2.478403,48.698349,83],[2.478394,48.698363,83],[2.478352,48.69838,82.9],[2.478222,48.6984,82.9],[2.478092,48.698412,82.8],[2.477673,48.698486,82.8],[2.477466,48.698542,82.8],[2.477401,48.698555,82.8],[2.477091,48.698599,82.8],[2.476936,48.69863,82.8],[2.476626,48.698667,82.8],[2.476221,48.698733,82.8],[2.475982,48.698754,82.6],[2.475906,48.698773,82.5],[2.475278,48.698874,82.1],[2.475203,48.698888,82],[2.47501,48.698938,82],[2.474947,48.698945,82],[2.474919,48.698939,82],[2.474886,48.698917,82],[2.474866,48.698881,82],[2.474843,48.698762,82.1],[2.474819,48.698687,82.1],[2.474797,48.698652,82.2],[2.474732,48.698642,82],[2.474457,48.698692,81.3],[2.474339,48.698705,81],[2.47425,48.698734,80.7],[2.474192,48.698743,80.6],[2.47405,48.698745,80.2],[2.473976,48.698753,80],[2.473666,48.698812,79.1],[2.473415,48.698852,78.5],[2.473316,48.698862,78.2],[2.473229,48.698855,78],[2.472765,48.698778,77],[2.472589,48.698759,76.8],[2.472503,48.69874,76.7],[2.472133,48.6987,76.2],[2.47193,48.698671,76],[2.471902,48.698663,75.9],[2.471864,48.698631,75.9],[2.471838,48.698593,76],[2.471795,48.698492,76.2],[2.471766,48.698446,76.4],[2.471753,48.6984,76.5],[2.471763,48.698361,76.7],[2.471828,48.698332,77],[2.47191,48.698327,77.1],[2.471985,48.698362,77.3],[2.472052,48.698378,77.4],[2.472223,48.698397,77.7],[2.472319,48.698413,77.8],[2.472415,48.698414,78],[2.472492,48.698437,78.1],[2.472622,48.698447,78.3],[2.472871,48.698483,78.7],[2.47296,48.698514,78.9],[2.473036,48.69852,79],[2.473098,48.698532,79.1],[2.473141,48.698531,79.2],[2.473176,48.698516,79.3],[2.473189,48.698495,79.4],[2.473211,48.698488,79.4],[2.47322,48.698511,79.5],[2.473192,48.698544,79.6],[2.473142,48.698558,79.6],[2.473087,48.698553,79.6],[2.472966,48.698509,79.3],[2.472846,48.69848,79],[2.472388,48.698424,78.1],[2.47222,48.698397,77.8],[2.472041,48.698381,77.5],[2.471871,48.698352,77.2],[2.471805,48.698354,77.1],[2.471767,48.698391,76.8],[2.471773,48.69845,76.5],[2.471894,48.698742,75.6],[2.472045,48.699232,76],[2.472047,48.699317,76.4],[2.472053,48.699303,76.5],[2.472048,48.699302,76.5],[2.472027,48.699346,76.7],[2.471984,48.699359,76.8],[2.471746,48.699328,76.5],[2.471155,48.699255,76.7],[2.470704,48.69919,77.2],[2.470545,48.699175,77.4],[2.470409,48.699153,77.6],[2.470224,48.699133,77.9],[2.469846,48.699078,79.3],[2.469815,48.699068,79.4],[2.46977,48.699062,79.4],[2.469716,48.699061,79.5],[2.469668,48.699079,79.5],[2.469603,48.699126,79.6],[2.469458,48.699203,79.8],[2.469254,48.699301,80.1],[2.469158,48.699362,80.2],[2.468941,48.699473,80.5],[2.468251,48.69985,81.2],[2.468091,48.699944,81.4],[2.46781,48.700096,81.6],[2.467761,48.700132,81.6],[2.467074,48.700515,81.7],[2.46643,48.700885,81.5],[2.466092,48.701039,81.5],[2.465905,48.701149,81.4],[2.465736,48.70122,81.4],[2.465603,48.701299,81.3],[2.465572,48.701312,81.3],[2.465548,48.701315,81.3],[2.465519,48.701298,81.3],[2.465457,48.701216,81.2],[2.465141,48.700939,81.1],[2.464871,48.700682,81.3],[2.464513,48.700363,81.7],[2.464465,48.700315,81.7],[2.464249,48.700056,82.1],[2.464102,48.699909,82.3],[2.464007,48.699802,82.3],[2.463852,48.69965,82.4],[2.463664,48.699438,82.5],[2.46361,48.699391,82.6],[2.463346,48.699219,82.7],[2.462944,48.698974,83],[2.462229,48.698524,83.3],[2.461847,48.698287,83.6],[2.461649,48.698172,83.8],[2.461531,48.698092,84],[2.461283,48.697939,84.6],[2.460968,48.697771,85],[2.460825,48.697712,85.2],[2.460518,48.697603,85.3],[2.460282,48.697528,85.3],[2.4599,48.697397,85.3],[2.459665,48.697329,85.3],[2.45887,48.697073,85.5],[2.458503,48.69697,85.6],[2.458508,48.696974,85.6],[2.45847,48.69695,85.6],[2.458426,48.696937,85.6],[2.457995,48.696817,85.5],[2.45792,48.696819,85.4],[2.457856,48.696845,85.4],[2.457806,48.696879,85.4],[2.45763,48.697025,85.3],[2.457317,48.697303,85.1],[2.457001,48.697589,85],[2.456688,48.697884,85],[2.456603,48.697933,85],[2.456388,48.698132,84.9],[2.455993,48.698523,85],[2.455685,48.698797,85.1],[2.455486,48.698983,85.1],[2.455291,48.699185,85],[2.454457,48.69995,84.4],[2.454342,48.700046,84.3],[2.45376,48.700574,83.7],[2.453711,48.700606,83.6]]}}]}