<?xml version="1.0" encoding="UTF-8"?>
<gpx version="1.1" creator="GPSBabel - https://www.gpsbabel.org" xmlns="http://www.topografix.com/GPX/1/1" xmlns:xsi="http://www.w3.org/2001/XMLSchema-instance" xmlns:gpxtpx="http://www.garmin.com/xmlschemas/TrackPointExtension/v1" xmlns:gpxx="http://www.garmin.com/xmlschemas/GpxExtensions/v3" xmlns:gpxpx="http://www.garmin.com/xmlschemas/PowerExtension/v1" xmlns:gpx_style="http://www.topografix.com/GPX/gpx_style/0/2">
  <metadata>
    <name>gps4cam trip started at 2019-08-21 11-24 decoded at 2019-08-21 19-03-51</name>
    <link href="http://gps4cam.com">
      <text>gps4cam</text>
    </link>
    <time>2025-10-13T20:32:44.868Z</time>
    <bounds minlat="45.322143514" minlon="6.536904198" maxlat="45.325370729" maxlon="6.538453117"/>
  </metadata>
  <trk>
    <name>gps4cam trip started at: 2019-08-21T09:24:24Z</name>
    <trkseg>
      <trkpt lat="45.323626834" lon="6.536904198">
        <time>2019-08-21T14:59:01Z</time>
      </trkpt>
      <trkpt lat="45.323787761" lon="6.536953129">
        <time>2019-08-21T14:59:04Z</time>
      </trkpt>
      <trkpt lat="45.324221847" lon="6.537146173">
        <time>2019-08-21T14:59:15Z</time>
      </trkpt>
      <trkpt lat="45.323968472" lon="6.537252309">
        <time>2019-08-21T14:59:35Z</time>
      </trkpt>
      <trkpt lat="45.323798828" lon="6.537209298">
        <time>2019-08-21T14:59:40Z</time>
      </trkpt>
      <trkpt lat="45.323629395" lon="6.537238656">
        <time>2019-08-21T14:59:43Z</time>
      </trkpt>
      <trkpt lat="45.323454471" lon="6.537291518">
        <time>2019-08-21T14:59:48Z</time>
      </trkpt>
      <trkpt lat="45.323141587" lon="6.537411692">
        <time>2019-08-21T14:59:56Z</time>
      </trkpt>
      <trkpt lat="45.322650385" lon="6.537646356">
        <time>2019-08-21T15:00:09Z</time>
      </trkpt>
      <trkpt lat="45.322502576" lon="6.537740130">
        <time>2019-08-21T15:00:15Z</time>
      </trkpt>
      <trkpt lat="45.322178921" lon="6.537979672">
        <time>2019-08-21T15:00:25Z</time>
      </trkpt>
      <trkpt lat="45.322175946" lon="6.538186040">
        <time>2019-08-21T15:01:57Z</time>
      </trkpt>
      <trkpt lat="45.322297269" lon="6.538268456">
        <time>2019-08-21T15:02:37Z</time>
      </trkpt>
      <trkpt lat="45.322433722" lon="6.538228539">
        <time>2019-08-21T15:03:00Z</time>
      </trkpt>
      <trkpt lat="45.322567911" lon="6.538229710">
        <time>2019-08-21T15:03:23Z</time>
      </trkpt>
      <trkpt lat="45.322477809" lon="6.537961296">
        <time>2019-08-21T15:04:21Z</time>
      </trkpt>
      <trkpt lat="45.322776402" lon="6.537567379">
        <time>2019-08-21T15:05:02Z</time>
      </trkpt>
      <trkpt lat="45.322888756" lon="6.537431760">
        <time>2019-08-21T15:05:16Z</time>
      </trkpt>
      <trkpt lat="45.323041134" lon="6.537407393">
        <time>2019-08-21T15:05:27Z</time>
      </trkpt>
      <trkpt lat="45.323523785" lon="6.537099427">
        <time>2019-08-21T15:06:33Z</time>
      </trkpt>
      <trkpt lat="45.323649091" lon="6.537185731">
        <time>2019-08-21T15:08:38Z</time>
      </trkpt>
      <trkpt lat="45.323875938" lon="6.537104202">
        <time>2019-08-21T15:11:51Z</time>
      </trkpt>
      <trkpt lat="45.324152113" lon="6.537193530">
        <time>2019-08-21T15:12:58Z</time>
      </trkpt>
      <trkpt lat="45.324253742" lon="6.537328874">
        <time>2019-08-21T15:13:34Z</time>
      </trkpt>
      <trkpt lat="45.324268202" lon="6.537523411">
        <time>2019-08-21T15:14:43Z</time>
      </trkpt>
      <trkpt lat="45.324115535" lon="6.537857805">
        <time>2019-08-21T15:15:33Z</time>
      </trkpt>
      <trkpt lat="45.323971707" lon="6.537955471">
        <time>2019-08-21T15:16:22Z</time>
      </trkpt>
      <trkpt lat="45.323888983" lon="6.538314879">
        <time>2019-08-21T15:24:43Z</time>
      </trkpt>
      <trkpt lat="45.324022208" lon="6.538257374">
        <time>2019-08-21T15:25:09Z</time>
      </trkpt>
      <trkpt lat="45.324162641" lon="6.538221343">
        <time>2019-08-21T15:27:39Z</time>
      </trkpt>
      <trkpt lat="45.324039097" lon="6.538331603">
        <time>2019-08-21T15:54:40Z</time>
      </trkpt>
      <trkpt lat="45.323902268" lon="6.538378371">
        <time>2019-08-21T15:58:03Z</time>
      </trkpt>
      <trkpt lat="45.323804999" lon="6.538240067">
        <time>2019-08-21T15:58:58Z</time>
      </trkpt>
      <trkpt lat="45.323815936" lon="6.538041470">
        <time>2019-08-21T16:00:46Z</time>
      </trkpt>
      <trkpt lat="45.323859477" lon="6.537860287">
        <time>2019-08-21T16:01:07Z</time>
      </trkpt>
      <trkpt lat="45.323744397" lon="6.537740670">
        <time>2019-08-21T16:01:29Z</time>
      </trkpt>
      <trkpt lat="45.323806379" lon="6.537757909">
        <time>2019-08-21T16:02:42Z</time>
      </trkpt>
      <trkpt lat="45.323754121" lon="6.537945012">
        <time>2019-08-21T16:03:12Z</time>
      </trkpt>
      <trkpt lat="45.323684134" lon="6.537768407">
        <time>2019-08-21T16:05:01Z</time>
      </trkpt>
      <trkpt lat="45.323769082" lon="6.537901893">
        <time>2019-08-21T16:08:28Z</time>
      </trkpt>
      <trkpt lat="45.323257094" lon="6.538361615">
        <time>2019-08-21T16:09:52Z</time>
      </trkpt>
      <trkpt lat="45.323113810" lon="6.538373212">
        <time>2019-08-21T16:10:08Z</time>
      </trkpt>
      <trkpt lat="45.322996133" lon="6.538453117">
        <time>2019-08-21T16:10:25Z</time>
      </trkpt>
      <trkpt lat="45.322607185" lon="6.538354664">
        <time>2019-08-21T16:11:14Z</time>
      </trkpt>
      <trkpt lat="45.322398818" lon="6.538100634">
        <time>2019-08-21T16:12:30Z</time>
      </trkpt>
      <trkpt lat="45.322273136" lon="6.538021177">
        <time>2019-08-21T16:12:51Z</time>
      </trkpt>
      <trkpt lat="45.322143514" lon="6.538089416">
        <time>2019-08-21T16:13:05Z</time>
      </trkpt>
      <trkpt lat="45.322651355" lon="6.537705034">
        <time>2019-08-21T16:14:16Z</time>
      </trkpt>
      <trkpt lat="45.323396854" lon="6.537271325">
        <time>2019-08-21T16:14:36Z</time>
      </trkpt>
      <trkpt lat="45.324165447" lon="6.537408617">
        <time>2019-08-21T16:14:50Z</time>
      </trkpt>
      <trkpt lat="45.324317114" lon="6.537549535">
        <time>2019-08-21T16:14:54Z</time>
      </trkpt>
      <trkpt lat="45.324448330" lon="6.537757078">
        <time>2019-08-21T16:14:57Z</time>
      </trkpt>
      <trkpt lat="45.324586544" lon="6.537913724">
        <time>2019-08-21T16:15:00Z</time>
      </trkpt>
      <trkpt lat="45.325370729" lon="6.538225016">
        <time>2019-08-21T16:15:11Z</time>
      </trkpt>
    </trkseg>
  </trk>
</gpx>
