{"type":"FeatureCollection","features":[{"type":"Feature","properties":{"name":"Reinebringen, c’est difficile, mais c’est beauuuuuu","type":"randonnée","time":"2025-10-27T10:00:15Z","coordTimes":["2025-10-27T10:00:15Z","2025-10-27T10:00:23Z","2025-10-27T10:00:46Z","2025-10-27T10:00:47Z","2025-10-27T10:00:48Z","2025-10-27T10:00:50Z","2025-10-27T10:00:53Z","2025-10-27T10:00:55Z","2025-10-27T10:01:00Z","2025-10-27T10:01:10Z","2025-10-27T10:01:13Z","2025-10-27T10:01:16Z","2025-10-27T10:01:17Z","2025-10-27T10:01:19Z","2025-10-27T10:01:23Z","2025-10-27T10:01:32Z","2025-10-27T10:01:43Z","2025-10-27T10:01:46Z","2025-10-27T10:01:48Z","2025-10-27T10:01:51Z","2025-10-27T10:01:54Z","2025-10-27T10:02:22Z","2025-10-27T10:02:27Z","2025-10-27T10:02:43Z","2025-10-27T10:02:47Z","2025-10-27T10:12:38Z","2025-10-27T10:12:49Z","2025-10-27T10:12:53Z","2025-10-27T10:12:54Z","2025-10-27T10:12:57Z","2025-10-27T10:12:59Z","2025-10-27T10:13:02Z","2025-10-27T10:13:06Z","2025-10-27T10:13:17Z","2025-10-27T10:13:30Z","2025-10-27T10:13:50Z","2025-10-27T10:13:53Z","2025-10-27T10:13:54Z","2025-10-27T10:13:57Z","2025-10-27T10:13:58Z","2025-10-27T10:14:18Z","2025-10-27T10:14:21Z","2025-10-27T10:14:23Z","2025-10-27T10:14:28Z","2025-10-27T10:14:34Z","2025-10-27T10:14:39Z","2025-10-27T10:14:42Z","2025-10-27T10:14:49Z","2025-10-27T10:14:52Z","2025-10-27T10:15:04Z","2025-10-27T10:15:17Z","2025-10-27T10:16:08Z","2025-10-27T10:16:15Z","2025-10-27T10:16:19Z","2025-10-27T10:16:23Z","2025-10-27T10:16:24Z","2025-10-27T10:16:27Z","2025-10-27T10:16:29Z","2025-10-27T10:16:34Z","2025-10-27T10:17:14Z","2025-10-27T10:17:45Z","2025-10-27T10:17:49Z","2025-10-27T10:17:58Z","2025-10-27T10:18:01Z","2025-10-27T10:18:02Z","2025-10-27T10:18:06Z","2025-10-27T10:18:07Z","2025-10-27T10:18:13Z","2025-10-27T10:18:17Z","2025-10-27T10:18:21Z","2025-10-27T10:18:22Z","2025-10-27T10:18:24Z","2025-10-27T10:18:25Z","2025-10-27T10:18:29Z","2025-10-27T10:18:30Z","2025-10-27T10:18:42Z","2025-10-27T10:18:52Z","2025-10-27T10:18:56Z","2025-10-27T10:18:58Z","2025-10-27T10:19:00Z","2025-10-27T10:19:05Z","2025-10-27T10:19:10Z","2025-10-27T10:19:14Z","2025-10-27T10:19:18Z","2025-10-27T10:19:32Z","2025-10-27T10:19:41Z","2025-10-27T10:19:43Z","2025-10-27T10:19:48Z","2025-10-27T10:19:54Z","2025-10-27T10:19:56Z","2025-10-27T10:20:12Z","2025-10-27T10:20:24Z","2025-10-27T10:20:34Z","2025-10-27T10:20:37Z","2025-10-27T10:20:38Z","2025-10-27T10:20:42Z","2025-10-27T10:20:45Z","2025-10-27T10:20:46Z","2025-10-27T10:20:50Z","2025-10-27T10:20:54Z","2025-10-27T10:20:58Z","2025-10-27T10:21:04Z","2025-10-27T10:21:07Z","2025-10-27T10:21:09Z","2025-10-27T10:21:17Z","2025-10-27T10:21:37Z","2025-10-27T10:21:38Z","2025-10-27T10:21:49Z","2025-10-27T10:21:52Z","2025-10-27T10:21:56Z","2025-10-27T10:22:07Z","2025-10-27T10:22:10Z","2025-10-27T10:22:14Z","2025-10-27T10:23:06Z","2025-10-27T10:23:09Z","2025-10-27T10:23:12Z","2025-10-27T10:23:17Z","2025-10-27T10:23:27Z","2025-10-27T10:23:31Z","2025-10-27T10:23:35Z","2025-10-27T10:23:38Z","2025-10-27T10:23:39Z","2025-10-27T10:23:43Z","2025-10-27T10:23:50Z","2025-10-27T10:23:52Z","2025-10-27T10:23:53Z","2025-10-27T10:23:57Z","2025-10-27T10:23:59Z","2025-10-27T10:24:02Z","2025-10-27T10:24:04Z","2025-10-27T10:24:11Z","2025-10-27T10:24:14Z","2025-10-27T10:24:21Z","2025-10-27T10:24:24Z","2025-10-27T10:24:28Z","2025-10-27T10:24:34Z","2025-10-27T10:24:38Z","2025-10-27T10:24:46Z","2025-10-27T10:24:50Z","2025-10-27T10:24:59Z","2025-10-27T10:25:05Z","2025-10-27T10:25:10Z","2025-10-27T10:25:35Z","2025-10-27T10:25:39Z","2025-10-27T10:25:45Z","2025-10-27T10:25:51Z","2025-10-27T10:25:55Z","2025-10-27T10:26:08Z","2025-10-27T10:26:12Z","2025-10-27T10:26:28Z","2025-10-27T10:26:30Z","2025-10-27T10:26:34Z","2025-10-27T10:26:45Z","2025-10-27T10:26:48Z","2025-10-27T10:26:54Z","2025-10-27T10:26:57Z","2025-10-27T10:27:02Z","2025-10-27T10:27:03Z","2025-10-27T10:29:50Z","2025-10-27T10:29:52Z","2025-10-27T10:29:56Z","2025-10-27T10:30:03Z","2025-10-27T10:30:13Z","2025-10-27T10:30:16Z","2025-10-27T10:30:22Z","2025-10-27T10:31:10Z","2025-10-27T10:31:14Z","2025-10-27T10:31:16Z","2025-10-27T10:31:20Z","2025-10-27T10:31:44Z","2025-10-27T10:31:52Z","2025-10-27T10:31:55Z","2025-10-27T10:31:56Z","2025-10-27T10:32:02Z","2025-10-27T10:32:05Z","2025-10-27T10:32:07Z","2025-10-27T10:32:10Z","2025-10-27T10:32:22Z","2025-10-27T10:32:26Z","2025-10-27T10:32:30Z","2025-10-27T10:32:34Z","2025-10-27T10:32:42Z","2025-10-27T10:32:45Z","2025-10-27T10:32:47Z","2025-10-27T10:32:52Z","2025-10-27T10:33:02Z","2025-10-27T10:33:08Z","2025-10-27T10:33:10Z","2025-10-27T10:33:13Z","2025-10-27T10:33:34Z","2025-10-27T10:33:53Z","2025-10-27T10:33:54Z","2025-10-27T10:33:59Z","2025-10-27T10:34:00Z","2025-10-27T10:34:03Z","2025-10-27T10:34:04Z","2025-10-27T10:34:05Z","2025-10-27T10:34:08Z","2025-10-27T10:34:13Z","2025-10-27T10:34:15Z","2025-10-27T10:34:17Z","2025-10-27T10:34:22Z","2025-10-27T10:34:25Z","2025-10-27T10:34:28Z","2025-10-27T10:34:31Z","2025-10-27T10:34:47Z","2025-10-27T10:34:48Z","2025-10-27T10:34:50Z","2025-10-27T10:34:51Z","2025-10-27T10:34:52Z","2025-10-27T10:34:57Z","2025-10-27T10:34:58Z","2025-10-27T10:34:59Z","2025-10-27T10:35:01Z","2025-10-27T10:35:05Z","2025-10-27T10:35:06Z","2025-10-27T10:35:07Z","2025-10-27T10:35:15Z","2025-10-27T10:35:18Z","2025-10-27T10:35:21Z","2025-10-27T10:35:23Z","2025-10-27T10:35:25Z","2025-10-27T10:35:26Z","2025-10-27T10:35:29Z","2025-10-27T10:35:35Z","2025-10-27T10:35:39Z","2025-10-27T10:35:44Z","2025-10-27T10:35:49Z","2025-10-27T10:35:53Z","2025-10-27T10:35:57Z","2025-10-27T10:36:02Z","2025-10-27T10:36:07Z","2025-10-27T10:36:13Z","2025-10-27T10:36:16Z","2025-10-27T10:36:19Z","2025-10-27T10:36:27Z","2025-10-27T10:36:33Z","2025-10-27T10:36:42Z","2025-10-27T10:36:48Z","2025-10-27T10:36:50Z","2025-10-27T10:36:51Z","2025-10-27T10:36:52Z","2025-10-27T10:36:54Z","2025-10-27T10:37:05Z","2025-10-27T10:37:14Z","2025-10-27T10:37:57Z","2025-10-27T10:37:59Z","2025-10-27T10:38:23Z","2025-10-27T10:38:26Z","2025-10-27T10:38:32Z","2025-10-27T10:38:48Z","2025-10-27T10:38:52Z","2025-10-27T10:38:56Z","2025-10-27T10:38:59Z","2025-10-27T10:39:04Z","2025-10-27T10:39:08Z","2025-10-27T10:39:13Z","2025-10-27T10:39:53Z","2025-10-27T10:39:55Z","2025-10-27T10:39:58Z","2025-10-27T10:41:55Z","2025-10-27T10:42:04Z","2025-10-27T10:42:08Z","2025-10-27T10:42:09Z","2025-10-27T10:42:15Z","2025-10-27T10:42:20Z","2025-10-27T10:42:24Z","2025-10-27T10:42:26Z","2025-10-27T10:42:29Z","2025-10-27T10:42:34Z","2025-10-27T10:42:37Z","2025-10-27T10:42:38Z","2025-10-27T10:42:40Z","2025-10-27T10:43:10Z","2025-10-27T10:43:13Z","2025-10-27T10:43:14Z","2025-10-27T10:43:17Z","2025-10-27T10:43:21Z","2025-10-27T10:43:25Z","2025-10-27T10:43:30Z","2025-10-27T10:43:38Z","2025-10-27T10:43:41Z","2025-10-27T10:43:43Z","2025-10-27T10:43:47Z","2025-10-27T10:43:50Z","2025-10-27T10:43:53Z","2025-10-27T10:44:03Z","2025-10-27T10:44:09Z","2025-10-27T10:44:13Z","2025-10-27T10:44:18Z","2025-10-27T10:44:21Z","2025-10-27T10:44:23Z","2025-10-27T10:44:29Z","2025-10-27T10:44:30Z","2025-10-27T10:44:32Z","2025-10-27T10:44:39Z","2025-10-27T10:44:40Z","2025-10-27T10:44:42Z","2025-10-27T10:45:54Z","2025-10-27T10:45:57Z","2025-10-27T10:46:01Z","2025-10-27T10:46:04Z","2025-10-27T10:46:07Z","2025-10-27T10:46:09Z","2025-10-27T10:46:10Z","2025-10-27T10:46:22Z","2025-10-27T10:46:23Z","2025-10-27T10:46:30Z","2025-10-27T10:46:33Z","2025-10-27T10:46:35Z","2025-10-27T10:46:37Z","2025-10-27T10:48:48Z","2025-10-27T10:48:55Z","2025-10-27T10:48:56Z","2025-10-27T10:51:23Z","2025-10-27T10:52:11Z","2025-10-27T10:52:14Z","2025-10-27T10:52:20Z","2025-10-27T10:52:22Z","2025-10-27T10:52:52Z","2025-10-27T10:52:53Z","2025-10-27T10:52:55Z","2025-10-27T10:52:57Z","2025-10-27T10:53:01Z","2025-10-27T10:53:12Z","2025-10-27T10:53:14Z","2025-10-27T10:53:18Z","2025-10-27T10:53:20Z","2025-10-27T10:53:23Z","2025-10-27T10:53:32Z","2025-10-27T10:53:34Z","2025-10-27T10:53:35Z","2025-10-27T10:53:46Z","2025-10-27T10:53:49Z","2025-10-27T10:53:53Z","2025-10-27T10:53:57Z","2025-10-27T10:53:58Z","2025-10-27T10:54:03Z","2025-10-27T10:54:06Z","2025-10-27T10:54:11Z","2025-10-27T10:54:12Z","2025-10-27T10:54:16Z","2025-10-27T10:55:36Z","2025-10-27T10:55:39Z","2025-10-27T10:55:43Z","2025-10-27T10:55:48Z","2025-10-27T10:56:00Z","2025-10-27T10:56:02Z","2025-10-27T10:56:10Z","2025-10-27T10:56:12Z","2025-10-27T10:56:16Z","2025-10-27T10:56:37Z","2025-10-27T10:56:40Z","2025-10-27T10:56:44Z","2025-10-27T10:56:45Z","2025-10-27T10:56:52Z","2025-10-27T10:56:53Z","2025-10-27T10:57:00Z","2025-10-27T10:57:06Z","2025-10-27T10:57:07Z","2025-10-27T10:57:12Z","2025-10-27T10:57:13Z","2025-10-27T10:58:37Z","2025-10-27T10:58:48Z","2025-10-27T10:58:49Z","2025-10-27T10:58:51Z","2025-10-27T10:58:53Z","2025-10-27T10:58:55Z","2025-10-27T10:58:59Z","2025-10-27T10:59:11Z","2025-10-27T10:59:16Z","2025-10-27T10:59:17Z","2025-10-27T10:59:18Z","2025-10-27T10:59:51Z","2025-10-27T11:01:11Z","2025-10-27T11:01:14Z","2025-10-27T11:01:17Z","2025-10-27T11:01:19Z","2025-10-27T11:01:23Z","2025-10-27T11:01:33Z","2025-10-27T11:01:34Z","2025-10-27T11:01:37Z","2025-10-27T11:01:41Z","2025-10-27T11:02:37Z","2025-10-27T11:02:39Z","2025-10-27T11:02:42Z","2025-10-27T11:02:44Z","2025-10-27T11:02:51Z","2025-10-27T11:02:54Z","2025-10-27T11:02:55Z","2025-10-27T11:03:03Z","2025-10-27T11:03:06Z","2025-10-27T11:03:12Z","2025-10-27T11:03:52Z","2025-10-27T11:03:56Z","2025-10-27T11:04:08Z","2025-10-27T11:04:22Z","2025-10-27T11:04:25Z","2025-10-27T11:05:09Z","2025-10-27T11:05:11Z","2025-10-27T11:05:13Z","2025-10-27T11:05:15Z","2025-10-27T11:05:22Z","2025-10-27T11:05:36Z","2025-10-27T11:05:47Z","2025-10-27T11:05:52Z","2025-10-27T11:05:57Z","2025-10-27T11:05:59Z","2025-10-27T11:06:02Z","2025-10-27T11:06:04Z","2025-10-27T11:06:20Z","2025-10-27T11:06:21Z","2025-10-27T11:07:34Z","2025-10-27T11:07:45Z","2025-10-27T11:07:50Z","2025-10-27T11:07:52Z","2025-10-27T11:07:58Z","2025-10-27T11:08:00Z","2025-10-27T11:08:09Z","2025-10-27T11:08:12Z","2025-10-27T11:08:15Z","2025-10-27T11:08:19Z","2025-10-27T11:08:25Z","2025-10-27T11:08:30Z","2025-10-27T11:08:33Z","2025-10-27T11:08:41Z","2025-10-27T11:09:00Z","2025-10-27T11:09:07Z","2025-10-27T11:09:11Z","2025-10-27T11:09:12Z","2025-10-27T11:09:15Z","2025-10-27T11:09:25Z","2025-10-27T11:09:36Z","2025-10-27T11:09:38Z","2025-10-27T11:10:29Z","2025-10-27T11:10:31Z","2025-10-27T11:10:47Z","2025-10-27T11:10:48Z","2025-10-27T11:11:18Z","2025-10-27T11:11:25Z","2025-10-27T11:11:29Z","2025-10-27T11:11:37Z","2025-10-27T11:11:38Z","2025-10-27T11:11:57Z","2025-10-27T11:11:59Z","2025-10-27T11:12:01Z","2025-10-27T11:12:05Z","2025-10-27T11:12:07Z","2025-10-27T11:12:09Z","2025-10-27T11:12:12Z","2025-10-27T11:13:28Z","2025-10-27T11:13:36Z","2025-10-27T11:13:39Z","2025-10-27T11:13:40Z","2025-10-27T11:13:48Z","2025-10-27T11:13:49Z","2025-10-27T11:13:51Z","2025-10-27T11:13:53Z","2025-10-27T11:13:55Z","2025-10-27T11:13:59Z","2025-10-27T11:14:02Z","2025-10-27T11:14:06Z","2025-10-27T11:14:18Z","2025-10-27T11:14:19Z","2025-10-27T11:14:50Z","2025-10-27T11:15:20Z","2025-10-27T11:15:32Z","2025-10-27T11:15:38Z","2025-10-27T11:15:57Z","2025-10-27T11:16:24Z","2025-10-27T11:19:17Z","2025-10-27T11:20:21Z","2025-10-27T11:20:38Z","2025-10-27T11:20:48Z","2025-10-27T11:20:53Z","2025-10-27T11:20:58Z","2025-10-27T11:21:08Z","2025-10-27T11:21:09Z","2025-10-27T11:21:12Z","2025-10-27T11:21:14Z","2025-10-27T11:22:41Z","2025-10-27T11:22:53Z","2025-10-27T11:22:55Z","2025-10-27T11:23:19Z","2025-10-27T11:23:26Z","2025-10-27T11:23:30Z","2025-10-27T11:23:32Z","2025-10-27T11:23:40Z","2025-10-27T11:23:44Z","2025-10-27T11:23:53Z","2025-10-27T11:23:54Z","2025-10-27T11:24:23Z","2025-10-27T11:24:30Z","2025-10-27T11:24:35Z","2025-10-27T11:24:37Z","2025-10-27T11:24:41Z","2025-10-27T11:25:50Z","2025-10-27T11:27:10Z","2025-10-27T11:27:23Z","2025-10-27T11:27:25Z","2025-10-27T11:27:28Z","2025-10-27T11:27:36Z","2025-10-27T11:27:38Z","2025-10-27T11:27:39Z","2025-10-27T11:27:43Z","2025-10-27T11:27:48Z","2025-10-27T11:27:50Z","2025-10-27T11:27:53Z","2025-10-27T11:27:55Z","2025-10-27T11:28:13Z","2025-10-27T11:28:16Z","2025-10-27T11:28:18Z","2025-10-27T11:28:21Z","2025-10-27T11:28:34Z","2025-10-27T11:28:36Z","2025-10-27T11:28:42Z","2025-10-27T11:29:14Z","2025-10-27T11:29:18Z","2025-10-27T11:29:21Z","2025-10-27T11:29:29Z","2025-10-27T11:29:30Z","2025-10-27T11:29:34Z","2025-10-27T11:29:37Z","2025-10-27T11:29:46Z","2025-10-27T11:29:49Z","2025-10-27T11:29:52Z","2025-10-27T11:30:03Z","2025-10-27T11:30:11Z","2025-10-27T11:30:15Z","2025-10-27T11:30:24Z","2025-10-27T11:30:51Z","2025-10-27T11:30:56Z","2025-10-27T11:30:59Z","2025-10-27T11:31:05Z","2025-10-27T11:31:09Z","2025-10-27T11:31:26Z","2025-10-27T11:31:36Z","2025-10-27T11:31:51Z","2025-10-27T11:31:58Z","2025-10-27T11:32:20Z","2025-10-27T11:32:26Z","2025-10-27T11:32:27Z","2025-10-27T11:32:34Z","2025-10-27T11:32:40Z","2025-10-27T11:32:47Z","2025-10-27T11:32:48Z","2025-10-27T11:32:50Z","2025-10-27T11:32:52Z","2025-10-27T11:32:54Z","2025-10-27T11:33:06Z","2025-10-27T11:33:09Z","2025-10-27T11:33:15Z","2025-10-27T11:33:16Z","2025-10-27T11:33:17Z","2025-10-27T11:33:20Z","2025-10-27T11:33:22Z","2025-10-27T11:33:25Z","2025-10-27T11:33:29Z","2025-10-27T11:33:45Z","2025-10-27T11:33:47Z","2025-10-27T11:33:49Z","2025-10-27T11:33:51Z","2025-10-27T11:33:55Z","2025-10-27T11:33:56Z","2025-10-27T11:34:02Z","2025-10-27T11:34:15Z","2025-10-27T11:35:12Z","2025-10-27T11:35:26Z","2025-10-27T11:35:27Z","2025-10-27T11:35:29Z","2025-10-27T11:35:41Z","2025-10-27T11:35:46Z","2025-10-27T11:35:51Z","2025-10-27T11:35:53Z","2025-10-27T11:35:54Z","2025-10-27T11:36:04Z","2025-10-27T11:36:33Z","2025-10-27T11:36:48Z","2025-10-27T11:37:00Z","2025-10-27T11:37:12Z","2025-10-27T11:37:31Z","2025-10-27T11:37:46Z","2025-10-27T11:38:06Z","2025-10-27T11:38:16Z","2025-10-27T11:38:25Z","2025-10-27T11:38:27Z","2025-10-27T11:40:26Z","2025-10-27T11:41:08Z","2025-10-27T11:41:11Z","2025-10-27T11:41:20Z","2025-10-27T11:41:23Z","2025-10-27T11:41:31Z","2025-10-27T11:42:19Z","2025-10-27T11:42:21Z","2025-10-27T11:42:22Z","2025-10-27T11:42:28Z","2025-10-27T11:42:30Z","2025-10-27T11:43:17Z","2025-10-27T11:43:22Z","2025-10-27T11:43:50Z","2025-10-27T11:43:51Z","2025-10-27T11:45:27Z","2025-10-27T11:45:38Z","2025-10-27T11:52:34Z","2025-10-27T11:52:36Z","2025-10-27T11:52:55Z","2025-10-27T11:53:45Z","2025-10-27T11:53:53Z","2025-10-27T11:53:55Z","2025-10-27T11:53:57Z","2025-10-27T11:54:00Z","2025-10-27T11:54:03Z","2025-10-27T11:57:04Z","2025-10-27T11:58:34Z","2025-10-27T11:58:38Z","2025-10-27T11:58:45Z","2025-10-27T11:58:56Z","2025-10-27T11:58:58Z","2025-10-27T11:59:01Z","2025-10-27T11:59:03Z","2025-10-27T11:59:06Z","2025-10-27T11:59:10Z","2025-10-27T11:59:13Z","2025-10-27T11:59:18Z","2025-10-27T11:59:20Z","2025-10-27T11:59:22Z","2025-10-27T11:59:24Z","2025-10-27T12:07:12Z","2025-10-27T12:07:18Z","2025-10-27T12:08:15Z","2025-10-27T12:11:59Z","2025-10-27T12:13:33Z","2025-10-27T12:13:35Z","2025-10-27T12:13:45Z","2025-10-27T12:13:54Z","2025-10-27T12:14:40Z","2025-10-27T12:15:07Z","2025-10-27T12:15:11Z","2025-10-27T12:15:14Z","2025-10-27T12:15:25Z","2025-10-27T12:15:27Z","2025-10-27T12:15:28Z","2025-10-27T12:15:31Z","2025-10-27T12:15:53Z","2025-10-27T12:15:57Z","2025-10-27T12:15:59Z","2025-10-27T12:16:29Z","2025-10-27T12:16:47Z","2025-10-27T12:16:52Z","2025-10-27T12:16:53Z","2025-10-27T12:16:58Z","2025-10-27T12:16:59Z","2025-10-27T12:17:10Z","2025-10-27T12:17:22Z","2025-10-27T12:17:42Z","2025-10-27T12:18:08Z","2025-10-27T12:18:11Z","2025-10-27T12:18:14Z","2025-10-27T12:18:31Z","2025-10-27T12:19:07Z","2025-10-27T12:19:11Z","2025-10-27T12:19:13Z","2025-10-27T12:19:20Z","2025-10-27T12:19:36Z","2025-10-27T12:19:38Z","2025-10-27T12:19:40Z","2025-10-27T12:20:09Z","2025-10-27T12:20:10Z","2025-10-27T12:22:42Z","2025-10-27T12:22:47Z","2025-10-27T12:22:51Z","2025-10-27T12:22:56Z","2025-10-27T12:23:05Z","2025-10-27T12:23:14Z","2025-10-27T12:23:19Z","2025-10-27T12:23:33Z","2025-10-27T12:23:35Z","2025-10-27T12:23:36Z","2025-10-27T12:23:41Z","2025-10-27T12:23:42Z","2025-10-27T12:23:45Z","2025-10-27T12:23:53Z","2025-10-27T12:23:56Z","2025-10-27T12:24:00Z","2025-10-27T12:24:34Z","2025-10-27T12:24:37Z","2025-10-27T12:24:42Z","2025-10-27T12:24:46Z","2025-10-27T12:24:51Z","2025-10-27T12:24:53Z","2025-10-27T12:24:54Z","2025-10-27T12:24:58Z","2025-10-27T12:25:03Z","2025-10-27T12:25:28Z","2025-10-27T12:25:29Z","2025-10-27T12:25:48Z","2025-10-27T12:26:19Z","2025-10-27T12:26:25Z","2025-10-27T12:26:30Z","2025-10-27T12:26:38Z","2025-10-27T12:26:45Z","2025-10-27T12:26:46Z","2025-10-27T12:26:51Z","2025-10-27T12:27:01Z","2025-10-27T12:27:13Z","2025-10-27T12:27:15Z","2025-10-27T12:27:17Z","2025-10-27T12:27:20Z","2025-10-27T12:27:21Z","2025-10-27T12:27:22Z","2025-10-27T12:27:24Z","2025-10-27T12:27:29Z","2025-10-27T12:27:37Z","2025-10-27T12:27:38Z","2025-10-27T12:27:48Z","2025-10-27T12:27:52Z","2025-10-27T12:27:59Z","2025-10-27T12:28:13Z","2025-10-27T12:28:14Z","2025-10-27T12:28:15Z","2025-10-27T12:28:17Z","2025-10-27T12:28:20Z","2025-10-27T12:28:22Z","2025-10-27T12:28:29Z","2025-10-27T12:28:31Z","2025-10-27T12:28:35Z","2025-10-27T12:28:36Z","2025-10-27T12:28:48Z","2025-10-27T12:28:52Z","2025-10-27T12:28:56Z","2025-10-27T12:29:04Z","2025-10-27T12:29:07Z","2025-10-27T12:29:09Z","2025-10-27T12:29:10Z","2025-10-27T12:29:15Z","2025-10-27T12:29:22Z","2025-10-27T12:29:24Z","2025-10-27T12:29:44Z","2025-10-27T12:29:47Z","2025-10-27T12:29:49Z","2025-10-27T12:29:51Z","2025-10-27T12:30:01Z","2025-10-27T12:30:06Z","2025-10-27T12:30:11Z","2025-10-27T12:30:12Z","2025-10-27T12:30:22Z","2025-10-27T12:30:25Z","2025-10-27T12:30:30Z","2025-10-27T12:30:37Z","2025-10-27T12:30:42Z","2025-10-27T12:30:50Z","2025-10-27T12:30:52Z","2025-10-27T12:31:10Z","2025-10-27T12:31:20Z","2025-10-27T12:31:22Z","2025-10-27T12:31:25Z","2025-10-27T12:31:32Z","2025-10-27T12:31:41Z","2025-10-27T12:31:53Z","2025-10-27T12:31:56Z","2025-10-27T12:32:19Z","2025-10-27T12:32:21Z","2025-10-27T12:32:22Z","2025-10-27T12:32:25Z","2025-10-27T12:32:26Z","2025-10-27T12:32:29Z","2025-10-27T12:32:30Z","2025-10-27T12:32:32Z","2025-10-27T12:32:37Z","2025-10-27T12:32:38Z","2025-10-27T12:32:39Z","2025-10-27T12:32:41Z","2025-10-27T12:32:45Z","2025-10-27T12:32:52Z","2025-10-27T12:32:54Z","2025-10-27T12:33:00Z","2025-10-27T12:33:03Z","2025-10-27T12:33:05Z","2025-10-27T12:33:08Z","2025-10-27T12:33:10Z","2025-10-27T12:33:15Z","2025-10-27T12:33:22Z","2025-10-27T12:33:23Z","2025-10-27T12:33:25Z","2025-10-27T12:33:26Z","2025-10-27T12:33:29Z","2025-10-27T12:33:31Z","2025-10-27T12:33:33Z","2025-10-27T12:34:01Z","2025-10-27T12:34:05Z","2025-10-27T12:34:11Z","2025-10-27T12:34:17Z","2025-10-27T12:34:22Z","2025-10-27T12:34:27Z","2025-10-27T12:34:56Z","2025-10-27T12:36:37Z","2025-10-27T12:37:07Z","2025-10-27T12:37:17Z","2025-10-27T12:37:19Z","2025-10-27T12:37:23Z","2025-10-27T12:37:28Z","2025-10-27T12:37:33Z","2025-10-27T12:37:37Z","2025-10-27T12:37:47Z","2025-10-27T12:37:50Z","2025-10-27T12:37:52Z","2025-10-27T12:37:54Z","2025-10-27T12:37:57Z","2025-10-27T12:38:01Z","2025-10-27T12:38:03Z","2025-10-27T12:38:09Z","2025-10-27T12:38:11Z","2025-10-27T12:38:20Z","2025-10-27T12:38:32Z","2025-10-27T12:38:35Z","2025-10-27T12:38:38Z","2025-10-27T12:39:28Z","2025-10-27T12:39:31Z","2025-10-27T12:39:34Z","2025-10-27T12:39:43Z","2025-10-27T12:39:48Z","2025-10-27T12:39:55Z","2025-10-27T12:39:59Z","2025-10-27T12:40:03Z","2025-10-27T12:40:05Z","2025-10-27T12:40:08Z","2025-10-27T12:40:13Z","2025-10-27T12:40:14Z","2025-10-27T12:40:17Z","2025-10-27T12:40:25Z","2025-10-27T12:40:34Z","2025-10-27T12:40:36Z","2025-10-27T12:40:39Z","2025-10-27T12:40:43Z","2025-10-27T12:41:16Z","2025-10-27T12:41:25Z","2025-10-27T12:41:29Z","2025-10-27T12:41:41Z","2025-10-27T12:41:44Z","2025-10-27T12:41:46Z","2025-10-27T12:41:49Z","2025-10-27T12:41:52Z","2025-10-27T12:41:54Z","2025-10-27T12:41:59Z","2025-10-27T12:42:01Z","2025-10-27T12:42:07Z","2025-10-27T12:42:10Z","2025-10-27T12:42:15Z","2025-10-27T12:42:47Z","2025-10-27T12:42:49Z","2025-10-27T12:42:50Z","2025-10-27T12:42:51Z","2025-10-27T12:43:45Z","2025-10-27T12:43:51Z","2025-10-27T12:43:57Z","2025-10-27T12:44:01Z","2025-10-27T12:44:07Z","2025-10-27T12:44:11Z","2025-10-27T12:44:17Z","2025-10-27T12:44:21Z","2025-10-27T12:44:29Z","2025-10-27T12:44:36Z","2025-10-27T12:44:37Z","2025-10-27T12:44:41Z","2025-10-27T12:44:47Z","2025-10-27T12:44:50Z","2025-10-27T12:44:54Z","2025-10-27T12:44:58Z","2025-10-27T12:45:00Z","2025-10-27T12:45:01Z","2025-10-27T12:45:20Z","2025-10-27T12:45:24Z","2025-10-27T12:45:30Z","2025-10-27T12:45:35Z","2025-10-27T12:45:38Z","2025-10-27T12:45:40Z","2025-10-27T12:45:43Z","2025-10-27T12:46:09Z","2025-10-27T12:46:10Z","2025-10-27T12:46:12Z","2025-10-27T12:46:13Z","2025-10-27T12:46:14Z","2025-10-27T12:46:15Z","2025-10-27T12:46:18Z","2025-10-27T12:46:19Z","2025-10-27T12:46:20Z","2025-10-27T12:46:24Z","2025-10-27T12:46:25Z","2025-10-27T12:46:27Z","2025-10-27T12:46:42Z","2025-10-27T12:47:04Z","2025-10-27T12:47:08Z","2025-10-27T12:47:09Z","2025-10-27T12:47:11Z","2025-10-27T12:47:12Z","2025-10-27T12:47:15Z","2025-10-27T12:47:17Z","2025-10-27T12:47:21Z","2025-10-27T12:47:23Z","2025-10-27T12:47:27Z","2025-10-27T12:47:35Z","2025-10-27T12:47:37Z","2025-10-27T12:47:41Z","2025-10-27T12:48:01Z","2025-10-27T12:48:09Z","2025-10-27T12:48:11Z","2025-10-27T12:48:20Z","2025-10-27T12:48:21Z","2025-10-27T12:48:25Z","2025-10-27T12:48:31Z","2025-10-27T12:48:36Z","2025-10-27T12:48:45Z","2025-10-27T12:48:56Z","2025-10-27T12:49:08Z","2025-10-27T12:49:10Z","2025-10-27T12:49:12Z","2025-10-27T12:49:15Z","2025-10-27T12:49:18Z","2025-10-27T12:49:23Z","2025-10-27T12:49:25Z","2025-10-27T12:49:27Z","2025-10-27T12:49:30Z","2025-10-27T12:49:34Z","2025-10-27T12:49:41Z","2025-10-27T12:50:00Z","2025-10-27T12:50:05Z","2025-10-27T12:54:34Z","2025-10-27T12:55:29Z","2025-10-27T12:58:46Z","2025-10-27T12:58:55Z","2025-10-27T12:59:04Z","2025-10-27T12:59:09Z","2025-10-27T12:59:17Z","2025-10-27T12:59:26Z","2025-10-27T12:59:27Z","2025-10-27T12:59:32Z","2025-10-27T12:59:41Z","2025-10-27T12:59:47Z","2025-10-27T12:59:58Z","2025-10-27T13:00:00Z","2025-10-27T13:00:08Z","2025-10-27T13:00:23Z","2025-10-27T13:00:28Z","2025-10-27T13:01:08Z","2025-10-27T13:01:25Z","2025-10-27T13:01:27Z","2025-10-27T13:01:29Z","2025-10-27T13:01:31Z","2025-10-27T13:01:33Z","2025-10-27T13:01:46Z","2025-10-27T13:01:49Z","2025-10-27T13:01:56Z","2025-10-27T13:02:02Z","2025-10-27T13:02:09Z","2025-10-27T13:02:22Z","2025-10-27T13:02:23Z","2025-10-27T13:02:24Z","2025-10-27T13:02:50Z","2025-10-27T13:02:54Z","2025-10-27T13:02:56Z","2025-10-27T13:03:03Z","2025-10-27T13:03:04Z","2025-10-27T13:03:09Z","2025-10-27T13:03:15Z","2025-10-27T13:03:20Z","2025-10-27T13:03:24Z","2025-10-27T13:03:31Z","2025-10-27T13:03:43Z","2025-10-27T13:03:47Z","2025-10-27T13:03:52Z","2025-10-27T13:03:57Z","2025-10-27T13:04:05Z","2025-10-27T13:04:12Z","2025-10-27T13:04:17Z","2025-10-27T13:04:19Z","2025-10-27T13:05:02Z","2025-10-27T13:05:05Z","2025-10-27T13:05:29Z","2025-10-27T13:05:43Z","2025-10-27T13:05:44Z","2025-10-27T13:05:50Z","2025-10-27T13:05:53Z","2025-10-27T13:05:54Z","2025-10-27T13:06:03Z","2025-10-27T13:06:05Z","2025-10-27T13:06:37Z","2025-10-27T13:06:41Z","2025-10-27T13:06:45Z","2025-10-27T13:06:48Z","2025-10-27T13:06:51Z","2025-10-27T13:07:45Z","2025-10-27T13:07:48Z","2025-10-27T13:07:54Z","2025-10-27T13:07:56Z","2025-10-27T13:08:08Z","2025-10-27T13:08:14Z","2025-10-27T13:08:26Z","2025-10-27T13:08:35Z","2025-10-27T13:08:38Z","2025-10-27T13:09:11Z","2025-10-27T13:09:13Z","2025-10-27T13:09:15Z","2025-10-27T13:09:22Z","2025-10-27T13:09:27Z","2025-10-27T13:09:33Z","2025-10-27T13:09:41Z","2025-10-27T13:09:46Z","2025-10-27T13:09:48Z","2025-10-27T13:09:52Z","2025-10-27T13:09:55Z","2025-10-27T13:09:58Z","2025-10-27T13:10:03Z","2025-10-27T13:10:08Z","2025-10-27T13:10:10Z","2025-10-27T13:10:14Z","2025-10-27T13:10:18Z","2025-10-27T13:10:20Z","2025-10-27T13:10:25Z","2025-10-27T13:11:55Z","2025-10-27T13:11:59Z","2025-10-27T13:12:06Z","2025-10-27T13:12:10Z","2025-10-27T13:12:39Z","2025-10-27T13:12:40Z","2025-10-27T13:12:43Z","2025-10-27T13:12:49Z","2025-10-27T13:12:53Z","2025-10-27T13:12:56Z","2025-10-27T13:13:05Z","2025-10-27T13:13:16Z","2025-10-27T13:13:23Z","2025-10-27T13:13:25Z","2025-10-27T13:14:09Z","2025-10-27T13:14:12Z","2025-10-27T13:14:14Z","2025-10-27T13:14:31Z","2025-10-27T13:14:40Z","2025-10-27T13:14:54Z","2025-10-27T13:15:00Z","2025-10-27T13:15:02Z","2025-10-27T13:15:10Z","2025-10-27T13:15:16Z","2025-10-27T13:15:21Z","2025-10-27T13:15:37Z","2025-10-27T13:15:52Z","2025-10-27T13:16:32Z","2025-10-27T13:16:43Z","2025-10-27T13:16:49Z","2025-10-27T13:16:56Z","2025-10-27T13:16:59Z","2025-10-27T13:17:04Z","2025-10-27T13:17:10Z","2025-10-27T13:17:28Z","2025-10-27T13:17:29Z","2025-10-27T13:17:30Z","2025-10-27T13:17:41Z","2025-10-27T13:17:58Z","2025-10-27T13:17:59Z","2025-10-27T13:18:06Z","2025-10-27T13:18:09Z","2025-10-27T13:18:11Z","2025-10-27T13:18:15Z","2025-10-27T13:18:22Z","2025-10-27T13:18:23Z","2025-10-27T13:18:28Z","2025-10-27T13:18:30Z","2025-10-27T13:18:33Z","2025-10-27T13:18:35Z","2025-10-27T13:18:39Z","2025-10-27T13:18:43Z","2025-10-27T13:18:45Z","2025-10-27T13:18:49Z","2025-10-27T13:19:02Z","2025-10-27T13:19:06Z","2025-10-27T13:19:14Z","2025-10-27T13:19:42Z","2025-10-27T13:20:01Z","2025-10-27T13:20:16Z","2025-10-27T13:20:19Z","2025-10-27T13:20:33Z","2025-10-27T13:20:41Z","2025-10-27T13:20:45Z","2025-10-27T13:20:54Z","2025-10-27T13:21:02Z","2025-10-27T13:21:05Z","2025-10-27T13:21:14Z","2025-10-27T13:21:19Z","2025-10-27T13:21:20Z","2025-10-27T13:21:31Z","2025-10-27T13:21:32Z","2025-10-27T13:21:36Z","2025-10-27T13:21:40Z","2025-10-27T13:21:43Z","2025-10-27T13:21:48Z","2025-10-27T13:22:00Z","2025-10-27T13:22:04Z","2025-10-27T13:22:06Z","2025-10-27T13:22:10Z","2025-10-27T13:22:15Z","2025-10-27T13:22:17Z","2025-10-27T13:22:25Z","2025-10-27T13:22:38Z","2025-10-27T13:22:42Z","2025-10-27T13:22:54Z","2025-10-27T13:22:57Z","2025-10-27T13:23:04Z","2025-10-27T13:23:07Z","2025-10-27T13:23:16Z","2025-10-27T13:23:20Z","2025-10-27T13:23:36Z","2025-10-27T13:23:45Z","2025-10-27T13:24:04Z","2025-10-27T13:24:08Z","2025-10-27T13:24:29Z","2025-10-27T13:24:59Z","2025-10-27T13:25:02Z","2025-10-27T13:25:10Z","2025-10-27T13:25:23Z","2025-10-27T13:25:25Z","2025-10-27T13:25:32Z","2025-10-27T13:25:39Z","2025-10-27T13:25:45Z","2025-10-27T13:25:48Z","2025-10-27T13:25:49Z","2025-10-27T13:25:51Z","2025-10-27T13:26:13Z","2025-10-27T13:26:19Z","2025-10-27T13:26:23Z","2025-10-27T13:26:39Z","2025-10-27T13:26:43Z","2025-10-27T13:26:45Z","2025-10-27T13:26:47Z","2025-10-27T13:26:51Z","2025-10-27T13:26:53Z","2025-10-27T13:26:56Z","2025-10-27T13:27:04Z","2025-10-27T13:27:42Z","2025-10-27T13:27:48Z","2025-10-27T13:27:52Z","2025-10-27T13:28:05Z","2025-10-27T13:28:30Z","2025-10-27T13:28:34Z","2025-10-27T13:28:37Z","2025-10-27T13:28:41Z","2025-10-27T13:28:48Z","2025-10-27T13:29:01Z","2025-10-27T13:29:16Z","2025-10-27T13:29:21Z","2025-10-27T13:29:33Z","2025-10-27T13:29:36Z","2025-10-27T13:29:38Z","2025-10-27T13:29:46Z","2025-10-27T13:30:04Z","2025-10-27T13:30:09Z","2025-10-27T13:30:11Z","2025-10-27T13:30:13Z","2025-10-27T13:30:15Z","2025-10-27T13:30:21Z","2025-10-27T13:30:38Z","2025-10-27T13:30:45Z","2025-10-27T13:30:49Z","2025-10-27T13:30:56Z","2025-10-27T13:31:05Z","2025-10-27T13:31:07Z","2025-10-27T13:31:21Z","2025-10-27T13:31:34Z","2025-10-27T13:31:36Z","2025-10-27T13:31:46Z","2025-10-27T13:31:50Z","2025-10-27T13:31:59Z","2025-10-27T13:32:02Z","2025-10-27T13:32:05Z","2025-10-27T13:32:10Z","2025-10-27T13:32:41Z","2025-10-27T13:32:45Z","2025-10-27T13:32:49Z","2025-10-27T13:32:53Z","2025-10-27T13:33:01Z","2025-10-27T13:33:25Z","2025-10-27T13:33:32Z","2025-10-27T13:33:43Z","2025-10-27T13:33:49Z","2025-10-27T13:33:51Z","2025-10-27T13:33:56Z","2025-10-27T13:34:00Z","2025-10-27T13:34:32Z","2025-10-27T13:34:42Z","2025-10-27T13:34:50Z","2025-10-27T13:34:57Z","2025-10-27T13:35:06Z","2025-10-27T13:35:17Z","2025-10-27T13:35:22Z","2025-10-27T13:35:26Z","2025-10-27T13:35:30Z","2025-10-27T13:35:31Z","2025-10-27T13:35:33Z","2025-10-27T13:35:36Z","2025-10-27T13:35:39Z","2025-10-27T13:35:41Z","2025-10-27T13:35:45Z","2025-10-27T13:35:48Z","2025-10-27T13:35:51Z","2025-10-27T13:35:54Z","2025-10-27T13:35:55Z","2025-10-27T13:36:19Z","2025-10-27T13:36:23Z","2025-10-27T13:36:26Z","2025-10-27T13:36:30Z","2025-10-27T13:36:46Z","2025-10-27T13:36:49Z","2025-10-27T13:36:51Z","2025-10-27T13:36:53Z","2025-10-27T13:36:54Z","2025-10-27T13:36:56Z","2025-10-27T13:36:57Z","2025-10-27T13:37:02Z","2025-10-27T13:37:05Z","2025-10-27T13:37:59Z","2025-10-27T13:38:05Z","2025-10-27T13:38:06Z","2025-10-27T13:38:10Z","2025-10-27T13:38:12Z","2025-10-27T13:38:16Z","2025-10-27T13:38:18Z","2025-10-27T13:38:27Z","2025-10-27T13:38:30Z","2025-10-27T13:38:33Z","2025-10-27T13:38:36Z","2025-10-27T13:39:29Z","2025-10-27T13:39:49Z","2025-10-27T13:42:18Z","2025-10-27T13:42:19Z","2025-10-27T13:42:20Z","2025-10-27T13:42:24Z","2025-10-27T13:42:30Z","2025-10-27T13:42:34Z","2025-10-27T13:42:37Z","2025-10-27T13:42:40Z","2025-10-27T13:42:46Z","2025-10-27T13:42:49Z","2025-10-27T13:42:50Z","2025-10-27T13:42:52Z","2025-10-27T13:43:02Z","2025-10-27T13:43:03Z","2025-10-27T13:43:08Z","2025-10-27T13:43:18Z","2025-10-27T13:43:20Z","2025-10-27T13:43:21Z","2025-10-27T13:43:22Z","2025-10-27T13:43:25Z","2025-10-27T13:43:31Z","2025-10-27T13:43:32Z","2025-10-27T13:44:25Z","2025-10-27T13:44:32Z","2025-10-27T13:44:33Z","2025-10-27T13:44:34Z","2025-10-27T13:44:35Z","2025-10-27T13:44:36Z","2025-10-27T13:44:41Z","2025-10-27T13:44:42Z","2025-10-27T13:44:43Z","2025-10-27T13:44:44Z","2025-10-27T13:44:45Z","2025-10-27T13:44:46Z","2025-10-27T13:44:47Z","2025-10-27T13:44:48Z","2025-10-27T13:44:49Z","2025-10-27T13:44:50Z","2025-10-27T13:44:51Z","2025-10-27T13:44:52Z","2025-10-27T13:44:53Z","2025-10-27T13:44:57Z","2025-10-27T13:45:01Z","2025-10-27T13:45:09Z","2025-10-27T13:45:12Z","2025-10-27T13:45:19Z","2025-10-27T13:45:22Z","2025-10-27T13:45:33Z","2025-10-27T13:45:34Z","2025-10-27T13:47:43Z","2025-10-27T13:47:44Z","2025-10-27T13:47:45Z","2025-10-27T13:47:47Z","2025-10-27T13:47:48Z","2025-10-27T13:47:49Z","2025-10-27T13:47:50Z","2025-10-27T13:47:52Z","2025-10-27T13:47:54Z","2025-10-27T13:47:56Z","2025-10-27T13:47:58Z","2025-10-27T13:48:02Z","2025-10-27T13:48:03Z","2025-10-27T13:48:07Z","2025-10-27T13:48:08Z","2025-10-27T13:48:22Z","2025-10-27T13:48:24Z","2025-10-27T13:48:31Z","2025-10-27T13:48:33Z","2025-10-27T13:48:50Z","2025-10-27T13:48:51Z","2025-10-27T13:49:01Z","2025-10-27T13:49:09Z","2025-10-27T13:49:19Z","2025-10-27T13:49:21Z","2025-10-27T13:49:24Z","2025-10-27T13:49:30Z","2025-10-27T13:49:40Z","2025-10-27T13:49:44Z","2025-10-27T13:49:49Z","2025-10-27T13:49:51Z","2025-10-27T13:49:56Z","2025-10-27T13:50:10Z","2025-10-27T13:50:13Z","2025-10-27T13:50:16Z","2025-10-27T13:50:17Z","2025-10-27T13:50:20Z","2025-10-27T13:50:23Z","2025-10-27T13:50:29Z","2025-10-27T13:50:36Z","2025-10-27T13:50:46Z","2025-10-27T13:50:47Z","2025-10-27T13:50:54Z","2025-10-27T13:51:02Z","2025-10-27T13:51:04Z","2025-10-27T13:51:12Z","2025-10-27T13:51:14Z","2025-10-27T13:51:19Z","2025-10-27T13:51:25Z","2025-10-27T13:51:30Z","2025-10-27T13:51:41Z","2025-10-27T13:51:43Z","2025-10-27T13:51:51Z","2025-10-27T13:51:53Z","2025-10-27T13:51:57Z","2025-10-27T13:52:01Z","2025-10-27T13:52:06Z","2025-10-27T13:52:08Z","2025-10-27T13:52:20Z","2025-10-27T13:52:29Z","2025-10-27T13:52:37Z","2025-10-27T13:52:48Z","2025-10-27T13:53:03Z","2025-10-27T13:53:05Z","2025-10-27T13:53:27Z","2025-10-27T13:53:30Z","2025-10-27T13:53:34Z","2025-10-27T13:53:41Z","2025-10-27T13:53:47Z","2025-10-27T13:53:50Z","2025-10-27T13:53:54Z","2025-10-27T13:53:57Z","2025-10-27T13:53:59Z","2025-10-27T13:54:00Z","2025-10-27T13:54:01Z","2025-10-27T13:54:03Z","2025-10-27T13:54:04Z","2025-10-27T13:54:06Z","2025-10-27T13:54:07Z","2025-10-27T13:54:10Z","2025-10-27T13:55:16Z","2025-10-27T13:55:19Z","2025-10-27T13:55:22Z","2025-10-27T13:55:27Z","2025-10-27T13:55:34Z","2025-10-27T13:55:38Z","2025-10-27T13:55:39Z","2025-10-27T13:55:42Z","2025-10-27T13:55:43Z","2025-10-27T13:55:50Z","2025-10-27T13:55:51Z","2025-10-27T13:55:54Z","2025-10-27T13:55:56Z","2025-10-27T13:55:57Z","2025-10-27T13:55:59Z","2025-10-27T13:56:02Z","2025-10-27T13:56:03Z","2025-10-27T13:56:05Z","2025-10-27T13:56:07Z","2025-10-27T13:56:09Z","2025-10-27T13:56:10Z","2025-10-27T13:56:14Z","2025-10-27T13:56:15Z","2025-10-27T13:56:19Z","2025-10-27T13:56:21Z","2025-10-27T13:56:22Z","2025-10-27T13:56:25Z","2025-10-27T13:56:27Z","2025-10-27T13:56:29Z","2025-10-27T13:56:30Z","2025-10-27T13:56:31Z","2025-10-27T13:56:56Z","2025-10-27T13:57:02Z","2025-10-27T13:57:11Z","2025-10-27T13:57:30Z","2025-10-27T13:57:34Z","2025-10-27T13:58:00Z","2025-10-27T13:58:04Z","2025-10-27T13:58:35Z","2025-10-27T13:58:38Z","2025-10-27T13:58:44Z","2025-10-27T13:59:12Z","2025-10-27T13:59:13Z","2025-10-27T13:59:16Z","2025-10-27T13:59:23Z","2025-10-27T13:59:26Z","2025-10-27T13:59:30Z","2025-10-27T13:59:33Z","2025-10-27T13:59:40Z","2025-10-27T14:00:02Z","2025-10-27T14:00:06Z","2025-10-27T14:00:27Z","2025-10-27T14:00:29Z","2025-10-27T14:00:34Z","2025-10-27T14:00:38Z","2025-10-27T14:01:02Z","2025-10-27T14:01:04Z","2025-10-27T14:01:34Z","2025-10-27T14:01:39Z","2025-10-27T14:01:42Z","2025-10-27T14:02:12Z","2025-10-27T14:02:18Z","2025-10-27T14:02:22Z","2025-10-27T14:02:25Z","2025-10-27T14:02:27Z","2025-10-27T14:02:31Z","2025-10-27T14:02:32Z","2025-10-27T14:02:38Z","2025-10-27T14:02:45Z","2025-10-27T14:02:47Z","2025-10-27T14:02:53Z","2025-10-27T14:02:55Z","2025-10-27T14:02:58Z","2025-10-27T14:03:06Z","2025-10-27T14:03:12Z","2025-10-27T14:03:18Z","2025-10-27T14:03:27Z","2025-10-27T14:03:34Z","2025-10-27T14:03:49Z","2025-10-27T14:03:53Z","2025-10-27T14:04:01Z","2025-10-27T14:04:05Z","2025-10-27T14:04:09Z","2025-10-27T14:05:59Z","2025-10-27T14:06:07Z","2025-10-27T14:06:29Z","2025-10-27T14:06:35Z","2025-10-27T14:06:40Z","2025-10-27T14:06:51Z","2025-10-27T14:07:10Z","2025-10-27T14:07:17Z","2025-10-27T14:07:21Z","2025-10-27T14:07:24Z","2025-10-27T14:07:27Z","2025-10-27T14:07:44Z","2025-10-27T14:07:48Z","2025-10-27T14:07:58Z","2025-10-27T14:08:22Z","2025-10-27T14:08:25Z","2025-10-27T14:08:33Z","2025-10-27T14:08:37Z","2025-10-27T14:08:40Z","2025-10-27T14:08:44Z","2025-10-27T14:08:49Z","2025-10-27T14:08:51Z","2025-10-27T14:09:02Z","2025-10-27T14:09:15Z","2025-10-27T14:09:20Z","2025-10-27T14:09:23Z","2025-10-27T14:09:30Z","2025-10-27T14:09:35Z","2025-10-27T14:09:42Z","2025-10-27T14:09:48Z","2025-10-27T14:09:50Z","2025-10-27T14:09:55Z","2025-10-27T14:10:05Z","2025-10-27T14:10:19Z","2025-10-27T14:10:45Z","2025-10-27T14:10:53Z","2025-10-27T14:11:01Z","2025-10-27T14:11:08Z","2025-10-27T14:11:22Z","2025-10-27T14:11:24Z","2025-10-27T14:11:41Z","2025-10-27T14:11:46Z","2025-10-27T14:11:53Z","2025-10-27T14:11:58Z","2025-10-27T14:12:14Z","2025-10-27T14:12:21Z","2025-10-27T14:12:25Z","2025-10-27T14:12:43Z","2025-10-27T14:12:53Z","2025-10-27T14:12:56Z","2025-10-27T14:12:59Z","2025-10-27T14:13:04Z","2025-10-27T14:13:11Z","2025-10-27T14:13:27Z","2025-10-27T14:13:36Z","2025-10-27T14:13:42Z","2025-10-27T14:13:49Z","2025-10-27T14:13:55Z","2025-10-27T14:14:02Z","2025-10-27T14:14:04Z","2025-10-27T14:14:05Z","2025-10-27T14:14:09Z","2025-10-27T14:14:15Z","2025-10-27T14:14:34Z"],"heartRates":[115,116,114,113,113,113,111,111,113,112,112,111,111,111,109,107,103,102,101,101,101,95,95,96,96,89,95,114,114,114,114,123,125,130,134,142,142,143,143,143,147,146,146,146,148,149,151,153,154,155,155,142,141,141,141,142,142,142,143,136,128,128,124,124,126,126,126,131,131,135,135,136,136,136,136,136,138,139,139,141,141,143,144,145,143,142,142,142,141,141,142,137,135,135,135,135,136,136,136,138,139,140,140,140,140,140,140,137,136,135,131,131,129,118,118,118,121,121,124,129,129,129,133,135,135,135,135,144,146,146,147,147,149,149,150,152,152,150,146,149,147,147,131,126,126,129,129,135,135,148,148,149,153,153,156,157,159,159,121,121,123,125,134,134,138,139,136,136,136,145,147,147,147,147,150,150,151,152,152,150,150,148,148,143,142,135,132,132,132,120,120,120,121,121,123,123,123,123,127,127,131,136,137,137,142,150,150,150,150,150,150,150,150,152,154,154,154,157,157,157,158,159,159,159,160,161,161,161,160,160,159,159,152,152,152,146,141,140,135,135,134,134,134,130,130,120,120,124,124,126,135,138,142,142,147,149,149,149,149,147,121,115,115,115,117,117,119,119,119,121,122,122,122,139,139,139,139,140,140,144,148,148,148,151,151,152,154,155,153,155,154,154,151,151,151,147,147,147,125,125,129,130,130,133,134,141,141,146,149,149,149,119,125,125,123,112,117,116,115,114,114,114,114,123,129,132,132,135,136,143,143,146,149,151,151,153,153,155,155,159,159,159,132,132,132,131,137,142,145,146,148,150,150,148,148,149,149,151,155,155,155,157,132,136,136,136,142,142,145,153,153,156,156,153,131,131,133,133,137,141,142,142,143,131,131,131,134,138,138,138,141,144,148,147,147,146,145,143,136,136,136,136,139,148,155,155,156,157,158,158,160,160,132,135,135,135,140,141,145,148,150,150,154,154,154,155,147,145,145,145,146,148,152,157,147,148,153,153,153,148,149,152,153,153,153,153,153,153,153,153,123,133,136,136,139,139,139,141,142,142,145,145,153,155,151,151,152,154,158,150,122,119,115,113,114,114,114,116,116,116,114,126,131,143,145,145,145,148,148,151,151,153,150,148,148,149,126,120,128,130,127,132,132,132,135,136,136,141,141,145,145,145,145,150,150,150,146,146,147,150,150,153,150,151,151,151,145,142,142,139,125,125,125,124,121,115,116,115,117,116,114,114,115,121,119,119,120,120,120,121,121,125,125,125,125,125,124,124,122,123,123,124,124,124,124,119,114,114,114,112,112,112,112,112,112,113,114,111,110,111,116,116,116,117,117,117,110,111,111,109,109,116,120,121,121,122,122,117,117,114,114,111,121,111,111,116,124,132,132,132,132,132,120,110,113,121,121,121,119,119,119,118,118,116,118,118,118,116,115,110,109,109,116,118,125,118,119,117,117,115,115,115,124,126,126,128,123,124,124,124,121,123,125,124,121,117,117,117,117,116,117,117,117,112,112,112,116,116,114,117,117,115,117,117,118,119,120,120,120,120,119,118,118,122,123,123,123,123,123,123,123,123,124,121,121,125,120,121,122,123,123,124,124,123,122,123,123,123,125,125,125,126,125,125,127,127,126,125,127,127,127,127,127,127,129,129,129,131,130,130,124,124,124,124,124,129,131,130,130,132,132,133,132,130,130,133,133,134,135,134,135,135,127,131,131,133,134,135,134,134,129,129,129,133,133,135,135,135,136,136,136,135,136,135,135,135,139,139,139,139,138,139,139,140,140,140,140,140,137,137,135,135,135,133,136,123,124,125,125,125,126,128,127,126,133,133,132,132,132,132,134,136,138,136,136,136,121,121,123,123,131,131,132,131,131,131,130,130,130,131,131,131,131,131,129,128,131,134,133,133,131,131,131,132,132,132,132,132,128,128,128,128,122,122,128,131,131,131,131,134,136,136,137,137,138,138,138,138,138,138,133,135,136,136,137,137,138,134,134,134,134,137,137,137,137,137,139,139,139,138,139,139,139,139,139,140,140,141,141,141,140,138,138,136,137,138,139,139,139,138,138,140,140,141,141,143,143,144,144,144,144,144,142,139,134,133,109,104,115,120,127,127,127,127,127,127,127,127,127,127,128,127,126,123,119,119,119,119,119,125,126,125,124,125,125,125,125,129,127,127,125,125,125,127,127,127,125,124,124,133,134,132,132,132,132,122,127,135,137,137,136,136,136,134,133,129,131,131,132,132,127,127,126,126,128,130,131,133,133,124,129,129,133,135,136,137,136,136,136,136,136,134,134,136,136,136,136,135,118,124,129,129,136,136,133,130,130,126,124,120,119,119,113,113,113,114,115,118,119,119,119,119,118,118,117,118,113,112,110,110,110,112,116,116,116,115,116,116,117,117,116,115,115,115,114,114,116,116,116,119,120,119,116,116,115,117,118,118,118,117,117,119,120,122,122,122,122,119,120,120,120,121,121,119,120,121,122,122,120,120,121,122,123,123,124,126,126,129,129,129,132,131,132,131,134,134,134,134,134,132,132,131,131,131,129,121,121,121,123,123,123,121,121,119,119,119,117,117,115,115,116,116,117,117,116,117,117,117,116,116,117,117,120,120,120,119,119,123,122,121,121,120,120,119,120,119,117,116,117,116,116,117,117,115,117,117,116,116,118,118,118,118,118,120,121,122,125,125,128,129,128,126,127,129,129,129,129,129,129,127,127,127,127,127,120,120,120,120,119,119,117,117,117,117,117,118,115,115,117,117,115,115,116,116,116,115,115,115,115,118,110,110,110,115,115,115,118,120,119,119,118,118,117,117,117,120,120,120,120,120,120,120,113,113,113,113,113,113,111,113,113,113,113,113,111,111,111,111,111,111,111,110,108,109,109,109,109,111,111,110,110,109,109,109,110,110,110,110,110,108,108,108,110,110,108,111,111,111,110,110,110,110,109,109,110,110,113,110,110,110,113,118,118,120,120,120,123,121,121,123,123,121,119,119,116,110,110,115,115,112,111,110,108,108,107,107,107,108,112,112,110,110,110,110,109,109,110,110,109,109,110,110,110,110,110,110,110,115,115,113,111,111,111,105,105,106,106,106,108,108,110,110,110,110,110,110,110,110,110,110,113,113,114,114,114,114,114,114,114,115,108,107,108,108,108,113,113,108,112,110,108,108,110,111,111,110,110,111,109,113,108,104,108,109,107,107,112,112,113,111,110,110,109,109,108,108,108,113,113,115,114,114,117,119,122,122,122,127,126,125,126,126,110,111,109,109,107,107,104,107,107,107,107,103,107,110,114,114,115,116,116,116,114,114,109,109,109,109,109,109,111,109,109,109,108,110,117,119,120,121,118,117,115,113,112,111,110,112,113,120,122,123,123,122,121,118,116,116,114,114,114,115,115,115,115,112],"month":"2025-10-01"},"geometry":{"type":"LineString","coordinates":[[13.079028,67.922961,14.2],[13.078886,67.922866,14.6],[13.078592,67.922615,15.6],[13.078602,67.922608,15.6],[13.07864,67.922611,15.7],[13.078655,67.922583,15.8],[13.078597,67.922551,15.9],[13.078589,67.922525,16],[13.078513,67.922474,16.2],[13.078478,67.922372,16.6],[13.078446,67.922348,16.7],[13.078395,67.922348,16.7],[13.078417,67.922352,16.8],[13.078399,67.922349,16.8],[13.078423,67.922334,16.9],[13.078395,67.922327,16.9],[13.078405,67.922343,17],[13.078379,67.922346,17.1],[13.078364,67.92234,17.1],[13.078388,67.922337,17.1],[13.078371,67.922342,17.2],[13.078371,67.922314,17.3],[13.078445,67.9223,17.4],[13.078396,67.922289,17.5],[13.078385,67.922266,17.5],[13.078261,67.922341,21.2],[13.078135,67.922367,22.9],[13.078087,67.922342,23.7],[13.07809,67.922348,23.9],[13.078067,67.922341,24.2],[13.078012,67.922344,24.7],[13.077951,67.922326,25.5],[13.077832,67.922317,26.8],[13.077671,67.922324,28.9],[13.077512,67.922295,31.6],[13.077154,67.922277,37.2],[13.077132,67.922268,37.7],[13.07714,67.922262,38],[13.077091,67.922241,39.2],[13.077104,67.922241,39.4],[13.076883,67.922224,42.9],[13.076868,67.922217,43.4],[13.076842,67.922219,43.8],[13.076799,67.922207,44.7],[13.076727,67.922224,46.5],[13.076682,67.922198,47.9],[13.07663,67.922197,48.7],[13.076586,67.922218,50],[13.076582,67.922243,51.1],[13.076478,67.922285,53.4],[13.076484,67.922361,56.1],[13.076398,67.922473,60],[13.076311,67.922493,61.3],[13.07625,67.922485,62.2],[13.076245,67.922503,63],[13.076226,67.922509,63.3],[13.07623,67.92253,64],[13.076199,67.922538,64.4],[13.076184,67.922572,65.5],[13.076229,67.922609,66.6],[13.07627,67.922679,67.2],[13.076232,67.9227,68.2],[13.076128,67.922697,69.3],[13.076136,67.922732,70.2],[13.076162,67.922739,70.5],[13.076154,67.922765,71.2],[13.07613,67.922767,71.4],[13.076111,67.922817,72.5],[13.076074,67.922846,73.1],[13.076081,67.922878,73.7],[13.076112,67.922888,73.9],[13.076102,67.922909,74.2],[13.076133,67.922918,74.4],[13.076158,67.922953,75],[13.076145,67.922953,75],[13.076128,67.923023,76.1],[13.076063,67.923076,77],[13.076011,67.923096,77.5],[13.076001,67.923114,77.8],[13.075967,67.923116,78],[13.075907,67.92315,78.8],[13.075952,67.923209,79.9],[13.076042,67.923246,80.7],[13.076071,67.923287,81.4],[13.07603,67.923333,82],[13.07593,67.92339,82.8],[13.075888,67.923401,83.1],[13.075867,67.923428,83.4],[13.075874,67.923485,84.1],[13.075901,67.923503,84.4],[13.075875,67.923526,84.7],[13.075922,67.923602,85.8],[13.075846,67.923646,86.6],[13.075846,67.923669,87],[13.075867,67.923677,87.1],[13.075854,67.923696,87.5],[13.0758,67.923721,87.9],[13.075807,67.923727,88],[13.075747,67.923741,88.4],[13.075689,67.92378,89],[13.075633,67.923775,89.4],[13.075561,67.923809,90],[13.075479,67.923824,90.5],[13.075469,67.923849,90.9],[13.075502,67.923834,91.1],[13.075549,67.923827,91.4],[13.075551,67.923833,91.5],[13.075498,67.923813,92.1],[13.075503,67.923818,92.2],[13.075498,67.923812,92.3],[13.07553,67.9238,92.8],[13.075561,67.923804,93],[13.075516,67.92383,93.6],[13.075476,67.923815,94],[13.075446,67.923824,94.3],[13.075383,67.923819,94.6],[13.075354,67.923851,95.2],[13.075213,67.92391,96.6],[13.075194,67.923955,97.4],[13.075246,67.923982,98],[13.075198,67.923993,98.4],[13.075202,67.924004,98.6],[13.075114,67.924019,99.2],[13.075024,67.924023,99.9],[13.074998,67.924035,100.2],[13.074981,67.924033,100.4],[13.07493,67.924047,100.9],[13.074913,67.924063,101.2],[13.074873,67.924072,101.6],[13.074843,67.924068,101.9],[13.074769,67.924089,102.7],[13.074767,67.924101,102.9],[13.074711,67.924128,103.7],[13.074677,67.924131,104],[13.074629,67.924124,104.5],[13.074561,67.924149,105.5],[13.074564,67.924141,105.7],[13.074532,67.924168,106.6],[13.074549,67.924165,106.8],[13.074499,67.924158,107.5],[13.074494,67.924173,108.1],[13.074522,67.924173,108.5],[13.074554,67.924156,109.4],[13.074531,67.924172,109.9],[13.074458,67.924182,110.7],[13.074412,67.924216,111.9],[13.074427,67.924239,112.6],[13.074367,67.924324,115.3],[13.074321,67.924319,115.9],[13.074155,67.924367,118.5],[13.07413,67.924362,118.8],[13.074072,67.924379,119.7],[13.073972,67.924445,122.2],[13.073991,67.924458,122.7],[13.073925,67.924491,124],[13.073892,67.92449,124.5],[13.073876,67.924515,125.3],[13.073889,67.924507,125.6],[13.073812,67.924576,128.5],[13.073783,67.924576,128.8],[13.073759,67.924608,130],[13.073705,67.924639,131.2],[13.073669,67.924694,133.2],[13.073639,67.924702,133.6],[13.073625,67.924726,134.6],[13.073525,67.924787,136.9],[13.073484,67.924795,137.5],[13.073444,67.924815,138.3],[13.073387,67.924816,139],[13.07335,67.924917,142.4],[13.073392,67.924953,143.9],[13.07343,67.924967,144.6],[13.073437,67.924958,144.9],[13.073504,67.924983,146.1],[13.073505,67.924967,146.6],[13.073481,67.924955,147.1],[13.073502,67.924971,147.7],[13.073582,67.924971,149],[13.073547,67.924977,149.5],[13.073543,67.924969,149.9],[13.073581,67.924969,150.3],[13.073532,67.924969,151],[13.073501,67.925014,152.4],[13.073523,67.925024,152.8],[13.073523,67.925002,153.6],[13.073486,67.924993,154.1],[13.073505,67.925007,154.7],[13.073504,67.925001,155],[13.073488,67.925002,155.3],[13.073498,67.925016,155.7],[13.073673,67.92503,157.7],[13.073667,67.925042,158],[13.07375,67.925063,159.3],[13.073746,67.925057,159.4],[13.07381,67.925076,160.3],[13.073818,67.925067,160.6],[13.073804,67.925071,160.8],[13.073829,67.925091,161.5],[13.073797,67.925108,162.1],[13.073814,67.925104,162.4],[13.073801,67.925106,162.5],[13.073872,67.925127,163.6],[13.073924,67.925131,164.2],[13.073969,67.925119,164.8],[13.073995,67.925136,165.4],[13.074144,67.925164,167.4],[13.074138,67.925174,167.7],[13.074181,67.925165,168.3],[13.074175,67.925157,168.5],[13.074196,67.925151,168.8],[13.074222,67.925171,169.5],[13.074235,67.925161,169.8],[13.074268,67.92516,170.2],[13.074284,67.925148,170.6],[13.074316,67.925167,171.3],[13.074336,67.925163,171.6],[13.074342,67.925148,172.1],[13.074299,67.925111,173.3],[13.074376,67.925132,174.5],[13.074406,67.925174,175.9],[13.074439,67.925188,176.4],[13.074439,67.925213,177.2],[13.074471,67.925199,177.8],[13.074483,67.925228,178.8],[13.074584,67.925205,180.4],[13.074605,67.925251,182],[13.074573,67.92519,184.2],[13.074613,67.925215,185.2],[13.074607,67.925193,186],[13.074622,67.925209,186.6],[13.074615,67.925203,187],[13.074641,67.925204,187.4],[13.074663,67.925218,188.1],[13.074671,67.925214,188.3],[13.074656,67.925217,188.5],[13.07468,67.925221,189],[13.074651,67.925225,189.4],[13.074683,67.925206,190.2],[13.074709,67.925214,191],[13.074679,67.925216,191.4],[13.074668,67.92521,191.6],[13.074652,67.925213,191.8],[13.074633,67.925205,192.2],[13.074619,67.925234,193.1],[13.074635,67.925249,193.7],[13.074587,67.925276,194.8],[13.074594,67.925267,195.1],[13.074485,67.925309,196.9],[13.074446,67.925304,197.3],[13.074359,67.925309,198.4],[13.074156,67.925342,200.9],[13.074142,67.925361,201.4],[13.074099,67.925378,202.1],[13.074058,67.925382,202.7],[13.074026,67.925405,203.5],[13.074035,67.925433,204.4],[13.074129,67.925454,205.8],[13.074279,67.925527,208.8],[13.074248,67.925518,209.2],[13.074223,67.925521,209.6],[13.074253,67.925491,210.6],[13.074322,67.92546,212],[13.07432,67.925467,212.3],[13.07433,67.925464,212.5],[13.074289,67.925475,213.2],[13.074358,67.925477,214.1],[13.074364,67.925514,215.4],[13.074398,67.925525,216],[13.074457,67.925506,217],[13.074539,67.925509,218],[13.074576,67.925524,218.8],[13.074601,67.925524,219.1],[13.074618,67.925535,219.6],[13.074712,67.925535,220.8],[13.074747,67.925571,222.1],[13.074746,67.92556,222.5],[13.074694,67.925571,223.3],[13.074665,67.925594,224.2],[13.074643,67.925597,224.7],[13.074685,67.925625,225.9],[13.074842,67.925648,228.3],[13.074867,67.925667,229.2],[13.074899,67.92567,229.7],[13.07489,67.925648,230.6],[13.074898,67.925652,230.8],[13.074881,67.925647,231.2],[13.07491,67.925666,232.3],[13.07494,67.925663,233],[13.074928,67.925646,233.8],[13.074897,67.925662,234.6],[13.074903,67.925657,234.8],[13.074891,67.925659,235.1],[13.074909,67.925651,236.1],[13.074896,67.925654,236.3],[13.074906,67.925645,236.7],[13.074877,67.925652,237.5],[13.074891,67.92565,237.7],[13.074887,67.925656,238],[13.074981,67.925664,239.5],[13.075027,67.925649,240.3],[13.075085,67.925672,241.4],[13.075095,67.925694,242.3],[13.075061,67.925705,242.9],[13.075064,67.925715,243.2],[13.075087,67.92572,243.5],[13.075255,67.925705,245.8],[13.075254,67.925698,246.1],[13.075324,67.925685,247.1],[13.075323,67.925698,247.5],[13.075338,67.925697,247.7],[13.075325,67.925706,248.1],[13.075391,67.925747,249.8],[13.075401,67.925791,251],[13.075398,67.925785,251.2],[13.075464,67.925817,253],[13.07546,67.925744,255.1],[13.075413,67.925734,255.7],[13.075361,67.925705,256.8],[13.075373,67.925697,257.1],[13.075388,67.925732,258.3],[13.075371,67.925739,258.6],[13.075383,67.925753,259.1],[13.075428,67.92576,259.7],[13.075432,67.925777,260.4],[13.075594,67.925836,263.5],[13.075599,67.925855,264.3],[13.075668,67.92586,265.4],[13.075719,67.925877,266.3],[13.075761,67.925881,267],[13.075871,67.925929,269.4],[13.075919,67.925934,270.1],[13.075917,67.925928,270.4],[13.076062,67.925925,272.5],[13.076094,67.925941,273.2],[13.076128,67.925943,273.9],[13.076157,67.925965,274.9],[13.07617,67.925961,275.1],[13.076252,67.925971,276.5],[13.076263,67.925958,277.1],[13.07629,67.925975,278],[13.076305,67.925971,278.2],[13.076311,67.925988,278.9],[13.076212,67.926014,281],[13.076206,67.926022,281.3],[13.076155,67.926031,282.2],[13.076108,67.926057,283.4],[13.076072,67.926106,285.6],[13.076104,67.92612,286.3],[13.076211,67.926141,288.3],[13.0762,67.926152,288.8],[13.076138,67.926158,290],[13.076277,67.926179,292.3],[13.076287,67.926195,293.1],[13.076334,67.926201,293.8],[13.076356,67.926196,294.2],[13.076398,67.92623,296.1],[13.076386,67.92623,296.3],[13.076434,67.926257,298],[13.076442,67.926287,299.4],[13.076465,67.926296,299.9],[13.076448,67.926276,300.9],[13.076461,67.926273,301.2],[13.076568,67.92634,304.6],[13.076446,67.926353,306.5],[13.076445,67.92636,306.8],[13.076413,67.926359,307.3],[13.076412,67.926367,307.6],[13.076382,67.926369,308],[13.076416,67.92638,308.7],[13.076498,67.926437,311.1],[13.076496,67.926454,311.9],[13.076524,67.926452,312.3],[13.076518,67.926445,312.5],[13.076331,67.926447,315.3],[13.076158,67.926528,319.8],[13.076127,67.926526,320.4],[13.076114,67.926539,321],[13.076136,67.926541,321.3],[13.076085,67.926549,322.3],[13.075929,67.926542,325],[13.075917,67.926535,325.4],[13.075864,67.926542,326.4],[13.075827,67.926567,327.7],[13.075796,67.926619,330.2],[13.075781,67.926608,330.8],[13.075763,67.926617,331.4],[13.075741,67.9266,332.3],[13.075809,67.926656,335.3],[13.075748,67.926674,336.7],[13.075737,67.926666,337.1],[13.075702,67.926671,337.8],[13.075701,67.926694,338.8],[13.075664,67.926676,339.8],[13.075588,67.926695,341.4],[13.07554,67.926695,342.2],[13.075622,67.926728,344],[13.075699,67.926709,345.7],[13.075664,67.926709,346.3],[13.075556,67.926776,349],[13.075579,67.926783,349.4],[13.075588,67.926804,350.1],[13.075574,67.926799,350.4],[13.075627,67.926812,351.3],[13.075572,67.926853,352.9],[13.075669,67.92691,355.7],[13.075607,67.926939,357.2],[13.075509,67.926905,359.1],[13.07549,67.926911,359.5],[13.07543,67.926905,360.4],[13.07541,67.926894,361],[13.075267,67.926916,363.4],[13.075263,67.92691,363.7],[13.075321,67.926943,365.7],[13.075378,67.927,368.4],[13.075418,67.927011,369.3],[13.075426,67.927006,369.6],[13.075457,67.927031,370.8],[13.075451,67.927049,371.6],[13.075486,67.927071,373],[13.075495,67.927049,374],[13.0755,67.927064,374.7],[13.075481,67.927061,375.2],[13.075499,67.927065,375.7],[13.075483,67.927071,376.1],[13.075498,67.927064,376.5],[13.075538,67.927067,377.5],[13.075456,67.927103,379.9],[13.075474,67.927127,381.1],[13.075464,67.927142,381.7],[13.075419,67.927141,382.5],[13.075423,67.927148,382.8],[13.0753,67.927155,384.9],[13.075221,67.92717,386.6],[13.075231,67.927173,386.8],[13.07503,67.927202,390.4],[13.074998,67.927198,390.9],[13.074878,67.927227,394.1],[13.074877,67.927218,394.4],[13.074766,67.927231,396.3],[13.074767,67.927247,397.2],[13.074725,67.927249,397.9],[13.074712,67.92729,399.6],[13.074709,67.927284,399.9],[13.074624,67.927308,401.4],[13.074601,67.927307,401.8],[13.074598,67.927314,402.1],[13.074558,67.92732,402.7],[13.074549,67.927329,403.1],[13.074518,67.927328,403.6],[13.074515,67.927343,404.2],[13.074592,67.927404,407.1],[13.074593,67.927432,408.3],[13.074613,67.927447,409.1],[13.074604,67.927444,409.2],[13.074631,67.927477,410.8],[13.074652,67.927482,411.2],[13.074651,67.927494,411.7],[13.074623,67.927494,412.1],[13.07462,67.927502,412.5],[13.074574,67.927503,413.3],[13.07455,67.927511,413.8],[13.074499,67.927513,414.6],[13.074376,67.92754,417.1],[13.074396,67.927542,417.5],[13.074349,67.927591,419.8],[13.074466,67.927641,422.7],[13.074512,67.927678,425],[13.074522,67.927715,426.6],[13.074584,67.927746,428],[13.074603,67.927784,429.2],[13.074731,67.927771,430.8],[13.074638,67.927788,432],[13.074652,67.927791,432.3],[13.074647,67.927786,432.5],[13.074657,67.927789,432.7],[13.074642,67.92778,433],[13.074592,67.927786,433.7],[13.074565,67.927782,434],[13.074508,67.92779,434.7],[13.074497,67.927785,434.9],[13.074202,67.927778,438.3],[13.074058,67.927816,440.3],[13.074017,67.927812,440.8],[13.073722,67.927826,444.2],[13.073643,67.927845,445.4],[13.073592,67.927843,446.1],[13.073579,67.92785,446.4],[13.073454,67.92785,448.1],[13.073394,67.927858,449],[13.073424,67.927905,450.7],[13.073427,67.927898,450.8],[13.07327,67.92788,451.6],[13.073183,67.927854,452.2],[13.073124,67.927882,452.7],[13.073118,67.927897,452.9],[13.073159,67.927922,453.2],[13.073106,67.927877,453.9],[13.072866,67.927874,455],[13.072691,67.927849,455.9],[13.07266,67.927852,456],[13.072649,67.927866,456.2],[13.072489,67.927847,456.9],[13.072469,67.927852,457.1],[13.072438,67.927847,457.2],[13.072392,67.927855,457.4],[13.072326,67.927838,457.8],[13.072304,67.92784,457.9],[13.072251,67.927824,458.2],[13.072236,67.927829,458.3],[13.072067,67.927788,459.4],[13.072032,67.927798,459.6],[13.07203,67.927807,459.7],[13.071973,67.927792,460.1],[13.071839,67.927815,460.8],[13.071847,67.927819,460.9],[13.071791,67.92781,461.2],[13.071632,67.927821,462.1],[13.071584,67.927813,462.4],[13.071534,67.927827,462.7],[13.071413,67.927815,463.3],[13.071432,67.927809,463.4],[13.071394,67.927808,463.7],[13.071396,67.927813,463.8],[13.071404,67.927806,464.1],[13.071393,67.927817,464.2],[13.071418,67.927818,464.4],[13.071439,67.927858,465],[13.071426,67.927852,465.2],[13.071432,67.927859,465.3],[13.071421,67.92785,465.5],[13.071436,67.927856,465.9],[13.071411,67.927826,466.3],[13.071403,67.927831,466.4],[13.071418,67.927833,466.5],[13.071421,67.927825,466.7],[13.07141,67.927828,466.9],[13.07143,67.927824,467.1],[13.071401,67.927824,467.4],[13.071411,67.927829,467.5],[13.071382,67.9278,468.2],[13.071401,67.927811,468.4],[13.071432,67.927806,468.6],[13.071389,67.927809,468.9],[13.071426,67.927814,469.2],[13.071386,67.92781,469.7],[13.071395,67.927813,469.7],[13.071371,67.927817,469.8],[13.071387,67.927812,470],[13.071394,67.927823,470.1],[13.071381,67.927811,470.6],[13.071404,67.927815,470.7],[13.071414,67.927809,470.9],[13.071415,67.927816,471],[13.071418,67.92781,471.1],[13.071418,67.927816,471.2],[13.071419,67.927811,471.3],[13.071404,67.927815,471.4],[13.071423,67.927819,471.6],[13.071383,67.927813,472.1],[13.071387,67.927818,472.2],[13.071399,67.927814,472.3],[13.071399,67.927828,472.5],[13.071456,67.927823,472.9],[13.07144,67.927816,473],[13.071392,67.927819,473.4],[13.071409,67.927815,473.8],[13.071392,67.927826,474],[13.071418,67.927823,474.3],[13.071392,67.927826,474.4],[13.071406,67.927819,474.5],[13.071389,67.927824,474.7],[13.071386,67.927819,474.8],[13.071366,67.927824,474.9],[13.071379,67.927823,475],[13.071367,67.927826,475.1],[13.071395,67.927822,475.3],[13.071361,67.927828,475.8],[13.071374,67.927837,475.9],[13.071369,67.927832,476.1],[13.07138,67.927835,476.2],[13.071377,67.927816,476.7],[13.071365,67.927822,476.9],[13.071387,67.927828,477],[13.071365,67.927837,477.2],[13.071382,67.927836,477.3],[13.071365,67.927841,477.4],[13.071393,67.92783,477.6],[13.071362,67.927821,478.1],[13.071378,67.927827,478.2],[13.071399,67.927809,478.4],[13.071434,67.92781,478.5],[13.071397,67.927787,478.1],[13.071432,67.927801,477.7],[13.071416,67.927823,477.4],[13.071429,67.927824,477.3],[13.071408,67.927814,477.1],[13.071419,67.927817,477],[13.071388,67.927825,476.8],[13.071373,67.927818,476.7],[13.071465,67.927872,475.8],[13.071509,67.927883,475.5],[13.071708,67.927873,474.5],[13.071686,67.927905,474],[13.071734,67.927814,472.7],[13.071728,67.927821,472.6],[13.071761,67.927768,471.9],[13.071646,67.927813,471],[13.07149,67.927795,470.2],[13.0715,67.927799,470.1],[13.071477,67.927795,470],[13.071458,67.927805,469.8],[13.071387,67.927793,469.4],[13.071385,67.927818,469],[13.071436,67.927837,468.6],[13.071479,67.927828,468.3],[13.071597,67.927856,467.6],[13.071795,67.92786,466.5],[13.071854,67.927868,466.2],[13.071856,67.927882,466],[13.071839,67.927877,465.9],[13.071802,67.927897,465.6],[13.071813,67.927884,465.4],[13.071848,67.927893,465.2],[13.071827,67.927905,465],[13.071774,67.92791,464.7],[13.071749,67.927887,464.4],[13.071695,67.927883,464.1],[13.071961,67.92792,462.5],[13.071968,67.927912,462.4],[13.071943,67.927915,462.1],[13.071966,67.92793,461.8],[13.071986,67.9279,461.3],[13.071995,67.927906,461.2],[13.072101,67.927908,460.5],[13.07217,67.927881,460],[13.072116,67.927871,459.7],[13.072063,67.927833,459.1],[13.07208,67.927826,459],[13.072057,67.927805,458.7],[13.072167,67.927828,458],[13.072187,67.927839,457.9],[13.072201,67.927836,457.8],[13.072229,67.927852,457.6],[13.072372,67.927891,456.8],[13.072429,67.927895,456.5],[13.07242,67.927887,456.4],[13.072551,67.927848,456.3],[13.07274,67.927877,455.6],[13.072806,67.927868,455.3],[13.072801,67.92786,455.2],[13.072852,67.927858,455.1],[13.072865,67.927865,454.9],[13.072995,67.927858,454.2],[13.073164,67.927902,452.9],[13.073277,67.927909,452.1],[13.073414,67.927928,450.9],[13.073451,67.927916,450.4],[13.073438,67.927916,450.2],[13.073467,67.927885,448.9],[13.073769,67.927852,444.2],[13.073803,67.927859,443.7],[13.073815,67.927851,443.3],[13.073873,67.927863,442.4],[13.074013,67.927834,440.4],[13.074049,67.927833,440],[13.074049,67.927839,439.8],[13.074189,67.927813,437.8],[13.074208,67.927825,437.4],[13.074304,67.927794,435.3],[13.074407,67.927795,434.1],[13.074484,67.927806,433.1],[13.074562,67.927794,432.2],[13.074635,67.927765,430.8],[13.074586,67.92777,430],[13.074639,67.927744,429],[13.074561,67.927695,427],[13.074556,67.9277,426.7],[13.074558,67.927695,426.5],[13.074547,67.9277,426.1],[13.074566,67.927688,425.4],[13.074509,67.927681,424.3],[13.074496,67.927642,422.3],[13.074467,67.927636,421.7],[13.074474,67.927622,420.9],[13.074447,67.927609,420.1],[13.074465,67.927568,418.1],[13.074494,67.92755,416.6],[13.074468,67.927545,416.1],[13.074539,67.927521,414.3],[13.07459,67.927521,413.4],[13.074592,67.927528,413.1],[13.074662,67.927516,411.6],[13.074674,67.927473,409.7],[13.074529,67.927382,404.9],[13.074542,67.927387,404.6],[13.074523,67.927351,402.9],[13.074637,67.927311,400.3],[13.074722,67.927325,398.6],[13.074763,67.927288,396.7],[13.07477,67.92724,394.3],[13.074839,67.927259,392.8],[13.07484,67.927273,392.1],[13.074895,67.927265,391],[13.074955,67.927224,388.5],[13.075046,67.927235,386.7],[13.075106,67.927221,385.4],[13.075121,67.927234,384.8],[13.075153,67.92724,384.1],[13.075166,67.927229,383.5],[13.075188,67.92723,383.1],[13.075206,67.927243,382.4],[13.075265,67.927218,380.6],[13.075354,67.927214,379],[13.075352,67.927233,378.1],[13.075452,67.927209,375.8],[13.075472,67.927185,374.5],[13.075525,67.927186,373.4],[13.075446,67.927114,369.4],[13.07548,67.927109,368.7],[13.075489,67.927099,368.2],[13.075523,67.927099,367.6],[13.075512,67.92707,366.1],[13.075491,67.927061,365.5],[13.075467,67.927017,363.4],[13.075448,67.927013,363],[13.075442,67.926988,361.7],[13.075423,67.926987,361.4],[13.075322,67.926925,358.1],[13.075343,67.926909,357.3],[13.075438,67.926881,355.3],[13.075538,67.926942,352.2],[13.075603,67.926962,350.9],[13.075685,67.92696,349.7],[13.07568,67.926971,349.3],[13.075723,67.92695,348.1],[13.075662,67.926879,345.1],[13.075676,67.926873,344.8],[13.075645,67.926795,341.3],[13.075625,67.926804,340.8],[13.075639,67.926796,340.3],[13.075616,67.9268,339.8],[13.075693,67.92676,337.4],[13.075649,67.926748,336.2],[13.075622,67.926722,334.7],[13.075619,67.926727,334.4],[13.075608,67.926695,332.6],[13.075631,67.926709,331.7],[13.07572,67.926705,330],[13.075746,67.926681,328.6],[13.075784,67.926668,327.6],[13.075801,67.926625,325.3],[13.07579,67.926631,324.9],[13.075814,67.926576,322.2],[13.075904,67.926536,319.5],[13.075952,67.926531,318.7],[13.075994,67.926541,317.8],[13.076105,67.926527,315.9],[13.076217,67.926498,313.6],[13.076452,67.926472,309.6],[13.076423,67.926472,309.1],[13.076451,67.926493,308.1],[13.076489,67.926478,307.2],[13.076493,67.926466,306.7],[13.07646,67.92644,305.4],[13.076473,67.92644,305.2],[13.076465,67.926414,304],[13.076448,67.926415,303.7],[13.076443,67.926398,303],[13.07639,67.92639,302],[13.076384,67.926383,301.7],[13.076401,67.926382,301.4],[13.076407,67.926371,300.9],[13.076457,67.926367,300],[13.076507,67.926385,298.7],[13.076538,67.926381,298.1],[13.076598,67.926336,295.8],[13.076571,67.92631,294.5],[13.076537,67.926305,293.8],[13.076503,67.926288,292.9],[13.076514,67.926276,292.2],[13.076491,67.926253,291],[13.0764,67.926239,289.2],[13.076413,67.926238,289],[13.076408,67.926244,288.6],[13.076411,67.926239,288.4],[13.076403,67.926245,287.9],[13.076426,67.926236,287.4],[13.076402,67.926244,286.8],[13.076364,67.926208,285],[13.076286,67.926204,283.6],[13.076269,67.926156,281.4],[13.076215,67.926135,280.1],[13.07625,67.926124,279.3],[13.076229,67.926127,278.7],[13.076215,67.926166,276.9],[13.076225,67.926148,275.9],[13.076197,67.926154,275.3],[13.076237,67.926144,273.9],[13.076243,67.926152,273.5],[13.076234,67.926148,273.2],[13.076248,67.926155,272.6],[13.076266,67.926149,272],[13.076232,67.926153,271.3],[13.076257,67.926155,270.6],[13.076263,67.926163,270.1],[13.076247,67.926164,269.8],[13.076268,67.926162,269.5],[13.07625,67.926145,268.7],[13.076186,67.926126,267.3],[13.076149,67.926128,266.6],[13.076163,67.926075,264.3],[13.076151,67.926095,263.4],[13.076217,67.926073,261.9],[13.076253,67.926031,260.1],[13.076313,67.926013,258.9],[13.076294,67.926013,258.6],[13.076356,67.925991,257.2],[13.076311,67.925981,256.4],[13.076265,67.925984,255.8],[13.07617,67.925951,254.2],[13.076097,67.925948,253.3],[13.076019,67.925926,252],[13.075956,67.925924,251.2],[13.075915,67.925905,250.4],[13.075887,67.925904,250],[13.075864,67.925886,249.4],[13.075777,67.925866,248.1],[13.075764,67.925855,247.7],[13.075693,67.925839,246.7],[13.075585,67.925788,244.2],[13.075508,67.925738,241.9],[13.075474,67.925735,241.3],[13.075441,67.925721,240.6],[13.075349,67.925711,239.1],[13.075285,67.925672,237],[13.075162,67.9257,234.6],[13.075109,67.925701,233.6],[13.075054,67.925683,232.1],[13.075086,67.925662,231.1],[13.075029,67.92565,230],[13.074973,67.925673,228.7],[13.074914,67.925674,227.7],[13.074895,67.925668,227.2],[13.074937,67.925649,226.2],[13.074921,67.92564,225.8],[13.074775,67.925612,223.3],[13.074696,67.925621,222],[13.074664,67.925599,221],[13.07475,67.925566,219.1],[13.074747,67.925526,217.6],[13.074715,67.925527,217.1],[13.074713,67.925533,216.9],[13.074566,67.925512,214.3],[13.07447,67.925531,212.7],[13.074354,67.92553,211.1],[13.074259,67.92552,209.7],[13.074256,67.925471,207.8],[13.07422,67.925437,206.4],[13.074112,67.925419,204.8],[13.074015,67.925416,203.5],[13.074141,67.925413,201.6],[13.074252,67.925363,199.5],[13.074258,67.925371,199.2],[13.074335,67.925383,198.2],[13.074484,67.925361,196.2],[13.074538,67.925333,195],[13.074593,67.925332,194.2],[13.074651,67.925315,193.3],[13.074661,67.925296,192.6],[13.074651,67.925299,192.4],[13.074515,67.925251,190],[13.074502,67.925224,189],[13.074392,67.925199,187.2],[13.0743,67.925193,185.9],[13.074253,67.925181,185.1],[13.074238,67.925165,184.4],[13.074198,67.925164,183.8],[13.073985,67.925105,180],[13.073961,67.925105,179.7],[13.073939,67.925092,179.1],[13.073903,67.925089,178.6],[13.073887,67.925097,178.2],[13.073912,67.925098,177.9],[13.073935,67.925116,177.1],[13.073968,67.925122,176.6],[13.073968,67.925134,176.2],[13.074059,67.925159,174.7],[13.074072,67.925154,174.4],[13.074095,67.925159,174.1],[13.073976,67.925105,171.6],[13.073873,67.925071,169.8],[13.073787,67.925062,168.6],[13.073778,67.925055,168.3],[13.073724,67.92505,167.6],[13.073696,67.925037,167.1],[13.073629,67.925045,166.1],[13.073636,67.925066,165.3],[13.073582,67.925057,164.4],[13.073554,67.925032,163.5],[13.073496,67.92502,162.7],[13.073408,67.924966,160.6],[13.07342,67.924947,159.9],[13.073401,67.924916,158.8],[13.073546,67.924807,154.8],[13.073674,67.924768,152.6],[13.073736,67.924764,151.8],[13.073854,67.924729,149.3],[13.073844,67.924721,149],[13.07375,67.924717,147.7],[13.073778,67.924673,146],[13.073769,67.924636,144.7],[13.073903,67.924574,141.7],[13.073987,67.924517,139.1],[13.07406,67.924439,136],[13.074095,67.92442,135.2],[13.074089,67.92441,134.8],[13.074134,67.9244,134],[13.074186,67.924371,132.7],[13.074206,67.924384,132],[13.074245,67.924384,131.4],[13.074268,67.924375,130.9],[13.074248,67.92433,129.3],[13.074224,67.924329,128.8],[13.074218,67.924335,128.5],[13.074166,67.924324,127.7],[13.074167,67.924347,126.8],[13.074272,67.924364,124.9],[13.074243,67.924355,124.1],[13.074347,67.924345,122.5],[13.074452,67.924304,120.3],[13.07445,67.924241,118],[13.074513,67.92421,116.6],[13.074625,67.924188,114.8],[13.074733,67.924186,113.3],[13.074731,67.924193,113],[13.074729,67.924176,112.3],[13.074853,67.924119,109.9],[13.074955,67.92411,108.6],[13.075067,67.924058,106.5],[13.075011,67.924064,105.8],[13.075125,67.924017,104],[13.075313,67.923963,101.7],[13.075311,67.923949,101.3],[13.075369,67.923897,100],[13.075553,67.923855,98.3],[13.075578,67.923842,98],[13.075615,67.92384,97.7],[13.075641,67.923827,97.4],[13.075691,67.923819,97],[13.075849,67.92375,95.3],[13.075854,67.923713,94.6],[13.075961,67.923668,93.5],[13.075956,67.923627,92.8],[13.076052,67.9236,92],[13.075974,67.923571,91.3],[13.075961,67.923581,91.1],[13.075982,67.923576,90.9],[13.075915,67.923442,88.7],[13.075976,67.923414,88.2],[13.075974,67.923403,88],[13.076065,67.92335,87],[13.076057,67.923345,86.9],[13.076143,67.923306,86],[13.076116,67.923248,85.1],[13.076008,67.923219,84.3],[13.075979,67.92318,83.8],[13.076006,67.923128,83.1],[13.076191,67.923029,81.4],[13.076211,67.922996,80.8],[13.076187,67.922948,79.9],[13.076135,67.922917,79.1],[13.076117,67.922844,77.6],[13.076134,67.922786,76.6],[13.076174,67.92276,76],[13.076168,67.922764,76],[13.076088,67.922703,74.9],[13.076057,67.92271,74.6],[13.076084,67.922689,73.8],[13.07607,67.922701,73.4],[13.076069,67.922696,73.3],[13.076043,67.922705,72.9],[13.076073,67.922717,72.5],[13.076063,67.922722,72.4],[13.076113,67.92276,71.3],[13.076162,67.922759,70.8],[13.076296,67.922716,68.8],[13.076333,67.922672,67.3],[13.076283,67.922641,67.2],[13.076217,67.922631,67.1],[13.076184,67.922618,67],[13.076261,67.922569,65.5],[13.076259,67.922554,65],[13.076339,67.92252,63.7],[13.076371,67.92252,63.3],[13.076499,67.922438,60.1],[13.076478,67.922386,58.4],[13.076636,67.922291,54.6],[13.076654,67.922222,52],[13.076643,67.922238,51.4],[13.076819,67.922257,48.6],[13.076867,67.922256,47.8],[13.076895,67.922264,47.3],[13.077005,67.922266,45.5],[13.077102,67.922288,43.6],[13.077183,67.922319,41.8],[13.077286,67.922331,40],[13.077383,67.922333,38.5],[13.077399,67.922346,38],[13.07747,67.922357,36.8],[13.077455,67.922367,36.4],[13.077452,67.922361,36],[13.077539,67.922345,34.5],[13.077584,67.92237,33.3],[13.077621,67.92237,32.7],[13.077702,67.92239,31.4],[13.077798,67.922394,30],[13.07785,67.922388,29.3],[13.077919,67.922392,28.3],[13.077995,67.922364,26.8],[13.078048,67.922384,26],[13.078116,67.922391,25.2],[13.078198,67.922369,24.2],[13.078374,67.922361,22.3],[13.078377,67.922366,22.1],[13.07834,67.922369,21.7],[13.078309,67.92236,21.2],[13.078346,67.922365,20.8],[13.078345,67.922372,20.5],[13.078332,67.922345,19.5],[13.078345,67.922334,19.1],[13.078414,67.92235,18],[13.078438,67.922347,17.7],[13.078404,67.922384,17.4],[13.078426,67.922424,17.2],[13.07842,67.922454,17.1],[13.078521,67.922609,16.4],[13.078618,67.922675,16],[13.078687,67.922788,15.5],[13.078733,67.922833,15.2],[13.078764,67.922839,15.2],[13.078806,67.9229,14.9],[13.078881,67.922951,14.6],[13.078958,67.922981,14.4],[13.079157,67.923091,13.8],[13.079388,67.923196,13.2],[13.079532,67.923238,12.9],[13.079616,67.923285,12.7],[13.079653,67.923321,12.5],[13.079766,67.923362,12.2],[13.079799,67.923385,12.1],[13.079877,67.923412,11.9],[13.079996,67.923438,11.7],[13.080244,67.923565,10.9],[13.080274,67.923564,10.8],[13.08027,67.923571,10.8],[13.080422,67.923652,10.3],[13.08071,67.923765,9.8],[13.08072,67.923778,9.7],[13.080848,67.923817,9.6],[13.08087,67.923839,9.5],[13.080916,67.923849,9.5],[13.080969,67.923881,9.4],[13.081085,67.923923,9.4],[13.081106,67.923923,9.4],[13.081154,67.923973,9.4],[13.081195,67.923995,9.4],[13.081214,67.924026,9.4],[13.081267,67.92403,9.4],[13.081336,67.924066,9.4],[13.08143,67.924091,9.4],[13.081445,67.924112,9.4],[13.081544,67.924141,9.4],[13.081735,67.924246,9.5],[13.081794,67.924268,9.5],[13.081881,67.924342,9.5],[13.082057,67.92446,9.7],[13.08221,67.924632,9.8],[13.082277,67.924783,9.9],[13.082261,67.92481,9.9],[13.082297,67.924949,10],[13.082357,67.925021,10.2],[13.082334,67.925019,10.2],[13.082371,67.925101,10.4],[13.082431,67.925155,10.6],[13.082402,67.925182,10.7],[13.082474,67.925261,10.9],[13.082547,67.925305,11.1],[13.082572,67.925309,11.1],[13.082712,67.925401,11.4],[13.082705,67.925396,11.4],[13.08272,67.925431,11.5],[13.08278,67.925469,11.6],[13.082808,67.925504,11.7],[13.082886,67.925541,11.9],[13.083015,67.925666,12.3],[13.083024,67.925701,12.4],[13.083047,67.925715,12.4],[13.083061,67.925753,12.6],[13.083029,67.925781,12.7],[13.083033,67.925802,12.8],[13.083106,67.925879,13.1],[13.083058,67.926009,13.6],[13.08309,67.926055,13.7],[13.083129,67.926187,14.2],[13.083112,67.926217,14.3],[13.083146,67.926295,14.6],[13.083129,67.926326,14.7],[13.083174,67.926433,15.1],[13.083166,67.926477,15.3],[13.083252,67.926654,16.1],[13.083274,67.926748,16.6],[13.083368,67.926939,17.8],[13.083363,67.926981,18.1],[13.083444,67.927207,19.5],[13.083507,67.927504,21.3],[13.083488,67.92753,21.5],[13.083539,67.927622,21.9],[13.083562,67.927749,22.4],[13.083548,67.92777,22.4],[13.083553,67.927848,22.7],[13.08353,67.927918,22.8],[13.083545,67.927985,22.9],[13.083575,67.928018,23],[13.083602,67.928025,23],[13.08361,67.928018,23],[13.083748,67.928123,23.1],[13.083878,67.928174,23.2],[13.083994,67.928191,23.3],[13.084424,67.928217,23.4],[13.084503,67.928214,23.4],[13.084485,67.928214,23.4],[13.084495,67.92822,23.4],[13.084471,67.928254,23.4],[13.084484,67.928268,23.4],[13.084459,67.9283,23.3],[13.084542,67.92836,23.2],[13.084889,67.928334,23],[13.085019,67.928336,22.9],[13.085105,67.928328,22.8],[13.085366,67.928341,22.6],[13.085933,67.928396,22],[13.086023,67.928414,21.9],[13.086093,67.928416,21.8],[13.086193,67.928432,21.7],[13.086363,67.928443,21.5],[13.086682,67.928479,21.1],[13.087026,67.928545,20.8],[13.087126,67.92858,20.8],[13.087402,67.928652,20.7],[13.087453,67.928676,20.7],[13.087498,67.928684,20.7],[13.087647,67.928738,20.7],[13.087874,67.928907,20.7],[13.087974,67.928952,20.6],[13.087984,67.928977,20.6],[13.088039,67.928992,20.5],[13.08805,67.929014,20.5],[13.088178,67.929058,20.3],[13.088434,67.929205,19.1],[13.088561,67.929253,18.7],[13.088598,67.929301,18.4],[13.088749,67.929371,17.7],[13.088868,67.929446,16.8],[13.088874,67.929462,16.7],[13.089076,67.929589,15.3],[13.089205,67.929711,14.5],[13.089195,67.929731,14.4],[13.089227,67.929845,13.8],[13.089312,67.929884,13.5],[13.089427,67.929968,12.9],[13.089414,67.93,12.6],[13.089431,67.930036,12.3],[13.089389,67.930082,11.9],[13.089261,67.930388,9.3],[13.089218,67.930435,9],[13.089206,67.930479,8.7],[13.089164,67.93052,8.4],[13.089156,67.9306,8],[13.089029,67.930855,7.2],[13.088959,67.930932,7],[13.08891,67.931048,7],[13.088859,67.931114,7.1],[13.088871,67.931136,7.2],[13.088854,67.931191,7.3],[13.08881,67.93123,7.3],[13.088721,67.931583,8.2],[13.088635,67.931698,8.5],[13.088534,67.931772,8.8],[13.088491,67.931858,9.1],[13.088506,67.931962,9.5],[13.088488,67.932061,9.9],[13.088436,67.932101,10.1],[13.088355,67.932125,10.2],[13.088238,67.932144,10.2],[13.088237,67.932155,10.2],[13.088201,67.93217,10.2],[13.0882,67.932201,10.2],[13.088167,67.932226,10.2],[13.088173,67.93225,10.2],[13.088115,67.932285,10.2],[13.08806,67.932296,10.2],[13.08798,67.932289,10.2],[13.088048,67.932315,10.2],[13.08804,67.932324,10.2],[13.088091,67.932307,10.2],[13.088034,67.932304,10.2],[13.087997,67.932318,10.2],[13.087989,67.932308,10.2],[13.087963,67.932315,10.2],[13.08799,67.932308,10.2],[13.088006,67.932314,10.2],[13.087994,67.932312,10.3],[13.088022,67.932316,10.3],[13.088008,67.932327,10.3],[13.088008,67.93232,10.3],[13.088061,67.932327,10.3],[13.088051,67.932335,10.3],[13.087979,67.93226,10.3],[13.087949,67.932281,10.3],[13.087919,67.932278,10.3],[13.087967,67.932291,10.3],[13.087959,67.932305,10.3],[13.087965,67.932292,10.3],[13.08799,67.932295,10.3],[13.087974,67.932302,10.3],[13.087944,67.932299,10.3],[13.087969,67.932296,10.3],[13.087953,67.932294,10.3],[13.087961,67.932316,10.3],[13.088028,67.932317,10.3],[13.08792,67.932405,10.3],[13.087943,67.932407,10.3],[13.087938,67.932416,10.3],[13.08782,67.932376,10.3],[13.087718,67.93231,10.3],[13.087615,67.932277,10.4],[13.087548,67.932269,10.4],[13.087519,67.932275,10.4],[13.087465,67.932254,10.4],[13.087483,67.932248,10.4],[13.087464,67.932244,10.4],[13.087473,67.932248,10.4],[13.08745,67.932237,10.4],[13.087471,67.932239,10.4],[13.087422,67.932272,10.4],[13.087486,67.932246,10.4],[13.087462,67.932241,10.4],[13.087506,67.932249,10.4],[13.087445,67.932217,10.4],[13.087482,67.932239,10.4],[13.087312,67.932246,10.4],[13.087281,67.932261,10.4],[13.087744,67.932177,10.4],[13.08791,67.932271,10.5],[13.087959,67.932243,10.5],[13.087859,67.93223,10.5],[13.087765,67.932204,10.5],[13.087778,67.93221,10.5],[13.08774,67.932291,10.5],[13.087766,67.932297,10.5],[13.08767,67.932267,10.5],[13.087705,67.932257,10.5],[13.08767,67.932245,10.5],[13.087719,67.932229,10.5],[13.087667,67.93218,10.5],[13.08768,67.932194,10.5],[13.087634,67.932198,10.5],[13.087582,67.93218,10.5],[13.087577,67.932191,10.5],[13.087614,67.932196,10.5],[13.087617,67.932214,10.5],[13.087558,67.932168,10.5],[13.087542,67.93213,10.5],[13.087536,67.93227,10.5],[13.087512,67.932251,10.5],[13.087463,67.932267,10.5],[13.087447,67.932291,10.5],[13.087477,67.932337,10.5],[13.087551,67.932321,10.5],[13.087741,67.932159,10.6],[13.087701,67.932121,10.6],[13.087552,67.932215,10.6],[13.087676,67.932151,10.6],[13.087687,67.932158,10.6],[13.087648,67.932175,10.6],[13.087682,67.932174,10.6],[13.087636,67.932208,10.6],[13.087679,67.932213,10.6],[13.087637,67.932224,10.6],[13.087606,67.932256,10.6],[13.087593,67.932316,10.6],[13.087606,67.932329,10.6],[13.087676,67.932351,10.6],[13.087685,67.932346,10.6],[13.08782,67.93241,10.6],[13.087871,67.932422,10.6],[13.088053,67.932424,10.7],[13.088076,67.932414,10.7],[13.088021,67.932407,10.7],[13.088044,67.932403,10.7],[13.088022,67.932391,10.7],[13.088066,67.932407,10.7],[13.088107,67.932402,10.7],[13.088124,67.932409,10.7],[13.088202,67.932407,10.8],[13.088354,67.932419,10.8],[13.088554,67.932485,10.9],[13.088637,67.932497,10.9],[13.088762,67.932496,11.3],[13.088812,67.932486,11.5],[13.08891,67.932482,11.7],[13.089125,67.932565,12.3],[13.08915,67.932605,12.4],[13.089183,67.932614,12.4],[13.089197,67.932632,12.5],[13.089259,67.932651,12.5],[13.089301,67.932678,12.5],[13.089449,67.932712,12.5],[13.089594,67.93276,12.1],[13.089699,67.932854,11.8],[13.089693,67.932865,11.8],[13.089762,67.932935,11.5],[13.089783,67.933013,10.9],[13.089769,67.933035,10.7],[13.089784,67.933106,10],[13.089766,67.933117,9.8],[13.089807,67.933182,9.3],[13.089798,67.933244,9.1],[13.089813,67.933295,8.8],[13.089787,67.933409,8.3],[13.089809,67.933434,8.2],[13.089796,67.933518,8],[13.089775,67.933546,7.9],[13.089773,67.933591,7.9],[13.089817,67.933628,7.9],[13.089816,67.93368,7.9],[13.089786,67.933697,7.9],[13.0898,67.933826,7.9],[13.089763,67.933922,7.9],[13.089696,67.933986,7.7],[13.089744,67.93411,7.1],[13.089743,67.934272,6],[13.089717,67.934296,5.9],[13.089645,67.934525,4.4],[13.089616,67.934549,4.3],[13.089607,67.934583,4.1],[13.08952,67.934656,3.7],[13.089469,67.93472,3.5],[13.089503,67.934764,4.3],[13.089587,67.934803,5.7],[13.089617,67.934837,5.6],[13.089609,67.934858,5.6],[13.089567,67.934861,5.5],[13.089557,67.934856,5.5],[13.089542,67.934864,5.5],[13.089557,67.934867,5.4],[13.089491,67.934858,5.4],[13.089465,67.934862,5.4],[13.089426,67.934886,5.3],[13.08939,67.935025,5.1],[13.089401,67.935018,5.1],[13.089404,67.935025,5.1],[13.089469,67.935023,5.1],[13.089462,67.935062,5.1],[13.089387,67.935083,5],[13.089369,67.935098,5],[13.089322,67.93511,5],[13.08932,67.935123,5],[13.089367,67.935141,5],[13.089378,67.935136,5],[13.089343,67.93512,5],[13.089372,67.935131,5],[13.089368,67.935123,5],[13.089412,67.935109,5],[13.089423,67.935153,5],[13.089372,67.935177,5],[13.089301,67.935153,5],[13.089322,67.935134,5],[13.08929,67.935119,5],[13.089253,67.935115,5],[13.089257,67.935123,5],[13.089223,67.935123,5],[13.089069,67.935153,4.9],[13.089062,67.935069,4.9],[13.089257,67.935046,4.9],[13.089399,67.935098,4.9],[13.089415,67.935124,4.9],[13.089387,67.935111,4.9],[13.089382,67.935116,4.9],[13.089394,67.935113,4.9],[13.089177,67.935139,4.9],[13.08905,67.935171,4.9],[13.088896,67.935227,5.1],[13.088756,67.935378,5.5],[13.088758,67.9354,5.5],[13.088652,67.935458,5.5],[13.088673,67.935458,5.5],[13.08869,67.935546,5.2],[13.088758,67.935577,5],[13.088895,67.935599,4.9],[13.08911,67.935658,4.6],[13.089149,67.935658,4.6],[13.089237,67.935677,4.5],[13.089288,67.935736,4.4],[13.089186,67.935763,4.3],[13.089078,67.935768,4.2],[13.08901,67.935788,4.2],[13.088829,67.935801,4],[13.088644,67.935884,3.9],[13.088597,67.935861,3.8],[13.088583,67.935984,3.7],[13.088563,67.936008,3.7],[13.088578,67.936059,3.6],[13.088622,67.93609,3.6],[13.088658,67.936001,3.5],[13.088681,67.935996,3.5],[13.088615,67.935958,3.6],[13.088522,67.935941,3.7],[13.088497,67.935943,3.7],[13.088656,67.935916,3.9],[13.088703,67.935868,4.1],[13.088749,67.935843,4.2],[13.088805,67.935837,4.3],[13.08881,67.935826,4.4],[13.088903,67.935821,4.6],[13.08893,67.935807,4.7],[13.089097,67.935787,4.9],[13.089275,67.935745,4.9],[13.089302,67.935745,4.9],[13.089391,67.935809,5],[13.089392,67.935841,5.1],[13.089417,67.93587,5.3],[13.089567,67.935945,5.7],[13.089611,67.936006,6],[13.089703,67.936072,6.3],[13.089855,67.936151,6.6],[13.090009,67.936198,6.7],[13.090151,67.93632,6.9],[13.090075,67.93635,7],[13.090043,67.936386,7.1],[13.090045,67.936381,7.1],[13.090081,67.936399,7.1],[13.090088,67.936249,7.4],[13.090026,67.936186,7.5],[13.08967,67.93604,6.2],[13.08964,67.935986,6],[13.089639,67.935929,5.8],[13.089769,67.935853,5.5],[13.089526,67.935827,5.1],[13.089463,67.935764,5],[13.089456,67.935727,4.9],[13.089503,67.935696,4.9],[13.089555,67.935692,4.8],[13.089482,67.935658,4.8],[13.089513,67.935618,4.9],[13.08943,67.935514,5.2],[13.08899,67.935328,5.5],[13.088973,67.935305,5.4],[13.08904,67.935226,5.1],[13.089119,67.935194,5],[13.089155,67.935168,4.9],[13.089249,67.935148,4.9],[13.089345,67.935116,4.9],[13.089388,67.935111,4.9],[13.089624,67.935045,5.1],[13.089867,67.93495,5.4],[13.089967,67.934921,5.6],[13.090008,67.934891,5.7],[13.08989,67.934824,5],[13.08976,67.934805,4.4],[13.089611,67.934765,3.8],[13.089509,67.93472,3.5],[13.089496,67.934698,3.6],[13.089531,67.934652,3.8],[13.089642,67.934562,4.3],[13.089733,67.934429,5],[13.089771,67.934159,6.8],[13.089741,67.934072,7.3],[13.089772,67.933991,7.7],[13.089776,67.933913,7.9],[13.089821,67.933773,7.9],[13.089809,67.933753,7.9],[13.089822,67.933575,7.9],[13.089809,67.933522,7.9],[13.089829,67.933447,8.1],[13.089817,67.933393,8.3],[13.089854,67.933222,9.1],[13.089836,67.933153,9.5],[13.089858,67.933113,9.9],[13.08981,67.932944,11.6],[13.089724,67.932846,11.9],[13.089671,67.932818,12],[13.089581,67.932811,12.1],[13.089473,67.932779,12.4],[13.089346,67.932724,12.5],[13.089104,67.932584,12.4],[13.08902,67.932497,12.2],[13.088892,67.932451,11.9],[13.088714,67.932411,11.6],[13.088561,67.932393,11.3],[13.088343,67.93239,11.1],[13.088276,67.932396,11],[13.08827,67.932402,11],[13.088182,67.932411,10.9],[13.088082,67.932399,10.8],[13.088033,67.93238,10.8]]}}]}