{"type":"FeatureCollection","features":[{"type":"Feature","properties":{"name":"Forêt de Sénart en VTT","time":"2021-04-22T13:04:32.997Z","coordTimes":["2021-04-22T13:04:32.997Z","2021-04-22T13:04:51.998Z","2021-04-22T13:04:55.999Z","2021-04-22T13:05:02.999Z","2021-04-22T13:05:05.999Z","2021-04-22T13:05:08.999Z","2021-04-22T13:05:12.999Z","2021-04-22T13:05:15.999Z","2021-04-22T13:05:21.999Z","2021-04-22T13:05:32.999Z","2021-04-22T13:05:35.999Z","2021-04-22T13:05:39.999Z","2021-04-22T13:05:42.999Z","2021-04-22T13:05:47.999Z","2021-04-22T13:05:55.999Z","2021-04-22T13:06:01.999Z","2021-04-22T13:06:03.999Z","2021-04-22T13:06:06.999Z","2021-04-22T13:06:09.999Z","2021-04-22T13:06:15.999Z","2021-04-22T13:06:18.999Z","2021-04-22T13:06:21.999Z","2021-04-22T13:06:28Z","2021-04-22T13:06:31Z","2021-04-22T13:06:34Z","2021-04-22T13:06:37Z","2021-04-22T13:06:40Z","2021-04-22T13:06:43.999Z","2021-04-22T13:06:47Z","2021-04-22T13:06:50Z","2021-04-22T13:06:54Z","2021-04-22T13:07:00.999Z","2021-04-22T13:07:07.999Z","2021-04-22T13:07:25.999Z","2021-04-22T13:08:07.999Z","2021-04-22T13:08:10.999Z","2021-04-22T13:08:13.999Z","2021-04-22T13:08:16.999Z","2021-04-22T13:08:19.999Z","2021-04-22T13:08:34Z","2021-04-22T13:08:37Z","2021-04-22T13:08:40Z","2021-04-22T13:08:43Z","2021-04-22T13:08:49Z","2021-04-22T13:08:53Z","2021-04-22T13:08:55Z","2021-04-22T13:08:58Z","2021-04-22T13:09:03Z","2021-04-22T13:09:05.999Z","2021-04-22T13:09:08.999Z","2021-04-22T13:09:23.999Z","2021-04-22T13:09:25.999Z","2021-04-22T13:09:27.999Z","2021-04-22T13:09:31.999Z","2021-04-22T13:09:33.999Z","2021-04-22T13:09:39.999Z","2021-04-22T13:09:41.999Z","2021-04-22T13:09:44.999Z","2021-04-22T13:09:48.999Z","2021-04-22T13:09:52.999Z","2021-04-22T13:09:55.999Z","2021-04-22T13:10:08.999Z","2021-04-22T13:10:20.999Z","2021-04-22T13:10:24.999Z","2021-04-22T13:10:28.999Z","2021-04-22T13:10:32.999Z","2021-04-22T13:10:37Z","2021-04-22T13:10:43Z","2021-04-22T13:10:47Z","2021-04-22T13:10:50Z","2021-04-22T13:10:53Z","2021-04-22T13:10:56Z","2021-04-22T13:10:59Z","2021-04-22T13:11:06.999Z","2021-04-22T13:11:09.999Z","2021-04-22T13:11:13.999Z","2021-04-22T13:11:16.999Z","2021-04-22T13:11:19.999Z","2021-04-22T13:11:26.999Z","2021-04-22T13:11:35.999Z","2021-04-22T13:11:38.999Z","2021-04-22T13:11:42.999Z","2021-04-22T13:11:45.999Z","2021-04-22T13:11:47.999Z","2021-04-22T13:11:50.999Z","2021-04-22T13:11:56.999Z","2021-04-22T13:11:59.999Z","2021-04-22T13:12:01.999Z","2021-04-22T13:12:04.999Z","2021-04-22T13:12:07.999Z","2021-04-22T13:12:13.999Z","2021-04-22T13:12:17.999Z","2021-04-22T13:12:20.998Z","2021-04-22T13:12:28.998Z","2021-04-22T13:12:34.998Z","2021-04-22T13:12:36.998Z","2021-04-22T13:12:45Z","2021-04-22T13:12:51Z","2021-04-22T13:12:58.999Z","2021-04-22T13:13:01.999Z","2021-04-22T13:13:07.998Z","2021-04-22T13:13:10.998Z","2021-04-22T13:13:16.998Z","2021-04-22T13:13:20.999Z","2021-04-22T13:13:26.999Z","2021-04-22T13:13:28.999Z","2021-04-22T13:13:34.999Z","2021-04-22T13:13:37.999Z","2021-04-22T13:13:40.999Z","2021-04-22T13:13:45.999Z","2021-04-22T13:13:48.999Z","2021-04-22T13:13:52.999Z","2021-04-22T13:13:56.999Z","2021-04-22T13:13:59.999Z","2021-04-22T13:14:01.999Z","2021-04-22T13:14:04.999Z","2021-04-22T13:14:07.998Z","2021-04-22T13:14:10.998Z","2021-04-22T13:14:16.998Z","2021-04-22T13:14:21.998Z","2021-04-22T13:14:23.998Z","2021-04-22T13:14:26.998Z","2021-04-22T13:14:30.998Z","2021-04-22T13:14:33.998Z","2021-04-22T13:14:37.998Z","2021-04-22T13:14:44.998Z","2021-04-22T13:14:52.999Z","2021-04-22T13:15:00.999Z","2021-04-22T13:15:04.999Z","2021-04-22T13:15:06.999Z","2021-04-22T13:15:09.999Z","2021-04-22T13:15:12.999Z","2021-04-22T13:15:15.999Z","2021-04-22T13:15:22.999Z","2021-04-22T13:15:30.999Z","2021-04-22T13:15:34.999Z","2021-04-22T13:15:40.999Z","2021-04-22T13:15:46.999Z","2021-04-22T13:15:49.999Z","2021-04-22T13:15:52.999Z","2021-04-22T13:15:55.999Z","2021-04-22T13:15:59.999Z","2021-04-22T13:16:07.998Z","2021-04-22T13:16:12.998Z","2021-04-22T13:16:17.998Z","2021-04-22T13:16:20.998Z","2021-04-22T13:16:23.998Z","2021-04-22T13:16:26.998Z","2021-04-22T13:16:31.998Z","2021-04-22T13:16:34.998Z","2021-04-22T13:16:38.998Z","2021-04-22T13:16:41.998Z","2021-04-22T13:16:44.998Z","2021-04-22T13:16:47.998Z","2021-04-22T13:16:51.998Z","2021-04-22T13:16:56.999Z","2021-04-22T13:17:01.999Z","2021-04-22T13:17:07.999Z","2021-04-22T13:17:15.999Z","2021-04-22T13:17:18.999Z","2021-04-22T13:17:21.999Z","2021-04-22T13:17:26.999Z","2021-04-22T13:17:29.999Z","2021-04-22T13:17:32.999Z","2021-04-22T13:17:40.999Z","2021-04-22T13:17:45.999Z","2021-04-22T13:17:49.999Z","2021-04-22T13:17:55.998Z","2021-04-22T13:18:00.998Z","2021-04-22T13:18:14.998Z","2021-04-22T13:18:18.998Z","2021-04-22T13:18:24.998Z","2021-04-22T13:18:29.998Z","2021-04-22T13:18:34.998Z","2021-04-22T13:18:38.998Z","2021-04-22T13:18:42.998Z","2021-04-22T13:18:45.998Z","2021-04-22T13:18:49.998Z","2021-04-22T13:18:57.998Z","2021-04-22T13:19:00.999Z","2021-04-22T13:19:04.999Z","2021-04-22T13:19:10.999Z","2021-04-22T13:19:24.999Z","2021-04-22T13:19:28.999Z","2021-04-22T13:19:36.999Z","2021-04-22T13:19:40.999Z","2021-04-22T13:19:45.999Z","2021-04-22T13:19:53.999Z","2021-04-22T13:20:10.998Z","2021-04-22T13:20:14.998Z","2021-04-22T13:20:19.998Z","2021-04-22T13:20:23.998Z","2021-04-22T13:20:28.998Z","2021-04-22T13:20:33.998Z","2021-04-22T13:20:36.998Z","2021-04-22T13:20:41.998Z","2021-04-22T13:20:48.998Z","2021-04-22T13:21:02.998Z","2021-04-22T13:21:06.999Z","2021-04-22T13:21:11.999Z","2021-04-22T13:21:15.999Z","2021-04-22T13:21:19.999Z","2021-04-22T13:21:23.999Z","2021-04-22T13:21:27.999Z","2021-04-22T13:21:30.999Z","2021-04-22T13:21:34.999Z","2021-04-22T13:21:37.999Z","2021-04-22T13:21:40.999Z","2021-04-22T13:21:43.999Z","2021-04-22T13:21:53.999Z","2021-04-22T13:21:59.998Z","2021-04-22T13:22:07.998Z","2021-04-22T13:22:10.998Z","2021-04-22T13:22:13.998Z","2021-04-22T13:22:19.998Z","2021-04-22T13:22:22.998Z","2021-04-22T13:22:26.998Z","2021-04-22T13:22:33.998Z","2021-04-22T13:22:37.998Z","2021-04-22T13:22:40.998Z","2021-04-22T13:22:44.998Z","2021-04-22T13:22:46.998Z","2021-04-22T13:22:51.998Z","2021-04-22T13:22:56.998Z","2021-04-22T13:23:03.998Z","2021-04-22T13:23:07.998Z","2021-04-22T13:23:09.998Z","2021-04-22T13:23:11.998Z","2021-04-22T13:23:12.999Z","2021-04-22T13:23:14.999Z","2021-04-22T13:23:16.999Z","2021-04-22T13:23:18.999Z","2021-04-22T13:23:20.999Z","2021-04-22T13:23:23.999Z","2021-04-22T13:23:27.999Z","2021-04-22T13:23:30.999Z","2021-04-22T13:23:34.999Z","2021-04-22T13:23:37.999Z","2021-04-22T13:23:41.999Z","2021-04-22T13:23:47.999Z","2021-04-22T13:23:50.999Z","2021-04-22T13:23:53.999Z","2021-04-22T13:23:56.999Z","2021-04-22T13:24:00.999Z","2021-04-22T13:24:08.999Z","2021-04-22T13:24:12.998Z","2021-04-22T13:24:15.998Z","2021-04-22T13:24:18.998Z","2021-04-22T13:24:21.998Z","2021-04-22T13:24:25.998Z","2021-04-22T13:24:28.998Z","2021-04-22T13:24:37.998Z","2021-04-22T13:24:45.998Z","2021-04-22T13:24:55.998Z","2021-04-22T13:25:01.998Z","2021-04-22T13:25:03.998Z","2021-04-22T13:25:06.998Z","2021-04-22T13:25:09.998Z","2021-04-22T13:25:12.998Z","2021-04-22T13:25:17.998Z","2021-04-22T13:25:20.999Z","2021-04-22T13:25:23.999Z","2021-04-22T13:25:26.999Z","2021-04-22T13:25:30.999Z","2021-04-22T13:25:32.999Z","2021-04-22T13:25:34.999Z","2021-04-22T13:25:36.999Z","2021-04-22T13:25:38.999Z","2021-04-22T13:25:40.999Z","2021-04-22T13:25:42.999Z","2021-04-22T13:25:47.999Z","2021-04-22T13:25:50.999Z","2021-04-22T13:25:54.999Z","2021-04-22T13:25:57.999Z","2021-04-22T13:26:00.999Z","2021-04-22T13:26:03.999Z","2021-04-22T13:26:07.999Z","2021-04-22T13:26:09.999Z","2021-04-22T13:26:13.998Z","2021-04-22T13:26:31.998Z","2021-04-22T13:26:36.998Z","2021-04-22T13:26:50.998Z","2021-04-22T13:26:53.998Z","2021-04-22T13:26:55.998Z","2021-04-22T13:27:01.998Z","2021-04-22T13:27:16.998Z","2021-04-22T13:27:20.998Z","2021-04-22T13:27:23.998Z","2021-04-22T13:27:26.999Z","2021-04-22T13:27:32.999Z","2021-04-22T13:27:36.999Z","2021-04-22T13:27:40.999Z","2021-04-22T13:27:51.999Z","2021-04-22T13:28:03.999Z","2021-04-22T13:28:23.998Z","2021-04-22T13:29:00.998Z","2021-04-22T13:29:09.998Z","2021-04-22T13:29:18.998Z","2021-04-22T13:29:22.998Z","2021-04-22T13:29:26.998Z","2021-04-22T13:29:30.999Z","2021-04-22T13:29:39.999Z","2021-04-22T13:29:42.999Z","2021-04-22T13:29:45.999Z","2021-04-22T13:29:49.999Z","2021-04-22T13:29:52.999Z","2021-04-22T13:29:54.999Z","2021-04-22T13:29:55.999Z","2021-04-22T13:29:56.999Z","2021-04-22T13:29:58.999Z","2021-04-22T13:30:00.999Z","2021-04-22T13:30:04.999Z","2021-04-22T13:30:07.999Z","2021-04-22T13:30:09.999Z","2021-04-22T13:30:11.999Z","2021-04-22T13:30:20.999Z","2021-04-22T13:30:22.999Z","2021-04-22T13:30:27.998Z","2021-04-22T13:30:36.998Z","2021-04-22T13:30:42.998Z","2021-04-22T13:30:46.998Z","2021-04-22T13:30:53.998Z","2021-04-22T13:30:56.998Z","2021-04-22T13:30:59.998Z","2021-04-22T13:31:02.998Z","2021-04-22T13:31:04.998Z","2021-04-22T13:31:06.998Z","2021-04-22T13:31:10.998Z","2021-04-22T13:31:12.998Z","2021-04-22T13:31:15.998Z","2021-04-22T13:31:21.998Z","2021-04-22T13:31:25.998Z","2021-04-22T13:31:29.998Z","2021-04-22T13:31:45.999Z","2021-04-22T13:32:16.999Z","2021-04-22T13:36:09.999Z","2021-04-22T13:36:25.998Z","2021-04-22T13:36:30.998Z","2021-04-22T13:36:34.998Z","2021-04-22T13:36:40.998Z","2021-04-22T13:36:50.998Z","2021-04-22T13:36:53.998Z","2021-04-22T13:36:56.998Z","2021-04-22T13:37:10.998Z","2021-04-22T13:37:17.998Z","2021-04-22T13:37:22.998Z","2021-04-22T13:37:25.998Z","2021-04-22T13:37:28.998Z","2021-04-22T13:37:30.998Z","2021-04-22T13:37:36.998Z","2021-04-22T13:37:47.998Z","2021-04-22T13:38:02.999Z","2021-04-22T13:38:04.999Z","2021-04-22T13:38:09.999Z","2021-04-22T13:38:22.999Z","2021-04-22T13:38:26.999Z","2021-04-22T13:38:29.999Z","2021-04-22T13:38:34.998Z","2021-04-22T13:38:38.998Z","2021-04-22T13:38:42.998Z","2021-04-22T13:38:45.998Z","2021-04-22T13:38:48.998Z","2021-04-22T13:38:53.998Z","2021-04-22T13:38:55.998Z","2021-04-22T13:38:59.998Z","2021-04-22T13:39:43.998Z","2021-04-22T13:39:51.998Z","2021-04-22T13:39:55.998Z","2021-04-22T13:40:11.999Z","2021-04-22T13:40:48.999Z","2021-04-22T13:40:51.999Z","2021-04-22T13:40:55.999Z","2021-04-22T13:41:01.999Z","2021-04-22T13:41:07.998Z","2021-04-22T13:41:09.998Z","2021-04-22T13:41:15.998Z","2021-04-22T13:41:17.998Z","2021-04-22T13:41:21.998Z","2021-04-22T13:41:24.998Z","2021-04-22T13:41:27.998Z","2021-04-22T13:41:30.998Z","2021-04-22T13:41:33.998Z","2021-04-22T13:41:36.998Z","2021-04-22T13:41:40.998Z","2021-04-22T13:41:42.998Z","2021-04-22T13:41:44.998Z","2021-04-22T13:41:49.998Z","2021-04-22T13:41:52.998Z","2021-04-22T13:41:57.998Z","2021-04-22T13:42:01.998Z","2021-04-22T13:42:05.998Z","2021-04-22T13:42:12.999Z","2021-04-22T13:42:15.999Z","2021-04-22T13:42:26.999Z","2021-04-22T13:42:29.999Z","2021-04-22T13:42:31.999Z","2021-04-22T13:42:33.999Z","2021-04-22T13:42:37.999Z","2021-04-22T13:42:40.999Z","2021-04-22T13:42:45.999Z","2021-04-22T13:42:57.999Z","2021-04-22T13:43:09.998Z","2021-04-22T13:43:12.998Z","2021-04-22T13:43:21.998Z","2021-04-22T13:43:26.998Z","2021-04-22T13:43:31.998Z","2021-04-22T13:43:34.998Z","2021-04-22T13:43:38.998Z","2021-04-22T13:43:46.998Z","2021-04-22T13:43:52.998Z","2021-04-22T13:44:16.999Z","2021-04-22T13:44:22.999Z","2021-04-22T13:44:26.999Z","2021-04-22T13:44:29.999Z","2021-04-22T13:44:42.999Z","2021-04-22T13:44:46.999Z","2021-04-22T13:44:50.999Z","2021-04-22T13:44:54.999Z","2021-04-22T13:44:58.999Z","2021-04-22T13:45:02.999Z","2021-04-22T13:45:10.998Z","2021-04-22T13:45:13.998Z","2021-04-22T13:45:19.998Z","2021-04-22T13:45:26.998Z","2021-04-22T13:45:29.998Z","2021-04-22T13:45:36.998Z","2021-04-22T13:45:40.998Z","2021-04-22T13:45:46.998Z","2021-04-22T13:45:52.998Z","2021-04-22T13:46:01.998Z","2021-04-22T13:46:12.998Z","2021-04-22T13:46:31.999Z","2021-04-22T13:46:44.999Z","2021-04-22T13:46:59.999Z","2021-04-22T13:47:13.999Z","2021-04-22T13:47:35.998Z","2021-04-22T13:47:39.998Z","2021-04-22T13:47:44.998Z","2021-04-22T13:47:49.998Z","2021-04-22T13:47:54.998Z","2021-04-22T13:48:06.998Z","2021-04-22T13:48:11.998Z","2021-04-22T13:48:16.998Z","2021-04-22T13:48:26.999Z","2021-04-22T13:48:29.999Z","2021-04-22T13:48:33.999Z","2021-04-22T13:48:42.999Z","2021-04-22T13:48:56.999Z","2021-04-22T13:48:59.999Z","2021-04-22T13:49:05.999Z","2021-04-22T13:49:11.999Z","2021-04-22T13:49:26.999Z","2021-04-22T13:49:48.998Z","2021-04-22T13:49:59.998Z","2021-04-22T13:50:03.998Z","2021-04-22T13:50:07.998Z","2021-04-22T13:50:13.998Z","2021-04-22T13:50:17.998Z","2021-04-22T13:50:23.998Z","2021-04-22T13:50:39.999Z","2021-04-22T13:50:44.999Z","2021-04-22T13:50:54.999Z","2021-04-22T13:50:57.999Z","2021-04-22T13:50:59.999Z","2021-04-22T13:51:01.999Z","2021-04-22T13:51:05.999Z","2021-04-22T13:51:09.999Z","2021-04-22T13:51:13.999Z","2021-04-22T13:51:23.999Z","2021-04-22T13:51:29.999Z","2021-04-22T13:51:32.999Z","2021-04-22T13:51:35.999Z","2021-04-22T13:51:38.999Z","2021-04-22T13:51:41.998Z","2021-04-22T13:51:44.998Z","2021-04-22T13:51:53.998Z","2021-04-22T13:52:00.998Z","2021-04-22T13:52:03.998Z","2021-04-22T13:52:07.998Z","2021-04-22T13:52:12.998Z","2021-04-22T13:52:19.998Z","2021-04-22T13:52:23.998Z","2021-04-22T13:52:27.998Z","2021-04-22T13:52:30.998Z","2021-04-22T13:52:36.999Z","2021-04-22T13:52:43.999Z","2021-04-22T13:52:48.999Z","2021-04-22T13:52:57.999Z","2021-04-22T13:53:01.999Z","2021-04-22T13:53:05.999Z","2021-04-22T13:53:09.999Z","2021-04-22T13:53:15.999Z","2021-04-22T13:53:22.999Z","2021-04-22T13:53:29.999Z","2021-04-22T13:53:31.999Z","2021-04-22T13:53:34.999Z","2021-04-22T13:53:40.999Z","2021-04-22T13:53:46.998Z","2021-04-22T13:54:01.998Z","2021-04-22T13:54:04.998Z","2021-04-22T13:54:07.998Z","2021-04-22T13:54:10.998Z","2021-04-22T13:54:16.998Z","2021-04-22T13:54:19.998Z","2021-04-22T13:54:25.998Z","2021-04-22T13:54:29.998Z","2021-04-22T13:54:36.998Z","2021-04-22T13:54:51.999Z","2021-04-22T13:54:58.999Z","2021-04-22T13:55:02.999Z","2021-04-22T13:55:06.999Z","2021-04-22T13:55:10.999Z","2021-04-22T13:55:17.999Z","2021-04-22T13:55:29.999Z","2021-04-22T13:56:10.998Z","2021-04-22T13:56:24.998Z","2021-04-22T13:56:40.998Z","2021-04-22T13:56:43.998Z","2021-04-22T13:56:46.998Z","2021-04-22T13:56:50.999Z","2021-04-22T13:56:56.999Z","2021-04-22T13:56:59.999Z","2021-04-22T13:57:01.999Z","2021-04-22T13:57:04.999Z","2021-04-22T13:57:10.999Z","2021-04-22T13:57:13.999Z","2021-04-22T13:57:21.999Z","2021-04-22T13:57:26.999Z","2021-04-22T13:57:28.999Z","2021-04-22T13:57:43.999Z","2021-04-22T13:57:51.998Z","2021-04-22T13:57:57.998Z","2021-04-22T13:58:00.998Z","2021-04-22T13:58:07.998Z","2021-04-22T13:58:13.998Z","2021-04-22T13:58:20.998Z","2021-04-22T13:58:24.998Z","2021-04-22T13:58:27.998Z","2021-04-22T13:58:30.998Z","2021-04-22T13:58:37.998Z","2021-04-22T13:58:40.998Z","2021-04-22T13:58:43.998Z","2021-04-22T13:58:48.998Z","2021-04-22T13:58:51.998Z","2021-04-22T13:58:54.999Z","2021-04-22T13:58:56.999Z","2021-04-22T13:58:59.999Z","2021-04-22T13:59:05.999Z","2021-04-22T13:59:08.999Z","2021-04-22T13:59:11.999Z","2021-04-22T13:59:24.999Z","2021-04-22T13:59:27.999Z","2021-04-22T13:59:30.999Z","2021-04-22T13:59:33.999Z","2021-04-22T13:59:36.999Z","2021-04-22T13:59:39.999Z","2021-04-22T13:59:43.999Z","2021-04-22T13:59:47.999Z","2021-04-22T13:59:51.998Z","2021-04-22T13:59:55.998Z","2021-04-22T14:00:08.998Z","2021-04-22T14:00:13.998Z","2021-04-22T14:00:16.998Z","2021-04-22T14:00:19.998Z","2021-04-22T14:00:22.998Z","2021-04-22T14:00:25.998Z","2021-04-22T14:00:32.998Z","2021-04-22T14:00:35.998Z","2021-04-22T14:00:41.998Z","2021-04-22T14:00:44.998Z","2021-04-22T14:00:47.998Z","2021-04-22T14:00:50.998Z","2021-04-22T14:00:52.998Z","2021-04-22T14:00:57.998Z","2021-04-22T14:01:00.999Z","2021-04-22T14:01:06.999Z","2021-04-22T14:01:10.999Z","2021-04-22T14:01:12.999Z","2021-04-22T14:01:17.999Z","2021-04-22T14:01:22.999Z","2021-04-22T14:01:25.999Z","2021-04-22T14:01:29.999Z","2021-04-22T14:01:50.999Z","2021-04-22T14:01:57.999Z","2021-04-22T14:02:05.998Z","2021-04-22T14:02:08.998Z","2021-04-22T14:02:14.998Z","2021-04-22T14:02:16.998Z","2021-04-22T14:02:19.998Z","2021-04-22T14:02:34.998Z","2021-04-22T14:02:37.998Z","2021-04-22T14:02:39.998Z","2021-04-22T14:02:44.998Z","2021-04-22T14:02:48.998Z","2021-04-22T14:02:59.998Z","2021-04-22T14:03:05.998Z","2021-04-22T14:03:10.999Z","2021-04-22T14:03:14.999Z","2021-04-22T14:03:18.999Z","2021-04-22T14:03:22.999Z","2021-04-22T14:03:31.999Z","2021-04-22T14:03:33.999Z","2021-04-22T14:03:36.999Z","2021-04-22T14:03:39.999Z","2021-04-22T14:03:41.999Z","2021-04-22T14:03:44.999Z","2021-04-22T14:03:49.999Z","2021-04-22T14:03:51.999Z","2021-04-22T14:03:55.999Z","2021-04-22T14:03:57.999Z","2021-04-22T14:03:59.999Z","2021-04-22T14:04:03.998Z","2021-04-22T14:04:08.998Z","2021-04-22T14:04:11.998Z","2021-04-22T14:04:17.998Z","2021-04-22T14:04:23.998Z","2021-04-22T14:04:26.998Z","2021-04-22T14:04:29.998Z","2021-04-22T14:04:32.998Z","2021-04-22T14:04:35.998Z","2021-04-22T14:04:38.998Z","2021-04-22T14:04:46.998Z","2021-04-22T14:04:54.998Z","2021-04-22T14:04:58.998Z","2021-04-22T14:05:01.998Z","2021-04-22T14:05:05.998Z","2021-04-22T14:05:11.998Z","2021-04-22T14:05:15.999Z","2021-04-22T14:05:27.999Z","2021-04-22T14:05:29.999Z","2021-04-22T14:05:35.999Z","2021-04-22T14:05:38.999Z","2021-04-22T14:05:49.999Z","2021-04-22T14:05:52.999Z","2021-04-22T14:05:55.999Z","2021-04-22T14:05:58.999Z","2021-04-22T14:06:01.999Z","2021-04-22T14:06:04.999Z","2021-04-22T14:06:06.999Z","2021-04-22T14:06:09.999Z","2021-04-22T14:06:13.999Z","2021-04-22T14:06:16.998Z","2021-04-22T14:06:20.998Z","2021-04-22T14:06:38.998Z","2021-04-22T14:07:46.999Z","2021-04-22T14:07:50.999Z","2021-04-22T14:07:53.999Z","2021-04-22T14:07:56.999Z","2021-04-22T14:08:01.999Z","2021-04-22T14:08:04.999Z","2021-04-22T14:08:13.999Z","2021-04-22T14:08:20.998Z","2021-04-22T14:08:25.998Z","2021-04-22T14:08:27.998Z","2021-04-22T14:08:29.998Z","2021-04-22T14:08:33.998Z","2021-04-22T14:08:36.998Z","2021-04-22T14:08:39.998Z","2021-04-22T14:08:42.998Z","2021-04-22T14:08:48.998Z","2021-04-22T14:08:51.998Z","2021-04-22T14:08:54.998Z","2021-04-22T14:08:57.998Z","2021-04-22T14:09:00.998Z","2021-04-22T14:09:06.998Z","2021-04-22T14:09:12.998Z","2021-04-22T14:09:18.998Z","2021-04-22T14:09:24.999Z","2021-04-22T14:09:30.999Z","2021-04-22T14:09:37.999Z","2021-04-22T14:09:42.999Z","2021-04-22T14:09:47.999Z","2021-04-22T14:09:51.999Z","2021-04-22T14:09:57.999Z","2021-04-22T14:10:03.999Z","2021-04-22T14:10:09.999Z","2021-04-22T14:10:19.999Z","2021-04-22T14:10:24.998Z","2021-04-22T14:10:33.998Z","2021-04-22T14:10:37.998Z","2021-04-22T14:10:41.998Z","2021-04-22T14:10:44.998Z","2021-04-22T14:10:47.998Z","2021-04-22T14:10:51.998Z","2021-04-22T14:10:54.998Z","2021-04-22T14:10:59.998Z","2021-04-22T14:11:05.998Z","2021-04-22T14:11:09.998Z","2021-04-22T14:11:17.998Z","2021-04-22T14:11:23.998Z","2021-04-22T14:11:27.998Z","2021-04-22T14:11:31.999Z","2021-04-22T14:11:36.999Z","2021-04-22T14:11:39.999Z","2021-04-22T14:11:42.999Z","2021-04-22T14:11:45.999Z","2021-04-22T14:11:48.999Z","2021-04-22T14:11:52.999Z","2021-04-22T14:12:01.999Z","2021-04-22T14:12:06.999Z","2021-04-22T14:12:09.999Z","2021-04-22T14:12:13.999Z","2021-04-22T14:12:25.998Z","2021-04-22T14:12:37.998Z","2021-04-22T14:12:41.998Z","2021-04-22T14:12:51.998Z","2021-04-22T14:12:55.998Z","2021-04-22T14:13:09.998Z","2021-04-22T14:13:25.998Z","2021-04-22T14:13:28.998Z","2021-04-22T14:13:32.998Z","2021-04-22T14:13:36.999Z","2021-04-22T14:13:41.999Z","2021-04-22T14:13:47.999Z","2021-04-22T14:13:53.999Z","2021-04-22T14:13:55.999Z","2021-04-22T14:13:57.999Z","2021-04-22T14:14:00.999Z","2021-04-22T14:14:06.999Z","2021-04-22T14:14:09.999Z","2021-04-22T14:14:12.999Z","2021-04-22T14:14:15.999Z","2021-04-22T14:14:21.999Z","2021-04-22T14:14:24.999Z","2021-04-22T14:14:27.999Z","2021-04-22T14:14:30.999Z","2021-04-22T14:14:36.998Z","2021-04-22T14:14:39.998Z","2021-04-22T14:14:42.998Z","2021-04-22T14:14:49.998Z","2021-04-22T14:14:57.998Z","2021-04-22T14:15:05.998Z","2021-04-22T14:15:09.998Z","2021-04-22T14:15:13.998Z","2021-04-22T14:15:17.998Z","2021-04-22T14:15:26.998Z","2021-04-22T14:15:35.998Z","2021-04-22T14:15:39.998Z","2021-04-22T14:15:43.999Z","2021-04-22T14:15:47.999Z","2021-04-22T14:15:59.999Z","2021-04-22T14:16:18.999Z","2021-04-22T14:16:24.999Z","2021-04-22T14:16:32.999Z","2021-04-22T14:16:35.999Z","2021-04-22T14:16:44.998Z","2021-04-22T14:16:48.998Z","2021-04-22T14:16:52.998Z","2021-04-22T14:16:56.998Z","2021-04-22T14:17:06.998Z","2021-04-22T14:17:09.998Z","2021-04-22T14:17:24.998Z","2021-04-22T14:17:32.998Z","2021-04-22T14:17:36.998Z","2021-04-22T14:17:39.998Z","2021-04-22T14:17:42.998Z","2021-04-22T14:17:45.998Z","2021-04-22T14:17:48.999Z","2021-04-22T14:17:50.999Z","2021-04-22T14:17:54.999Z","2021-04-22T14:18:06.999Z","2021-04-22T14:18:11.999Z","2021-04-22T14:18:15.999Z","2021-04-22T14:18:26.999Z","2021-04-22T14:18:32.999Z","2021-04-22T14:18:40.999Z","2021-04-22T14:18:48.999Z","2021-04-22T14:18:51.998Z","2021-04-22T14:19:03.998Z","2021-04-22T14:19:07.998Z","2021-04-22T14:19:18.998Z","2021-04-22T14:19:22.998Z","2021-04-22T14:19:37.998Z","2021-04-22T14:19:40.998Z","2021-04-22T14:19:42.998Z","2021-04-22T14:19:45.998Z","2021-04-22T14:19:59.999Z","2021-04-22T14:20:06.999Z","2021-04-22T14:20:15.999Z","2021-04-22T14:20:18.999Z","2021-04-22T14:20:21.999Z","2021-04-22T14:20:24.999Z","2021-04-22T14:20:27.999Z","2021-04-22T14:20:35.999Z","2021-04-22T14:20:41.999Z","2021-04-22T14:20:47.999Z","2021-04-22T14:21:13.998Z"],"type":"vtt","month":"2021-04-01"},"geometry":{"type":"LineString","coordinates":[[2.427762,48.685402,79.003],[2.428073,48.685209,79.003],[2.428093,48.685116,79.003],[2.428107,48.684896,79.003],[2.42809,48.684799,79.003],[2.428109,48.684694,79.003],[2.428197,48.684596,79.007],[2.428259,48.684507,79.034],[2.428425,48.684326,79.093],[2.428691,48.684072,79.179],[2.428754,48.683978,79.208],[2.428797,48.683887,79.234],[2.42881,48.683792,79.261],[2.428787,48.683695,79.288],[2.428781,48.683592,79.317],[2.428681,48.68338,79.379],[2.428579,48.683315,79.405],[2.428458,48.683203,79.443],[2.428376,48.683084,79.479],[2.428183,48.682886,79.526],[2.428062,48.68278,79.547],[2.427979,48.682685,79.563],[2.427926,48.682601,79.577],[2.427912,48.682498,79.593],[2.427944,48.682382,79.611],[2.428036,48.682289,79.628],[2.428039,48.682183,79.644],[2.428081,48.682062,79.663],[2.428151,48.681943,79.682],[2.428177,48.681832,79.7],[2.428155,48.681723,79.716],[2.428165,48.681626,79.731],[2.428199,48.681538,79.745],[2.42816,48.681451,79.759],[2.428405,48.681165,80.025],[2.428475,48.681065,80.159],[2.428603,48.680969,80.315],[2.428714,48.680865,80.469],[2.428844,48.680767,80.628],[2.429429,48.680254,81.41],[2.429571,48.680202,81.54],[2.429662,48.680132,81.652],[2.429734,48.680052,81.766],[2.430039,48.679969,81.989],[2.430148,48.679914,82.028],[2.430157,48.679807,82.074],[2.430183,48.679696,82.122],[2.430289,48.679471,82.224],[2.430322,48.67937,82.268],[2.430333,48.679246,82.321],[2.430292,48.678695,82.558],[2.430311,48.678602,82.599],[2.430273,48.678513,82.638],[2.430258,48.678296,82.731],[2.430262,48.678188,82.748],[2.430338,48.677958,82.773],[2.430357,48.677868,82.782],[2.430364,48.677747,82.795],[2.430402,48.67754,82.816],[2.4304,48.677329,82.838],[2.430366,48.677227,82.849],[2.430667,48.677254,82.87],[2.43096,48.67724,82.89],[2.431128,48.677263,82.902],[2.431269,48.677296,82.912],[2.431464,48.677302,82.926],[2.431751,48.677338,82.941],[2.432046,48.677418,82.959],[2.432197,48.67745,82.967],[2.432326,48.677488,82.975],[2.432497,48.677505,82.984],[2.432685,48.677542,82.995],[2.43284,48.677527,83.004],[2.433096,48.677385,83.022],[2.433213,48.677335,83.029],[2.433316,48.677272,83.037],[2.433357,48.677172,83.045],[2.433493,48.67711,83.054],[2.433599,48.676926,83.071],[2.433822,48.676602,83.189],[2.433829,48.676501,83.226],[2.433869,48.676392,83.266],[2.433883,48.676269,83.311],[2.433941,48.676182,83.345],[2.433936,48.676081,83.381],[2.433949,48.675843,83.467],[2.433986,48.675734,83.508],[2.433959,48.675621,83.549],[2.433948,48.675499,83.593],[2.433952,48.675385,83.634],[2.433933,48.675182,83.708],[2.433955,48.675061,83.74],[2.434013,48.674965,83.763],[2.434162,48.674769,83.811],[2.434248,48.674555,83.86],[2.434301,48.67445,83.884],[2.434422,48.674151,83.952],[2.434476,48.673923,84.003],[2.434575,48.673698,84.054],[2.434647,48.67362,84.074],[2.434755,48.673402,84.119],[2.434786,48.673272,84.126],[2.434808,48.673051,84.138],[2.434861,48.672934,84.144],[2.434841,48.672698,84.156],[2.434861,48.672591,84.162],[2.434789,48.672362,84.174],[2.434733,48.672253,84.179],[2.434712,48.672152,84.185],[2.434705,48.671941,84.196],[2.434729,48.671847,84.2],[2.434741,48.671724,84.207],[2.434737,48.671599,84.214],[2.434688,48.671479,84.221],[2.434689,48.671369,84.228],[2.434749,48.671267,84.235],[2.434761,48.671138,84.243],[2.434759,48.671017,84.25],[2.434713,48.670785,84.264],[2.434698,48.670567,84.278],[2.434743,48.670472,84.284],[2.434759,48.670359,84.291],[2.434839,48.670273,84.297],[2.434835,48.670175,84.303],[2.434857,48.670059,84.31],[2.434997,48.669847,84.295],[2.435163,48.669513,84.163],[2.435377,48.669351,84.081],[2.435427,48.669236,84.036],[2.435376,48.669102,83.984],[2.435339,48.668964,83.932],[2.435364,48.668821,83.877],[2.435449,48.668744,83.841],[2.435676,48.668592,83.761],[2.435841,48.6684,83.678],[2.435925,48.668321,83.642],[2.436153,48.668172,83.641],[2.436331,48.668007,83.639],[2.436422,48.667934,83.638],[2.436534,48.667868,83.638],[2.436616,48.667789,83.637],[2.43676,48.667713,83.636],[2.437,48.667566,83.634],[2.437121,48.667501,83.634],[2.437271,48.667442,83.633],[2.437388,48.66735,83.632],[2.43751,48.667294,83.631],[2.437581,48.667207,83.63],[2.437546,48.667005,83.629],[2.437484,48.666919,83.611],[2.437391,48.666824,83.585],[2.437272,48.666745,83.56],[2.437172,48.666664,83.536],[2.437071,48.666598,83.515],[2.437049,48.666499,83.492],[2.437107,48.666403,83.469],[2.437137,48.666286,83.442],[2.437111,48.666067,83.392],[2.437166,48.665876,83.348],[2.437226,48.665776,83.324],[2.437264,48.66565,83.295],[2.437289,48.665424,83.244],[2.437255,48.665332,83.222],[2.437262,48.665222,83.27],[2.437396,48.665038,83.36],[2.437503,48.664963,83.406],[2.437638,48.664951,83.446],[2.437759,48.664903,83.487],[2.437915,48.664881,83.534],[2.438172,48.664959,83.617],[2.438272,48.665029,83.659],[2.438417,48.665071,83.705],[2.438522,48.665158,83.755],[2.438637,48.665215,83.797],[2.438743,48.665286,83.841],[2.438898,48.665321,83.889],[2.439042,48.665336,83.932],[2.43917,48.665391,83.976],[2.439489,48.665477,83.968],[2.43964,48.665475,83.93],[2.439789,48.665485,83.892],[2.439923,48.665505,83.857],[2.440042,48.665457,83.822],[2.439957,48.665381,83.785],[2.439849,48.665195,83.709],[2.439778,48.665111,83.672],[2.439779,48.664992,83.626],[2.439676,48.664783,83.541],[2.43935,48.664426,83.381],[2.439289,48.664342,83.345],[2.439283,48.664249,83.307],[2.439247,48.664154,83.264],[2.439234,48.66406,83.223],[2.439271,48.663972,83.183],[2.439252,48.663881,83.142],[2.439139,48.663696,83.055],[2.438865,48.66357,82.958],[2.438597,48.663218,82.785],[2.438492,48.663135,82.737],[2.438426,48.663034,82.689],[2.43834,48.662946,82.643],[2.438228,48.662855,82.592],[2.438133,48.662756,82.54],[2.438085,48.662667,82.455],[2.437964,48.662598,82.357],[2.43788,48.662505,82.257],[2.437772,48.66243,82.161],[2.437628,48.66239,82.066],[2.437457,48.662315,81.94],[2.437117,48.662113,81.661],[2.436903,48.661933,81.449],[2.436749,48.661747,81.252],[2.43669,48.66165,81.155],[2.436604,48.661549,81.048],[2.436372,48.661386,80.798],[2.436296,48.661289,80.561],[2.436173,48.661227,80.339],[2.43598,48.66107,79.899],[2.435831,48.660991,79.625],[2.435765,48.660912,79.429],[2.435573,48.660754,78.989],[2.435429,48.660686,78.735],[2.435234,48.660501,78.245],[2.435002,48.660316,77.723],[2.434636,48.66009,77.005],[2.434424,48.65991,75.907],[2.434289,48.659829,75.3],[2.4342,48.659748,74.796],[2.434043,48.659666,74.131],[2.433934,48.65957,73.526],[2.433819,48.659485,72.952],[2.433707,48.659425,72.473],[2.433602,48.659347,71.947],[2.433473,48.659272,71.375],[2.433374,48.659173,70.778],[2.433282,48.659104,70.315],[2.433159,48.659031,69.765],[2.433076,48.65894,69.23],[2.432813,48.658821,68.169],[2.432632,48.658664,66.717],[2.4325,48.658571,65.674],[2.432402,48.658461,64.631],[2.432278,48.658369,63.623],[2.432158,48.658326,62.886],[2.432006,48.658301,62.039],[2.43189,48.658223,61.145],[2.431803,48.658134,60.278],[2.431674,48.658051,59.306],[2.431586,48.657975,58.523],[2.43149,48.657867,57.499],[2.431387,48.657785,56.627],[2.431444,48.657687,55.768],[2.431705,48.657584,54.124],[2.431949,48.657428,52.941],[2.432192,48.657299,52.465],[2.432294,48.657233,52.247],[2.432414,48.657183,52.031],[2.432525,48.657092,51.761],[2.432658,48.657032,51.515],[2.432874,48.65688,51.034],[2.432986,48.656814,50.805],[2.4331,48.656762,50.594],[2.433234,48.656666,50.292],[2.433488,48.656539,49.806],[2.433594,48.656454,49.552],[2.433606,48.656364,49.343],[2.433568,48.656241,49.053],[2.433488,48.656157,48.636],[2.433428,48.656029,48.061],[2.433348,48.655946,47.639],[2.433129,48.655782,46.701],[2.433,48.655745,46.302],[2.432817,48.655732,45.781],[2.432647,48.655766,45.278],[2.432476,48.655785,44.787],[2.432324,48.655847,44.28],[2.432037,48.656065,43.041],[2.431906,48.656149,42.524],[2.431664,48.656254,41.703],[2.431096,48.656567,42.295],[2.430965,48.656626,42.547],[2.430597,48.656845,43.334],[2.430475,48.656937,43.629],[2.430392,48.657049,43.928],[2.430402,48.657247,44.405],[2.430254,48.657278,44.652],[2.430117,48.657336,44.91],[2.429973,48.657372,45.155],[2.429852,48.657457,45.435],[2.429606,48.657596,45.599],[2.429512,48.657671,45.555],[2.429456,48.657757,45.512],[2.42938,48.657839,45.469],[2.429392,48.657931,45.426],[2.429244,48.657919,45.382],[2.429125,48.657972,45.338],[2.428875,48.658066,45.252],[2.428582,48.658155,45.155],[2.428461,48.658227,45.106],[2.428333,48.658282,45.06],[2.42823,48.658346,45.017],[2.428354,48.658283,44.97],[2.428399,48.658172,44.917],[2.428418,48.658047,44.86],[2.428524,48.657941,44.494],[2.428517,48.657829,43.967],[2.428471,48.657652,43.121],[2.428522,48.657483,42.31],[2.428503,48.657377,41.807],[2.42843,48.657236,41.106],[2.42832,48.65713,40.501],[2.428082,48.656952,39.382],[2.427906,48.656928,38.823],[2.427753,48.656946,38.34],[2.427609,48.656987,37.852],[2.427008,48.657198,36.229],[2.426895,48.657261,36.129],[2.42659,48.657387,35.884],[2.426085,48.657551,35.503],[2.425753,48.657668,35.247],[2.425607,48.657622,35.137],[2.4255,48.657443,34.94],[2.425472,48.657351,34.843],[2.425394,48.657252,34.729],[2.425249,48.657174,34.602],[2.425099,48.657128,34.511],[2.424969,48.657069,34.478],[2.424945,48.656976,34.449],[2.424784,48.656945,34.415],[2.424628,48.656958,34.383],[2.424309,48.657052,34.312],[2.424181,48.657102,34.282],[2.424074,48.657184,34.248],[2.424061,48.657276,34.22],[2.423933,48.657245,34.192],[2.423728,48.657352,34.139],[2.423374,48.657518,34.051],[2.42327,48.657596,34.019],[2.4232,48.657676,33.99],[2.423085,48.657745,33.963],[2.422706,48.657941,33.925],[2.422639,48.658021,33.915],[2.422582,48.658121,33.902],[2.422435,48.658109,33.89],[2.42204,48.658287,33.853],[2.421799,48.658449,33.827],[2.421629,48.658499,33.812],[2.421469,48.658577,33.797],[2.421352,48.658646,33.785],[2.421219,48.658694,33.773],[2.420832,48.658889,33.77],[2.420226,48.659105,33.814],[2.420108,48.65918,33.825],[2.419963,48.659226,33.835],[2.419442,48.659569,33.883],[2.419349,48.659647,33.893],[2.419245,48.659751,33.905],[2.419096,48.659782,33.915],[2.418972,48.659832,33.924],[2.418831,48.659906,33.925],[2.418704,48.65999,33.915],[2.418566,48.660041,33.905],[2.418324,48.660186,33.886],[2.418259,48.660272,33.878],[2.418154,48.660357,33.868],[2.417916,48.660463,33.851],[2.417806,48.660523,33.843],[2.417725,48.6606,33.835],[2.417656,48.660689,33.826],[2.417471,48.660839,33.809],[2.417343,48.66089,33.8],[2.41722,48.660965,33.79],[2.417073,48.661038,33.779],[2.416918,48.661222,33.797],[2.416801,48.661269,33.816],[2.41665,48.661507,33.872],[2.416572,48.661597,33.894],[2.416432,48.661681,33.921],[2.416339,48.661762,33.943],[2.416249,48.661877,33.971],[2.416102,48.661935,33.995],[2.415948,48.661938,34.017],[2.415807,48.662002,34.041],[2.415623,48.662166,34.086],[2.415513,48.662243,34.108],[2.415428,48.662316,34.128],[2.415199,48.662483,34.166],[2.415107,48.662595,34.176],[2.414962,48.662665,34.186],[2.41486,48.662731,34.193],[2.414771,48.662821,34.202],[2.414584,48.662982,34.219],[2.414516,48.663066,34.227],[2.414223,48.663337,34.254],[2.414204,48.66346,34.264],[2.41417,48.663548,34.271],[2.414122,48.663633,34.279],[2.413962,48.663844,34.298],[2.413845,48.663929,34.299],[2.413663,48.664144,34.215],[2.413237,48.664522,34.055],[2.412816,48.664811,33.919],[2.412708,48.664874,33.887],[2.412482,48.665026,33.814],[2.412382,48.665127,33.773],[2.412276,48.665209,33.737],[2.41217,48.665269,33.705],[2.412069,48.665364,33.694],[2.411843,48.665519,33.691],[2.411634,48.665679,33.689],[2.410903,48.666181,33.681],[2.410689,48.666318,33.678],[2.410555,48.666388,33.677],[2.410448,48.666461,33.676],[2.410032,48.666667,33.649],[2.409912,48.666742,33.633],[2.409766,48.666809,33.615],[2.409621,48.666904,33.594],[2.409505,48.666992,33.577],[2.409367,48.667064,33.559],[2.409085,48.667194,33.525],[2.40896,48.667238,33.511],[2.408725,48.667358,33.481],[2.408431,48.667466,33.447],[2.408299,48.667524,33.432],[2.407987,48.667619,33.4],[2.407852,48.667672,33.394],[2.407742,48.667731,33.389],[2.407617,48.667781,33.384],[2.40738,48.667905,33.373],[2.407237,48.667954,33.367],[2.407102,48.668015,33.361],[2.406965,48.668059,33.356],[2.406939,48.668149,33.351],[2.406807,48.668182,33.346],[2.407051,48.668439,33.329],[2.407199,48.668477,33.323],[2.407215,48.668575,33.318],[2.407312,48.668643,33.313],[2.407438,48.668685,33.308],[2.407609,48.668835,33.395],[2.407626,48.668925,33.473],[2.407674,48.669015,33.555],[2.407703,48.669222,33.734],[2.407693,48.669335,33.831],[2.407724,48.669439,33.922],[2.407659,48.669626,34.087],[2.40754,48.669818,34.266],[2.407514,48.669916,34.351],[2.407436,48.670008,34.442],[2.407314,48.670078,34.534],[2.407138,48.670252,34.714],[2.407056,48.670439,34.836],[2.407014,48.670626,34.759],[2.407004,48.670737,34.714],[2.406929,48.670814,34.677],[2.406831,48.67089,34.637],[2.406759,48.670969,34.599],[2.406665,48.671035,34.562],[2.406571,48.670965,34.524],[2.406411,48.670918,34.478],[2.405998,48.670729,34.343],[2.405861,48.670676,34.3],[2.405709,48.670642,34.257],[2.40561,48.670577,34.22],[2.405395,48.670398,34.127],[2.405266,48.670211,34.055],[2.405226,48.670107,34.018],[2.40506,48.669909,33.94],[2.40486,48.669731,33.863],[2.404713,48.669653,33.82],[2.404569,48.669597,33.782],[2.404422,48.669516,33.739],[2.404292,48.669464,33.704],[2.404128,48.669498,33.665],[2.403682,48.669609,33.556],[2.403399,48.669718,33.504],[2.403302,48.669788,33.512],[2.403168,48.669852,33.522],[2.403034,48.669932,33.532],[2.402773,48.670047,33.55],[2.402665,48.67011,33.558],[2.402565,48.670191,33.567],[2.402446,48.670248,33.575],[2.402228,48.670378,33.592],[2.402024,48.670524,33.609],[2.401923,48.670608,33.618],[2.401676,48.670766,33.637],[2.401547,48.670831,33.646],[2.401445,48.670902,33.653],[2.40132,48.670954,33.651],[2.401072,48.671082,33.647],[2.400704,48.671251,33.641],[2.400412,48.671404,33.635],[2.400316,48.671472,33.633],[2.400182,48.671543,33.631],[2.399965,48.671701,33.626],[2.399737,48.671893,33.621],[2.399245,48.672393,33.548],[2.399129,48.672486,33.522],[2.399026,48.672586,33.497],[2.398954,48.672678,33.475],[2.398749,48.672869,33.426],[2.398662,48.672967,33.402],[2.39844,48.673141,33.355],[2.398325,48.67319,33.336],[2.398103,48.673317,33.295],[2.397682,48.6736,33.207],[2.397473,48.673762,33.154],[2.397402,48.673852,33.128],[2.397277,48.673928,33.1],[2.397193,48.67402,33.074],[2.397138,48.674102,33.051],[2.397066,48.674186,33.027],[2.396906,48.674339,32.981],[2.396786,48.674402,32.956],[2.396625,48.674436,32.928],[2.396485,48.674506,32.899],[2.39635,48.67455,32.874],[2.396212,48.674631,32.844],[2.395921,48.674758,32.792],[2.395792,48.674838,32.809],[2.395706,48.674915,32.823],[2.395568,48.674968,32.838],[2.395315,48.675123,32.871],[2.395168,48.675166,32.887],[2.394784,48.675397,32.936],[2.394539,48.675498,32.964],[2.39446,48.675572,32.977],[2.393989,48.67583,33.036],[2.393755,48.675973,33.019],[2.393471,48.676113,32.949],[2.393353,48.676187,32.917],[2.393092,48.676304,32.854],[2.392852,48.676456,32.789],[2.392649,48.676634,32.722],[2.392537,48.676709,32.691],[2.392426,48.67677,32.662],[2.392322,48.676843,32.632],[2.392047,48.676966,32.567],[2.391905,48.677043,32.53],[2.391805,48.677125,32.528],[2.391585,48.677245,32.586],[2.391461,48.677345,32.627],[2.391301,48.677403,32.664],[2.391184,48.67746,32.694],[2.391009,48.677524,32.734],[2.390715,48.677702,32.816],[2.390583,48.67776,32.848],[2.390431,48.677853,32.891],[2.389927,48.678116,33.022],[2.389757,48.678172,33.061],[2.389667,48.678284,33.064],[2.389692,48.67839,33.057],[2.389685,48.678492,33.051],[2.389536,48.678524,33.044],[2.389388,48.678468,33.037],[2.389238,48.678473,33.031],[2.389094,48.67855,33.023],[2.38899,48.678616,33.017],[2.388619,48.6788,32.998],[2.388354,48.678903,32.985],[2.38824,48.679001,32.977],[2.38811,48.679092,32.97],[2.388026,48.679182,32.963],[2.387929,48.679268,32.959],[2.387686,48.679556,33.021],[2.387632,48.67966,33.041],[2.38748,48.679847,33.08],[2.387418,48.67995,33.101],[2.387373,48.68006,33.122],[2.387312,48.68017,33.144],[2.387278,48.680291,33.167],[2.387189,48.680503,33.208],[2.387118,48.680622,33.232],[2.38703,48.680854,33.276],[2.387013,48.681063,33.28],[2.387051,48.681155,33.271],[2.387068,48.681346,33.253],[2.387025,48.68157,33.231],[2.387037,48.681684,33.221],[2.387009,48.681782,33.211],[2.387036,48.681967,33.194],[2.387242,48.682097,33.176],[2.387648,48.682264,33.147],[2.38775,48.682347,33.137],[2.388081,48.682443,33.124],[2.388208,48.682493,33.125],[2.388343,48.682558,33.126],[2.388946,48.682754,33.131],[2.389151,48.682801,33.132],[2.38931,48.682824,33.133],[2.389619,48.682899,33.136],[2.38979,48.682919,33.137],[2.390262,48.683024,33.141],[2.390561,48.683082,33.143],[2.390725,48.683106,33.144],[2.390856,48.68314,33.145],[2.391053,48.683138,33.147],[2.391355,48.683211,33.149],[2.391909,48.683288,33.153],[2.39205,48.683334,33.154],[2.392215,48.683353,33.155],[2.392393,48.683393,33.157],[2.392519,48.68343,33.158],[2.392701,48.683471,33.159],[2.393026,48.683514,33.162],[2.393164,48.683561,33.163],[2.393462,48.683598,33.165],[2.393601,48.683604,33.166],[2.393771,48.683625,33.167],[2.394142,48.683706,33.169],[2.394459,48.683739,33.171],[2.394624,48.683796,33.173],[2.394964,48.683879,33.175],[2.395348,48.683919,33.177],[2.395522,48.683954,33.179],[2.395696,48.683979,33.18],[2.39587,48.684016,33.24],[2.396055,48.684045,33.304],[2.39623,48.684097,33.37],[2.396748,48.684186,33.552],[2.397183,48.684309,33.713],[2.397214,48.684409,33.766],[2.397227,48.6845,33.813],[2.397282,48.684617,33.876],[2.397314,48.684824,33.983],[2.397366,48.68492,34.036],[2.397514,48.685383,34.278],[2.397533,48.685483,34.329],[2.39764,48.685696,34.444],[2.397679,48.685818,34.507],[2.397629,48.68624,34.723],[2.397653,48.68635,34.779],[2.397694,48.686453,34.833],[2.397783,48.686554,34.893],[2.397803,48.686665,34.95],[2.397848,48.686776,35.008],[2.397852,48.686875,35.007],[2.397884,48.686994,34.979],[2.397961,48.687102,34.952],[2.398075,48.687159,34.93],[2.398224,48.687155,34.907],[2.398343,48.687249,34.879],[2.398567,48.687361,34.836],[2.398724,48.687315,34.81],[2.398893,48.687309,34.785],[2.399008,48.687367,34.763],[2.399355,48.687426,34.708],[2.39953,48.687478,34.679],[2.399799,48.687708,34.612],[2.4002,48.687951,35.559],[2.400497,48.688037,36.147],[2.400641,48.688033,36.408],[2.400793,48.688016,36.688],[2.401083,48.688044,37.218],[2.401253,48.688034,37.528],[2.401435,48.687987,37.882],[2.401622,48.687976,38.222],[2.401964,48.68793,38.854],[2.402119,48.687889,39.157],[2.402266,48.687861,39.434],[2.402422,48.687848,39.745],[2.402579,48.687844,40.074],[2.402878,48.687806,40.71],[2.403115,48.687705,41.3],[2.403402,48.687707,41.9],[2.403719,48.68769,42.565],[2.403993,48.687654,43.149],[2.404314,48.687653,43.82],[2.404465,48.687624,44.148],[2.404602,48.687621,44.435],[2.404747,48.687584,44.76],[2.404891,48.687579,45.061],[2.405052,48.687561,45.361],[2.405208,48.687573,45.606],[2.405492,48.687541,46.055],[2.405642,48.687544,46.288],[2.40595,48.687505,46.777],[2.406097,48.687494,47.007],[2.406252,48.687464,47.259],[2.406359,48.6874,47.484],[2.406436,48.687324,47.699],[2.406553,48.687256,47.942],[2.406691,48.68723,48.166],[2.406831,48.687218,48.386],[2.406992,48.68723,48.638],[2.407127,48.687182,48.877],[2.407223,48.687246,49.089],[2.407176,48.687342,49.327],[2.40719,48.68744,49.521],[2.40723,48.687531,49.634],[2.407259,48.687655,49.783],[2.407263,48.687754,49.9],[2.407231,48.687842,50.008],[2.407233,48.687935,50.118],[2.407218,48.688025,50.226],[2.407228,48.688124,50.343],[2.407299,48.68832,50.583],[2.40739,48.688403,50.704],[2.407552,48.68841,50.832],[2.407734,48.6884,50.975],[2.408221,48.688442,51.36],[2.408668,48.688361,51.73],[2.408823,48.688345,51.86],[2.408973,48.688061,52.239],[2.40909,48.687983,52.377],[2.409262,48.687738,52.717],[2.409308,48.687638,52.848],[2.409307,48.687537,52.975],[2.409443,48.687501,53.097],[2.40954,48.687565,53.211],[2.409677,48.68763,53.351],[2.409868,48.687796,53.613],[2.410025,48.687867,53.772],[2.410166,48.687887,53.887],[2.410301,48.687878,53.949],[2.410471,48.687903,54.029],[2.410842,48.687877,54.2],[2.411032,48.687881,54.287],[2.411207,48.687863,54.369],[2.411377,48.687859,54.447],[2.411721,48.687812,54.608],[2.411892,48.687797,54.687],[2.412066,48.687802,54.767],[2.412233,48.687793,54.844],[2.412559,48.687759,54.996],[2.412709,48.687736,55.066],[2.412867,48.687724,55.138],[2.413168,48.687715,55.25],[2.413516,48.687655,55.383],[2.413858,48.687635,55.511],[2.413996,48.687617,55.563],[2.414139,48.687617,55.616],[2.414301,48.6876,55.677],[2.414621,48.687585,55.796],[2.414914,48.68755,55.907],[2.415063,48.687546,55.962],[2.415205,48.687529,56.016],[2.415349,48.687475,56.077],[2.41549,48.687473,56.13],[2.415658,48.68745,56.226],[2.415944,48.687438,56.403],[2.416271,48.687401,56.608],[2.41643,48.6874,56.706],[2.416895,48.687369,56.995],[2.417054,48.687377,57.093],[2.417195,48.687366,57.181],[2.41735,48.687336,57.28],[2.417796,48.687346,57.556],[2.417934,48.687313,57.646],[2.418637,48.687586,58.155],[2.418936,48.687694,58.368],[2.419069,48.687771,58.479],[2.4192,48.687821,58.574],[2.419305,48.687886,58.664],[2.419428,48.687937,58.755],[2.419521,48.688017,58.851],[2.419635,48.688077,58.942],[2.41978,48.688108,59.038],[2.420084,48.688081,59.23],[2.420224,48.688048,59.323],[2.420361,48.687993,59.424],[2.420566,48.687854,59.545],[2.420681,48.687805,59.559],[2.420839,48.687807,59.577],[2.42103,48.688006,59.615],[2.421128,48.688085,59.632],[2.42147,48.688314,59.685],[2.421591,48.688383,59.702],[2.421905,48.688632,59.756],[2.42202,48.688706,59.773],[2.422245,48.688822,59.804],[2.422353,48.688896,59.821],[2.422418,48.688983,59.827],[2.422523,48.689081,59.827],[2.422933,48.689405,59.827],[2.422944,48.689512,59.827],[2.422645,48.689766,59.827],[2.422533,48.689873,59.827],[2.422465,48.689964,59.827],[2.422457,48.690055,59.827],[2.422385,48.690171,59.827],[2.422465,48.690247,59.827],[2.422619,48.690253,59.827],[2.422681,48.690347,59.827],[2.422806,48.690388,59.827]]}}]}