{"type":"FeatureCollection","features":[{"type":"Feature","properties":{"name":"La course pour aller au cinoche","type":"marche","time":"2025-08-05T16:53:50Z","coordTimes":["2025-08-05T16:53:50Z","2025-08-05T16:54:10Z","2025-08-05T16:54:12Z","2025-08-05T16:54:14Z","2025-08-05T16:54:16Z","2025-08-05T16:54:21Z","2025-08-05T16:54:23Z","2025-08-05T16:54:25Z","2025-08-05T16:54:26Z","2025-08-05T16:54:31Z","2025-08-05T16:54:40Z","2025-08-05T16:54:44Z","2025-08-05T16:54:45Z","2025-08-05T16:54:50Z","2025-08-05T16:54:51Z","2025-08-05T16:54:54Z","2025-08-05T16:54:58Z","2025-08-05T16:55:01Z","2025-08-05T16:55:03Z","2025-08-05T16:55:05Z","2025-08-05T16:55:07Z","2025-08-05T16:55:09Z","2025-08-05T16:55:11Z","2025-08-05T16:55:17Z","2025-08-05T16:55:18Z","2025-08-05T16:55:20Z","2025-08-05T16:55:27Z","2025-08-05T16:55:33Z","2025-08-05T16:55:35Z","2025-08-05T16:55:38Z","2025-08-05T16:55:40Z","2025-08-05T16:55:42Z","2025-08-05T16:55:46Z","2025-08-05T16:55:50Z","2025-08-05T16:56:00Z","2025-08-05T16:56:04Z","2025-08-05T16:56:11Z","2025-08-05T16:56:13Z","2025-08-05T16:56:15Z","2025-08-05T16:56:18Z","2025-08-05T16:56:21Z","2025-08-05T16:56:24Z","2025-08-05T16:56:28Z","2025-08-05T16:56:30Z","2025-08-05T16:56:33Z","2025-08-05T16:56:37Z","2025-08-05T16:56:42Z","2025-08-05T16:56:48Z","2025-08-05T16:56:54Z","2025-08-05T16:57:01Z","2025-08-05T16:57:02Z","2025-08-05T16:57:04Z","2025-08-05T16:57:05Z","2025-08-05T16:57:06Z","2025-08-05T16:57:09Z","2025-08-05T16:57:10Z","2025-08-05T16:57:11Z","2025-08-05T16:57:14Z","2025-08-05T16:57:15Z","2025-08-05T16:57:17Z","2025-08-05T16:57:20Z","2025-08-05T16:57:25Z","2025-08-05T16:57:27Z","2025-08-05T16:57:28Z","2025-08-05T16:57:33Z","2025-08-05T16:57:34Z","2025-08-05T16:57:35Z","2025-08-05T16:57:37Z","2025-08-05T16:57:41Z","2025-08-05T16:57:42Z","2025-08-05T16:57:44Z","2025-08-05T16:57:46Z","2025-08-05T16:57:47Z","2025-08-05T16:57:50Z","2025-08-05T16:57:55Z","2025-08-05T16:57:57Z","2025-08-05T16:58:00Z","2025-08-05T16:58:01Z","2025-08-05T16:58:02Z","2025-08-05T16:58:03Z","2025-08-05T16:58:08Z","2025-08-05T16:58:14Z","2025-08-05T16:58:17Z","2025-08-05T16:58:22Z","2025-08-05T16:58:23Z","2025-08-05T16:58:26Z","2025-08-05T16:58:27Z","2025-08-05T16:58:28Z","2025-08-05T16:58:29Z","2025-08-05T16:58:32Z","2025-08-05T16:58:38Z","2025-08-05T16:58:41Z","2025-08-05T16:58:43Z","2025-08-05T16:58:46Z","2025-08-05T16:58:47Z","2025-08-05T16:58:49Z","2025-08-05T16:58:53Z","2025-08-05T16:58:57Z","2025-08-05T16:59:01Z","2025-08-05T16:59:02Z","2025-08-05T16:59:03Z","2025-08-05T16:59:05Z","2025-08-05T16:59:09Z","2025-08-05T16:59:15Z","2025-08-05T16:59:21Z","2025-08-05T16:59:24Z","2025-08-05T16:59:27Z","2025-08-05T16:59:37Z","2025-08-05T16:59:40Z","2025-08-05T16:59:42Z","2025-08-05T17:00:04Z","2025-08-05T17:00:14Z","2025-08-05T17:00:16Z","2025-08-05T17:00:17Z","2025-08-05T17:00:18Z","2025-08-05T17:00:28Z","2025-08-05T17:00:35Z","2025-08-05T17:00:36Z","2025-08-05T17:00:39Z","2025-08-05T17:00:41Z","2025-08-05T17:00:42Z","2025-08-05T17:00:44Z","2025-08-05T17:00:47Z","2025-08-05T17:00:49Z","2025-08-05T17:00:51Z","2025-08-05T17:00:56Z","2025-08-05T17:01:05Z","2025-08-05T17:01:08Z","2025-08-05T17:01:10Z","2025-08-05T17:01:18Z","2025-08-05T17:01:19Z","2025-08-05T17:01:24Z","2025-08-05T17:01:29Z","2025-08-05T17:01:30Z","2025-08-05T17:01:47Z","2025-08-05T17:01:50Z","2025-08-05T17:01:55Z","2025-08-05T17:02:09Z","2025-08-05T17:02:12Z","2025-08-05T17:02:17Z","2025-08-05T17:02:24Z","2025-08-05T17:02:32Z","2025-08-05T17:02:35Z","2025-08-05T17:02:37Z","2025-08-05T17:02:43Z","2025-08-05T17:02:53Z","2025-08-05T17:02:54Z","2025-08-05T17:02:56Z","2025-08-05T17:02:57Z","2025-08-05T17:02:58Z","2025-08-05T17:03:01Z","2025-08-05T17:03:03Z","2025-08-05T17:03:04Z","2025-08-05T17:03:06Z","2025-08-05T17:03:09Z","2025-08-05T17:03:13Z","2025-08-05T17:03:15Z","2025-08-05T17:03:16Z","2025-08-05T17:03:17Z","2025-08-05T17:03:18Z","2025-08-05T17:03:22Z","2025-08-05T17:03:25Z","2025-08-05T17:03:28Z","2025-08-05T17:03:31Z","2025-08-05T17:03:34Z","2025-08-05T17:03:37Z","2025-08-05T17:03:40Z","2025-08-05T17:03:41Z","2025-08-05T17:03:51Z","2025-08-05T17:03:53Z","2025-08-05T17:03:55Z","2025-08-05T17:04:00Z","2025-08-05T17:04:04Z","2025-08-05T17:04:06Z","2025-08-05T17:04:07Z","2025-08-05T17:04:09Z","2025-08-05T17:04:10Z","2025-08-05T17:04:13Z","2025-08-05T17:04:20Z","2025-08-05T17:04:23Z","2025-08-05T17:04:31Z","2025-08-05T17:04:32Z","2025-08-05T17:04:34Z","2025-08-05T17:04:37Z","2025-08-05T17:04:39Z","2025-08-05T17:04:40Z","2025-08-05T17:04:44Z","2025-08-05T17:04:47Z","2025-08-05T17:04:58Z","2025-08-05T17:04:59Z","2025-08-05T17:05:03Z","2025-08-05T17:05:10Z","2025-08-05T17:05:11Z","2025-08-05T17:05:13Z","2025-08-05T17:05:16Z","2025-08-05T17:05:26Z","2025-08-05T17:05:29Z","2025-08-05T17:05:35Z","2025-08-05T17:05:54Z","2025-08-05T17:06:03Z","2025-08-05T17:06:05Z","2025-08-05T17:06:09Z","2025-08-05T17:06:14Z","2025-08-05T17:06:18Z"],"heartRates":[119,122,122,120,120,120,120,120,120,114,110,109,109,107,107,107,106,106,105,105,105,109,109,106,106,103,101,100,100,99,99,99,99,100,100,100,100,100,98,99,99,99,99,99,99,99,98,100,101,100,100,100,100,100,100,100,100,101,101,101,101,101,101,101,104,105,105,105,103,103,103,103,103,103,104,104,105,105,105,105,105,103,103,103,104,104,104,104,104,104,105,105,105,102,100,100,100,100,105,105,105,108,104,103,108,108,108,98,98,98,103,103,104,105,105,103,107,107,107,108,108,108,109,109,110,112,112,112,113,113,113,115,115,116,115,116,116,110,109,111,110,108,108,108,110,111,111,111,111,111,111,112,112,112,111,111,111,111,111,111,109,109,108,108,108,108,114,114,113,112,112,112,112,103,103,103,103,103,111,111,116,116,118,118,118,118,120,120,119,119,118,117,117,119,119,118,115,115,117,114,113,113,112,114]},"geometry":{"type":"LineString","coordinates":[[2.3896,48.838933,46],[2.389575,48.838851,45.8],[2.389576,48.838807,45.7],[2.389547,48.838769,45.6],[2.38957,48.83867,45],[2.389467,48.838613,44.5],[2.38945,48.83859,45],[2.389417,48.83857,45.2],[2.389443,48.838538,45.3],[2.389371,48.838471,45.5],[2.38922,48.838392,45.8],[2.389163,48.838377,45.9],[2.389159,48.838366,45.9],[2.389043,48.838334,46.1],[2.389037,48.838341,46.1],[2.388966,48.838315,46.2],[2.388927,48.838323,45.8],[2.388875,48.838305,45.1],[2.388841,48.838304,44.6],[2.3888,48.838282,42.3],[2.388796,48.838248,42.3],[2.388783,48.838235,42.2],[2.388814,48.838211,42.1],[2.388952,48.83817,41.9],[2.388978,48.83817,41.8],[2.389027,48.838153,41.7],[2.389113,48.838086,41.5],[2.389176,48.837995,41.2],[2.389176,48.83797,41.1],[2.389221,48.837943,41],[2.389254,48.83794,40.9],[2.389284,48.837921,40.8],[2.389338,48.837862,40.6],[2.389384,48.837835,40.5],[2.389507,48.837716,40.2],[2.389576,48.837681,40.1],[2.389622,48.83761,39.9],[2.389653,48.837599,39.8],[2.389665,48.837578,39.8],[2.389706,48.837552,39.7],[2.389759,48.837501,39.5],[2.389786,48.837458,39.4],[2.389827,48.837425,39.2],[2.389859,48.837414,39.2],[2.389888,48.837381,39.1],[2.389925,48.83731,38.9],[2.389967,48.837274,38.8],[2.390022,48.837193,38.6],[2.389987,48.83711,38.4],[2.38987,48.837039,38.1],[2.389856,48.83702,38],[2.389836,48.837011,38],[2.389833,48.836997,38],[2.389854,48.837004,38],[2.389819,48.836969,37.9],[2.389738,48.836947,37.9],[2.389752,48.836925,37.8],[2.389671,48.836948,37.8],[2.389641,48.83695,37.7],[2.389578,48.836974,37.7],[2.389478,48.836911,37.7],[2.389398,48.836828,37.6],[2.389366,48.836808,37.6],[2.389346,48.836783,37.6],[2.389329,48.836725,37.6],[2.389353,48.836723,37.6],[2.389361,48.836714,37.6],[2.389305,48.836725,37.6],[2.389282,48.836685,37.6],[2.389264,48.836684,37.6],[2.389247,48.83666,37.6],[2.389172,48.836659,37.5],[2.389192,48.836679,37.5],[2.389129,48.836734,37.5],[2.388874,48.836782,37.5],[2.388847,48.836795,37.4],[2.388801,48.836792,37.4],[2.388804,48.83678,37.4],[2.38879,48.836776,37.4],[2.388739,48.836719,37.4],[2.388524,48.836661,37.2],[2.388422,48.836688,37.2],[2.388358,48.836691,37.2],[2.388273,48.836668,37.1],[2.388282,48.836681,37.1],[2.388223,48.836654,37.1],[2.388242,48.836646,37.1],[2.388227,48.836631,37.1],[2.388185,48.836619,37.1],[2.38813,48.836567,37.1],[2.388029,48.836502,37.1],[2.387967,48.836474,37.1],[2.387919,48.836462,37.1],[2.387824,48.836487,37.1],[2.387812,48.836479,37.1],[2.387826,48.836463,37.1],[2.387801,48.83646,37.1],[2.387787,48.836381,37.1],[2.387717,48.836357,37],[2.387687,48.836325,37],[2.387664,48.836315,37],[2.387662,48.836241,37],[2.387625,48.83619,36.9],[2.387566,48.836153,36.9],[2.387549,48.83611,36.9],[2.387572,48.836117,36.9],[2.387565,48.836107,36.9],[2.387581,48.836116,36.9],[2.387573,48.836117,36.9],[2.38759,48.836125,36.9],[2.387534,48.836091,36.9],[2.387413,48.836089,36.9],[2.387372,48.836059,36.9],[2.387359,48.836156,36.9],[2.387334,48.836145,36.9],[2.387272,48.836083,36.9],[2.38726,48.836014,36.9],[2.387232,48.836009,36.9],[2.387156,48.835887,36.9],[2.387129,48.835869,36.9],[2.387123,48.835852,37],[2.387051,48.83581,37],[2.386979,48.835788,37.1],[2.386991,48.83577,37.1],[2.387031,48.835744,37.1],[2.387057,48.835669,37.2],[2.387161,48.835549,37.3],[2.387198,48.835535,37.4],[2.387216,48.835508,37.4],[2.387342,48.835433,37.6],[2.387342,48.835415,37.6],[2.387291,48.835304,37.8],[2.387274,48.835221,38],[2.387243,48.835197,38],[2.386981,48.835051,37.8],[2.386922,48.835029,37.7],[2.386843,48.834977,37.6],[2.386649,48.834872,37.4],[2.386647,48.834844,37.4],[2.386574,48.8348,37.3],[2.386401,48.834753,37.3],[2.386266,48.834699,37.3],[2.386214,48.834687,37.3],[2.386182,48.834657,37.3],[2.386163,48.834569,37.2],[2.386048,48.834448,37],[2.386024,48.834445,37],[2.386004,48.834425,36.9],[2.386002,48.834408,36.9],[2.385957,48.834421,36.8],[2.385912,48.834401,36.8],[2.385859,48.834422,36.7],[2.385852,48.834406,36.7],[2.385826,48.83439,36.6],[2.385797,48.834344,36.6],[2.38572,48.834319,36.5],[2.385666,48.834312,36.4],[2.385673,48.834289,36.4],[2.385662,48.834283,36.4],[2.385658,48.834258,36.3],[2.385619,48.834225,36.3],[2.385621,48.834179,36.3],[2.38567,48.834138,36.2],[2.385688,48.834106,36.2],[2.385737,48.83408,36.2],[2.385775,48.834047,36.2],[2.385828,48.834022,36.2],[2.385852,48.83402,36.2],[2.38602,48.833946,36.3],[2.386056,48.833911,36.4],[2.38608,48.833903,36.4],[2.38615,48.833835,36.5],[2.386207,48.833807,36.5],[2.386216,48.833783,36.5],[2.386234,48.833777,36.5],[2.386256,48.833754,36.5],[2.386253,48.833737,36.5],[2.38631,48.833699,36.5],[2.386345,48.833613,36.5],[2.386388,48.833604,36.5],[2.386346,48.833499,36.4],[2.386348,48.833476,36.4],[2.386367,48.833448,36.5],[2.386401,48.833431,36.6],[2.386416,48.83341,36.7],[2.386398,48.833402,36.7],[2.386437,48.833367,36.9],[2.386494,48.833336,37],[2.386611,48.833253,37.2],[2.386612,48.833237,37.2],[2.38655,48.833189,37.1],[2.386488,48.833102,36.8],[2.386471,48.833093,36.8],[2.386451,48.833064,36.7],[2.386417,48.833044,36.6],[2.3863,48.832926,36.2],[2.386258,48.832902,36.1],[2.386198,48.832833,35.9],[2.385961,48.832625,35.7],[2.385867,48.832527,35.7],[2.385853,48.832502,35.7],[2.385821,48.832483,35.7],[2.385797,48.832455,35.7],[2.385779,48.832464,35.7]]}}]}