{"type":"FeatureCollection","features":[{"type":"Feature","properties":{"name":"unnamed","time":"2008-07-06T08:00:52Z","coordTimes":["2008-07-06T08:00:52Z","2008-07-06T08:01:03Z","2008-07-06T08:01:14Z","2008-07-06T08:01:28Z","2008-07-06T08:01:43Z","2008-07-06T08:02:03Z","2008-07-06T08:02:15Z","2008-07-06T08:02:26Z","2008-07-06T08:02:37Z","2008-07-06T08:02:53Z","2008-07-06T08:03:41Z","2008-07-06T08:04:19Z","2008-07-06T08:04:52Z","2008-07-06T08:05:16Z","2008-07-06T08:05:39Z","2008-07-06T08:06:02Z","2008-07-06T08:10:09Z","2008-07-06T08:10:32Z","2008-07-06T08:10:54Z","2008-07-06T08:11:11Z","2008-07-06T08:11:35Z","2008-07-06T08:11:50Z","2008-07-06T08:12:48Z","2008-07-06T08:13:10Z","2008-07-06T08:13:43Z","2008-07-06T08:14:04Z","2008-07-06T08:14:19Z","2008-07-06T08:14:39Z","2008-07-06T08:14:58Z","2008-07-06T08:15:27Z","2008-07-06T08:16:16Z","2008-07-06T08:16:48Z","2008-07-06T08:17:19Z","2008-07-06T08:17:33Z","2008-07-06T08:17:50Z","2008-07-06T08:18:24Z","2008-07-06T08:18:50Z","2008-07-06T08:19:08Z","2008-07-06T08:19:29Z","2008-07-06T08:19:45Z","2008-07-06T08:20:01Z","2008-07-06T08:20:19Z","2008-07-06T08:20:38Z","2008-07-06T08:21:02Z","2008-07-06T08:21:20Z","2008-07-06T08:21:35Z","2008-07-06T08:21:50Z","2008-07-06T08:22:08Z","2008-07-06T08:22:17Z","2008-07-06T08:22:20Z","2008-07-06T08:22:27Z","2008-07-06T08:22:32Z","2008-07-06T08:22:41Z","2008-07-06T08:22:44Z","2008-07-06T08:22:48Z","2008-07-06T08:22:57Z","2008-07-06T08:23:00Z","2008-07-06T08:23:25Z","2008-07-06T08:23:37Z","2008-07-06T08:23:40Z","2008-07-06T08:23:51Z","2008-07-06T08:24:01Z","2008-07-06T08:24:11Z","2008-07-06T08:24:21Z","2008-07-06T08:24:25Z","2008-07-06T08:24:34Z","2008-07-06T08:24:46Z","2008-07-06T08:24:54Z","2008-07-06T08:24:58Z","2008-07-06T08:25:09Z","2008-07-06T08:25:22Z","2008-07-06T08:25:31Z","2008-07-06T08:25:37Z","2008-07-06T08:25:42Z","2008-07-06T08:25:45Z","2008-07-06T08:25:55Z","2008-07-06T08:26:10Z","2008-07-06T08:26:21Z","2008-07-06T08:26:36Z","2008-07-06T08:26:40Z","2008-07-06T08:26:47Z","2008-07-06T08:26:58Z","2008-07-06T08:27:10Z","2008-07-06T08:27:12Z","2008-07-06T08:27:22Z","2008-07-06T08:27:23Z","2008-07-06T08:27:26Z","2008-07-06T08:27:34Z","2008-07-06T08:27:43Z","2008-07-06T08:27:52Z","2008-07-06T08:28:19Z","2008-07-06T08:28:30Z","2008-07-06T08:28:44Z","2008-07-06T08:28:53Z","2008-07-06T08:28:56Z","2008-07-06T08:29:07Z","2008-07-06T08:29:19Z","2008-07-06T08:29:34Z","2008-07-06T08:29:43Z","2008-07-06T08:30:01Z","2008-07-06T08:30:11Z","2008-07-06T08:30:17Z","2008-07-06T08:30:19Z","2008-07-06T08:30:30Z","2008-07-06T08:30:39Z","2008-07-06T08:30:50Z","2008-07-06T08:30:59Z","2008-07-06T08:31:09Z","2008-07-06T08:31:20Z","2008-07-06T08:31:22Z","2008-07-06T08:31:34Z","2008-07-06T08:31:47Z","2008-07-06T08:31:58Z","2008-07-06T08:32:09Z","2008-07-06T08:32:21Z","2008-07-06T08:32:33Z","2008-07-06T08:32:45Z","2008-07-06T08:32:57Z","2008-07-06T08:33:08Z","2008-07-06T08:33:17Z","2008-07-06T08:33:30Z","2008-07-06T08:33:44Z","2008-07-06T08:34:08Z","2008-07-06T08:34:57Z","2008-07-06T08:35:09Z","2008-07-06T08:35:12Z","2008-07-06T08:35:23Z","2008-07-06T08:35:32Z","2008-07-06T08:35:40Z","2008-07-06T08:35:50Z","2008-07-06T08:36:19Z","2008-07-06T08:36:32Z","2008-07-06T08:36:45Z","2008-07-06T08:37:00Z","2008-07-06T08:37:11Z","2008-07-06T08:37:17Z","2008-07-06T08:37:28Z","2008-07-06T08:37:37Z","2008-07-06T08:37:41Z","2008-07-06T08:38:01Z","2008-07-06T08:38:10Z","2008-07-06T08:38:25Z","2008-07-06T08:38:36Z","2008-07-06T08:38:46Z","2008-07-06T08:38:57Z","2008-07-06T08:39:09Z","2008-07-06T08:39:17Z","2008-07-06T08:39:28Z","2008-07-06T08:39:39Z","2008-07-06T08:39:53Z","2008-07-06T08:40:03Z","2008-07-06T08:40:15Z","2008-07-06T08:40:17Z","2008-07-06T08:40:26Z","2008-07-06T08:40:48Z","2008-07-06T08:40:53Z","2008-07-06T08:41:07Z","2008-07-06T08:41:11Z","2008-07-06T08:41:28Z","2008-07-06T08:41:40Z","2008-07-06T08:41:48Z","2008-07-06T08:41:53Z","2008-07-06T08:42:03Z","2008-07-06T08:42:11Z","2008-07-06T08:42:18Z","2008-07-06T08:42:23Z","2008-07-06T08:42:28Z","2008-07-06T08:42:33Z","2008-07-06T08:42:44Z","2008-07-06T08:42:55Z","2008-07-06T08:43:12Z","2008-07-06T08:43:20Z","2008-07-06T08:43:31Z","2008-07-06T08:43:41Z","2008-07-06T08:43:42Z","2008-07-06T08:43:50Z","2008-07-06T08:44:04Z","2008-07-06T08:44:14Z","2008-07-06T08:44:23Z","2008-07-06T08:44:36Z","2008-07-06T08:44:46Z","2008-07-06T08:44:55Z","2008-07-06T08:45:05Z","2008-07-06T08:45:15Z","2008-07-06T08:45:27Z","2008-07-06T08:45:37Z","2008-07-06T08:45:47Z","2008-07-06T08:46:08Z","2008-07-06T08:46:32Z","2008-07-06T08:46:43Z","2008-07-06T08:46:52Z","2008-07-06T08:47:02Z","2008-07-06T08:47:13Z","2008-07-06T08:47:25Z","2008-07-06T08:47:36Z","2008-07-06T08:47:58Z","2008-07-06T08:48:10Z","2008-07-06T08:48:15Z","2008-07-06T08:48:26Z","2008-07-06T08:48:38Z","2008-07-06T08:49:08Z","2008-07-06T08:49:19Z","2008-07-06T08:49:37Z","2008-07-06T08:49:40Z","2008-07-06T08:49:51Z","2008-07-06T08:50:04Z","2008-07-06T08:50:16Z","2008-07-06T08:50:22Z","2008-07-06T08:50:31Z","2008-07-06T08:50:39Z","2008-07-06T08:50:59Z","2008-07-06T08:51:09Z","2008-07-06T08:51:22Z","2008-07-06T08:51:28Z","2008-07-06T08:51:35Z","2008-07-06T08:51:46Z","2008-07-06T08:51:56Z","2008-07-06T08:52:02Z","2008-07-06T08:52:15Z","2008-07-06T08:52:28Z","2008-07-06T08:52:40Z","2008-07-06T08:52:52Z","2008-07-06T08:53:07Z","2008-07-06T08:53:19Z","2008-07-06T08:53:29Z","2008-07-06T08:53:42Z","2008-07-06T08:53:46Z","2008-07-06T08:54:11Z","2008-07-06T08:54:22Z","2008-07-06T08:54:33Z","2008-07-06T08:54:50Z","2008-07-06T08:55:02Z","2008-07-06T08:55:14Z","2008-07-06T08:55:22Z","2008-07-06T08:55:33Z","2008-07-06T08:55:34Z","2008-07-06T08:55:45Z","2008-07-06T08:55:58Z","2008-07-06T08:56:03Z","2008-07-06T08:56:15Z","2008-07-06T08:56:31Z","2008-07-06T08:56:45Z","2008-07-06T08:57:13Z","2008-07-06T08:57:24Z","2008-07-06T08:57:38Z","2008-07-06T08:57:42Z","2008-07-06T08:57:45Z","2008-07-06T08:57:53Z","2008-07-06T08:58:07Z","2008-07-06T08:58:33Z","2008-07-06T08:58:37Z","2008-07-06T08:58:48Z","2008-07-06T08:58:56Z","2008-07-06T08:58:58Z","2008-07-06T08:59:04Z","2008-07-06T08:59:06Z","2008-07-06T08:59:14Z","2008-07-06T08:59:25Z","2008-07-06T08:59:32Z","2008-07-06T08:59:34Z","2008-07-06T08:59:42Z","2008-07-06T09:00:01Z","2008-07-06T09:05:37Z","2008-07-06T09:05:43Z","2008-07-06T09:06:08Z","2008-07-06T09:06:12Z","2008-07-06T09:06:25Z","2008-07-06T09:06:35Z","2008-07-06T09:06:46Z","2008-07-06T09:06:49Z","2008-07-06T09:07:09Z","2008-07-06T09:07:19Z","2008-07-06T09:07:21Z","2008-07-06T09:07:32Z","2008-07-06T09:07:44Z","2008-07-06T09:08:06Z","2008-07-06T09:08:08Z","2008-07-06T09:08:16Z","2008-07-06T09:08:32Z","2008-07-06T09:08:37Z","2008-07-06T09:08:48Z","2008-07-06T09:09:00Z","2008-07-06T09:09:10Z","2008-07-06T09:09:21Z","2008-07-06T09:09:55Z","2008-07-06T09:10:07Z","2008-07-06T09:10:22Z","2008-07-06T09:10:27Z","2008-07-06T09:10:38Z","2008-07-06T09:11:03Z","2008-07-06T09:11:13Z","2008-07-06T09:11:26Z","2008-07-06T09:11:47Z","2008-07-06T09:11:59Z","2008-07-06T09:12:13Z","2008-07-06T09:12:14Z","2008-07-06T09:12:25Z","2008-07-06T09:12:39Z","2008-07-06T09:12:50Z","2008-07-06T09:13:03Z","2008-07-06T09:13:18Z","2008-07-06T09:13:30Z","2008-07-06T09:13:46Z","2008-07-06T09:14:01Z","2008-07-06T09:14:14Z","2008-07-06T09:14:40Z","2008-07-06T09:14:55Z","2008-07-06T09:15:08Z","2008-07-06T09:15:13Z","2008-07-06T09:15:28Z","2008-07-06T09:15:42Z","2008-07-06T09:15:59Z","2008-07-06T09:16:23Z","2008-07-06T09:16:33Z","2008-07-06T09:16:58Z","2008-07-06T09:17:08Z","2008-07-06T09:17:19Z","2008-07-06T09:17:32Z","2008-07-06T09:17:44Z","2008-07-06T09:18:09Z","2008-07-06T09:18:21Z","2008-07-06T09:18:32Z","2008-07-06T09:18:42Z","2008-07-06T09:18:55Z","2008-07-06T09:19:08Z","2008-07-06T09:19:22Z","2008-07-06T09:19:37Z","2008-07-06T09:19:50Z","2008-07-06T09:20:20Z","2008-07-06T09:20:36Z","2008-07-06T09:20:48Z","2008-07-06T09:21:03Z","2008-07-06T09:21:18Z","2008-07-06T09:21:46Z","2008-07-06T09:21:59Z","2008-07-06T09:22:08Z","2008-07-06T09:22:17Z","2008-07-06T09:22:44Z","2008-07-06T09:22:56Z","2008-07-06T09:23:06Z","2008-07-06T09:23:30Z","2008-07-06T09:23:52Z","2008-07-06T09:24:01Z","2008-07-06T09:24:10Z","2008-07-06T09:24:22Z","2008-07-06T09:24:27Z","2008-07-06T09:24:38Z","2008-07-06T09:24:49Z","2008-07-06T09:25:01Z","2008-07-06T09:25:16Z","2008-07-06T09:25:30Z","2008-07-06T09:25:41Z","2008-07-06T09:25:57Z","2008-07-06T09:26:18Z","2008-07-06T09:27:11Z","2008-07-06T09:28:39Z","2008-07-06T09:28:51Z","2008-07-06T09:29:17Z","2008-07-06T09:29:29Z","2008-07-06T09:30:01Z","2008-07-06T09:30:21Z","2008-07-06T09:30:32Z","2008-07-06T09:30:43Z","2008-07-06T09:30:56Z","2008-07-06T09:31:06Z","2008-07-06T09:31:32Z","2008-07-06T09:31:45Z","2008-07-06T09:31:55Z","2008-07-06T09:32:04Z","2008-07-06T09:32:30Z","2008-07-06T09:32:55Z","2008-07-06T09:33:04Z","2008-07-06T09:33:05Z","2008-07-06T09:33:17Z","2008-07-06T09:33:25Z","2008-07-06T09:33:35Z","2008-07-06T09:34:11Z","2008-07-06T09:34:22Z","2008-07-06T09:34:34Z","2008-07-06T09:34:46Z","2008-07-06T09:34:56Z","2008-07-06T09:35:18Z","2008-07-06T09:35:37Z","2008-07-06T09:35:49Z","2008-07-06T09:36:01Z","2008-07-06T09:36:19Z","2008-07-06T09:36:28Z","2008-07-06T09:36:41Z","2008-07-06T09:37:00Z","2008-07-06T09:37:13Z","2008-07-06T09:37:26Z","2008-07-06T09:37:40Z","2008-07-06T09:38:01Z","2008-07-06T09:38:13Z","2008-07-06T09:38:36Z","2008-07-06T09:39:01Z","2008-07-06T09:39:05Z","2008-07-06T09:39:16Z","2008-07-06T09:39:22Z","2008-07-06T09:39:33Z","2008-07-06T09:39:58Z","2008-07-06T09:40:18Z","2008-07-06T09:40:31Z","2008-07-06T09:40:45Z","2008-07-06T09:40:54Z","2008-07-06T09:41:06Z","2008-07-06T09:41:16Z","2008-07-06T09:41:32Z","2008-07-06T09:41:44Z","2008-07-06T09:41:57Z","2008-07-06T09:42:13Z","2008-07-06T09:42:26Z","2008-07-06T09:42:34Z","2008-07-06T09:42:44Z","2008-07-06T09:43:00Z","2008-07-06T09:43:23Z","2008-07-06T09:43:37Z","2008-07-06T09:43:59Z","2008-07-06T09:44:13Z","2008-07-06T09:44:25Z","2008-07-06T09:44:38Z","2008-07-06T09:45:01Z","2008-07-06T09:45:15Z","2008-07-06T09:45:30Z","2008-07-06T09:45:58Z","2008-07-06T09:46:17Z","2008-07-06T09:49:01Z","2008-07-06T09:49:53Z","2008-07-06T09:50:10Z","2008-07-06T09:51:13Z","2008-07-06T09:51:43Z","2008-07-06T09:53:14Z","2008-07-06T09:53:46Z","2008-07-06T09:54:04Z","2008-07-06T09:54:34Z","2008-07-06T09:54:47Z","2008-07-06T09:55:03Z","2008-07-06T09:55:34Z","2008-07-06T09:56:16Z","2008-07-06T09:56:38Z","2008-07-06T09:56:58Z","2008-07-06T09:57:37Z","2008-07-06T10:02:59Z","2008-07-06T10:03:28Z","2008-07-06T10:03:47Z","2008-07-06T10:04:05Z","2008-07-06T10:04:36Z","2008-07-06T10:05:05Z","2008-07-06T10:05:26Z","2008-07-06T10:05:48Z","2008-07-06T10:07:40Z","2008-07-06T10:08:02Z","2008-07-06T10:08:47Z","2008-07-06T10:09:25Z","2008-07-06T10:09:49Z","2008-07-06T10:10:13Z","2008-07-06T10:10:35Z","2008-07-06T10:11:16Z","2008-07-06T10:12:35Z","2008-07-06T10:13:29Z","2008-07-06T10:13:49Z","2008-07-06T10:14:24Z","2008-07-06T10:15:25Z","2008-07-06T10:16:02Z","2008-07-06T10:16:55Z","2008-07-06T10:17:38Z","2008-07-06T10:17:58Z","2008-07-06T10:18:13Z","2008-07-06T10:18:36Z","2008-07-06T10:18:58Z","2008-07-06T10:19:20Z","2008-07-06T10:19:34Z","2008-07-06T10:19:58Z","2008-07-06T10:20:16Z","2008-07-06T10:20:35Z","2008-07-06T10:21:01Z","2008-07-06T10:21:27Z","2008-07-06T10:23:06Z","2008-07-06T10:23:49Z","2008-07-06T10:24:09Z","2008-07-06T10:24:26Z","2008-07-06T10:26:00Z","2008-07-06T10:26:21Z","2008-07-06T10:26:51Z","2008-07-06T10:27:18Z","2008-07-06T10:27:54Z","2008-07-06T10:28:34Z","2008-07-06T10:29:01Z","2008-07-06T10:29:26Z","2008-07-06T10:30:22Z","2008-07-06T10:30:42Z","2008-07-06T10:31:03Z","2008-07-06T10:32:02Z","2008-07-06T10:32:29Z","2008-07-06T10:32:56Z","2008-07-06T10:33:16Z","2008-07-06T10:33:31Z","2008-07-06T10:33:46Z","2008-07-06T10:34:26Z","2008-07-06T10:35:27Z","2008-07-06T10:37:22Z","2008-07-06T10:38:01Z","2008-07-06T10:38:41Z","2008-07-06T10:38:58Z","2008-07-06T10:39:42Z","2008-07-06T10:40:09Z","2008-07-06T10:40:44Z","2008-07-06T10:42:48Z","2008-07-06T10:43:10Z","2008-07-06T10:43:24Z","2008-07-06T10:43:47Z","2008-07-06T10:44:43Z","2008-07-06T10:45:23Z","2008-07-06T10:46:02Z","2008-07-06T10:47:15Z","2008-07-06T10:47:33Z","2008-07-06T10:48:16Z","2008-07-06T10:49:18Z","2008-07-06T10:49:49Z","2008-07-06T10:50:15Z","2008-07-06T10:50:46Z","2008-07-06T10:51:04Z","2008-07-06T10:51:48Z","2008-07-06T10:52:29Z","2008-07-06T10:52:48Z","2008-07-06T10:53:06Z","2008-07-06T10:53:28Z","2008-07-06T10:53:51Z","2008-07-06T10:54:40Z","2008-07-06T10:55:01Z","2008-07-06T10:55:40Z","2008-07-06T10:56:57Z","2008-07-06T10:57:28Z","2008-07-06T10:58:16Z","2008-07-06T10:58:33Z","2008-07-06T10:58:55Z","2008-07-06T10:59:09Z","2008-07-06T10:59:28Z","2008-07-06T10:59:48Z","2008-07-06T11:00:07Z","2008-07-06T11:04:11Z","2008-07-06T11:05:22Z","2008-07-06T11:07:06Z","2008-07-06T11:07:37Z","2008-07-06T11:08:02Z","2008-07-06T11:08:55Z","2008-07-06T11:09:35Z","2008-07-06T11:09:53Z","2008-07-06T11:10:20Z","2008-07-06T11:11:02Z","2008-07-06T11:11:35Z","2008-07-06T11:12:00Z","2008-07-06T11:12:25Z","2008-07-06T11:12:43Z","2008-07-06T11:12:58Z","2008-07-06T11:14:04Z","2008-07-06T11:14:22Z","2008-07-06T11:15:14Z","2008-07-06T11:16:13Z","2008-07-06T11:16:52Z","2008-07-06T11:17:12Z","2008-07-06T11:18:02Z","2008-07-06T11:18:40Z","2008-07-06T11:19:59Z","2008-07-06T11:25:05Z","2008-07-06T11:26:00Z","2008-07-06T11:26:19Z","2008-07-06T11:27:07Z","2008-07-06T11:27:26Z","2008-07-06T11:27:50Z","2008-07-06T11:28:17Z","2008-07-06T11:28:33Z","2008-07-06T11:29:04Z","2008-07-06T11:30:19Z","2008-07-06T11:30:42Z","2008-07-06T11:30:55Z","2008-07-06T11:31:36Z","2008-07-06T11:33:30Z","2008-07-06T11:34:04Z","2008-07-06T11:34:56Z","2008-07-06T11:35:55Z","2008-07-06T11:37:37Z","2008-07-06T11:40:09Z","2008-07-06T11:40:50Z","2008-07-06T11:41:07Z","2008-07-06T11:41:28Z","2008-07-06T11:46:22Z","2008-07-06T11:46:42Z","2008-07-06T11:53:05Z","2008-07-06T11:53:30Z","2008-07-06T11:54:27Z","2008-07-06T11:54:47Z","2008-07-06T11:55:08Z","2008-07-06T11:55:52Z","2008-07-06T11:56:24Z","2008-07-06T11:57:13Z","2008-07-06T11:57:47Z","2008-07-06T11:59:35Z","2008-07-06T12:00:04Z","2008-07-06T12:01:22Z","2008-07-06T12:02:03Z","2008-07-06T12:02:32Z","2008-07-06T12:03:18Z","2008-07-06T12:04:25Z","2008-07-06T12:05:02Z","2008-07-06T12:06:51Z","2008-07-06T12:07:30Z","2008-07-06T12:07:57Z","2008-07-06T12:08:52Z","2008-07-06T12:09:22Z","2008-07-06T12:09:48Z","2008-07-06T12:11:14Z","2008-07-06T12:12:41Z","2008-07-06T12:13:18Z","2008-07-06T12:13:43Z","2008-07-06T12:15:08Z","2008-07-06T12:15:41Z","2008-07-06T12:16:14Z","2008-07-06T12:17:26Z","2008-07-06T12:20:28Z","2008-07-06T12:20:53Z","2008-07-06T12:21:14Z","2008-07-06T12:22:02Z","2008-07-06T12:24:37Z","2008-07-06T12:27:44Z","2008-07-06T12:30:15Z","2008-07-06T12:31:19Z","2008-07-06T12:34:13Z","2008-07-06T12:34:51Z","2008-07-06T12:35:12Z","2008-07-06T12:35:38Z","2008-07-06T12:35:51Z","2008-07-06T12:36:10Z","2008-07-06T12:36:34Z","2008-07-06T12:36:50Z","2008-07-06T12:37:14Z","2008-07-06T12:37:30Z","2008-07-06T12:38:06Z","2008-07-06T12:38:24Z","2008-07-06T12:40:52Z","2008-07-06T12:41:35Z","2008-07-06T12:42:12Z","2008-07-06T12:42:48Z","2008-07-06T12:43:10Z","2008-07-06T12:43:55Z","2008-07-06T12:44:56Z","2008-07-06T12:45:15Z","2008-07-06T12:45:32Z","2008-07-06T12:45:53Z","2008-07-06T12:46:22Z","2008-07-06T12:46:46Z","2008-07-06T12:47:08Z","2008-07-06T12:47:29Z","2008-07-06T12:49:21Z","2008-07-06T12:50:40Z","2008-07-06T12:53:15Z","2008-07-06T12:54:00Z","2008-07-06T12:54:31Z","2008-07-06T12:55:27Z","2008-07-06T12:55:59Z","2008-07-06T12:57:15Z","2008-07-06T12:57:38Z","2008-07-06T12:57:58Z","2008-07-06T12:58:37Z","2008-07-06T12:59:45Z","2008-07-06T13:00:07Z","2008-07-06T13:00:29Z","2008-07-06T13:00:41Z","2008-07-06T13:00:58Z","2008-07-06T13:01:17Z","2008-07-06T13:01:36Z","2008-07-06T13:01:57Z","2008-07-06T13:02:39Z","2008-07-06T13:02:56Z","2008-07-06T13:04:06Z","2008-07-06T13:04:45Z","2008-07-06T13:05:10Z","2008-07-06T13:05:25Z","2008-07-06T13:05:45Z","2008-07-06T13:05:51Z","2008-07-06T13:06:12Z","2008-07-06T13:06:32Z","2008-07-06T13:07:22Z","2008-07-06T13:08:36Z","2008-07-06T13:09:24Z","2008-07-06T13:09:42Z","2008-07-06T13:10:05Z","2008-07-06T13:10:28Z","2008-07-06T13:11:21Z","2008-07-06T13:12:43Z","2008-07-06T13:13:24Z","2008-07-06T13:13:51Z","2008-07-06T13:15:03Z","2008-07-06T13:15:17Z","2008-07-06T13:15:33Z","2008-07-06T13:15:57Z","2008-07-06T13:16:16Z","2008-07-06T13:16:33Z","2008-07-06T13:16:51Z","2008-07-06T13:16:54Z","2008-07-06T13:16:58Z","2008-07-06T13:17:14Z","2008-07-06T13:17:40Z","2008-07-06T13:18:22Z","2008-07-06T13:18:54Z","2008-07-06T13:19:11Z","2008-07-06T13:19:36Z","2008-07-06T13:20:11Z","2008-07-06T13:20:41Z","2008-07-06T13:20:56Z","2008-07-06T13:21:18Z","2008-07-06T13:21:49Z","2008-07-06T13:22:19Z","2008-07-06T13:22:48Z","2008-07-06T13:23:22Z","2008-07-06T13:23:42Z","2008-07-06T13:24:17Z","2008-07-06T13:24:43Z","2008-07-06T13:25:05Z","2008-07-06T13:25:17Z","2008-07-06T13:25:40Z","2008-07-06T13:26:03Z","2008-07-06T13:26:56Z","2008-07-06T13:30:09Z","2008-07-06T13:30:28Z","2008-07-06T13:31:42Z","2008-07-06T13:32:23Z","2008-07-06T13:34:26Z","2008-07-06T13:35:10Z","2008-07-06T13:35:55Z","2008-07-06T13:36:24Z","2008-07-06T13:36:47Z","2008-07-06T13:37:25Z","2008-07-06T13:37:40Z","2008-07-06T13:38:01Z","2008-07-06T13:38:36Z","2008-07-06T13:38:57Z","2008-07-06T13:40:33Z","2008-07-06T13:40:55Z","2008-07-06T13:41:18Z","2008-07-06T13:42:02Z","2008-07-06T13:42:18Z","2008-07-06T13:42:46Z","2008-07-06T13:43:25Z","2008-07-06T13:43:51Z","2008-07-06T13:44:09Z","2008-07-06T13:44:30Z","2008-07-06T13:44:49Z","2008-07-06T13:45:08Z","2008-07-06T13:45:29Z","2008-07-06T13:45:52Z","2008-07-06T13:46:07Z","2008-07-06T13:46:23Z","2008-07-06T13:46:44Z","2008-07-06T13:47:07Z","2008-07-06T13:47:22Z","2008-07-06T13:47:44Z","2008-07-06T13:48:03Z","2008-07-06T13:48:30Z","2008-07-06T13:48:49Z","2008-07-06T13:49:03Z","2008-07-06T13:49:23Z","2008-07-06T13:49:46Z","2008-07-06T13:50:12Z","2008-07-06T13:50:43Z","2008-07-06T13:51:07Z","2008-07-06T13:51:25Z","2008-07-06T13:51:48Z","2008-07-06T13:54:15Z","2008-07-06T13:55:17Z","2008-07-06T13:55:52Z","2008-07-06T13:56:10Z","2008-07-06T13:56:30Z","2008-07-06T13:57:08Z","2008-07-06T13:57:24Z","2008-07-06T13:57:45Z","2008-07-06T13:58:07Z","2008-07-06T13:58:23Z","2008-07-06T13:58:51Z","2008-07-06T13:59:18Z","2008-07-06T13:59:37Z","2008-07-06T13:59:53Z","2008-07-06T14:00:08Z","2008-07-06T14:00:30Z","2008-07-06T14:00:53Z","2008-07-06T14:01:20Z","2008-07-06T14:01:38Z","2008-07-06T14:02:11Z","2008-07-06T14:02:56Z","2008-07-06T14:03:24Z","2008-07-06T14:03:58Z","2008-07-06T14:04:42Z","2008-07-06T14:05:18Z","2008-07-06T14:06:01Z","2008-07-06T14:07:14Z","2008-07-06T14:07:34Z","2008-07-06T14:07:56Z","2008-07-06T14:08:50Z","2008-07-06T14:09:08Z","2008-07-06T14:09:31Z","2008-07-06T14:09:45Z","2008-07-06T14:09:51Z","2008-07-06T14:09:55Z","2008-07-06T14:09:58Z","2008-07-06T14:10:02Z","2008-07-06T14:10:11Z","2008-07-06T14:10:18Z","2008-07-06T14:10:23Z","2008-07-06T14:10:26Z","2008-07-06T14:10:36Z","2008-07-06T14:10:38Z","2008-07-06T14:10:45Z","2008-07-06T14:11:07Z","2008-07-06T14:11:18Z","2008-07-06T14:11:28Z","2008-07-06T14:11:39Z","2008-07-06T14:11:50Z","2008-07-06T14:11:59Z","2008-07-06T14:12:12Z","2008-07-06T14:12:30Z","2008-07-06T14:12:50Z","2008-07-06T14:13:01Z","2008-07-06T14:13:13Z","2008-07-06T14:13:23Z","2008-07-06T14:13:34Z","2008-07-06T14:13:47Z","2008-07-06T14:14:13Z","2008-07-06T14:14:28Z","2008-07-06T14:14:57Z","2008-07-06T14:15:10Z","2008-07-06T14:15:26Z","2008-07-06T14:15:40Z","2008-07-06T14:16:01Z","2008-07-06T14:16:14Z","2008-07-06T14:16:29Z","2008-07-06T14:16:42Z","2008-07-06T14:16:53Z","2008-07-06T14:17:32Z","2008-07-06T14:17:46Z","2008-07-06T14:17:48Z","2008-07-06T14:18:00Z","2008-07-06T14:18:11Z","2008-07-06T14:18:25Z","2008-07-06T14:19:10Z","2008-07-06T14:19:20Z","2008-07-06T14:19:33Z","2008-07-06T14:19:43Z","2008-07-06T14:19:55Z","2008-07-06T14:20:09Z","2008-07-06T14:20:18Z","2008-07-06T14:20:21Z","2008-07-06T14:20:45Z","2008-07-06T14:21:00Z","2008-07-06T14:21:11Z","2008-07-06T14:21:16Z","2008-07-06T14:21:34Z","2008-07-06T14:21:48Z","2008-07-06T14:22:00Z","2008-07-06T14:22:12Z","2008-07-06T14:22:30Z","2008-07-06T14:22:33Z","2008-07-06T14:22:36Z","2008-07-06T14:22:38Z","2008-07-06T14:22:46Z","2008-07-06T14:22:58Z","2008-07-06T14:23:07Z","2008-07-06T14:23:16Z","2008-07-06T14:23:19Z","2008-07-06T14:23:44Z","2008-07-06T14:23:58Z","2008-07-06T14:24:03Z","2008-07-06T14:24:05Z","2008-07-06T14:24:16Z","2008-07-06T14:24:28Z","2008-07-06T14:24:50Z","2008-07-06T14:24:51Z","2008-07-06T14:25:02Z","2008-07-06T14:26:30Z","2008-07-06T14:28:24Z","2008-07-06T14:28:41Z","2008-07-06T14:29:02Z","2008-07-06T14:29:34Z","2008-07-06T14:29:58Z","2008-07-06T14:30:20Z","2008-07-06T14:30:40Z","2008-07-06T14:30:58Z","2008-07-06T14:31:14Z","2008-07-06T14:31:31Z","2008-07-06T14:32:17Z","2008-07-06T14:32:49Z","2008-07-06T14:33:23Z","2008-07-06T14:34:00Z","2008-07-06T14:34:21Z","2008-07-06T14:35:06Z","2008-07-06T14:35:26Z","2008-07-06T14:36:03Z","2008-07-06T14:36:54Z","2008-07-06T14:37:26Z","2008-07-06T14:38:47Z","2008-07-06T14:39:13Z","2008-07-06T14:39:57Z","2008-07-06T14:40:13Z","2008-07-06T14:42:12Z","2008-07-06T14:43:10Z","2008-07-06T14:43:33Z","2008-07-06T14:43:58Z","2008-07-06T14:44:16Z","2008-07-06T14:44:35Z","2008-07-06T14:44:49Z","2008-07-06T14:45:15Z","2008-07-06T14:45:39Z","2008-07-06T14:45:52Z"],"type":"marche","month":"2008-07-01"},"geometry":{"type":"LineString","coordinates":[[0.694562,48.895186,203.94],[0.69449,48.895229,204.42],[0.69444,48.895189,204.42],[0.694469,48.895159,203.94],[0.69445,48.895184,203.94],[0.69445,48.895175,204.42],[0.694497,48.895186,204.42],[0.694485,48.895155,204.42],[0.694474,48.895172,204.42],[0.694403,48.895172,204.9],[0.694412,48.895167,205.38],[0.694469,48.895222,205.38],[0.694501,48.895209,205.86],[0.694454,48.895225,205.86],[0.694372,48.895235,206.34],[0.694375,48.895214,206.34],[0.694554,48.895176,206.34],[0.694529,48.895202,206.82],[0.694564,48.895175,206.82],[0.694537,48.895204,206.82],[0.694568,48.895219,206.82],[0.694528,48.895277,206.82],[0.694532,48.895201,206.82],[0.694495,48.895189,206.82],[0.694487,48.895154,206.34],[0.694493,48.895105,206.34],[0.694457,48.895128,206.34],[0.6945,48.895199,206.34],[0.694575,48.895198,206.34],[0.694538,48.895216,206.34],[0.694522,48.89519,205.86],[0.694504,48.895192,205.86],[0.694535,48.895216,206.34],[0.694533,48.895249,206.34],[0.694569,48.895219,206.34],[0.694582,48.895259,206.34],[0.694669,48.895355,206.34],[0.694634,48.895331,206.34],[0.694582,48.895158,206.34],[0.694678,48.895158,206.34],[0.694624,48.895175,206.34],[0.694459,48.895195,206.82],[0.694354,48.895164,206.82],[0.694496,48.895118,206.82],[0.694619,48.89502,206.82],[0.694598,48.895017,206.82],[0.694531,48.895039,206.82],[0.69452,48.895233,206.82],[0.694522,48.895106,206.82],[0.694553,48.895099,206.82],[0.6945,48.895019,206.82],[0.694509,48.895045,206.82],[0.694446,48.894938,206.82],[0.694495,48.894943,206.82],[0.694495,48.894847,206.82],[0.694395,48.894687,206.82],[0.694386,48.89469,206.82],[0.694373,48.894992,206.82],[0.694391,48.895059,206.82],[0.694361,48.895101,206.82],[0.694388,48.895163,206.82],[0.694376,48.895176,206.82],[0.694386,48.895207,206.34],[0.694434,48.895253,206.82],[0.694415,48.895258,206.34],[0.694502,48.895287,206.34],[0.694515,48.895242,206.34],[0.694528,48.895256,206.34],[0.694477,48.895309,206.34],[0.694492,48.895245,206.34],[0.69454,48.895398,206.34],[0.694597,48.895276,206.34],[0.694604,48.895288,206.34],[0.694583,48.895281,206.34],[0.694595,48.895292,206.34],[0.694592,48.895216,206.34],[0.694648,48.895316,207.3],[0.694647,48.895261,206.82],[0.694426,48.895123,206.82],[0.694416,48.895075,206.82],[0.694439,48.895133,206.82],[0.694389,48.895164,206.82],[0.694415,48.895161,207.3],[0.694413,48.895141,207.3],[0.694441,48.895241,207.3],[0.694427,48.895239,207.3],[0.694402,48.895268,207.3],[0.694426,48.89529,207.3],[0.694382,48.895272,207.3],[0.694348,48.895375,207.3],[0.694441,48.895375,207.3],[0.694497,48.895595,207.78],[0.694454,48.895464,207.78],[0.694409,48.895438,207.78],[0.694375,48.895379,207.78],[0.694447,48.895268,207.78],[0.694445,48.895228,207.3],[0.694461,48.895172,207.78],[0.694486,48.895161,207.78],[0.694546,48.895199,207.78],[0.694497,48.895217,207.78],[0.694558,48.895233,207.78],[0.694564,48.895226,207.78],[0.694609,48.895269,207.3],[0.694656,48.895222,207.78],[0.694676,48.895229,207.78],[0.694634,48.895172,207.3],[0.694607,48.89518,207.3],[0.694609,48.895141,207.3],[0.694595,48.895148,207.3],[0.694589,48.895212,207.3],[0.694547,48.895241,207.3],[0.694545,48.895212,207.3],[0.694512,48.895216,207.3],[0.694529,48.895213,207.3],[0.694518,48.895203,207.3],[0.694535,48.895179,207.3],[0.694517,48.895218,207.3],[0.694531,48.895232,207.3],[0.69456,48.895191,207.3],[0.694591,48.895192,207.3],[0.694565,48.895084,207.3],[0.694532,48.895062,207.3],[0.694586,48.895228,207.78],[0.694555,48.895267,207.78],[0.694542,48.895256,207.78],[0.694514,48.895176,207.78],[0.694506,48.895177,207.78],[0.694516,48.895216,207.78],[0.694507,48.895243,207.78],[0.6944,48.895077,207.78],[0.694369,48.895128,207.78],[0.694312,48.895078,207.78],[0.694359,48.895169,207.78],[0.694422,48.895186,207.78],[0.694426,48.895155,207.78],[0.694487,48.895124,207.78],[0.694517,48.895064,207.78],[0.694534,48.895087,207.78],[0.694495,48.895059,207.78],[0.694499,48.895141,207.78],[0.694522,48.89523,207.78],[0.694505,48.895232,207.78],[0.694513,48.895232,207.78],[0.694502,48.895161,207.78],[0.694542,48.895181,207.3],[0.694506,48.895222,207.78],[0.694563,48.895218,207.78],[0.694531,48.895214,207.78],[0.694573,48.89532,207.78],[0.694551,48.89532,207.78],[0.694586,48.895339,207.78],[0.694571,48.895334,207.78],[0.694468,48.89522,207.78],[0.694384,48.895234,207.78],[0.694427,48.895263,207.78],[0.694591,48.89542,207.78],[0.694604,48.895477,207.78],[0.694535,48.895375,207.78],[0.694487,48.895389,207.78],[0.694386,48.895288,207.78],[0.694489,48.895411,207.78],[0.694496,48.895468,207.78],[0.694506,48.89546,207.78],[0.694488,48.895448,207.78],[0.694438,48.895367,207.78],[0.694485,48.895386,207.78],[0.694492,48.895346,207.78],[0.694463,48.89524,207.78],[0.694571,48.89539,207.78],[0.694522,48.895294,207.78],[0.694504,48.89534,207.78],[0.694477,48.895302,207.78],[0.694562,48.895299,207.3],[0.69458,48.895317,207.3],[0.694588,48.895294,207.3],[0.694508,48.895257,207.3],[0.694505,48.895195,207.3],[0.694521,48.895208,207.3],[0.694504,48.895206,207.3],[0.694506,48.895169,207.3],[0.694525,48.895157,206.82],[0.694503,48.89511,206.82],[0.694472,48.895125,206.82],[0.694443,48.895065,206.82],[0.694439,48.895104,206.34],[0.694456,48.895106,206.34],[0.694501,48.895066,206.34],[0.694559,48.895139,206.34],[0.694586,48.895113,206.34],[0.694593,48.895153,205.86],[0.694598,48.895121,205.86],[0.694561,48.895088,205.38],[0.694591,48.895029,205.38],[0.694625,48.89503,205.38],[0.694665,48.895123,204.9],[0.694638,48.895108,204.9],[0.694602,48.89512,204.9],[0.694611,48.895109,204.9],[0.694581,48.895088,204.42],[0.694578,48.89498,204.42],[0.694609,48.89497,203.94],[0.694599,48.895026,203.94],[0.694579,48.895,203.94],[0.694582,48.89505,203.94],[0.694638,48.895006,203.94],[0.694628,48.89496,203.46],[0.694655,48.894984,203.46],[0.694646,48.89499,203.46],[0.694664,48.895042,203.46],[0.694627,48.895137,203.46],[0.694639,48.895107,203.46],[0.694598,48.895136,203.46],[0.694578,48.89514,203.46],[0.694551,48.895193,203.46],[0.694588,48.895172,203.46],[0.694575,48.895241,203.46],[0.694574,48.895158,203.46],[0.694591,48.895152,203.46],[0.694667,48.895228,203.46],[0.694606,48.895224,203.46],[0.694532,48.895182,203.46],[0.69447,48.895106,203.46],[0.694479,48.89509,203.94],[0.694535,48.895136,203.94],[0.694556,48.895126,203.94],[0.694527,48.895121,203.46],[0.69449,48.895194,203.94],[0.694491,48.895149,203.94],[0.694458,48.895134,203.94],[0.694482,48.895165,203.94],[0.694532,48.895179,203.94],[0.69452,48.895192,204.42],[0.694483,48.895136,203.94],[0.694454,48.895113,204.42],[0.694461,48.895111,203.94],[0.694472,48.895138,203.94],[0.69451,48.895093,204.42],[0.694535,48.895113,204.42],[0.694502,48.895153,204.42],[0.69452,48.895165,204.42],[0.694496,48.895191,204.42],[0.694575,48.895119,204.42],[0.694572,48.895179,204.42],[0.694543,48.895196,204.42],[0.694561,48.895182,204.42],[0.694569,48.895218,204.42],[0.694656,48.89525,204.42],[0.694555,48.895253,204.42],[0.694523,48.895072,204.42],[0.694506,48.89508,204.42],[0.694485,48.895121,204.42],[0.694518,48.895212,204.42],[0.69454,48.895233,204.42],[0.694616,48.895257,204.42],[0.694592,48.895261,204.42],[0.694575,48.895275,204.42],[0.694484,48.895238,204.42],[0.694398,48.895169,204.42],[0.694388,48.895183,204.42],[0.694542,48.895407,204.42],[0.694481,48.895486,204.42],[0.694979,48.895203,205.86],[0.694406,48.89521,205.86],[0.694611,48.895242,205.38],[0.694647,48.895237,205.86],[0.694566,48.895222,205.86],[0.694526,48.895203,205.86],[0.694526,48.895177,205.86],[0.694538,48.895171,205.86],[0.694564,48.895092,205.86],[0.694512,48.895114,205.86],[0.694508,48.895123,205.86],[0.694442,48.895128,205.86],[0.694473,48.895159,205.86],[0.694475,48.895208,205.86],[0.694465,48.895218,205.86],[0.694505,48.895237,205.86],[0.694497,48.895252,205.86],[0.694516,48.89524,205.86],[0.694542,48.89528,205.86],[0.694498,48.895263,205.86],[0.694513,48.895265,205.86],[0.694596,48.89524,205.38],[0.6947,48.895234,205.86],[0.694717,48.895159,205.86],[0.694713,48.895206,205.38],[0.694732,48.895254,205.86],[0.694729,48.895318,205.38],[0.694637,48.895223,205.86],[0.694562,48.895228,205.38],[0.69452,48.895141,205.86],[0.694527,48.895219,205.86],[0.694438,48.895239,205.86],[0.694407,48.895219,205.86],[0.694415,48.895212,205.86],[0.694507,48.895248,205.86],[0.694515,48.895268,205.86],[0.694529,48.895227,205.86],[0.694529,48.89518,205.38],[0.694512,48.895153,205.86],[0.694547,48.895153,205.38],[0.694483,48.895157,205.38],[0.694422,48.895179,205.38],[0.694413,48.895201,205.38],[0.694478,48.895273,205.38],[0.694503,48.895265,205.38],[0.694545,48.895274,205.38],[0.694536,48.895247,205.38],[0.69447,48.895231,204.9],[0.69447,48.89528,205.38],[0.694444,48.895247,204.9],[0.694408,48.895233,204.9],[0.694421,48.895225,204.9],[0.694479,48.895233,204.9],[0.694483,48.895256,204.9],[0.694459,48.895245,204.9],[0.694437,48.895283,205.38],[0.694486,48.895274,205.38],[0.69449,48.895297,205.38],[0.694547,48.895309,204.9],[0.694584,48.89528,205.38],[0.694568,48.895249,205.38],[0.694607,48.895217,205.38],[0.694614,48.895235,204.9],[0.694595,48.895252,205.38],[0.694469,48.895264,205.38],[0.694476,48.895246,204.9],[0.694438,48.895219,205.38],[0.694512,48.895239,205.38],[0.694488,48.895217,204.9],[0.694467,48.895237,205.38],[0.694497,48.895194,204.9],[0.694443,48.895223,204.9],[0.69447,48.895225,204.9],[0.694515,48.895247,204.9],[0.694505,48.895232,204.9],[0.694434,48.895268,204.9],[0.694382,48.895309,205.38],[0.694436,48.895263,205.38],[0.694515,48.895222,205.38],[0.694537,48.89523,205.38],[0.694496,48.895244,205.38],[0.694508,48.895203,205.38],[0.694502,48.895227,205.38],[0.69452,48.895233,205.38],[0.694555,48.895221,205.86],[0.694538,48.895201,205.86],[0.694521,48.895199,205.86],[0.694499,48.895184,206.34],[0.694605,48.895245,206.34],[0.694592,48.895246,206.34],[0.6946,48.895229,206.34],[0.694441,48.895174,206.34],[0.694316,48.895109,205.86],[0.694548,48.895306,205.38],[0.69448,48.895262,205.38],[0.694542,48.895289,205.38],[0.694484,48.895253,204.9],[0.69442,48.895159,204.9],[0.694442,48.895159,205.38],[0.694424,48.895189,205.38],[0.694422,48.895177,205.38],[0.694437,48.895176,205.38],[0.694453,48.895203,205.38],[0.694531,48.895203,205.38],[0.694518,48.89524,205.86],[0.694522,48.8952,205.86],[0.694522,48.895221,205.86],[0.694568,48.895174,205.86],[0.694579,48.895199,205.86],[0.694544,48.895223,205.86],[0.694555,48.89523,205.86],[0.694533,48.895227,205.86],[0.694501,48.895207,205.86],[0.694509,48.895184,206.34],[0.694554,48.895317,205.86],[0.694571,48.895312,205.86],[0.694542,48.895309,205.86],[0.694618,48.895327,205.86],[0.69467,48.89535,205.86],[0.694658,48.89531,205.86],[0.694587,48.895295,205.38],[0.694652,48.895332,205.38],[0.694622,48.895314,205.38],[0.694598,48.895337,205.38],[0.694613,48.895338,205.38],[0.694596,48.895317,205.38],[0.694567,48.89532,204.9],[0.694536,48.895291,204.9],[0.69455,48.8953,204.9],[0.694532,48.8953,204.9],[0.694513,48.895266,204.9],[0.694478,48.895257,204.42],[0.694473,48.895288,204.42],[0.694491,48.895221,204.42],[0.694474,48.895223,204.42],[0.694438,48.895193,204.42],[0.694387,48.895194,204.42],[0.694374,48.895158,204.42],[0.694493,48.895235,204.42],[0.69444,48.895225,204.42],[0.69447,48.895229,204.42],[0.694491,48.895224,204.42],[0.694477,48.895233,204.42],[0.694593,48.895245,203.94],[0.694557,48.895217,203.94],[0.694579,48.895206,203.94],[0.694618,48.895221,203.94],[0.694598,48.89522,203.94],[0.694537,48.895168,203.46],[0.694467,48.89517,203.46],[0.694441,48.895193,203.46],[0.694513,48.895234,203.94],[0.694485,48.895239,203.46],[0.694586,48.895256,203.46],[0.694587,48.895269,203.46],[0.694566,48.895266,203.46],[0.694573,48.895278,203.46],[0.694479,48.895248,203.46],[0.694494,48.895238,203.46],[0.694495,48.895222,203.46],[0.694409,48.895167,203.46],[0.694408,48.895178,203.46],[0.694405,48.895147,203.46],[0.694442,48.895194,203.46],[0.694287,48.895183,202.49],[0.694409,48.895207,202.49],[0.694341,48.895213,202.49],[0.694353,48.895215,202.01],[0.694313,48.895179,202.01],[0.694473,48.895266,201.05],[0.694428,48.895227,201.05],[0.694461,48.89524,201.05],[0.69441,48.895225,200.57],[0.694527,48.895228,200.57],[0.694527,48.895309,200.57],[0.694338,48.895312,200.57],[0.694328,48.895203,201.05],[0.694328,48.895223,200.57],[0.694472,48.895233,201.05],[0.694436,48.89521,201.05],[0.694429,48.89527,201.53],[0.694428,48.895232,201.53],[0.69439,48.895192,201.53],[0.694319,48.89517,201.53],[0.694343,48.895164,201.53],[0.694387,48.895205,201.53],[0.694351,48.895343,201.53],[0.694392,48.89524,201.53],[0.694474,48.895218,202.01],[0.694535,48.895181,202.01],[0.694453,48.895192,202.01],[0.694515,48.89517,201.53],[0.69451,48.89518,201.53],[0.694556,48.895198,201.53],[0.694579,48.895227,201.53],[0.694554,48.895213,202.01],[0.694392,48.895188,202.01],[0.694312,48.895263,202.49],[0.694144,48.8953,202.49],[0.694151,48.895262,202.49],[0.694333,48.895168,202.98],[0.694259,48.89519,202.49],[0.694373,48.89516,202.98],[0.69441,48.895086,202.98],[0.694438,48.895156,202.98],[0.694454,48.895261,203.46],[0.694417,48.895255,203.46],[0.694398,48.895135,203.46],[0.694379,48.895157,203.46],[0.694449,48.895115,203.94],[0.694457,48.895147,203.94],[0.694452,48.895262,204.42],[0.694349,48.895228,204.42],[0.694408,48.895178,204.42],[0.694512,48.895113,204.9],[0.694379,48.895219,205.38],[0.694362,48.895213,205.38],[0.694357,48.895233,205.86],[0.694326,48.895246,205.86],[0.694412,48.89522,205.38],[0.694431,48.895277,205.38],[0.694456,48.895254,205.86],[0.694408,48.895263,205.38],[0.694398,48.895316,205.38],[0.694509,48.895268,204.9],[0.694449,48.895264,204.9],[0.694419,48.895249,204.9],[0.694472,48.895236,204.42],[0.694513,48.895202,204.42],[0.694499,48.895183,204.42],[0.694385,48.895246,203.94],[0.694451,48.895272,203.94],[0.694466,48.895334,203.46],[0.694493,48.895342,203.46],[0.694428,48.895254,203.46],[0.69447,48.895278,203.94],[0.694401,48.895316,203.46],[0.694394,48.895284,203.46],[0.694475,48.895267,202.98],[0.694329,48.895237,202.49],[0.694491,48.895293,202.49],[0.694558,48.895275,202.49],[0.694431,48.895271,202.49],[0.694444,48.89525,202.98],[0.694334,48.895263,202.98],[0.694421,48.89526,202.49],[0.694407,48.895276,202.49],[0.694428,48.895322,202.98],[0.694507,48.895435,202.98],[0.694577,48.89542,202.98],[0.694578,48.895431,202.98],[0.694444,48.895338,202.98],[0.694459,48.895326,202.98],[0.694502,48.89537,202.98],[0.694481,48.895364,202.49],[0.69442,48.895319,202.49],[0.694406,48.895241,202.49],[0.694447,48.895258,202.49],[0.694438,48.895317,202.49],[0.694528,48.895339,202.49],[0.694541,48.895297,202.49],[0.694483,48.895178,202.49],[0.69444,48.895219,202.49],[0.694407,48.895202,202.49],[0.694339,48.895265,202.98],[0.69437,48.895231,202.98],[0.694475,48.895266,202.98],[0.694477,48.895306,202.98],[0.694495,48.89532,203.46],[0.694485,48.895227,203.46],[0.694367,48.895221,203.46],[0.694398,48.895186,203.46],[0.694467,48.895272,203.46],[0.69442,48.895326,203.46],[0.694502,48.895309,203.46],[0.694592,48.895304,203.46],[0.694566,48.895337,203.46],[0.694478,48.895323,202.98],[0.694271,48.895322,203.46],[0.69433,48.895348,203.94],[0.694498,48.895295,204.42],[0.694507,48.895278,204.42],[0.694493,48.895317,204.42],[0.694381,48.895287,204.42],[0.694364,48.895374,204.42],[0.694403,48.895346,204.42],[0.694428,48.895357,204.9],[0.694403,48.89534,204.9],[0.694411,48.895417,204.9],[0.69445,48.895416,204.9],[0.694422,48.895422,204.9],[0.694451,48.895495,204.9],[0.694443,48.895468,205.38],[0.69452,48.895337,205.38],[0.694461,48.895217,205.86],[0.694386,48.895269,206.34],[0.694348,48.895217,206.34],[0.694363,48.895295,206.82],[0.694403,48.895264,206.82],[0.694421,48.895216,206.82],[0.694414,48.895285,206.82],[0.694399,48.89524,207.3],[0.694458,48.895277,207.3],[0.694429,48.895254,207.3],[0.694471,48.895254,207.3],[0.694493,48.895315,207.3],[0.694493,48.895288,207.3],[0.694389,48.8953,207.3],[0.694334,48.895279,207.3],[0.694325,48.895299,207.3],[0.694353,48.895293,207.78],[0.694445,48.895309,207.3],[0.694617,48.895231,207.78],[0.69464,48.895247,207.3],[0.694558,48.895291,207.3],[0.694467,48.895278,207.3],[0.694434,48.895265,207.3],[0.694471,48.89526,207.3],[0.694465,48.895342,207.78],[0.694403,48.895271,208.26],[0.694431,48.895261,208.74],[0.694485,48.895214,209.22],[0.694468,48.895178,209.22],[0.694382,48.895187,209.22],[0.694442,48.895255,209.22],[0.694455,48.895237,209.22],[0.694415,48.895254,209.22],[0.694438,48.895244,208.74],[0.694467,48.895186,208.74],[0.694291,48.895288,208.74],[0.694325,48.895289,208.74],[0.694376,48.89524,208.74],[0.694383,48.895299,208.74],[0.694456,48.895268,209.22],[0.694457,48.895298,209.22],[0.694481,48.895244,210.19],[0.694454,48.895263,210.19],[0.694624,48.895149,210.19],[0.694488,48.895226,210.19],[0.694536,48.895195,210.19],[0.694485,48.895211,210.67],[0.694431,48.895216,210.67],[0.69446,48.895259,210.67],[0.69451,48.895283,210.67],[0.694586,48.895269,211.15],[0.694518,48.895275,211.15],[0.694478,48.895291,211.63],[0.694467,48.895312,212.11],[0.694519,48.895317,212.11],[0.694426,48.895306,212.11],[0.694516,48.895267,212.59],[0.694536,48.895294,212.59],[0.694556,48.895288,212.11],[0.694435,48.895238,211.63],[0.694465,48.895269,212.11],[0.694452,48.895288,212.59],[0.69448,48.895277,212.59],[0.694526,48.895219,212.59],[0.694456,48.895211,213.07],[0.694447,48.895194,213.07],[0.694483,48.895253,212.59],[0.694467,48.895266,212.59],[0.69444,48.895236,212.11],[0.694468,48.895268,211.63],[0.694463,48.895279,210.67],[0.694519,48.895164,210.19],[0.694456,48.895281,209.7],[0.694502,48.895255,209.7],[0.694557,48.895197,209.22],[0.694556,48.895111,209.22],[0.694636,48.895009,209.22],[0.694721,48.894782,209.22],[0.694683,48.894855,209.22],[0.694526,48.895287,209.22],[0.694473,48.895366,209.22],[0.694601,48.895325,208.74],[0.694605,48.895334,208.74],[0.694449,48.895269,206.34],[0.694468,48.895248,205.86],[0.694426,48.895309,205.38],[0.694423,48.895267,205.38],[0.694444,48.895354,204.9],[0.694463,48.895342,204.9],[0.694523,48.895239,204.42],[0.694484,48.895229,204.42],[0.694518,48.895285,204.42],[0.694464,48.895187,203.94],[0.69453,48.895211,204.42],[0.694441,48.895236,203.94],[0.694553,48.895293,203.94],[0.694495,48.895299,203.94],[0.694385,48.895336,202.49],[0.694389,48.895261,202.01],[0.69441,48.895229,201.53],[0.69445,48.895207,201.05],[0.694456,48.89517,201.05],[0.694497,48.89516,200.57],[0.694395,48.895237,200.57],[0.694344,48.89521,200.09],[0.694344,48.895203,200.09],[0.694327,48.895261,200.09],[0.694324,48.895245,200.09],[0.694434,48.895216,200.09],[0.694456,48.895155,200.09],[0.694628,48.89523,200.09],[0.694661,48.895088,200.09],[0.694496,48.895051,200.09],[0.694415,48.895173,200.09],[0.694307,48.895182,200.09],[0.694437,48.895242,200.09],[0.694417,48.895176,199.61],[0.694372,48.895177,199.61],[0.694434,48.895231,199.61],[0.694459,48.895267,199.13],[0.694443,48.895384,199.13],[0.694478,48.895193,198.65],[0.694413,48.895128,198.65],[0.694356,48.895119,198.65],[0.694446,48.89522,198.65],[0.69457,48.89525,198.65],[0.694444,48.895271,198.17],[0.694474,48.895307,197.69],[0.694595,48.895321,197.21],[0.694374,48.895383,197.21],[0.694423,48.895339,197.69],[0.69444,48.895308,197.69],[0.694368,48.895356,197.69],[0.694404,48.895382,197.69],[0.694353,48.895387,197.21],[0.694402,48.895333,197.21],[0.694282,48.895341,197.21],[0.694335,48.895299,197.21],[0.694335,48.895287,197.69],[0.694345,48.895339,197.21],[0.69419,48.895377,197.69],[0.694223,48.895349,197.21],[0.694464,48.895221,197.21],[0.694493,48.895215,197.21],[0.694582,48.895228,197.21],[0.694607,48.895269,197.21],[0.694439,48.895333,197.21],[0.694285,48.895299,196.73],[0.694481,48.895314,197.21],[0.694528,48.89523,197.21],[0.694393,48.89523,197.21],[0.694529,48.895183,197.69],[0.694484,48.895236,197.21],[0.694496,48.895234,197.21],[0.694375,48.895256,197.21],[0.694414,48.89531,197.21],[0.694458,48.895301,197.69],[0.694407,48.895243,197.21],[0.694429,48.895188,197.69],[0.694306,48.895142,197.69],[0.69444,48.895223,197.69],[0.69447,48.895319,197.69],[0.694721,48.895432,197.69],[0.694767,48.895424,198.17],[0.694615,48.895393,197.69],[0.694489,48.895381,197.69],[0.694497,48.895295,197.21],[0.694589,48.895407,196.73],[0.694487,48.895304,196.25],[0.694509,48.895335,195.77],[0.694434,48.895324,195.77],[0.694448,48.895328,195.28],[0.694429,48.895316,195.28],[0.694498,48.895282,195.28],[0.694502,48.895294,195.28],[0.694479,48.89526,195.28],[0.694486,48.895206,195.77],[0.694466,48.895241,195.28],[0.694428,48.895258,195.77],[0.694514,48.895275,195.77],[0.694494,48.895238,196.25],[0.694386,48.895252,196.25],[0.694417,48.895217,196.25],[0.694531,48.895132,196.25],[0.694552,48.895202,196.25],[0.694519,48.895218,196.73],[0.694503,48.895215,196.73],[0.694498,48.89528,197.21],[0.694454,48.895229,197.69],[0.69456,48.895267,197.69],[0.694661,48.895258,197.69],[0.694599,48.895245,197.69],[0.694633,48.895201,198.17],[0.694509,48.89521,198.17],[0.69454,48.895237,198.17],[0.694438,48.895203,198.65],[0.694494,48.895251,198.65],[0.69451,48.895246,198.65],[0.69448,48.895181,198.65],[0.694372,48.895101,199.13],[0.694374,48.895117,199.13],[0.69435,48.895125,199.61],[0.694444,48.895257,199.61],[0.694511,48.895188,200.09],[0.694546,48.895137,200.09],[0.694658,48.895172,200.09],[0.694572,48.89522,200.09],[0.694528,48.895134,200.09],[0.694597,48.895122,200.09],[0.694759,48.89512,200.09],[0.694687,48.895105,199.61],[0.69463,48.895114,200.09],[0.694487,48.895228,200.57],[0.694432,48.895149,201.05],[0.694433,48.895106,201.05],[0.694536,48.895095,201.53],[0.694442,48.895105,201.53],[0.694374,48.895125,201.05],[0.694375,48.895154,201.53],[0.694378,48.895108,201.53],[0.694268,48.895121,202.01],[0.694297,48.895152,201.53],[0.694274,48.895126,202.01],[0.694331,48.895214,202.01],[0.694395,48.895238,202.01],[0.694458,48.895201,202.01],[0.69437,48.895178,202.01],[0.694343,48.895237,202.01],[0.694383,48.895214,202.01],[0.694369,48.895228,202.01],[0.694393,48.895252,202.01],[0.694442,48.89524,202.01],[0.694433,48.895116,202.49],[0.694402,48.895236,202.98],[0.694497,48.895212,202.98],[0.694409,48.895195,202.98],[0.694475,48.895203,202.98],[0.694429,48.895193,203.46],[0.694504,48.895206,203.46],[0.694583,48.895181,202.98],[0.694364,48.895135,203.46],[0.694422,48.895124,203.46],[0.694447,48.895164,203.46],[0.694397,48.895128,203.46],[0.694444,48.895123,203.46],[0.694409,48.895207,203.46],[0.694398,48.89519,203.46],[0.694316,48.89516,203.46],[0.694332,48.895128,203.46],[0.694308,48.895142,203.46],[0.694324,48.895178,203.46],[0.694496,48.895164,203.46],[0.694461,48.895204,203.46],[0.694582,48.895187,203.46],[0.694562,48.895173,203.46],[0.694507,48.895159,203.46],[0.694456,48.895166,203.46],[0.69457,48.895133,203.94],[0.69466,48.89512,203.46],[0.694616,48.895138,203.46],[0.694637,48.895172,203.46],[0.694581,48.895173,203.46],[0.694589,48.895187,203.46],[0.69464,48.895166,203.46],[0.694571,48.895162,203.46],[0.694527,48.895207,203.46],[0.694543,48.895215,203.46],[0.694525,48.895222,203.46],[0.694572,48.895221,203.46],[0.69458,48.895197,203.46],[0.694473,48.895202,203.46],[0.694399,48.895184,203.46],[0.694467,48.895145,203.94],[0.694493,48.895109,203.46],[0.694564,48.895107,203.46],[0.69458,48.895146,203.94],[0.694555,48.895128,203.94],[0.694578,48.895117,203.94],[0.694551,48.895141,204.42],[0.694561,48.895115,204.42],[0.694603,48.895131,204.42],[0.694514,48.895094,204.42],[0.694468,48.895118,204.42],[0.694467,48.895129,204.42],[0.694565,48.895117,204.9],[0.694472,48.895087,204.42],[0.694429,48.895105,204.9],[0.694494,48.895083,204.9],[0.694567,48.895097,204.9],[0.694622,48.895068,204.9],[0.694641,48.895109,204.9],[0.694635,48.895088,204.9],[0.694669,48.895104,204.9],[0.694674,48.895118,204.9],[0.694724,48.895122,204.42],[0.694742,48.89515,204.9],[0.694778,48.895152,204.9],[0.694744,48.895127,204.9],[0.694704,48.895119,204.9],[0.694633,48.895064,204.9],[0.694657,48.895093,204.9],[0.694636,48.895116,204.9],[0.694659,48.895171,204.9],[0.694617,48.895222,204.9],[0.694642,48.895215,204.9],[0.69464,48.895179,204.9],[0.694669,48.895153,204.9],[0.694627,48.895106,205.38],[0.694562,48.895138,205.38],[0.694535,48.895179,205.38],[0.694477,48.895225,205.38],[0.694469,48.895212,205.38],[0.694409,48.895217,205.38],[0.694501,48.895244,205.38],[0.694519,48.895269,205.38],[0.694476,48.895287,205.38],[0.694557,48.895235,205.38],[0.694574,48.895207,205.38],[0.694485,48.895154,205.86],[0.694484,48.895162,205.38],[0.694549,48.895172,205.38],[0.694445,48.89514,205.38],[0.694446,48.895196,205.38],[0.694394,48.89523,205.38],[0.694412,48.895218,205.38],[0.694403,48.89524,204.9],[0.694398,48.895196,204.9],[0.694491,48.895242,204.9],[0.694395,48.895269,204.9],[0.694411,48.895242,204.9],[0.694316,48.895254,204.9],[0.694371,48.895211,205.38],[0.694451,48.895188,204.9],[0.694366,48.895157,204.9],[0.694426,48.895188,205.38],[0.694333,48.8952,205.38],[0.694342,48.895185,205.38],[0.694479,48.895183,205.38],[0.694342,48.895204,204.9],[0.694313,48.895221,204.9],[0.694416,48.895173,204.9],[0.694358,48.895187,204.9],[0.694454,48.895192,204.9],[0.694513,48.895205,204.9],[0.694578,48.895195,205.38],[0.694499,48.895178,204.9],[0.694524,48.895167,205.86],[0.694485,48.895168,205.86],[0.694501,48.895251,205.86],[0.694595,48.895306,205.86],[0.694484,48.895207,205.86],[0.694559,48.895199,205.86],[0.694551,48.895187,206.34],[0.694484,48.895305,205.86],[0.694517,48.895337,205.86],[0.694653,48.895309,205.86]]}}]}