{"type":"FeatureCollection","features":[{"type":"Feature","properties":{"name":"gps4cam trip started at: 2019-03-06T10:39:56Z","time":"2019-03-06T12:07:41Z","coordTimes":["2019-03-06T12:07:41Z","2019-03-06T12:07:44Z","2019-03-06T12:07:51Z","2019-03-06T12:09:48Z","2019-03-06T12:13:33Z","2019-03-06T12:13:49Z","2019-03-06T12:14:08Z","2019-03-06T12:16:52Z","2019-03-06T12:19:34Z","2019-03-06T12:23:50Z","2019-03-06T12:24:00Z","2019-03-06T12:24:11Z","2019-03-06T12:24:13Z","2019-03-06T12:24:33Z","2019-03-06T12:25:04Z","2019-03-06T12:26:11Z","2019-03-06T12:44:14Z","2019-03-06T12:44:21Z","2019-03-06T12:44:22Z","2019-03-06T12:45:55Z","2019-03-06T12:48:16Z","2019-03-06T12:49:23Z","2019-03-06T12:49:28Z","2019-03-06T12:49:45Z","2019-03-06T12:50:10Z","2019-03-06T12:50:17Z","2019-03-06T12:50:20Z","2019-03-06T12:50:21Z","2019-03-06T12:50:24Z","2019-03-06T12:50:25Z","2019-03-06T12:50:48Z","2019-03-06T12:51:13Z","2019-03-06T12:51:16Z","2019-03-06T12:51:43Z","2019-03-06T12:51:59Z","2019-03-06T12:54:34Z","2019-03-06T12:54:43Z","2019-03-06T12:54:56Z","2019-03-06T12:55:01Z","2019-03-06T12:55:21Z","2019-03-06T12:55:27Z","2019-03-06T12:56:13Z","2019-03-06T12:57:02Z","2019-03-06T12:57:37Z","2019-03-06T12:58:29Z","2019-03-06T13:05:09Z","2019-03-06T13:05:16Z","2019-03-06T13:05:20Z","2019-03-06T13:05:28Z","2019-03-06T13:06:25Z","2019-03-06T13:06:32Z","2019-03-06T13:07:24Z","2019-03-06T13:07:56Z","2019-03-06T13:09:35Z","2019-03-06T13:14:10Z","2019-03-06T13:14:15Z","2019-03-06T13:14:33Z","2019-03-06T13:14:49Z","2019-03-06T13:15:25Z","2019-03-06T13:15:54Z","2019-03-06T13:21:08Z","2019-03-06T13:21:52Z","2019-03-06T13:23:03Z","2019-03-06T13:24:07Z","2019-03-06T13:24:24Z","2019-03-06T13:25:08Z","2019-03-06T13:25:25Z","2019-03-06T13:26:48Z","2019-03-06T13:30:59Z","2019-03-06T13:31:23Z","2019-03-06T13:35:23Z","2019-03-06T13:36:05Z","2019-03-06T13:36:40Z","2019-03-06T13:37:19Z","2019-03-06T13:37:59Z","2019-03-06T13:43:46Z","2019-03-06T13:49:25Z","2019-03-06T13:50:22Z","2019-03-06T13:51:23Z","2019-03-06T13:57:05Z","2019-03-06T13:57:22Z","2019-03-06T14:02:23Z","2019-03-06T14:05:14Z","2019-03-06T14:10:04Z","2019-03-06T14:10:18Z","2019-03-06T14:10:32Z"],"type":"marche","month":"2019-03-01"},"geometry":{"type":"LineString","coordinates":[[39.603204194,-4.033799494],[39.603109242,-4.033700586],[39.603084568,-4.033563553],[39.603165658,-4.033459914],[39.603095073,-4.033331363],[39.602963638,-4.033279334],[39.602852311,-4.033195361],[39.602861168,-4.033057427],[39.602729863,-4.033010227],[39.602652412,-4.032782817],[39.602683905,-4.032861688],[39.602814345,-4.033032113],[39.602678439,-4.033125148],[39.602694031,-4.033081246],[39.602764225,-4.033195313],[39.602805536,-4.033327067],[39.602970539,-4.033068981],[39.602883187,-4.032940881],[39.60268004,-4.032873871],[39.602647243,-4.03274672],[39.602576918,-4.032627824],[39.60246347,-4.032775817],[39.602502598,-4.032516284],[39.602559892,-4.032618619],[39.602217673,-4.032837986],[39.602623268,-4.032790846],[39.602143317,-4.033035657],[39.602390892,-4.032884058],[39.602454826,-4.032766385],[39.602260713,-4.032723289],[39.602119246,-4.032765744],[39.601984206,-4.032735555],[39.60230041,-4.032640087],[39.602443312,-4.03265074],[39.602588122,-4.032576791],[39.602775369,-4.032521027],[39.602830528,-4.032389095],[39.602693448,-4.032438679],[39.602558147,-4.032398834],[39.602576252,-4.03213745],[39.602763203,-4.032381242],[39.602894509,-4.032428442],[39.603013827,-4.032497706],[39.603050963,-4.032474966],[39.602916836,-4.032478572],[39.602805688,-4.032556447],[39.602699057,-4.032646279],[39.602974129,-4.032580907],[39.602784096,-4.032378264],[39.602677157,-4.032301421],[39.602796735,-4.03238034],[39.602969434,-4.032407102],[39.602818932,-4.032425642],[39.602872751,-4.032554644],[39.602777017,-4.032426768],[39.602896987,-4.032520172],[39.603024297,-4.032574727],[39.602908844,-4.03249328],[39.602801514,-4.032401953],[39.602603406,-4.032366211],[39.602855073,-4.032521298],[39.602552895,-4.032514927],[39.602851077,-4.032528652],[39.603140271,-4.032675484],[39.602929737,-4.032490302],[39.602953333,-4.032897923],[39.602525755,-4.032752396],[39.602508515,-4.032890555],[39.602362791,-4.032930708],[39.60248684,-4.032864565],[39.602399749,-4.03274612],[39.602539307,-4.032788267],[39.602426807,-4.032660843],[39.602517763,-4.032767105],[39.602660534,-4.032772929],[39.602525494,-4.032742739],[39.602453178,-4.032860638],[39.602314924,-4.032866771],[39.602448138,-4.032829369],[39.602354278,-4.032926105],[39.602491097,-4.032866865],[39.602225711,-4.032980292],[39.602230181,-4.032835229],[39.602370295,-4.032587474],[39.602481183,-4.032499943],[39.602544724,-4.032367786]]}}]}